14926KSTC STC20010801110010108/01/01 11:00:31  5-MIN KSTC 011700Z AUTO 00000KT 10SM OVC016 26/23 A3005 910 84 2400 000/00 RMK AO2
14926KSTC STC20010801110510108/01/01 11:05:31  5-MIN KSTC 011705Z AUTO 00000KT 10SM OVC016 26/23 A3005 900 81 2400 000/00 RMK AO2
14926KSTC STC20010801111010108/01/01 11:10:31  5-MIN KSTC 011710Z AUTO 00000KT 10SM OVC016 26/23 A3005 900 81 2400 000/00 RMK AO2
14926KSTC STC20010801111510108/01/01 11:15:31  5-MIN KSTC 011715Z AUTO 00000KT 10SM OVC016 26/23 A3005 900 81 2400 000/00 RMK AO2
14926KSTC STC20010801112010108/01/01 11:20:31  5-MIN KSTC 011720Z AUTO 11004KT 10SM OVC016 26/24 A3005 900 90 2400 110/04 RMK AO2
14926KSTC STC20010801112510108/01/01 11:25:31  5-MIN KSTC 011725Z AUTO 00000KT 10SM OVC016 25/24 A3005 900 93 2300 000/00 RMK AO2
14926KSTC STC20010801113010108/01/01 11:30:31  5-MIN KSTC 011730Z AUTO 12003KT 10SM OVC016 26/24 A3006 900 90 2400 110/03 RMK AO2
14926KSTC STC20010801113510108/01/01 11:35:31  5-MIN KSTC 011735Z AUTO 13003KT 10SM OVC016 26/24 A3006 900 90 2400 120/03 RMK AO2
14926KSTC STC20010801114010108/01/01 11:40:31  5-MIN KSTC 011740Z AUTO 16004KT 10SM OVC016 26/24 A3006 890 93 2400 150/04 RMK AO2
14926KSTC STC20010801114510108/01/01 11:45:31  5-MIN KSTC 011745Z AUTO 14004KT 10SM OVC016 26/24 A3007 890 93 2400 140/04 RMK AO2
14926KSTC STC20010801115013608/01/01 11:50:31  5-MIN KSTC 011750Z AUTO 14005KT 10SM OVC016 26/24 A3006 900 93 2400 140/05 RMK AO2 SLP180 T02560244 10261 20250 53020
14926KSTC STC20010801115510008/01/01 11:55:31  5-MIN KSTC 011755Z AUTO 14006KT 9SM OVC016 26/24 A3006 900 93 2400 140/06 RMK AO2
14926KSTC STC20010801120010708/01/01 12:00:31  5-MIN KSTC 011800Z AUTO 15006KT 8SM FEW007 OVC016 25/24 A3006 900 97 2300 150/06 RMK AO2
14926KSTC STC20010801120510708/01/01 12:05:31  5-MIN KSTC 011805Z AUTO 15005KT 7SM FEW007 OVC016 25/24 A3006 890 97 2300 150/05 RMK AO2
14926KSTC STC20010801121011408/01/01 12:10:31  5-MIN KSTC 011810Z AUTO 15005KT 7SM FEW007 BKN016 OVC028 25/24 A3006 890 97 2300 150/05 RMK AO2
14926KSTC STC20010801121511408/01/01 12:15:31  5-MIN KSTC 011815Z AUTO 15006KT 7SM FEW007 BKN016 OVC026 25/24 A3006 900 97 2300 150/06 RMK AO2
14926KSTC STC20010801122011408/01/01 12:20:31  5-MIN KSTC 011820Z AUTO 16006KT 7SM FEW007 SCT016 OVC024 25/24 A3006 890 97 2300 160/06 RMK AO2
14926KSTC STC20010801122511408/01/01 12:25:31  5-MIN KSTC 011825Z AUTO 17004KT 7SM FEW007 SCT016 OVC024 26/24 A3006 890 93 2400 170/04 RMK AO2
14926KSTC STC20010801123010708/01/01 12:30:31  5-MIN KSTC 011830Z AUTO 18003KT 7SM BKN019 OVC024 26/24 A3006 890 93 2400 180/03 RMK AO2
14926KSTC STC20010801123510708/01/01 12:35:31  5-MIN KSTC 011835Z AUTO 20005KT 7SM SCT016 OVC023 26/24 A3007 890 93 2400 200/05 RMK AO2
14926KSTC STC20010801124010708/01/01 12:40:31  5-MIN KSTC 011840Z AUTO 21003KT 8SM BKN014 OVC024 26/24 A3007 890 93 2400 210/03 RMK AO2
14926KSTC STC20010801124510708/01/01 12:45:31  5-MIN KSTC 011845Z AUTO 00000KT 9SM SCT014 OVC020 26/24 A3006 900 87 2400 000/00 RMK AO2
14926KSTC STC20010801125013208/01/01 12:50:31  5-MIN KSTC 011850Z AUTO 00000KT 10SM SCT014 BKN020 OVC027 27/24 A3006 900 84 2500 000/00 RMK AO2 SLP180 T02670239
14926KSTC STC20010801125511508/01/01 12:55:31  5-MIN KSTC 011855Z AUTO 00000KT 10SM SCT014 BKN020 OVC027 27/24 A3006 890 84 2500 000/00 RMK AO2
14926KSTC STC20010801130011508/01/01 13:00:31  5-MIN KSTC 011900Z AUTO VRB03KT 10SM SCT014 BKN022 OVC033 27/23 A3006 890 79 2500 VRB/03 RMK AO2
14926KSTC STC20010801130511508/01/01 13:05:31  5-MIN KSTC 011905Z AUTO 23004KT 10SM SCT014 BKN020 OVC028 27/24 A3007 890 84 2500 230/04 RMK AO2
14926KSTC STC20010801131010808/01/01 13:10:31  5-MIN KSTC 011910Z AUTO 25006KT 10SM BKN018 OVC028 27/24 A3007 890 82 2500 250/06 RMK AO2
14926KSTC STC20010801131510808/01/01 13:15:31  5-MIN KSTC 011915Z AUTO 25006KT 10SM BKN016 OVC028 27/23 A3007 890 79 2500 250/06 RMK AO2
14926KSTC STC20010801132010808/01/01 13:20:31  5-MIN KSTC 011920Z AUTO VRB04KT 10SM BKN016 OVC030 27/24 A3007 890 82 2500 VRB/04 RMK AO2
14926KSTC STC20010801132510808/01/01 13:25:31  5-MIN KSTC 011925Z AUTO 22005KT 10SM BKN016 OVC028 27/24 A3007 890 82 2500 220/05 RMK AO2
14926KSTC STC20010801133011508/01/01 13:30:31  5-MIN KSTC 011930Z AUTO 24006KT 10SM SCT016 BKN028 OVC033 27/24 A3007 890 82 2500 240/06 RMK AO2
14926KSTC STC20010801133511508/01/01 13:35:31  5-MIN KSTC 011935Z AUTO 25006KT 10SM FEW016 BKN028 OVC035 28/24 A3007 890 79 2600 250/06 RMK AO2
14926KSTC STC20010801134011508/01/01 13:40:31  5-MIN KSTC 011940Z AUTO 26006KT 10SM FEW016 BKN030 BKN035 28/24 A3007 890 79 2600 250/06 RMK AO2
14926KSTC STC20010801134510808/01/01 13:45:31  5-MIN KSTC 011945Z AUTO 23005KT 10SM FEW028 BKN035 28/24 A3007 890 76 2700 230/05 RMK AO2
14926KSTC STC20010801135012508/01/01 13:50:31  5-MIN KSTC 011950Z AUTO 22008KT 10SM FEW028 BKN035 28/24 A3007 890 79 2600 220/08 RMK AO2 SLP183 T02780239
14926KSTC STC20010801135510108/01/01 13:55:31  5-MIN KSTC 011955Z AUTO 24006KT 10SM BKN037 28/24 A3007 890 79 2600 240/06 RMK AO2
14926KSTC STC20010801140010108/01/01 14:00:31  5-MIN KSTC 012000Z AUTO 22007KT 10SM BKN037 28/24 A3007 890 76 2700 220/07 RMK AO2
14926KSTC STC20010801140510108/01/01 14:05:31  5-MIN KSTC 012005Z AUTO 24008KT 10SM BKN037 29/24 A3007 890 74 2700 230/08 RMK AO2
14926KSTC STC20010801141010808/01/01 14:10:31  5-MIN KSTC 012010Z AUTO 22007KT 10SM FEW022 SCT037 28/23 A3007 890 74 2700 220/07 RMK AO2
14926KSTC STC20010801141510808/01/01 14:15:31  5-MIN KSTC 012015Z AUTO 24008KT 10SM FEW022 SCT037 28/23 A3007 890 74 2700 230/08 RMK AO2
14926KSTC STC20010801142010808/01/01 14:20:31  5-MIN KSTC 012020Z AUTO 23008KT 10SM FEW022 BKN037 29/23 A3007 890 71 2700 230/08 RMK AO2
14926KSTC STC20010801142510808/01/01 14:25:31  5-MIN KSTC 012025Z AUTO 24009KT 10SM SCT022 BKN037 28/23 A3007 890 74 2700 230/09 RMK AO2
14926KSTC STC20010801143010808/01/01 14:30:31  5-MIN KSTC 012030Z AUTO 25007KT 10SM SCT024 BKN035 28/23 A3007 890 74 2700 250/07 RMK AO2
14926KSTC STC20010801143510808/01/01 14:35:31  5-MIN KSTC 012035Z AUTO 21010KT 10SM BKN024 BKN033 28/24 A3007 890 79 2600 210/10 RMK AO2
14926KSTC STC20010801144010808/01/01 14:40:31  5-MIN KSTC 012040Z AUTO 22009KT 10SM BKN024 BKN033 28/24 A3007 890 76 2700 220/09 RMK AO2
14926KSTC STC20010801144510808/01/01 14:45:31  5-MIN KSTC 012045Z AUTO 21009KT 10SM SCT024 BKN037 29/24 A3007 890 74 2700 210/09 RMK AO2
14926KSTC STC20010801145013108/01/01 14:50:31  5-MIN KSTC 012050Z AUTO 22009KT 10SM SCT024 SCT037 28/24 A3007 890 76 2700 210/09 RMK AO2 SLP183 T02830239 51022
14926KSTC STC20010801145510808/01/01 14:55:31  5-MIN KSTC 012055Z AUTO 21009KT 10SM FEW024 SCT037 28/24 A3007 890 76 2700 210/09 RMK AO2
14926KSTC STC20010801150010808/01/01 15:00:31  5-MIN KSTC 012100Z AUTO 20009KT 10SM FEW022 SCT095 28/24 A3007 890 76 2700 200/09 RMK AO2
14926KSTC STC20010801150510108/01/01 15:05:31  5-MIN KSTC 012105Z AUTO 23010KT 10SM FEW038 29/24 A3007 890 74 2700 230/10 RMK AO2
14926KSTC STC20010801151010108/01/01 15:10:31  5-MIN KSTC 012110Z AUTO 21009KT 10SM FEW038 29/23 A3007 890 71 2700 210/09 RMK AO2
14926KSTC STC20010801151509808/01/01 15:15:31  5-MIN KSTC 012115Z AUTO 23010KT 10SM CLR 29/23 A3007 890 71 2700 230/10 RMK AO2
14926KSTC STC20010801152009808/01/01 15:20:31  5-MIN KSTC 012120Z AUTO 23010KT 10SM CLR 29/23 A3007 890 71 2700 230/10 RMK AO2
14926KSTC STC20010801152509808/01/01 15:25:31  5-MIN KSTC 012125Z AUTO 24009KT 10SM CLR 29/23 A3007 890 69 2700 230/09 RMK AO2
14926KSTC STC20010801153009808/01/01 15:30:31  5-MIN KSTC 012130Z AUTO 23008KT 10SM CLR 29/23 A3007 890 69 2700 230/08 RMK AO2
14926KSTC STC20010801153509808/01/01 15:35:31  5-MIN KSTC 012135Z AUTO 23009KT 10SM CLR 29/23 A3007 890 69 2700 230/09 RMK AO2
14926KSTC STC20010801154009808/01/01 15:40:31  5-MIN KSTC 012140Z AUTO 25011KT 10SM CLR 29/22 A3007 880 67 2700 250/11 RMK AO2
14926KSTC STC20010801154509808/01/01 15:45:31  5-MIN KSTC 012145Z AUTO 24008KT 10SM CLR 29/23 A3007 890 67 2800 240/08 RMK AO2
14926KSTC STC20010801155011508/01/01 15:50:31  5-MIN KSTC 012150Z AUTO 26010KT 10SM CLR 29/22 A3008 880 64 2800 250/10 RMK AO2 SLP185 T02940222
14926KSTC STC20010801155509808/01/01 15:55:31  5-MIN KSTC 012155Z AUTO 24009KT 10SM CLR 29/23 A3008 880 67 2800 230/09 RMK AO2
14926KSTC STC20010801160009808/01/01 16:00:31  5-MIN KSTC 012200Z AUTO 24010KT 10SM CLR 29/23 A3008 880 67 2800 240/10 RMK AO2
14926KSTC STC20010801160509808/01/01 16:05:31  5-MIN KSTC 012205Z AUTO 25009KT 10SM CLR 29/23 A3008 880 69 2700 250/09 RMK AO2
14926KSTC STC20010801161009808/01/01 16:10:31  5-MIN KSTC 012210Z AUTO 23009KT 10SM CLR 29/23 A3008 880 69 2700 220/09 RMK AO2
14926KSTC STC20010801161509808/01/01 16:15:31  5-MIN KSTC 012215Z AUTO 24007KT 10SM CLR 29/23 A3008 880 67 2800 240/07 RMK AO2
14926KSTC STC20010801162009808/01/01 16:20:31  5-MIN KSTC 012220Z AUTO 25011KT 10SM CLR 29/22 A3008 880 64 2800 250/11 RMK AO2
14926KSTC STC20010801162509808/01/01 16:25:31  5-MIN KSTC 012225Z AUTO 25008KT 10SM CLR 29/23 A3008 880 67 2800 240/08 RMK AO2
14926KSTC STC20010801163009808/01/01 16:30:31  5-MIN KSTC 012230Z AUTO 23008KT 10SM CLR 29/23 A3008 880 69 2700 230/08 RMK AO2
14926KSTC STC20010801163509808/01/01 16:35:31  5-MIN KSTC 012235Z AUTO 24010KT 10SM CLR 29/23 A3008 880 67 2800 240/10 RMK AO2
14926KSTC STC20010801164009808/01/01 16:40:31  5-MIN KSTC 012240Z AUTO 25009KT 10SM CLR 29/22 A3008 880 67 2700 250/09 RMK AO2
14926KSTC STC20010801164509808/01/01 16:45:31  5-MIN KSTC 012245Z AUTO 26009KT 10SM CLR 29/23 A3008 880 67 2800 260/09 RMK AO2
14926KSTC STC20010801165011508/01/01 16:50:31  5-MIN KSTC 012250Z AUTO 25009KT 10SM CLR 29/23 A3008 880 67 2800 250/09 RMK AO2 SLP186 T02940228
14926KSTC STC20010801165509808/01/01 16:55:31  5-MIN KSTC 012255Z AUTO 25007KT 10SM CLR 29/22 A3008 880 67 2700 250/07 RMK AO2
14926KSTC STC20010801170009808/01/01 17:00:31  5-MIN KSTC 012300Z AUTO 24009KT 10SM CLR 29/23 A3008 880 67 2800 240/09 RMK AO2
14926KSTC STC20010801170509808/01/01 17:05:31  5-MIN KSTC 012305Z AUTO 25010KT 10SM CLR 29/22 A3008 880 67 2700 240/10 RMK AO2
14926KSTC STC20010801171009808/01/01 17:10:31  5-MIN KSTC 012310Z AUTO 24010KT 10SM CLR 29/22 A3008 880 67 2700 230/10 RMK AO2
14926KSTC STC20010801171509808/01/01 17:15:31  5-MIN KSTC 012315Z AUTO 24008KT 10SM CLR 29/22 A3008 880 67 2700 240/08 RMK AO2
14926KSTC STC20010801172009808/01/01 17:20:31  5-MIN KSTC 012320Z AUTO 24009KT 10SM CLR 29/22 A3008 880 64 2700 240/09 RMK AO2
14926KSTC STC20010801172509808/01/01 17:25:31  5-MIN KSTC 012325Z AUTO 25007KT 10SM CLR 29/22 A3008 880 64 2700 250/07 RMK AO2
14926KSTC STC20010801173009808/01/01 17:30:31  5-MIN KSTC 012330Z AUTO 25008KT 10SM CLR 29/22 A3007 880 64 2700 240/08 RMK AO2
14926KSTC STC20010801173509808/01/01 17:35:31  5-MIN KSTC 012335Z AUTO 25008KT 10SM CLR 29/22 A3007 880 67 2700 250/08 RMK AO2
14926KSTC STC20010801174009808/01/01 17:40:31  5-MIN KSTC 012340Z AUTO 26008KT 10SM CLR 29/22 A3007 890 64 2700 260/08 RMK AO2
14926KSTC STC20010801174509808/01/01 17:45:31  5-MIN KSTC 012345Z AUTO 26007KT 10SM CLR 29/22 A3007 880 67 2700 260/07 RMK AO2
14926KSTC STC20010801175013308/01/01 17:50:31  5-MIN KSTC 012350Z AUTO 25007KT 10SM CLR 29/22 A3008 880 67 2700 250/07 RMK AO2 SLP185 T02890222 10294 20250 51003
14926KSTC STC20010801175509808/01/01 17:55:31  5-MIN KSTC 012355Z AUTO 26009KT 10SM CLR 29/22 A3008 880 64 2700 260/09 RMK AO2
14926KSTC STC20010801180009808/01/01 18:00:31  5-MIN KSTC 020000Z AUTO 26008KT 10SM CLR 28/22 A3007 890 66 2700 250/08 RMK AO2
14926KSTC STC20010801180509808/01/01 18:05:31  5-MIN KSTC 020005Z AUTO 26008KT 10SM CLR 28/22 A3007 890 66 2700 260/08 RMK AO2
14926KSTC STC20010801181009808/01/01 18:10:31  5-MIN KSTC 020010Z AUTO 25008KT 10SM CLR 28/22 A3007 880 66 2700 240/08 RMK AO2
14926KSTC STC20010801181509808/01/01 18:15:31  5-MIN KSTC 020015Z AUTO 25007KT 10SM CLR 28/22 A3007 880 66 2700 250/07 RMK AO2
14926KSTC STC20010801182009808/01/01 18:20:31  5-MIN KSTC 020020Z AUTO 25008KT 10SM CLR 28/22 A3007 880 69 2700 250/08 RMK AO2
14926KSTC STC20010801182509808/01/01 18:25:31  5-MIN KSTC 020025Z AUTO 27006KT 10SM CLR 28/22 A3008 880 66 2700 270/06 RMK AO2
14926KSTC STC20010801183009808/01/01 18:30:31  5-MIN KSTC 020030Z AUTO 28007KT 10SM CLR 28/22 A3008 880 66 2700 280/07 RMK AO2
14926KSTC STC20010801183509808/01/01 18:35:31  5-MIN KSTC 020035Z AUTO 28006KT 10SM CLR 28/21 A3007 880 62 2700 270/06 RMK AO2
14926KSTC STC20010801184009808/01/01 18:40:31  5-MIN KSTC 020040Z AUTO 29005KT 10SM CLR 28/21 A3008 880 64 2700 290/05 RMK AO2
14926KSTC STC20010801184509808/01/01 18:45:31  5-MIN KSTC 020045Z AUTO 29006KT 10SM CLR 28/21 A3008 880 62 2700 280/06 RMK AO2
14926KSTC STC20010801185011508/01/01 18:50:31  5-MIN KSTC 020050Z AUTO 29007KT 10SM CLR 28/21 A3008 880 66 2600 280/07 RMK AO2 SLP186 T02780211
14926KSTC STC20010801185509808/01/01 18:55:31  5-MIN KSTC 020055Z AUTO 28007KT 10SM CLR 28/21 A3008 880 64 2600 270/07 RMK AO2
14926KSTC STC20010801190009808/01/01 19:00:31  5-MIN KSTC 020100Z AUTO 28005KT 10SM CLR 28/21 A3008 880 64 2600 270/05 RMK AO2
14926KSTC STC20010801190509808/01/01 19:05:31  5-MIN KSTC 020105Z AUTO 28005KT 10SM CLR 27/21 A3008 880 69 2500 280/05 RMK AO2
14926KSTC STC20010801191009808/01/01 19:10:31  5-MIN KSTC 020110Z AUTO 27004KT 10SM CLR 27/22 A3008 880 73 2500 260/04 RMK AO2
14926KSTC STC20010801191509808/01/01 19:15:31  5-MIN KSTC 020115Z AUTO 27004KT 10SM CLR 27/22 A3009 870 73 2500 260/04 RMK AO2
14926KSTC STC20010801192009808/01/01 19:20:31  5-MIN KSTC 020120Z AUTO 27003KT 10SM CLR 27/22 A3009 870 73 2500 260/03 RMK AO2
14926KSTC STC20010801192509808/01/01 19:25:31  5-MIN KSTC 020125Z AUTO 27005KT 10SM CLR 26/22 A3009 870 76 2400 270/05 RMK AO2
14926KSTC STC20010801193009808/01/01 19:30:31  5-MIN KSTC 020130Z AUTO 28006KT 10SM CLR 26/21 A3009 870 73 2400 280/06 RMK AO2
14926KSTC STC20010801193509808/01/01 19:35:31  5-MIN KSTC 020135Z AUTO 28006KT 10SM CLR 26/21 A3009 870 73 2400 280/06 RMK AO2
14926KSTC STC20010801194009808/01/01 19:40:31  5-MIN KSTC 020140Z AUTO 29005KT 10SM CLR 26/21 A3009 870 76 2300 290/05 RMK AO2
14926KSTC STC20010801194509808/01/01 19:45:31  5-MIN KSTC 020145Z AUTO 30005KT 10SM CLR 25/21 A3009 870 79 2300 300/05 RMK AO2
14926KSTC STC20010801195011508/01/01 19:50:31  5-MIN KSTC 020150Z AUTO 31005KT 10SM CLR 25/21 A3010 860 79 2300 310/05 RMK AO2 SLP194 T02500211
14926KSTC STC20010801195509808/01/01 19:55:31  5-MIN KSTC 020155Z AUTO 30007KT 10SM CLR 25/21 A3010 860 76 2300 290/07 RMK AO2
14926KSTC STC20010801200009808/01/01 20:00:31  5-MIN KSTC 020200Z AUTO 30009KT 10SM CLR 26/20 A3010 860 71 2300 300/09 RMK AO2
14926KSTC STC20010801200509808/01/01 20:05:31  5-MIN KSTC 020205Z AUTO 32006KT 10SM CLR 25/21 A3010 860 76 2300 320/06 RMK AO2
14926KSTC STC20010801201009808/01/01 20:10:31  5-MIN KSTC 020210Z AUTO 32007KT 10SM CLR 24/20 A3010 860 76 2200 320/07 RMK AO2
14926KSTC STC20010801201509808/01/01 20:15:31  5-MIN KSTC 020215Z AUTO 31008KT 10SM CLR 24/20 A3011 860 76 2200 310/08 RMK AO2
14926KSTC STC20010801202009808/01/01 20:20:31  5-MIN KSTC 020220Z AUTO 31007KT 10SM CLR 24/20 A3011 850 76 2200 310/07 RMK AO2
14926KSTC STC20010801202509808/01/01 20:25:31  5-MIN KSTC 020225Z AUTO 31006KT 10SM CLR 24/20 A3011 850 78 2100 310/06 RMK AO2
14926KSTC STC20010801203009808/01/01 20:30:31  5-MIN KSTC 020230Z AUTO 31006KT 10SM CLR 23/20 A3011 850 81 2000 310/06 RMK AO2
14926KSTC STC20010801203509808/01/01 20:35:31  5-MIN KSTC 020235Z AUTO 31006KT 10SM CLR 23/20 A3012 840 84 2000 310/06 RMK AO2
14926KSTC STC20010801204009808/01/01 20:40:31  5-MIN KSTC 020240Z AUTO 31006KT 10SM CLR 23/19 A3012 840 81 2000 310/06 RMK AO2
14926KSTC STC20010801204509808/01/01 20:45:31  5-MIN KSTC 020245Z AUTO 32006KT 10SM CLR 23/19 A3012 840 81 2000 310/06 RMK AO2
14926KSTC STC20010801205012108/01/01 20:50:31  5-MIN KSTC 020250Z AUTO 32005KT 10SM CLR 23/19 A3012 840 81 2000 320/05 RMK AO2 SLP203 T02280194 50002
14926KSTC STC20010801205509808/01/01 20:55:31  5-MIN KSTC 020255Z AUTO 32005KT 10SM CLR 23/19 A3013 840 78 2000 310/05 RMK AO2
14926KSTC STC20010801210009808/01/01 21:00:31  5-MIN KSTC 020300Z AUTO 32005KT 10SM CLR 23/19 A3013 830 81 2000 310/05 RMK AO2
14926KSTC STC20010801210509808/01/01 21:05:31  5-MIN KSTC 020305Z AUTO 31006KT 10SM CLR 22/19 A3014 830 84 1900 310/06 RMK AO2
14926KSTC STC20010801211009808/01/01 21:10:31  5-MIN KSTC 020310Z AUTO 32005KT 10SM CLR 22/19 A3014 820 84 1900 320/05 RMK AO2
14926KSTC STC20010801211509808/01/01 21:15:31  5-MIN KSTC 020315Z AUTO 32005KT 10SM CLR 23/19 A3014 830 81 2000 320/05 RMK AO2
14926KSTC STC20010801212009808/01/01 21:20:31  5-MIN KSTC 020320Z AUTO 32005KT 10SM CLR 22/19 A3014 830 84 1900 320/05 RMK AO2
14926KSTC STC20010801212509808/01/01 21:25:31  5-MIN KSTC 020325Z AUTO 32004KT 10SM CLR 22/19 A3014 830 84 1900 320/04 RMK AO2
14926KSTC STC20010801213009808/01/01 21:30:31  5-MIN KSTC 020330Z AUTO 33004KT 10SM CLR 22/19 A3014 820 84 1900 320/04 RMK AO2
14926KSTC STC20010801213509808/01/01 21:35:31  5-MIN KSTC 020335Z AUTO 33003KT 10SM CLR 22/19 A3014 820 84 1900 330/03 RMK AO2
14926KSTC STC20010801214009808/01/01 21:40:31  5-MIN KSTC 020340Z AUTO 33004KT 10SM CLR 22/19 A3014 820 84 1900 330/04 RMK AO2
14926KSTC STC20010801214509808/01/01 21:45:31  5-MIN KSTC 020345Z AUTO 33004KT 10SM CLR 22/19 A3014 820 84 1900 320/04 RMK AO2
14926KSTC STC20010801215011508/01/01 21:50:31  5-MIN KSTC 020350Z AUTO 33005KT 10SM CLR 22/19 A3015 820 81 1900 320/05 RMK AO2 SLP211 T02220189
14926KSTC STC20010801215509808/01/01 21:55:31  5-MIN KSTC 020355Z AUTO 33004KT 10SM CLR 22/19 A3015 820 84 1800 320/04 RMK AO2
14926KSTC STC20010801220009808/01/01 22:00:31  5-MIN KSTC 020400Z AUTO 33004KT 10SM CLR 21/19 A3015 820 87 1800 320/04 RMK AO2
14926KSTC STC20010801220509808/01/01 22:05:31  5-MIN KSTC 020405Z AUTO 33005KT 10SM CLR 21/19 A3015 810 87 1800 320/05 RMK AO2
14926KSTC STC20010801221009808/01/01 22:10:31  5-MIN KSTC 020410Z AUTO 33004KT 10SM CLR 21/19 A3015 810 87 1800 330/04 RMK AO2
14926KSTC STC20010801221509808/01/01 22:15:31  5-MIN KSTC 020415Z AUTO 33004KT 10SM CLR 21/19 A3015 810 87 1800 330/04 RMK AO2
14926KSTC STC20010801222009808/01/01 22:20:31  5-MIN KSTC 020420Z AUTO 33004KT 10SM CLR 21/19 A3015 810 87 1800 330/04 RMK AO2
14926KSTC STC20010801222509808/01/01 22:25:31  5-MIN KSTC 020425Z AUTO 33004KT 10SM CLR 21/19 A3015 810 90 1700 320/04 RMK AO2
14926KSTC STC20010801223009808/01/01 22:30:31  5-MIN KSTC 020430Z AUTO 33005KT 10SM CLR 21/18 A3015 820 87 1700 320/05 RMK AO2
14926KSTC STC20010801223509808/01/01 22:35:31  5-MIN KSTC 020435Z AUTO 33005KT 10SM CLR 20/18 A3015 820 90 1600 320/05 RMK AO2
14926KSTC STC20010801224009808/01/01 22:40:31  5-MIN KSTC 020440Z AUTO 33005KT 10SM CLR 21/18 A3015 820 87 1700 330/05 RMK AO2
14926KSTC STC20010801224509808/01/01 22:45:31  5-MIN KSTC 020445Z AUTO 33005KT 10SM CLR 21/19 A3014 820 90 1700 330/05 RMK AO2
14926KSTC STC20010801225011508/01/01 22:50:31  5-MIN KSTC 020450Z AUTO 33005KT 10SM CLR 21/19 A3014 820 87 1800 330/05 RMK AO2 SLP211 T02110189
14926KSTC STC20010801225509808/01/01 22:55:31  5-MIN KSTC 020455Z AUTO 34005KT 10SM CLR 21/18 A3014 820 87 1700 330/05 RMK AO2
14926KSTC STC20010802013509808/02/01 01:35:31  5-MIN KSTC 020735Z AUTO 34003KT 10SM CLR 19/17 A3018 790 90 1500 340/03 RMK AO2
14926KSTC STC20010802014009808/02/01 01:40:31  5-MIN KSTC 020740Z AUTO 36003KT 10SM CLR 19/17 A3018 790 90 1500 350/03 RMK AO2
14926KSTC STC20010802014509808/02/01 01:45:31  5-MIN KSTC 020745Z AUTO 36003KT 10SM CLR 18/17 A3018 790 93 1400 350/03 RMK AO2
14926KSTC STC20010802015011508/02/01 01:50:31  5-MIN KSTC 020750Z AUTO 35003KT 10SM CLR 18/17 A3018 790 93 1400 340/03 RMK AO2 SLP224 T01830172
14926KSTC STC20010802015509808/02/01 01:55:31  5-MIN KSTC 020755Z AUTO 34004KT 10SM CLR 18/17 A3018 790 93 1400 340/04 RMK AO2
14926KSTC STC20010802020009808/02/01 02:00:31  5-MIN KSTC 020800Z AUTO 34004KT 10SM CLR 18/17 A3018 790 93 1400 340/04 RMK AO2
14926KSTC STC20010802020509808/02/01 02:05:31  5-MIN KSTC 020805Z AUTO 34004KT 10SM CLR 18/17 A3018 790 93 1400 340/04 RMK AO2
14926KSTC STC20010802021009808/02/01 02:10:31  5-MIN KSTC 020810Z AUTO 34004KT 10SM CLR 18/17 A3018 780 96 1300 340/04 RMK AO2
14926KSTC STC20010802021509808/02/01 02:15:31  5-MIN KSTC 020815Z AUTO 34003KT 10SM CLR 18/17 A3019 780 93 1400 340/03 RMK AO2
14926KSTC STC20010802022009808/02/01 02:20:31  5-MIN KSTC 020820Z AUTO 35003KT 10SM CLR 18/17 A3019 780 93 1400 340/03 RMK AO2
14926KSTC STC20010802022509808/02/01 02:25:31  5-MIN KSTC 020825Z AUTO 34003KT 10SM CLR 18/17 A3019 780 96 1300 340/03 RMK AO2
14926KSTC STC20010802023009908/02/01 02:30:31  5-MIN KSTC 020830Z AUTO 34003KT 10SM CLR 17/17 A3019 780 100 1300 340/03 RMK AO2
14926KSTC STC20010802023509908/02/01 02:35:31  5-MIN KSTC 020835Z AUTO 35003KT 10SM CLR 17/17 A3019 780 100 1200 340/03 RMK AO2
14926KSTC STC20010802024009908/02/01 02:40:31  5-MIN KSTC 020840Z AUTO 35003KT 10SM CLR 17/17 A3019 780 100 1300 350/03 RMK AO2
14926KSTC STC20010802024509808/02/01 02:45:31  5-MIN KSTC 020845Z AUTO 35003KT 10SM CLR 17/17 A3019 780 96 1300 340/03 RMK AO2
14926KSTC STC20010802025012208/02/01 02:50:31  5-MIN KSTC 020850Z AUTO 34004KT 10SM CLR 17/17 A3019 780 100 1200 340/04 RMK AO2 SLP226 T01670167 51010
14926KSTC STC20010802025509908/02/01 02:55:31  5-MIN KSTC 020855Z AUTO 34004KT 10SM CLR 17/17 A3019 780 100 1200 340/04 RMK AO2
14926KSTC STC20010802030009808/02/01 03:00:31  5-MIN KSTC 020900Z AUTO 35004KT 10SM CLR 17/16 A3019 780 96 1200 350/04 RMK AO2
14926KSTC STC20010802030509908/02/01 03:05:31  5-MIN KSTC 020905Z AUTO 00000KT 10SM CLR 16/16 A3019 780 100 1100 000/00 RMK AO2
14926KSTC STC20010802031009908/02/01 03:10:31  5-MIN KSTC 020910Z AUTO 35003KT 10SM CLR 17/17 A3019 780 100 1200 340/03 RMK AO2
14926KSTC STC20010802031509908/02/01 03:15:31  5-MIN KSTC 020915Z AUTO 34003KT 10SM CLR 16/16 A3019 770 100 1100 340/03 RMK AO2
14926KSTC STC20010802032009908/02/01 03:20:31  5-MIN KSTC 020920Z AUTO 35003KT 10SM CLR 16/16 A3019 770 100 1100 350/03 RMK AO2
14926KSTC STC20010802032509908/02/01 03:25:31  5-MIN KSTC 020925Z AUTO 00000KT 10SM CLR 16/16 A3020 770 100 1100 000/00 RMK AO2
14926KSTC STC20010802033009908/02/01 03:30:31  5-MIN KSTC 020930Z AUTO 00000KT 10SM CLR 16/16 A3020 770 100 1100 000/00 RMK AO2
14926KSTC STC20010802033509908/02/01 03:35:31  5-MIN KSTC 020935Z AUTO 00000KT 10SM CLR 16/16 A3020 770 100 1100 000/00 RMK AO2
14926KSTC STC20010802034009908/02/01 03:40:31  5-MIN KSTC 020940Z AUTO 00000KT 10SM CLR 16/16 A3020 770 100 1100 000/00 RMK AO2
14926KSTC STC20010802034509908/02/01 03:45:31  5-MIN KSTC 020945Z AUTO 00000KT 10SM CLR 16/16 A3020 760 100 1100 000/00 RMK AO2
14926KSTC STC20010802035011608/02/01 03:50:31  5-MIN KSTC 020950Z AUTO 00000KT 10SM CLR 16/16 A3020 760 100 1100 000/00 RMK AO2 SLP232 T01610161
14926KSTC STC20010802035509908/02/01 03:55:31  5-MIN KSTC 020955Z AUTO 00000KT 10SM CLR 16/16 A3020 770 100 1100 000/00 RMK AO2
14926KSTC STC20010802040009908/02/01 04:00:31  5-MIN KSTC 021000Z AUTO 00000KT 10SM CLR 16/16 A3020 770 100 1000 000/00 RMK AO2
14926KSTC STC20010802040509908/02/01 04:05:31  5-MIN KSTC 021005Z AUTO 00000KT 10SM CLR 16/16 A3021 760 100 1100 000/00 RMK AO2
14926KSTC STC20010802041009908/02/01 04:10:31  5-MIN KSTC 021010Z AUTO 00000KT 10SM CLR 17/17 A3021 760 100 1200 000/00 RMK AO2
14926KSTC STC20010802041509908/02/01 04:15:31  5-MIN KSTC 021015Z AUTO 33003KT 10SM CLR 16/16 A3021 760 100 1000 330/03 RMK AO2
14926KSTC STC20010802042009908/02/01 04:20:31  5-MIN KSTC 021020Z AUTO 33003KT 10SM CLR 16/16 A3021 760 100 1000 330/03 RMK AO2
14926KSTC STC20010802042509908/02/01 04:25:31  5-MIN KSTC 021025Z AUTO 34003KT 10SM CLR 16/16 A3021 760 100 1000 340/03 RMK AO2
14926KSTC STC20010802043009908/02/01 04:30:31  5-MIN KSTC 021030Z AUTO 34003KT 10SM CLR 16/16 A3021 760 100 1000 330/03 RMK AO2
14926KSTC STC20010802043509908/02/01 04:35:31  5-MIN KSTC 021035Z AUTO 35003KT 10SM CLR 16/16 A3021 760 100 1000 340/03 RMK AO2
14926KSTC STC20010802044009908/02/01 04:40:31  5-MIN KSTC 021040Z AUTO 00000KT 10SM CLR 16/16 A3021 760 100 1100 000/00 RMK AO2
14926KSTC STC20010802044509908/02/01 04:45:31  5-MIN KSTC 021045Z AUTO 35003KT 10SM CLR 16/16 A3021 760 100 1100 350/03 RMK AO2
14926KSTC STC20010802045011608/02/01 04:50:31  5-MIN KSTC 021050Z AUTO 35003KT 10SM CLR 16/16 A3021 760 100 1100 350/03 RMK AO2 SLP234 T01610161
14926KSTC STC20010802045509908/02/01 04:55:31  5-MIN KSTC 021055Z AUTO 35003KT 10SM CLR 16/16 A3021 760 100 1100 350/03 RMK AO2
14926KSTC STC20010802050009908/02/01 05:00:31  5-MIN KSTC 021100Z AUTO 34003KT 10SM CLR 16/16 A3021 760 100 1100 330/03 RMK AO2
14926KSTC STC20010802050509908/02/01 05:05:31  5-MIN KSTC 021105Z AUTO 33003KT 10SM CLR 16/16 A3021 760 100 1100 330/03 RMK AO2
14926KSTC STC20010802051009908/02/01 05:10:31  5-MIN KSTC 021110Z AUTO 35004KT 10SM CLR 16/16 A3021 760 100 1100 340/04 RMK AO2
14926KSTC STC20010802051509908/02/01 05:15:31  5-MIN KSTC 021115Z AUTO 35003KT 10SM CLR 16/16 A3021 760 100 1000 340/03 RMK AO2
14926KSTC STC20010802052009908/02/01 05:20:31  5-MIN KSTC 021120Z AUTO 35004KT 10SM CLR 16/16 A3020 760 100 1000 340/04 RMK AO2
14926KSTC STC20010802052509908/02/01 05:25:31  5-MIN KSTC 021125Z AUTO 00000KT 10SM CLR 16/16 A3021 760 100 1100 000/00 RMK AO2
14926KSTC STC20010802053009908/02/01 05:30:31  5-MIN KSTC 021130Z AUTO 34003KT 10SM CLR 16/16 A3021 760 100 1100 340/03 RMK AO2
14926KSTC STC20010802053509908/02/01 05:35:31  5-MIN KSTC 021135Z AUTO 34003KT 10SM CLR 16/16 A3021 760 100 1100 330/03 RMK AO2
14926KSTC STC20010802054009908/02/01 05:40:31  5-MIN KSTC 021140Z AUTO 00000KT 10SM CLR 17/17 A3021 760 100 1200 000/00 RMK AO2
14926KSTC STC20010802054509908/02/01 05:45:31  5-MIN KSTC 021145Z AUTO 00000KT 10SM CLR 17/17 A3021 760 100 1200 000/00 RMK AO2
14926KSTC STC20010802055013308/02/01 05:50:31  5-MIN KSTC 021150Z AUTO 00000KT 10SM CLR 17/17 A3021 760 96 1200 000/00 RMK AO2 SLP235 T01720167 10200 20156 53010
14926KSTC STC20010802055509808/02/01 05:55:31  5-MIN KSTC 021155Z AUTO 00000KT 10SM CLR 17/17 A3022 750 96 1200 000/00 RMK AO2
14926KSTC STC20010802060009808/02/01 06:00:31  5-MIN KSTC 021200Z AUTO 00000KT 10SM CLR 17/17 A3022 750 96 1200 000/00 RMK AO2
14926KSTC STC20010802060509808/02/01 06:05:31  5-MIN KSTC 021205Z AUTO 00000KT 10SM CLR 18/17 A3022 750 96 1300 000/00 RMK AO2
14926KSTC STC20010802061009808/02/01 06:10:31  5-MIN KSTC 021210Z AUTO 36003KT 10SM CLR 18/17 A3022 750 96 1300 360/03 RMK AO2
14926KSTC STC20010802061509808/02/01 06:15:31  5-MIN KSTC 021215Z AUTO 36004KT 10SM CLR 18/17 A3022 750 93 1400 350/04 RMK AO2
14926KSTC STC20010802062009808/02/01 06:20:31  5-MIN KSTC 021220Z AUTO 36004KT 10SM CLR 18/17 A3022 750 93 1300 350/04 RMK AO2
14926KSTC STC20010802062509808/02/01 06:25:31  5-MIN KSTC 021225Z AUTO 36005KT 10SM CLR 19/18 A3023 740 93 1400 360/05 RMK AO2
14926KSTC STC20010802063009808/02/01 06:30:31  5-MIN KSTC 021230Z AUTO 01004KT 10SM CLR 19/18 A3023 740 93 1400 010/04 RMK AO2
14926KSTC STC20010802063509808/02/01 06:35:31  5-MIN KSTC 021235Z AUTO 36003KT 10SM CLR 19/18 A3023 740 93 1400 360/03 RMK AO2
14926KSTC STC20010802064009808/02/01 06:40:31  5-MIN KSTC 021240Z AUTO 02003KT 10SM CLR 19/18 A3023 740 90 1500 020/03 RMK AO2
14926KSTC STC20010802064509808/02/01 06:45:31  5-MIN KSTC 021245Z AUTO 02003KT 10SM CLR 20/18 A3024 740 87 1500 010/03 RMK AO2
14926KSTC STC20010802065011508/02/01 06:50:31  5-MIN KSTC 021250Z AUTO 01004KT 10SM CLR 20/18 A3024 740 87 1500 360/04 RMK AO2 SLP242 T02000178
14926KSTC STC20010802065509808/02/01 06:55:31  5-MIN KSTC 021255Z AUTO 01004KT 10SM CLR 20/18 A3024 740 87 1500 010/04 RMK AO2
14926KSTC STC20010802070009808/02/01 07:00:31  5-MIN KSTC 021300Z AUTO 01004KT 10SM CLR 20/18 A3024 730 87 1500 010/04 RMK AO2
14926KSTC STC20010802070509808/02/01 07:05:31  5-MIN KSTC 021305Z AUTO 01004KT 10SM CLR 21/18 A3024 730 84 1600 010/04 RMK AO2
14926KSTC STC20010802071009808/02/01 07:10:31  5-MIN KSTC 021310Z AUTO 02003KT 10SM CLR 21/18 A3024 730 84 1600 020/03 RMK AO2
14926KSTC STC20010802071509808/02/01 07:15:31  5-MIN KSTC 021315Z AUTO 03003KT 10SM CLR 21/18 A3024 730 84 1700 030/03 RMK AO2
14926KSTC STC20010802072009808/02/01 07:20:31  5-MIN KSTC 021320Z AUTO 04003KT 10SM CLR 22/18 A3024 730 78 1700 040/03 RMK AO2
14926KSTC STC20010802072509808/02/01 07:25:31  5-MIN KSTC 021325Z AUTO 02004KT 10SM CLR 22/18 A3024 730 81 1700 020/04 RMK AO2
14926KSTC STC20010802073009808/02/01 07:30:31  5-MIN KSTC 021330Z AUTO 05003KT 10SM CLR 22/18 A3025 730 78 1700 040/03 RMK AO2
14926KSTC STC20010802073509808/02/01 07:35:31  5-MIN KSTC 021335Z AUTO 04004KT 10SM CLR 22/18 A3025 730 81 1700 040/04 RMK AO2
14926KSTC STC20010802074009808/02/01 07:40:31  5-MIN KSTC 021340Z AUTO 03003KT 10SM CLR 22/18 A3025 720 78 1800 030/03 RMK AO2
14926KSTC STC20010802074509808/02/01 07:45:31  5-MIN KSTC 021345Z AUTO 05003KT 10SM CLR 22/18 A3025 720 75 1800 050/03 RMK AO2
14926KSTC STC20010802075011508/02/01 07:50:31  5-MIN KSTC 021350Z AUTO 00000KT 10SM CLR 22/18 A3025 720 75 1800 000/00 RMK AO2 SLP247 T02220178
14926KSTC STC20010802075509808/02/01 07:55:31  5-MIN KSTC 021355Z AUTO 00000KT 10SM CLR 22/18 A3025 720 78 1800 000/00 RMK AO2
14926KSTC STC20010802080009808/02/01 08:00:31  5-MIN KSTC 021400Z AUTO 08003KT 10SM CLR 22/18 A3025 720 75 1800 080/03 RMK AO2
14926KSTC STC20010802080509808/02/01 08:05:31  5-MIN KSTC 021405Z AUTO 00000KT 10SM CLR 23/18 A3025 720 76 1800 000/00 RMK AO2
14926KSTC STC20010802081009808/02/01 08:10:31  5-MIN KSTC 021410Z AUTO 10004KT 10SM CLR 23/18 A3025 720 70 1900 090/04 RMK AO2
14926KSTC STC20010802081509808/02/01 08:15:31  5-MIN KSTC 021415Z AUTO VRB03KT 10SM CLR 23/18 A3025 720 70 1900 VRB/03 RMK AO2
14926KSTC STC20010802082009808/02/01 08:20:31  5-MIN KSTC 021420Z AUTO 13005KT 10SM CLR 23/18 A3025 720 73 1900 120/05 RMK AO2
14926KSTC STC20010802082509808/02/01 08:25:31  5-MIN KSTC 021425Z AUTO 12004KT 10SM CLR 23/18 A3026 720 73 1900 110/04 RMK AO2
14926KSTC STC20010802083009808/02/01 08:30:31  5-MIN KSTC 021430Z AUTO 08005KT 10SM CLR 23/18 A3026 710 70 1900 080/05 RMK AO2
14926KSTC STC20010802083509808/02/01 08:35:31  5-MIN KSTC 021435Z AUTO 12004KT 10SM CLR 24/18 A3026 710 68 1900 110/04 RMK AO2
14926KSTC STC20010802084009808/02/01 08:40:31  5-MIN KSTC 021440Z AUTO 10005KT 10SM CLR 24/18 A3026 710 68 1900 100/05 RMK AO2
14926KSTC STC20010802084509808/02/01 08:45:31  5-MIN KSTC 021445Z AUTO 11003KT 10SM CLR 24/18 A3026 710 68 1900 110/03 RMK AO2
14926KSTC STC20010802085012108/02/01 08:50:31  5-MIN KSTC 021450Z AUTO VRB05KT 10SM CLR 24/17 A3026 710 66 1900 VRB/05 RMK AO2 SLP252 T02390172 51009
14926KSTC STC20010802085509808/02/01 08:55:31  5-MIN KSTC 021455Z AUTO 06005KT 10SM CLR 24/17 A3026 710 61 2000 060/05 RMK AO2
14926KSTC STC20010802090009808/02/01 09:00:31  5-MIN KSTC 021500Z AUTO VRB03KT 10SM CLR 24/17 A3026 710 61 2000 VRB/03 RMK AO2
14926KSTC STC20010802090509808/02/01 09:05:31  5-MIN KSTC 021505Z AUTO 10005KT 10SM CLR 24/17 A3027 710 61 2000 090/05 RMK AO2
14926KSTC STC20010802091009808/02/01 09:10:31  5-MIN KSTC 021510Z AUTO VRB03KT 10SM CLR 24/17 A3027 710 61 2000 VRB/03 RMK AO2
14926KSTC STC20010802091509808/02/01 09:15:31  5-MIN KSTC 021515Z AUTO 12005KT 10SM CLR 25/17 A3027 710 61 2100 110/05 RMK AO2
14926KSTC STC20010802092009808/02/01 09:20:31  5-MIN KSTC 021520Z AUTO VRB06KT 10SM CLR 24/17 A3027 710 63 2000 VRB/06 RMK AO2
14926KSTC STC20010802092509808/02/01 09:25:31  5-MIN KSTC 021525Z AUTO 16004KT 10SM CLR 24/17 A3026 710 63 2000 160/04 RMK AO2
14926KSTC STC20010802093009808/02/01 09:30:31  5-MIN KSTC 021530Z AUTO 07004KT 10SM CLR 25/17 A3026 710 59 2100 060/04 RMK AO2
14926KSTC STC20010802093509808/02/01 09:35:31  5-MIN KSTC 021535Z AUTO 02004KT 10SM CLR 25/16 A3026 720 57 2100 020/04 RMK AO2
14926KSTC STC20010802094009808/02/01 09:40:31  5-MIN KSTC 021540Z AUTO 00000KT 10SM CLR 26/17 A3026 720 57 2100 000/00 RMK AO2
14926KSTC STC20010802094509808/02/01 09:45:31  5-MIN KSTC 021545Z AUTO VRB03KT 10SM CLR 26/17 A3025 720 59 2100 VRB/03 RMK AO2
14926KSTC STC20010802095011508/02/01 09:50:31  5-MIN KSTC 021550Z AUTO 10005KT 10SM CLR 26/17 A3025 720 59 2100 090/05 RMK AO2 SLP248 T02560172
14926KSTC STC20010802095509808/02/01 09:55:31  5-MIN KSTC 021555Z AUTO 10003KT 10SM CLR 25/16 A3025 720 57 2100 100/03 RMK AO2
14926KSTC STC20010802100009808/02/01 10:00:31  5-MIN KSTC 021600Z AUTO 00000KT 10SM CLR 25/16 A3025 720 57 2100 000/00 RMK AO2
14926KSTC STC20010802100509808/02/01 10:05:31  5-MIN KSTC 021605Z AUTO 00000KT 10SM CLR 25/16 A3025 720 57 2100 000/00 RMK AO2
14926KSTC STC20010802101009808/02/01 10:10:31  5-MIN KSTC 021610Z AUTO 10004KT 10SM CLR 26/17 A3025 720 57 2100 100/04 RMK AO2
14926KSTC STC20010802101509808/02/01 10:15:31  5-MIN KSTC 021615Z AUTO 10005KT 10SM CLR 26/17 A3025 730 55 2200 090/05 RMK AO2
14926KSTC STC20010802102009808/02/01 10:20:31  5-MIN KSTC 021620Z AUTO 00000KT 10SM CLR 25/16 A3025 730 57 2100 000/00 RMK AO2
14926KSTC STC20010802102509808/02/01 10:25:31  5-MIN KSTC 021625Z AUTO 00000KT 10SM CLR 25/16 A3025 720 55 2100 000/00 RMK AO2
14926KSTC STC20010802103009808/02/01 10:30:31  5-MIN KSTC 021630Z AUTO 00000KT 10SM CLR 25/16 A3025 730 55 2100 000/00 RMK AO2
14926KSTC STC20010802103509808/02/01 10:35:31  5-MIN KSTC 021635Z AUTO 00000KT 10SM CLR 25/17 A3025 730 59 2100 000/00 RMK AO2
14926KSTC STC20010802104009808/02/01 10:40:31  5-MIN KSTC 021640Z AUTO 00000KT 10SM CLR 25/16 A3025 730 57 2100 000/00 RMK AO2
14926KSTC STC20010802104509808/02/01 10:45:31  5-MIN KSTC 021645Z AUTO 00000KT 10SM CLR 26/16 A3025 730 55 2200 000/00 RMK AO2
14926KSTC STC20010802105011508/02/01 10:50:31  5-MIN KSTC 021650Z AUTO 18005KT 10SM CLR 26/16 A3024 730 55 2200 180/05 RMK AO2 SLP245 T02560161
14926KSTC STC20010802105509808/02/01 10:55:31  5-MIN KSTC 021655Z AUTO VRB04KT 10SM CLR 26/17 A3024 730 57 2200 VRB/04 RMK AO2
14926KSTC STC20010802110009808/02/01 11:00:31  5-MIN KSTC 021700Z AUTO VRB03KT 10SM CLR 26/17 A3024 730 55 2200 VRB/03 RMK AO2
14926KSTC STC20010802110509808/02/01 11:05:31  5-MIN KSTC 021705Z AUTO 14003KT 10SM CLR 26/17 A3024 730 55 2200 140/03 RMK AO2
14926KSTC STC20010802111009808/02/01 11:10:31  5-MIN KSTC 021710Z AUTO VRB03KT 10SM CLR 26/17 A3024 730 57 2200 VRB/03 RMK AO2
14926KSTC STC20010802111509808/02/01 11:15:31  5-MIN KSTC 021715Z AUTO 00000KT 10SM CLR 26/16 A3024 730 53 2200 000/00 RMK AO2
14926KSTC STC20010802112009808/02/01 11:20:31  5-MIN KSTC 021720Z AUTO 00000KT 10SM CLR 27/16 A3024 730 52 2300 000/00 RMK AO2
14926KSTC STC20010802112509808/02/01 11:25:31  5-MIN KSTC 021725Z AUTO 15004KT 10SM CLR 27/17 A3024 730 53 2300 150/04 RMK AO2
14926KSTC STC20010802113009808/02/01 11:30:31  5-MIN KSTC 021730Z AUTO 21005KT 10SM CLR 26/17 A3024 730 55 2200 210/05 RMK AO2
14926KSTC STC20010802113509808/02/01 11:35:31  5-MIN KSTC 021735Z AUTO VRB04KT 10SM CLR 26/17 A3024 730 55 2200 VRB/04 RMK AO2
14926KSTC STC20010802114009808/02/01 11:40:31  5-MIN KSTC 021740Z AUTO 22004KT 10SM CLR 26/17 A3024 740 55 2200 220/04 RMK AO2
14926KSTC STC20010802114509808/02/01 11:45:31  5-MIN KSTC 021745Z AUTO VRB04KT 10SM CLR 27/17 A3024 740 53 2300 VRB/04 RMK AO2
14926KSTC STC20010802115013308/02/01 11:50:31  5-MIN KSTC 021750Z AUTO 21006KT 10SM CLR 27/17 A3023 740 53 2300 210/06 RMK AO2 SLP242 T02670167 10267 20172 51015
14926KSTC STC20010802115509808/02/01 11:55:31  5-MIN KSTC 021755Z AUTO VRB05KT 10SM CLR 27/16 A3023 740 52 2300 VRB/05 RMK AO2
14926KSTC STC20010802120009808/02/01 12:00:31  5-MIN KSTC 021800Z AUTO 00000KT 10SM CLR 27/17 A3023 740 53 2300 000/00 RMK AO2
14926KSTC STC20010802120509808/02/01 12:05:31  5-MIN KSTC 021805Z AUTO 25005KT 10SM CLR 27/17 A3023 740 53 2300 240/05 RMK AO2
14926KSTC STC20010802121009808/02/01 12:10:31  5-MIN KSTC 021810Z AUTO 25005KT 10SM CLR 27/17 A3023 740 53 2300 250/05 RMK AO2
14926KSTC STC20010802121509808/02/01 12:15:31  5-MIN KSTC 021815Z AUTO VRB03KT 10SM CLR 26/16 A3022 750 53 2200 VRB/03 RMK AO2
14926KSTC STC20010802122009808/02/01 12:20:31  5-MIN KSTC 021820Z AUTO VRB06KT 10SM CLR 27/17 A3022 750 53 2300 VRB/06 RMK AO2
14926KSTC STC20010802122509808/02/01 12:25:31  5-MIN KSTC 021825Z AUTO 15004KT 10SM CLR 27/17 A3022 750 53 2300 150/04 RMK AO2
14926KSTC STC20010802123009808/02/01 12:30:31  5-MIN KSTC 021830Z AUTO VRB03KT 10SM CLR 27/16 A3022 750 52 2300 VRB/03 RMK AO2
14926KSTC STC20010802123509808/02/01 12:35:31  5-MIN KSTC 021835Z AUTO 13005KT 10SM CLR 27/16 A3022 750 50 2400 130/05 RMK AO2
14926KSTC STC20010802124009808/02/01 12:40:31  5-MIN KSTC 021840Z AUTO VRB05KT 10SM CLR 27/17 A3022 750 54 2400 VRB/05 RMK AO2
14926KSTC STC20010802124509808/02/01 12:45:31  5-MIN KSTC 021845Z AUTO 19004KT 10SM CLR 27/17 A3021 760 53 2300 190/04 RMK AO2
14926KSTC STC20010802125011508/02/01 12:50:31  5-MIN KSTC 021850Z AUTO 24005KT 10SM CLR 27/17 A3021 760 52 2400 240/05 RMK AO2 SLP233 T02720167
14926KSTC STC20010802125509808/02/01 12:55:31  5-MIN KSTC 021855Z AUTO 17003KT 10SM CLR 27/16 A3020 770 50 2400 160/03 RMK AO2
14926KSTC STC20010802130009808/02/01 13:00:31  5-MIN KSTC 021900Z AUTO VRB05KT 10SM CLR 27/16 A3020 770 50 2400 VRB/05 RMK AO2
14926KSTC STC20010802130509808/02/01 13:05:31  5-MIN KSTC 021905Z AUTO VRB04KT 10SM CLR 27/16 A3020 770 48 2400 VRB/04 RMK AO2
14926KSTC STC20010802131009808/02/01 13:10:31  5-MIN KSTC 021910Z AUTO 00000KT 10SM CLR 28/16 A3019 780 48 2500 000/00 RMK AO2
14926KSTC STC20010802131509808/02/01 13:15:31  5-MIN KSTC 021915Z AUTO 25004KT 10SM CLR 28/16 A3019 780 48 2500 240/04 RMK AO2
14926KSTC STC20010802132009808/02/01 13:20:31  5-MIN KSTC 021920Z AUTO 19006KT 10SM CLR 27/16 A3019 780 50 2400 190/06 RMK AO2
14926KSTC STC20010802132509808/02/01 13:25:31  5-MIN KSTC 021925Z AUTO 19005KT 10SM CLR 28/17 A3019 780 50 2500 190/05 RMK AO2
14926KSTC STC20010802133009808/02/01 13:30:31  5-MIN KSTC 021930Z AUTO VRB04KT 10SM CLR 28/17 A3019 780 48 2500 VRB/04 RMK AO2
14926KSTC STC20010802133509808/02/01 13:35:31  5-MIN KSTC 021935Z AUTO VRB05KT 10SM CLR 29/17 A3019 780 48 2600 VRB/05 RMK AO2
14926KSTC STC20010802134009808/02/01 13:40:31  5-MIN KSTC 021940Z AUTO VRB04KT 10SM CLR 29/17 A3019 780 47 2600 VRB/04 RMK AO2
14926KSTC STC20010802134509808/02/01 13:45:31  5-MIN KSTC 021945Z AUTO 01004KT 10SM CLR 29/16 A3018 780 45 2600 010/04 RMK AO2
14926KSTC STC20010802135011508/02/01 13:50:31  5-MIN KSTC 021950Z AUTO VRB03KT 10SM CLR 29/16 A3018 780 45 2600 VRB/03 RMK AO2 SLP223 T02890161
14926KSTC STC20010802135509808/02/01 13:55:31  5-MIN KSTC 021955Z AUTO 36005KT 10SM CLR 29/17 A3018 790 47 2600 350/05 RMK AO2
14926KSTC STC20010802140009808/02/01 14:00:31  5-MIN KSTC 022000Z AUTO 33005KT 10SM CLR 29/17 A3018 790 47 2600 330/05 RMK AO2
14926KSTC STC20010802140509808/02/01 14:05:31  5-MIN KSTC 022005Z AUTO 34004KT 10SM CLR 29/17 A3018 790 47 2600 340/04 RMK AO2
14926KSTC STC20010802141009808/02/01 14:10:31  5-MIN KSTC 022010Z AUTO VRB05KT 10SM CLR 29/17 A3018 790 47 2600 VRB/05 RMK AO2
14926KSTC STC20010802141509808/02/01 14:15:31  5-MIN KSTC 022015Z AUTO 00000KT 10SM CLR 28/17 A3018 790 48 2500 000/00 RMK AO2
14926KSTC STC20010802142009808/02/01 14:20:31  5-MIN KSTC 022020Z AUTO VRB03KT 10SM CLR 29/17 A3017 790 47 2600 VRB/03 RMK AO2
14926KSTC STC20010802142509808/02/01 14:25:31  5-MIN KSTC 022025Z AUTO VRB05KT 10SM CLR 29/17 A3017 790 48 2600 VRB/05 RMK AO2
14926KSTC STC20010802143009808/02/01 14:30:31  5-MIN KSTC 022030Z AUTO 00000KT 10SM CLR 29/17 A3017 790 47 2600 000/00 RMK AO2
14926KSTC STC20010802143509808/02/01 14:35:31  5-MIN KSTC 022035Z AUTO VRB05KT 10SM CLR 29/17 A3017 800 47 2600 VRB/05 RMK AO2
14926KSTC STC20010802144009808/02/01 14:40:31  5-MIN KSTC 022040Z AUTO VRB06KT 10SM CLR 29/17 A3017 800 47 2600 VRB/06 RMK AO2
14926KSTC STC20010802144509808/02/01 14:45:31  5-MIN KSTC 022045Z AUTO 07005KT 10SM CLR 29/17 A3017 800 47 2600 060/05 RMK AO2
14926KSTC STC20010802145012108/02/01 14:50:31  5-MIN KSTC 022050Z AUTO VRB05KT 10SM CLR 29/16 A3017 800 45 2600 VRB/05 RMK AO2 SLP220 T02890161 58009
14926KSTC STC20010802145509808/02/01 14:55:31  5-MIN KSTC 022055Z AUTO VRB05KT 10SM CLR 29/17 A3017 800 47 2600 VRB/05 RMK AO2
14926KSTC STC20010802150009808/02/01 15:00:31  5-MIN KSTC 022100Z AUTO 09004KT 10SM CLR 29/16 A3017 800 45 2600 090/04 RMK AO2
14926KSTC STC20010802150509808/02/01 15:05:31  5-MIN KSTC 022105Z AUTO 07005KT 10SM CLR 29/16 A3016 800 45 2600 070/05 RMK AO2
14926KSTC STC20010802151009808/02/01 15:10:31  5-MIN KSTC 022110Z AUTO VRB05KT 10SM CLR 29/16 A3016 800 45 2600 VRB/05 RMK AO2
14926KSTC STC20010802151509808/02/01 15:15:31  5-MIN KSTC 022115Z AUTO VRB06KT 10SM CLR 29/17 A3016 800 45 2700 VRB/06 RMK AO2
14926KSTC STC20010802152009808/02/01 15:20:31  5-MIN KSTC 022120Z AUTO 03004KT 10SM CLR 29/17 A3016 800 45 2700 020/04 RMK AO2
14926KSTC STC20010802152509808/02/01 15:25:31  5-MIN KSTC 022125Z AUTO 02007KT 10SM CLR 29/16 A3016 800 45 2600 020/07 RMK AO2
14926KSTC STC20010802153009808/02/01 15:30:31  5-MIN KSTC 022130Z AUTO 04004KT 10SM CLR 28/17 A3016 800 48 2600 040/04 RMK AO2
14926KSTC STC20010802153509808/02/01 15:35:31  5-MIN KSTC 022135Z AUTO 04005KT 10SM CLR 29/17 A3016 800 48 2600 030/05 RMK AO2
14926KSTC STC20010802154009808/02/01 15:40:31  5-MIN KSTC 022140Z AUTO 01004KT 10SM CLR 29/17 A3016 800 48 2600 010/04 RMK AO2
14926KSTC STC20010802154509808/02/01 15:45:31  5-MIN KSTC 022145Z AUTO 01005KT 10SM CLR 29/17 A3016 800 48 2600 010/05 RMK AO2
14926KSTC STC20010802155011508/02/01 15:50:31  5-MIN KSTC 022150Z AUTO VRB04KT 10SM CLR 29/17 A3016 800 48 2600 VRB/04 RMK AO2 SLP217 T02890172
14926KSTC STC20010802155509808/02/01 15:55:31  5-MIN KSTC 022155Z AUTO 04004KT 10SM CLR 29/17 A3016 800 47 2600 040/04 RMK AO2
14926KSTC STC20010802160009808/02/01 16:00:31  5-MIN KSTC 022200Z AUTO 02005KT 10SM CLR 29/17 A3016 810 47 2700 020/05 RMK AO2
14926KSTC STC20010802160509808/02/01 16:05:31  5-MIN KSTC 022205Z AUTO VRB03KT 10SM CLR 29/17 A3016 810 47 2700 VRB/03 RMK AO2
14926KSTC STC20010802161009808/02/01 16:10:31  5-MIN KSTC 022210Z AUTO 07004KT 10SM CLR 29/17 A3016 810 47 2600 060/04 RMK AO2
14926KSTC STC20010802161509808/02/01 16:15:31  5-MIN KSTC 022215Z AUTO VRB03KT 10SM CLR 29/17 A3016 810 47 2700 VRB/03 RMK AO2
14926KSTC STC20010802162009808/02/01 16:20:31  5-MIN KSTC 022220Z AUTO 02005KT 10SM CLR 29/17 A3016 810 47 2700 010/05 RMK AO2
14926KSTC STC20010802162509808/02/01 16:25:31  5-MIN KSTC 022225Z AUTO 36005KT 10SM CLR 29/18 A3015 810 49 2700 360/05 RMK AO2
14926KSTC STC20010802163009808/02/01 16:30:31  5-MIN KSTC 022230Z AUTO 01004KT 10SM CLR 29/17 A3015 810 47 2700 360/04 RMK AO2
14926KSTC STC20010802163509808/02/01 16:35:31  5-MIN KSTC 022235Z AUTO 36004KT 10SM CLR 29/17 A3015 810 47 2700 360/04 RMK AO2
14926KSTC STC20010802164009808/02/01 16:40:31  5-MIN KSTC 022240Z AUTO 35003KT 10SM CLR 29/17 A3015 810 47 2700 340/03 RMK AO2
14926KSTC STC20010802164509808/02/01 16:45:31  5-MIN KSTC 022245Z AUTO 08004KT 10SM CLR 29/18 A3015 810 49 2700 080/04 RMK AO2
14926KSTC STC20010802165011508/02/01 16:50:31  5-MIN KSTC 022250Z AUTO 06003KT 10SM CLR 29/18 A3015 810 49 2700 060/03 RMK AO2 SLP214 T02940178
14926KSTC STC20010802165509808/02/01 16:55:31  5-MIN KSTC 022255Z AUTO 09003KT 10SM CLR 29/18 A3015 810 50 2600 080/03 RMK AO2
14926KSTC STC20010802170009808/02/01 17:00:31  5-MIN KSTC 022300Z AUTO 00000KT 10SM CLR 29/17 A3015 810 48 2600 000/00 RMK AO2
14926KSTC STC20010802170509808/02/01 17:05:31  5-MIN KSTC 022305Z AUTO 06003KT 10SM CLR 29/18 A3015 810 50 2600 060/03 RMK AO2
14926KSTC STC20010802171009808/02/01 17:10:31  5-MIN KSTC 022310Z AUTO 05003KT 10SM CLR 29/18 A3015 810 50 2600 050/03 RMK AO2
14926KSTC STC20010802171509808/02/01 17:15:31  5-MIN KSTC 022315Z AUTO 05004KT 10SM CLR 29/18 A3015 810 50 2600 050/04 RMK AO2
14926KSTC STC20010802172009808/02/01 17:20:31  5-MIN KSTC 022320Z AUTO 00000KT 10SM CLR 29/17 A3015 810 48 2600 000/00 RMK AO2
14926KSTC STC20010802172509808/02/01 17:25:31  5-MIN KSTC 022325Z AUTO 08004KT 10SM CLR 29/18 A3015 810 49 2700 080/04 RMK AO2
14926KSTC STC20010802173009808/02/01 17:30:31  5-MIN KSTC 022330Z AUTO 08003KT 10SM CLR 29/18 A3015 810 50 2600 070/03 RMK AO2
14926KSTC STC20010802173509808/02/01 17:35:31  5-MIN KSTC 022335Z AUTO VRB03KT 10SM CLR 29/18 A3016 810 50 2600 VRB/03 RMK AO2
14926KSTC STC20010802174009808/02/01 17:40:31  5-MIN KSTC 022340Z AUTO 00000KT 10SM CLR 29/17 A3016 810 47 2700 000/00 RMK AO2
14926KSTC STC20010802174509808/02/01 17:45:31  5-MIN KSTC 022345Z AUTO 00000KT 10SM CLR 29/18 A3016 810 50 2600 000/00 RMK AO2
14926KSTC STC20010802175013308/02/01 17:50:31  5-MIN KSTC 022350Z AUTO 05003KT 10SM CLR 29/18 A3016 810 50 2600 040/03 RMK AO2 SLP216 T02890178 10294 20261 56021
14926KSTC STC20010802175509808/02/01 17:55:31  5-MIN KSTC 022355Z AUTO 00000KT 10SM CLR 28/18 A3016 810 54 2600 000/00 RMK AO2
14926KSTC STC20010802180009808/02/01 18:00:31  5-MIN KSTC 030000Z AUTO 00000KT 10SM CLR 29/18 A3016 810 50 2600 000/00 RMK AO2
14926KSTC STC20010802180509808/02/01 18:05:31  5-MIN KSTC 030005Z AUTO 00000KT 10SM CLR 28/19 A3016 810 56 2600 000/00 RMK AO2
14926KSTC STC20010802181009808/02/01 18:10:31  5-MIN KSTC 030010Z AUTO 00000KT 10SM CLR 28/18 A3016 810 54 2600 000/00 RMK AO2
14926KSTC STC20010802181509808/02/01 18:15:31  5-MIN KSTC 030015Z AUTO 00000KT 10SM CLR 28/18 A3016 800 54 2600 000/00 RMK AO2
14926KSTC STC20010802182009808/02/01 18:20:31  5-MIN KSTC 030020Z AUTO 00000KT 10SM CLR 28/19 A3016 800 56 2600 000/00 RMK AO2
14926KSTC STC20010802182509808/02/01 18:25:31  5-MIN KSTC 030025Z AUTO 00000KT 10SM CLR 28/19 A3017 800 56 2600 000/00 RMK AO2
14926KSTC STC20010802183009808/02/01 18:30:31  5-MIN KSTC 030030Z AUTO 00000KT 10SM CLR 28/19 A3017 800 56 2500 000/00 RMK AO2
14926KSTC STC20010802183509808/02/01 18:35:31  5-MIN KSTC 030035Z AUTO 00000KT 10SM CLR 28/21 A3017 800 64 2500 000/00 RMK AO2
14926KSTC STC20010802184009808/02/01 18:40:31  5-MIN KSTC 030040Z AUTO 07004KT 10SM CLR 27/20 A3017 800 64 2400 070/04 RMK AO2
14926KSTC STC20010802184509808/02/01 18:45:31  5-MIN KSTC 030045Z AUTO 07003KT 10SM CLR 27/21 A3017 800 66 2400 070/03 RMK AO2
14926KSTC STC20010802185011508/02/01 18:50:31  5-MIN KSTC 030050Z AUTO 00000KT 10SM CLR 27/21 A3017 800 66 2400 000/00 RMK AO2 SLP219 T02720206
14926KSTC STC20010802185509808/02/01 18:55:31  5-MIN KSTC 030055Z AUTO 06003KT 10SM CLR 27/21 A3017 800 66 2400 060/03 RMK AO2
14926KSTC STC20010802190009808/02/01 19:00:31  5-MIN KSTC 030100Z AUTO 06003KT 10SM CLR 26/21 A3017 800 73 2300 050/03 RMK AO2
14926KSTC STC20010802190509808/02/01 19:05:31  5-MIN KSTC 030105Z AUTO 06004KT 10SM CLR 26/21 A3017 800 71 2300 050/04 RMK AO2
14926KSTC STC20010802191009808/02/01 19:10:31  5-MIN KSTC 030110Z AUTO 07003KT 10SM CLR 26/21 A3017 800 71 2300 070/03 RMK AO2
14926KSTC STC20010802191509808/02/01 19:15:31  5-MIN KSTC 030115Z AUTO 00000KT 10SM CLR 26/21 A3017 790 71 2300 000/00 RMK AO2
14926KSTC STC20010802192009808/02/01 19:20:31  5-MIN KSTC 030120Z AUTO 00000KT 10SM CLR 26/21 A3018 790 71 2300 000/00 RMK AO2
14926KSTC STC20010802192509808/02/01 19:25:31  5-MIN KSTC 030125Z AUTO 00000KT 10SM CLR 26/21 A3018 790 71 2300 000/00 RMK AO2
14926KSTC STC20010802193009808/02/01 19:30:31  5-MIN KSTC 030130Z AUTO 00000KT 10SM CLR 25/21 A3017 790 76 2200 000/00 RMK AO2
14926KSTC STC20010802193509708/02/01 19:35:31  5-MIN KSTC 030135Z AUTO 00000KT 9SM CLR 24/21 A3018 790 84 2000 000/00 RMK AO2
14926KSTC STC20010802194009708/02/01 19:40:31  5-MIN KSTC 030140Z AUTO 00000KT 9SM CLR 24/21 A3018 790 81 2000 000/00 RMK AO2
14926KSTC STC20010802194509808/02/01 19:45:31  5-MIN KSTC 030145Z AUTO 00000KT 10SM CLR 23/21 A3018 790 87 1900 000/00 RMK AO2
14926KSTC STC20010802195011508/02/01 19:50:31  5-MIN KSTC 030150Z AUTO 00000KT 10SM CLR 23/21 A3018 790 84 2000 000/00 RMK AO2 SLP223 T02330206
14926KSTC STC20010802195509808/02/01 19:55:31  5-MIN KSTC 030155Z AUTO 00000KT 10SM CLR 23/21 A3018 790 87 1900 000/00 RMK AO2
14926KSTC STC20010802200009808/02/01 20:00:31  5-MIN KSTC 030200Z AUTO 00000KT 10SM CLR 22/21 A3018 790 90 1800 000/00 RMK AO2
14926KSTC STC20010802200509808/02/01 20:05:31  5-MIN KSTC 030205Z AUTO 00000KT 10SM CLR 22/21 A3018 790 90 1800 000/00 RMK AO2
14926KSTC STC20010802201009808/02/01 20:10:31  5-MIN KSTC 030210Z AUTO 09004KT 10SM CLR 22/21 A3018 790 93 1800 080/04 RMK AO2
14926KSTC STC20010802201509808/02/01 20:15:31  5-MIN KSTC 030215Z AUTO 08004KT 10SM CLR 22/21 A3018 790 93 1800 080/04 RMK AO2
14926KSTC STC20010802202009808/02/01 20:20:31  5-MIN KSTC 030220Z AUTO 09003KT 10SM CLR 22/21 A3018 790 93 1800 080/03 RMK AO2
14926KSTC STC20010802202509808/02/01 20:25:31  5-MIN KSTC 030225Z AUTO 08003KT 10SM CLR 22/21 A3018 790 90 1800 070/03 RMK AO2
14926KSTC STC20010802203009808/02/01 20:30:31  5-MIN KSTC 030230Z AUTO 07004KT 10SM CLR 21/20 A3018 790 93 1700 070/04 RMK AO2
14926KSTC STC20010802203509808/02/01 20:35:31  5-MIN KSTC 030235Z AUTO 08004KT 10SM CLR 22/20 A3018 780 87 1800 070/04 RMK AO2
14926KSTC STC20010802204009808/02/01 20:40:31  5-MIN KSTC 030240Z AUTO 08004KT 10SM CLR 22/20 A3018 780 90 1800 070/04 RMK AO2
14926KSTC STC20010802204509808/02/01 20:45:31  5-MIN KSTC 030245Z AUTO 09004KT 10SM CLR 22/21 A3018 780 93 1800 090/04 RMK AO2
14926KSTC STC20010802205012108/02/01 20:50:31  5-MIN KSTC 030250Z AUTO 10004KT 10SM CLR 22/20 A3019 780 87 1800 100/04 RMK AO2 SLP226 T02220200 55003
14926KSTC STC20010802205509808/02/01 20:55:31  5-MIN KSTC 030255Z AUTO 10004KT 10SM CLR 22/20 A3019 780 90 1800 100/04 RMK AO2
14926KSTC STC20010802210009808/02/01 21:00:31  5-MIN KSTC 030300Z AUTO 10004KT 10SM CLR 22/19 A3019 780 87 1800 100/04 RMK AO2
14926KSTC STC20010802210509808/02/01 21:05:31  5-MIN KSTC 030305Z AUTO 10004KT 10SM CLR 22/19 A3019 780 87 1800 100/04 RMK AO2
14926KSTC STC20010802211009808/02/01 21:10:31  5-MIN KSTC 030310Z AUTO 11005KT 10SM CLR 22/19 A3019 780 87 1800 110/05 RMK AO2
14926KSTC STC20010802211509808/02/01 21:15:31  5-MIN KSTC 030315Z AUTO 11005KT 10SM CLR 22/19 A3019 780 81 1800 110/05 RMK AO2
14926KSTC STC20010802212009808/02/01 21:20:31  5-MIN KSTC 030320Z AUTO 13004KT 10SM CLR 22/19 A3019 780 81 1800 120/04 RMK AO2
14926KSTC STC20010802212509808/02/01 21:25:31  5-MIN KSTC 030325Z AUTO 12003KT 10SM CLR 22/19 A3019 780 84 1800 110/03 RMK AO2
14926KSTC STC20010802213009808/02/01 21:30:31  5-MIN KSTC 030330Z AUTO 10004KT 10SM CLR 21/19 A3019 780 87 1700 100/04 RMK AO2
14926KSTC STC20010802213509808/02/01 21:35:31  5-MIN KSTC 030335Z AUTO 11004KT 10SM CLR 21/19 A3019 780 90 1600 110/04 RMK AO2
14926KSTC STC20010802214009808/02/01 21:40:31  5-MIN KSTC 030340Z AUTO 10004KT 10SM CLR 21/19 A3019 780 87 1700 090/04 RMK AO2
14926KSTC STC20010802214509808/02/01 21:45:31  5-MIN KSTC 030345Z AUTO 09004KT 10SM CLR 21/19 A3019 780 90 1600 090/04 RMK AO2
14926KSTC STC20010802215011508/02/01 21:50:31  5-MIN KSTC 030350Z AUTO 12004KT 10SM CLR 21/19 A3019 780 90 1600 110/04 RMK AO2 SLP226 T02060189
14926KSTC STC20010802215509808/02/01 21:55:31  5-MIN KSTC 030355Z AUTO 12003KT 10SM CLR 21/19 A3019 780 87 1700 120/03 RMK AO2
14926KSTC STC20010802220009808/02/01 22:00:31  5-MIN KSTC 030400Z AUTO 00000KT 10SM CLR 21/19 A3018 790 90 1700 000/00 RMK AO2
14926KSTC STC20010802220509808/02/01 22:05:31  5-MIN KSTC 030405Z AUTO 15004KT 10SM CLR 20/19 A3018 790 93 1600 140/04 RMK AO2
14926KSTC STC20010802221009808/02/01 22:10:31  5-MIN KSTC 030410Z AUTO 16005KT 10SM CLR 19/19 A3017 790 97 1500 150/05 RMK AO2
14926KSTC STC20010802221509808/02/01 22:15:31  5-MIN KSTC 030415Z AUTO 16006KT 10SM CLR 19/19 A3017 800 97 1500 160/06 RMK AO2
14926KSTC STC20010802222009808/02/01 22:20:31  5-MIN KSTC 030420Z AUTO 16005KT 10SM CLR 19/19 A3016 800 97 1500 160/05 RMK AO2
14926KSTC STC20010802222509808/02/01 22:25:31  5-MIN KSTC 030425Z AUTO 16004KT 10SM CLR 19/19 A3016 800 97 1500 160/04 RMK AO2
14926KSTC STC20010802223009808/02/01 22:30:31  5-MIN KSTC 030430Z AUTO 16004KT 10SM CLR 19/19 A3016 800 97 1500 160/04 RMK AO2
14926KSTC STC20010802223509808/02/01 22:35:31  5-MIN KSTC 030435Z AUTO 13004KT 10SM CLR 20/19 A3017 800 93 1600 130/04 RMK AO2
14926KSTC STC20010802224009808/02/01 22:40:31  5-MIN KSTC 030440Z AUTO 12003KT 10SM CLR 21/19 A3017 790 87 1700 120/03 RMK AO2
14926KSTC STC20010802224509808/02/01 22:45:31  5-MIN KSTC 030445Z AUTO 00000KT 10SM CLR 21/19 A3017 790 87 1700 000/00 RMK AO2
14926KSTC STC20010802225011508/02/01 22:50:31  5-MIN KSTC 030450Z AUTO 12003KT 10SM CLR 21/19 A3017 790 90 1700 110/03 RMK AO2 SLP222 T02060189
14926KSTC STC20010802225509808/02/01 22:55:31  5-MIN KSTC 030455Z AUTO 00000KT 10SM CLR 20/18 A3017 790 90 1600 000/00 RMK AO2
14926KSTC STC20010802230009808/02/01 23:00:31  5-MIN KSTC 030500Z AUTO 06005KT 10SM CLR 19/18 A3018 790 97 1500 060/05 RMK AO2
14926KSTC STC20010802230509908/02/01 23:05:31  5-MIN KSTC 030505Z AUTO 08004KT 10SM CLR 18/18 A3017 790 100 1400 070/04 RMK AO2
14926KSTC STC20010802231009808/02/01 23:10:31  5-MIN KSTC 030510Z AUTO 08004KT 10SM CLR 19/19 A3017 790 97 1500 080/04 RMK AO2
14926KSTC STC20010802231509808/02/01 23:15:31  5-MIN KSTC 030515Z AUTO 10004KT 10SM CLR 19/19 A3017 800 97 1500 100/04 RMK AO2
14926KSTC STC20010802232009808/02/01 23:20:31  5-MIN KSTC 030520Z AUTO 13004KT 10SM CLR 20/19 A3017 800 93 1600 130/04 RMK AO2
14926KSTC STC20010802232509808/02/01 23:25:31  5-MIN KSTC 030525Z AUTO 15003KT 10SM CLR 19/18 A3016 800 93 1500 150/03 RMK AO2
14926KSTC STC20010802233009808/02/01 23:30:31  5-MIN KSTC 030530Z AUTO 15003KT 10SM CLR 19/18 A3016 800 93 1500 150/03 RMK AO2
14926KSTC STC20010802233509808/02/01 23:35:31  5-MIN KSTC 030535Z AUTO 00000KT 10SM CLR 19/18 A3016 800 97 1500 000/00 RMK AO2
14926KSTC STC20010802234009808/02/01 23:40:31  5-MIN KSTC 030540Z AUTO 00000KT 10SM CLR 19/18 A3016 800 97 1500 000/00 RMK AO2
14926KSTC STC20010802234509808/02/01 23:45:31  5-MIN KSTC 030545Z AUTO 00000KT 10SM CLR 19/18 A3016 800 97 1500 000/00 RMK AO2
14926KSTC STC20010802235014308/02/01 23:50:31  5-MIN KSTC 030550Z AUTO 00000KT 10SM CLR 19/18 A3016 800 93 1500 000/00 RMK AO2 SLP217 T01890178 10289 20183 402940156 51009
14926KSTC STC20010802235509908/02/01 23:55:31  5-MIN KSTC 030555Z AUTO 00000KT 10SM CLR 18/18 A3016 810 100 1400 000/00 RMK AO2
14926KSTC STC20010803000009908/03/01 00:00:31  5-MIN KSTC 030600Z AUTO 15003KT 10SM CLR 18/18 A3015 810 100 1400 140/03 RMK AO2
14926KSTC STC20010803000509808/03/01 00:05:31  5-MIN KSTC 030605Z AUTO 14004KT 10SM CLR 18/18 A3015 810 96 1400 140/04 RMK AO2
14926KSTC STC20010803001009808/03/01 00:10:31  5-MIN KSTC 030610Z AUTO 13003KT 10SM CLR 18/18 A3015 810 96 1400 130/03 RMK AO2
14926KSTC STC20010803001509808/03/01 00:15:31  5-MIN KSTC 030615Z AUTO 00000KT 10SM CLR 18/18 A3015 810 96 1400 000/00 RMK AO2
14926KSTC STC20010803002009908/03/01 00:20:31  5-MIN KSTC 030620Z AUTO 00000KT 10SM CLR 18/18 A3015 810 100 1400 000/00 RMK AO2
14926KSTC STC20010803002509908/03/01 00:25:31  5-MIN KSTC 030625Z AUTO 00000KT 10SM CLR 18/18 A3015 820 100 1400 000/00 RMK AO2
14926KSTC STC20010803003009808/03/01 00:30:31  5-MIN KSTC 030630Z AUTO 00000KT 10SM CLR 18/18 A3015 820 96 1400 000/00 RMK AO2
14926KSTC STC20010803003509908/03/01 00:35:31  5-MIN KSTC 030635Z AUTO 00000KT 10SM CLR 18/18 A3015 820 100 1400 000/00 RMK AO2
14926KSTC STC20010803004009908/03/01 00:40:31  5-MIN KSTC 030640Z AUTO 00000KT 10SM CLR 17/17 A3015 820 100 1300 000/00 RMK AO2
14926KSTC STC20010803004509908/03/01 00:45:31  5-MIN KSTC 030645Z AUTO 00000KT 10SM CLR 18/18 A3014 820 100 1400 000/00 RMK AO2
14926KSTC STC20010803005011608/03/01 00:50:31  5-MIN KSTC 030650Z AUTO 00000KT 10SM CLR 17/17 A3014 820 100 1300 000/00 RMK AO2 SLP211 T01720172
14926KSTC STC20010803005509908/03/01 00:55:31  5-MIN KSTC 030655Z AUTO 00000KT 10SM CLR 17/17 A3014 820 100 1200 000/00 RMK AO2
14926KSTC STC20010803010009808/03/01 01:00:31  5-MIN KSTC 030700Z AUTO 05003KT 9SM CLR 17/17 A3014 820 100 1200 050/03 RMK AO2
14926KSTC STC20010803010509808/03/01 01:05:31  5-MIN KSTC 030705Z AUTO 06003KT 8SM CLR 17/17 A3014 820 100 1200 050/03 RMK AO2
14926KSTC STC20010803011009808/03/01 01:10:31  5-MIN KSTC 030710Z AUTO 06004KT 9SM CLR 17/17 A3014 820 100 1300 060/04 RMK AO2
14926KSTC STC20010803011509908/03/01 01:15:31  5-MIN KSTC 030715Z AUTO 08003KT 10SM CLR 18/18 A3014 820 100 1400 080/03 RMK AO2
14926KSTC STC20010803012009908/03/01 01:20:31  5-MIN KSTC 030720Z AUTO 10003KT 10SM CLR 18/18 A3014 830 100 1400 100/03 RMK AO2
14926KSTC STC20010803012509908/03/01 01:25:31  5-MIN KSTC 030725Z AUTO 08003KT 10SM CLR 17/17 A3014 830 100 1300 070/03 RMK AO2
14926KSTC STC20010803013009908/03/01 01:30:31  5-MIN KSTC 030730Z AUTO 07003KT 10SM CLR 17/17 A3014 830 100 1300 070/03 RMK AO2
14926KSTC STC20010803013509908/03/01 01:35:31  5-MIN KSTC 030735Z AUTO 00000KT 10SM CLR 17/17 A3013 830 100 1300 000/00 RMK AO2
14926KSTC STC20010803014009908/03/01 01:40:31  5-MIN KSTC 030740Z AUTO 00000KT 10SM CLR 17/17 A3013 830 100 1300 000/00 RMK AO2
14926KSTC STC20010803014509908/03/01 01:45:31  5-MIN KSTC 030745Z AUTO 00000KT 10SM CLR 17/17 A3013 830 100 1300 000/00 RMK AO2
14926KSTC STC20010803015011608/03/01 01:50:31  5-MIN KSTC 030750Z AUTO 12003KT 10SM CLR 17/17 A3013 830 100 1300 110/03 RMK AO2 SLP206 T01720172
14926KSTC STC20010803015509908/03/01 01:55:31  5-MIN KSTC 030755Z AUTO 12003KT 10SM CLR 17/17 A3013 830 100 1300 120/03 RMK AO2
14926KSTC STC20010803020009908/03/01 02:00:31  5-MIN KSTC 030800Z AUTO 10003KT 10SM CLR 17/17 A3013 840 100 1300 100/03 RMK AO2
14926KSTC STC20010803020509908/03/01 02:05:31  5-MIN KSTC 030805Z AUTO 09004KT 10SM CLR 17/17 A3013 840 100 1300 090/04 RMK AO2
14926KSTC STC20010803021009908/03/01 02:10:31  5-MIN KSTC 030810Z AUTO 09005KT 10SM CLR 17/17 A3013 830 100 1300 090/05 RMK AO2
14926KSTC STC20010803021509908/03/01 02:15:31  5-MIN KSTC 030815Z AUTO 00000KT 10SM CLR 17/17 A3013 830 100 1300 000/00 RMK AO2
14926KSTC STC20010803022009908/03/01 02:20:31  5-MIN KSTC 030820Z AUTO 00000KT 10SM CLR 17/17 A3013 840 100 1300 000/00 RMK AO2
14926KSTC STC20010803022509908/03/01 02:25:31  5-MIN KSTC 030825Z AUTO 00000KT 10SM CLR 17/17 A3013 840 100 1300 000/00 RMK AO2
14926KSTC STC20010803023009908/03/01 02:30:31  5-MIN KSTC 030830Z AUTO 14003KT 10SM CLR 17/17 A3012 840 100 1300 140/03 RMK AO2
14926KSTC STC20010803023509908/03/01 02:35:31  5-MIN KSTC 030835Z AUTO 00000KT 10SM CLR 17/17 A3012 840 100 1300 000/00 RMK AO2
14926KSTC STC20010803024009908/03/01 02:40:31  5-MIN KSTC 030840Z AUTO 00000KT 10SM CLR 17/17 A3013 840 100 1300 000/00 RMK AO2
14926KSTC STC20010803024509908/03/01 02:45:31  5-MIN KSTC 030845Z AUTO 00000KT 10SM CLR 17/17 A3013 840 100 1300 000/00 RMK AO2
14926KSTC STC20010803025012108/03/01 02:50:31  5-MIN KSTC 030850Z AUTO 00000KT 10SM CLR 17/17 A3013 840 96 1300 000/00 RMK AO2 SLP205 T01720167 58009
14926KSTC STC20010803025509908/03/01 02:55:31  5-MIN KSTC 030855Z AUTO 00000KT 10SM CLR 17/17 A3013 840 100 1300 000/00 RMK AO2
14926KSTC STC20010803030009908/03/01 03:00:31  5-MIN KSTC 030900Z AUTO 00000KT 10SM CLR 17/17 A3012 840 100 1300 000/00 RMK AO2
14926KSTC STC20010803030509808/03/01 03:05:31  5-MIN KSTC 030905Z AUTO 00000KT 7SM CLR 16/16 A3012 840 100 1100 000/00 RMK AO2
14926KSTC STC20010803031010108/03/01 03:10:31  5-MIN KSTC 030910Z AUTO 00000KT 5SM BR CLR 16/16 A3012 840 100 1100 000/00 RMK AO2
14926KSTC STC20010803031510108/03/01 03:15:31  5-MIN KSTC 030915Z AUTO 10003KT 6SM BR CLR 17/17 A3012 840 100 1300 100/03 RMK AO2
14926KSTC STC20010803032009808/03/01 03:20:31  5-MIN KSTC 030920Z AUTO 08003KT 7SM CLR 16/16 A3012 840 100 1200 070/03 RMK AO2
14926KSTC STC20010803032509808/03/01 03:25:31  5-MIN KSTC 030925Z AUTO 09003KT 7SM CLR 16/16 A3012 850 100 1200 090/03 RMK AO2
14926KSTC STC20010803033009808/03/01 03:30:31  5-MIN KSTC 030930Z AUTO 11003KT 8SM CLR 17/17 A3011 850 100 1300 110/03 RMK AO2
14926KSTC STC20010803033509808/03/01 03:35:31  5-MIN KSTC 030935Z AUTO 10003KT 9SM CLR 17/17 A3011 850 100 1300 100/03 RMK AO2
14926KSTC STC20010803034009808/03/01 03:40:31  5-MIN KSTC 030940Z AUTO 09003KT 9SM CLR 17/17 A3011 850 100 1300 090/03 RMK AO2
14926KSTC STC20010803034509808/03/01 03:45:31  5-MIN KSTC 030945Z AUTO 00000KT 7SM CLR 17/17 A3011 850 100 1300 000/00 RMK AO2
14926KSTC STC20010803035011508/03/01 03:50:31  5-MIN KSTC 030950Z AUTO 00000KT 7SM CLR 17/17 A3011 850 100 1300 000/00 RMK AO2 SLP199 T01670167
14926KSTC STC20010803035509808/03/01 03:55:31  5-MIN KSTC 030955Z AUTO 00000KT 7SM CLR 16/16 A3011 850 100 1200 000/00 RMK AO2
14926KSTC STC20010803040010108/03/01 04:00:31  5-MIN KSTC 031000Z AUTO 00000KT 6SM BR CLR 16/16 A3011 850 100 1200 000/00 RMK AO2
14926KSTC STC20010803040509808/03/01 04:05:31  5-MIN KSTC 031005Z AUTO 00000KT 7SM CLR 16/16 A3011 850 100 1200 000/00 RMK AO2
14926KSTC STC20010803041010108/03/01 04:10:31  5-MIN KSTC 031010Z AUTO 00000KT 5SM BR CLR 16/16 A3011 850 100 1200 000/00 RMK AO2
14926KSTC STC20010803041510108/03/01 04:15:31  5-MIN KSTC 031015Z AUTO 00000KT 4SM BR CLR 16/16 A3011 850 100 1200 000/00 RMK AO2
14926KSTC STC20010803042010108/03/01 04:20:31  5-MIN KSTC 031020Z AUTO 00000KT 5SM BR CLR 16/16 A3011 850 100 1200 000/00 RMK AO2
14926KSTC STC20010803042510508/03/01 04:25:31  5-MIN KSTC 031025Z AUTO 00000KT 1 1/2SM BR CLR 16/16 A3011 850 100 1200 000/00 RMK AO2
14926KSTC STC20010803043010508/03/01 04:30:31  5-MIN KSTC 031030Z AUTO 00000KT 1 1/4SM BR CLR 16/16 A3011 850 100 1200 000/00 RMK AO2
14926KSTC STC20010803043510308/03/01 04:35:31  5-MIN KSTC 031035Z AUTO 00000KT 3/4SM BR CLR 15/15 A3011 850 100 1100 000/00 RMK AO2
14926KSTC STC20010803044010308/03/01 04:40:31  5-MIN KSTC 031040Z AUTO 00000KT 1/2SM FG CLR 16/16 A3011 850 100 1200 000/00 RMK AO2
14926KSTC STC20010803044510308/03/01 04:45:31  5-MIN KSTC 031045Z AUTO 00000KT 3/4SM BR CLR 15/15 A3012 850 100 1100 000/00 RMK AO2
14926KSTC STC20010803045012208/03/01 04:50:31  5-MIN KSTC 031050Z AUTO 00000KT 1/2SM FG VV001 15/15 A3012 840 100 1100 000/00 RMK AO2 SLP203 T01500150
14926KSTC STC20010803045510508/03/01 04:55:31  5-MIN KSTC 031055Z AUTO 00000KT 1/2SM FG VV001 16/16 A3012 840 100 1100 000/00 RMK AO2
14926KSTC STC20010803050010508/03/01 05:00:31  5-MIN KSTC 031100Z AUTO 00000KT 1/2SM FG VV001 15/15 A3012 840 100 1100 000/00 RMK AO2
14926KSTC STC20010803050510308/03/01 05:05:31  5-MIN KSTC 031105Z AUTO 00000KT 1/2SM FG CLR 16/16 A3013 840 100 1100 000/00 RMK AO2
14926KSTC STC20010803051010108/03/01 05:10:31  5-MIN KSTC 031110Z AUTO 00000KT 1SM BR CLR 16/16 A3013 840 100 1100 000/00 RMK AO2
14926KSTC STC20010803051510108/03/01 05:15:31  5-MIN KSTC 031115Z AUTO 00000KT 3SM BR CLR 15/15 A3013 830 100 1100 000/00 RMK AO2
14926KSTC STC20010803052010308/03/01 05:20:31  5-MIN KSTC 031120Z AUTO 00000KT 3/4SM BR CLR 16/16 A3013 830 100 1100 000/00 RMK AO2
14926KSTC STC20010803052510308/03/01 05:25:31  5-MIN KSTC 031125Z AUTO 00000KT 1/2SM FG CLR 16/16 A3013 830 100 1100 000/00 RMK AO2
14926KSTC STC20010803053010108/03/01 05:30:31  5-MIN KSTC 031130Z AUTO 00000KT 1SM BR CLR 16/16 A3013 830 100 1200 000/00 RMK AO2
14926KSTC STC20010803053510108/03/01 05:35:31  5-MIN KSTC 031135Z AUTO 14003KT 5SM BR CLR 16/16 A3013 830 100 1100 130/03 RMK AO2
14926KSTC STC20010803054009808/03/01 05:40:31  5-MIN KSTC 031140Z AUTO 14004KT 7SM CLR 16/16 A3013 830 100 1100 140/04 RMK AO2
14926KSTC STC20010803054509808/03/01 05:45:31  5-MIN KSTC 031145Z AUTO 13004KT 8SM CLR 16/16 A3013 840 100 1100 130/04 RMK AO2
14926KSTC STC20010803055013308/03/01 05:50:31  5-MIN KSTC 031150Z AUTO 14004KT 8SM CLR 16/16 A3013 830 100 1200 130/04 RMK AO2 SLP207 T01610161 10183 20150 56011
14926KSTC STC20010803055509808/03/01 05:55:31  5-MIN KSTC 031155Z AUTO 14004KT 8SM CLR 17/17 A3013 830 100 1300 140/04 RMK AO2
14926KSTC STC20010803060009808/03/01 06:00:31  5-MIN KSTC 031200Z AUTO 15004KT 7SM CLR 17/17 A3013 830 100 1300 150/04 RMK AO2
14926KSTC STC20010803060509808/03/01 06:05:31  5-MIN KSTC 031205Z AUTO 15003KT 7SM CLR 17/17 A3013 830 100 1300 150/03 RMK AO2
14926KSTC STC20010803061009808/03/01 06:10:31  5-MIN KSTC 031210Z AUTO 14003KT 7SM CLR 18/18 A3013 840 100 1400 140/03 RMK AO2
14926KSTC STC20010803061510108/03/01 06:15:31  5-MIN KSTC 031215Z AUTO 15004KT 6SM BR CLR 18/18 A3013 840 100 1500 150/04 RMK AO2
14926KSTC STC20010803062010108/03/01 06:20:31  5-MIN KSTC 031220Z AUTO 14004KT 6SM BR CLR 18/18 A3013 840 100 1500 140/04 RMK AO2
14926KSTC STC20010803062509708/03/01 06:25:31  5-MIN KSTC 031225Z AUTO 00000KT 7SM CLR 19/18 A3012 840 97 1500 000/00 RMK AO2
14926KSTC STC20010803063009708/03/01 06:30:31  5-MIN KSTC 031230Z AUTO 00000KT 8SM CLR 19/19 A3012 840 97 1600 000/00 RMK AO2
14926KSTC STC20010803063509708/03/01 06:35:31  5-MIN KSTC 031235Z AUTO 11003KT 8SM CLR 20/19 A3012 840 93 1700 110/03 RMK AO2
14926KSTC STC20010803064009708/03/01 06:40:31  5-MIN KSTC 031240Z AUTO 11004KT 9SM CLR 20/19 A3012 840 93 1700 110/04 RMK AO2
14926KSTC STC20010803064509808/03/01 06:45:31  5-MIN KSTC 031245Z AUTO 00000KT 10SM CLR 20/19 A3012 840 93 1700 000/00 RMK AO2
14926KSTC STC20010803065011508/03/01 06:50:31  5-MIN KSTC 031250Z AUTO 00000KT 10SM CLR 21/19 A3012 840 90 1700 000/00 RMK AO2 SLP203 T02060189
14926KSTC STC20010803065509808/03/01 06:55:31  5-MIN KSTC 031255Z AUTO 00000KT 10SM CLR 21/19 A3012 840 87 1800 000/00 RMK AO2
14926KSTC STC20010803070009808/03/01 07:00:31  5-MIN KSTC 031300Z AUTO 00000KT 10SM CLR 21/19 A3013 840 90 1800 000/00 RMK AO2
14926KSTC STC20010803070509808/03/01 07:05:31  5-MIN KSTC 031305Z AUTO 14003KT 10SM CLR 21/19 A3013 840 90 1800 140/03 RMK AO2
14926KSTC STC20010803071009808/03/01 07:10:31  5-MIN KSTC 031310Z AUTO 14003KT 10SM CLR 21/19 A3013 840 90 1800 140/03 RMK AO2
14926KSTC STC20010803071509808/03/01 07:15:31  5-MIN KSTC 031315Z AUTO 13003KT 10SM CLR 22/19 A3012 840 87 1800 130/03 RMK AO2
14926KSTC STC20010803072009808/03/01 07:20:31  5-MIN KSTC 031320Z AUTO 14006KT 10SM CLR 22/19 A3012 840 87 1800 140/06 RMK AO2
14926KSTC STC20010803072509808/03/01 07:25:31  5-MIN KSTC 031325Z AUTO 16004KT 10SM CLR 22/19 A3013 840 84 1900 150/04 RMK AO2
14926KSTC STC20010803073009808/03/01 07:30:31  5-MIN KSTC 031330Z AUTO 15005KT 10SM CLR 22/19 A3012 840 84 1900 150/05 RMK AO2
14926KSTC STC20010803073509808/03/01 07:35:31  5-MIN KSTC 031335Z AUTO 15005KT 10SM CLR 22/19 A3013 840 84 1900 150/05 RMK AO2
14926KSTC STC20010803074009808/03/01 07:40:31  5-MIN KSTC 031340Z AUTO 16005KT 10SM CLR 23/19 A3013 840 81 2000 150/05 RMK AO2
14926KSTC STC20010803074509808/03/01 07:45:31  5-MIN KSTC 031345Z AUTO 16006KT 10SM CLR 23/19 A3013 840 81 2000 160/06 RMK AO2
14926KSTC STC20010803075011508/03/01 07:50:31  5-MIN KSTC 031350Z AUTO 16005KT 10SM CLR 23/19 A3013 840 81 2000 160/05 RMK AO2 SLP205 T02280194
14926KSTC STC20010803075509808/03/01 07:55:31  5-MIN KSTC 031355Z AUTO 15007KT 10SM CLR 23/19 A3013 840 81 2000 150/07 RMK AO2
14926KSTC STC20010803080009808/03/01 08:00:31  5-MIN KSTC 031400Z AUTO 16004KT 10SM CLR 23/19 A3013 840 78 2000 150/04 RMK AO2
14926KSTC STC20010803080509808/03/01 08:05:31  5-MIN KSTC 031405Z AUTO 15006KT 10SM CLR 23/19 A3013 840 78 2000 140/06 RMK AO2
14926KSTC STC20010803081009808/03/01 08:10:31  5-MIN KSTC 031410Z AUTO 15006KT 10SM CLR 23/19 A3013 840 78 2000 150/06 RMK AO2
14926KSTC STC20010803081509808/03/01 08:15:31  5-MIN KSTC 031415Z AUTO 16009KT 10SM CLR 24/19 A3012 840 73 2100 150/09 RMK AO2
14926KSTC STC20010803082009808/03/01 08:20:31  5-MIN KSTC 031420Z AUTO 14009KT 10SM CLR 24/19 A3012 840 73 2100 140/09 RMK AO2
14926KSTC STC20010803082509808/03/01 08:25:31  5-MIN KSTC 031425Z AUTO 16008KT 10SM CLR 24/19 A3012 840 73 2100 150/08 RMK AO2
14926KSTC STC20010803083009808/03/01 08:30:31  5-MIN KSTC 031430Z AUTO 14008KT 10SM CLR 24/19 A3012 840 73 2200 140/08 RMK AO2
14926KSTC STC20010803083509808/03/01 08:35:31  5-MIN KSTC 031435Z AUTO 17009KT 10SM CLR 24/19 A3012 840 73 2200 160/09 RMK AO2
14926KSTC STC20010803084009808/03/01 08:40:31  5-MIN KSTC 031440Z AUTO 14009KT 10SM CLR 24/19 A3012 840 73 2200 140/09 RMK AO2
14926KSTC STC20010803084509808/03/01 08:45:31  5-MIN KSTC 031445Z AUTO 15009KT 10SM CLR 25/19 A3012 840 71 2200 150/09 RMK AO2
14926KSTC STC20010803085012108/03/01 08:50:31  5-MIN KSTC 031450Z AUTO 14008KT 10SM CLR 25/19 A3012 840 71 2200 140/08 RMK AO2 SLP202 T02500194 53002
14926KSTC STC20010803085509808/03/01 08:55:31  5-MIN KSTC 031455Z AUTO 14008KT 10SM CLR 25/19 A3012 840 71 2200 140/08 RMK AO2
14926KSTC STC20010803090009808/03/01 09:00:31  5-MIN KSTC 031500Z AUTO 15007KT 10SM CLR 25/19 A3011 850 71 2200 140/07 RMK AO2
14926KSTC STC20010803090509808/03/01 09:05:31  5-MIN KSTC 031505Z AUTO 16007KT 10SM CLR 26/19 A3011 850 68 2300 150/07 RMK AO2
14926KSTC STC20010803091009808/03/01 09:10:31  5-MIN KSTC 031510Z AUTO 13005KT 10SM CLR 26/19 A3011 850 68 2300 130/05 RMK AO2
14926KSTC STC20010803091509808/03/01 09:15:31  5-MIN KSTC 031515Z AUTO 15008KT 10SM CLR 26/20 A3011 850 71 2300 140/08 RMK AO2
14926KSTC STC20010803092009808/03/01 09:20:31  5-MIN KSTC 031520Z AUTO 14006KT 10SM CLR 26/20 A3011 850 71 2300 140/06 RMK AO2
14926KSTC STC20010803092511408/03/01 09:25:31  5-MIN KSTC 031525Z AUTO 16007KT 130V190 10SM CLR 26/20 A3010 860 71 2300 150/07 130V190 RMK AO2
14926KSTC STC20010803093009808/03/01 09:30:31  5-MIN KSTC 031530Z AUTO 17008KT 10SM CLR 26/20 A3010 860 71 2300 170/08 RMK AO2
14926KSTC STC20010803093509808/03/01 09:35:31  5-MIN KSTC 031535Z AUTO 16006KT 10SM CLR 26/20 A3010 860 68 2400 160/06 RMK AO2
14926KSTC STC20010803094009808/03/01 09:40:31  5-MIN KSTC 031540Z AUTO 13005KT 10SM CLR 26/20 A3010 860 68 2400 130/05 RMK AO2
14926KSTC STC20010803094509808/03/01 09:45:31  5-MIN KSTC 031545Z AUTO 17007KT 10SM CLR 26/20 A3010 860 68 2400 170/07 RMK AO2
14926KSTC STC20010803095011508/03/01 09:50:31  5-MIN KSTC 031550Z AUTO 14008KT 10SM CLR 27/20 A3010 860 66 2400 140/08 RMK AO2 SLP196 T02670200
14926KSTC STC20010803095509808/03/01 09:55:31  5-MIN KSTC 031555Z AUTO 14008KT 10SM CLR 27/20 A3010 860 66 2400 140/08 RMK AO2
14926KSTC STC20010803100009808/03/01 10:00:31  5-MIN KSTC 031600Z AUTO 15009KT 10SM CLR 27/20 A3010 860 66 2400 150/09 RMK AO2
14926KSTC STC20010803100509808/03/01 10:05:31  5-MIN KSTC 031605Z AUTO 17006KT 10SM CLR 27/20 A3010 860 66 2400 170/06 RMK AO2
14926KSTC STC20010803101009808/03/01 10:10:31  5-MIN KSTC 031610Z AUTO 15007KT 10SM CLR 27/20 A3011 850 66 2400 150/07 RMK AO2
14926KSTC STC20010803101509808/03/01 10:15:31  5-MIN KSTC 031615Z AUTO 15009KT 10SM CLR 27/20 A3011 850 66 2400 150/09 RMK AO2
14926KSTC STC20010803102009808/03/01 10:20:31  5-MIN KSTC 031620Z AUTO 14008KT 10SM CLR 27/20 A3010 860 64 2500 140/08 RMK AO2
14926KSTC STC20010803102509808/03/01 10:25:31  5-MIN KSTC 031625Z AUTO 15008KT 10SM CLR 27/20 A3010 860 64 2500 150/08 RMK AO2
14926KSTC STC20010803103009808/03/01 10:30:31  5-MIN KSTC 031630Z AUTO 14009KT 10SM CLR 28/20 A3010 860 62 2600 140/09 RMK AO2
14926KSTC STC20010803103509808/03/01 10:35:31  5-MIN KSTC 031635Z AUTO 15010KT 10SM CLR 27/20 A3010 860 64 2500 140/10 RMK AO2
14926KSTC STC20010803104009808/03/01 10:40:31  5-MIN KSTC 031640Z AUTO 16010KT 10SM CLR 28/20 A3010 860 62 2600 160/10 RMK AO2
14926KSTC STC20010803104509808/03/01 10:45:31  5-MIN KSTC 031645Z AUTO 16009KT 10SM CLR 28/20 A3010 860 62 2600 160/09 RMK AO2
14926KSTC STC20010803105011508/03/01 10:50:31  5-MIN KSTC 031650Z AUTO 16008KT 10SM CLR 28/20 A3010 860 62 2600 150/08 RMK AO2 SLP195 T02780200
14926KSTC STC20010803105509808/03/01 10:55:31  5-MIN KSTC 031655Z AUTO 14008KT 10SM CLR 28/20 A3010 860 60 2600 140/08 RMK AO2
14926KSTC STC20010803110009808/03/01 11:00:31  5-MIN KSTC 031700Z AUTO 16009KT 10SM CLR 28/20 A3010 860 60 2600 160/09 RMK AO2
14926KSTC STC20010803110509808/03/01 11:05:31  5-MIN KSTC 031705Z AUTO 14009KT 10SM CLR 28/20 A3010 860 60 2600 140/09 RMK AO2
14926KSTC STC20010803111009808/03/01 11:10:31  5-MIN KSTC 031710Z AUTO 14007KT 10SM CLR 28/21 A3010 860 62 2600 140/07 RMK AO2
14926KSTC STC20010803111509808/03/01 11:15:31  5-MIN KSTC 031715Z AUTO 15007KT 10SM CLR 28/20 A3010 860 60 2600 150/07 RMK AO2
14926KSTC STC20010803112009808/03/01 11:20:31  5-MIN KSTC 031720Z AUTO 18008KT 10SM CLR 29/20 A3010 860 58 2700 180/08 RMK AO2
14926KSTC STC20010803112509808/03/01 11:25:31  5-MIN KSTC 031725Z AUTO 14009KT 10SM CLR 29/20 A3010 860 58 2700 130/09 RMK AO2
14926KSTC STC20010803113010408/03/01 11:30:31  5-MIN KSTC 031730Z AUTO 16009G16KT 10SM CLR 29/19 A3010 860 56 2700 160/09G16 RMK AO2
14926KSTC STC20010803113510408/03/01 11:35:31  5-MIN KSTC 031735Z AUTO 15009G16KT 10SM CLR 29/19 A3010 860 56 2700 150/09G16 RMK AO2
14926KSTC STC20010803114009808/03/01 11:40:31  5-MIN KSTC 031740Z AUTO 16009KT 10SM CLR 29/19 A3010 860 56 2700 150/09 RMK AO2
14926KSTC STC20010803114509808/03/01 11:45:31  5-MIN KSTC 031745Z AUTO 14008KT 10SM CLR 29/19 A3010 860 56 2700 140/08 RMK AO2
14926KSTC STC20010803115013308/03/01 11:50:31  5-MIN KSTC 031750Z AUTO 17008KT 10SM CLR 29/19 A3010 860 54 2700 160/08 RMK AO2 SLP195 T02940194 10294 20167 56004
14926KSTC STC20010803115509808/03/01 11:55:31  5-MIN KSTC 031755Z AUTO 18008KT 10SM CLR 29/20 A3010 860 58 2700 170/08 RMK AO2
14926KSTC STC20010803120009808/03/01 12:00:31  5-MIN KSTC 031800Z AUTO 16010KT 10SM CLR 29/19 A3010 860 54 2800 160/10 RMK AO2
14926KSTC STC20010803120509808/03/01 12:05:31  5-MIN KSTC 031805Z AUTO 18008KT 10SM CLR 29/19 A3010 860 56 2700 170/08 RMK AO2
14926KSTC STC20010803121009808/03/01 12:10:31  5-MIN KSTC 031810Z AUTO 19007KT 10SM CLR 29/20 A3010 860 56 2800 190/07 RMK AO2
14926KSTC STC20010803121509808/03/01 12:15:31  5-MIN KSTC 031815Z AUTO 16011KT 10SM CLR 29/20 A3009 870 56 2800 160/11 RMK AO2
14926KSTC STC20010803122009808/03/01 12:20:31  5-MIN KSTC 031820Z AUTO 16009KT 10SM CLR 29/21 A3009 870 58 2800 160/09 RMK AO2
14926KSTC STC20010803122509808/03/01 12:25:31  5-MIN KSTC 031825Z AUTO 16009KT 10SM CLR 29/21 A3009 870 60 2700 150/09 RMK AO2
14926KSTC STC20010803123009808/03/01 12:30:31  5-MIN KSTC 031830Z AUTO 16011KT 10SM CLR 29/21 A3009 870 58 2800 160/11 RMK AO2
14926KSTC STC20010803123509808/03/01 12:35:31  5-MIN KSTC 031835Z AUTO 17008KT 10SM CLR 29/21 A3009 870 58 2800 170/08 RMK AO2
14926KSTC STC20010803124009808/03/01 12:40:31  5-MIN KSTC 031840Z AUTO 16010KT 10SM CLR 30/21 A3009 870 58 2800 160/10 RMK AO2
14926KSTC STC20010803124511408/03/01 12:45:31  5-MIN KSTC 031845Z AUTO 17007KT 130V200 10SM CLR 30/21 A3009 870 58 2800 160/07 130V200 RMK AO2
14926KSTC STC20010803125011508/03/01 12:50:31  5-MIN KSTC 031850Z AUTO 16009KT 10SM CLR 30/21 A3009 870 58 2800 160/09 RMK AO2 SLP190 T03000211
14926KSTC STC20010803125509808/03/01 12:55:31  5-MIN KSTC 031855Z AUTO 16008KT 10SM CLR 30/21 A3008 880 58 2800 160/08 RMK AO2
14926KSTC STC20010803130009808/03/01 13:00:31  5-MIN KSTC 031900Z AUTO 16009KT 10SM CLR 30/21 A3008 880 58 2800 160/09 RMK AO2
14926KSTC STC20010803130509808/03/01 13:05:31  5-MIN KSTC 031905Z AUTO 18008KT 10SM CLR 31/21 A3008 880 56 2900 180/08 RMK AO2
14926KSTC STC20010803131009808/03/01 13:10:31  5-MIN KSTC 031910Z AUTO 16010KT 10SM CLR 30/21 A3008 880 58 2800 160/10 RMK AO2
14926KSTC STC20010803131509808/03/01 13:15:31  5-MIN KSTC 031915Z AUTO 18006KT 10SM CLR 30/21 A3008 880 58 2800 170/06 RMK AO2
14926KSTC STC20010803132009808/03/01 13:20:31  5-MIN KSTC 031920Z AUTO 19007KT 10SM CLR 31/21 A3008 880 56 2900 180/07 RMK AO2
14926KSTC STC20010803132511408/03/01 13:25:31  5-MIN KSTC 031925Z AUTO 15010KT 140V200 10SM CLR 31/21 A3007 880 56 2900 150/10 140V200 RMK AO2
14926KSTC STC20010803133009808/03/01 13:30:31  5-MIN KSTC 031930Z AUTO 15009KT 10SM CLR 31/21 A3007 890 56 2900 150/09 RMK AO2
14926KSTC STC20010803133509808/03/01 13:35:31  5-MIN KSTC 031935Z AUTO 15010KT 10SM CLR 31/21 A3007 890 56 2900 150/10 RMK AO2
14926KSTC STC20010803134009808/03/01 13:40:31  5-MIN KSTC 031940Z AUTO 15008KT 10SM CLR 30/21 A3007 890 58 2800 150/08 RMK AO2
14926KSTC STC20010803134509808/03/01 13:45:31  5-MIN KSTC 031945Z AUTO 18008KT 10SM CLR 31/21 A3007 890 56 2900 180/08 RMK AO2
14926KSTC STC20010803135011508/03/01 13:50:31  5-MIN KSTC 031950Z AUTO 21007KT 10SM CLR 31/21 A3006 890 56 2900 210/07 RMK AO2 SLP183 T03060211
14926KSTC STC20010803135509808/03/01 13:55:31  5-MIN KSTC 031955Z AUTO 17008KT 10SM CLR 31/22 A3006 890 58 2900 170/08 RMK AO2
14926KSTC STC20010803140009808/03/01 14:00:31  5-MIN KSTC 032000Z AUTO 15008KT 10SM CLR 31/21 A3006 900 56 2900 140/08 RMK AO2
14926KSTC STC20010803140509808/03/01 14:05:31  5-MIN KSTC 032005Z AUTO 13007KT 10SM CLR 31/22 A3006 900 56 3000 130/07 RMK AO2
14926KSTC STC20010803141009808/03/01 14:10:31  5-MIN KSTC 032010Z AUTO 16007KT 10SM CLR 31/21 A3005 900 56 2900 150/07 RMK AO2
14926KSTC STC20010803141509808/03/01 14:15:31  5-MIN KSTC 032015Z AUTO 13007KT 10SM CLR 31/21 A3005 900 56 2900 130/07 RMK AO2
14926KSTC STC20010803142009808/03/01 14:20:31  5-MIN KSTC 032020Z AUTO 15006KT 10SM CLR 31/21 A3005 910 56 2900 150/06 RMK AO2
14926KSTC STC20010803142511408/03/01 14:25:31  5-MIN KSTC 032025Z AUTO 15008KT 120V180 10SM CLR 31/22 A3005 910 58 2900 150/08 120V180 RMK AO2
14926KSTC STC20010803143009808/03/01 14:30:31  5-MIN KSTC 032030Z AUTO 16008KT 10SM CLR 31/22 A3005 910 56 3000 150/08 RMK AO2
14926KSTC STC20010803143509808/03/01 14:35:31  5-MIN KSTC 032035Z AUTO 14008KT 10SM CLR 31/22 A3005 910 58 2900 140/08 RMK AO2
14926KSTC STC20010803144009808/03/01 14:40:31  5-MIN KSTC 032040Z AUTO 15005KT 10SM CLR 31/21 A3004 910 56 2900 150/05 RMK AO2
14926KSTC STC20010803144511408/03/01 14:45:31  5-MIN KSTC 032045Z AUTO 18007KT 140V200 10SM CLR 31/22 A3004 910 56 3000 170/07 140V200 RMK AO2
14926KSTC STC20010803145012108/03/01 14:50:31  5-MIN KSTC 032050Z AUTO 16006KT 10SM CLR 31/22 A3004 910 58 2900 160/06 RMK AO2 SLP175 T03060217 56007
14926KSTC STC20010803145509808/03/01 14:55:31  5-MIN KSTC 032055Z AUTO 14007KT 10SM CLR 31/22 A3004 910 58 2900 140/07 RMK AO2
14926KSTC STC20010803150009808/03/01 15:00:31  5-MIN KSTC 032100Z AUTO 18007KT 10SM CLR 31/22 A3004 920 56 3000 180/07 RMK AO2
14926KSTC STC20010803150509808/03/01 15:05:31  5-MIN KSTC 032105Z AUTO 15008KT 10SM CLR 31/22 A3004 920 56 3000 150/08 RMK AO2
14926KSTC STC20010803151009808/03/01 15:10:31  5-MIN KSTC 032110Z AUTO 18007KT 10SM CLR 31/22 A3004 920 56 3000 180/07 RMK AO2
14926KSTC STC20010803151509808/03/01 15:15:31  5-MIN KSTC 032115Z AUTO VRB05KT 10SM CLR 31/22 A3004 920 58 2900 VRB/05 RMK AO2
14926KSTC STC20010803152009808/03/01 15:20:31  5-MIN KSTC 032120Z AUTO 18007KT 10SM CLR 32/22 A3003 920 56 3100 180/07 RMK AO2
14926KSTC STC20010803152509808/03/01 15:25:31  5-MIN KSTC 032125Z AUTO 18006KT 10SM CLR 31/22 A3004 920 56 3000 180/06 RMK AO2
14926KSTC STC20010803153009808/03/01 15:30:31  5-MIN KSTC 032130Z AUTO 19008KT 10SM CLR 31/22 A3003 920 58 3000 190/08 RMK AO2
14926KSTC STC20010803153509808/03/01 15:35:31  5-MIN KSTC 032135Z AUTO 20007KT 10SM CLR 31/22 A3003 920 58 3000 200/07 RMK AO2
14926KSTC STC20010803154009808/03/01 15:40:31  5-MIN KSTC 032140Z AUTO 17007KT 10SM CLR 31/22 A3003 920 58 3000 170/07 RMK AO2
14926KSTC STC20010803154509808/03/01 15:45:31  5-MIN KSTC 032145Z AUTO 20008KT 10SM CLR 31/22 A3003 930 60 3000 190/08 RMK AO2
14926KSTC STC20010803155011508/03/01 15:50:31  5-MIN KSTC 032150Z AUTO 19006KT 10SM CLR 31/22 A3003 930 60 3000 190/06 RMK AO2 SLP171 T03060222
14926KSTC STC20010803155509808/03/01 15:55:31  5-MIN KSTC 032155Z AUTO 17009KT 10SM CLR 31/22 A3003 930 58 3000 170/09 RMK AO2
14926KSTC STC20010803160009808/03/01 16:00:31  5-MIN KSTC 032200Z AUTO 17006KT 10SM CLR 31/22 A3002 930 60 3000 170/06 RMK AO2
14926KSTC STC20010803160509808/03/01 16:05:31  5-MIN KSTC 032205Z AUTO 18009KT 10SM CLR 31/22 A3002 930 58 3000 180/09 RMK AO2
14926KSTC STC20010803161009808/03/01 16:10:31  5-MIN KSTC 032210Z AUTO 17006KT 10SM CLR 31/22 A3002 930 60 3000 160/06 RMK AO2
14926KSTC STC20010803161509808/03/01 16:15:31  5-MIN KSTC 032215Z AUTO 17007KT 10SM CLR 31/23 A3002 930 62 3000 160/07 RMK AO2
14926KSTC STC20010803162010108/03/01 16:20:31  5-MIN KSTC 032220Z AUTO 16008KT 10SM FEW035 31/23 A3002 930 60 3000 160/08 RMK AO2
14926KSTC STC20010803162510108/03/01 16:25:31  5-MIN KSTC 032225Z AUTO 20008KT 10SM SCT035 32/23 A3002 940 58 3100 200/08 RMK AO2
14926KSTC STC20010803163010108/03/01 16:30:31  5-MIN KSTC 032230Z AUTO 19006KT 10SM BKN035 31/23 A3002 940 62 3000 190/06 RMK AO2
14926KSTC STC20010803163510108/03/01 16:35:31  5-MIN KSTC 032235Z AUTO 16010KT 10SM BKN035 31/23 A3002 940 60 3000 150/10 RMK AO2
14926KSTC STC20010803164010108/03/01 16:40:31  5-MIN KSTC 032240Z AUTO 17007KT 10SM BKN035 31/23 A3002 940 62 3000 170/07 RMK AO2
14926KSTC STC20010803164510108/03/01 16:45:31  5-MIN KSTC 032245Z AUTO 18008KT 10SM BKN035 31/23 A3001 940 60 3000 180/08 RMK AO2
14926KSTC STC20010803165011808/03/01 16:50:31  5-MIN KSTC 032250Z AUTO 21008KT 10SM BKN035 31/23 A3001 940 62 3000 200/08 RMK AO2 SLP166 T03060228
14926KSTC STC20010803165510108/03/01 16:55:31  5-MIN KSTC 032255Z AUTO 19005KT 10SM SCT035 31/23 A3001 940 62 3000 190/05 RMK AO2
14926KSTC STC20010803170010108/03/01 17:00:31  5-MIN KSTC 032300Z AUTO 17007KT 10SM FEW035 31/23 A3001 940 62 3000 170/07 RMK AO2
14926KSTC STC20010803170510108/03/01 17:05:31  5-MIN KSTC 032305Z AUTO 17006KT 10SM FEW037 31/23 A3001 940 63 3000 170/06 RMK AO2
14926KSTC STC20010803171010108/03/01 17:10:31  5-MIN KSTC 032310Z AUTO 19007KT 10SM FEW037 31/23 A3001 950 65 3000 190/07 RMK AO2
14926KSTC STC20010803171511708/03/01 17:15:31  5-MIN KSTC 032315Z AUTO 19007KT 160V220 10SM FEW037 31/23 A3001 950 62 3000 180/07 160V220 RMK AO2
14926KSTC STC20010803172009808/03/01 17:20:31  5-MIN KSTC 032320Z AUTO 19006KT 10SM CLR 31/23 A3001 950 62 3000 190/06 RMK AO2
14926KSTC STC20010803172509808/03/01 17:25:31  5-MIN KSTC 032325Z AUTO 17006KT 10SM CLR 31/23 A3001 950 65 3000 170/06 RMK AO2
14926KSTC STC20010803173009808/03/01 17:30:31  5-MIN KSTC 032330Z AUTO 18007KT 10SM CLR 31/23 A3000 950 62 3000 180/07 RMK AO2
14926KSTC STC20010803173509808/03/01 17:35:31  5-MIN KSTC 032335Z AUTO 19008KT 10SM CLR 31/23 A3000 950 62 3000 190/08 RMK AO2
14926KSTC STC20010803174009808/03/01 17:40:31  5-MIN KSTC 032340Z AUTO 19008KT 10SM CLR 30/23 A3000 950 65 2900 190/08 RMK AO2
14926KSTC STC20010803174509808/03/01 17:45:31  5-MIN KSTC 032345Z AUTO 20007KT 10SM CLR 30/23 A3000 950 67 2900 200/07 RMK AO2
14926KSTC STC20010803175013308/03/01 17:50:31  5-MIN KSTC 032350Z AUTO 19008KT 10SM CLR 30/23 A3000 950 67 2900 190/08 RMK AO2 SLP163 T03000233 10317 20289 58019
14926KSTC STC20010803175509808/03/01 17:55:31  5-MIN KSTC 032355Z AUTO 18007KT 10SM CLR 30/23 A3000 950 67 2900 180/07 RMK AO2
14926KSTC STC20010803180009808/03/01 18:00:31  5-MIN KSTC 040000Z AUTO 20007KT 10SM CLR 30/23 A3000 950 67 2900 190/07 RMK AO2
14926KSTC STC20010803180509808/03/01 18:05:31  5-MIN KSTC 040005Z AUTO 19007KT 10SM CLR 30/23 A3000 950 67 2900 190/07 RMK AO2
14926KSTC STC20010803181009808/03/01 18:10:31  5-MIN KSTC 040010Z AUTO 19006KT 10SM CLR 30/23 A3000 950 67 2900 190/06 RMK AO2
14926KSTC STC20010803181509808/03/01 18:15:31  5-MIN KSTC 040015Z AUTO 19006KT 10SM CLR 29/23 A3000 950 69 2900 190/06 RMK AO2
14926KSTC STC20010803182009808/03/01 18:20:31  5-MIN KSTC 040020Z AUTO 20006KT 10SM CLR 29/24 A3000 950 71 2900 190/06 RMK AO2
14926KSTC STC20010803182509808/03/01 18:25:31  5-MIN KSTC 040025Z AUTO 20006KT 10SM CLR 29/24 A3000 950 71 2900 200/06 RMK AO2
14926KSTC STC20010803183009808/03/01 18:30:31  5-MIN KSTC 040030Z AUTO 19004KT 10SM CLR 29/23 A3000 950 69 2900 190/04 RMK AO2
14926KSTC STC20010803183509808/03/01 18:35:31  5-MIN KSTC 040035Z AUTO 18003KT 10SM CLR 29/24 A3000 950 71 2900 180/03 RMK AO2
14926KSTC STC20010803184009808/03/01 18:40:31  5-MIN KSTC 040040Z AUTO 17004KT 10SM CLR 29/24 A3000 950 71 2900 160/04 RMK AO2
14926KSTC STC20010803184510108/03/01 18:45:31  5-MIN KSTC 040045Z AUTO 18004KT 10SM FEW035 29/24 A3000 950 71 2900 180/04 RMK AO2
14926KSTC STC20010803185011808/03/01 18:50:31  5-MIN KSTC 040050Z AUTO 17003KT 10SM FEW035 29/24 A3000 950 74 2800 170/03 RMK AO2 SLP161 T02890239
14926KSTC STC20010803185510108/03/01 18:55:31  5-MIN KSTC 040055Z AUTO 16003KT 10SM SCT035 29/24 A3000 950 74 2800 150/03 RMK AO2
14926KSTC STC20010803190010108/03/01 19:00:31  5-MIN KSTC 040100Z AUTO 15003KT 10SM BKN035 29/24 A3000 950 74 2800 150/03 RMK AO2
14926KSTC STC20010803190510108/03/01 19:05:31  5-MIN KSTC 040105Z AUTO 00000KT 10SM BKN035 29/24 A3000 960 76 2800 000/00 RMK AO2
14926KSTC STC20010803191010108/03/01 19:10:31  5-MIN KSTC 040110Z AUTO 00000KT 10SM OVC035 29/24 A2999 960 76 2800 000/00 RMK AO2
14926KSTC STC20010803191510808/03/01 19:15:31  5-MIN KSTC 040115Z AUTO 00000KT 10SM BKN035 BKN041 28/24 A2999 960 79 2700 000/00 RMK AO2
14926KSTC STC20010803192010108/03/01 19:20:31  5-MIN KSTC 040120Z AUTO 00000KT 10SM BKN037 28/24 A2999 960 79 2700 000/00 RMK AO2
14926KSTC STC20010803192510808/03/01 19:25:31  5-MIN KSTC 040125Z AUTO 00000KT 10SM BKN035 OVC042 28/24 A2999 960 79 2700 000/00 RMK AO2
14926KSTC STC20010803193010808/03/01 19:30:31  5-MIN KSTC 040130Z AUTO 11003KT 10SM BKN035 OVC042 28/24 A2999 960 79 2700 110/03 RMK AO2
14926KSTC STC20010803193510008/03/01 19:35:31  5-MIN KSTC 040135Z AUTO 10003KT 8SM BKN037 28/24 A2999 960 82 2700 090/03 RMK AO2
14926KSTC STC20010803194010308/03/01 19:40:31  5-MIN KSTC 040140Z AUTO 11003KT 4SM HZ BKN039 28/25 A2999 960 84 2700 100/03 RMK AO2
14926KSTC STC20010803194511008/03/01 19:45:31  5-MIN KSTC 040145Z AUTO 12003KT 5SM HZ BKN037 BKN044 28/24 A2999 960 82 2700 120/03 RMK AO2
14926KSTC STC20010803195012408/03/01 19:50:31  5-MIN KSTC 040150Z AUTO 12004KT 9SM BKN037 BKN044 27/24 A2999 960 84 2600 120/04 RMK AO2 SLP157 T02720244
14926KSTC STC20010803195510108/03/01 19:55:31  5-MIN KSTC 040155Z AUTO 12004KT 10SM BKN039 27/24 A2999 960 84 2600 120/04 RMK AO2
14926KSTC STC20010803200010108/03/01 20:00:31  5-MIN KSTC 040200Z AUTO 12004KT 10SM SCT041 27/24 A2999 960 84 2600 120/04 RMK AO2
14926KSTC STC20010803200510808/03/01 20:05:31  5-MIN KSTC 040205Z AUTO 11003KT 10SM FEW037 SCT044 27/24 A2999 960 87 2600 110/03 RMK AO2
14926KSTC STC20010803201010808/03/01 20:10:31  5-MIN KSTC 040210Z AUTO 12004KT 10SM FEW033 SCT044 27/24 A2999 960 87 2600 110/04 RMK AO2
14926KSTC STC20010803201510108/03/01 20:15:31  5-MIN KSTC 040215Z AUTO 12004KT 10SM FEW033 27/24 A2999 960 87 2600 120/04 RMK AO2
14926KSTC STC20010803202010108/03/01 20:20:31  5-MIN KSTC 040220Z AUTO 11003KT 10SM FEW033 27/24 A2999 960 84 2600 100/03 RMK AO2
14926KSTC STC20010803202510008/03/01 20:25:31  5-MIN KSTC 040225Z AUTO 11003KT 9SM FEW033 26/24 A3000 960 87 2500 100/03 RMK AO2
14926KSTC STC20010803203010008/03/01 20:30:31  5-MIN KSTC 040230Z AUTO 10004KT 9SM FEW033 26/24 A3000 960 87 2500 090/04 RMK AO2
14926KSTC STC20010803203510108/03/01 20:35:31  5-MIN KSTC 040235Z AUTO 10004KT 10SM FEW033 26/24 A3000 960 90 2400 100/04 RMK AO2
14926KSTC STC20010803204009808/03/01 20:40:31  5-MIN KSTC 040240Z AUTO 09004KT 10SM CLR 26/24 A3000 950 90 2400 090/04 RMK AO2
14926KSTC STC20010803204509808/03/01 20:45:31  5-MIN KSTC 040245Z AUTO 10004KT 10SM CLR 26/24 A3000 960 90 2400 090/04 RMK AO2
14926KSTC STC20010803205012108/03/01 20:50:31  5-MIN KSTC 040250Z AUTO 10004KT 10SM CLR 26/24 A3000 960 90 2400 100/04 RMK AO2 SLP159 T02560239 56014
14926KSTC STC20010803205509808/03/01 20:55:31  5-MIN KSTC 040255Z AUTO 10004KT 10SM CLR 26/24 A3000 950 90 2400 100/04 RMK AO2
14926KSTC STC20010803210009808/03/01 21:00:31  5-MIN KSTC 040300Z AUTO 10004KT 10SM CLR 26/24 A3000 950 90 2400 100/04 RMK AO2
14926KSTC STC20010803210509808/03/01 21:05:31  5-MIN KSTC 040305Z AUTO 10004KT 10SM CLR 25/24 A3000 950 93 2400 100/04 RMK AO2
14926KSTC STC20010803211009808/03/01 21:10:31  5-MIN KSTC 040310Z AUTO 10005KT 10SM CLR 25/24 A3000 950 93 2400 100/05 RMK AO2
14926KSTC STC20010803211509808/03/01 21:15:31  5-MIN KSTC 040315Z AUTO 10005KT 10SM CLR 25/24 A3000 950 93 2400 100/05 RMK AO2
14926KSTC STC20010803212009808/03/01 21:20:31  5-MIN KSTC 040320Z AUTO 10005KT 10SM CLR 26/23 A3000 950 87 2400 100/05 RMK AO2
14926KSTC STC20010803212509808/03/01 21:25:31  5-MIN KSTC 040325Z AUTO 09005KT 10SM CLR 26/23 A3000 950 87 2400 090/05 RMK AO2
14926KSTC STC20010803213009808/03/01 21:30:31  5-MIN KSTC 040330Z AUTO 10006KT 10SM CLR 25/23 A3000 960 90 2400 090/06 RMK AO2
14926KSTC STC20010803213509808/03/01 21:35:31  5-MIN KSTC 040335Z AUTO 10006KT 10SM CLR 25/23 A3000 960 90 2400 090/06 RMK AO2
14926KSTC STC20010803214009808/03/01 21:40:31  5-MIN KSTC 040340Z AUTO 10007KT 10SM CLR 26/23 A3000 960 87 2400 100/07 RMK AO2
14926KSTC STC20010803214509808/03/01 21:45:31  5-MIN KSTC 040345Z AUTO 10006KT 10SM CLR 26/23 A3000 960 84 2400 090/06 RMK AO2
14926KSTC STC20010803215011508/03/01 21:50:31  5-MIN KSTC 040350Z AUTO 10005KT 10SM CLR 25/23 A3000 960 87 2400 100/05 RMK AO2 SLP159 T02500228
14926KSTC STC20010803215509808/03/01 21:55:31  5-MIN KSTC 040355Z AUTO 11006KT 10SM CLR 25/23 A3000 960 87 2400 100/06 RMK AO2
14926KSTC STC20010803220009808/03/01 22:00:31  5-MIN KSTC 040400Z AUTO 11006KT 10SM CLR 25/22 A3000 960 84 2400 100/06 RMK AO2
14926KSTC STC20010803220509808/03/01 22:05:31  5-MIN KSTC 040405Z AUTO 11005KT 10SM CLR 25/22 A3000 960 84 2400 110/05 RMK AO2
14926KSTC STC20010803221009808/03/01 22:10:31  5-MIN KSTC 040410Z AUTO 10005KT 10SM CLR 24/22 A2999 960 87 2300 100/05 RMK AO2
14926KSTC STC20010803221509808/03/01 22:15:31  5-MIN KSTC 040415Z AUTO 11005KT 10SM CLR 24/22 A2999 960 84 2300 110/05 RMK AO2
14926KSTC STC20010803222009808/03/01 22:20:31  5-MIN KSTC 040420Z AUTO 12005KT 10SM CLR 24/22 A2999 960 84 2300 120/05 RMK AO2
14926KSTC STC20010803222509808/03/01 22:25:31  5-MIN KSTC 040425Z AUTO 10005KT 10SM CLR 24/22 A3000 960 84 2300 100/05 RMK AO2
14926KSTC STC20010803223010108/03/01 22:30:31  5-MIN KSTC 040430Z AUTO 11005KT 10SM FEW037 24/22 A2999 960 84 2300 100/05 RMK AO2
14926KSTC STC20010803223510108/03/01 22:35:31  5-MIN KSTC 040435Z AUTO 10005KT 10SM SCT037 24/22 A2999 960 87 2200 100/05 RMK AO2
14926KSTC STC20010803224010108/03/01 22:40:31  5-MIN KSTC 040440Z AUTO 11005KT 10SM SCT037 24/22 A2999 960 87 2200 110/05 RMK AO2
14926KSTC STC20010803224510108/03/01 22:45:31  5-MIN KSTC 040445Z AUTO 10006KT 10SM SCT037 24/21 A3000 960 81 2300 100/06 RMK AO2
14926KSTC STC20010803225011808/03/01 22:50:31  5-MIN KSTC 040450Z AUTO 09005KT 10SM FEW037 24/21 A3000 960 84 2200 090/05 RMK AO2 SLP159 T02390211
14926KSTC STC20010803225510108/03/01 22:55:31  5-MIN KSTC 040455Z AUTO 09005KT 10SM SCT037 24/21 A3000 950 84 2200 090/05 RMK AO2
14926KSTC STC20010803230010108/03/01 23:00:31  5-MIN KSTC 040500Z AUTO 10005KT 10SM SCT037 24/21 A3000 950 84 2200 090/05 RMK AO2
14926KSTC STC20010803230510108/03/01 23:05:31  5-MIN KSTC 040505Z AUTO 09005KT 10SM BKN037 24/21 A3000 950 84 2200 090/05 RMK AO2
14926KSTC STC20010803231010108/03/01 23:10:31  5-MIN KSTC 040510Z AUTO 09005KT 10SM BKN035 24/21 A3000 950 84 2200 090/05 RMK AO2
14926KSTC STC20010803231510108/03/01 23:15:31  5-MIN KSTC 040515Z AUTO 11004KT 10SM BKN035 24/21 A3000 950 84 2200 100/04 RMK AO2
14926KSTC STC20010803232010808/03/01 23:20:31  5-MIN KSTC 040520Z AUTO 12005KT 10SM BKN035 BKN044 24/21 A3000 950 84 2200 110/05 RMK AO2
14926KSTC STC20010803232510808/03/01 23:25:31  5-MIN KSTC 040525Z AUTO 13004KT 10SM SCT035 BKN044 24/21 A3000 960 84 2200 130/04 RMK AO2
14926KSTC STC20010803233010808/03/01 23:30:31  5-MIN KSTC 040530Z AUTO 12004KT 10SM SCT035 SCT044 24/21 A2999 960 84 2200 120/04 RMK AO2
14926KSTC STC20010803233510108/03/01 23:35:31  5-MIN KSTC 040535Z AUTO 10004KT 10SM FEW035 23/21 A3000 960 87 2200 090/04 RMK AO2
14926KSTC STC20010803234009808/03/01 23:40:31  5-MIN KSTC 040540Z AUTO 10005KT 10SM CLR 23/21 A3000 950 87 2200 090/05 RMK AO2
14926KSTC STC20010803234509808/03/01 23:45:31  5-MIN KSTC 040545Z AUTO 12004KT 10SM CLR 23/21 A3000 960 87 2200 110/04 RMK AO2
14926KSTC STC20010803235014308/03/01 23:50:31  5-MIN KSTC 040550Z AUTO 13004KT 10SM CLR 23/21 A3000 950 87 2200 120/04 RMK AO2 SLP159 T02330211 10300 20233 403170150 55000
14926KSTC STC20010803235509808/03/01 23:55:31  5-MIN KSTC 040555Z AUTO 00000KT 10SM CLR 23/21 A3000 950 87 2200 000/00 RMK AO2
14926KSTC STC20010804000010108/04/01 00:00:31  5-MIN KSTC 040600Z AUTO 00000KT 10SM FEW029 23/21 A3000 950 90 2100 000/00 RMK AO2
14926KSTC STC20010804000510108/04/01 00:05:31  5-MIN KSTC 040605Z AUTO 00000KT 10SM FEW029 23/21 A3000 950 90 2100 000/00 RMK AO2
14926KSTC STC20010804001010108/04/01 00:10:31  5-MIN KSTC 040610Z AUTO 13003KT 10SM FEW029 23/21 A3000 950 90 2100 120/03 RMK AO2
14926KSTC STC20010804001510108/04/01 00:15:31  5-MIN KSTC 040615Z AUTO 13003KT 10SM FEW029 23/21 A3000 950 90 2100 120/03 RMK AO2
14926KSTC STC20010804002010108/04/01 00:20:31  5-MIN KSTC 040620Z AUTO 13003KT 10SM FEW029 23/21 A3000 950 90 2100 130/03 RMK AO2
14926KSTC STC20010804002510108/04/01 00:25:31  5-MIN KSTC 040625Z AUTO 00000KT 10SM FEW029 23/21 A3000 950 90 2100 000/00 RMK AO2
14926KSTC STC20010804003010108/04/01 00:30:31  5-MIN KSTC 040630Z AUTO 14003KT 10SM FEW042 22/21 A3000 950 93 2100 140/03 RMK AO2
14926KSTC STC20010804003509808/04/01 00:35:31  5-MIN KSTC 040635Z AUTO 14003KT 10SM CLR 22/21 A3000 950 93 2100 140/03 RMK AO2
14926KSTC STC20010804004009808/04/01 00:40:31  5-MIN KSTC 040640Z AUTO 15003KT 10SM CLR 22/21 A3000 950 93 2100 140/03 RMK AO2
14926KSTC STC20010804004509808/04/01 00:45:31  5-MIN KSTC 040645Z AUTO 14003KT 10SM CLR 22/21 A3000 950 93 2100 140/03 RMK AO2
14926KSTC STC20010804005011508/04/01 00:50:31  5-MIN KSTC 040650Z AUTO 00000KT 10SM CLR 22/21 A3000 950 97 2000 000/00 RMK AO2 SLP159 T02170211
14926KSTC STC20010804005509808/04/01 00:55:31  5-MIN KSTC 040655Z AUTO 15003KT 10SM CLR 22/21 A3000 960 97 2000 150/03 RMK AO2
14926KSTC STC20010804010009808/04/01 01:00:31  5-MIN KSTC 040700Z AUTO 14003KT 10SM CLR 22/21 A2999 960 97 2000 140/03 RMK AO2
14926KSTC STC20010804010509808/04/01 01:05:31  5-MIN KSTC 040705Z AUTO 11003KT 10SM CLR 22/21 A3000 960 97 2000 110/03 RMK AO2
14926KSTC STC20010804011009808/04/01 01:10:31  5-MIN KSTC 040710Z AUTO 12003KT 10SM CLR 22/21 A3000 960 93 2000 120/03 RMK AO2
14926KSTC STC20010804011509808/04/01 01:15:31  5-MIN KSTC 040715Z AUTO 15004KT 10SM CLR 22/21 A3000 960 97 2000 150/04 RMK AO2
14926KSTC STC20010804012009808/04/01 01:20:31  5-MIN KSTC 040720Z AUTO 14004KT 10SM CLR 22/21 A2999 960 97 2000 130/04 RMK AO2
14926KSTC STC20010804012509808/04/01 01:25:31  5-MIN KSTC 040725Z AUTO 13003KT 10SM CLR 22/21 A3000 960 97 2000 130/03 RMK AO2
14926KSTC STC20010804013009808/04/01 01:30:31  5-MIN KSTC 040730Z AUTO 14004KT 10SM CLR 22/21 A3000 960 97 2000 140/04 RMK AO2
14926KSTC STC20010804013509808/04/01 01:35:31  5-MIN KSTC 040735Z AUTO 12003KT 10SM CLR 22/21 A2999 960 97 2000 120/03 RMK AO2
14926KSTC STC20010804014009808/04/01 01:40:31  5-MIN KSTC 040740Z AUTO 13003KT 10SM CLR 22/22 A3000 960 97 2100 130/03 RMK AO2
14926KSTC STC20010804014509808/04/01 01:45:31  5-MIN KSTC 040745Z AUTO 13003KT 10SM CLR 22/21 A2999 960 93 2100 130/03 RMK AO2
14926KSTC STC20010804015011508/04/01 01:50:31  5-MIN KSTC 040750Z AUTO 13003KT 10SM CLR 22/21 A2999 960 97 2000 130/03 RMK AO2 SLP157 T02170211
14926KSTC STC20010804015509808/04/01 01:55:31  5-MIN KSTC 040755Z AUTO 13003KT 10SM CLR 22/21 A2999 960 97 2000 130/03 RMK AO2
14926KSTC STC20010804020009808/04/01 02:00:31  5-MIN KSTC 040800Z AUTO 00000KT 10SM CLR 22/21 A2999 960 97 2000 000/00 RMK AO2
14926KSTC STC20010804020509908/04/01 02:05:31  5-MIN KSTC 040805Z AUTO 00000KT 10SM CLR 21/21 A2999 960 100 1900 000/00 RMK AO2
14926KSTC STC20010804021009908/04/01 02:10:31  5-MIN KSTC 040810Z AUTO 00000KT 10SM CLR 21/21 A3000 960 100 1900 000/00 RMK AO2
14926KSTC STC20010804021509808/04/01 02:15:31  5-MIN KSTC 040815Z AUTO 00000KT 10SM CLR 22/21 A3000 960 97 2000 000/00 RMK AO2
14926KSTC STC20010804022009808/04/01 02:20:31  5-MIN KSTC 040820Z AUTO 00000KT 10SM CLR 22/22 A3000 960 97 2100 000/00 RMK AO2
14926KSTC STC20010804022509808/04/01 02:25:31  5-MIN KSTC 040825Z AUTO 00000KT 9SM CLR 22/22 A3000 950 100 2000 000/00 RMK AO2
14926KSTC STC20010804023009808/04/01 02:30:31  5-MIN KSTC 040830Z AUTO 00000KT 9SM CLR 22/22 A3000 950 100 2000 000/00 RMK AO2
14926KSTC STC20010804023509808/04/01 02:35:31  5-MIN KSTC 040835Z AUTO 12004KT 8SM CLR 22/22 A3000 960 100 2000 120/04 RMK AO2
14926KSTC STC20010804024009708/04/01 02:40:31  5-MIN KSTC 040840Z AUTO 14003KT 9SM CLR 22/21 A3000 960 97 2000 130/03 RMK AO2
14926KSTC STC20010804024509908/04/01 02:45:31  5-MIN KSTC 040845Z AUTO 14005KT 10SM CLR 21/21 A3000 960 100 1900 130/05 RMK AO2
14926KSTC STC20010804025012108/04/01 02:50:31  5-MIN KSTC 040850Z AUTO 14005KT 9SM CLR 21/21 A2999 960 100 1900 140/05 RMK AO2 SLP158 T02060206 55000
14926KSTC STC20010804025509808/04/01 02:55:31  5-MIN KSTC 040855Z AUTO 14005KT 7SM CLR 21/21 A2999 960 100 1900 140/05 RMK AO2
14926KSTC STC20010804030010108/04/01 03:00:31  5-MIN KSTC 040900Z AUTO 14005KT 6SM BR CLR 21/21 A2999 960 100 1900 140/05 RMK AO2
14926KSTC STC20010804030510108/04/01 03:05:31  5-MIN KSTC 040905Z AUTO 14004KT 6SM BR CLR 21/21 A2999 960 100 1900 140/04 RMK AO2
14926KSTC STC20010804031010108/04/01 03:10:31  5-MIN KSTC 040910Z AUTO 14005KT 6SM BR CLR 21/21 A3000 960 100 1900 140/05 RMK AO2
14926KSTC STC20010804031510108/04/01 03:15:31  5-MIN KSTC 040915Z AUTO 15004KT 6SM BR CLR 21/21 A2999 960 100 1900 140/04 RMK AO2
14926KSTC STC20010804032010108/04/01 03:20:31  5-MIN KSTC 040920Z AUTO 14005KT 6SM BR CLR 21/21 A3000 960 100 1900 140/05 RMK AO2
14926KSTC STC20010804032510108/04/01 03:25:31  5-MIN KSTC 040925Z AUTO 14004KT 6SM BR CLR 21/21 A3000 960 100 1900 130/04 RMK AO2
14926KSTC STC20010804033010108/04/01 03:30:31  5-MIN KSTC 040930Z AUTO 14004KT 6SM BR CLR 22/22 A3000 960 100 2000 140/04 RMK AO2
14926KSTC STC20010804033510108/04/01 03:35:31  5-MIN KSTC 040935Z AUTO 13003KT 6SM BR CLR 22/22 A3000 960 100 2000 130/03 RMK AO2
14926KSTC STC20010804034010108/04/01 03:40:31  5-MIN KSTC 040940Z AUTO 14004KT 6SM BR CLR 22/22 A2999 960 100 2000 140/04 RMK AO2
14926KSTC STC20010804034510108/04/01 03:45:31  5-MIN KSTC 040945Z AUTO 14004KT 5SM BR CLR 21/21 A2999 960 100 1900 140/04 RMK AO2
14926KSTC STC20010804035011808/04/01 03:50:31  5-MIN KSTC 040950Z AUTO 14003KT 5SM BR CLR 21/21 A2999 960 100 1900 140/03 RMK AO2 SLP158 T02110211
14926KSTC STC20010804035510108/04/01 03:55:31  5-MIN KSTC 040955Z AUTO 14004KT 4SM BR CLR 21/21 A2999 960 100 1900 140/04 RMK AO2
14926KSTC STC20010804040010108/04/01 04:00:31  5-MIN KSTC 041000Z AUTO 12003KT 4SM BR CLR 21/21 A2999 960 100 1900 120/03 RMK AO2
14926KSTC STC20010804040510108/04/01 04:05:31  5-MIN KSTC 041005Z AUTO 14003KT 4SM BR CLR 22/22 A2999 960 100 2000 130/03 RMK AO2
14926KSTC STC20010804041010108/04/01 04:10:31  5-MIN KSTC 041010Z AUTO 14003KT 4SM BR CLR 22/22 A2999 960 100 2000 140/03 RMK AO2
14926KSTC STC20010804041510108/04/01 04:15:31  5-MIN KSTC 041015Z AUTO 14003KT 4SM BR CLR 21/21 A3000 960 100 1900 130/03 RMK AO2
14926KSTC STC20010804042010108/04/01 04:20:31  5-MIN KSTC 041020Z AUTO 13003KT 3SM BR CLR 21/21 A3000 960 100 1900 130/03 RMK AO2
14926KSTC STC20010804042510108/04/01 04:25:31  5-MIN KSTC 041025Z AUTO 15004KT 3SM BR CLR 21/21 A2999 960 100 1900 150/04 RMK AO2
14926KSTC STC20010804043010108/04/01 04:30:31  5-MIN KSTC 041030Z AUTO 15005KT 3SM BR CLR 20/20 A2999 960 100 1800 140/05 RMK AO2
14926KSTC STC20010804043510508/04/01 04:35:31  5-MIN KSTC 041035Z AUTO 15004KT 2 1/2SM BR CLR 20/20 A2999 960 100 1800 140/04 RMK AO2
14926KSTC STC20010804044010108/04/01 04:40:31  5-MIN KSTC 041040Z AUTO 14004KT 2SM BR CLR 20/20 A2999 960 100 1800 140/04 RMK AO2
14926KSTC STC20010804044510508/04/01 04:45:31  5-MIN KSTC 041045Z AUTO 14004KT 1 3/4SM BR CLR 20/20 A2999 960 100 1800 140/04 RMK AO2
14926KSTC STC20010804045012208/04/01 04:50:31  5-MIN KSTC 041050Z AUTO 14004KT 1 3/4SM BR CLR 20/20 A2999 960 100 1800 140/04 RMK AO2 SLP158 T02000200
14926KSTC STC20010804045510508/04/01 04:55:31  5-MIN KSTC 041055Z AUTO 14004KT 2 1/2SM BR CLR 21/21 A2999 960 100 1900 140/04 RMK AO2
14926KSTC STC20010804050010108/04/01 05:00:31  5-MIN KSTC 041100Z AUTO 15005KT 3SM BR CLR 21/21 A3000 960 100 1900 140/05 RMK AO2
14926KSTC STC20010804050510508/04/01 05:05:31  5-MIN KSTC 041105Z AUTO 15005KT 1 3/4SM BR CLR 21/21 A3000 960 100 1900 150/05 RMK AO2
14926KSTC STC20010804051010508/04/01 05:10:31  5-MIN KSTC 041110Z AUTO 14005KT 3/4SM BR VV001 21/21 A3000 960 100 1900 140/05 RMK AO2
14926KSTC STC20010804051510508/04/01 05:15:31  5-MIN KSTC 041115Z AUTO 14003KT 1/2SM FG VV001 21/21 A3000 960 100 1900 130/03 RMK AO2
14926KSTC STC20010804052010308/04/01 05:20:31  5-MIN KSTC 041120Z AUTO 13003KT 1SM BR VV001 21/21 A3000 960 100 1900 130/03 RMK AO2
14926KSTC STC20010804052510408/04/01 05:25:31  5-MIN KSTC 041125Z AUTO 00000KT 2SM BR FEW001 21/21 A3000 960 100 1900 000/00 RMK AO2
14926KSTC STC20010804053010808/04/01 05:30:31  5-MIN KSTC 041130Z AUTO 09003KT 1 1/2SM BR FEW001 21/21 A3000 950 100 1900 080/03 RMK AO2
14926KSTC STC20010804053510508/04/01 05:35:31  5-MIN KSTC 041135Z AUTO 00000KT 3/4SM BR VV001 21/21 A3000 950 100 1900 000/00 RMK AO2
14926KSTC STC20010804054011308/04/01 05:40:31  5-MIN KSTC 041140Z AUTO 11003KT 1/2SM FG SCT001 SCT009 21/21 A3000 950 100 1900 100/03 RMK AO2
14926KSTC STC20010804054511308/04/01 05:45:31  5-MIN KSTC 041145Z AUTO 09003KT 1/4SM FG SCT001 BKN009 21/21 A3000 950 100 1900 090/03 RMK AO2
14926KSTC STC20010804055014808/04/01 05:50:31  5-MIN KSTC 041150Z AUTO 11003KT 1/4SM FG SCT001 BKN009 21/21 A3000 950 100 1900 110/03 RMK AO2 SLP161 T02110211 10233 20200 55002
14926KSTC STC20010804055511308/04/01 05:55:31  5-MIN KSTC 041155Z AUTO 11003KT 1/4SM FG SCT001 BKN009 22/22 A3000 950 100 2000 110/03 RMK AO2
14926KSTC STC20010804060011308/04/01 06:00:31  5-MIN KSTC 041200Z AUTO 12003KT 1/2SM FG BKN001 OVC009 22/22 A3000 950 100 2000 120/03 RMK AO2
14926KSTC STC20010804060511108/04/01 06:05:31  5-MIN KSTC 041205Z AUTO 11003KT 1SM BR BKN001 OVC009 22/22 A3000 950 100 2000 110/03 RMK AO2
14926KSTC STC20010804061011108/04/01 06:10:31  5-MIN KSTC 041210Z AUTO 11003KT 2SM BR BKN001 BKN009 22/22 A3000 950 100 2000 110/03 RMK AO2
14926KSTC STC20010804061511108/04/01 06:15:31  5-MIN KSTC 041215Z AUTO 13003KT 3SM BR SCT001 BKN009 22/22 A3000 950 100 2000 130/03 RMK AO2
14926KSTC STC20010804062011108/04/01 06:20:31  5-MIN KSTC 041220Z AUTO 12003KT 4SM BR SCT001 SCT009 22/22 A3001 950 100 2000 120/03 RMK AO2
14926KSTC STC20010804062510408/04/01 06:25:31  5-MIN KSTC 041225Z AUTO 00000KT 5SM BR FEW001 23/23 A3001 940 100 2100 000/00 RMK AO2
14926KSTC STC20010804063010408/04/01 06:30:31  5-MIN KSTC 041230Z AUTO 12003KT 6SM BR FEW001 23/23 A3001 950 100 2100 120/03 RMK AO2
14926KSTC STC20010804063510108/04/01 06:35:31  5-MIN KSTC 041235Z AUTO 13003KT 6SM BR CLR 23/23 A3001 950 100 2100 130/03 RMK AO2
14926KSTC STC20010804064009808/04/01 06:40:31  5-MIN KSTC 041240Z AUTO 00000KT 7SM CLR 23/23 A3001 940 100 2100 000/00 RMK AO2
14926KSTC STC20010804064509708/04/01 06:45:31  5-MIN KSTC 041245Z AUTO 00000KT 7SM CLR 23/23 A3001 940 97 2200 000/00 RMK AO2
14926KSTC STC20010804065011408/04/01 06:50:31  5-MIN KSTC 041250Z AUTO 13003KT 8SM CLR 23/23 A3001 950 97 2200 130/03 RMK AO2 SLP162 T02330228
14926KSTC STC20010804065509708/04/01 06:55:31  5-MIN KSTC 041255Z AUTO 13004KT 9SM CLR 24/23 A3001 950 97 2200 120/04 RMK AO2
14926KSTC STC20010804070009708/04/01 07:00:31  5-MIN KSTC 041300Z AUTO 13003KT 9SM CLR 24/23 A3001 950 97 2200 130/03 RMK AO2
14926KSTC STC20010804070509808/04/01 07:05:31  5-MIN KSTC 041305Z AUTO 13003KT 10SM CLR 24/23 A3000 950 97 2200 130/03 RMK AO2
14926KSTC STC20010804071009808/04/01 07:10:31  5-MIN KSTC 041310Z AUTO 13004KT 10SM CLR 24/23 A3001 950 93 2300 130/04 RMK AO2
14926KSTC STC20010804071509808/04/01 07:15:31  5-MIN KSTC 041315Z AUTO 13004KT 10SM CLR 24/23 A3001 950 93 2300 120/04 RMK AO2
14926KSTC STC20010804072009808/04/01 07:20:31  5-MIN KSTC 041320Z AUTO 18005KT 10SM CLR 25/23 A3001 950 90 2400 170/05 RMK AO2
14926KSTC STC20010804072509808/04/01 07:25:31  5-MIN KSTC 041325Z AUTO 17004KT 10SM CLR 25/23 A3000 950 90 2400 170/04 RMK AO2
14926KSTC STC20010804073009808/04/01 07:30:31  5-MIN KSTC 041330Z AUTO 16006KT 10SM CLR 26/23 A3000 950 87 2400 160/06 RMK AO2
14926KSTC STC20010804073509808/04/01 07:35:31  5-MIN KSTC 041335Z AUTO 17004KT 10SM CLR 26/23 A3000 950 87 2400 170/04 RMK AO2
14926KSTC STC20010804074009808/04/01 07:40:31  5-MIN KSTC 041340Z AUTO 17004KT 10SM CLR 26/23 A3000 950 87 2400 170/04 RMK AO2
14926KSTC STC20010804074509808/04/01 07:45:31  5-MIN KSTC 041345Z AUTO 14005KT 10SM CLR 26/24 A3000 950 87 2500 140/05 RMK AO2
14926KSTC STC20010804075011508/04/01 07:50:31  5-MIN KSTC 041350Z AUTO 16005KT 10SM CLR 26/23 A3000 950 84 2500 150/05 RMK AO2 SLP160 T02610233
14926KSTC STC20010804075509808/04/01 07:55:31  5-MIN KSTC 041355Z AUTO 17005KT 10SM CLR 26/23 A3000 950 84 2500 170/05 RMK AO2
14926KSTC STC20010804080009808/04/01 08:00:31  5-MIN KSTC 041400Z AUTO 19006KT 10SM CLR 27/23 A3000 950 82 2600 190/06 RMK AO2
14926KSTC STC20010804080509808/04/01 08:05:31  5-MIN KSTC 041405Z AUTO 19008KT 10SM CLR 27/23 A3000 950 79 2600 190/08 RMK AO2
14926KSTC STC20010804081009808/04/01 08:10:31  5-MIN KSTC 041410Z AUTO 18006KT 10SM CLR 27/23 A3000 950 79 2600 180/06 RMK AO2
14926KSTC STC20010804081509808/04/01 08:15:31  5-MIN KSTC 041415Z AUTO 19006KT 10SM CLR 27/23 A3000 950 79 2600 190/06 RMK AO2
14926KSTC STC20010804082009808/04/01 08:20:31  5-MIN KSTC 041420Z AUTO 17006KT 10SM CLR 27/23 A3000 950 79 2600 160/06 RMK AO2
14926KSTC STC20010804082509808/04/01 08:25:31  5-MIN KSTC 041425Z AUTO 20006KT 10SM CLR 27/23 A3000 950 79 2600 190/06 RMK AO2
14926KSTC STC20010804083009808/04/01 08:30:31  5-MIN KSTC 041430Z AUTO 15006KT 10SM CLR 27/23 A3000 960 79 2600 150/06 RMK AO2
14926KSTC STC20010804083509808/04/01 08:35:31  5-MIN KSTC 041435Z AUTO 19007KT 10SM CLR 28/23 A3000 960 76 2700 180/07 RMK AO2
14926KSTC STC20010804084009808/04/01 08:40:31  5-MIN KSTC 041440Z AUTO 16005KT 10SM CLR 28/23 A3000 960 76 2700 150/05 RMK AO2
14926KSTC STC20010804084509808/04/01 08:45:31  5-MIN KSTC 041445Z AUTO 15007KT 10SM CLR 28/23 A3000 960 74 2700 150/07 RMK AO2
14926KSTC STC20010804085012108/04/01 08:50:31  5-MIN KSTC 041450Z AUTO 18007KT 10SM CLR 28/23 A2999 960 74 2700 170/07 RMK AO2 SLP157 T02780228 53003
14926KSTC STC20010804085509808/04/01 08:55:31  5-MIN KSTC 041455Z AUTO 16007KT 10SM CLR 28/23 A2999 960 71 2700 160/07 RMK AO2
14926KSTC STC20010804090009808/04/01 09:00:31  5-MIN KSTC 041500Z AUTO 15009KT 10SM CLR 28/23 A2999 960 71 2700 150/09 RMK AO2
14926KSTC STC20010804090509808/04/01 09:05:31  5-MIN KSTC 041505Z AUTO 16008KT 10SM CLR 29/23 A2999 960 69 2800 160/08 RMK AO2
14926KSTC STC20010804091009808/04/01 09:10:31  5-MIN KSTC 041510Z AUTO 16009KT 10SM CLR 28/23 A2999 960 71 2700 150/09 RMK AO2
14926KSTC STC20010804091509808/04/01 09:15:31  5-MIN KSTC 041515Z AUTO 16007KT 10SM CLR 28/23 A2999 960 71 2700 160/07 RMK AO2
14926KSTC STC20010804092009808/04/01 09:20:31  5-MIN KSTC 041520Z AUTO 16009KT 10SM CLR 29/23 A2999 960 69 2800 160/09 RMK AO2
14926KSTC STC20010804092509808/04/01 09:25:31  5-MIN KSTC 041525Z AUTO 17008KT 10SM CLR 29/23 A2999 960 69 2800 160/08 RMK AO2
14926KSTC STC20010804093009808/04/01 09:30:31  5-MIN KSTC 041530Z AUTO 16009KT 10SM CLR 29/23 A2999 960 69 2800 160/09 RMK AO2
14926KSTC STC20010804093509808/04/01 09:35:31  5-MIN KSTC 041535Z AUTO 16011KT 10SM CLR 29/23 A2999 960 69 2800 150/11 RMK AO2
14926KSTC STC20010804094009808/04/01 09:40:31  5-MIN KSTC 041540Z AUTO 16009KT 10SM CLR 29/23 A2999 960 67 2900 160/09 RMK AO2
14926KSTC STC20010804094509808/04/01 09:45:31  5-MIN KSTC 041545Z AUTO 16011KT 10SM CLR 29/23 A2999 960 67 2900 150/11 RMK AO2
14926KSTC STC20010804095011508/04/01 09:50:31  5-MIN KSTC 041550Z AUTO 17009KT 10SM CLR 29/23 A2999 960 67 2900 160/09 RMK AO2 SLP156 T02940228
14926KSTC STC20010804095509808/04/01 09:55:31  5-MIN KSTC 041555Z AUTO 16010KT 10SM CLR 30/23 A2999 960 65 2900 150/10 RMK AO2
14926KSTC STC20010804100009808/04/01 10:00:31  5-MIN KSTC 041600Z AUTO 16010KT 10SM CLR 29/22 A2999 960 64 2900 150/10 RMK AO2
14926KSTC STC20010804100509808/04/01 10:05:31  5-MIN KSTC 041605Z AUTO 16008KT 10SM CLR 30/23 A2999 960 65 2900 160/08 RMK AO2
14926KSTC STC20010804101009808/04/01 10:10:31  5-MIN KSTC 041610Z AUTO 17010KT 10SM CLR 30/23 A2999 960 65 2900 170/10 RMK AO2
14926KSTC STC20010804101509808/04/01 10:15:31  5-MIN KSTC 041615Z AUTO 19011KT 10SM CLR 30/23 A2999 960 65 2900 190/11 RMK AO2
14926KSTC STC20010804102009808/04/01 10:20:31  5-MIN KSTC 041620Z AUTO 17009KT 10SM CLR 30/23 A2999 960 65 2900 170/09 RMK AO2
14926KSTC STC20010804102509808/04/01 10:25:31  5-MIN KSTC 041625Z AUTO 15012KT 10SM CLR 31/22 A2999 960 60 3000 150/12 RMK AO2
14926KSTC STC20010804103009808/04/01 10:30:31  5-MIN KSTC 041630Z AUTO 17011KT 10SM CLR 31/22 A2999 960 60 3000 170/11 RMK AO2
14926KSTC STC20010804103509808/04/01 10:35:31  5-MIN KSTC 041635Z AUTO 17013KT 10SM CLR 31/22 A2999 960 60 3000 170/13 RMK AO2
14926KSTC STC20010804104009808/04/01 10:40:31  5-MIN KSTC 041640Z AUTO 17011KT 10SM CLR 31/22 A2999 960 60 3000 170/11 RMK AO2
14926KSTC STC20010804104509808/04/01 10:45:31  5-MIN KSTC 041645Z AUTO 16010KT 10SM CLR 31/22 A2999 960 60 3000 160/10 RMK AO2
14926KSTC STC20010804105011508/04/01 10:50:31  5-MIN KSTC 041650Z AUTO 16012KT 10SM CLR 31/23 A2999 960 60 3100 160/12 RMK AO2 SLP156 T03110228
14926KSTC STC20010804105509808/04/01 10:55:31  5-MIN KSTC 041655Z AUTO 18011KT 10SM CLR 31/22 A2999 960 58 3100 170/11 RMK AO2
14926KSTC STC20010804110009808/04/01 11:00:31  5-MIN KSTC 041700Z AUTO 19011KT 10SM CLR 31/23 A2999 960 62 3000 190/11 RMK AO2
14926KSTC STC20010804110509808/04/01 11:05:31  5-MIN KSTC 041705Z AUTO 17010KT 10SM CLR 31/23 A2999 960 60 3100 170/10 RMK AO2
14926KSTC STC20010804111009808/04/01 11:10:31  5-MIN KSTC 041710Z AUTO 18010KT 10SM CLR 31/23 A2999 960 60 3100 180/10 RMK AO2
14926KSTC STC20010804111509808/04/01 11:15:31  5-MIN KSTC 041715Z AUTO 18014KT 10SM CLR 31/23 A2999 970 60 3100 180/14 RMK AO2
14926KSTC STC20010804112009808/04/01 11:20:31  5-MIN KSTC 041720Z AUTO 18012KT 10SM CLR 31/23 A2999 970 60 3100 180/12 RMK AO2
14926KSTC STC20010804112509808/04/01 11:25:31  5-MIN KSTC 041725Z AUTO 17010KT 10SM CLR 32/23 A2998 970 58 3100 160/10 RMK AO2
14926KSTC STC20010804113009808/04/01 11:30:31  5-MIN KSTC 041730Z AUTO 17010KT 10SM CLR 31/23 A2998 970 60 3100 160/10 RMK AO2
14926KSTC STC20010804113509808/04/01 11:35:31  5-MIN KSTC 041735Z AUTO 19011KT 10SM CLR 32/23 A2998 970 61 3100 180/11 RMK AO2
14926KSTC STC20010804114009808/04/01 11:40:31  5-MIN KSTC 041740Z AUTO 17009KT 10SM CLR 32/23 A2998 970 61 3100 170/09 RMK AO2
14926KSTC STC20010804114509808/04/01 11:45:31  5-MIN KSTC 041745Z AUTO 18011KT 10SM CLR 32/23 A2998 970 61 3100 180/11 RMK AO2
14926KSTC STC20010804115013308/04/01 11:50:31  5-MIN KSTC 041750Z AUTO 17012KT 10SM CLR 32/23 A2997 980 58 3100 170/12 RMK AO2 SLP151 T03170228 10317 20217 58004
14926KSTC STC20010804115509808/04/01 11:55:31  5-MIN KSTC 041755Z AUTO 17011KT 10SM CLR 32/23 A2997 980 61 3100 160/11 RMK AO2
14926KSTC STC20010804120009808/04/01 12:00:31  5-MIN KSTC 041800Z AUTO 17010KT 10SM CLR 32/23 A2997 980 61 3100 170/10 RMK AO2
14926KSTC STC20010804120509808/04/01 12:05:31  5-MIN KSTC 041805Z AUTO 16013KT 10SM CLR 33/23 A2997 980 57 3300 160/13 RMK AO2
14926KSTC STC20010804121009808/04/01 12:10:31  5-MIN KSTC 041810Z AUTO 17012KT 10SM CLR 32/23 A2997 980 61 3100 170/12 RMK AO2
14926KSTC STC20010804121509808/04/01 12:15:31  5-MIN KSTC 041815Z AUTO 18012KT 10SM CLR 32/23 A2997 980 59 3200 170/12 RMK AO2
14926KSTC STC20010804122009808/04/01 12:20:31  5-MIN KSTC 041820Z AUTO 17011KT 10SM CLR 32/23 A2997 980 59 3200 170/11 RMK AO2
14926KSTC STC20010804122509808/04/01 12:25:31  5-MIN KSTC 041825Z AUTO 18011KT 10SM CLR 32/23 A2997 980 59 3200 180/11 RMK AO2
14926KSTC STC20010804123009808/04/01 12:30:31  5-MIN KSTC 041830Z AUTO 16013KT 10SM CLR 32/23 A2997 980 59 3200 160/13 RMK AO2
14926KSTC STC20010804123509808/04/01 12:35:31  5-MIN KSTC 041835Z AUTO 17011KT 10SM CLR 33/23 A2997 980 57 3300 170/11 RMK AO2
14926KSTC STC20010804124009808/04/01 12:40:31  5-MIN KSTC 041840Z AUTO 17011KT 10SM CLR 32/23 A2997 980 59 3200 160/11 RMK AO2
14926KSTC STC20010804124509808/04/01 12:45:31  5-MIN KSTC 041845Z AUTO 16010KT 10SM CLR 32/23 A2996 990 59 3200 160/10 RMK AO2
14926KSTC STC20010804125011508/04/01 12:50:31  5-MIN KSTC 041850Z AUTO 18011KT 10SM CLR 32/23 A2996 990 59 3200 170/11 RMK AO2 SLP147 T03220233
14926KSTC STC20010804125509808/04/01 12:55:31  5-MIN KSTC 041855Z AUTO 17009KT 10SM CLR 32/23 A2996 990 59 3200 170/09 RMK AO2
14926KSTC STC20010804130009808/04/01 13:00:31  5-MIN KSTC 041900Z AUTO 17012KT 10SM CLR 33/24 A2997 980 59 3300 160/12 RMK AO2
14926KSTC STC20010804130509808/04/01 13:05:31  5-MIN KSTC 041905Z AUTO 16011KT 10SM CLR 33/23 A2996 990 57 3300 160/11 RMK AO2
14926KSTC STC20010804131009808/04/01 13:10:31  5-MIN KSTC 041910Z AUTO 17012KT 10SM CLR 33/23 A2996 990 57 3300 170/12 RMK AO2
14926KSTC STC20010804131509808/04/01 13:15:31  5-MIN KSTC 041915Z AUTO 16011KT 10SM CLR 32/23 A2996 990 59 3200 160/11 RMK AO2
14926KSTC STC20010804132010408/04/01 13:20:31  5-MIN KSTC 041920Z AUTO 16012G18KT 10SM CLR 33/24 A2996 990 59 3300 160/12G18 RMK AO2
14926KSTC STC20010804132510408/04/01 13:25:31  5-MIN KSTC 041925Z AUTO 18009G18KT 10SM CLR 33/24 A2996 990 59 3300 170/09G18 RMK AO2
14926KSTC STC20010804133010508/04/01 13:30:31  5-MIN KSTC 041930Z AUTO 16011G16KT 10SM CLR 32/24 A2995 1000 61 3200 160/11G16 RMK AO2
14926KSTC STC20010804133509808/04/01 13:35:31  5-MIN KSTC 041935Z AUTO 17011KT 10SM CLR 33/24 A2995 990 59 3300 170/11 RMK AO2
14926KSTC STC20010804134009808/04/01 13:40:31  5-MIN KSTC 041940Z AUTO 16010KT 10SM CLR 33/24 A2996 990 57 3300 160/10 RMK AO2
14926KSTC STC20010804134509808/04/01 13:45:31  5-MIN KSTC 041945Z AUTO 17009KT 10SM CLR 33/24 A2996 990 57 3300 160/09 RMK AO2
14926KSTC STC20010804135011808/04/01 13:50:31  5-MIN KSTC 041950Z AUTO 18012KT 10SM FEW034 33/24 A2996 990 59 3300 170/12 RMK AO2 SLP144 T03280239
14926KSTC STC20010804135510108/04/01 13:55:31  5-MIN KSTC 041955Z AUTO 18011KT 10SM FEW034 33/24 A2995 990 59 3300 180/11 RMK AO2
14926KSTC STC20010804140010108/04/01 14:00:31  5-MIN KSTC 042000Z AUTO 15010KT 10SM FEW034 33/24 A2995 990 57 3300 150/10 RMK AO2
14926KSTC STC20010804140509908/04/01 14:05:31  5-MIN KSTC 042005Z AUTO 17011KT 10SM CLR 33/24 A2995 1000 59 3300 170/11 RMK AO2
14926KSTC STC20010804141009908/04/01 14:10:31  5-MIN KSTC 042010Z AUTO 16010KT 10SM CLR 33/24 A2995 1000 57 3300 150/10 RMK AO2
14926KSTC STC20010804141510208/04/01 14:15:31  5-MIN KSTC 042015Z AUTO 16012KT 10SM FEW035 33/24 A2995 1000 59 3300 160/12 RMK AO2
14926KSTC STC20010804142009908/04/01 14:20:31  5-MIN KSTC 042020Z AUTO 15011KT 10SM CLR 33/24 A2995 1000 59 3300 150/11 RMK AO2
14926KSTC STC20010804142509908/04/01 14:25:31  5-MIN KSTC 042025Z AUTO 17012KT 10SM CLR 33/24 A2995 1000 59 3300 170/12 RMK AO2
14926KSTC STC20010804143009908/04/01 14:30:31  5-MIN KSTC 042030Z AUTO 16010KT 10SM CLR 33/24 A2995 1000 59 3300 150/10 RMK AO2
14926KSTC STC20010804143510808/04/01 14:35:31  5-MIN KSTC 042035Z AUTO 17012G19KT 10SM FEW036 33/24 A2995 1000 59 3300 170/12G19 RMK AO2
14926KSTC STC20010804144010808/04/01 14:40:31  5-MIN KSTC 042040Z AUTO 16011G19KT 10SM FEW036 33/24 A2995 1000 59 3300 160/11G19 RMK AO2
14926KSTC STC20010804144509908/04/01 14:45:31  5-MIN KSTC 042045Z AUTO 18010KT 10SM CLR 33/24 A2995 1000 59 3300 180/10 RMK AO2
14926KSTC STC20010804145012208/04/01 14:50:31  5-MIN KSTC 042050Z AUTO 16011KT 10SM CLR 33/24 A2995 1000 59 3300 160/11 RMK AO2 SLP140 T03330244 58005
14926KSTC STC20010804145510208/04/01 14:55:31  5-MIN KSTC 042055Z AUTO 16011KT 10SM FEW034 33/24 A2995 1000 61 3300 160/11 RMK AO2
14926KSTC STC20010804150010208/04/01 15:00:31  5-MIN KSTC 042100Z AUTO 16011KT 10SM FEW034 33/25 A2995 1000 61 3300 160/11 RMK AO2
14926KSTC STC20010804150510208/04/01 15:05:31  5-MIN KSTC 042105Z AUTO 17010KT 10SM FEW034 33/25 A2995 1000 61 3300 160/10 RMK AO2
14926KSTC STC20010804151010208/04/01 15:10:31  5-MIN KSTC 042110Z AUTO 16013KT 10SM FEW034 34/25 A2995 1000 59 3400 160/13 RMK AO2
14926KSTC STC20010804151510208/04/01 15:15:31  5-MIN KSTC 042115Z AUTO 15012KT 10SM SCT034 33/25 A2994 1000 61 3400 150/12 RMK AO2
14926KSTC STC20010804152010208/04/01 15:20:31  5-MIN KSTC 042120Z AUTO 17011KT 10SM SCT034 34/26 A2994 1000 61 3400 170/11 RMK AO2
14926KSTC STC20010804152510208/04/01 15:25:31  5-MIN KSTC 042125Z AUTO 17012KT 10SM SCT034 33/25 A2994 1010 61 3400 170/12 RMK AO2
14926KSTC STC20010804153010208/04/01 15:30:31  5-MIN KSTC 042130Z AUTO 16012KT 10SM SCT034 33/25 A2994 1010 61 3400 160/12 RMK AO2
14926KSTC STC20010804153510208/04/01 15:35:31  5-MIN KSTC 042135Z AUTO 17012KT 10SM BKN034 33/25 A2994 1010 61 3400 160/12 RMK AO2
14926KSTC STC20010804154010208/04/01 15:40:31  5-MIN KSTC 042140Z AUTO 16011KT 10SM SCT034 33/25 A2994 1010 63 3300 160/11 RMK AO2
14926KSTC STC20010804154510208/04/01 15:45:31  5-MIN KSTC 042145Z AUTO 16010KT 10SM SCT034 33/26 A2994 1010 63 3400 160/10 RMK AO2
14926KSTC STC20010804155011908/04/01 15:50:31  5-MIN KSTC 042150Z AUTO 16013KT 10SM BKN034 34/26 A2994 1010 61 3400 150/13 RMK AO2 SLP140 T03390256
14926KSTC STC20010804155510208/04/01 15:55:31  5-MIN KSTC 042155Z AUTO 16011KT 10SM BKN032 33/26 A2994 1010 63 3400 150/11 RMK AO2
14926KSTC STC20010804160010208/04/01 16:00:31  5-MIN KSTC 042200Z AUTO 16011KT 10SM BKN032 33/26 A2994 1010 63 3400 150/11 RMK AO2
14926KSTC STC20010804160510208/04/01 16:05:31  5-MIN KSTC 042205Z AUTO 15010KT 10SM BKN032 33/26 A2994 1010 63 3400 150/10 RMK AO2
14926KSTC STC20010804161010208/04/01 16:10:31  5-MIN KSTC 042210Z AUTO 18011KT 10SM BKN032 33/26 A2994 1010 63 3400 180/11 RMK AO2
14926KSTC STC20010804161510208/04/01 16:15:31  5-MIN KSTC 042215Z AUTO 16011KT 10SM BKN032 33/26 A2994 1010 65 3300 160/11 RMK AO2
14926KSTC STC20010804162010208/04/01 16:20:31  5-MIN KSTC 042220Z AUTO 17010KT 10SM BKN032 33/26 A2994 1010 63 3400 160/10 RMK AO2
14926KSTC STC20010804162510208/04/01 16:25:31  5-MIN KSTC 042225Z AUTO 16012KT 10SM BKN032 33/26 A2994 1010 65 3300 160/12 RMK AO2
14926KSTC STC20010804163010208/04/01 16:30:31  5-MIN KSTC 042230Z AUTO 16009KT 10SM BKN032 33/26 A2994 1010 65 3300 160/09 RMK AO2
14926KSTC STC20010804163510208/04/01 16:35:31  5-MIN KSTC 042235Z AUTO 17010KT 10SM SCT032 32/26 A2994 1010 67 3200 170/10 RMK AO2
14926KSTC STC20010804164010208/04/01 16:40:31  5-MIN KSTC 042240Z AUTO 17007KT 10SM SCT032 32/26 A2994 1010 67 3200 160/07 RMK AO2
14926KSTC STC20010804164510208/04/01 16:45:31  5-MIN KSTC 042245Z AUTO 17008KT 10SM FEW034 33/26 A2994 1010 67 3300 170/08 RMK AO2
14926KSTC STC20010804165011908/04/01 16:50:31  5-MIN KSTC 042250Z AUTO 16009KT 10SM FEW032 32/26 A2994 1010 67 3200 160/09 RMK AO2 SLP138 T03220256
14926KSTC STC20010804165510208/04/01 16:55:31  5-MIN KSTC 042255Z AUTO 17008KT 10SM FEW100 33/26 A2993 1010 67 3300 160/08 RMK AO2
14926KSTC STC20010804170010208/04/01 17:00:31  5-MIN KSTC 042300Z AUTO 17009KT 10SM FEW033 33/26 A2993 1010 67 3300 170/09 RMK AO2
14926KSTC STC20010804170510208/04/01 17:05:31  5-MIN KSTC 042305Z AUTO 16010KT 10SM FEW033 33/26 A2993 1020 67 3300 160/10 RMK AO2
14926KSTC STC20010804171010208/04/01 17:10:31  5-MIN KSTC 042310Z AUTO 16010KT 10SM FEW033 32/26 A2993 1020 69 3200 160/10 RMK AO2
14926KSTC STC20010804171510208/04/01 17:15:31  5-MIN KSTC 042315Z AUTO 17010KT 10SM FEW031 32/26 A2993 1020 69 3200 170/10 RMK AO2
14926KSTC STC20010804172010208/04/01 17:20:31  5-MIN KSTC 042320Z AUTO 16010KT 10SM FEW031 32/26 A2993 1020 69 3300 160/10 RMK AO2
14926KSTC STC20010804172509908/04/01 17:25:31  5-MIN KSTC 042325Z AUTO 17010KT 10SM CLR 32/26 A2992 1020 69 3300 160/10 RMK AO2
14926KSTC STC20010804173010208/04/01 17:30:31  5-MIN KSTC 042330Z AUTO 16010KT 10SM FEW031 32/26 A2992 1020 69 3300 160/10 RMK AO2
14926KSTC STC20010804173509908/04/01 17:35:31  5-MIN KSTC 042335Z AUTO 17012KT 10SM CLR 32/26 A2992 1020 69 3300 160/12 RMK AO2
14926KSTC STC20010804174010208/04/01 17:40:31  5-MIN KSTC 042340Z AUTO 16011KT 10SM FEW030 32/26 A2992 1030 67 3300 160/11 RMK AO2
14926KSTC STC20010804174510208/04/01 17:45:31  5-MIN KSTC 042345Z AUTO 17010KT 10SM FEW030 32/26 A2992 1030 69 3200 170/10 RMK AO2
14926KSTC STC20010804175013708/04/01 17:50:31  5-MIN KSTC 042350Z AUTO 17010KT 10SM FEW030 32/26 A2992 1030 72 3200 170/10 RMK AO2 SLP131 T03170261 10339 20317 56009
14926KSTC STC20010804175510208/04/01 17:55:31  5-MIN KSTC 042355Z AUTO 17011KT 10SM FEW030 32/26 A2992 1030 72 3200 170/11 RMK AO2
14926KSTC STC20010804180010208/04/01 18:00:31  5-MIN KSTC 050000Z AUTO 16009KT 10SM FEW030 32/26 A2991 1030 72 3200 160/09 RMK AO2
14926KSTC STC20010804180510208/04/01 18:05:31  5-MIN KSTC 050005Z AUTO 16009KT 10SM FEW030 32/26 A2991 1040 72 3200 160/09 RMK AO2
14926KSTC STC20010804181009908/04/01 18:10:31  5-MIN KSTC 050010Z AUTO 17011KT 10SM CLR 31/26 A2991 1040 74 3100 160/11 RMK AO2
14926KSTC STC20010804181509908/04/01 18:15:31  5-MIN KSTC 050015Z AUTO 17011KT 10SM CLR 31/26 A2991 1040 74 3100 160/11 RMK AO2
14926KSTC STC20010804182009908/04/01 18:20:31  5-MIN KSTC 050020Z AUTO 17009KT 10SM CLR 32/26 A2991 1040 69 3200 170/09 RMK AO2
14926KSTC STC20010804182509908/04/01 18:25:31  5-MIN KSTC 050025Z AUTO 17009KT 10SM CLR 31/26 A2990 1040 74 3200 160/09 RMK AO2
14926KSTC STC20010804183009908/04/01 18:30:31  5-MIN KSTC 050030Z AUTO 17009KT 10SM CLR 31/26 A2990 1050 74 3200 170/09 RMK AO2
14926KSTC STC20010804183509908/04/01 18:35:31  5-MIN KSTC 050035Z AUTO 16009KT 10SM CLR 31/26 A2990 1050 74 3200 160/09 RMK AO2
14926KSTC STC20010804184009908/04/01 18:40:31  5-MIN KSTC 050040Z AUTO 17008KT 10SM CLR 31/26 A2990 1050 74 3200 160/08 RMK AO2
14926KSTC STC20010804184509908/04/01 18:45:31  5-MIN KSTC 050045Z AUTO 17010KT 10SM CLR 31/26 A2990 1050 77 3100 160/10 RMK AO2
14926KSTC STC20010804185011608/04/01 18:50:31  5-MIN KSTC 050050Z AUTO 17009KT 10SM CLR 31/26 A2990 1050 74 3100 170/09 RMK AO2 SLP124 T03060256
14926KSTC STC20010804185509908/04/01 18:55:31  5-MIN KSTC 050055Z AUTO 17009KT 10SM CLR 31/26 A2990 1050 74 3100 160/09 RMK AO2
14926KSTC STC20010804190009908/04/01 19:00:31  5-MIN KSTC 050100Z AUTO 17008KT 10SM CLR 31/26 A2990 1050 74 3100 170/08 RMK AO2
14926KSTC STC20010804190509908/04/01 19:05:31  5-MIN KSTC 050105Z AUTO 17010KT 10SM CLR 30/26 A2990 1050 77 3000 160/10 RMK AO2
14926KSTC STC20010804191009908/04/01 19:10:31  5-MIN KSTC 050110Z AUTO 17008KT 10SM CLR 30/26 A2989 1050 77 3000 160/08 RMK AO2
14926KSTC STC20010804191509908/04/01 19:15:31  5-MIN KSTC 050115Z AUTO 16007KT 10SM CLR 30/26 A2989 1050 77 3000 160/07 RMK AO2
14926KSTC STC20010804192009908/04/01 19:20:31  5-MIN KSTC 050120Z AUTO 17008KT 10SM CLR 29/26 A2989 1050 79 3000 160/08 RMK AO2
14926KSTC STC20010804192509908/04/01 19:25:31  5-MIN KSTC 050125Z AUTO 17008KT 10SM CLR 29/26 A2989 1050 79 3000 160/08 RMK AO2
14926KSTC STC20010804193009908/04/01 19:30:31  5-MIN KSTC 050130Z AUTO 16008KT 10SM CLR 29/26 A2989 1050 79 3000 160/08 RMK AO2
14926KSTC STC20010804193509908/04/01 19:35:31  5-MIN KSTC 050135Z AUTO 16008KT 10SM CLR 29/26 A2989 1050 82 2900 160/08 RMK AO2
14926KSTC STC20010804194009908/04/01 19:40:31  5-MIN KSTC 050140Z AUTO 16008KT 10SM CLR 29/26 A2989 1050 82 2900 160/08 RMK AO2
14926KSTC STC20010804194509908/04/01 19:45:31  5-MIN KSTC 050145Z AUTO 16009KT 10SM CLR 29/26 A2989 1050 82 2900 160/09 RMK AO2
14926KSTC STC20010804195011608/04/01 19:50:31  5-MIN KSTC 050150Z AUTO 16009KT 10SM CLR 29/26 A2989 1060 82 2900 160/09 RMK AO2 SLP121 T02890256
14926KSTC STC20010804195509908/04/01 19:55:31  5-MIN KSTC 050155Z AUTO 16008KT 10SM CLR 29/26 A2989 1050 82 2900 160/08 RMK AO2
14926KSTC STC20010804200009908/04/01 20:00:31  5-MIN KSTC 050200Z AUTO 16008KT 10SM CLR 28/26 A2989 1050 85 2900 160/08 RMK AO2
14926KSTC STC20010804200509908/04/01 20:05:31  5-MIN KSTC 050205Z AUTO 16008KT 10SM CLR 28/26 A2989 1050 85 2900 160/08 RMK AO2
14926KSTC STC20010804201009908/04/01 20:10:31  5-MIN KSTC 050210Z AUTO 17008KT 10SM CLR 28/26 A2989 1050 85 2900 160/08 RMK AO2
14926KSTC STC20010804201509908/04/01 20:15:31  5-MIN KSTC 050215Z AUTO 16008KT 10SM CLR 28/26 A2990 1050 85 2900 160/08 RMK AO2
14926KSTC STC20010804202009908/04/01 20:20:31  5-MIN KSTC 050220Z AUTO 16009KT 10SM CLR 28/26 A2990 1050 85 2900 160/09 RMK AO2
14926KSTC STC20010804202509908/04/01 20:25:31  5-MIN KSTC 050225Z AUTO 16007KT 10SM CLR 28/26 A2990 1040 85 2800 160/07 RMK AO2
14926KSTC STC20010804203009908/04/01 20:30:31  5-MIN KSTC 050230Z AUTO 16008KT 10SM CLR 28/26 A2990 1040 85 2800 160/08 RMK AO2
14926KSTC STC20010804203509908/04/01 20:35:31  5-MIN KSTC 050235Z AUTO 16007KT 10SM CLR 28/26 A2991 1040 87 2800 160/07 RMK AO2
14926KSTC STC20010804204009908/04/01 20:40:31  5-MIN KSTC 050240Z AUTO 16008KT 10SM CLR 28/26 A2991 1040 87 2800 160/08 RMK AO2
14926KSTC STC20010804204509908/04/01 20:45:31  5-MIN KSTC 050245Z AUTO 16008KT 10SM CLR 28/26 A2991 1040 87 2800 160/08 RMK AO2
14926KSTC STC20010804205012208/04/01 20:50:31  5-MIN KSTC 050250Z AUTO 16007KT 10SM CLR 28/26 A2991 1040 87 2800 150/07 RMK AO2 SLP129 T02780256 58009
14926KSTC STC20010804205509908/04/01 20:55:31  5-MIN KSTC 050255Z AUTO 16008KT 10SM CLR 28/26 A2991 1040 87 2800 150/08 RMK AO2
14926KSTC STC20010804210009908/04/01 21:00:31  5-MIN KSTC 050300Z AUTO 15007KT 10SM CLR 27/26 A2991 1040 90 2700 150/07 RMK AO2
14926KSTC STC20010804210509908/04/01 21:05:31  5-MIN KSTC 050305Z AUTO 15007KT 10SM CLR 27/26 A2991 1030 90 2700 150/07 RMK AO2
14926KSTC STC20010804211009908/04/01 21:10:31  5-MIN KSTC 050310Z AUTO 15006KT 10SM CLR 27/26 A2992 1030 90 2700 140/06 RMK AO2
14926KSTC STC20010804211509908/04/01 21:15:31  5-MIN KSTC 050315Z AUTO 14007KT 10SM CLR 27/26 A2992 1030 90 2700 140/07 RMK AO2
14926KSTC STC20010804212009908/04/01 21:20:31  5-MIN KSTC 050320Z AUTO 14007KT 10SM CLR 27/26 A2992 1030 90 2700 140/07 RMK AO2
14926KSTC STC20010804212509908/04/01 21:25:31  5-MIN KSTC 050325Z AUTO 14006KT 10SM CLR 27/26 A2992 1020 90 2700 140/06 RMK AO2
14926KSTC STC20010804213009908/04/01 21:30:31  5-MIN KSTC 050330Z AUTO 14006KT 10SM CLR 27/26 A2993 1020 90 2700 140/06 RMK AO2
14926KSTC STC20010804213509908/04/01 21:35:31  5-MIN KSTC 050335Z AUTO 14007KT 10SM CLR 27/26 A2993 1020 90 2700 140/07 RMK AO2
14926KSTC STC20010804214009908/04/01 21:40:31  5-MIN KSTC 050340Z AUTO 14006KT 10SM CLR 27/26 A2993 1020 93 2600 140/06 RMK AO2
14926KSTC STC20010804214509908/04/01 21:45:31  5-MIN KSTC 050345Z AUTO 15006KT 10SM CLR 27/26 A2993 1010 93 2600 140/06 RMK AO2
14926KSTC STC20010804215011608/04/01 21:50:31  5-MIN KSTC 050350Z AUTO 15006KT 10SM CLR 27/26 A2994 1010 93 2600 150/06 RMK AO2 SLP137 T02670256
14926KSTC STC20010804215509908/04/01 21:55:31  5-MIN KSTC 050355Z AUTO 15005KT 10SM CLR 27/26 A2994 1010 93 2600 150/05 RMK AO2
14926KSTC STC20010804220009908/04/01 22:00:31  5-MIN KSTC 050400Z AUTO 15005KT 10SM CLR 26/26 A2993 1010 97 2600 150/05 RMK AO2
14926KSTC STC20010804220509908/04/01 22:05:31  5-MIN KSTC 050405Z AUTO 17005KT 10SM CLR 26/25 A2994 1010 93 2600 170/05 RMK AO2
14926KSTC STC20010804221009908/04/01 22:10:31  5-MIN KSTC 050410Z AUTO 17005KT 10SM CLR 27/26 A2994 1010 93 2600 170/05 RMK AO2
14926KSTC STC20010804221509908/04/01 22:15:31  5-MIN KSTC 050415Z AUTO 17006KT 10SM CLR 26/26 A2994 1010 97 2600 170/06 RMK AO2
14926KSTC STC20010804222009908/04/01 22:20:31  5-MIN KSTC 050420Z AUTO 17007KT 10SM CLR 26/26 A2994 1010 97 2600 160/07 RMK AO2
14926KSTC STC20010804222509908/04/01 22:25:31  5-MIN KSTC 050425Z AUTO 17006KT 10SM CLR 26/26 A2993 1010 97 2600 170/06 RMK AO2
14926KSTC STC20010804223009908/04/01 22:30:31  5-MIN KSTC 050430Z AUTO 17006KT 10SM CLR 26/26 A2994 1010 97 2600 160/06 RMK AO2
14926KSTC STC20010804223509908/04/01 22:35:31  5-MIN KSTC 050435Z AUTO 17006KT 10SM CLR 26/26 A2994 1010 97 2600 170/06 RMK AO2
14926KSTC STC20010804224009908/04/01 22:40:31  5-MIN KSTC 050440Z AUTO 16007KT 10SM CLR 26/26 A2994 1010 97 2600 160/07 RMK AO2
14926KSTC STC20010804224509908/04/01 22:45:31  5-MIN KSTC 050445Z AUTO 16006KT 10SM CLR 26/26 A2994 1010 97 2600 160/06 RMK AO2
14926KSTC STC20010804225011608/04/01 22:50:31  5-MIN KSTC 050450Z AUTO 16006KT 10SM CLR 26/26 A2994 1010 97 2600 150/06 RMK AO2 SLP137 T02610256
14926KSTC STC20010804225509808/04/01 22:55:31  5-MIN KSTC 050455Z AUTO 15005KT 9SM CLR 26/25 A2994 1010 97 2500 150/05 RMK AO2
14926KSTC STC20010804230009808/04/01 23:00:31  5-MIN KSTC 050500Z AUTO 15005KT 9SM CLR 26/25 A2994 1010 97 2500 150/05 RMK AO2
14926KSTC STC20010804230509808/04/01 23:05:31  5-MIN KSTC 050505Z AUTO 15005KT 8SM CLR 26/25 A2994 1010 97 2500 150/05 RMK AO2
14926KSTC STC20010804231009808/04/01 23:10:31  5-MIN KSTC 050510Z AUTO 15004KT 8SM CLR 26/25 A2994 1010 97 2500 150/04 RMK AO2
14926KSTC STC20010804231509908/04/01 23:15:31  5-MIN KSTC 050515Z AUTO 15005KT 8SM CLR 25/25 A2994 1010 100 2400 150/05 RMK AO2
14926KSTC STC20010804232009808/04/01 23:20:31  5-MIN KSTC 050520Z AUTO 15004KT 8SM CLR 26/25 A2994 1010 97 2500 140/04 RMK AO2
14926KSTC STC20010804232509808/04/01 23:25:31  5-MIN KSTC 050525Z AUTO 14005KT 8SM CLR 26/25 A2994 1010 97 2500 140/05 RMK AO2
14926KSTC STC20010804233009908/04/01 23:30:31  5-MIN KSTC 050530Z AUTO 14005KT 9SM CLR 26/26 A2993 1010 100 2500 140/05 RMK AO2
14926KSTC STC20010804233509808/04/01 23:35:31  5-MIN KSTC 050535Z AUTO 14005KT 9SM CLR 26/26 A2993 1010 97 2600 140/05 RMK AO2
14926KSTC STC20010804234009808/04/01 23:40:31  5-MIN KSTC 050540Z AUTO 14005KT 9SM CLR 26/25 A2993 1020 97 2500 140/05 RMK AO2
14926KSTC STC20010804234509808/04/01 23:45:31  5-MIN KSTC 050545Z AUTO 15005KT 8SM CLR 26/25 A2993 1020 97 2500 140/05 RMK AO2
14926KSTC STC20010804235014308/04/01 23:50:31  5-MIN KSTC 050550Z AUTO 15005KT 8SM CLR 26/25 A2993 1020 97 2500 140/05 RMK AO2 SLP134 T02560250 10317 20250 403390200 55003
14926KSTC STC20010804235509808/04/01 23:55:31  5-MIN KSTC 050555Z AUTO 15005KT 7SM CLR 26/25 A2993 1020 97 2500 150/05 RMK AO2
14926KSTC STC20010805000009808/05/01 00:00:31  5-MIN KSTC 050600Z AUTO 16006KT 7SM CLR 26/25 A2993 1020 97 2500 160/06 RMK AO2
14926KSTC STC20010805000509808/05/01 00:05:31  5-MIN KSTC 050605Z AUTO 16006KT 7SM CLR 26/25 A2993 1020 97 2500 160/06 RMK AO2
14926KSTC STC20010805001009908/05/01 00:10:31  5-MIN KSTC 050610Z AUTO 17006KT 7SM CLR 26/26 A2993 1020 100 2500 170/06 RMK AO2
14926KSTC STC20010805001509908/05/01 00:15:31  5-MIN KSTC 050615Z AUTO 17007KT 8SM CLR 26/26 A2992 1020 100 2500 170/07 RMK AO2
14926KSTC STC20010805002009908/05/01 00:20:31  5-MIN KSTC 050620Z AUTO 17008KT 8SM CLR 26/26 A2992 1020 100 2500 170/08 RMK AO2
14926KSTC STC20010805002509808/05/01 00:25:31  5-MIN KSTC 050625Z AUTO 18007KT 8SM CLR 26/26 A2992 1020 97 2600 170/07 RMK AO2
14926KSTC STC20010805003009808/05/01 00:30:31  5-MIN KSTC 050630Z AUTO 18007KT 8SM CLR 26/26 A2993 1020 97 2600 170/07 RMK AO2
14926KSTC STC20010805003509808/05/01 00:35:31  5-MIN KSTC 050635Z AUTO 18007KT 8SM CLR 26/26 A2992 1020 97 2600 180/07 RMK AO2
14926KSTC STC20010805004009908/05/01 00:40:31  5-MIN KSTC 050640Z AUTO 18007KT 7SM CLR 26/26 A2992 1030 100 2500 180/07 RMK AO2
14926KSTC STC20010805004509808/05/01 00:45:31  5-MIN KSTC 050645Z AUTO 18007KT 7SM CLR 26/26 A2992 1030 97 2600 170/07 RMK AO2
14926KSTC STC20010805005011508/05/01 00:50:31  5-MIN KSTC 050650Z AUTO 18007KT 7SM CLR 26/26 A2992 1030 97 2600 180/07 RMK AO2 SLP131 T02610256
14926KSTC STC20010805005509808/05/01 00:55:31  5-MIN KSTC 050655Z AUTO 18008KT 7SM CLR 26/26 A2992 1030 97 2600 180/08 RMK AO2
14926KSTC STC20010805010009808/05/01 01:00:31  5-MIN KSTC 050700Z AUTO 18008KT 7SM CLR 26/26 A2992 1030 97 2600 170/08 RMK AO2
14926KSTC STC20010805010509908/05/01 01:05:31  5-MIN KSTC 050705Z AUTO 18007KT 7SM CLR 26/26 A2992 1030 100 2500 170/07 RMK AO2
14926KSTC STC20010805011009908/05/01 01:10:31  5-MIN KSTC 050710Z AUTO 18007KT 7SM CLR 26/26 A2992 1030 100 2500 170/07 RMK AO2
14926KSTC STC20010805011510208/05/01 01:15:31  5-MIN KSTC 050715Z AUTO 17008KT 6SM BR CLR 26/26 A2992 1030 100 2500 170/08 RMK AO2
14926KSTC STC20010805012010208/05/01 01:20:31  5-MIN KSTC 050720Z AUTO 17007KT 6SM BR CLR 26/26 A2992 1030 100 2500 170/07 RMK AO2
14926KSTC STC20010805012510208/05/01 01:25:31  5-MIN KSTC 050725Z AUTO 17009KT 6SM BR CLR 26/26 A2992 1020 100 2500 170/09 RMK AO2
14926KSTC STC20010805013010208/05/01 01:30:31  5-MIN KSTC 050730Z AUTO 18008KT 6SM BR CLR 26/26 A2992 1030 100 2500 170/08 RMK AO2
14926KSTC STC20010805013510208/05/01 01:35:31  5-MIN KSTC 050735Z AUTO 18009KT 6SM BR CLR 26/26 A2992 1020 100 2500 180/09 RMK AO2
14926KSTC STC20010805014010208/05/01 01:40:31  5-MIN KSTC 050740Z AUTO 18007KT 6SM BR CLR 26/26 A2992 1020 100 2500 180/07 RMK AO2
14926KSTC STC20010805014510208/05/01 01:45:31  5-MIN KSTC 050745Z AUTO 18007KT 6SM BR CLR 26/26 A2992 1030 100 2500 170/07 RMK AO2
14926KSTC STC20010805015011908/05/01 01:50:31  5-MIN KSTC 050750Z AUTO 18007KT 6SM BR CLR 26/26 A2992 1030 100 2500 180/07 RMK AO2 SLP131 T02560256
14926KSTC STC20010805015510208/05/01 01:55:31  5-MIN KSTC 050755Z AUTO 18007KT 6SM BR CLR 26/26 A2992 1030 100 2500 180/07 RMK AO2
14926KSTC STC20010805020010208/05/01 02:00:31  5-MIN KSTC 050800Z AUTO 18006KT 6SM BR CLR 26/26 A2992 1030 100 2500 180/06 RMK AO2
14926KSTC STC20010805020510208/05/01 02:05:31  5-MIN KSTC 050805Z AUTO 18006KT 6SM BR CLR 26/26 A2992 1020 100 2500 180/06 RMK AO2
14926KSTC STC20010805021010208/05/01 02:10:31  5-MIN KSTC 050810Z AUTO 18006KT 6SM BR CLR 26/26 A2992 1030 100 2500 180/06 RMK AO2
14926KSTC STC20010805021510208/05/01 02:15:31  5-MIN KSTC 050815Z AUTO 18007KT 6SM BR CLR 26/26 A2992 1020 100 2500 170/07 RMK AO2
14926KSTC STC20010805022010208/05/01 02:20:31  5-MIN KSTC 050820Z AUTO 18007KT 6SM BR CLR 26/26 A2992 1020 100 2500 170/07 RMK AO2
14926KSTC STC20010805022510208/05/01 02:25:31  5-MIN KSTC 050825Z AUTO 18007KT 6SM BR CLR 26/26 A2992 1030 100 2500 180/07 RMK AO2
14926KSTC STC20010805023010208/05/01 02:30:31  5-MIN KSTC 050830Z AUTO 17007KT 6SM BR CLR 26/26 A2992 1030 100 2500 170/07 RMK AO2
14926KSTC STC20010805023510108/05/01 02:35:31  5-MIN KSTC 050835Z AUTO 18008KT 6SM BR CLR 26/25 A2992 1020 97 2500 170/08 RMK AO2
14926KSTC STC20010805024010108/05/01 02:40:31  5-MIN KSTC 050840Z AUTO 18007KT 6SM BR CLR 26/25 A2992 1030 97 2500 170/07 RMK AO2
14926KSTC STC20010805024510108/05/01 02:45:31  5-MIN KSTC 050845Z AUTO 18007KT 6SM BR CLR 26/25 A2992 1030 97 2500 180/07 RMK AO2
14926KSTC STC20010805025012408/05/01 02:50:31  5-MIN KSTC 050850Z AUTO 18006KT 6SM BR CLR 26/25 A2992 1020 97 2500 170/06 RMK AO2 SLP132 T02560250 50005
14926KSTC STC20010805025510108/05/01 02:55:31  5-MIN KSTC 050855Z AUTO 18008KT 6SM BR CLR 26/25 A2992 1020 97 2500 170/08 RMK AO2
14926KSTC STC20010805030010108/05/01 03:00:31  5-MIN KSTC 050900Z AUTO 18008KT 6SM BR CLR 26/25 A2992 1020 97 2500 180/08 RMK AO2
14926KSTC STC20010805030510108/05/01 03:05:31  5-MIN KSTC 050905Z AUTO 18007KT 6SM BR CLR 26/25 A2992 1020 97 2500 180/07 RMK AO2
14926KSTC STC20010805031010208/05/01 03:10:31  5-MIN KSTC 050910Z AUTO 18008KT 6SM BR CLR 25/25 A2992 1020 100 2500 180/08 RMK AO2
14926KSTC STC20010805031510208/05/01 03:15:31  5-MIN KSTC 050915Z AUTO 18007KT 6SM BR CLR 25/25 A2992 1020 100 2400 170/07 RMK AO2
14926KSTC STC20010805032010208/05/01 03:20:31  5-MIN KSTC 050920Z AUTO 17007KT 6SM BR CLR 25/25 A2993 1020 100 2400 170/07 RMK AO2
14926KSTC STC20010805032510208/05/01 03:25:31  5-MIN KSTC 050925Z AUTO 18007KT 6SM BR CLR 25/25 A2993 1020 100 2400 180/07 RMK AO2
14926KSTC STC20010805033010208/05/01 03:30:31  5-MIN KSTC 050930Z AUTO 18008KT 6SM BR CLR 25/25 A2993 1020 100 2400 170/08 RMK AO2
14926KSTC STC20010805033510208/05/01 03:35:31  5-MIN KSTC 050935Z AUTO 18007KT 6SM BR CLR 25/25 A2993 1020 100 2400 180/07 RMK AO2
14926KSTC STC20010805034010208/05/01 03:40:31  5-MIN KSTC 050940Z AUTO 18007KT 6SM BR CLR 25/25 A2993 1020 100 2400 180/07 RMK AO2
14926KSTC STC20010805034510208/05/01 03:45:31  5-MIN KSTC 050945Z AUTO 18007KT 6SM BR CLR 25/25 A2993 1020 100 2400 180/07 RMK AO2
14926KSTC STC20010805035011908/05/01 03:50:31  5-MIN KSTC 050950Z AUTO 18007KT 6SM BR CLR 25/25 A2993 1020 100 2400 170/07 RMK AO2 SLP134 T02500250
14926KSTC STC20010805035510208/05/01 03:55:31  5-MIN KSTC 050955Z AUTO 18006KT 6SM BR CLR 25/25 A2993 1020 100 2400 170/06 RMK AO2
14926KSTC STC20010805040010108/05/01 04:00:31  5-MIN KSTC 051000Z AUTO 18007KT 6SM BR CLR 25/24 A2993 1010 97 2400 170/07 RMK AO2
14926KSTC STC20010805040510108/05/01 04:05:31  5-MIN KSTC 051005Z AUTO 18006KT 6SM BR CLR 25/24 A2993 1010 97 2400 170/06 RMK AO2
14926KSTC STC20010805041010108/05/01 04:10:31  5-MIN KSTC 051010Z AUTO 17006KT 6SM BR CLR 25/24 A2994 1010 97 2400 170/06 RMK AO2
14926KSTC STC20010805041510208/05/01 04:15:31  5-MIN KSTC 051015Z AUTO 17006KT 6SM BR CLR 24/24 A2994 1010 100 2400 160/06 RMK AO2
14926KSTC STC20010805042009808/05/01 04:20:31  5-MIN KSTC 051020Z AUTO 17007KT 7SM CLR 25/24 A2993 1010 97 2400 160/07 RMK AO2
14926KSTC STC20010805042509808/05/01 04:25:31  5-MIN KSTC 051025Z AUTO 17007KT 7SM CLR 25/24 A2993 1010 97 2400 170/07 RMK AO2
14926KSTC STC20010805043009808/05/01 04:30:31  5-MIN KSTC 051030Z AUTO 17008KT 7SM CLR 25/24 A2994 1010 97 2400 170/08 RMK AO2
14926KSTC STC20010805043509808/05/01 04:35:31  5-MIN KSTC 051035Z AUTO 17007KT 7SM CLR 25/24 A2994 1010 97 2400 170/07 RMK AO2
14926KSTC STC20010805044009908/05/01 04:40:31  5-MIN KSTC 051040Z AUTO 17007KT 7SM CLR 24/24 A2994 1010 100 2400 170/07 RMK AO2
14926KSTC STC20010805044509908/05/01 04:45:31  5-MIN KSTC 051045Z AUTO 17007KT 7SM CLR 24/24 A2994 1010 100 2400 170/07 RMK AO2
14926KSTC STC20010805045011608/05/01 04:50:31  5-MIN KSTC 051050Z AUTO 17006KT 7SM CLR 24/24 A2994 1010 100 2400 170/06 RMK AO2 SLP138 T02440244
14926KSTC STC20010805045509908/05/01 04:55:31  5-MIN KSTC 051055Z AUTO 17006KT 7SM CLR 24/24 A2994 1010 100 2400 170/06 RMK AO2
14926KSTC STC20010805050009808/05/01 05:00:31  5-MIN KSTC 051100Z AUTO 17006KT 7SM CLR 24/24 A2994 1010 97 2400 170/06 RMK AO2
14926KSTC STC20010805050509808/05/01 05:05:31  5-MIN KSTC 051105Z AUTO 17007KT 7SM CLR 24/24 A2994 1010 97 2400 170/07 RMK AO2
14926KSTC STC20010805051010108/05/01 05:10:31  5-MIN KSTC 051110Z AUTO 18006KT 6SM BR CLR 24/24 A2994 1010 97 2400 170/06 RMK AO2
14926KSTC STC20010805051510108/05/01 05:15:31  5-MIN KSTC 051115Z AUTO 17007KT 6SM BR CLR 24/24 A2994 1010 97 2400 170/07 RMK AO2
14926KSTC STC20010805052010108/05/01 05:20:31  5-MIN KSTC 051120Z AUTO 17007KT 6SM BR CLR 24/24 A2994 1010 97 2400 170/07 RMK AO2
14926KSTC STC20010805052510108/05/01 05:25:31  5-MIN KSTC 051125Z AUTO 17006KT 6SM BR CLR 24/24 A2994 1010 97 2400 170/06 RMK AO2
14926KSTC STC20010805053010108/05/01 05:30:31  5-MIN KSTC 051130Z AUTO 17006KT 6SM BR CLR 24/24 A2993 1010 97 2400 170/06 RMK AO2
14926KSTC STC20010805053510108/05/01 05:35:31  5-MIN KSTC 051135Z AUTO 17007KT 6SM BR CLR 24/24 A2993 1010 97 2400 170/07 RMK AO2
14926KSTC STC20010805054010108/05/01 05:40:31  5-MIN KSTC 051140Z AUTO 17007KT 6SM BR CLR 24/24 A2994 1010 97 2400 170/07 RMK AO2
14926KSTC STC20010805054510108/05/01 05:45:31  5-MIN KSTC 051145Z AUTO 16006KT 6SM BR CLR 24/24 A2994 1010 97 2400 160/06 RMK AO2
14926KSTC STC20010805055013608/05/01 05:50:31  5-MIN KSTC 051150Z AUTO 17006KT 6SM BR CLR 24/24 A2994 1010 97 2400 170/06 RMK AO2 SLP138 T02440239 10261 20244 55002
14926KSTC STC20010805055509808/05/01 05:55:31  5-MIN KSTC 051155Z AUTO 17007KT 7SM CLR 24/24 A2994 1010 97 2400 170/07 RMK AO2
14926KSTC STC20010805060009808/05/01 06:00:31  5-MIN KSTC 051200Z AUTO 17007KT 7SM CLR 25/24 A2994 1010 93 2400 170/07 RMK AO2
14926KSTC STC20010805060509808/05/01 06:05:31  5-MIN KSTC 051205Z AUTO 17009KT 7SM CLR 25/24 A2994 1010 93 2400 170/09 RMK AO2
14926KSTC STC20010805061009808/05/01 06:10:31  5-MIN KSTC 051210Z AUTO 17009KT 7SM CLR 25/24 A2993 1010 93 2400 170/09 RMK AO2
14926KSTC STC20010805061509808/05/01 06:15:31  5-MIN KSTC 051215Z AUTO 17010KT 7SM CLR 25/24 A2993 1020 93 2400 170/10 RMK AO2
14926KSTC STC20010805062009808/05/01 06:20:31  5-MIN KSTC 051220Z AUTO 17010KT 8SM CLR 25/24 A2993 1020 93 2400 170/10 RMK AO2
14926KSTC STC20010805062509808/05/01 06:25:31  5-MIN KSTC 051225Z AUTO 17011KT 8SM CLR 25/24 A2993 1020 93 2400 170/11 RMK AO2
14926KSTC STC20010805063009808/05/01 06:30:31  5-MIN KSTC 051230Z AUTO 18011KT 8SM CLR 26/24 A2993 1020 90 2500 180/11 RMK AO2
14926KSTC STC20010805063509808/05/01 06:35:31  5-MIN KSTC 051235Z AUTO 18011KT 8SM CLR 26/24 A2993 1020 90 2500 170/11 RMK AO2
14926KSTC STC20010805064009808/05/01 06:40:31  5-MIN KSTC 051240Z AUTO 18011KT 8SM CLR 26/24 A2993 1020 90 2500 180/11 RMK AO2
14926KSTC STC20010805064509808/05/01 06:45:31  5-MIN KSTC 051245Z AUTO 18010KT 8SM CLR 26/24 A2993 1020 90 2500 180/10 RMK AO2
14926KSTC STC20010805065011508/05/01 06:50:31  5-MIN KSTC 051250Z AUTO 18011KT 8SM CLR 26/24 A2993 1020 90 2500 170/11 RMK AO2 SLP134 T02560239
14926KSTC STC20010805065509808/05/01 06:55:31  5-MIN KSTC 051255Z AUTO 18010KT 8SM CLR 26/24 A2993 1020 87 2600 180/10 RMK AO2
14926KSTC STC20010805070009808/05/01 07:00:31  5-MIN KSTC 051300Z AUTO 18010KT 8SM CLR 26/24 A2993 1020 87 2600 180/10 RMK AO2
14926KSTC STC20010805070509808/05/01 07:05:31  5-MIN KSTC 051305Z AUTO 18010KT 9SM CLR 26/24 A2993 1020 87 2600 180/10 RMK AO2
14926KSTC STC20010805071009808/05/01 07:10:31  5-MIN KSTC 051310Z AUTO 18011KT 9SM CLR 26/23 A2993 1020 84 2600 180/11 RMK AO2
14926KSTC STC20010805071509808/05/01 07:15:31  5-MIN KSTC 051315Z AUTO 19011KT 9SM CLR 27/23 A2993 1020 82 2600 180/11 RMK AO2
14926KSTC STC20010805072009808/05/01 07:20:31  5-MIN KSTC 051320Z AUTO 18011KT 9SM CLR 27/23 A2993 1020 82 2600 180/11 RMK AO2
14926KSTC STC20010805072509808/05/01 07:25:31  5-MIN KSTC 051325Z AUTO 18010KT 9SM CLR 27/24 A2993 1010 84 2600 180/10 RMK AO2
14926KSTC STC20010805073009808/05/01 07:30:31  5-MIN KSTC 051330Z AUTO 19011KT 9SM CLR 27/23 A2993 1010 79 2700 190/11 RMK AO2
14926KSTC STC20010805073509908/05/01 07:35:31  5-MIN KSTC 051335Z AUTO 19012KT 10SM CLR 27/24 A2994 1010 82 2700 190/12 RMK AO2
14926KSTC STC20010805074009908/05/01 07:40:31  5-MIN KSTC 051340Z AUTO 19014KT 10SM CLR 27/23 A2994 1010 79 2700 190/14 RMK AO2
14926KSTC STC20010805074509908/05/01 07:45:31  5-MIN KSTC 051345Z AUTO 19013KT 10SM CLR 28/24 A2993 1010 79 2700 190/13 RMK AO2
14926KSTC STC20010805075011608/05/01 07:50:31  5-MIN KSTC 051350Z AUTO 20012KT 10SM CLR 28/23 A2994 1010 76 2700 190/12 RMK AO2 SLP137 T02780233
14926KSTC STC20010805075509908/05/01 07:55:31  5-MIN KSTC 051355Z AUTO 19013KT 10SM CLR 28/23 A2994 1010 76 2700 190/13 RMK AO2
14926KSTC STC20010805080009908/05/01 08:00:31  5-MIN KSTC 051400Z AUTO 19013KT 10SM CLR 28/23 A2993 1010 76 2700 190/13 RMK AO2
14926KSTC STC20010805080509908/05/01 08:05:31  5-MIN KSTC 051405Z AUTO 20012KT 10SM CLR 28/23 A2994 1010 76 2700 190/12 RMK AO2
14926KSTC STC20010805081009908/05/01 08:10:31  5-MIN KSTC 051410Z AUTO 19013KT 10SM CLR 28/23 A2994 1010 74 2800 190/13 RMK AO2
14926KSTC STC20010805081509908/05/01 08:15:31  5-MIN KSTC 051415Z AUTO 20014KT 10SM CLR 28/23 A2994 1010 74 2800 190/14 RMK AO2
14926KSTC STC20010805082009908/05/01 08:20:31  5-MIN KSTC 051420Z AUTO 19013KT 10SM CLR 28/23 A2993 1010 74 2800 190/13 RMK AO2
14926KSTC STC20010805082509908/05/01 08:25:31  5-MIN KSTC 051425Z AUTO 19014KT 10SM CLR 29/23 A2993 1010 71 2900 190/14 RMK AO2
14926KSTC STC20010805083010508/05/01 08:30:31  5-MIN KSTC 051430Z AUTO 19014G19KT 10SM CLR 29/23 A2993 1020 71 2900 190/14G19 RMK AO2
14926KSTC STC20010805083510508/05/01 08:35:31  5-MIN KSTC 051435Z AUTO 19013G19KT 10SM CLR 29/23 A2993 1020 71 2900 180/13G19 RMK AO2
14926KSTC STC20010805084009908/05/01 08:40:31  5-MIN KSTC 051440Z AUTO 19013KT 10SM CLR 29/23 A2993 1020 71 2900 190/13 RMK AO2
14926KSTC STC20010805084509908/05/01 08:45:31  5-MIN KSTC 051445Z AUTO 19013KT 10SM CLR 29/23 A2994 1010 69 2900 190/13 RMK AO2
14926KSTC STC20010805085012208/05/01 08:50:31  5-MIN KSTC 051450Z AUTO 19013KT 10SM CLR 29/23 A2994 1010 69 2900 190/13 RMK AO2 SLP136 T02940233 51005
14926KSTC STC20010805085509908/05/01 08:55:31  5-MIN KSTC 051455Z AUTO 19011KT 10SM CLR 29/23 A2993 1010 69 2900 180/11 RMK AO2
14926KSTC STC20010805090009908/05/01 09:00:31  5-MIN KSTC 051500Z AUTO 19013KT 10SM CLR 29/23 A2993 1020 69 2900 190/13 RMK AO2
14926KSTC STC20010805090509908/05/01 09:05:31  5-MIN KSTC 051505Z AUTO 19014KT 10SM CLR 30/23 A2993 1010 67 3000 190/14 RMK AO2
14926KSTC STC20010805091009908/05/01 09:10:31  5-MIN KSTC 051510Z AUTO 20013KT 10SM CLR 30/23 A2993 1010 67 3000 190/13 RMK AO2
14926KSTC STC20010805091509908/05/01 09:15:31  5-MIN KSTC 051515Z AUTO 19015KT 10SM CLR 30/23 A2993 1010 67 3000 190/15 RMK AO2
14926KSTC STC20010805092009908/05/01 09:20:31  5-MIN KSTC 051520Z AUTO 18013KT 10SM CLR 31/23 A2993 1020 65 3100 180/13 RMK AO2
14926KSTC STC20010805092509908/05/01 09:25:31  5-MIN KSTC 051525Z AUTO 18015KT 10SM CLR 31/23 A2993 1020 65 3100 180/15 RMK AO2
14926KSTC STC20010805093009908/05/01 09:30:31  5-MIN KSTC 051530Z AUTO 19014KT 10SM CLR 31/23 A2993 1020 65 3100 190/14 RMK AO2
14926KSTC STC20010805093509908/05/01 09:35:31  5-MIN KSTC 051535Z AUTO 19014KT 10SM CLR 31/24 A2993 1020 65 3100 180/14 RMK AO2
14926KSTC STC20010805094010508/05/01 09:40:31  5-MIN KSTC 051540Z AUTO 19015G20KT 10SM CLR 31/23 A2993 1020 63 3100 190/15G20 RMK AO2
14926KSTC STC20010805094509908/05/01 09:45:31  5-MIN KSTC 051545Z AUTO 19015KT 10SM CLR 31/23 A2993 1020 65 3100 180/15 RMK AO2
14926KSTC STC20010805095011608/05/01 09:50:31  5-MIN KSTC 051550Z AUTO 18013KT 10SM CLR 31/24 A2993 1020 65 3100 180/13 RMK AO2 SLP134 T03110239
14926KSTC STC20010805095509908/05/01 09:55:31  5-MIN KSTC 051555Z AUTO 19014KT 10SM CLR 32/24 A2993 1020 63 3200 190/14 RMK AO2
14926KSTC STC20010805100010508/05/01 10:00:31  5-MIN KSTC 051600Z AUTO 19016G20KT 10SM CLR 32/24 A2993 1020 63 3200 190/16G20 RMK AO2
14926KSTC STC20010805100510508/05/01 10:05:31  5-MIN KSTC 051605Z AUTO 18017G22KT 10SM CLR 32/23 A2993 1020 61 3200 180/17G22 RMK AO2
14926KSTC STC20010805101010508/05/01 10:10:31  5-MIN KSTC 051610Z AUTO 19017G22KT 10SM CLR 32/23 A2993 1020 61 3200 190/17G22 RMK AO2
14926KSTC STC20010805101509908/05/01 10:15:31  5-MIN KSTC 051615Z AUTO 19014KT 10SM CLR 32/23 A2993 1020 61 3200 190/14 RMK AO2
14926KSTC STC20010805102009908/05/01 10:20:31  5-MIN KSTC 051620Z AUTO 20016KT 10SM CLR 32/24 A2993 1020 63 3200 200/16 RMK AO2
14926KSTC STC20010805102509908/05/01 10:25:31  5-MIN KSTC 051625Z AUTO 18015KT 10SM CLR 32/24 A2993 1020 61 3200 180/15 RMK AO2
14926KSTC STC20010805103009908/05/01 10:30:31  5-MIN KSTC 051630Z AUTO 20015KT 10SM CLR 32/23 A2993 1010 59 3200 190/15 RMK AO2
14926KSTC STC20010805103509908/05/01 10:35:31  5-MIN KSTC 051635Z AUTO 19015KT 10SM CLR 32/24 A2993 1010 61 3200 190/15 RMK AO2
14926KSTC STC20010805104009908/05/01 10:40:31  5-MIN KSTC 051640Z AUTO 19015KT 10SM CLR 32/23 A2994 1010 59 3200 180/15 RMK AO2
14926KSTC STC20010805104509908/05/01 10:45:31  5-MIN KSTC 051645Z AUTO 19014KT 10SM CLR 33/24 A2994 1010 59 3300 180/14 RMK AO2
14926KSTC STC20010805105011608/05/01 10:50:31  5-MIN KSTC 051650Z AUTO 18010KT 10SM CLR 33/24 A2994 1010 59 3300 180/10 RMK AO2 SLP136 T03280239
14926KSTC STC20010805105510508/05/01 10:55:31  5-MIN KSTC 051655Z AUTO 19012G19KT 10SM CLR 33/24 A2994 1010 59 3300 180/12G19 RMK AO2
14926KSTC STC20010805110010508/05/01 11:00:31  5-MIN KSTC 051700Z AUTO 19014G19KT 10SM CLR 33/24 A2993 1010 57 3400 180/14G19 RMK AO2
14926KSTC STC20010805110509908/05/01 11:05:31  5-MIN KSTC 051705Z AUTO 19014KT 10SM CLR 33/24 A2993 1010 59 3300 180/14 RMK AO2
14926KSTC STC20010805111010508/05/01 11:10:31  5-MIN KSTC 051710Z AUTO 18015G20KT 10SM CLR 33/24 A2993 1010 59 3300 170/15G20 RMK AO2
14926KSTC STC20010805111509908/05/01 11:15:31  5-MIN KSTC 051715Z AUTO 19017KT 10SM CLR 33/23 A2993 1010 55 3400 180/17 RMK AO2
14926KSTC STC20010805112009908/05/01 11:20:31  5-MIN KSTC 051720Z AUTO 19016KT 10SM CLR 33/23 A2994 1010 55 3400 190/16 RMK AO2
14926KSTC STC20010805112509908/05/01 11:25:31  5-MIN KSTC 051725Z AUTO 18015KT 10SM CLR 33/24 A2994 1010 57 3400 180/15 RMK AO2
14926KSTC STC20010805113009908/05/01 11:30:31  5-MIN KSTC 051730Z AUTO 17015KT 10SM CLR 34/24 A2994 1010 55 3400 170/15 RMK AO2
14926KSTC STC20010805113509908/05/01 11:35:31  5-MIN KSTC 051735Z AUTO 19014KT 10SM CLR 34/24 A2994 1010 55 3400 190/14 RMK AO2
14926KSTC STC20010805114009908/05/01 11:40:31  5-MIN KSTC 051740Z AUTO 18013KT 10SM CLR 34/24 A2994 1010 53 3500 180/13 RMK AO2
14926KSTC STC20010805114510508/05/01 11:45:31  5-MIN KSTC 051745Z AUTO 19014G19KT 10SM CLR 34/24 A2994 1010 53 3500 190/14G19 RMK AO2
14926KSTC STC20010805115014008/05/01 11:50:31  5-MIN KSTC 051750Z AUTO 19014G19KT 10SM CLR 34/24 A2993 1020 53 3500 190/14G19 RMK AO2 SLP135 T03440239 10344 20244 55001
14926KSTC STC20010805115509908/05/01 11:55:31  5-MIN KSTC 051755Z AUTO 19016KT 10SM CLR 34/23 A2993 1020 52 3500 180/16 RMK AO2
14926KSTC STC20010805120009908/05/01 12:00:31  5-MIN KSTC 051800Z AUTO 20017KT 10SM CLR 34/23 A2993 1020 52 3500 200/17 RMK AO2
14926KSTC STC20010805120509908/05/01 12:05:31  5-MIN KSTC 051805Z AUTO 19016KT 10SM CLR 34/23 A2993 1020 52 3500 180/16 RMK AO2
14926KSTC STC20010805121009908/05/01 12:10:31  5-MIN KSTC 051810Z AUTO 19017KT 10SM CLR 34/23 A2993 1020 52 3500 180/17 RMK AO2
14926KSTC STC20010805121510508/05/01 12:15:31  5-MIN KSTC 051815Z AUTO 18015G20KT 10SM CLR 34/24 A2992 1020 53 3500 180/15G20 RMK AO2
14926KSTC STC20010805122010508/05/01 12:20:31  5-MIN KSTC 051820Z AUTO 20017G22KT 10SM CLR 34/23 A2992 1020 52 3500 200/17G22 RMK AO2
14926KSTC STC20010805122510508/05/01 12:25:31  5-MIN KSTC 051825Z AUTO 19018G22KT 10SM CLR 34/24 A2992 1020 53 3500 190/18G22 RMK AO2
14926KSTC STC20010805123009908/05/01 12:30:31  5-MIN KSTC 051830Z AUTO 19015KT 10SM CLR 35/23 A2992 1030 50 3600 180/15 RMK AO2
14926KSTC STC20010805123510508/05/01 12:35:31  5-MIN KSTC 051835Z AUTO 19014G20KT 10SM CLR 35/24 A2992 1030 52 3600 190/14G20 RMK AO2
14926KSTC STC20010805124010508/05/01 12:40:31  5-MIN KSTC 051840Z AUTO 19016G21KT 10SM CLR 35/24 A2992 1030 52 3600 190/16G21 RMK AO2
14926KSTC STC20010805124509908/05/01 12:45:31  5-MIN KSTC 051845Z AUTO 19019KT 10SM CLR 35/23 A2991 1030 50 3600 180/19 RMK AO2
14926KSTC STC20010805125011608/05/01 12:50:31  5-MIN KSTC 051850Z AUTO 19016KT 10SM CLR 35/24 A2991 1030 52 3600 180/16 RMK AO2 SLP128 T03500239
14926KSTC STC20010805125509908/05/01 12:55:31  5-MIN KSTC 051855Z AUTO 19016KT 10SM CLR 35/24 A2992 1030 52 3600 190/16 RMK AO2
14926KSTC STC20010805130009908/05/01 13:00:31  5-MIN KSTC 051900Z AUTO 19017KT 10SM CLR 35/24 A2991 1030 52 3600 190/17 RMK AO2
14926KSTC STC20010805130509908/05/01 13:05:31  5-MIN KSTC 051905Z AUTO 19014KT 10SM CLR 36/24 A2992 1030 50 3600 190/14 RMK AO2
14926KSTC STC20010805131009908/05/01 13:10:31  5-MIN KSTC 051910Z AUTO 19017KT 10SM CLR 35/24 A2992 1030 52 3600 180/17 RMK AO2
14926KSTC STC20010805131509908/05/01 13:15:31  5-MIN KSTC 051915Z AUTO 19017KT 10SM CLR 35/24 A2992 1030 52 3600 180/17 RMK AO2
14926KSTC STC20010805132009908/05/01 13:20:31  5-MIN KSTC 051920Z AUTO 19015KT 10SM CLR 35/24 A2992 1030 52 3600 180/15 RMK AO2
14926KSTC STC20010805132509908/05/01 13:25:31  5-MIN KSTC 051925Z AUTO 19015KT 10SM CLR 35/24 A2991 1030 53 3600 190/15 RMK AO2
14926KSTC STC20010805133010508/05/01 13:30:31  5-MIN KSTC 051930Z AUTO 20017G20KT 10SM CLR 35/24 A2992 1030 52 3600 190/17G20 RMK AO2
14926KSTC STC20010805133510508/05/01 13:35:31  5-MIN KSTC 051935Z AUTO 20015G20KT 10SM CLR 35/24 A2992 1030 52 3600 190/15G20 RMK AO2
14926KSTC STC20010805134009908/05/01 13:40:31  5-MIN KSTC 051940Z AUTO 19014KT 10SM CLR 35/24 A2992 1030 52 3600 180/14 RMK AO2
14926KSTC STC20010805134509908/05/01 13:45:31  5-MIN KSTC 051945Z AUTO 20012KT 10SM CLR 36/24 A2992 1030 52 3600 190/12 RMK AO2
14926KSTC STC20010805135011608/05/01 13:50:31  5-MIN KSTC 051950Z AUTO 19015KT 10SM CLR 36/24 A2991 1030 52 3600 190/15 RMK AO2 SLP127 T03560244
14926KSTC STC20010805135510508/05/01 13:55:31  5-MIN KSTC 051955Z AUTO 18016G20KT 10SM CLR 35/24 A2991 1030 53 3600 180/16G20 RMK AO2
14926KSTC STC20010805140009908/05/01 14:00:31  5-MIN KSTC 052000Z AUTO 19013KT 10SM CLR 36/24 A2991 1030 52 3600 190/13 RMK AO2
14926KSTC STC20010805140509908/05/01 14:05:31  5-MIN KSTC 052005Z AUTO 20014KT 10SM CLR 35/24 A2991 1030 53 3600 190/14 RMK AO2
14926KSTC STC20010805141010508/05/01 14:10:31  5-MIN KSTC 052010Z AUTO 19016G20KT 10SM CLR 36/24 A2991 1030 52 3600 180/16G20 RMK AO2
14926KSTC STC20010805141509908/05/01 14:15:31  5-MIN KSTC 052015Z AUTO 19016KT 10SM CLR 36/24 A2991 1030 48 3700 190/16 RMK AO2
14926KSTC STC20010805142010508/05/01 14:20:31  5-MIN KSTC 052020Z AUTO 19015G19KT 10SM CLR 36/24 A2991 1030 52 3600 190/15G19 RMK AO2
14926KSTC STC20010805142510508/05/01 14:25:31  5-MIN KSTC 052025Z AUTO 20013G19KT 10SM CLR 36/24 A2991 1030 50 3600 190/13G19 RMK AO2
14926KSTC STC20010805143010508/05/01 14:30:31  5-MIN KSTC 052030Z AUTO 20016G20KT 10SM CLR 36/24 A2991 1030 50 3700 190/16G20 RMK AO2
14926KSTC STC20010805143510508/05/01 14:35:31  5-MIN KSTC 052035Z AUTO 18017G21KT 10SM CLR 36/24 A2991 1040 52 3600 180/17G21 RMK AO2
14926KSTC STC20010805144010508/05/01 14:40:31  5-MIN KSTC 052040Z AUTO 19018G21KT 10SM CLR 36/24 A2991 1030 50 3600 180/18G21 RMK AO2
14926KSTC STC20010805144510508/05/01 14:45:31  5-MIN KSTC 052045Z AUTO 19014G21KT 10SM CLR 36/24 A2991 1040 50 3700 190/14G21 RMK AO2
14926KSTC STC20010805145012208/05/01 14:50:31  5-MIN KSTC 052050Z AUTO 19017KT 10SM CLR 36/24 A2991 1040 50 3600 190/17 RMK AO2 SLP127 T03560239 56001
14926KSTC STC20010805145509908/05/01 14:55:31  5-MIN KSTC 052055Z AUTO 20015KT 10SM CLR 36/24 A2991 1040 50 3600 190/15 RMK AO2
14926KSTC STC20010805150010508/05/01 15:00:31  5-MIN KSTC 052100Z AUTO 18015G22KT 10SM CLR 36/24 A2991 1040 52 3600 180/15G22 RMK AO2
14926KSTC STC20010805150510508/05/01 15:05:31  5-MIN KSTC 052105Z AUTO 20014G22KT 10SM CLR 36/24 A2991 1040 52 3600 190/14G22 RMK AO2
14926KSTC STC20010805151009908/05/01 15:10:31  5-MIN KSTC 052110Z AUTO 19015KT 10SM CLR 36/24 A2991 1030 50 3700 190/15 RMK AO2
14926KSTC STC20010805151509908/05/01 15:15:31  5-MIN KSTC 052115Z AUTO 19015KT 10SM CLR 36/24 A2991 1030 52 3600 180/15 RMK AO2
14926KSTC STC20010805152009908/05/01 15:20:31  5-MIN KSTC 052120Z AUTO 20014KT 10SM CLR 36/24 A2991 1030 52 3600 190/14 RMK AO2
14926KSTC STC20010805152509908/05/01 15:25:31  5-MIN KSTC 052125Z AUTO 20015KT 10SM CLR 36/24 A2992 1030 52 3600 190/15 RMK AO2
14926KSTC STC20010805153010508/05/01 15:30:31  5-MIN KSTC 052130Z AUTO 19016G21KT 10SM CLR 36/24 A2992 1030 52 3600 190/16G21 RMK AO2
14926KSTC STC20010805153510508/05/01 15:35:31  5-MIN KSTC 052135Z AUTO 19015G21KT 10SM CLR 36/24 A2991 1030 52 3600 180/15G21 RMK AO2
14926KSTC STC20010805154009908/05/01 15:40:31  5-MIN KSTC 052140Z AUTO 19014KT 10SM CLR 35/24 A2992 1030 53 3600 180/14 RMK AO2
14926KSTC STC20010805154509908/05/01 15:45:31  5-MIN KSTC 052145Z AUTO 19014KT 10SM CLR 36/24 A2992 1030 52 3600 190/14 RMK AO2
14926KSTC STC20010805155011608/05/01 15:50:31  5-MIN KSTC 052150Z AUTO 19015KT 10SM CLR 36/24 A2992 1030 52 3600 190/15 RMK AO2 SLP128 T03560244
14926KSTC STC20010805155509908/05/01 15:55:31  5-MIN KSTC 052155Z AUTO 19016KT 10SM CLR 35/24 A2991 1030 53 3600 190/16 RMK AO2
14926KSTC STC20010805160009908/05/01 16:00:31  5-MIN KSTC 052200Z AUTO 20015KT 10SM CLR 36/24 A2991 1030 52 3600 190/15 RMK AO2
14926KSTC STC20010805160509908/05/01 16:05:31  5-MIN KSTC 052205Z AUTO 19013KT 10SM CLR 36/24 A2991 1030 52 3600 190/13 RMK AO2
14926KSTC STC20010805161009908/05/01 16:10:31  5-MIN KSTC 052210Z AUTO 20017KT 10SM CLR 35/24 A2991 1030 53 3600 200/17 RMK AO2
14926KSTC STC20010805161510508/05/01 16:15:31  5-MIN KSTC 052215Z AUTO 19016G21KT 10SM CLR 35/24 A2991 1040 53 3600 190/16G21 RMK AO2
14926KSTC STC20010805162010508/05/01 16:20:31  5-MIN KSTC 052220Z AUTO 19013G21KT 10SM CLR 34/24 A2991 1040 55 3500 190/13G21 RMK AO2
14926KSTC STC20010805162509908/05/01 16:25:31  5-MIN KSTC 052225Z AUTO 20013KT 10SM CLR 34/24 A2991 1040 55 3500 190/13 RMK AO2
14926KSTC STC20010805163010508/05/01 16:30:31  5-MIN KSTC 052230Z AUTO 20016G20KT 10SM CLR 34/24 A2991 1030 57 3400 190/16G20 RMK AO2
14926KSTC STC20010805163510508/05/01 16:35:31  5-MIN KSTC 052235Z AUTO 20015G20KT 10SM CLR 34/24 A2991 1030 57 3400 190/15G20 RMK AO2
14926KSTC STC20010805164009908/05/01 16:40:31  5-MIN KSTC 052240Z AUTO 20013KT 10SM CLR 34/24 A2991 1030 57 3400 190/13 RMK AO2
14926KSTC STC20010805164509908/05/01 16:45:31  5-MIN KSTC 052245Z AUTO 20013KT 10SM CLR 34/24 A2991 1030 57 3400 190/13 RMK AO2
14926KSTC STC20010805165011608/05/01 16:50:31  5-MIN KSTC 052250Z AUTO 20012KT 10SM CLR 34/24 A2991 1030 55 3500 200/12 RMK AO2 SLP129 T03440244
14926KSTC STC20010805165509908/05/01 16:55:31  5-MIN KSTC 052255Z AUTO 20013KT 10SM CLR 34/24 A2991 1030 57 3400 200/13 RMK AO2
14926KSTC STC20010805170009908/05/01 17:00:31  5-MIN KSTC 052300Z AUTO 19012KT 10SM CLR 33/24 A2991 1040 59 3400 180/12 RMK AO2
14926KSTC STC20010805170509908/05/01 17:05:31  5-MIN KSTC 052305Z AUTO 19012KT 10SM CLR 33/24 A2991 1030 59 3400 190/12 RMK AO2
14926KSTC STC20010805171009908/05/01 17:10:31  5-MIN KSTC 052310Z AUTO 19010KT 10SM CLR 33/24 A2991 1030 59 3400 190/10 RMK AO2
14926KSTC STC20010805171509908/05/01 17:15:31  5-MIN KSTC 052315Z AUTO 19012KT 10SM CLR 33/24 A2992 1030 59 3400 190/12 RMK AO2
14926KSTC STC20010805172009908/05/01 17:20:31  5-MIN KSTC 052320Z AUTO 19009KT 10SM CLR 33/25 A2992 1030 61 3400 190/09 RMK AO2
14926KSTC STC20010805172509908/05/01 17:25:31  5-MIN KSTC 052325Z AUTO 19010KT 10SM CLR 33/25 A2992 1030 61 3400 190/10 RMK AO2
14926KSTC STC20010805173009908/05/01 17:30:31  5-MIN KSTC 052330Z AUTO 19010KT 10SM CLR 33/25 A2991 1030 63 3300 180/10 RMK AO2
14926KSTC STC20010805173509908/05/01 17:35:31  5-MIN KSTC 052335Z AUTO 19010KT 10SM CLR 33/25 A2991 1030 63 3300 180/10 RMK AO2
14926KSTC STC20010805174009908/05/01 17:40:31  5-MIN KSTC 052340Z AUTO 19010KT 10SM CLR 33/25 A2992 1030 63 3300 190/10 RMK AO2
14926KSTC STC20010805174509908/05/01 17:45:31  5-MIN KSTC 052345Z AUTO 18009KT 10SM CLR 33/26 A2991 1030 65 3300 180/09 RMK AO2
14926KSTC STC20010805175013408/05/01 17:50:31  5-MIN KSTC 052350Z AUTO 18011KT 10SM CLR 33/26 A2991 1030 65 3300 180/11 RMK AO2 SLP129 T03280256 10361 20328 56008
14926KSTC STC20010805175509908/05/01 17:55:31  5-MIN KSTC 052355Z AUTO 19010KT 10SM CLR 33/26 A2992 1030 65 3300 180/10 RMK AO2
14926KSTC STC20010805180009908/05/01 18:00:31  5-MIN KSTC 060000Z AUTO 19009KT 10SM CLR 32/26 A2992 1030 67 3300 190/09 RMK AO2
14926KSTC STC20010805180509908/05/01 18:05:31  5-MIN KSTC 060005Z AUTO 19010KT 10SM CLR 32/26 A2992 1030 67 3300 190/10 RMK AO2
14926KSTC STC20010805181009908/05/01 18:10:31  5-MIN KSTC 060010Z AUTO 19009KT 10SM CLR 32/26 A2992 1020 69 3200 190/09 RMK AO2
14926KSTC STC20010805181509908/05/01 18:15:31  5-MIN KSTC 060015Z AUTO 20009KT 10SM CLR 32/26 A2992 1020 69 3200 190/09 RMK AO2
14926KSTC STC20010805182009908/05/01 18:20:31  5-MIN KSTC 060020Z AUTO 20009KT 10SM CLR 32/26 A2993 1020 69 3200 200/09 RMK AO2
14926KSTC STC20010805182509908/05/01 18:25:31  5-MIN KSTC 060025Z AUTO 20008KT 10SM CLR 32/26 A2993 1020 69 3200 200/08 RMK AO2
14926KSTC STC20010805183009908/05/01 18:30:31  5-MIN KSTC 060030Z AUTO 20008KT 10SM CLR 32/26 A2993 1020 69 3200 200/08 RMK AO2
14926KSTC STC20010805183509908/05/01 18:35:31  5-MIN KSTC 060035Z AUTO 21009KT 10SM CLR 32/26 A2993 1020 69 3200 200/09 RMK AO2
14926KSTC STC20010805184009908/05/01 18:40:31  5-MIN KSTC 060040Z AUTO 20008KT 10SM CLR 32/26 A2993 1020 69 3200 200/08 RMK AO2
14926KSTC STC20010805184509908/05/01 18:45:31  5-MIN KSTC 060045Z AUTO 21008KT 10SM CLR 32/26 A2993 1020 69 3200 210/08 RMK AO2
14926KSTC STC20010805185011608/05/01 18:50:31  5-MIN KSTC 060050Z AUTO 21008KT 10SM CLR 32/26 A2993 1020 69 3200 210/08 RMK AO2 SLP135 T03170256
14926KSTC STC20010805185509908/05/01 18:55:31  5-MIN KSTC 060055Z AUTO 20007KT 10SM CLR 31/26 A2993 1010 72 3100 200/07 RMK AO2
14926KSTC STC20010805190009908/05/01 19:00:31  5-MIN KSTC 060100Z AUTO 21007KT 10SM CLR 31/26 A2994 1010 72 3100 200/07 RMK AO2
14926KSTC STC20010805190509908/05/01 19:05:31  5-MIN KSTC 060105Z AUTO 21007KT 10SM CLR 31/26 A2994 1010 72 3100 200/07 RMK AO2
14926KSTC STC20010805191009908/05/01 19:10:31  5-MIN KSTC 060110Z AUTO 21007KT 10SM CLR 31/26 A2994 1010 72 3100 210/07 RMK AO2
14926KSTC STC20010805191509908/05/01 19:15:31  5-MIN KSTC 060115Z AUTO 21007KT 10SM CLR 31/26 A2994 1010 72 3100 200/07 RMK AO2
14926KSTC STC20010805192009908/05/01 19:20:31  5-MIN KSTC 060120Z AUTO 21007KT 10SM CLR 31/26 A2994 1010 74 3000 200/07 RMK AO2
14926KSTC STC20010805192509908/05/01 19:25:31  5-MIN KSTC 060125Z AUTO 20007KT 10SM CLR 31/26 A2994 1010 74 3000 200/07 RMK AO2
14926KSTC STC20010805193009908/05/01 19:30:31  5-MIN KSTC 060130Z AUTO 20008KT 10SM CLR 31/26 A2994 1010 74 3000 200/08 RMK AO2
14926KSTC STC20010805193509908/05/01 19:35:31  5-MIN KSTC 060135Z AUTO 20006KT 10SM CLR 31/26 A2994 1010 74 3000 200/06 RMK AO2
14926KSTC STC20010805194009908/05/01 19:40:31  5-MIN KSTC 060140Z AUTO 20007KT 10SM CLR 30/26 A2994 1010 77 3000 200/07 RMK AO2
14926KSTC STC20010805194509908/05/01 19:45:31  5-MIN KSTC 060145Z AUTO 20007KT 10SM CLR 30/26 A2994 1000 77 3000 190/07 RMK AO2
14926KSTC STC20010805195011608/05/01 19:50:31  5-MIN KSTC 060150Z AUTO 20007KT 10SM CLR 30/26 A2995 1000 77 3000 190/07 RMK AO2 SLP140 T03000256
14926KSTC STC20010805195509908/05/01 19:55:31  5-MIN KSTC 060155Z AUTO 20007KT 10SM CLR 30/26 A2995 1000 77 3000 200/07 RMK AO2
14926KSTC STC20010805200009908/05/01 20:00:31  5-MIN KSTC 060200Z AUTO 20007KT 10SM CLR 29/26 A2995 1000 79 2900 200/07 RMK AO2
14926KSTC STC20010805200509808/05/01 20:05:31  5-MIN KSTC 060205Z AUTO 20007KT 10SM CLR 29/26 A2996 990 79 2900 200/07 RMK AO2
14926KSTC STC20010805201009808/05/01 20:10:31  5-MIN KSTC 060210Z AUTO 20007KT 10SM CLR 29/26 A2996 990 79 2900 200/07 RMK AO2
14926KSTC STC20010805201509808/05/01 20:15:31  5-MIN KSTC 060215Z AUTO 20007KT 10SM CLR 29/26 A2996 990 79 2900 190/07 RMK AO2
14926KSTC STC20010805202009808/05/01 20:20:31  5-MIN KSTC 060220Z AUTO 20007KT 10SM CLR 29/26 A2996 990 79 2900 190/07 RMK AO2
14926KSTC STC20010805202509808/05/01 20:25:31  5-MIN KSTC 060225Z AUTO 20007KT 10SM CLR 29/26 A2997 980 79 2900 190/07 RMK AO2
14926KSTC STC20010805203009808/05/01 20:30:31  5-MIN KSTC 060230Z AUTO 19006KT 10SM CLR 29/26 A2997 980 79 2900 190/06 RMK AO2
14926KSTC STC20010805203509808/05/01 20:35:31  5-MIN KSTC 060235Z AUTO 19006KT 10SM CLR 29/26 A2997 980 79 2900 190/06 RMK AO2
14926KSTC STC20010805204009808/05/01 20:40:31  5-MIN KSTC 060240Z AUTO 19007KT 10SM CLR 29/26 A2998 970 82 2800 190/07 RMK AO2
14926KSTC STC20010805204509808/05/01 20:45:31  5-MIN KSTC 060245Z AUTO 19007KT 10SM CLR 29/26 A2998 970 82 2800 180/07 RMK AO2
14926KSTC STC20010805205012108/05/01 20:50:31  5-MIN KSTC 060250Z AUTO 19006KT 10SM CLR 29/26 A2998 970 82 2800 180/06 RMK AO2 SLP152 T02890256 51003
14926KSTC STC20010805205509808/05/01 20:55:31  5-MIN KSTC 060255Z AUTO 19007KT 10SM CLR 29/26 A2998 970 82 2800 180/07 RMK AO2
14926KSTC STC20010805210009808/05/01 21:00:31  5-MIN KSTC 060300Z AUTO 19006KT 10SM CLR 29/26 A2998 970 82 2800 180/06 RMK AO2
14926KSTC STC20010805210509808/05/01 21:05:31  5-MIN KSTC 060305Z AUTO 18007KT 10SM CLR 29/26 A2998 970 82 2800 180/07 RMK AO2
14926KSTC STC20010805211009808/05/01 21:10:31  5-MIN KSTC 060310Z AUTO 19006KT 10SM CLR 29/26 A2998 970 82 2800 180/06 RMK AO2
14926KSTC STC20010805211509808/05/01 21:15:31  5-MIN KSTC 060315Z AUTO 19006KT 10SM CLR 29/26 A2998 970 82 2800 180/06 RMK AO2
14926KSTC STC20010805212009808/05/01 21:20:31  5-MIN KSTC 060320Z AUTO 18006KT 10SM CLR 28/26 A2998 970 85 2800 180/06 RMK AO2
14926KSTC STC20010805212509808/05/01 21:25:31  5-MIN KSTC 060325Z AUTO 19006KT 10SM CLR 28/26 A2998 970 85 2800 190/06 RMK AO2
14926KSTC STC20010805213009808/05/01 21:30:31  5-MIN KSTC 060330Z AUTO 19007KT 10SM CLR 28/26 A2998 970 85 2800 180/07 RMK AO2
14926KSTC STC20010805213509808/05/01 21:35:31  5-MIN KSTC 060335Z AUTO 19006KT 10SM CLR 28/26 A2998 970 85 2800 190/06 RMK AO2
14926KSTC STC20010805214009808/05/01 21:40:31  5-MIN KSTC 060340Z AUTO 19006KT 10SM CLR 28/26 A2998 970 85 2800 190/06 RMK AO2
14926KSTC STC20010805214509808/05/01 21:45:31  5-MIN KSTC 060345Z AUTO 19006KT 10SM CLR 28/26 A2998 970 85 2800 180/06 RMK AO2
14926KSTC STC20010805215011508/05/01 21:50:31  5-MIN KSTC 060350Z AUTO 19006KT 10SM CLR 28/26 A2998 970 85 2800 180/06 RMK AO2 SLP150 T02830256
14926KSTC STC20010805215509808/05/01 21:55:31  5-MIN KSTC 060355Z AUTO 19006KT 10SM CLR 28/26 A2998 970 85 2800 190/06 RMK AO2
14926KSTC STC20010805220009808/05/01 22:00:31  5-MIN KSTC 060400Z AUTO 19006KT 10SM CLR 28/26 A2998 970 85 2800 190/06 RMK AO2
14926KSTC STC20010805220509808/05/01 22:05:31  5-MIN KSTC 060405Z AUTO 19006KT 10SM CLR 28/26 A2997 980 85 2800 190/06 RMK AO2
14926KSTC STC20010805221009808/05/01 22:10:31  5-MIN KSTC 060410Z AUTO 19007KT 10SM CLR 28/26 A2997 980 85 2800 180/07 RMK AO2
14926KSTC STC20010805221509808/05/01 22:15:31  5-MIN KSTC 060415Z AUTO 19006KT 10SM CLR 28/26 A2998 970 85 2800 190/06 RMK AO2
14926KSTC STC20010805222009808/05/01 22:20:31  5-MIN KSTC 060420Z AUTO 19007KT 10SM CLR 28/26 A2998 970 85 2800 190/07 RMK AO2
14926KSTC STC20010805222509808/05/01 22:25:31  5-MIN KSTC 060425Z AUTO 20006KT 10SM CLR 28/26 A2998 970 85 2800 200/06 RMK AO2
14926KSTC STC20010805223009808/05/01 22:30:31  5-MIN KSTC 060430Z AUTO 20008KT 10SM CLR 28/26 A2998 970 85 2800 200/08 RMK AO2
14926KSTC STC20010805223509808/05/01 22:35:31  5-MIN KSTC 060435Z AUTO 20008KT 10SM CLR 28/26 A2998 970 85 2800 200/08 RMK AO2
14926KSTC STC20010805224009808/05/01 22:40:31  5-MIN KSTC 060440Z AUTO 20007KT 10SM CLR 28/26 A2998 970 85 2800 190/07 RMK AO2
14926KSTC STC20010805224509808/05/01 22:45:31  5-MIN KSTC 060445Z AUTO 20007KT 10SM CLR 28/26 A2999 970 87 2700 190/07 RMK AO2
14926KSTC STC20010805225011508/05/01 22:50:31  5-MIN KSTC 060450Z AUTO 20009KT 10SM CLR 28/26 A2998 970 87 2700 190/09 RMK AO2 SLP152 T02780256
14926KSTC STC20010805225509708/05/01 22:55:31  5-MIN KSTC 060455Z AUTO 19009KT 9SM CLR 28/26 A2998 970 87 2700 190/09 RMK AO2
14926KSTC STC20010805230009708/05/01 23:00:31  5-MIN KSTC 060500Z AUTO 19008KT 9SM CLR 28/26 A2998 970 87 2700 190/08 RMK AO2
14926KSTC STC20010805230509708/05/01 23:05:31  5-MIN KSTC 060505Z AUTO 19009KT 9SM CLR 28/26 A2998 970 87 2700 190/09 RMK AO2
14926KSTC STC20010805231009708/05/01 23:10:31  5-MIN KSTC 060510Z AUTO 20008KT 9SM CLR 28/26 A2999 970 87 2700 190/08 RMK AO2
14926KSTC STC20010805231509708/05/01 23:15:31  5-MIN KSTC 060515Z AUTO 20009KT 9SM CLR 28/26 A2999 970 87 2700 190/09 RMK AO2
14926KSTC STC20010805232009708/05/01 23:20:31  5-MIN KSTC 060520Z AUTO 20008KT 9SM CLR 28/26 A2999 970 87 2700 200/08 RMK AO2
14926KSTC STC20010805232509708/05/01 23:25:31  5-MIN KSTC 060525Z AUTO 20009KT 9SM CLR 28/26 A2999 970 87 2700 200/09 RMK AO2
14926KSTC STC20010805233009708/05/01 23:30:31  5-MIN KSTC 060530Z AUTO 20008KT 9SM CLR 28/26 A2999 970 87 2700 200/08 RMK AO2
14926KSTC STC20010805233509708/05/01 23:35:31  5-MIN KSTC 060535Z AUTO 20009KT 9SM CLR 28/26 A2999 960 87 2700 200/09 RMK AO2
14926KSTC STC20010805234009708/05/01 23:40:31  5-MIN KSTC 060540Z AUTO 20009KT 9SM CLR 28/26 A2999 960 87 2700 200/09 RMK AO2
14926KSTC STC20010805234509708/05/01 23:45:31  5-MIN KSTC 060545Z AUTO 20008KT 9SM CLR 28/26 A2999 960 87 2700 200/08 RMK AO2
14926KSTC STC20010805235014208/05/01 23:50:31  5-MIN KSTC 060550Z AUTO 20008KT 9SM CLR 27/26 A2999 960 90 2600 200/08 RMK AO2 SLP154 T02720256 10328 20272 403610244 53021
14926KSTC STC20010805235509708/05/01 23:55:31  5-MIN KSTC 060555Z AUTO 20009KT 9SM CLR 27/26 A2999 960 90 2600 200/09 RMK AO2
14926KSTC STC20010806000009708/06/01 00:00:31  5-MIN KSTC 060600Z AUTO 20008KT 9SM CLR 27/26 A2999 960 90 2600 200/08 RMK AO2
14926KSTC STC20010806000509708/06/01 00:05:31  5-MIN KSTC 060605Z AUTO 21008KT 9SM CLR 27/26 A2999 960 90 2600 200/08 RMK AO2
14926KSTC STC20010806001009708/06/01 00:10:31  5-MIN KSTC 060610Z AUTO 20007KT 9SM CLR 27/26 A2999 960 90 2600 200/07 RMK AO2
14926KSTC STC20010806001509708/06/01 00:15:31  5-MIN KSTC 060615Z AUTO 20008KT 8SM CLR 27/26 A2999 960 90 2600 200/08 RMK AO2
14926KSTC STC20010806002009708/06/01 00:20:31  5-MIN KSTC 060620Z AUTO 20008KT 8SM CLR 27/26 A2999 960 90 2600 200/08 RMK AO2
14926KSTC STC20010806002509708/06/01 00:25:31  5-MIN KSTC 060625Z AUTO 20007KT 8SM CLR 27/26 A2999 960 90 2600 200/07 RMK AO2
14926KSTC STC20010806003009708/06/01 00:30:31  5-MIN KSTC 060630Z AUTO 20006KT 8SM CLR 27/26 A2999 960 90 2600 200/06 RMK AO2
14926KSTC STC20010806003509708/06/01 00:35:31  5-MIN KSTC 060635Z AUTO 20006KT 8SM CLR 27/26 A3000 960 93 2600 190/06 RMK AO2
14926KSTC STC20010806004009708/06/01 00:40:31  5-MIN KSTC 060640Z AUTO 19006KT 8SM CLR 27/26 A3000 960 93 2600 190/06 RMK AO2
14926KSTC STC20010806004509708/06/01 00:45:31  5-MIN KSTC 060645Z AUTO 20006KT 8SM CLR 27/26 A3000 950 93 2600 200/06 RMK AO2
14926KSTC STC20010806005011408/06/01 00:50:31  5-MIN KSTC 060650Z AUTO 20006KT 8SM CLR 27/26 A3000 960 93 2600 200/06 RMK AO2 SLP156 T02670256
14926KSTC STC20010806005509708/06/01 00:55:31  5-MIN KSTC 060655Z AUTO 20006KT 8SM CLR 27/26 A3000 950 93 2600 190/06 RMK AO2
14926KSTC STC20010806010009708/06/01 01:00:31  5-MIN KSTC 060700Z AUTO 20005KT 7SM CLR 27/26 A3000 950 93 2600 190/05 RMK AO2
14926KSTC STC20010806010509708/06/01 01:05:31  5-MIN KSTC 060705Z AUTO 19007KT 7SM CLR 27/26 A3000 950 93 2600 190/07 RMK AO2
14926KSTC STC20010806011009708/06/01 01:10:31  5-MIN KSTC 060710Z AUTO 19006KT 7SM CLR 27/26 A3000 960 93 2600 190/06 RMK AO2
14926KSTC STC20010806011509708/06/01 01:15:31  5-MIN KSTC 060715Z AUTO 20005KT 7SM CLR 27/26 A3000 960 93 2600 190/05 RMK AO2
14926KSTC STC20010806012009708/06/01 01:20:31  5-MIN KSTC 060720Z AUTO 19005KT 7SM CLR 26/26 A3000 960 97 2500 190/05 RMK AO2
14926KSTC STC20010806012509708/06/01 01:25:31  5-MIN KSTC 060725Z AUTO 19005KT 7SM CLR 26/26 A3000 950 97 2500 180/05 RMK AO2
14926KSTC STC20010806013009708/06/01 01:30:31  5-MIN KSTC 060730Z AUTO 19005KT 7SM CLR 26/26 A3000 950 97 2500 190/05 RMK AO2
14926KSTC STC20010806013509708/06/01 01:35:31  5-MIN KSTC 060735Z AUTO 19005KT 7SM CLR 26/26 A3000 950 97 2500 190/05 RMK AO2
14926KSTC STC20010806014009708/06/01 01:40:31  5-MIN KSTC 060740Z AUTO 20005KT 7SM CLR 26/26 A3000 950 97 2500 200/05 RMK AO2
14926KSTC STC20010806014509708/06/01 01:45:31  5-MIN KSTC 060745Z AUTO 19004KT 7SM CLR 26/26 A3000 950 97 2500 190/04 RMK AO2
14926KSTC STC20010806015011808/06/01 01:50:31  5-MIN KSTC 060750Z AUTO 19004KT 6SM BR CLR 26/26 A3000 950 100 2400 190/04 RMK AO2 SLP158 T02560256
14926KSTC STC20010806015510108/06/01 01:55:31  5-MIN KSTC 060755Z AUTO 19005KT 6SM BR CLR 26/26 A3000 950 100 2400 190/05 RMK AO2
14926KSTC STC20010806020010108/06/01 02:00:31  5-MIN KSTC 060800Z AUTO 20004KT 6SM BR CLR 26/26 A3000 950 100 2400 190/04 RMK AO2
14926KSTC STC20010806020510108/06/01 02:05:31  5-MIN KSTC 060805Z AUTO 20004KT 6SM BR CLR 26/26 A3000 950 100 2400 200/04 RMK AO2
14926KSTC STC20010806021010008/06/01 02:10:31  5-MIN KSTC 060810Z AUTO 21004KT 6SM BR CLR 26/25 A3000 950 97 2400 210/04 RMK AO2
14926KSTC STC20010806021510008/06/01 02:15:31  5-MIN KSTC 060815Z AUTO 22004KT 6SM BR CLR 26/25 A3000 950 97 2400 210/04 RMK AO2
14926KSTC STC20010806022010008/06/01 02:20:31  5-MIN KSTC 060820Z AUTO 22004KT 6SM BR CLR 26/25 A3000 950 97 2400 220/04 RMK AO2
14926KSTC STC20010806022510008/06/01 02:25:31  5-MIN KSTC 060825Z AUTO 24004KT 6SM BR CLR 26/25 A3001 950 97 2400 230/04 RMK AO2
14926KSTC STC20010806023010008/06/01 02:30:31  5-MIN KSTC 060830Z AUTO 24003KT 6SM BR CLR 26/25 A3001 950 97 2400 230/03 RMK AO2
14926KSTC STC20010806023510008/06/01 02:35:31  5-MIN KSTC 060835Z AUTO 22004KT 6SM BR CLR 26/25 A3000 950 97 2400 220/04 RMK AO2
14926KSTC STC20010806024010008/06/01 02:40:31  5-MIN KSTC 060840Z AUTO 22005KT 6SM BR CLR 26/25 A3001 950 97 2400 220/05 RMK AO2
14926KSTC STC20010806024510008/06/01 02:45:31  5-MIN KSTC 060845Z AUTO 22004KT 6SM BR CLR 26/25 A3001 950 97 2400 220/04 RMK AO2
14926KSTC STC20010806025012308/06/01 02:50:31  5-MIN KSTC 060850Z AUTO 23004KT 6SM BR CLR 26/25 A3001 940 93 2500 230/04 RMK AO2 SLP160 T02610250 53003
14926KSTC STC20010806025510008/06/01 02:55:31  5-MIN KSTC 060855Z AUTO 21004KT 6SM BR CLR 26/25 A3001 940 97 2400 210/04 RMK AO2
14926KSTC STC20010806030010008/06/01 03:00:31  5-MIN KSTC 060900Z AUTO 22003KT 6SM BR CLR 26/25 A3001 940 97 2400 210/03 RMK AO2
14926KSTC STC20010806030510008/06/01 03:05:31  5-MIN KSTC 060905Z AUTO 21003KT 6SM BR CLR 26/25 A3001 940 97 2400 210/03 RMK AO2
14926KSTC STC20010806031010108/06/01 03:10:31  5-MIN KSTC 060910Z AUTO 00000KT 6SM BR CLR 25/25 A3001 940 100 2400 000/00 RMK AO2
14926KSTC STC20010806031510108/06/01 03:15:31  5-MIN KSTC 060915Z AUTO 00000KT 6SM BR CLR 25/25 A3001 940 100 2300 000/00 RMK AO2
14926KSTC STC20010806032010108/06/01 03:20:31  5-MIN KSTC 060920Z AUTO 00000KT 6SM BR CLR 25/25 A3001 940 100 2400 000/00 RMK AO2
14926KSTC STC20010806032510108/06/01 03:25:31  5-MIN KSTC 060925Z AUTO 00000KT 6SM BR CLR 25/25 A3001 940 100 2300 000/00 RMK AO2
14926KSTC STC20010806033010008/06/01 03:30:31  5-MIN KSTC 060930Z AUTO 19003KT 6SM BR CLR 25/24 A3001 940 97 2300 190/03 RMK AO2
14926KSTC STC20010806033510108/06/01 03:35:31  5-MIN KSTC 060935Z AUTO 00000KT 6SM BR CLR 24/24 A3002 940 100 2300 000/00 RMK AO2
14926KSTC STC20010806034010008/06/01 03:40:31  5-MIN KSTC 060940Z AUTO 00000KT 5SM BR CLR 25/24 A3002 940 97 2300 000/00 RMK AO2
14926KSTC STC20010806034510008/06/01 03:45:31  5-MIN KSTC 060945Z AUTO 00000KT 5SM BR CLR 25/24 A3002 940 97 2300 000/00 RMK AO2
14926KSTC STC20010806035011808/06/01 03:50:31  5-MIN KSTC 060950Z AUTO 00000KT 5SM BR CLR 25/25 A3002 940 100 2300 000/00 RMK AO2 SLP164 T02500250
14926KSTC STC20010806035510108/06/01 03:55:31  5-MIN KSTC 060955Z AUTO 00000KT 5SM BR CLR 25/25 A3002 940 100 2300 000/00 RMK AO2
14926KSTC STC20010806040010108/06/01 04:00:31  5-MIN KSTC 061000Z AUTO 00000KT 5SM BR CLR 25/25 A3002 930 100 2300 000/00 RMK AO2
14926KSTC STC20010806040510108/06/01 04:05:31  5-MIN KSTC 061005Z AUTO 00000KT 5SM BR CLR 25/25 A3002 930 100 2300 000/00 RMK AO2
14926KSTC STC20010806041010108/06/01 04:10:31  5-MIN KSTC 061010Z AUTO 00000KT 5SM BR CLR 25/25 A3002 930 100 2300 000/00 RMK AO2
14926KSTC STC20010806041510108/06/01 04:15:31  5-MIN KSTC 061015Z AUTO 00000KT 4SM BR CLR 24/24 A3002 930 100 2300 000/00 RMK AO2
14926KSTC STC20010806042010108/06/01 04:20:31  5-MIN KSTC 061020Z AUTO 00000KT 4SM BR CLR 24/24 A3002 930 100 2200 000/00 RMK AO2
14926KSTC STC20010806042510108/06/01 04:25:31  5-MIN KSTC 061025Z AUTO 00000KT 4SM BR CLR 24/24 A3002 930 100 2300 000/00 RMK AO2
14926KSTC STC20010806043010108/06/01 04:30:31  5-MIN KSTC 061030Z AUTO 00000KT 4SM BR CLR 24/24 A3002 930 100 2300 000/00 RMK AO2
14926KSTC STC20010806043510108/06/01 04:35:31  5-MIN KSTC 061035Z AUTO 00000KT 3SM BR CLR 24/24 A3003 930 100 2300 000/00 RMK AO2
14926KSTC STC20010806044010108/06/01 04:40:31  5-MIN KSTC 061040Z AUTO 00000KT 3SM BR CLR 24/24 A3003 930 100 2300 000/00 RMK AO2
14926KSTC STC20010806044510108/06/01 04:45:31  5-MIN KSTC 061045Z AUTO 00000KT 4SM BR CLR 24/24 A3003 930 100 2300 000/00 RMK AO2
14926KSTC STC20010806045011808/06/01 04:50:31  5-MIN KSTC 061050Z AUTO 00000KT 4SM BR CLR 24/24 A3003 930 100 2300 000/00 RMK AO2 SLP168 T02440244
14926KSTC STC20010806045510108/06/01 04:55:31  5-MIN KSTC 061055Z AUTO 00000KT 4SM BR CLR 24/24 A3003 930 100 2300 000/00 RMK AO2
14926KSTC STC20010806050010508/06/01 05:00:31  5-MIN KSTC 061100Z AUTO 00000KT 2 1/2SM BR CLR 24/24 A3003 920 100 2200 000/00 RMK AO2
14926KSTC STC20010806050510508/06/01 05:05:31  5-MIN KSTC 061105Z AUTO 00000KT 1 3/4SM BR CLR 24/24 A3003 920 100 2200 000/00 RMK AO2
14926KSTC STC20010806051010508/06/01 05:10:31  5-MIN KSTC 061110Z AUTO 00000KT 1 1/2SM BR CLR 24/24 A3003 920 100 2200 000/00 RMK AO2
14926KSTC STC20010806051510308/06/01 05:15:31  5-MIN KSTC 061115Z AUTO 00000KT 3/4SM BR CLR 24/24 A3004 920 100 2200 000/00 RMK AO2
14926KSTC STC20010806052010308/06/01 05:20:31  5-MIN KSTC 061120Z AUTO 00000KT 1/2SM FG CLR 24/24 A3004 920 100 2200 000/00 RMK AO2
14926KSTC STC20010806052510308/06/01 05:25:31  5-MIN KSTC 061125Z AUTO 00000KT 1/4SM FG CLR 23/23 A3004 920 100 2100 000/00 RMK AO2
14926KSTC STC20010806053010308/06/01 05:30:31  5-MIN KSTC 061130Z AUTO 00000KT 1/4SM FG CLR 23/23 A3004 920 100 2100 000/00 RMK AO2
14926KSTC STC20010806053510308/06/01 05:35:31  5-MIN KSTC 061135Z AUTO 00000KT 1/4SM FG CLR 24/24 A3004 910 100 2200 000/00 RMK AO2
14926KSTC STC20010806054010308/06/01 05:40:31  5-MIN KSTC 061140Z AUTO 00000KT 1/2SM FG CLR 24/24 A3004 910 100 2200 000/00 RMK AO2
14926KSTC STC20010806054510308/06/01 05:45:31  5-MIN KSTC 061145Z AUTO 00000KT 1/2SM FG CLR 24/24 A3004 910 100 2200 000/00 RMK AO2
14926KSTC STC20010806055013608/06/01 05:50:31  5-MIN KSTC 061150Z AUTO 00000KT 1SM BR CLR 24/24 A3004 910 100 2200 000/00 RMK AO2 SLP174 T02390239 10272 20233 52006
14926KSTC STC20010806055510508/06/01 05:55:31  5-MIN KSTC 061155Z AUTO 00000KT 1 3/4SM BR CLR 24/24 A3004 910 100 2200 000/00 RMK AO2
14926KSTC STC20010806060010508/06/01 06:00:31  5-MIN KSTC 061200Z AUTO 32003KT 2 1/2SM BR CLR 24/24 A3005 910 100 2200 320/03 RMK AO2
14926KSTC STC20010806060510108/06/01 06:05:31  5-MIN KSTC 061205Z AUTO 00000KT 3SM BR CLR 24/24 A3005 910 100 2300 000/00 RMK AO2
14926KSTC STC20010806061010008/06/01 06:10:31  5-MIN KSTC 061210Z AUTO 34003KT 3SM BR CLR 25/24 A3005 910 97 2300 330/03 RMK AO2
14926KSTC STC20010806061510008/06/01 06:15:31  5-MIN KSTC 061215Z AUTO 33003KT 3SM BR CLR 25/24 A3005 910 97 2300 330/03 RMK AO2
14926KSTC STC20010806062010008/06/01 06:20:31  5-MIN KSTC 061220Z AUTO 32003KT 3SM BR CLR 26/25 A3005 910 97 2400 320/03 RMK AO2
14926KSTC STC20010806062510008/06/01 06:25:31  5-MIN KSTC 061225Z AUTO 32004KT 4SM BR CLR 26/25 A3005 910 97 2400 320/04 RMK AO2
14926KSTC STC20010806063010008/06/01 06:30:31  5-MIN KSTC 061230Z AUTO 33003KT 4SM BR CLR 26/25 A3005 910 93 2400 330/03 RMK AO2
14926KSTC STC20010806063510008/06/01 06:35:31  5-MIN KSTC 061235Z AUTO 34004KT 4SM BR CLR 26/25 A3005 910 93 2400 330/04 RMK AO2
14926KSTC STC20010806064010008/06/01 06:40:31  5-MIN KSTC 061240Z AUTO 33004KT 4SM BR CLR 26/25 A3005 900 93 2400 330/04 RMK AO2
14926KSTC STC20010806064510008/06/01 06:45:31  5-MIN KSTC 061245Z AUTO 34005KT 5SM BR CLR 26/25 A3005 900 93 2400 340/05 RMK AO2
14926KSTC STC20010806065011708/06/01 06:50:31  5-MIN KSTC 061250Z AUTO 35005KT 5SM BR CLR 27/25 A3005 900 90 2500 350/05 RMK AO2 SLP177 T02670250
14926KSTC STC20010806065510008/06/01 06:55:31  5-MIN KSTC 061255Z AUTO 34005KT 5SM BR CLR 27/25 A3005 900 90 2500 340/05 RMK AO2
14926KSTC STC20010806070010008/06/01 07:00:31  5-MIN KSTC 061300Z AUTO 34005KT 6SM BR CLR 27/25 A3005 900 90 2500 340/05 RMK AO2
14926KSTC STC20010806070510008/06/01 07:05:31  5-MIN KSTC 061305Z AUTO 36004KT 6SM BR CLR 27/25 A3005 900 90 2500 350/04 RMK AO2
14926KSTC STC20010806071010008/06/01 07:10:31  5-MIN KSTC 061310Z AUTO 36005KT 6SM BR CLR 27/25 A3006 900 87 2600 360/05 RMK AO2
14926KSTC STC20010806071510008/06/01 07:15:31  5-MIN KSTC 061315Z AUTO 36006KT 6SM BR CLR 27/25 A3006 900 87 2600 360/06 RMK AO2
14926KSTC STC20010806072009708/06/01 07:20:31  5-MIN KSTC 061320Z AUTO VRB05KT 7SM CLR 28/25 A3006 900 84 2600 VRB/05 RMK AO2
14926KSTC STC20010806072509708/06/01 07:25:31  5-MIN KSTC 061325Z AUTO VRB05KT 8SM CLR 28/25 A3006 900 84 2600 VRB/05 RMK AO2
14926KSTC STC20010806073009708/06/01 07:30:31  5-MIN KSTC 061330Z AUTO VRB05KT 8SM CLR 28/25 A3006 900 84 2600 VRB/05 RMK AO2
14926KSTC STC20010806073509708/06/01 07:35:31  5-MIN KSTC 061335Z AUTO 01005KT 9SM CLR 28/25 A3006 900 82 2700 010/05 RMK AO2
14926KSTC STC20010806074009708/06/01 07:40:31  5-MIN KSTC 061340Z AUTO 01006KT 9SM CLR 28/24 A3006 900 79 2700 010/06 RMK AO2
14926KSTC STC20010806074509808/06/01 07:45:31  5-MIN KSTC 061345Z AUTO 01006KT 10SM CLR 28/25 A3006 900 82 2700 010/06 RMK AO2
14926KSTC STC20010806075011508/06/01 07:50:31  5-MIN KSTC 061350Z AUTO 01006KT 10SM CLR 29/24 A3006 890 76 2700 010/06 RMK AO2 SLP180 T02890244
14926KSTC STC20010806075509808/06/01 07:55:31  5-MIN KSTC 061355Z AUTO 02006KT 10SM CLR 29/25 A3007 890 79 2700 020/06 RMK AO2
14926KSTC STC20010806080009808/06/01 08:00:31  5-MIN KSTC 061400Z AUTO 36005KT 10SM CLR 29/25 A3007 890 79 2700 360/05 RMK AO2
14926KSTC STC20010806080509808/06/01 08:05:31  5-MIN KSTC 061405Z AUTO 36005KT 10SM CLR 29/25 A3007 890 76 2800 360/05 RMK AO2
14926KSTC STC20010806081009808/06/01 08:10:31  5-MIN KSTC 061410Z AUTO 01006KT 10SM CLR 29/24 A3007 890 76 2700 010/06 RMK AO2
14926KSTC STC20010806081509808/06/01 08:15:31  5-MIN KSTC 061415Z AUTO 35005KT 10SM CLR 29/24 A3007 890 74 2800 350/05 RMK AO2
14926KSTC STC20010806082009808/06/01 08:20:31  5-MIN KSTC 061420Z AUTO 36007KT 10SM CLR 30/25 A3007 890 74 2800 350/07 RMK AO2
14926KSTC STC20010806082509808/06/01 08:25:31  5-MIN KSTC 061425Z AUTO 36007KT 10SM CLR 29/24 A3007 890 74 2800 350/07 RMK AO2
14926KSTC STC20010806083009808/06/01 08:30:31  5-MIN KSTC 061430Z AUTO 35006KT 10SM CLR 30/25 A3007 890 74 2800 350/06 RMK AO2
14926KSTC STC20010806083509808/06/01 08:35:31  5-MIN KSTC 061435Z AUTO 36006KT 10SM CLR 29/24 A3007 890 74 2800 360/06 RMK AO2
14926KSTC STC20010806084009808/06/01 08:40:31  5-MIN KSTC 061440Z AUTO 35006KT 10SM CLR 30/25 A3007 890 74 2800 350/06 RMK AO2
14926KSTC STC20010806084509808/06/01 08:45:31  5-MIN KSTC 061445Z AUTO 35007KT 10SM CLR 30/25 A3007 890 74 2800 350/07 RMK AO2
14926KSTC STC20010806085012108/06/01 08:50:31  5-MIN KSTC 061450Z AUTO VRB06KT 10SM CLR 30/25 A3007 890 74 2800 VRB/06 RMK AO2 SLP182 T03000250 53012
14926KSTC STC20010806085509808/06/01 08:55:31  5-MIN KSTC 061455Z AUTO 36007KT 10SM CLR 30/25 A3007 890 74 2800 350/07 RMK AO2
14926KSTC STC20010806090011408/06/01 09:00:31  5-MIN KSTC 061500Z AUTO 36007KT 310V030 10SM CLR 31/25 A3007 890 72 2900 360/07 310V030 RMK AO2
14926KSTC STC20010806090509808/06/01 09:05:31  5-MIN KSTC 061505Z AUTO 33008KT 10SM CLR 31/24 A3007 880 69 2900 330/08 RMK AO2
14926KSTC STC20010806091009808/06/01 09:10:31  5-MIN KSTC 061510Z AUTO 35007KT 10SM CLR 31/24 A3007 890 69 2900 350/07 RMK AO2
14926KSTC STC20010806091509808/06/01 09:15:31  5-MIN KSTC 061515Z AUTO 01008KT 10SM CLR 31/24 A3007 890 69 2900 010/08 RMK AO2
14926KSTC STC20010806092009808/06/01 09:20:31  5-MIN KSTC 061520Z AUTO 01007KT 10SM CLR 31/24 A3007 880 67 3000 010/07 RMK AO2
14926KSTC STC20010806092509808/06/01 09:25:31  5-MIN KSTC 061525Z AUTO 01007KT 10SM CLR 31/24 A3007 880 65 3000 010/07 RMK AO2
14926KSTC STC20010806093009808/06/01 09:30:31  5-MIN KSTC 061530Z AUTO 02009KT 10SM CLR 31/23 A3007 880 63 3000 020/09 RMK AO2
14926KSTC STC20010806093509808/06/01 09:35:31  5-MIN KSTC 061535Z AUTO 03007KT 10SM CLR 32/23 A3008 880 61 3000 020/07 RMK AO2
14926KSTC STC20010806094009808/06/01 09:40:31  5-MIN KSTC 061540Z AUTO VRB06KT 10SM CLR 32/24 A3008 880 63 3000 VRB/06 RMK AO2
14926KSTC STC20010806094509808/06/01 09:45:31  5-MIN KSTC 061545Z AUTO 02006KT 10SM CLR 32/24 A3008 880 61 3100 020/06 RMK AO2
14926KSTC STC20010806095011508/06/01 09:50:31  5-MIN KSTC 061550Z AUTO 34008KT 10SM CLR 32/23 A3008 880 59 3100 340/08 RMK AO2 SLP185 T03220233
14926KSTC STC20010806095509808/06/01 09:55:31  5-MIN KSTC 061555Z AUTO VRB04KT 10SM CLR 32/23 A3008 880 59 3100 VRB/04 RMK AO2
14926KSTC STC20010806100009808/06/01 10:00:31  5-MIN KSTC 061600Z AUTO 06006KT 10SM CLR 32/23 A3008 880 59 3100 050/06 RMK AO2
14926KSTC STC20010806100509808/06/01 10:05:31  5-MIN KSTC 061605Z AUTO VRB05KT 10SM CLR 32/23 A3008 880 59 3100 VRB/05 RMK AO2
14926KSTC STC20010806101009808/06/01 10:10:31  5-MIN KSTC 061610Z AUTO VRB05KT 10SM CLR 33/23 A3008 880 57 3100 VRB/05 RMK AO2
14926KSTC STC20010806101509808/06/01 10:15:31  5-MIN KSTC 061615Z AUTO VRB04KT 10SM CLR 33/23 A3008 870 57 3100 VRB/04 RMK AO2
14926KSTC STC20010806102009808/06/01 10:20:31  5-MIN KSTC 061620Z AUTO VRB05KT 10SM CLR 33/23 A3009 870 55 3100 VRB/05 RMK AO2
14926KSTC STC20010806102509808/06/01 10:25:31  5-MIN KSTC 061625Z AUTO 36007KT 10SM CLR 33/22 A3009 870 53 3100 360/07 RMK AO2
14926KSTC STC20010806103009808/06/01 10:30:31  5-MIN KSTC 061630Z AUTO 35005KT 10SM CLR 33/22 A3008 870 53 3100 350/05 RMK AO2
14926KSTC STC20010806103509808/06/01 10:35:31  5-MIN KSTC 061635Z AUTO 01005KT 10SM CLR 33/23 A3009 870 55 3100 360/05 RMK AO2
14926KSTC STC20010806104009808/06/01 10:40:31  5-MIN KSTC 061640Z AUTO 04004KT 10SM CLR 33/23 A3009 870 55 3100 040/04 RMK AO2
14926KSTC STC20010806104509808/06/01 10:45:31  5-MIN KSTC 061645Z AUTO 35006KT 10SM CLR 33/22 A3009 870 51 3200 350/06 RMK AO2
14926KSTC STC20010806105011508/06/01 10:50:31  5-MIN KSTC 061650Z AUTO 36006KT 10SM CLR 34/22 A3009 870 50 3300 360/06 RMK AO2 SLP187 T03390222
14926KSTC STC20010806105509808/06/01 10:55:31  5-MIN KSTC 061655Z AUTO 36006KT 10SM CLR 34/22 A3009 870 50 3300 360/06 RMK AO2
14926KSTC STC20010806110009808/06/01 11:00:31  5-MIN KSTC 061700Z AUTO 36006KT 10SM CLR 34/22 A3009 870 50 3300 360/06 RMK AO2
14926KSTC STC20010806110509808/06/01 11:05:31  5-MIN KSTC 061705Z AUTO 01008KT 10SM CLR 34/22 A3009 870 48 3300 010/08 RMK AO2
14926KSTC STC20010806111009808/06/01 11:10:31  5-MIN KSTC 061710Z AUTO 04005KT 10SM CLR 33/22 A3009 870 51 3200 040/05 RMK AO2
14926KSTC STC20010806111509808/06/01 11:15:31  5-MIN KSTC 061715Z AUTO VRB05KT 10SM CLR 33/22 A3009 870 51 3200 VRB/05 RMK AO2
14926KSTC STC20010806112009808/06/01 11:20:31  5-MIN KSTC 061720Z AUTO VRB05KT 10SM CLR 34/22 A3009 870 48 3300 VRB/05 RMK AO2
14926KSTC STC20010806112509808/06/01 11:25:31  5-MIN KSTC 061725Z AUTO 35005KT 10SM CLR 34/22 A3008 870 48 3300 350/05 RMK AO2
14926KSTC STC20010806113009808/06/01 11:30:31  5-MIN KSTC 061730Z AUTO 35004KT 10SM CLR 34/22 A3008 880 48 3300 340/04 RMK AO2
14926KSTC STC20010806113509808/06/01 11:35:31  5-MIN KSTC 061735Z AUTO 36005KT 10SM CLR 34/22 A3008 880 50 3300 360/05 RMK AO2
14926KSTC STC20010806114009808/06/01 11:40:31  5-MIN KSTC 061740Z AUTO 03006KT 10SM CLR 34/22 A3008 880 50 3300 030/06 RMK AO2
14926KSTC STC20010806114509808/06/01 11:45:31  5-MIN KSTC 061745Z AUTO 06005KT 10SM CLR 34/22 A3008 880 50 3300 060/05 RMK AO2
14926KSTC STC20010806115013308/06/01 11:50:31  5-MIN KSTC 061750Z AUTO VRB05KT 10SM CLR 34/22 A3008 880 50 3300 VRB/05 RMK AO2 SLP185 T03390222 10344 20239 51009
14926KSTC STC20010806115509808/06/01 11:55:31  5-MIN KSTC 061755Z AUTO 00000KT 10SM CLR 34/22 A3008 880 48 3300 000/00 RMK AO2
14926KSTC STC20010806120009808/06/01 12:00:31  5-MIN KSTC 061800Z AUTO 05006KT 10SM CLR 34/22 A3008 880 48 3300 050/06 RMK AO2
14926KSTC STC20010806120509808/06/01 12:05:31  5-MIN KSTC 061805Z AUTO 04004KT 10SM CLR 34/22 A3008 880 48 3300 040/04 RMK AO2
14926KSTC STC20010806121009808/06/01 12:10:31  5-MIN KSTC 061810Z AUTO 36006KT 10SM CLR 34/22 A3008 880 46 3300 350/06 RMK AO2
14926KSTC STC20010806121509808/06/01 12:15:31  5-MIN KSTC 061815Z AUTO 35009KT 10SM CLR 35/21 A3008 880 42 3400 340/09 RMK AO2
14926KSTC STC20010806122009808/06/01 12:20:31  5-MIN KSTC 061820Z AUTO VRB05KT 10SM CLR 35/20 A3008 880 40 3400 VRB/05 RMK AO2
14926KSTC STC20010806122509808/06/01 12:25:31  5-MIN KSTC 061825Z AUTO VRB05KT 10SM CLR 35/21 A3008 880 42 3400 VRB/05 RMK AO2
14926KSTC STC20010806123009808/06/01 12:30:31  5-MIN KSTC 061830Z AUTO 01006KT 10SM CLR 35/21 A3008 880 42 3400 360/06 RMK AO2
14926KSTC STC20010806123509808/06/01 12:35:31  5-MIN KSTC 061835Z AUTO VRB05KT 10SM CLR 34/20 A3008 880 42 3300 VRB/05 RMK AO2
14926KSTC STC20010806124009808/06/01 12:40:31  5-MIN KSTC 061840Z AUTO 36007KT 10SM CLR 36/20 A3008 880 39 3400 350/07 RMK AO2
14926KSTC STC20010806124509808/06/01 12:45:31  5-MIN KSTC 061845Z AUTO 34006KT 10SM CLR 36/19 A3008 880 38 3400 330/06 RMK AO2
14926KSTC STC20010806125011508/06/01 12:50:31  5-MIN KSTC 061850Z AUTO 01006KT 10SM CLR 36/20 A3008 880 39 3400 360/06 RMK AO2 SLP183 T03560200
14926KSTC STC20010806125509808/06/01 12:55:31  5-MIN KSTC 061855Z AUTO VRB05KT 10SM CLR 35/20 A3008 880 40 3400 VRB/05 RMK AO2
14926KSTC STC20010806130009808/06/01 13:00:31  5-MIN KSTC 061900Z AUTO 02010KT 10SM CLR 36/19 A3008 880 38 3400 020/10 RMK AO2
14926KSTC STC20010806130509808/06/01 13:05:31  5-MIN KSTC 061905Z AUTO 01007KT 10SM CLR 35/19 A3008 880 39 3400 010/07 RMK AO2
14926KSTC STC20010806131009808/06/01 13:10:31  5-MIN KSTC 061910Z AUTO 03007KT 10SM CLR 35/19 A3008 880 38 3400 030/07 RMK AO2
14926KSTC STC20010806131509808/06/01 13:15:31  5-MIN KSTC 061915Z AUTO 02007KT 10SM CLR 35/19 A3007 880 38 3400 020/07 RMK AO2
14926KSTC STC20010806132009808/06/01 13:20:31  5-MIN KSTC 061920Z AUTO 33006KT 10SM CLR 36/19 A3007 880 37 3400 320/06 RMK AO2
14926KSTC STC20010806132509808/06/01 13:25:31  5-MIN KSTC 061925Z AUTO VRB04KT 10SM CLR 36/18 A3007 880 35 3400 VRB/04 RMK AO2
14926KSTC STC20010806133009808/06/01 13:30:31  5-MIN KSTC 061930Z AUTO 35009KT 10SM CLR 36/19 A3007 880 37 3400 350/09 RMK AO2
14926KSTC STC20010806133509808/06/01 13:35:31  5-MIN KSTC 061935Z AUTO 01007KT 10SM CLR 36/19 A3007 880 37 3400 010/07 RMK AO2
14926KSTC STC20010806134009808/06/01 13:40:31  5-MIN KSTC 061940Z AUTO 36005KT 10SM CLR 35/18 A3007 890 36 3400 360/05 RMK AO2
14926KSTC STC20010806134509808/06/01 13:45:31  5-MIN KSTC 061945Z AUTO 34006KT 10SM CLR 36/19 A3007 890 37 3400 330/06 RMK AO2
14926KSTC STC20010806135011508/06/01 13:50:31  5-MIN KSTC 061950Z AUTO 01005KT 10SM CLR 36/19 A3007 880 37 3400 360/05 RMK AO2 SLP182 T03560189
14926KSTC STC20010806135509808/06/01 13:55:31  5-MIN KSTC 061955Z AUTO 04005KT 10SM CLR 36/19 A3008 880 37 3400 030/05 RMK AO2
14926KSTC STC20010806140009808/06/01 14:00:31  5-MIN KSTC 062000Z AUTO 34007KT 10SM CLR 36/18 A3007 880 35 3400 340/07 RMK AO2
14926KSTC STC20010806140509808/06/01 14:05:31  5-MIN KSTC 062005Z AUTO 02007KT 10SM CLR 36/18 A3007 880 34 3500 020/07 RMK AO2
14926KSTC STC20010806141009808/06/01 14:10:31  5-MIN KSTC 062010Z AUTO 04004KT 10SM CLR 36/18 A3007 890 34 3400 040/04 RMK AO2
14926KSTC STC20010806141509808/06/01 14:15:31  5-MIN KSTC 062015Z AUTO 33009KT 10SM CLR 36/18 A3007 880 33 3500 330/09 RMK AO2
14926KSTC STC20010806142009808/06/01 14:20:31  5-MIN KSTC 062020Z AUTO VRB06KT 10SM CLR 36/17 A3007 890 32 3500 VRB/06 RMK AO2
14926KSTC STC20010806142509808/06/01 14:25:31  5-MIN KSTC 062025Z AUTO 33004KT 10SM CLR 36/16 A3007 890 31 3400 330/04 RMK AO2
14926KSTC STC20010806143011408/06/01 14:30:31  5-MIN KSTC 062030Z AUTO 01007KT 330V060 10SM CLR 36/17 A3007 890 31 3500 010/07 330V060 RMK AO2
14926KSTC STC20010806143509808/06/01 14:35:31  5-MIN KSTC 062035Z AUTO 35008KT 10SM CLR 37/17 A3007 890 30 3600 350/08 RMK AO2
14926KSTC STC20010806144009808/06/01 14:40:31  5-MIN KSTC 062040Z AUTO VRB04KT 10SM CLR 36/17 A3007 890 31 3500 VRB/04 RMK AO2
14926KSTC STC20010806144509808/06/01 14:45:31  5-MIN KSTC 062045Z AUTO 33007KT 10SM CLR 36/17 A3007 890 32 3500 330/07 RMK AO2
14926KSTC STC20010806145012108/06/01 14:50:31  5-MIN KSTC 062050Z AUTO 32008KT 10SM CLR 36/17 A3007 890 33 3400 320/08 RMK AO2 SLP181 T03560172 50002
14926KSTC STC20010806145509808/06/01 14:55:31  5-MIN KSTC 062055Z AUTO 34008KT 10SM CLR 36/17 A3007 890 33 3400 330/08 RMK AO2
14926KSTC STC20010806150009808/06/01 15:00:31  5-MIN KSTC 062100Z AUTO 32008KT 10SM CLR 36/17 A3007 890 32 3500 320/08 RMK AO2
14926KSTC STC20010806150509808/06/01 15:05:31  5-MIN KSTC 062105Z AUTO 35006KT 10SM CLR 37/17 A3007 890 30 3600 350/06 RMK AO2
14926KSTC STC20010806151009808/06/01 15:10:31  5-MIN KSTC 062110Z AUTO 33007KT 10SM CLR 37/17 A3007 890 31 3600 330/07 RMK AO2
14926KSTC STC20010806151511408/06/01 15:15:31  5-MIN KSTC 062115Z AUTO 35007KT 330V030 10SM CLR 36/17 A3007 890 31 3500 340/07 330V030 RMK AO2
14926KSTC STC20010806152009808/06/01 15:20:31  5-MIN KSTC 062120Z AUTO 32010KT 10SM CLR 36/16 A3007 890 29 3500 320/10 RMK AO2
14926KSTC STC20010806152509808/06/01 15:25:31  5-MIN KSTC 062125Z AUTO 32010KT 10SM CLR 36/15 A3007 890 28 3500 320/10 RMK AO2
14926KSTC STC20010806153009808/06/01 15:30:31  5-MIN KSTC 062130Z AUTO 33008KT 10SM CLR 36/14 A3007 890 27 3500 330/08 RMK AO2
14926KSTC STC20010806153509808/06/01 15:35:31  5-MIN KSTC 062135Z AUTO 35008KT 10SM CLR 36/16 A3007 890 29 3500 350/08 RMK AO2
14926KSTC STC20010806154009808/06/01 15:40:31  5-MIN KSTC 062140Z AUTO 32006KT 10SM CLR 36/16 A3007 890 30 3500 320/06 RMK AO2
14926KSTC STC20010806154509808/06/01 15:45:31  5-MIN KSTC 062145Z AUTO 34007KT 10SM CLR 36/16 A3007 890 30 3500 340/07 RMK AO2
14926KSTC STC20010806155011508/06/01 15:50:31  5-MIN KSTC 062150Z AUTO 36007KT 10SM CLR 36/18 A3007 890 33 3500 360/07 RMK AO2 SLP181 T03610178
14926KSTC STC20010806155509808/06/01 15:55:31  5-MIN KSTC 062155Z AUTO 31006KT 10SM CLR 36/17 A3007 890 32 3500 310/06 RMK AO2
14926KSTC STC20010806160009808/06/01 16:00:31  5-MIN KSTC 062200Z AUTO 35007KT 10SM CLR 36/17 A3007 890 31 3500 350/07 RMK AO2
14926KSTC STC20010806160509808/06/01 16:05:31  5-MIN KSTC 062205Z AUTO 35009KT 10SM CLR 36/18 A3007 890 34 3500 340/09 RMK AO2
14926KSTC STC20010806161009808/06/01 16:10:31  5-MIN KSTC 062210Z AUTO 01008KT 10SM CLR 36/18 A3007 890 34 3500 010/08 RMK AO2
14926KSTC STC20010806161509808/06/01 16:15:31  5-MIN KSTC 062215Z AUTO 36007KT 10SM CLR 35/18 A3007 890 35 3400 360/07 RMK AO2
14926KSTC STC20010806162009808/06/01 16:20:31  5-MIN KSTC 062220Z AUTO 36006KT 10SM CLR 36/18 A3007 890 34 3500 350/06 RMK AO2
14926KSTC STC20010806162509808/06/01 16:25:31  5-MIN KSTC 062225Z AUTO 35008KT 10SM CLR 35/18 A3007 890 35 3400 350/08 RMK AO2
14926KSTC STC20010806163009808/06/01 16:30:31  5-MIN KSTC 062230Z AUTO 35005KT 10SM CLR 36/17 A3007 890 32 3500 350/05 RMK AO2
14926KSTC STC20010806163509808/06/01 16:35:31  5-MIN KSTC 062235Z AUTO 32008KT 10SM CLR 36/17 A3007 890 33 3500 320/08 RMK AO2
14926KSTC STC20010801000015108/01/01 00:00:32  5-MIN KSTC 010600Z AUTO 20018G26KT 8SM -TSRA FEW037 SCT080 BKN100 28/24 A2983 1110 82 2900 190/18G26 RMK AO2 PK WND 19026/0556 P0001
14926KSTC STC20010801000515208/01/01 00:05:31  5-MIN KSTC 010605Z AUTO 20019G26KT 10SM -TSRA FEW033 SCT075 BKN100 28/24 A2983 1110 82 2900 200/19G26 RMK AO2 PK WND 19026/0556 P0001
14926KSTC STC20010801001015008/01/01 00:10:31  5-MIN KSTC 010610Z AUTO 20017G21KT 7SM TSRA FEW032 BKN080 BKN100 27/24 A2983 1110 84 2800 200/17G21 RMK AO2 PK WND 19026/0556 P0003
14926KSTC STC20010801001515108/01/01 00:15:31  5-MIN KSTC 010615Z AUTO 20019G25KT 7SM -TSRA FEW032 BKN080 OVC100 27/24 A2983 1110 84 2800 200/19G25 RMK AO2 PK WND 19026/0556 P0004
14926KSTC STC20010801002015508/01/01 00:20:31  5-MIN KSTC 010620Z AUTO 21018G25KT 10SM TS FEW037 SCT080 BKN100 27/24 A2983 1110 84 2800 210/18G25 RMK AO2 PK WND 19026/0556 RAE20 P0004
14926KSTC STC20010801002515508/01/01 00:25:31  5-MIN KSTC 010625Z AUTO 21015G24KT 10SM TS SCT075 SCT090 BKN110 27/24 A2983 1110 87 2700 200/15G24 RMK AO2 PK WND 19026/0556 RAE20 P0004
14926KSTC STC20010801003014808/01/01 00:30:31  5-MIN KSTC 010630Z AUTO 21018G25KT 10SM TS BKN075 BKN100 27/24 A2983 1110 84 2700 200/18G25 RMK AO2 PK WND 19026/0556 RAE20 P0004
14926KSTC STC20010801003515508/01/01 00:35:31  5-MIN KSTC 010635Z AUTO 20016G25KT 10SM TS BKN075 BKN090 BKN110 27/24 A2984 1100 84 2700 200/16G25 RMK AO2 PK WND 19026/0556 RAE20 P0004
14926KSTC STC20010801004014208/01/01 00:40:31  5-MIN KSTC 010640Z AUTO 21015KT 10SM TS BKN070 BKN110 27/24 A2984 1100 87 2700 200/15 RMK AO2 PK WND 19026/0556 RAE20 P0004
14926KSTC STC20010801004514208/01/01 00:45:31  5-MIN KSTC 010645Z AUTO 20016KT 10SM TS BKN070 BKN100 27/24 A2984 1100 87 2700 200/16 RMK AO2 PK WND 19026/0556 RAE20 P0004
14926KSTC STC20010801005016608/01/01 00:50:31  5-MIN KSTC 010650Z AUTO 20014KT 10SM TS FEW055 BKN070 BKN100 27/24 A2984 1100 87 2700 200/14 RMK AO2 PK WND 19026/0556 RAE20 SLP105 P0004 T02670244
14926KSTC STC20010801005511908/01/01 00:55:31  5-MIN KSTC 010655Z AUTO 20013KT 10SM TS SCT055 BKN070 OVC100 27/24 A2985 1100 87 2700 190/13 RMK AO2
14926KSTC STC20010801010011908/01/01 01:00:31  5-MIN KSTC 010700Z AUTO 20012KT 10SM TS BKN055 BKN075 OVC100 27/24 A2985 1090 87 2700 190/12 RMK AO2
14926KSTC STC20010801010511208/01/01 01:05:31  5-MIN KSTC 010705Z AUTO 20013KT 10SM TS BKN055 OVC075 27/24 A2985 1090 87 2700 200/13 RMK AO2
14926KSTC STC20010801011010508/01/01 01:10:31  5-MIN KSTC 010710Z AUTO 20014KT 10SM TS BKN055 27/24 A2985 1100 87 2700 200/14 RMK AO2
14926KSTC STC20010801011510508/01/01 01:15:31  5-MIN KSTC 010715Z AUTO 20013KT 10SM TS OVC055 27/24 A2984 1100 87 2700 200/13 RMK AO2
14926KSTC STC20010801012010508/01/01 01:20:31  5-MIN KSTC 010720Z AUTO 20013KT 10SM TS OVC050 27/24 A2984 1100 87 2700 200/13 RMK AO2
14926KSTC STC20010801012510508/01/01 01:25:31  5-MIN KSTC 010725Z AUTO 20015KT 10SM TS OVC050 27/24 A2985 1100 87 2700 200/15 RMK AO2
14926KSTC STC20010801013010808/01/01 01:30:31  5-MIN KSTC 010730Z AUTO 20013KT 10SM BKN050 27/24 A2984 1100 87 2700 200/13 RMK AO2 TSE27
14926KSTC STC20010801013512108/01/01 01:35:31  5-MIN KSTC 010735Z AUTO 20014KT 10SM TS BKN044 BKN050 27/24 A2985 1090 87 2700 200/14 RMK AO2 TSE27B34
14926KSTC STC20010801014012108/01/01 01:40:31  5-MIN KSTC 010740Z AUTO 20012KT 10SM TS BKN046 BKN055 27/24 A2985 1090 87 2700 200/12 RMK AO2 TSE27B34
14926KSTC STC20010801014512108/01/01 01:45:31  5-MIN KSTC 010745Z AUTO 20012KT 10SM TS BKN046 BKN055 27/24 A2986 1090 87 2700 200/12 RMK AO2 TSE27B34
14926KSTC STC20010801015013108/01/01 01:50:31  5-MIN KSTC 010750Z AUTO 21013KT 10SM TS BKN046 27/24 A2986 1080 87 2700 200/13 RMK AO2 TSE27B34 SLP110 T02670244
14926KSTC STC20010801015510508/01/01 01:55:31  5-MIN KSTC 010755Z AUTO 21013KT 10SM TS BKN046 27/24 A2986 1080 87 2700 200/13 RMK AO2
14926KSTC STC20010801020011208/01/01 02:00:31  5-MIN KSTC 010800Z AUTO 21013KT 10SM TS SCT044 SCT055 27/24 A2986 1090 87 2700 210/13 RMK AO2
14926KSTC STC20010801020511108/01/01 02:05:31  5-MIN KSTC 010805Z AUTO 21015G19KT 10SM TS FEW046 27/24 A2985 1090 84 2800 210/15G19 RMK AO2
14926KSTC STC20010801021012108/01/01 02:10:31  5-MIN KSTC 010810Z AUTO 21015G20KT 10SM FEW048 SCT100 27/24 A2985 1090 84 2800 200/15G20 RMK AO2 TSE08
14926KSTC STC20010801021512108/01/01 02:15:31  5-MIN KSTC 010815Z AUTO 21013G20KT 10SM FEW050 SCT100 27/24 A2986 1080 84 2800 200/13G20 RMK AO2 TSE08
14926KSTC STC20010801022011408/01/01 02:20:31  5-MIN KSTC 010820Z AUTO 20016G21KT 10SM BKN100 27/24 A2986 1080 84 2800 200/16G21 RMK AO2 TSE08
14926KSTC STC20010801022511408/01/01 02:25:31  5-MIN KSTC 010825Z AUTO 21012G21KT 10SM BKN100 27/24 A2987 1080 87 2700 210/12G21 RMK AO2 TSE08
14926KSTC STC20010801023010808/01/01 02:30:31  5-MIN KSTC 010830Z AUTO 21011KT 10SM BKN110 27/24 A2987 1070 87 2700 210/11 RMK AO2 TSE08
14926KSTC STC20010801023510808/01/01 02:35:31  5-MIN KSTC 010835Z AUTO 20011KT 10SM BKN110 27/24 A2987 1070 84 2700 200/11 RMK AO2 TSE08
14926KSTC STC20010801024010808/01/01 02:40:31  5-MIN KSTC 010840Z AUTO 21011KT 10SM BKN110 27/24 A2987 1070 84 2700 200/11 RMK AO2 TSE08
14926KSTC STC20010801024510808/01/01 02:45:31  5-MIN KSTC 010845Z AUTO 21011KT 10SM BKN110 27/24 A2987 1070 84 2700 210/11 RMK AO2 TSE08
14926KSTC STC20010801025013708/01/01 02:50:31  5-MIN KSTC 010850Z AUTO 21009KT 10SM SCT120 27/24 A2987 1070 84 2700 210/09 RMK AO2 TSE08 SLP113 60004 T02670239 58009
14926KSTC STC20010801025510208/01/01 02:55:31  5-MIN KSTC 010855Z AUTO 21010KT 10SM FEW120 27/24 A2987 1070 84 2700 210/10 RMK AO2
14926KSTC STC20010801030010208/01/01 03:00:31  5-MIN KSTC 010900Z AUTO 22011KT 10SM FEW120 27/24 A2987 1070 84 2700 210/11 RMK AO2
14926KSTC STC20010801030510208/01/01 03:05:31  5-MIN KSTC 010905Z AUTO 22009KT 10SM FEW040 27/24 A2987 1070 84 2700 210/09 RMK AO2
14926KSTC STC20010801031010208/01/01 03:10:31  5-MIN KSTC 010910Z AUTO 21008KT 10SM FEW040 27/24 A2988 1070 84 2700 210/08 RMK AO2
14926KSTC STC20010801031510208/01/01 03:15:31  5-MIN KSTC 010915Z AUTO 21008KT 10SM FEW040 27/24 A2988 1070 87 2700 210/08 RMK AO2
14926KSTC STC20010801032010208/01/01 03:20:31  5-MIN KSTC 010920Z AUTO 21009KT 10SM FEW040 27/24 A2988 1060 87 2700 210/09 RMK AO2
14926KSTC STC20010801032510208/01/01 03:25:31  5-MIN KSTC 010925Z AUTO 21010KT 10SM FEW040 27/24 A2988 1060 87 2700 210/10 RMK AO2
14926KSTC STC20010801033010208/01/01 03:30:31  5-MIN KSTC 010930Z AUTO 21008KT 10SM FEW040 26/24 A2988 1060 90 2600 200/08 RMK AO2
14926KSTC STC20010801033510208/01/01 03:35:31  5-MIN KSTC 010935Z AUTO 20009KT 10SM FEW110 26/24 A2988 1060 90 2600 200/09 RMK AO2
14926KSTC STC20010801034010208/01/01 03:40:31  5-MIN KSTC 010940Z AUTO 21008KT 10SM SCT110 26/24 A2989 1060 90 2600 200/08 RMK AO2
14926KSTC STC20010801034510208/01/01 03:45:31  5-MIN KSTC 010945Z AUTO 22008KT 10SM SCT120 26/24 A2989 1060 90 2600 220/08 RMK AO2
14926KSTC STC20010801035012608/01/01 03:50:31  5-MIN KSTC 010950Z AUTO 22008KT 10SM FEW036 BKN110 27/24 A2989 1050 87 2700 210/08 RMK AO2 SLP120 T02670244
14926KSTC STC20010801035510908/01/01 03:55:31  5-MIN KSTC 010955Z AUTO 22008KT 10SM BKN036 BKN110 27/24 A2989 1050 87 2700 220/08 RMK AO2
14926KSTC STC20010801040010908/01/01 04:00:31  5-MIN KSTC 011000Z AUTO 22008KT 10SM BKN036 BKN110 27/24 A2989 1050 87 2700 210/08 RMK AO2
14926KSTC STC20010801040510908/01/01 04:05:31  5-MIN KSTC 011005Z AUTO 22009KT 10SM BKN034 OVC120 27/24 A2989 1050 87 2700 210/09 RMK AO2
14926KSTC STC20010801041010208/01/01 04:10:31  5-MIN KSTC 011010Z AUTO 21009KT 10SM BKN034 27/24 A2990 1050 87 2700 210/09 RMK AO2
14926KSTC STC20010801041510208/01/01 04:15:31  5-MIN KSTC 011015Z AUTO 21008KT 10SM OVC036 27/24 A2990 1050 87 2700 210/08 RMK AO2
14926KSTC STC20010801042010208/01/01 04:20:31  5-MIN KSTC 011020Z AUTO 21009KT 10SM BKN038 27/24 A2990 1050 87 2700 210/09 RMK AO2
14926KSTC STC20010801042510908/01/01 04:25:31  5-MIN KSTC 011025Z AUTO 20011KT 10SM BKN036 BKN065 27/24 A2990 1040 87 2700 200/11 RMK AO2
14926KSTC STC20010801043010908/01/01 04:30:31  5-MIN KSTC 011030Z AUTO 20011KT 10SM SCT036 BKN065 27/24 A2990 1040 87 2700 200/11 RMK AO2
14926KSTC STC20010801043510908/01/01 04:35:31  5-MIN KSTC 011035Z AUTO 20010KT 10SM SCT040 BKN065 27/24 A2991 1040 87 2700 200/10 RMK AO2
14926KSTC STC20010801044010908/01/01 04:40:31  5-MIN KSTC 011040Z AUTO 20009KT 10SM FEW040 BKN065 27/24 A2991 1040 87 2700 200/09 RMK AO2
14926KSTC STC20010801044510908/01/01 04:45:31  5-MIN KSTC 011045Z AUTO 20008KT 10SM FEW044 BKN065 26/24 A2991 1030 90 2600 200/08 RMK AO2
14926KSTC STC20010801045012608/01/01 04:50:31  5-MIN KSTC 011050Z AUTO 19008KT 10SM FEW046 OVC065 26/24 A2991 1030 90 2600 180/08 RMK AO2 SLP129 T02610244
14926KSTC STC20010801045510908/01/01 04:55:31  5-MIN KSTC 011055Z AUTO 20008KT 10SM FEW046 OVC065 26/24 A2991 1030 90 2600 200/08 RMK AO2
14926KSTC STC20010801050010908/01/01 05:00:31  5-MIN KSTC 011100Z AUTO 20009KT 10SM FEW046 OVC065 26/24 A2992 1030 90 2600 190/09 RMK AO2
14926KSTC STC20010801050513208/01/01 05:05:31  5-MIN KSTC 011105Z AUTO 21006KT 10SM -RA FEW046 BKN065 OVC080 26/24 A2992 1030 90 2600 200/06 RMK AO2 RAB03 P0000
14926KSTC STC20010801051013208/01/01 05:10:31  5-MIN KSTC 011110Z AUTO 22005KT 10SM -RA FEW048 BKN065 OVC080 26/24 A2992 1030 93 2500 220/05 RMK AO2 RAB03 P0000
14926KSTC STC20010801051513208/01/01 05:15:31  5-MIN KSTC 011115Z AUTO 21005KT 10SM -RA FEW048 SCT065 BKN080 26/24 A2992 1030 93 2500 210/05 RMK AO2 RAB03 P0000
14926KSTC STC20010801052013208/01/01 05:20:31  5-MIN KSTC 011120Z AUTO 21007KT 10SM -RA FEW048 SCT065 BKN080 26/24 A2992 1020 93 2500 200/07 RMK AO2 RAB03 P0000
14926KSTC STC20010801052512508/01/01 05:25:31  5-MIN KSTC 011125Z AUTO 20007KT 10SM -RA SCT060 BKN080 26/24 A2992 1020 93 2500 200/07 RMK AO2 RAB03 P0000
14926KSTC STC20010801053013208/01/01 05:30:31  5-MIN KSTC 011130Z AUTO 20007KT 10SM -RA SCT050 BKN080 BKN090 26/25 A2992 1020 97 2500 190/07 RMK AO2 RAB03 P0000
14926KSTC STC20010801053513108/01/01 05:35:31  5-MIN KSTC 011135Z AUTO 20007KT 10SM FEW050 SCT080 BKN095 26/25 A2993 1020 97 2500 200/07 RMK AO2 RAB03E34 P0000
14926KSTC STC20010801054012408/01/01 05:40:31  5-MIN KSTC 011140Z AUTO 19006KT 10SM FEW050 SCT080 26/25 A2993 1020 97 2500 190/06 RMK AO2 RAB03E34 P0000
14926KSTC STC20010801054512408/01/01 05:45:31  5-MIN KSTC 011145Z AUTO 19006KT 10SM SCT050 SCT085 26/25 A2993 1020 97 2500 190/06 RMK AO2 RAB03E34 P0000
14926KSTC STC20010801055017108/01/01 05:50:31  5-MIN KSTC 011150Z AUTO 20005KT 10SM FEW021 SCT055 26/24 A2993 1020 93 2500 200/05 RMK AO2 RAB03E34 SLP135 P0000 60004 70006 T02560244 10278 20256 51014
14926KSTC STC20010801055511508/01/01 05:55:31  5-MIN KSTC 011155Z AUTO 21005KT 9SM FEW021 SCT029 SCT055 26/24 A2993 1010 93 2500 210/05 RMK AO2
14926KSTC STC20010801060011508/01/01 06:00:31  5-MIN KSTC 011200Z AUTO 21006KT 9SM FEW021 SCT028 SCT055 26/25 A2993 1010 97 2500 210/06 RMK AO2
14926KSTC STC20010801060511508/01/01 06:05:31  5-MIN KSTC 011205Z AUTO 23005KT 8SM FEW021 SCT028 SCT055 26/25 A2993 1010 97 2500 230/05 RMK AO2
14926KSTC STC20010801061011508/01/01 06:10:31  5-MIN KSTC 011210Z AUTO 21006KT 9SM FEW021 SCT028 SCT055 26/25 A2993 1010 97 2500 210/06 RMK AO2
14926KSTC STC20010801061510808/01/01 06:15:31  5-MIN KSTC 011215Z AUTO 20006KT 9SM FEW021 SCT028 26/25 A2993 1020 97 2500 200/06 RMK AO2
14926KSTC STC20010801062011008/01/01 06:20:31  5-MIN KSTC 011220Z AUTO 20007KT 9SM TS FEW025 26/25 A2993 1020 97 2500 200/07 RMK AO2 TSB18
14926KSTC STC20010801062511008/01/01 06:25:31  5-MIN KSTC 011225Z AUTO 20008KT 9SM TS FEW027 26/25 A2994 1010 97 2500 200/08 RMK AO2 TSB18
14926KSTC STC20010801063012408/01/01 06:30:31  5-MIN KSTC 011230Z AUTO 21008KT 8SM TS FEW029 SCT035 SCT044 26/25 A2995 1000 97 2500 210/08 RMK AO2 TSB18
14926KSTC STC20010801063511708/01/01 06:35:31  5-MIN KSTC 011235Z AUTO 22008KT 8SM TS SCT029 SCT035 26/25 A2994 1010 97 2500 210/08 RMK AO2 TSB18
14926KSTC STC20010801064011708/01/01 06:40:31  5-MIN KSTC 011240Z AUTO 24006KT 9SM TS SCT031 SCT043 26/25 A2993 1010 97 2500 230/06 RMK AO2 TSB18
14926KSTC STC20010801064511708/01/01 06:45:31  5-MIN KSTC 011245Z AUTO 24006KT 9SM TS FEW031 SCT043 26/25 A2993 1020 97 2500 240/06 RMK AO2 TSB18
14926KSTC STC20010801065013408/01/01 06:50:31  5-MIN KSTC 011250Z AUTO 23007KT 9SM TS FEW031 SCT043 26/25 A2993 1010 97 2500 230/07 RMK AO2 TSB18 SLP135 T02560250
14926KSTC STC20010801065510408/01/01 06:55:31  5-MIN KSTC 011255Z AUTO 23006KT 9SM TS FEW031 26/25 A2994 1010 97 2500 230/06 RMK AO2
14926KSTC STC20010801070010408/01/01 07:00:31  5-MIN KSTC 011300Z AUTO 22006KT 9SM TS FEW031 26/25 A2994 1010 97 2500 210/06 RMK AO2
14926KSTC STC20010801070510408/01/01 07:05:31  5-MIN KSTC 011305Z AUTO 21008KT 8SM CLR 26/25 A2994 1010 97 2500 210/08 RMK AO2 TSE02
14926KSTC STC20010801071010408/01/01 07:10:31  5-MIN KSTC 011310Z AUTO 22007KT 8SM CLR 26/25 A2994 1010 97 2500 220/07 RMK AO2 TSE02
14926KSTC STC20010806161509808/06/01 16:15:31  5-MIN KSTC 062215Z AUTO 36007KT 10SM CLR 35/18 A3007 890 35 3400 360/07 RMK AO2
14926KSTC STC20010806162009808/06/01 16:20:31  5-MIN KSTC 062220Z AUTO 36006KT 10SM CLR 36/18 A3007 890 34 3500 350/06 RMK AO2
14926KSTC STC20010806162509808/06/01 16:25:31  5-MIN KSTC 062225Z AUTO 35008KT 10SM CLR 35/18 A3007 890 35 3400 350/08 RMK AO2
14926KSTC STC20010806163009808/06/01 16:30:31  5-MIN KSTC 062230Z AUTO 35005KT 10SM CLR 36/17 A3007 890 32 3500 350/05 RMK AO2
14926KSTC STC20010806163509808/06/01 16:35:31  5-MIN KSTC 062235Z AUTO 32008KT 10SM CLR 36/17 A3007 890 33 3500 320/08 RMK AO2
14926KSTC STC20010806164009808/06/01 16:40:31  5-MIN KSTC 062240Z AUTO 01007KT 10SM CLR 35/18 A3007 890 36 3400 360/07 RMK AO2
14926KSTC STC20010806164509808/06/01 16:45:31  5-MIN KSTC 062245Z AUTO 01007KT 10SM CLR 35/18 A3007 890 35 3400 360/07 RMK AO2
14926KSTC STC20010806165011508/06/01 16:50:31  5-MIN KSTC 062250Z AUTO 36008KT 10SM CLR 35/18 A3007 890 36 3400 360/08 RMK AO2 SLP182 T03500183
14926KSTC STC20010806165509808/06/01 16:55:31  5-MIN KSTC 062255Z AUTO 02005KT 10SM CLR 34/19 A3007 890 39 3300 010/05 RMK AO2
14926KSTC STC20010806170009808/06/01 17:00:31  5-MIN KSTC 062300Z AUTO 01005KT 10SM CLR 35/19 A3007 890 38 3400 010/05 RMK AO2
14926KSTC STC20010806170509808/06/01 17:05:31  5-MIN KSTC 062305Z AUTO 36006KT 10SM CLR 34/18 A3007 890 38 3300 350/06 RMK AO2
14926KSTC STC20010806171009808/06/01 17:10:31  5-MIN KSTC 062310Z AUTO 35005KT 10SM CLR 35/19 A3007 890 38 3400 340/05 RMK AO2
14926KSTC STC20010806171509808/06/01 17:15:31  5-MIN KSTC 062315Z AUTO 33006KT 10SM CLR 35/18 A3007 890 35 3400 330/06 RMK AO2
14926KSTC STC20010806172009808/06/01 17:20:31  5-MIN KSTC 062320Z AUTO 34006KT 10SM CLR 34/17 A3007 880 35 3300 330/06 RMK AO2
14926KSTC STC20010806172509808/06/01 17:25:31  5-MIN KSTC 062325Z AUTO 34006KT 10SM CLR 34/18 A3007 880 36 3300 330/06 RMK AO2
14926KSTC STC20010806173009808/06/01 17:30:31  5-MIN KSTC 062330Z AUTO 34005KT 10SM CLR 34/18 A3008 880 38 3300 340/05 RMK AO2
14926KSTC STC20010806173509808/06/01 17:35:31  5-MIN KSTC 062335Z AUTO 34007KT 10SM CLR 34/18 A3008 880 39 3300 340/07 RMK AO2
14926KSTC STC20010806174009808/06/01 17:40:31  5-MIN KSTC 062340Z AUTO 33005KT 10SM CLR 34/18 A3008 880 37 3300 330/05 RMK AO2
14926KSTC STC20010806174509808/06/01 17:45:31  5-MIN KSTC 062345Z AUTO 34005KT 10SM CLR 34/18 A3008 880 39 3300 340/05 RMK AO2
14926KSTC STC20010806175013308/06/01 17:50:31  5-MIN KSTC 062350Z AUTO 34005KT 10SM CLR 34/18 A3007 880 39 3300 330/05 RMK AO2 SLP183 T03390183 10367 20339 57003
14926KSTC STC20010806175509808/06/01 17:55:31  5-MIN KSTC 062355Z AUTO 33005KT 10SM CLR 33/18 A3007 880 40 3200 330/05 RMK AO2
14926KSTC STC20010806180009808/06/01 18:00:31  5-MIN KSTC 070000Z AUTO 34005KT 10SM CLR 33/18 A3008 880 40 3200 330/05 RMK AO2
14926KSTC STC20010806180509808/06/01 18:05:31  5-MIN KSTC 070005Z AUTO 34004KT 10SM CLR 33/19 A3007 880 42 3200 340/04 RMK AO2
14926KSTC STC20010806181009808/06/01 18:10:31  5-MIN KSTC 070010Z AUTO 34005KT 10SM CLR 33/19 A3007 880 43 3100 330/05 RMK AO2
14926KSTC STC20010806181509808/06/01 18:15:31  5-MIN KSTC 070015Z AUTO 33005KT 10SM CLR 33/19 A3008 880 43 3100 330/05 RMK AO2
14926KSTC STC20010806182009808/06/01 18:20:31  5-MIN KSTC 070020Z AUTO 33004KT 10SM CLR 33/19 A3008 880 43 3100 320/04 RMK AO2
14926KSTC STC20010806182509808/06/01 18:25:31  5-MIN KSTC 070025Z AUTO 32005KT 10SM CLR 32/18 A3008 880 43 3100 320/05 RMK AO2
14926KSTC STC20010806183009808/06/01 18:30:31  5-MIN KSTC 070030Z AUTO 33005KT 10SM CLR 32/18 A3008 880 43 3100 330/05 RMK AO2
14926KSTC STC20010806183509808/06/01 18:35:31  5-MIN KSTC 070035Z AUTO 33005KT 10SM CLR 32/19 A3008 880 44 3100 320/05 RMK AO2
14926KSTC STC20010806184009808/06/01 18:40:31  5-MIN KSTC 070040Z AUTO 33004KT 10SM CLR 32/19 A3008 880 46 3000 330/04 RMK AO2
14926KSTC STC20010806184509808/06/01 18:45:31  5-MIN KSTC 070045Z AUTO 33004KT 10SM CLR 32/19 A3008 880 46 3000 330/04 RMK AO2
14926KSTC STC20010806185011508/06/01 18:50:31  5-MIN KSTC 070050Z AUTO 34004KT 10SM CLR 31/19 A3008 880 49 3000 330/04 RMK AO2 SLP184 T03110194
14926KSTC STC20010806185509808/06/01 18:55:31  5-MIN KSTC 070055Z AUTO 34004KT 10SM CLR 31/19 A3007 880 49 3000 340/04 RMK AO2
14926KSTC STC20010806190009808/06/01 19:00:31  5-MIN KSTC 070100Z AUTO 34004KT 10SM CLR 31/20 A3007 880 52 2900 330/04 RMK AO2
14926KSTC STC20010806190509808/06/01 19:05:31  5-MIN KSTC 070105Z AUTO 33004KT 10SM CLR 31/19 A3007 880 51 2900 330/04 RMK AO2
14926KSTC STC20010806191009808/06/01 19:10:31  5-MIN KSTC 070110Z AUTO 33004KT 10SM CLR 30/19 A3007 880 52 2800 320/04 RMK AO2
14926KSTC STC20010806191509808/06/01 19:15:31  5-MIN KSTC 070115Z AUTO 33004KT 10SM CLR 29/21 A3007 880 60 2700 330/04 RMK AO2
14926KSTC STC20010806192009808/06/01 19:20:31  5-MIN KSTC 070120Z AUTO 33004KT 10SM CLR 29/21 A3007 880 60 2700 330/04 RMK AO2
14926KSTC STC20010806192509808/06/01 19:25:31  5-MIN KSTC 070125Z AUTO 34004KT 10SM CLR 28/21 A3008 880 62 2700 330/04 RMK AO2
14926KSTC STC20010806193009808/06/01 19:30:31  5-MIN KSTC 070130Z AUTO 35003KT 10SM CLR 28/21 A3008 880 64 2600 340/03 RMK AO2
14926KSTC STC20010806193509808/06/01 19:35:31  5-MIN KSTC 070135Z AUTO 35003KT 10SM CLR 27/21 A3008 880 66 2500 350/03 RMK AO2
14926KSTC STC20010806194009808/06/01 19:40:31  5-MIN KSTC 070140Z AUTO 34003KT 10SM CLR 27/21 A3008 880 66 2500 340/03 RMK AO2
14926KSTC STC20010806194509808/06/01 19:45:31  5-MIN KSTC 070145Z AUTO 33003KT 10SM CLR 27/21 A3008 880 71 2500 320/03 RMK AO2
14926KSTC STC20010806195011508/06/01 19:50:31  5-MIN KSTC 070150Z AUTO 31003KT 10SM CLR 27/21 A3008 880 71 2500 310/03 RMK AO2 SLP187 T02670211
14926KSTC STC20010806195509808/06/01 19:55:31  5-MIN KSTC 070155Z AUTO 32004KT 10SM CLR 27/21 A3008 880 69 2500 310/04 RMK AO2
14926KSTC STC20010806200009808/06/01 20:00:31  5-MIN KSTC 070200Z AUTO 32003KT 10SM CLR 26/21 A3008 870 71 2400 320/03 RMK AO2
14926KSTC STC20010806200509808/06/01 20:05:31  5-MIN KSTC 070205Z AUTO 32003KT 10SM CLR 26/21 A3009 870 73 2300 320/03 RMK AO2
14926KSTC STC20010806201009808/06/01 20:10:31  5-MIN KSTC 070210Z AUTO 32003KT 10SM CLR 26/21 A3009 870 73 2300 320/03 RMK AO2
14926KSTC STC20010806201509808/06/01 20:15:31  5-MIN KSTC 070215Z AUTO 00000KT 10SM CLR 25/21 A3009 870 76 2300 000/00 RMK AO2
14926KSTC STC20010806202009808/06/01 20:20:31  5-MIN KSTC 070220Z AUTO 34003KT 10SM CLR 25/21 A3009 870 76 2300 330/03 RMK AO2
14926KSTC STC20010806202509808/06/01 20:25:31  5-MIN KSTC 070225Z AUTO 00000KT 10SM CLR 25/21 A3009 870 76 2300 000/00 RMK AO2
14926KSTC STC20010806203009808/06/01 20:30:31  5-MIN KSTC 070230Z AUTO 00000KT 10SM CLR 25/21 A3009 870 76 2300 000/00 RMK AO2
14926KSTC STC20010806203509808/06/01 20:35:31  5-MIN KSTC 070235Z AUTO 00000KT 10SM CLR 24/21 A3009 870 78 2200 000/00 RMK AO2
14926KSTC STC20010806204009808/06/01 20:40:31  5-MIN KSTC 070240Z AUTO 33003KT 10SM CLR 24/21 A3010 860 78 2200 320/03 RMK AO2
14926KSTC STC20010806204509808/06/01 20:45:31  5-MIN KSTC 070245Z AUTO 32003KT 10SM CLR 24/21 A3010 860 81 2100 320/03 RMK AO2
14926KSTC STC20010806205012108/06/01 20:50:31  5-MIN KSTC 070250Z AUTO 00000KT 10SM CLR 24/21 A3010 860 81 2100 000/00 RMK AO2 SLP192 T02390206 53001
14926KSTC STC20010806205509808/06/01 20:55:31  5-MIN KSTC 070255Z AUTO 34003KT 10SM CLR 23/21 A3010 860 84 2100 340/03 RMK AO2
14926KSTC STC20010806210009808/06/01 21:00:31  5-MIN KSTC 070300Z AUTO 34003KT 10SM CLR 23/21 A3010 860 84 2100 340/03 RMK AO2
14926KSTC STC20010806210509808/06/01 21:05:31  5-MIN KSTC 070305Z AUTO 35003KT 10SM CLR 23/21 A3010 860 87 2000 340/03 RMK AO2
14926KSTC STC20010806211009808/06/01 21:10:31  5-MIN KSTC 070310Z AUTO 36003KT 10SM CLR 23/21 A3010 860 84 2100 350/03 RMK AO2
14926KSTC STC20010806211509808/06/01 21:15:31  5-MIN KSTC 070315Z AUTO 35004KT 10SM CLR 23/21 A3010 860 84 2100 340/04 RMK AO2
14926KSTC STC20010806212009808/06/01 21:20:31  5-MIN KSTC 070320Z AUTO 35003KT 10SM CLR 24/20 A3010 860 78 2100 350/03 RMK AO2
14926KSTC STC20010806212509808/06/01 21:25:31  5-MIN KSTC 070325Z AUTO 00000KT 10SM CLR 24/20 A3010 860 78 2100 000/00 RMK AO2
14926KSTC STC20010806213009808/06/01 21:30:31  5-MIN KSTC 070330Z AUTO 00000KT 10SM CLR 22/20 A3010 860 87 1900 000/00 RMK AO2
14926KSTC STC20010806213509808/06/01 21:35:31  5-MIN KSTC 070335Z AUTO 00000KT 10SM CLR 22/20 A3010 860 90 1900 000/00 RMK AO2
14926KSTC STC20010806214009808/06/01 21:40:31  5-MIN KSTC 070340Z AUTO 00000KT 10SM CLR 23/21 A3010 860 87 2000 000/00 RMK AO2
14926KSTC STC20010806214509808/06/01 21:45:31  5-MIN KSTC 070345Z AUTO 00000KT 10SM CLR 22/20 A3010 860 87 1900 000/00 RMK AO2
14926KSTC STC20010806215011508/06/01 21:50:31  5-MIN KSTC 070350Z AUTO 00000KT 10SM CLR 22/20 A3010 860 90 1900 000/00 RMK AO2 SLP193 T02170200
14926KSTC STC20010806215509808/06/01 21:55:31  5-MIN KSTC 070355Z AUTO 00000KT 10SM CLR 22/20 A3010 860 90 1900 000/00 RMK AO2
14926KSTC STC20010806220009808/06/01 22:00:31  5-MIN KSTC 070400Z AUTO 00000KT 10SM CLR 22/20 A3010 860 90 1900 000/00 RMK AO2
14926KSTC STC20010806220509808/06/01 22:05:31  5-MIN KSTC 070405Z AUTO 00000KT 10SM CLR 21/20 A3010 860 93 1800 000/00 RMK AO2
14926KSTC STC20010806221009808/06/01 22:10:31  5-MIN KSTC 070410Z AUTO 00000KT 10SM CLR 21/19 A3010 860 90 1800 000/00 RMK AO2
14926KSTC STC20010806221509808/06/01 22:15:31  5-MIN KSTC 070415Z AUTO 00000KT 10SM CLR 21/19 A3010 860 90 1800 000/00 RMK AO2
14926KSTC STC20010806222009808/06/01 22:20:31  5-MIN KSTC 070420Z AUTO 00000KT 10SM CLR 21/19 A3010 860 93 1700 000/00 RMK AO2
14926KSTC STC20010806222509808/06/01 22:25:31  5-MIN KSTC 070425Z AUTO 00000KT 10SM CLR 21/20 A3010 860 97 1700 000/00 RMK AO2
14926KSTC STC20010806223009808/06/01 22:30:31  5-MIN KSTC 070430Z AUTO 00000KT 10SM CLR 21/20 A3010 860 97 1700 000/00 RMK AO2
14926KSTC STC20010806223509808/06/01 22:35:31  5-MIN KSTC 070435Z AUTO 00000KT 10SM CLR 21/20 A3010 860 97 1700 000/00 RMK AO2
14926KSTC STC20010806224009808/06/01 22:40:31  5-MIN KSTC 070440Z AUTO 00000KT 10SM CLR 21/20 A3010 860 97 1700 000/00 RMK AO2
14926KSTC STC20010806224509808/06/01 22:45:31  5-MIN KSTC 070445Z AUTO 00000KT 10SM CLR 21/19 A3010 860 93 1700 000/00 RMK AO2
14926KSTC STC20010806225011508/06/01 22:50:31  5-MIN KSTC 070450Z AUTO 00000KT 10SM CLR 20/19 A3010 860 97 1700 000/00 RMK AO2 SLP194 T02000194
14926KSTC STC20010806225509808/06/01 22:55:31  5-MIN KSTC 070455Z AUTO 33003KT 10SM CLR 20/19 A3010 860 97 1700 320/03 RMK AO2
14926KSTC STC20010806230009908/06/01 23:00:31  5-MIN KSTC 070500Z AUTO 31003KT 10SM CLR 19/19 A3010 860 100 1600 310/03 RMK AO2
14926KSTC STC20010806230509808/06/01 23:05:31  5-MIN KSTC 070505Z AUTO 33003KT 10SM CLR 20/19 A3011 860 97 1700 320/03 RMK AO2
14926KSTC STC20010806231009808/06/01 23:10:31  5-MIN KSTC 070510Z AUTO 00000KT 10SM CLR 21/19 A3011 850 93 1700 000/00 RMK AO2
14926KSTC STC20010806231509808/06/01 23:15:31  5-MIN KSTC 070515Z AUTO 00000KT 10SM CLR 20/19 A3011 850 97 1700 000/00 RMK AO2
14926KSTC STC20010806232009808/06/01 23:20:31  5-MIN KSTC 070520Z AUTO 00000KT 10SM CLR 19/19 A3011 850 97 1600 000/00 RMK AO2
14926KSTC STC20010806232509808/06/01 23:25:31  5-MIN KSTC 070525Z AUTO 00000KT 10SM CLR 19/19 A3011 850 97 1600 000/00 RMK AO2
14926KSTC STC20010806233009808/06/01 23:30:31  5-MIN KSTC 070530Z AUTO 00000KT 10SM CLR 20/19 A3011 850 93 1700 000/00 RMK AO2
14926KSTC STC20010806233509808/06/01 23:35:31  5-MIN KSTC 070535Z AUTO 00000KT 10SM CLR 20/19 A3011 850 93 1700 000/00 RMK AO2
14926KSTC STC20010806234009808/06/01 23:40:31  5-MIN KSTC 070540Z AUTO 00000KT 10SM CLR 19/19 A3012 850 97 1600 000/00 RMK AO2
14926KSTC STC20010806234509808/06/01 23:45:31  5-MIN KSTC 070545Z AUTO 00000KT 10SM CLR 20/19 A3012 840 97 1700 000/00 RMK AO2
14926KSTC STC20010806235014308/06/01 23:50:31  5-MIN KSTC 070550Z AUTO 00000KT 10SM CLR 20/19 A3012 840 93 1700 000/00 RMK AO2 SLP200 T02000189 10339 20194 403670194 53007
14926KSTC STC20010806235509808/06/01 23:55:31  5-MIN KSTC 070555Z AUTO 00000KT 10SM CLR 20/18 A3012 840 90 1700 000/00 RMK AO2
14926KSTC STC20010807000009808/07/01 00:00:31  5-MIN KSTC 070600Z AUTO 00000KT 10SM CLR 20/18 A3012 840 90 1700 000/00 RMK AO2
14926KSTC STC20010807000509808/07/01 00:05:31  5-MIN KSTC 070605Z AUTO 00000KT 10SM CLR 21/18 A3012 840 87 1700 000/00 RMK AO2
14926KSTC STC20010807001009808/07/01 00:10:31  5-MIN KSTC 070610Z AUTO 00000KT 10SM CLR 20/18 A3012 840 87 1700 000/00 RMK AO2
14926KSTC STC20010807001509808/07/01 00:15:31  5-MIN KSTC 070615Z AUTO 00000KT 10SM CLR 19/18 A3012 840 90 1600 000/00 RMK AO2
14926KSTC STC20010807002009808/07/01 00:20:31  5-MIN KSTC 070620Z AUTO 00000KT 10SM CLR 19/18 A3012 840 90 1600 000/00 RMK AO2
14926KSTC STC20010807002509808/07/01 00:25:31  5-MIN KSTC 070625Z AUTO 00000KT 10SM CLR 19/18 A3012 840 93 1500 000/00 RMK AO2
14926KSTC STC20010807003009808/07/01 00:30:31  5-MIN KSTC 070630Z AUTO 00000KT 10SM CLR 19/18 A3012 840 90 1600 000/00 RMK AO2
14926KSTC STC20010807003509808/07/01 00:35:31  5-MIN KSTC 070635Z AUTO 00000KT 10SM CLR 19/18 A3012 850 90 1600 000/00 RMK AO2
14926KSTC STC20010807004009808/07/01 00:40:31  5-MIN KSTC 070640Z AUTO 00000KT 10SM CLR 19/18 A3012 850 90 1600 000/00 RMK AO2
14926KSTC STC20010807004509808/07/01 00:45:31  5-MIN KSTC 070645Z AUTO 00000KT 10SM CLR 19/18 A3012 850 93 1500 000/00 RMK AO2
14926KSTC STC20010807005011508/07/01 00:50:31  5-MIN KSTC 070650Z AUTO 00000KT 10SM CLR 19/18 A3012 850 90 1600 000/00 RMK AO2 SLP199 T01940178
14926KSTC STC20010807005509808/07/01 00:55:31  5-MIN KSTC 070655Z AUTO 00000KT 10SM CLR 19/18 A3012 850 93 1600 000/00 RMK AO2
14926KSTC STC20010807010009808/07/01 01:00:31  5-MIN KSTC 070700Z AUTO 32003KT 10SM CLR 19/18 A3012 850 97 1500 320/03 RMK AO2
14926KSTC STC20010807010509808/07/01 01:05:31  5-MIN KSTC 070705Z AUTO 32003KT 10SM CLR 19/18 A3012 850 97 1500 320/03 RMK AO2
14926KSTC STC20010807011009808/07/01 01:10:31  5-MIN KSTC 070710Z AUTO 32003KT 10SM CLR 19/18 A3012 850 97 1500 310/03 RMK AO2
14926KSTC STC20010807011509808/07/01 01:15:31  5-MIN KSTC 070715Z AUTO 32003KT 10SM CLR 18/18 A3011 850 96 1500 310/03 RMK AO2
14926KSTC STC20010807012009808/07/01 01:20:31  5-MIN KSTC 070720Z AUTO 32004KT 10SM CLR 18/17 A3011 850 96 1400 320/04 RMK AO2
14926KSTC STC20010807012509808/07/01 01:25:31  5-MIN KSTC 070725Z AUTO 32003KT 10SM CLR 19/18 A3011 850 93 1500 310/03 RMK AO2
14926KSTC STC20010807013009808/07/01 01:30:31  5-MIN KSTC 070730Z AUTO 00000KT 10SM CLR 18/17 A3011 850 93 1500 000/00 RMK AO2
14926KSTC STC20010807013509808/07/01 01:35:31  5-MIN KSTC 070735Z AUTO 30003KT 10SM CLR 19/18 A3011 850 93 1500 300/03 RMK AO2
14926KSTC STC20010807014009808/07/01 01:40:31  5-MIN KSTC 070740Z AUTO 00000KT 10SM CLR 19/18 A3011 850 93 1500 000/00 RMK AO2
14926KSTC STC20010807014509808/07/01 01:45:31  5-MIN KSTC 070745Z AUTO 00000KT 10SM CLR 18/17 A3011 850 93 1500 000/00 RMK AO2
14926KSTC STC20010807015011508/07/01 01:50:31  5-MIN KSTC 070750Z AUTO 00000KT 10SM CLR 18/17 A3011 850 93 1500 000/00 RMK AO2 SLP197 T01830172
14926KSTC STC20010807015509808/07/01 01:55:31  5-MIN KSTC 070755Z AUTO 00000KT 10SM CLR 19/17 A3011 850 90 1500 000/00 RMK AO2
14926KSTC STC20010807020009808/07/01 02:00:31  5-MIN KSTC 070800Z AUTO 00000KT 10SM CLR 19/17 A3011 850 90 1500 000/00 RMK AO2
14926KSTC STC20010807020509808/07/01 02:05:31  5-MIN KSTC 070805Z AUTO 00000KT 10SM CLR 18/17 A3011 850 93 1500 000/00 RMK AO2
14926KSTC STC20010807021009808/07/01 02:10:31  5-MIN KSTC 070810Z AUTO 00000KT 10SM CLR 18/17 A3011 850 93 1500 000/00 RMK AO2
14926KSTC STC20010807021509808/07/01 02:15:31  5-MIN KSTC 070815Z AUTO 00000KT 10SM CLR 18/17 A3011 850 93 1500 000/00 RMK AO2
14926KSTC STC20010807022009808/07/01 02:20:31  5-MIN KSTC 070820Z AUTO 00000KT 10SM CLR 18/17 A3011 850 93 1500 000/00 RMK AO2
14926KSTC STC20010807022509808/07/01 02:25:31  5-MIN KSTC 070825Z AUTO 00000KT 10SM CLR 18/17 A3011 850 96 1400 000/00 RMK AO2
14926KSTC STC20010807023009808/07/01 02:30:31  5-MIN KSTC 070830Z AUTO 00000KT 10SM CLR 18/17 A3011 850 96 1400 000/00 RMK AO2
14926KSTC STC20010807023509808/07/01 02:35:31  5-MIN KSTC 070835Z AUTO 34003KT 10SM CLR 18/17 A3011 850 96 1400 340/03 RMK AO2
14926KSTC STC20010807024009908/07/01 02:40:31  5-MIN KSTC 070840Z AUTO 00000KT 10SM CLR 17/17 A3011 850 100 1400 000/00 RMK AO2
14926KSTC STC20010807024509808/07/01 02:45:31  5-MIN KSTC 070845Z AUTO 00000KT 10SM CLR 18/17 A3011 850 96 1400 000/00 RMK AO2
14926KSTC STC20010807025012208/07/01 02:50:31  5-MIN KSTC 070850Z AUTO 00000KT 10SM CLR 17/17 A3011 850 100 1300 000/00 RMK AO2 SLP197 T01720172 53007
14926KSTC STC20010807025509908/07/01 02:55:31  5-MIN KSTC 070855Z AUTO 00000KT 10SM CLR 17/17 A3011 850 100 1300 000/00 RMK AO2
14926KSTC STC20010807030009908/07/01 03:00:31  5-MIN KSTC 070900Z AUTO 00000KT 10SM CLR 18/18 A3011 850 100 1400 000/00 RMK AO2
14926KSTC STC20010807030509808/07/01 03:05:31  5-MIN KSTC 070905Z AUTO 00000KT 10SM CLR 18/18 A3011 850 96 1500 000/00 RMK AO2
14926KSTC STC20010807031009808/07/01 03:10:31  5-MIN KSTC 070910Z AUTO 00000KT 10SM CLR 18/17 A3011 850 96 1400 000/00 RMK AO2
14926KSTC STC20010807031509908/07/01 03:15:31  5-MIN KSTC 070915Z AUTO 00000KT 10SM CLR 17/17 A3011 850 100 1400 000/00 RMK AO2
14926KSTC STC20010807032009908/07/01 03:20:31  5-MIN KSTC 070920Z AUTO 00000KT 10SM CLR 17/17 A3011 850 100 1400 000/00 RMK AO2
14926KSTC STC20010807032509908/07/01 03:25:31  5-MIN KSTC 070925Z AUTO 00000KT 10SM CLR 17/17 A3011 850 100 1300 000/00 RMK AO2
14926KSTC STC20010807033009908/07/01 03:30:31  5-MIN KSTC 070930Z AUTO 00000KT 10SM CLR 17/17 A3011 850 100 1400 000/00 RMK AO2
14926KSTC STC20010807033509908/07/01 03:35:31  5-MIN KSTC 070935Z AUTO 00000KT 10SM CLR 18/18 A3011 850 100 1400 000/00 RMK AO2
14926KSTC STC20010807034009908/07/01 03:40:31  5-MIN KSTC 070940Z AUTO 00000KT 10SM CLR 17/17 A3011 850 100 1300 000/00 RMK AO2
14926KSTC STC20010807034509808/07/01 03:45:31  5-MIN KSTC 070945Z AUTO 00000KT 10SM CLR 17/16 A3011 850 93 1300 000/00 RMK AO2
14926KSTC STC20010807035011508/07/01 03:50:31  5-MIN KSTC 070950Z AUTO 00000KT 10SM CLR 17/17 A3011 850 96 1300 000/00 RMK AO2 SLP198 T01720167
14926KSTC STC20010807035509808/07/01 03:55:31  5-MIN KSTC 070955Z AUTO 00000KT 10SM CLR 17/17 A3012 850 96 1300 000/00 RMK AO2
14926KSTC STC20010807040009908/07/01 04:00:31  5-MIN KSTC 071000Z AUTO 00000KT 10SM CLR 17/17 A3012 850 100 1300 000/00 RMK AO2
14926KSTC STC20010807040509808/07/01 04:05:31  5-MIN KSTC 071005Z AUTO 00000KT 8SM CLR 17/17 A3012 850 100 1300 000/00 RMK AO2
14926KSTC STC20010807041009808/07/01 04:10:31  5-MIN KSTC 071010Z AUTO 00000KT 8SM CLR 17/17 A3012 850 100 1300 000/00 RMK AO2
14926KSTC STC20010807041509808/07/01 04:15:31  5-MIN KSTC 071015Z AUTO 00000KT 9SM CLR 17/17 A3011 850 100 1300 000/00 RMK AO2
14926KSTC STC20010807042009908/07/01 04:20:31  5-MIN KSTC 071020Z AUTO 00000KT 10SM CLR 17/17 A3012 850 100 1300 000/00 RMK AO2
14926KSTC STC20010807042509808/07/01 04:25:31  5-MIN KSTC 071025Z AUTO 00000KT 10SM CLR 17/16 A3012 840 96 1300 000/00 RMK AO2
14926KSTC STC20010807043009808/07/01 04:30:31  5-MIN KSTC 071030Z AUTO 00000KT 9SM CLR 16/16 A3012 840 100 1200 000/00 RMK AO2
14926KSTC STC20010807043509808/07/01 04:35:31  5-MIN KSTC 071035Z AUTO 00000KT 8SM CLR 16/16 A3012 840 100 1100 000/00 RMK AO2
14926KSTC STC20010807044009808/07/01 04:40:31  5-MIN KSTC 071040Z AUTO 00000KT 8SM CLR 17/17 A3012 840 100 1300 000/00 RMK AO2
14926KSTC STC20010807044509808/07/01 04:45:31  5-MIN KSTC 071045Z AUTO 00000KT 9SM CLR 17/17 A3012 840 100 1300 000/00 RMK AO2
14926KSTC STC20010807045011608/07/01 04:50:31  5-MIN KSTC 071050Z AUTO 00000KT 10SM CLR 17/17 A3012 840 100 1300 000/00 RMK AO2 SLP201 T01670167
14926KSTC STC20010807045509808/07/01 04:55:31  5-MIN KSTC 071055Z AUTO 00000KT 9SM CLR 16/16 A3012 840 100 1200 000/00 RMK AO2
14926KSTC STC20010807050009808/07/01 05:00:31  5-MIN KSTC 071100Z AUTO 00000KT 9SM CLR 16/16 A3012 840 100 1200 000/00 RMK AO2
14926KSTC STC20010807050509808/07/01 05:05:31  5-MIN KSTC 071105Z AUTO 00000KT 10SM CLR 17/16 A3012 840 96 1300 000/00 RMK AO2
14926KSTC STC20010807051009908/07/01 05:10:31  5-MIN KSTC 071110Z AUTO 00000KT 10SM CLR 17/17 A3012 840 100 1300 000/00 RMK AO2
14926KSTC STC20010807051509908/07/01 05:15:31  5-MIN KSTC 071115Z AUTO 00000KT 10SM CLR 17/17 A3012 840 100 1300 000/00 RMK AO2
14926KSTC STC20010807052009808/07/01 05:20:31  5-MIN KSTC 071120Z AUTO 00000KT 9SM CLR 16/16 A3013 840 100 1200 000/00 RMK AO2
14926KSTC STC20010807052509808/07/01 05:25:31  5-MIN KSTC 071125Z AUTO 00000KT 8SM CLR 17/17 A3013 830 100 1300 000/00 RMK AO2
14926KSTC STC20010807053009808/07/01 05:30:31  5-MIN KSTC 071130Z AUTO 00000KT 8SM CLR 17/17 A3013 830 100 1300 000/00 RMK AO2
14926KSTC STC20010807053509808/07/01 05:35:31  5-MIN KSTC 071135Z AUTO 00000KT 7SM CLR 16/16 A3013 830 100 1200 000/00 RMK AO2
14926KSTC STC20010807054009708/07/01 05:40:31  5-MIN KSTC 071140Z AUTO 00000KT 8SM CLR 17/16 A3013 830 96 1300 000/00 RMK AO2
14926KSTC STC20010807054509908/07/01 05:45:31  5-MIN KSTC 071145Z AUTO 00000KT 10SM CLR 17/17 A3013 830 100 1300 000/00 RMK AO2
14926KSTC STC20010807055013308/07/01 05:50:31  5-MIN KSTC 071150Z AUTO 00000KT 10SM CLR 17/17 A3013 830 96 1300 000/00 RMK AO2 SLP205 T01720167 10206 20156 56002
14926KSTC STC20010807055509808/07/01 05:55:31  5-MIN KSTC 071155Z AUTO 00000KT 10SM CLR 18/17 A3013 830 96 1400 000/00 RMK AO2
14926KSTC STC20010807060009808/07/01 06:00:31  5-MIN KSTC 071200Z AUTO 00000KT 10SM CLR 18/17 A3013 830 96 1400 000/00 RMK AO2
14926KSTC STC20010807060509808/07/01 06:05:31  5-MIN KSTC 071205Z AUTO 00000KT 10SM CLR 18/17 A3013 830 93 1500 000/00 RMK AO2
14926KSTC STC20010807061009808/07/01 06:10:31  5-MIN KSTC 071210Z AUTO 00000KT 10SM CLR 19/18 A3014 830 93 1500 000/00 RMK AO2
14926KSTC STC20010807061509808/07/01 06:15:31  5-MIN KSTC 071215Z AUTO 00000KT 10SM CLR 19/18 A3014 830 93 1600 000/00 RMK AO2
14926KSTC STC20010807062009808/07/01 06:20:31  5-MIN KSTC 071220Z AUTO 00000KT 10SM CLR 19/18 A3013 830 93 1600 000/00 RMK AO2
14926KSTC STC20010807062509808/07/01 06:25:31  5-MIN KSTC 071225Z AUTO 00000KT 10SM CLR 20/18 A3013 830 90 1600 000/00 RMK AO2
14926KSTC STC20010807063009808/07/01 06:30:31  5-MIN KSTC 071230Z AUTO 00000KT 10SM CLR 20/18 A3013 830 90 1600 000/00 RMK AO2
14926KSTC STC20010807063509808/07/01 06:35:31  5-MIN KSTC 071235Z AUTO 00000KT 10SM CLR 21/18 A3013 830 87 1700 000/00 RMK AO2
14926KSTC STC20010807064009808/07/01 06:40:31  5-MIN KSTC 071240Z AUTO 00000KT 10SM CLR 21/19 A3013 830 87 1800 000/00 RMK AO2
14926KSTC STC20010807064509808/07/01 06:45:31  5-MIN KSTC 071245Z AUTO 00000KT 10SM CLR 21/19 A3013 830 87 1800 000/00 RMK AO2
14926KSTC STC20010807065011508/07/01 06:50:31  5-MIN KSTC 071250Z AUTO 00000KT 10SM CLR 22/19 A3013 830 84 1800 000/00 RMK AO2 SLP205 T02170189
14926KSTC STC20010807065509808/07/01 06:55:31  5-MIN KSTC 071255Z AUTO 00000KT 10SM CLR 22/19 A3013 830 81 1900 000/00 RMK AO2
14926KSTC STC20010807070009808/07/01 07:00:31  5-MIN KSTC 071300Z AUTO 00000KT 10SM CLR 22/19 A3013 830 84 1900 000/00 RMK AO2
14926KSTC STC20010807070509808/07/01 07:05:31  5-MIN KSTC 071305Z AUTO 00000KT 10SM CLR 23/19 A3014 830 81 2000 000/00 RMK AO2
14926KSTC STC20010807071009808/07/01 07:10:31  5-MIN KSTC 071310Z AUTO 00000KT 10SM CLR 23/19 A3014 830 78 2000 000/00 RMK AO2
14926KSTC STC20010807071509808/07/01 07:15:31  5-MIN KSTC 071315Z AUTO 00000KT 10SM CLR 23/19 A3014 830 78 2000 000/00 RMK AO2
14926KSTC STC20010807072009808/07/01 07:20:31  5-MIN KSTC 071320Z AUTO 14003KT 10SM CLR 24/20 A3014 830 78 2100 140/03 RMK AO2
14926KSTC STC20010807072509808/07/01 07:25:31  5-MIN KSTC 071325Z AUTO 00000KT 10SM CLR 24/20 A3014 830 78 2100 000/00 RMK AO2
14926KSTC STC20010807073009808/07/01 07:30:31  5-MIN KSTC 071330Z AUTO 00000KT 10SM CLR 24/20 A3014 830 78 2100 000/00 RMK AO2
14926KSTC STC20010807073509808/07/01 07:35:31  5-MIN KSTC 071335Z AUTO 14003KT 10SM CLR 24/20 A3014 830 76 2100 140/03 RMK AO2
14926KSTC STC20010807074009808/07/01 07:40:31  5-MIN KSTC 071340Z AUTO 14004KT 10SM CLR 24/20 A3013 830 76 2200 140/04 RMK AO2
14926KSTC STC20010807074509808/07/01 07:45:31  5-MIN KSTC 071345Z AUTO 00000KT 10SM CLR 25/20 A3014 830 73 2200 000/00 RMK AO2
14926KSTC STC20010807075011508/07/01 07:50:31  5-MIN KSTC 071350Z AUTO 00000KT 10SM CLR 26/20 A3014 830 71 2300 000/00 RMK AO2 SLP207 T02560200
14926KSTC STC20010807075509808/07/01 07:55:31  5-MIN KSTC 071355Z AUTO 00000KT 10SM CLR 26/20 A3014 830 68 2300 000/00 RMK AO2
14926KSTC STC20010807080009808/07/01 08:00:31  5-MIN KSTC 071400Z AUTO 14003KT 10SM CLR 26/20 A3014 830 68 2300 130/03 RMK AO2
14926KSTC STC20010807080509808/07/01 08:05:31  5-MIN KSTC 071405Z AUTO 11003KT 10SM CLR 26/20 A3014 830 68 2300 110/03 RMK AO2
14926KSTC STC20010807081009808/07/01 08:10:31  5-MIN KSTC 071410Z AUTO 00000KT 10SM CLR 26/20 A3014 830 68 2300 000/00 RMK AO2
14926KSTC STC20010807081509808/07/01 08:15:31  5-MIN KSTC 071415Z AUTO 11003KT 10SM CLR 27/20 A3014 830 66 2400 110/03 RMK AO2
14926KSTC STC20010807082009808/07/01 08:20:31  5-MIN KSTC 071420Z AUTO 00000KT 10SM CLR 27/20 A3014 830 66 2400 000/00 RMK AO2
14926KSTC STC20010807082509808/07/01 08:25:31  5-MIN KSTC 071425Z AUTO 00000KT 10SM CLR 27/20 A3014 830 64 2500 000/00 RMK AO2
14926KSTC STC20010807083009808/07/01 08:30:31  5-MIN KSTC 071430Z AUTO 00000KT 10SM CLR 27/21 A3013 830 66 2500 000/00 RMK AO2
14926KSTC STC20010807083509808/07/01 08:35:31  5-MIN KSTC 071435Z AUTO VRB03KT 10SM CLR 28/20 A3013 830 62 2500 VRB/03 RMK AO2
14926KSTC STC20010807084009808/07/01 08:40:31  5-MIN KSTC 071440Z AUTO 15003KT 10SM CLR 27/19 A3013 830 62 2500 150/03 RMK AO2
14926KSTC STC20010807084509808/07/01 08:45:31  5-MIN KSTC 071445Z AUTO 14004KT 10SM CLR 28/20 A3013 830 62 2500 140/04 RMK AO2
14926KSTC STC20010807085012108/07/01 08:50:31  5-MIN KSTC 071450Z AUTO VRB04KT 10SM CLR 28/20 A3013 830 60 2600 VRB/04 RMK AO2 SLP204 T02830200 53007
14926KSTC STC20010807085509808/07/01 08:55:31  5-MIN KSTC 071455Z AUTO 15004KT 10SM CLR 28/19 A3013 830 58 2600 150/04 RMK AO2
14926KSTC STC20010807090009808/07/01 09:00:31  5-MIN KSTC 071500Z AUTO VRB04KT 10SM CLR 28/20 A3013 840 60 2600 VRB/04 RMK AO2
14926KSTC STC20010807090509808/07/01 09:05:31  5-MIN KSTC 071505Z AUTO 16004KT 10SM CLR 29/20 A3013 840 56 2700 150/04 RMK AO2
14926KSTC STC20010807091009808/07/01 09:10:31  5-MIN KSTC 071510Z AUTO 20004KT 10SM CLR 29/20 A3012 840 56 2700 190/04 RMK AO2
14926KSTC STC20010807091509808/07/01 09:15:31  5-MIN KSTC 071515Z AUTO 19004KT 10SM CLR 29/20 A3012 840 58 2700 190/04 RMK AO2
14926KSTC STC20010807092009808/07/01 09:20:31  5-MIN KSTC 071520Z AUTO 00000KT 10SM CLR 29/20 A3012 840 58 2700 000/00 RMK AO2
14926KSTC STC20010807092509808/07/01 09:25:31  5-MIN KSTC 071525Z AUTO 00000KT 10SM CLR 29/21 A3012 840 58 2700 000/00 RMK AO2
14926KSTC STC20010807093009808/07/01 09:30:31  5-MIN KSTC 071530Z AUTO 20004KT 10SM CLR 30/20 A3012 840 54 2800 200/04 RMK AO2
14926KSTC STC20010807093509808/07/01 09:35:31  5-MIN KSTC 071535Z AUTO 21004KT 10SM CLR 30/20 A3012 840 54 2800 200/04 RMK AO2
14926KSTC STC20010807094009808/07/01 09:40:31  5-MIN KSTC 071540Z AUTO VRB04KT 10SM CLR 30/20 A3012 840 54 2800 VRB/04 RMK AO2
14926KSTC STC20010807094509808/07/01 09:45:31  5-MIN KSTC 071545Z AUTO 16004KT 10SM CLR 30/20 A3012 840 54 2800 160/04 RMK AO2
14926KSTC STC20010807095011508/07/01 09:50:31  5-MIN KSTC 071550Z AUTO 15005KT 10SM CLR 31/21 A3012 840 54 2800 140/05 RMK AO2 SLP201 T03060206
14926KSTC STC20010807095509808/07/01 09:55:31  5-MIN KSTC 071555Z AUTO 14005KT 10SM CLR 31/21 A3012 840 53 2900 140/05 RMK AO2
14926KSTC STC20010807100009808/07/01 10:00:31  5-MIN KSTC 071600Z AUTO 21007KT 10SM CLR 31/21 A3012 840 53 2900 210/07 RMK AO2
14926KSTC STC20010807100509808/07/01 10:05:31  5-MIN KSTC 071605Z AUTO 20006KT 10SM CLR 31/19 A3012 840 49 2900 200/06 RMK AO2
14926KSTC STC20010807101009808/07/01 10:10:31  5-MIN KSTC 071610Z AUTO 19008KT 10SM CLR 32/20 A3012 850 49 3000 190/08 RMK AO2
14926KSTC STC20010807101509808/07/01 10:15:31  5-MIN KSTC 071615Z AUTO 20007KT 10SM CLR 32/19 A3011 850 46 3000 190/07 RMK AO2
14926KSTC STC20010807102009808/07/01 10:20:31  5-MIN KSTC 071620Z AUTO 20006KT 10SM CLR 32/20 A3011 850 48 3000 200/06 RMK AO2
14926KSTC STC20010807102509808/07/01 10:25:31  5-MIN KSTC 071625Z AUTO VRB04KT 10SM CLR 32/20 A3011 850 48 3000 VRB/04 RMK AO2
14926KSTC STC20010807103009808/07/01 10:30:31  5-MIN KSTC 071630Z AUTO VRB05KT 10SM CLR 32/20 A3011 850 48 3000 VRB/05 RMK AO2
14926KSTC STC20010807103509808/07/01 10:35:31  5-MIN KSTC 071635Z AUTO VRB04KT 10SM CLR 32/19 A3011 850 46 3000 VRB/04 RMK AO2
14926KSTC STC20010807104009808/07/01 10:40:31  5-MIN KSTC 071640Z AUTO 16006KT 10SM CLR 33/18 A3011 850 41 3100 160/06 RMK AO2
14926KSTC STC20010807104509808/07/01 10:45:31  5-MIN KSTC 071645Z AUTO 17008KT 10SM CLR 33/19 A3011 860 43 3100 170/08 RMK AO2
14926KSTC STC20010807105011508/07/01 10:50:31  5-MIN KSTC 071650Z AUTO 17006KT 10SM CLR 33/19 A3011 860 42 3200 160/06 RMK AO2 SLP195 T03330189
14926KSTC STC20010807105509808/07/01 10:55:31  5-MIN KSTC 071655Z AUTO 18007KT 10SM CLR 33/19 A3011 860 43 3200 180/07 RMK AO2
14926KSTC STC20010807110009808/07/01 11:00:31  5-MIN KSTC 071700Z AUTO 19008KT 10SM CLR 33/19 A3011 860 43 3200 190/08 RMK AO2
14926KSTC STC20010807110509808/07/01 11:05:31  5-MIN KSTC 071705Z AUTO 21009KT 10SM CLR 33/20 A3010 860 45 3200 200/09 RMK AO2
14926KSTC STC20010807111009808/07/01 11:10:31  5-MIN KSTC 071710Z AUTO 20009KT 10SM CLR 33/20 A3010 860 45 3200 190/09 RMK AO2
14926KSTC STC20010807111509808/07/01 11:15:31  5-MIN KSTC 071715Z AUTO 19009KT 10SM CLR 33/21 A3010 860 46 3200 190/09 RMK AO2
14926KSTC STC20010807112009808/07/01 11:20:31  5-MIN KSTC 071720Z AUTO 22009KT 10SM CLR 33/21 A3010 860 48 3200 220/09 RMK AO2
14926KSTC STC20010807112509808/07/01 11:25:31  5-MIN KSTC 071725Z AUTO 19008KT 10SM CLR 33/21 A3010 860 48 3200 180/08 RMK AO2
14926KSTC STC20010807113009808/07/01 11:30:31  5-MIN KSTC 071730Z AUTO 19008KT 10SM CLR 33/21 A3010 860 48 3200 180/08 RMK AO2
14926KSTC STC20010807113509808/07/01 11:35:31  5-MIN KSTC 071735Z AUTO 17008KT 10SM CLR 33/21 A3010 860 48 3200 170/08 RMK AO2
14926KSTC STC20010807114009808/07/01 11:40:31  5-MIN KSTC 071740Z AUTO 19008KT 10SM CLR 34/21 A3009 870 46 3200 190/08 RMK AO2
14926KSTC STC20010807114509808/07/01 11:45:31  5-MIN KSTC 071745Z AUTO 21009KT 10SM CLR 34/21 A3009 870 46 3200 210/09 RMK AO2
14926KSTC STC20010807115013308/07/01 11:50:31  5-MIN KSTC 071750Z AUTO 20008KT 10SM CLR 34/22 A3009 870 46 3300 190/08 RMK AO2 SLP190 T03440217 10344 20178 58001
14926KSTC STC20010807115509808/07/01 11:55:31  5-MIN KSTC 071755Z AUTO 18011KT 10SM CLR 34/21 A3009 870 46 3200 180/11 RMK AO2
14926KSTC STC20010807120009808/07/01 12:00:31  5-MIN KSTC 071800Z AUTO 19006KT 10SM CLR 34/21 A3008 880 46 3300 190/06 RMK AO2
14926KSTC STC20010807120509808/07/01 12:05:31  5-MIN KSTC 071805Z AUTO 21008KT 10SM CLR 34/22 A3009 870 48 3300 210/08 RMK AO2
14926KSTC STC20010807121009808/07/01 12:10:31  5-MIN KSTC 071810Z AUTO VRB06KT 10SM CLR 34/22 A3008 880 46 3300 VRB/06 RMK AO2
14926KSTC STC20010807121509808/07/01 12:15:31  5-MIN KSTC 071815Z AUTO 21006KT 10SM CLR 34/22 A3008 880 46 3300 210/06 RMK AO2
14926KSTC STC20010807122011408/07/01 12:20:31  5-MIN KSTC 071820Z AUTO 19008KT 150V240 10SM CLR 34/22 A3008 880 46 3300 190/08 150V240 RMK AO2
14926KSTC STC20010807122509808/07/01 12:25:31  5-MIN KSTC 071825Z AUTO 21008KT 10SM CLR 34/22 A3008 880 46 3300 200/08 RMK AO2
14926KSTC STC20010807123009808/07/01 12:30:31  5-MIN KSTC 071830Z AUTO 20007KT 10SM CLR 34/22 A3008 880 48 3300 200/07 RMK AO2
14926KSTC STC20010807123509808/07/01 12:35:31  5-MIN KSTC 071835Z AUTO 19007KT 10SM CLR 34/22 A3008 880 46 3300 190/07 RMK AO2
14926KSTC STC20010807124009808/07/01 12:40:31  5-MIN KSTC 071840Z AUTO VRB05KT 10SM CLR 34/22 A3008 880 48 3300 VRB/05 RMK AO2
14926KSTC STC20010807124509808/07/01 12:45:31  5-MIN KSTC 071845Z AUTO 19008KT 10SM CLR 34/22 A3007 890 46 3300 190/08 RMK AO2
14926KSTC STC20010807125011508/07/01 12:50:31  5-MIN KSTC 071850Z AUTO 19007KT 10SM CLR 34/22 A3007 880 46 3300 190/07 RMK AO2 SLP184 T03440217
14926KSTC STC20010807125509808/07/01 12:55:31  5-MIN KSTC 071855Z AUTO 20010KT 10SM CLR 35/21 A3007 890 42 3400 200/10 RMK AO2
14926KSTC STC20010807130009808/07/01 13:00:31  5-MIN KSTC 071900Z AUTO 18008KT 10SM CLR 35/20 A3007 890 40 3400 180/08 RMK AO2
14926KSTC STC20010807130509808/07/01 13:05:31  5-MIN KSTC 071905Z AUTO 18008KT 10SM CLR 36/21 A3007 890 41 3500 180/08 RMK AO2
14926KSTC STC20010807131009808/07/01 13:10:31  5-MIN KSTC 071910Z AUTO 18009KT 10SM CLR 36/21 A3007 890 41 3500 180/09 RMK AO2
14926KSTC STC20010807131509808/07/01 13:15:31  5-MIN KSTC 071915Z AUTO 21009KT 10SM CLR 36/21 A3007 890 41 3500 210/09 RMK AO2
14926KSTC STC20010807132009808/07/01 13:20:31  5-MIN KSTC 071920Z AUTO 21009KT 10SM CLR 36/21 A3007 890 42 3500 200/09 RMK AO2
14926KSTC STC20010807132509808/07/01 13:25:31  5-MIN KSTC 071925Z AUTO 17008KT 10SM CLR 35/21 A3006 890 43 3400 170/08 RMK AO2
14926KSTC STC20010807133009808/07/01 13:30:31  5-MIN KSTC 071930Z AUTO 20009KT 10SM CLR 36/21 A3006 900 41 3500 200/09 RMK AO2
14926KSTC STC20010807133509808/07/01 13:35:31  5-MIN KSTC 071935Z AUTO 21009KT 10SM CLR 35/21 A3006 900 42 3400 210/09 RMK AO2
14926KSTC STC20010807134009808/07/01 13:40:31  5-MIN KSTC 071940Z AUTO VRB06KT 10SM CLR 35/21 A3006 900 43 3400 VRB/06 RMK AO2
14926KSTC STC20010807134509808/07/01 13:45:31  5-MIN KSTC 071945Z AUTO 20007KT 10SM CLR 36/21 A3006 900 41 3500 190/07 RMK AO2
14926KSTC STC20010807135013108/07/01 13:50:31  5-MIN KSTC 071950Z AUTO 19009KT 160V220 10SM CLR 36/20 A3006 900 39 3500 190/09 160V220 RMK AO2 SLP179 T03560200
14926KSTC STC20010807135509808/07/01 13:55:31  5-MIN KSTC 071955Z AUTO 19010KT 10SM CLR 36/20 A3006 900 39 3500 180/10 RMK AO2
14926KSTC STC20010807140009808/07/01 14:00:31  5-MIN KSTC 072000Z AUTO 19010KT 10SM CLR 36/20 A3005 900 39 3500 190/10 RMK AO2
14926KSTC STC20010807140509808/07/01 14:05:31  5-MIN KSTC 072005Z AUTO 19011KT 10SM CLR 36/20 A3005 900 38 3500 190/11 RMK AO2
14926KSTC STC20010807141010408/07/01 14:10:31  5-MIN KSTC 072010Z AUTO 19010G15KT 10SM CLR 36/21 A3005 910 39 3500 190/10G15 RMK AO2
14926KSTC STC20010807141510408/07/01 14:15:31  5-MIN KSTC 072015Z AUTO 18011G15KT 10SM CLR 36/21 A3005 910 39 3500 180/11G15 RMK AO2
14926KSTC STC20010807142009808/07/01 14:20:31  5-MIN KSTC 072020Z AUTO 19010KT 10SM CLR 36/21 A3005 910 39 3500 180/10 RMK AO2
14926KSTC STC20010807142509808/07/01 14:25:31  5-MIN KSTC 072025Z AUTO 18010KT 10SM CLR 36/21 A3005 910 42 3500 180/10 RMK AO2
14926KSTC STC20010807143009808/07/01 14:30:31  5-MIN KSTC 072030Z AUTO 18010KT 10SM CLR 36/21 A3004 910 41 3500 180/10 RMK AO2
14926KSTC STC20010807143509808/07/01 14:35:31  5-MIN KSTC 072035Z AUTO 19009KT 10SM CLR 35/22 A3004 910 45 3400 190/09 RMK AO2
14926KSTC STC20010807144009808/07/01 14:40:31  5-MIN KSTC 072040Z AUTO 19010KT 10SM CLR 36/22 A3004 920 44 3500 190/10 RMK AO2
14926KSTC STC20010807144509808/07/01 14:45:31  5-MIN KSTC 072045Z AUTO 18010KT 10SM CLR 36/22 A3004 920 45 3500 180/10 RMK AO2
14926KSTC STC20010807145012108/07/01 14:50:31  5-MIN KSTC 072050Z AUTO 19010KT 10SM CLR 35/22 A3004 920 47 3400 190/10 RMK AO2 SLP173 T03500222 58013
14926KSTC STC20010807145509808/07/01 14:55:31  5-MIN KSTC 072055Z AUTO 20011KT 10SM CLR 36/23 A3004 920 45 3500 200/11 RMK AO2
14926KSTC STC20010807150009808/07/01 15:00:31  5-MIN KSTC 072100Z AUTO 19009KT 10SM CLR 36/22 A3003 920 45 3500 190/09 RMK AO2
14926KSTC STC20010807150509808/07/01 15:05:31  5-MIN KSTC 072105Z AUTO 19011KT 10SM CLR 36/23 A3003 920 48 3500 190/11 RMK AO2
14926KSTC STC20010807151009808/07/01 15:10:31  5-MIN KSTC 072110Z AUTO 18007KT 10SM CLR 35/23 A3003 920 50 3400 180/07 RMK AO2
14926KSTC STC20010807151509808/07/01 15:15:31  5-MIN KSTC 072115Z AUTO 20010KT 10SM CLR 36/23 A3003 930 48 3500 200/10 RMK AO2
14926KSTC STC20010807152009808/07/01 15:20:31  5-MIN KSTC 072120Z AUTO 21010KT 10SM CLR 35/24 A3003 930 52 3400 200/10 RMK AO2
14926KSTC STC20010807152511408/07/01 15:25:31  5-MIN KSTC 072125Z AUTO 18010KT 150V210 10SM CLR 35/24 A3003 930 52 3400 180/10 150V210 RMK AO2
14926KSTC STC20010807153010108/07/01 15:30:31  5-MIN KSTC 072130Z AUTO 18009KT 10SM FEW047 36/24 A3003 930 50 3500 180/09 RMK AO2
14926KSTC STC20010807153510108/07/01 15:35:31  5-MIN KSTC 072135Z AUTO 19009KT 10SM FEW047 36/23 A3002 930 48 3500 190/09 RMK AO2
14926KSTC STC20010807154009808/07/01 15:40:31  5-MIN KSTC 072140Z AUTO 19009KT 10SM CLR 36/23 A3002 930 48 3500 190/09 RMK AO2
14926KSTC STC20010807154509808/07/01 15:45:31  5-MIN KSTC 072145Z AUTO 19008KT 10SM CLR 36/23 A3002 930 48 3500 190/08 RMK AO2
14926KSTC STC20010807155011808/07/01 15:50:31  5-MIN KSTC 072150Z AUTO 19009KT 10SM FEW047 36/23 A3002 940 48 3500 190/09 RMK AO2 SLP165 T03560233
14926KSTC STC20010807155510108/07/01 15:55:31  5-MIN KSTC 072155Z AUTO 18011KT 10SM FEW047 36/23 A3002 940 48 3500 180/11 RMK AO2
14926KSTC STC20010807160009808/07/01 16:00:31  5-MIN KSTC 072200Z AUTO 19009KT 10SM CLR 36/23 A3001 940 48 3500 190/09 RMK AO2
14926KSTC STC20010807160509808/07/01 16:05:31  5-MIN KSTC 072205Z AUTO 19009KT 10SM CLR 36/24 A3001 940 50 3500 180/09 RMK AO2
14926KSTC STC20010807161009808/07/01 16:10:31  5-MIN KSTC 072210Z AUTO 18008KT 10SM CLR 35/24 A3001 940 52 3500 170/08 RMK AO2
14926KSTC STC20010807161509808/07/01 16:15:31  5-MIN KSTC 072215Z AUTO 19011KT 10SM CLR 36/24 A3001 950 50 3500 190/11 RMK AO2
14926KSTC STC20010807162009808/07/01 16:20:31  5-MIN KSTC 072220Z AUTO 18011KT 10SM CLR 35/24 A3001 950 52 3500 180/11 RMK AO2
14926KSTC STC20010807162509808/07/01 16:25:31  5-MIN KSTC 072225Z AUTO 19010KT 10SM CLR 35/24 A3001 950 53 3500 180/10 RMK AO2
14926KSTC STC20010807163009808/07/01 16:30:31  5-MIN KSTC 072230Z AUTO 18008KT 10SM CLR 35/24 A3000 950 52 3500 180/08 RMK AO2
14926KSTC STC20010807163509808/07/01 16:35:31  5-MIN KSTC 072235Z AUTO 19008KT 10SM CLR 34/24 A3000 950 55 3400 180/08 RMK AO2
14926KSTC STC20010807164009808/07/01 16:40:31  5-MIN KSTC 072240Z AUTO 18011KT 10SM CLR 35/24 A3000 950 52 3500 180/11 RMK AO2
14926KSTC STC20010807164510108/07/01 16:45:31  5-MIN KSTC 072245Z AUTO 18009KT 10SM FEW047 35/24 A3000 950 52 3500 180/09 RMK AO2
14926KSTC STC20010807165011808/07/01 16:50:31  5-MIN KSTC 072250Z AUTO 17008KT 10SM FEW047 35/24 A3000 950 53 3500 170/08 RMK AO2 SLP161 T03500244
14926KSTC STC20010807165510108/07/01 16:55:31  5-MIN KSTC 072255Z AUTO 18009KT 10SM SCT047 34/24 A3000 950 55 3400 180/09 RMK AO2
14926KSTC STC20010807170010108/07/01 17:00:31  5-MIN KSTC 072300Z AUTO 18009KT 10SM FEW047 34/24 A3000 950 55 3400 170/09 RMK AO2
14926KSTC STC20010807170510108/07/01 17:05:31  5-MIN KSTC 072305Z AUTO 17008KT 10SM FEW047 34/24 A3000 960 55 3400 170/08 RMK AO2
14926KSTC STC20010807171010108/07/01 17:10:31  5-MIN KSTC 072310Z AUTO 20009KT 10SM SCT047 34/25 A3000 960 57 3400 200/09 RMK AO2
14926KSTC STC20010807171510108/07/01 17:15:31  5-MIN KSTC 072315Z AUTO 21009KT 10SM SCT045 34/25 A3000 960 57 3400 200/09 RMK AO2
14926KSTC STC20010807172010108/07/01 17:20:31  5-MIN KSTC 072320Z AUTO 20009KT 10SM FEW043 34/25 A2999 960 57 3400 190/09 RMK AO2
14926KSTC STC20010807172510108/07/01 17:25:31  5-MIN KSTC 072325Z AUTO 21008KT 10SM FEW043 34/25 A2999 960 59 3400 210/08 RMK AO2
14926KSTC STC20010807173010108/07/01 17:30:31  5-MIN KSTC 072330Z AUTO 20008KT 10SM FEW043 34/25 A2999 960 59 3400 200/08 RMK AO2
14926KSTC STC20010807173510108/07/01 17:35:31  5-MIN KSTC 072335Z AUTO 20008KT 10SM FEW041 34/26 A2999 960 61 3400 190/08 RMK AO2
14926KSTC STC20010807174010108/07/01 17:40:31  5-MIN KSTC 072340Z AUTO 21006KT 10SM FEW041 34/26 A2999 960 61 3400 200/06 RMK AO2
14926KSTC STC20010807174510108/07/01 17:45:31  5-MIN KSTC 072345Z AUTO 20007KT 10SM FEW041 34/25 A2999 960 59 3400 200/07 RMK AO2
14926KSTC STC20010807175013608/07/01 17:50:31  5-MIN KSTC 072350Z AUTO 21007KT 10SM FEW041 34/25 A2999 960 59 3400 200/07 RMK AO2 SLP156 T03390250 10367 20339 58017
14926KSTC STC20010807175510108/07/01 17:55:31  5-MIN KSTC 072355Z AUTO 20006KT 10SM FEW041 34/25 A2999 960 59 3400 190/06 RMK AO2
14926KSTC STC20010807180010108/07/01 18:00:31  5-MIN KSTC 080000Z AUTO 20009KT 10SM FEW041 34/25 A2999 970 59 3400 200/09 RMK AO2
14926KSTC STC20010807180509808/07/01 18:05:31  5-MIN KSTC 080005Z AUTO 20007KT 10SM CLR 34/24 A2998 970 57 3400 200/07 RMK AO2
14926KSTC STC20010807181009808/07/01 18:10:31  5-MIN KSTC 080010Z AUTO 21008KT 10SM CLR 33/25 A2998 970 61 3300 200/08 RMK AO2
14926KSTC STC20010807181509808/07/01 18:15:31  5-MIN KSTC 080015Z AUTO 20007KT 10SM CLR 33/25 A2998 970 61 3300 200/07 RMK AO2
14926KSTC STC20010807182009808/07/01 18:20:31  5-MIN KSTC 080020Z AUTO 20007KT 10SM CLR 33/25 A2998 970 61 3300 200/07 RMK AO2
14926KSTC STC20010807182509808/07/01 18:25:31  5-MIN KSTC 080025Z AUTO 20008KT 10SM CLR 33/25 A2998 970 61 3300 200/08 RMK AO2
14926KSTC STC20010807183009808/07/01 18:30:31  5-MIN KSTC 080030Z AUTO 19006KT 10SM CLR 33/26 A2998 970 65 3200 190/06 RMK AO2
14926KSTC STC20010807183509808/07/01 18:35:31  5-MIN KSTC 080035Z AUTO 20007KT 10SM CLR 33/26 A2998 970 65 3200 190/07 RMK AO2
14926KSTC STC20010807184009808/07/01 18:40:31  5-MIN KSTC 080040Z AUTO 19006KT 10SM CLR 32/26 A2998 970 67 3200 180/06 RMK AO2
14926KSTC STC20010807184509808/07/01 18:45:31  5-MIN KSTC 080045Z AUTO 18005KT 10SM CLR 32/26 A2998 970 67 3200 170/05 RMK AO2
14926KSTC STC20010807185011508/07/01 18:50:31  5-MIN KSTC 080050Z AUTO 17005KT 10SM CLR 32/26 A2998 970 69 3200 170/05 RMK AO2 SLP153 T03220261
14926KSTC STC20010807185509808/07/01 18:55:31  5-MIN KSTC 080055Z AUTO 18005KT 10SM CLR 32/26 A2998 970 69 3200 180/05 RMK AO2
14926KSTC STC20010807190009808/07/01 19:00:31  5-MIN KSTC 080100Z AUTO 17004KT 10SM CLR 32/26 A2998 970 72 3100 170/04 RMK AO2
14926KSTC STC20010807190509808/07/01 19:05:31  5-MIN KSTC 080105Z AUTO 17005KT 10SM CLR 32/26 A2998 970 72 3100 170/05 RMK AO2
14926KSTC STC20010807191009808/07/01 19:10:31  5-MIN KSTC 080110Z AUTO 17005KT 10SM CLR 32/26 A2998 970 72 3100 170/05 RMK AO2
14926KSTC STC20010807191509808/07/01 19:15:31  5-MIN KSTC 080115Z AUTO 17006KT 10SM CLR 31/26 A2998 970 74 3100 170/06 RMK AO2
14926KSTC STC20010807192009808/07/01 19:20:31  5-MIN KSTC 080120Z AUTO 18005KT 10SM CLR 31/26 A2998 970 74 3100 170/05 RMK AO2
14926KSTC STC20010807192509808/07/01 19:25:31  5-MIN KSTC 080125Z AUTO 17006KT 10SM CLR 31/26 A2998 970 74 3100 170/06 RMK AO2
14926KSTC STC20010807193009808/07/01 19:30:31  5-MIN KSTC 080130Z AUTO 17005KT 10SM CLR 31/26 A2998 970 77 3000 170/05 RMK AO2
14926KSTC STC20010807193509708/07/01 19:35:31  5-MIN KSTC 080135Z AUTO 17005KT 9SM CLR 31/26 A2998 970 77 3000 170/05 RMK AO2
14926KSTC STC20010807194009708/07/01 19:40:31  5-MIN KSTC 080140Z AUTO 16005KT 9SM CLR 30/26 A2998 970 79 2900 160/05 RMK AO2
14926KSTC STC20010807194509708/07/01 19:45:31  5-MIN KSTC 080145Z AUTO 16005KT 9SM CLR 29/26 A2998 970 82 2900 150/05 RMK AO2
14926KSTC STC20010807195011408/07/01 19:50:31  5-MIN KSTC 080150Z AUTO 16005KT 9SM CLR 29/26 A2998 970 82 2900 150/05 RMK AO2 SLP152 T02940261
14926KSTC STC20010807195509808/07/01 19:55:31  5-MIN KSTC 080155Z AUTO 15005KT 10SM CLR 29/26 A2998 970 82 2900 150/05 RMK AO2
14926KSTC STC20010807200009708/07/01 20:00:31  5-MIN KSTC 080200Z AUTO 16005KT 9SM CLR 29/26 A2998 970 85 2800 150/05 RMK AO2
14926KSTC STC20010807200509708/07/01 20:05:31  5-MIN KSTC 080205Z AUTO 16005KT 9SM CLR 29/27 A2998 970 87 2800 160/05 RMK AO2
14926KSTC STC20010807201009708/07/01 20:10:31  5-MIN KSTC 080210Z AUTO 16005KT 9SM CLR 29/27 A2998 970 87 2800 160/05 RMK AO2
14926KSTC STC20010807201509708/07/01 20:15:31  5-MIN KSTC 080215Z AUTO 16006KT 9SM CLR 29/27 A2998 970 87 2800 160/06 RMK AO2
14926KSTC STC20010807202009708/07/01 20:20:31  5-MIN KSTC 080220Z AUTO 16006KT 9SM CLR 29/27 A2998 970 87 2800 160/06 RMK AO2
14926KSTC STC20010807202509708/07/01 20:25:31  5-MIN KSTC 080225Z AUTO 16006KT 8SM CLR 29/27 A2998 970 87 2800 160/06 RMK AO2
14926KSTC STC20010807203009708/07/01 20:30:31  5-MIN KSTC 080230Z AUTO 16006KT 8SM CLR 29/27 A2998 970 87 2800 160/06 RMK AO2
14926KSTC STC20010807203509708/07/01 20:35:31  5-MIN KSTC 080235Z AUTO 16006KT 8SM CLR 29/27 A2998 970 87 2800 160/06 RMK AO2
14926KSTC STC20010807204009708/07/01 20:40:31  5-MIN KSTC 080240Z AUTO 16006KT 8SM CLR 29/27 A2998 970 87 2800 160/06 RMK AO2
14926KSTC STC20010807204509708/07/01 20:45:31  5-MIN KSTC 080245Z AUTO 16007KT 8SM CLR 28/27 A2998 970 90 2800 160/07 RMK AO2
14926KSTC STC20010807205012008/07/01 20:50:31  5-MIN KSTC 080250Z AUTO 16007KT 8SM CLR 28/27 A2998 970 90 2800 160/07 RMK AO2 SLP153 T02830267 56016
14926KSTC STC20010807205509708/07/01 20:55:31  5-MIN KSTC 080255Z AUTO 17006KT 8SM CLR 29/27 A2998 970 87 2800 160/06 RMK AO2
14926KSTC STC20010807210009708/07/01 21:00:31  5-MIN KSTC 080300Z AUTO 17006KT 8SM CLR 29/27 A2998 970 87 2800 160/06 RMK AO2
14926KSTC STC20010807210509708/07/01 21:05:31  5-MIN KSTC 080305Z AUTO 17007KT 8SM CLR 28/27 A2998 970 90 2800 160/07 RMK AO2
14926KSTC STC20010807211009708/07/01 21:10:31  5-MIN KSTC 080310Z AUTO 17007KT 8SM CLR 29/27 A2998 970 87 2800 170/07 RMK AO2
14926KSTC STC20010807211509708/07/01 21:15:31  5-MIN KSTC 080315Z AUTO 17006KT 8SM CLR 29/27 A2998 970 87 2800 170/06 RMK AO2
14926KSTC STC20010807212009708/07/01 21:20:31  5-MIN KSTC 080320Z AUTO 17006KT 8SM CLR 28/27 A2998 970 90 2800 170/06 RMK AO2
14926KSTC STC20010807212509708/07/01 21:25:31  5-MIN KSTC 080325Z AUTO 17006KT 8SM CLR 28/27 A2998 970 90 2800 170/06 RMK AO2
14926KSTC STC20010807213009708/07/01 21:30:31  5-MIN KSTC 080330Z AUTO 17006KT 8SM CLR 28/27 A2998 970 90 2800 170/06 RMK AO2
14926KSTC STC20010807213509708/07/01 21:35:31  5-MIN KSTC 080335Z AUTO 18006KT 8SM CLR 28/27 A2998 970 90 2800 180/06 RMK AO2
14926KSTC STC20010807214009708/07/01 21:40:31  5-MIN KSTC 080340Z AUTO 18007KT 8SM CLR 28/27 A2998 970 90 2800 180/07 RMK AO2
14926KSTC STC20010807214509708/07/01 21:45:31  5-MIN KSTC 080345Z AUTO 18007KT 8SM CLR 29/27 A2998 970 87 2800 180/07 RMK AO2
14926KSTC STC20010807215011408/07/01 21:50:31  5-MIN KSTC 080350Z AUTO 18008KT 8SM CLR 29/27 A2998 970 87 2800 180/08 RMK AO2 SLP151 T02890267
14926KSTC STC20010807215509708/07/01 21:55:31  5-MIN KSTC 080355Z AUTO 18007KT 8SM CLR 29/27 A2998 970 87 2800 180/07 RMK AO2
14926KSTC STC20010807220009708/07/01 22:00:31  5-MIN KSTC 080400Z AUTO 18006KT 9SM CLR 28/27 A2998 970 90 2800 180/06 RMK AO2
14926KSTC STC20010807220509708/07/01 22:05:31  5-MIN KSTC 080405Z AUTO 19006KT 8SM CLR 28/27 A2998 970 90 2800 180/06 RMK AO2
14926KSTC STC20010807221009708/07/01 22:10:31  5-MIN KSTC 080410Z AUTO 19005KT 8SM CLR 28/26 A2998 970 87 2800 190/05 RMK AO2
14926KSTC STC20010807221509708/07/01 22:15:31  5-MIN KSTC 080415Z AUTO 19006KT 8SM CLR 28/26 A2998 970 87 2800 190/06 RMK AO2
14926KSTC STC20010807222009708/07/01 22:20:31  5-MIN KSTC 080420Z AUTO 19008KT 9SM CLR 28/26 A2998 970 87 2800 190/08 RMK AO2
14926KSTC STC20010807222509708/07/01 22:25:31  5-MIN KSTC 080425Z AUTO 20006KT 9SM CLR 28/26 A2998 970 87 2800 190/06 RMK AO2
14926KSTC STC20010807223009708/07/01 22:30:31  5-MIN KSTC 080430Z AUTO 20007KT 9SM CLR 28/26 A2998 970 90 2700 200/07 RMK AO2
14926KSTC STC20010807223509708/07/01 22:35:31  5-MIN KSTC 080435Z AUTO 20007KT 9SM CLR 28/26 A2998 970 90 2700 200/07 RMK AO2
14926KSTC STC20010807224009708/07/01 22:40:31  5-MIN KSTC 080440Z AUTO 20007KT 9SM CLR 28/26 A2998 970 90 2700 200/07 RMK AO2
14926KSTC STC20010807224509708/07/01 22:45:31  5-MIN KSTC 080445Z AUTO 20007KT 9SM CLR 28/26 A2998 970 90 2700 200/07 RMK AO2
14926KSTC STC20010807225011408/07/01 22:50:31  5-MIN KSTC 080450Z AUTO 20007KT 9SM CLR 28/26 A2998 970 87 2700 200/07 RMK AO2 SLP150 T02780256
14926KSTC STC20010807225509708/07/01 22:55:31  5-MIN KSTC 080455Z AUTO 20006KT 9SM CLR 28/26 A2998 970 87 2700 200/06 RMK AO2
14926KSTC STC20010807230009708/07/01 23:00:31  5-MIN KSTC 080500Z AUTO 20007KT 9SM CLR 27/26 A2998 970 90 2600 190/07 RMK AO2
14926KSTC STC20010807230509708/07/01 23:05:31  5-MIN KSTC 080505Z AUTO 20007KT 8SM CLR 27/26 A2998 970 90 2600 200/07 RMK AO2
14926KSTC STC20010807231009708/07/01 23:10:31  5-MIN KSTC 080510Z AUTO 20007KT 8SM CLR 27/26 A2998 970 90 2600 200/07 RMK AO2
14926KSTC STC20010807231509708/07/01 23:15:31  5-MIN KSTC 080515Z AUTO 21007KT 8SM CLR 27/26 A2998 970 90 2600 200/07 RMK AO2
14926KSTC STC20010807232009708/07/01 23:20:31  5-MIN KSTC 080520Z AUTO 21007KT 9SM CLR 27/26 A2998 970 90 2600 200/07 RMK AO2
14926KSTC STC20010807232509708/07/01 23:25:31  5-MIN KSTC 080525Z AUTO 21007KT 9SM CLR 27/26 A2998 970 90 2600 200/07 RMK AO2
14926KSTC STC20010807233009708/07/01 23:30:31  5-MIN KSTC 080530Z AUTO 21007KT 9SM CLR 27/25 A2998 980 87 2600 200/07 RMK AO2
14926KSTC STC20010807233509708/07/01 23:35:31  5-MIN KSTC 080535Z AUTO 20007KT 9SM CLR 27/25 A2997 980 87 2600 200/07 RMK AO2
14926KSTC STC20010807234009708/07/01 23:40:31  5-MIN KSTC 080540Z AUTO 20007KT 9SM CLR 27/25 A2997 980 90 2600 200/07 RMK AO2
14926KSTC STC20010807234509708/07/01 23:45:31  5-MIN KSTC 080545Z AUTO 20007KT 9SM CLR 27/25 A2997 980 90 2600 200/07 RMK AO2
14926KSTC STC20010807235014208/07/01 23:50:31  5-MIN KSTC 080550Z AUTO 20006KT 9SM CLR 27/25 A2997 980 90 2600 200/06 RMK AO2 SLP146 T02670250 10339 20267 403670156 55001
14926KSTC STC20010807235509708/07/01 23:55:31  5-MIN KSTC 080555Z AUTO 21006KT 9SM CLR 27/25 A2997 980 90 2600 200/06 RMK AO2
14926KSTC STC20010808000009708/08/01 00:00:31  5-MIN KSTC 080600Z AUTO 20006KT 9SM CLR 27/25 A2997 980 90 2600 200/06 RMK AO2
14926KSTC STC20010808000509708/08/01 00:05:31  5-MIN KSTC 080605Z AUTO 20006KT 9SM CLR 27/24 A2996 990 87 2600 200/06 RMK AO2
14926KSTC STC20010808001009708/08/01 00:10:31  5-MIN KSTC 080610Z AUTO 20006KT 9SM CLR 27/24 A2996 990 87 2600 200/06 RMK AO2
14926KSTC STC20010808001509708/08/01 00:15:31  5-MIN KSTC 080615Z AUTO 20007KT 9SM CLR 27/24 A2996 990 87 2600 200/07 RMK AO2
14926KSTC STC20010808002009708/08/01 00:20:31  5-MIN KSTC 080620Z AUTO 20007KT 9SM CLR 27/24 A2996 990 87 2600 200/07 RMK AO2
14926KSTC STC20010808002509808/08/01 00:25:31  5-MIN KSTC 080625Z AUTO 20007KT 10SM CLR 27/24 A2996 990 87 2600 200/07 RMK AO2
14926KSTC STC20010808003009808/08/01 00:30:31  5-MIN KSTC 080630Z AUTO 21007KT 10SM CLR 27/24 A2996 990 87 2600 200/07 RMK AO2
14926KSTC STC20010808003509808/08/01 00:35:31  5-MIN KSTC 080635Z AUTO 21007KT 10SM CLR 27/24 A2996 990 87 2600 210/07 RMK AO2
14926KSTC STC20010808004009908/08/01 00:40:31  5-MIN KSTC 080640Z AUTO 21006KT 10SM CLR 27/24 A2995 1000 87 2600 210/06 RMK AO2
14926KSTC STC20010808004509908/08/01 00:45:31  5-MIN KSTC 080645Z AUTO 21006KT 10SM CLR 26/24 A2995 1000 90 2500 210/06 RMK AO2
14926KSTC STC20010808005011508/08/01 00:50:31  5-MIN KSTC 080650Z AUTO 21006KT 10SM CLR 27/24 A2995 990 87 2600 210/06 RMK AO2 SLP142 T02670244
14926KSTC STC20010808005509908/08/01 00:55:31  5-MIN KSTC 080655Z AUTO 21007KT 10SM CLR 26/24 A2995 1000 90 2500 210/07 RMK AO2
14926KSTC STC20010808010009908/08/01 01:00:31  5-MIN KSTC 080700Z AUTO 20007KT 10SM CLR 26/24 A2995 1000 90 2500 200/07 RMK AO2
14926KSTC STC20010808010509908/08/01 01:05:31  5-MIN KSTC 080705Z AUTO 20008KT 10SM CLR 26/24 A2995 1000 90 2500 200/08 RMK AO2
14926KSTC STC20010808011009808/08/01 01:10:31  5-MIN KSTC 080710Z AUTO 20006KT 9SM CLR 26/24 A2995 1000 90 2500 200/06 RMK AO2
14926KSTC STC20010808011509808/08/01 01:15:31  5-MIN KSTC 080715Z AUTO 20007KT 9SM CLR 26/24 A2995 1000 90 2500 200/07 RMK AO2
14926KSTC STC20010808012009808/08/01 01:20:31  5-MIN KSTC 080720Z AUTO 20008KT 9SM CLR 26/24 A2995 1000 90 2500 200/08 RMK AO2
14926KSTC STC20010808012509908/08/01 01:25:31  5-MIN KSTC 080725Z AUTO 20007KT 10SM CLR 26/24 A2995 1000 87 2500 200/07 RMK AO2
14926KSTC STC20010808013009908/08/01 01:30:31  5-MIN KSTC 080730Z AUTO 20007KT 10SM CLR 26/24 A2995 1000 87 2500 200/07 RMK AO2
14926KSTC STC20010808013509908/08/01 01:35:31  5-MIN KSTC 080735Z AUTO 20006KT 10SM CLR 26/24 A2995 1000 87 2500 200/06 RMK AO2
14926KSTC STC20010808014009808/08/01 01:40:31  5-MIN KSTC 080740Z AUTO 21006KT 10SM CLR 26/24 A2995 990 87 2500 210/06 RMK AO2
14926KSTC STC20010808014509808/08/01 01:45:31  5-MIN KSTC 080745Z AUTO 21006KT 10SM CLR 26/24 A2996 990 87 2500 200/06 RMK AO2
14926KSTC STC20010808015011508/08/01 01:50:31  5-MIN KSTC 080750Z AUTO 21006KT 10SM CLR 26/24 A2996 990 87 2500 200/06 RMK AO2 SLP143 T02610239
14926KSTC STC20010808015509808/08/01 01:55:31  5-MIN KSTC 080755Z AUTO 21006KT 10SM CLR 26/24 A2996 990 87 2500 200/06 RMK AO2
14926KSTC STC20010808020009808/08/01 02:00:31  5-MIN KSTC 080800Z AUTO 21006KT 10SM CLR 26/24 A2995 990 87 2500 210/06 RMK AO2
14926KSTC STC20010808020509808/08/01 02:05:31  5-MIN KSTC 080805Z AUTO 21006KT 10SM CLR 26/24 A2996 990 87 2500 210/06 RMK AO2
14926KSTC STC20010808021010808/08/01 02:10:31  5-MIN KSTC 080810Z AUTO 21006KT 10SM TS CLR 26/23 A2995 1000 84 2500 210/06 RMK AO2 TSB08
14926KSTC STC20010808021510808/08/01 02:15:31  5-MIN KSTC 080815Z AUTO 21008KT 10SM TS CLR 26/23 A2995 1000 84 2500 200/08 RMK AO2 TSB08
14926KSTC STC20010808022010808/08/01 02:20:31  5-MIN KSTC 080820Z AUTO 21009KT 10SM TS CLR 26/23 A2995 1000 84 2600 210/09 RMK AO2 TSB08
14926KSTC STC20010808022511108/08/01 02:25:31  5-MIN KSTC 080825Z AUTO 21009KT 10SM TS FEW014 26/24 A2995 1000 87 2600 210/09 RMK AO2 TSB08
14926KSTC STC20010808023012408/08/01 02:30:31  5-MIN KSTC 080830Z AUTO 21008KT 9SM -TSRA FEW023 26/24 A2994 1010 87 2600 210/08 RMK AO2 TSB08RAB26 P0000
14926KSTC STC20010808023512508/08/01 02:35:31  5-MIN KSTC 080835Z AUTO 21007KT 10SM -TSRA FEW025 26/23 A2994 1010 87 2500 210/07 RMK AO2 TSB08RAB26 P0000
14926KSTC STC20010808024012508/08/01 02:40:31  5-MIN KSTC 080840Z AUTO 20007KT 10SM TS FEW023 26/23 A2994 1010 87 2500 200/07 RMK AO2 TSB08RAB26E40 P0000
14926KSTC STC20010808024512508/08/01 02:45:31  5-MIN KSTC 080845Z AUTO 21008KT 10SM TS FEW023 26/23 A2994 1010 87 2500 210/08 RMK AO2 TSB08RAB26E40 P0000
14926KSTC STC20010808025015408/08/01 02:50:31  5-MIN KSTC 080850Z AUTO 22007KT 10SM TS FEW023 26/23 A2994 1000 87 2500 210/07 RMK AO2 TSB08RAB26E40 SLP138 P0000 60000 T02560233 58005
14926KSTC STC20010808025510208/08/01 02:55:31  5-MIN KSTC 080855Z AUTO 22006KT 10SM FEW028 25/23 A2995 1000 87 2400 210/06 RMK AO2
14926KSTC STC20010808030009908/08/01 03:00:31  5-MIN KSTC 080900Z AUTO 23007KT 10SM CLR 26/23 A2995 1000 84 2500 220/07 RMK AO2
14926KSTC STC20010808030509908/08/01 03:05:31  5-MIN KSTC 080905Z AUTO 22007KT 10SM CLR 25/23 A2994 1010 87 2400 220/07 RMK AO2
14926KSTC STC20010808031009908/08/01 03:10:31  5-MIN KSTC 080910Z AUTO 21007KT 10SM CLR 25/23 A2994 1000 87 2400 210/07 RMK AO2
14926KSTC STC20010808031509908/08/01 03:15:31  5-MIN KSTC 080915Z AUTO 21007KT 10SM CLR 25/23 A2994 1010 87 2400 210/07 RMK AO2
14926KSTC STC20010808032009908/08/01 03:20:31  5-MIN KSTC 080920Z AUTO 22006KT 10SM CLR 25/23 A2994 1010 87 2400 220/06 RMK AO2
14926KSTC STC20010808032509908/08/01 03:25:31  5-MIN KSTC 080925Z AUTO 22006KT 10SM CLR 25/23 A2995 1000 87 2400 210/06 RMK AO2
14926KSTC STC20010808033009908/08/01 03:30:31  5-MIN KSTC 080930Z AUTO 22005KT 10SM CLR 25/23 A2995 1000 87 2400 220/05 RMK AO2
14926KSTC STC20010808033509908/08/01 03:35:31  5-MIN KSTC 080935Z AUTO 20003KT 10SM CLR 25/23 A2995 1000 87 2400 200/03 RMK AO2
14926KSTC STC20010808034009908/08/01 03:40:31  5-MIN KSTC 080940Z AUTO 18003KT 10SM CLR 25/23 A2995 1000 87 2400 180/03 RMK AO2
14926KSTC STC20010808034509908/08/01 03:45:31  5-MIN KSTC 080945Z AUTO 19003KT 10SM CLR 24/23 A2995 1000 90 2400 180/03 RMK AO2
14926KSTC STC20010808035011508/08/01 03:50:31  5-MIN KSTC 080950Z AUTO 20004KT 10SM CLR 25/22 A2996 990 84 2400 190/04 RMK AO2 SLP142 T02500222
14926KSTC STC20010808035509908/08/01 03:55:31  5-MIN KSTC 080955Z AUTO 20005KT 10SM CLR 25/22 A2995 1000 84 2400 200/05 RMK AO2
14926KSTC STC20010808040009908/08/01 04:00:31  5-MIN KSTC 081000Z AUTO 21006KT 10SM CLR 25/22 A2995 1000 84 2400 200/06 RMK AO2
14926KSTC STC20010808040509908/08/01 04:05:31  5-MIN KSTC 081005Z AUTO 21007KT 10SM CLR 25/22 A2995 1000 84 2400 210/07 RMK AO2
14926KSTC STC20010808041009808/08/01 04:10:31  5-MIN KSTC 081010Z AUTO 21007KT 10SM CLR 25/22 A2996 990 84 2400 210/07 RMK AO2
14926KSTC STC20010808041509808/08/01 04:15:31  5-MIN KSTC 081015Z AUTO 23007KT 10SM CLR 25/22 A2996 990 81 2400 220/07 RMK AO2
14926KSTC STC20010808042010708/08/01 04:20:31  5-MIN KSTC 081020Z AUTO 27005KT 10SM TS CLR 25/22 A2997 980 81 2400 260/05 RMK AO2 TSB20
14926KSTC STC20010808042511408/08/01 04:25:31  5-MIN KSTC 081025Z AUTO 29005KT 10SM TS CLR 25/22 A2998 970 81 2400 290/05 RMK AO2 TSB20 PRESRR
14926KSTC STC20010808043010908/08/01 04:30:31  5-MIN KSTC 081030Z AUTO 31003KT 9SM TS FEW080 25/22 A2999 970 81 2400 310/03 RMK AO2 TSB20
14926KSTC STC20010808043512608/08/01 04:35:31  5-MIN KSTC 081035Z AUTO 00000KT 5SM -TSRA BR SCT080 24/22 A2998 970 87 2300 000/00 RMK AO2 TSB20RAB31 P0002
14926KSTC STC20010808044013208/08/01 04:40:31  5-MIN KSTC 081040Z AUTO 00000KT 4SM TSRA BR FEW022 BKN080 24/23 A2998 970 90 2300 000/00 RMK AO2 TSB20RAB31 P0003
14926KSTC STC20010808044513208/08/01 04:45:31  5-MIN KSTC 081045Z AUTO 00000KT 4SM TSRA BR SCT020 BKN080 24/23 A2998 980 97 2300 000/00 RMK AO2 TSB20RAB31 P0006
14926KSTC STC20010808045015008/08/01 04:50:31  5-MIN KSTC 081050Z AUTO 18005KT 4SM RA BR BKN020 BKN080 23/23 A2997 980 97 2200 180/05 RMK AO2 TSB20E48RAB31 SLP149 P0007 T02330228
14926KSTC STC20010808045512008/08/01 04:55:31  5-MIN KSTC 081055Z AUTO 00000KT 6SM -RA BR SCT020 OVC080 24/23 A2998 970 93 2300 000/00 RMK AO2 P0000
14926KSTC STC20010808050011708/08/01 05:00:31  5-MIN KSTC 081100Z AUTO 00000KT 9SM -RA SCT020 BKN085 23/23 A2997 980 97 2200 000/00 RMK AO2 P0000
14926KSTC STC20010808050512008/08/01 05:05:31  5-MIN KSTC 081105Z AUTO 00000KT 10SM SCT020 BKN085 23/23 A2998 970 97 2200 000/00 RMK AO2 RAE03 P0000
14926KSTC STC20010808051011908/08/01 05:10:31  5-MIN KSTC 081110Z AUTO 31003KT 9SM FEW020 SCT085 23/23 A2997 980 97 2200 300/03 RMK AO2 RAE03 P0000
14926KSTC STC20010808051511208/08/01 05:15:31  5-MIN KSTC 081115Z AUTO 21003KT 8SM FEW020 23/23 A2997 980 97 2200 210/03 RMK AO2 RAE03 P0000
14926KSTC STC20010808052011208/08/01 05:20:31  5-MIN KSTC 081120Z AUTO 19006KT 7SM FEW085 23/23 A2996 990 97 2200 180/06 RMK AO2 RAE03 P0000
14926KSTC STC20010808052511208/08/01 05:25:31  5-MIN KSTC 081125Z AUTO 20007KT 6SM BR CLR 23/22 A2996 990 97 2200 190/07 RMK AO2 RAE03 P0000
14926KSTC STC20010808053011008/08/01 05:30:31  5-MIN KSTC 081130Z AUTO 22005KT 7SM CLR 23/22 A2995 1000 97 2200 220/05 RMK AO2 RAE03 P0000
14926KSTC STC20010808053511008/08/01 05:35:31  5-MIN KSTC 081135Z AUTO 19008KT 7SM CLR 23/22 A2994 1000 97 2200 190/08 RMK AO2 RAE03 P0000
14926KSTC STC20010808054011008/08/01 05:40:31  5-MIN KSTC 081140Z AUTO 23003KT 7SM CLR 23/22 A2995 1000 93 2200 230/03 RMK AO2 RAE03 P0000
14926KSTC STC20010808054511008/08/01 05:45:31  5-MIN KSTC 081145Z AUTO 00000KT 7SM CLR 23/22 A2995 1000 90 2200 000/00 RMK AO2 RAE03 P0000
14926KSTC STC20010808055015708/08/01 05:50:31  5-MIN KSTC 081150Z AUTO 20004KT 8SM CLR 23/22 A2995 1000 93 2200 200/04 RMK AO2 RAE03 SLP140 P0000 60007 70007 T02330222 10267 20228 56007
14926KSTC STC20010808055509808/08/01 05:55:31  5-MIN KSTC 081155Z AUTO 24003KT 8SM CLR 23/22 A2995 1000 93 2200 240/03 RMK AO2
14926KSTC STC20010808060009808/08/01 06:00:31  5-MIN KSTC 081200Z AUTO 21004KT 8SM CLR 23/22 A2995 1000 93 2200 210/04 RMK AO2
14926KSTC STC20010808060509808/08/01 06:05:31  5-MIN KSTC 081205Z AUTO 18004KT 8SM CLR 23/22 A2994 1000 93 2200 180/04 RMK AO2
14926KSTC STC20010808061009808/08/01 06:10:31  5-MIN KSTC 081210Z AUTO 00000KT 7SM CLR 23/22 A2995 1000 93 2200 000/00 RMK AO2
14926KSTC STC20010808061510108/08/01 06:15:31  5-MIN KSTC 081215Z AUTO 16005KT 6SM BR CLR 23/23 A2993 1010 97 2300 160/05 RMK AO2
14926KSTC STC20010808062010108/08/01 06:20:31  5-MIN KSTC 081220Z AUTO 17003KT 6SM BR CLR 23/23 A2994 1010 97 2200 170/03 RMK AO2
14926KSTC STC20010808062509808/08/01 06:25:31  5-MIN KSTC 081225Z AUTO 00000KT 7SM CLR 24/22 A2994 1000 90 2300 000/00 RMK AO2
14926KSTC STC20010808063009808/08/01 06:30:31  5-MIN KSTC 081230Z AUTO 00000KT 8SM CLR 24/22 A2994 1010 90 2300 000/00 RMK AO2
14926KSTC STC20010808063509808/08/01 06:35:31  5-MIN KSTC 081235Z AUTO 18005KT 8SM CLR 24/22 A2994 1010 90 2300 180/05 RMK AO2
14926KSTC STC20010808064009808/08/01 06:40:31  5-MIN KSTC 081240Z AUTO 19007KT 9SM CLR 24/22 A2994 1010 90 2300 180/07 RMK AO2
14926KSTC STC20010808064509808/08/01 06:45:31  5-MIN KSTC 081245Z AUTO 19005KT 9SM CLR 24/22 A2994 1010 87 2300 190/05 RMK AO2
14926KSTC STC20010808065011608/08/01 06:50:31  5-MIN KSTC 081250Z AUTO 18006KT 10SM CLR 24/22 A2994 1010 84 2400 180/06 RMK AO2 SLP137 T02440217
14926KSTC STC20010808065509908/08/01 06:55:31  5-MIN KSTC 081255Z AUTO 18008KT 10SM CLR 24/22 A2994 1010 84 2400 170/08 RMK AO2
14926KSTC STC20010808070009908/08/01 07:00:31  5-MIN KSTC 081300Z AUTO 18005KT 10SM CLR 24/22 A2994 1010 84 2400 180/05 RMK AO2
14926KSTC STC20010808070509908/08/01 07:05:31  5-MIN KSTC 081305Z AUTO 18007KT 10SM CLR 25/22 A2994 1010 81 2400 170/07 RMK AO2
14926KSTC STC20010808071009908/08/01 07:10:31  5-MIN KSTC 081310Z AUTO 17005KT 10SM CLR 25/22 A2994 1000 81 2400 160/05 RMK AO2
14926KSTC STC20010808071509908/08/01 07:15:31  5-MIN KSTC 081315Z AUTO 16004KT 10SM CLR 25/21 A2995 1000 79 2400 160/04 RMK AO2
14926KSTC STC20010808072009908/08/01 07:20:31  5-MIN KSTC 081320Z AUTO 17004KT 10SM CLR 26/22 A2994 1010 79 2500 160/04 RMK AO2
14926KSTC STC20010808072509908/08/01 07:25:31  5-MIN KSTC 081325Z AUTO 15006KT 10SM CLR 26/22 A2994 1010 79 2500 140/06 RMK AO2
14926KSTC STC20010808073009908/08/01 07:30:31  5-MIN KSTC 081330Z AUTO 16005KT 10SM CLR 26/22 A2994 1010 79 2500 150/05 RMK AO2
14926KSTC STC20010808073509908/08/01 07:35:31  5-MIN KSTC 081335Z AUTO 17006KT 10SM CLR 26/22 A2993 1010 79 2500 170/06 RMK AO2
14926KSTC STC20010808074009908/08/01 07:40:31  5-MIN KSTC 081340Z AUTO 19006KT 10SM CLR 26/21 A2994 1010 76 2500 180/06 RMK AO2
14926KSTC STC20010808074509908/08/01 07:45:31  5-MIN KSTC 081345Z AUTO 19007KT 10SM CLR 26/21 A2993 1010 73 2600 190/07 RMK AO2
14926KSTC STC20010808075011608/08/01 07:50:31  5-MIN KSTC 081350Z AUTO 18009KT 10SM CLR 26/21 A2993 1020 73 2600 180/09 RMK AO2 SLP135 T02610211
14926KSTC STC20010808075509908/08/01 07:55:31  5-MIN KSTC 081355Z AUTO 19009KT 10SM CLR 26/21 A2993 1020 73 2600 190/09 RMK AO2
14926KSTC STC20010808080009908/08/01 08:00:31  5-MIN KSTC 081400Z AUTO 19010KT 10SM CLR 26/21 A2992 1020 73 2600 190/10 RMK AO2
14926KSTC STC20010808080509908/08/01 08:05:31  5-MIN KSTC 081405Z AUTO 19010KT 10SM CLR 26/21 A2992 1030 73 2600 190/10 RMK AO2
14926KSTC STC20010808081009908/08/01 08:10:31  5-MIN KSTC 081410Z AUTO 19010KT 10SM CLR 27/21 A2992 1020 69 2600 190/10 RMK AO2
14926KSTC STC20010808081509908/08/01 08:15:31  5-MIN KSTC 081415Z AUTO 19010KT 10SM CLR 27/21 A2992 1030 69 2600 190/10 RMK AO2
14926KSTC STC20010808082009908/08/01 08:20:31  5-MIN KSTC 081420Z AUTO 19008KT 10SM CLR 27/21 A2992 1020 69 2700 190/08 RMK AO2
14926KSTC STC20010808082509908/08/01 08:25:31  5-MIN KSTC 081425Z AUTO 20010KT 10SM CLR 27/21 A2992 1030 69 2600 200/10 RMK AO2
14926KSTC STC20010808083009908/08/01 08:30:31  5-MIN KSTC 081430Z AUTO 20011KT 10SM CLR 27/21 A2992 1030 66 2700 190/11 RMK AO2
14926KSTC STC20010808083509908/08/01 08:35:31  5-MIN KSTC 081435Z AUTO 18010KT 10SM CLR 27/21 A2992 1030 66 2700 180/10 RMK AO2
14926KSTC STC20010808084009908/08/01 08:40:31  5-MIN KSTC 081440Z AUTO 18011KT 10SM CLR 27/21 A2991 1030 66 2700 180/11 RMK AO2
14926KSTC STC20010808084509908/08/01 08:45:31  5-MIN KSTC 081445Z AUTO 19011KT 10SM CLR 28/21 A2991 1030 64 2800 190/11 RMK AO2
14926KSTC STC20010808085012208/08/01 08:50:31  5-MIN KSTC 081450Z AUTO 19012KT 10SM CLR 28/21 A2991 1030 64 2800 190/12 RMK AO2 SLP129 T02780206 50002
14926KSTC STC20010808085509908/08/01 08:55:31  5-MIN KSTC 081455Z AUTO 19012KT 10SM CLR 28/20 A2991 1040 62 2800 190/12 RMK AO2
14926KSTC STC20010808090009908/08/01 09:00:31  5-MIN KSTC 081500Z AUTO 19009KT 10SM CLR 28/21 A2991 1040 62 2800 190/09 RMK AO2
14926KSTC STC20010808090509908/08/01 09:05:31  5-MIN KSTC 081505Z AUTO 20010KT 10SM CLR 28/20 A2991 1030 60 2800 190/10 RMK AO2
14926KSTC STC20010808091009908/08/01 09:10:31  5-MIN KSTC 081510Z AUTO 20012KT 10SM CLR 28/20 A2991 1030 60 2800 190/12 RMK AO2
14926KSTC STC20010808091509908/08/01 09:15:31  5-MIN KSTC 081515Z AUTO 19012KT 10SM CLR 29/20 A2991 1040 58 2900 190/12 RMK AO2
14926KSTC STC20010808092009908/08/01 09:20:31  5-MIN KSTC 081520Z AUTO 19013KT 10SM CLR 28/20 A2991 1030 60 2800 190/13 RMK AO2
14926KSTC STC20010808092509908/08/01 09:25:31  5-MIN KSTC 081525Z AUTO 19012KT 10SM CLR 29/21 A2991 1030 60 2900 190/12 RMK AO2
14926KSTC STC20010808093009908/08/01 09:30:31  5-MIN KSTC 081530Z AUTO 20013KT 10SM CLR 29/21 A2991 1030 60 2900 200/13 RMK AO2
14926KSTC STC20010808093509908/08/01 09:35:31  5-MIN KSTC 081535Z AUTO 20011KT 10SM CLR 29/20 A2992 1030 58 2900 200/11 RMK AO2
14926KSTC STC20010808094009908/08/01 09:40:31  5-MIN KSTC 081540Z AUTO 21010KT 10SM CLR 30/21 A2992 1030 56 3000 210/10 RMK AO2
14926KSTC STC20010808094509908/08/01 09:45:31  5-MIN KSTC 081545Z AUTO 19010KT 10SM CLR 29/21 A2992 1030 58 3000 190/10 RMK AO2
14926KSTC STC20010808095011608/08/01 09:50:31  5-MIN KSTC 081550Z AUTO 21011KT 10SM CLR 29/20 A2992 1030 56 3000 200/11 RMK AO2 SLP131 T02940200
14926KSTC STC20010808095509908/08/01 09:55:31  5-MIN KSTC 081555Z AUTO 20009KT 10SM CLR 29/20 A2992 1030 56 3000 190/09 RMK AO2
14926KSTC STC20010808100009908/08/01 10:00:31  5-MIN KSTC 081600Z AUTO 21012KT 10SM CLR 30/20 A2992 1030 54 3000 210/12 RMK AO2
14926KSTC STC20010808100509908/08/01 10:05:31  5-MIN KSTC 081605Z AUTO 20011KT 10SM CLR 30/20 A2991 1040 54 3000 200/11 RMK AO2
14926KSTC STC20010808101009908/08/01 10:10:31  5-MIN KSTC 081610Z AUTO 20013KT 10SM CLR 30/20 A2991 1040 54 3000 200/13 RMK AO2
14926KSTC STC20010808101509908/08/01 10:15:31  5-MIN KSTC 081615Z AUTO 20013KT 10SM CLR 30/20 A2991 1040 54 3000 200/13 RMK AO2
14926KSTC STC20010808102009908/08/01 10:20:31  5-MIN KSTC 081620Z AUTO 19012KT 10SM CLR 30/20 A2991 1040 54 3000 190/12 RMK AO2
14926KSTC STC20010808102509908/08/01 10:25:31  5-MIN KSTC 081625Z AUTO 19011KT 10SM CLR 30/20 A2991 1040 54 3000 190/11 RMK AO2
14926KSTC STC20010808103009908/08/01 10:30:31  5-MIN KSTC 081630Z AUTO 19010KT 10SM CLR 31/20 A2991 1040 52 3100 190/10 RMK AO2
14926KSTC STC20010808103509908/08/01 10:35:31  5-MIN KSTC 081635Z AUTO 19012KT 10SM CLR 31/20 A2990 1040 52 3100 180/12 RMK AO2
14926KSTC STC20010808104009908/08/01 10:40:31  5-MIN KSTC 081640Z AUTO 19012KT 10SM CLR 31/20 A2990 1040 52 3100 190/12 RMK AO2
14926KSTC STC20010808104509908/08/01 10:45:31  5-MIN KSTC 081645Z AUTO 20013KT 10SM CLR 31/20 A2990 1040 51 3200 190/13 RMK AO2
14926KSTC STC20010808105011608/08/01 10:50:31  5-MIN KSTC 081650Z AUTO 21013KT 10SM CLR 31/20 A2990 1040 52 3100 200/13 RMK AO2 SLP124 T03060200
14926KSTC STC20010808105509908/08/01 10:55:31  5-MIN KSTC 081655Z AUTO 20011KT 10SM CLR 31/20 A2990 1050 51 3200 200/11 RMK AO2
14926KSTC STC20010808110009908/08/01 11:00:31  5-MIN KSTC 081700Z AUTO 20010KT 10SM CLR 31/21 A2990 1050 53 3200 200/10 RMK AO2
14926KSTC STC20010808110509908/08/01 11:05:31  5-MIN KSTC 081705Z AUTO 19011KT 10SM CLR 31/21 A2990 1050 53 3200 180/11 RMK AO2
14926KSTC STC20010808111009908/08/01 11:10:31  5-MIN KSTC 081710Z AUTO 18011KT 10SM CLR 32/21 A2989 1050 51 3200 180/11 RMK AO2
14926KSTC STC20010808111509908/08/01 11:15:31  5-MIN KSTC 081715Z AUTO 17011KT 10SM CLR 32/21 A2989 1050 51 3200 170/11 RMK AO2
14926KSTC STC20010808112009908/08/01 11:20:31  5-MIN KSTC 081720Z AUTO 19013KT 10SM CLR 31/21 A2989 1050 53 3200 190/13 RMK AO2
14926KSTC STC20010808112509908/08/01 11:25:31  5-MIN KSTC 081725Z AUTO 18014KT 10SM CLR 32/21 A2989 1060 51 3200 180/14 RMK AO2
14926KSTC STC20010808113009908/08/01 11:30:31  5-MIN KSTC 081730Z AUTO 19014KT 10SM CLR 32/21 A2989 1060 51 3200 190/14 RMK AO2
14926KSTC STC20010808113509908/08/01 11:35:31  5-MIN KSTC 081735Z AUTO 18013KT 10SM CLR 32/21 A2988 1060 49 3300 170/13 RMK AO2
14926KSTC STC20010808114009908/08/01 11:40:31  5-MIN KSTC 081740Z AUTO 18013KT 10SM CLR 32/21 A2988 1060 49 3300 170/13 RMK AO2
14926KSTC STC20010808114509908/08/01 11:45:31  5-MIN KSTC 081745Z AUTO 17013KT 10SM CLR 32/21 A2988 1060 49 3300 170/13 RMK AO2
14926KSTC STC20010808115013408/08/01 11:50:31  5-MIN KSTC 081750Z AUTO 19013KT 10SM CLR 32/21 A2988 1060 49 3300 190/13 RMK AO2 SLP119 T03220206 10322 20233 58013
14926KSTC STC20010808115509908/08/01 11:55:31  5-MIN KSTC 081755Z AUTO 18012KT 10SM CLR 32/21 A2988 1060 49 3300 180/12 RMK AO2
14926KSTC STC20010808120009908/08/01 12:00:31  5-MIN KSTC 081800Z AUTO 19013KT 10SM CLR 32/21 A2988 1070 51 3300 190/13 RMK AO2
14926KSTC STC20010808120509908/08/01 12:05:31  5-MIN KSTC 081805Z AUTO 20012KT 10SM CLR 33/21 A2987 1070 49 3400 190/12 RMK AO2
14926KSTC STC20010808121009908/08/01 12:10:31  5-MIN KSTC 081810Z AUTO 19012KT 10SM CLR 33/21 A2987 1070 48 3400 190/12 RMK AO2
14926KSTC STC20010808121509908/08/01 12:15:31  5-MIN KSTC 081815Z AUTO 18012KT 10SM CLR 33/21 A2987 1070 49 3400 180/12 RMK AO2
14926KSTC STC20010808122009908/08/01 12:20:31  5-MIN KSTC 081820Z AUTO 19012KT 10SM CLR 33/21 A2987 1070 48 3400 190/12 RMK AO2
14926KSTC STC20010808122509908/08/01 12:25:31  5-MIN KSTC 081825Z AUTO 20011KT 10SM CLR 33/21 A2987 1070 48 3400 190/11 RMK AO2
14926KSTC STC20010808123009908/08/01 12:30:31  5-MIN KSTC 081830Z AUTO 18012KT 10SM CLR 33/21 A2987 1070 49 3400 180/12 RMK AO2
14926KSTC STC20010808123509908/08/01 12:35:31  5-MIN KSTC 081835Z AUTO 19014KT 10SM CLR 33/21 A2987 1070 49 3400 190/14 RMK AO2
14926KSTC STC20010808124009908/08/01 12:40:31  5-MIN KSTC 081840Z AUTO 20014KT 10SM CLR 33/21 A2987 1070 46 3400 200/14 RMK AO2
14926KSTC STC20010808124509908/08/01 12:45:31  5-MIN KSTC 081845Z AUTO 21013KT 10SM CLR 33/21 A2987 1070 46 3400 200/13 RMK AO2
14926KSTC STC20010808125011608/08/01 12:50:31  5-MIN KSTC 081850Z AUTO 21012KT 10SM CLR 33/21 A2987 1080 48 3400 210/12 RMK AO2 SLP113 T03330211
14926KSTC STC20010808125509908/08/01 12:55:31  5-MIN KSTC 081855Z AUTO 19010KT 10SM CLR 33/21 A2986 1080 48 3400 190/10 RMK AO2
14926KSTC STC20010808130009908/08/01 13:00:31  5-MIN KSTC 081900Z AUTO 19011KT 10SM CLR 33/21 A2986 1080 49 3400 180/11 RMK AO2
14926KSTC STC20010808130509908/08/01 13:05:31  5-MIN KSTC 081905Z AUTO 18012KT 10SM CLR 33/21 A2986 1080 48 3400 180/12 RMK AO2
14926KSTC STC20010808131009908/08/01 13:10:31  5-MIN KSTC 081910Z AUTO 20011KT 10SM CLR 33/21 A2986 1080 48 3400 200/11 RMK AO2
14926KSTC STC20010808131509908/08/01 13:15:31  5-MIN KSTC 081915Z AUTO 20012KT 10SM CLR 34/21 A2986 1080 46 3500 200/12 RMK AO2
14926KSTC STC20010808132009908/08/01 13:20:31  5-MIN KSTC 081920Z AUTO 20011KT 10SM CLR 34/21 A2986 1090 46 3500 200/11 RMK AO2
14926KSTC STC20010808132509908/08/01 13:25:31  5-MIN KSTC 081925Z AUTO 19012KT 10SM CLR 33/21 A2985 1090 48 3500 190/12 RMK AO2
14926KSTC STC20010808133009908/08/01 13:30:31  5-MIN KSTC 081930Z AUTO 20014KT 10SM CLR 34/21 A2985 1090 46 3500 190/14 RMK AO2
14926KSTC STC20010808133509908/08/01 13:35:31  5-MIN KSTC 081935Z AUTO 21012KT 10SM CLR 34/21 A2985 1090 45 3500 210/12 RMK AO2
14926KSTC STC20010808134009908/08/01 13:40:31  5-MIN KSTC 081940Z AUTO 19014KT 10SM CLR 34/21 A2984 1100 46 3500 190/14 RMK AO2
14926KSTC STC20010808134509908/08/01 13:45:31  5-MIN KSTC 081945Z AUTO 19015KT 10SM CLR 34/21 A2984 1100 46 3500 180/15 RMK AO2
14926KSTC STC20010808135011608/08/01 13:50:31  5-MIN KSTC 081950Z AUTO 19015KT 10SM CLR 34/21 A2984 1110 46 3500 190/15 RMK AO2 SLP102 T03390211
14926KSTC STC20010808135509908/08/01 13:55:31  5-MIN KSTC 081955Z AUTO 20015KT 10SM CLR 34/21 A2983 1110 46 3500 190/15 RMK AO2
14926KSTC STC20010808140009908/08/01 14:00:31  5-MIN KSTC 082000Z AUTO 20015KT 10SM CLR 33/21 A2983 1110 48 3500 200/15 RMK AO2
14926KSTC STC20010808140509908/08/01 14:05:31  5-MIN KSTC 082005Z AUTO 20014KT 10SM CLR 34/21 A2983 1110 46 3500 190/14 RMK AO2
14926KSTC STC20010808141010508/08/01 14:10:31  5-MIN KSTC 082010Z AUTO 20015G21KT 10SM CLR 34/22 A2983 1110 46 3600 190/15G21 RMK AO2
14926KSTC STC20010808141510508/08/01 14:15:31  5-MIN KSTC 082015Z AUTO 19016G21KT 10SM CLR 34/21 A2983 1110 45 3500 190/16G21 RMK AO2
14926KSTC STC20010808142009908/08/01 14:20:31  5-MIN KSTC 082020Z AUTO 20015KT 10SM CLR 34/21 A2982 1120 46 3500 190/15 RMK AO2
14926KSTC STC20010808142509908/08/01 14:25:31  5-MIN KSTC 082025Z AUTO 19017KT 10SM CLR 34/21 A2982 1120 46 3600 190/17 RMK AO2
14926KSTC STC20010808143009908/08/01 14:30:31  5-MIN KSTC 082030Z AUTO 19016KT 10SM CLR 34/21 A2982 1120 46 3600 190/16 RMK AO2
14926KSTC STC20010808143509908/08/01 14:35:31  5-MIN KSTC 082035Z AUTO 20017KT 10SM CLR 34/21 A2982 1120 46 3600 190/17 RMK AO2
14926KSTC STC20010808144009908/08/01 14:40:31  5-MIN KSTC 082040Z AUTO 20014KT 10SM CLR 34/21 A2982 1120 46 3600 190/14 RMK AO2
14926KSTC STC20010808144509908/08/01 14:45:31  5-MIN KSTC 082045Z AUTO 20014KT 10SM CLR 34/21 A2982 1120 46 3600 190/14 RMK AO2
14926KSTC STC20010808145012208/08/01 14:50:31  5-MIN KSTC 082050Z AUTO 21015KT 10SM CLR 34/21 A2982 1120 45 3600 200/15 RMK AO2 SLP095 T03440211 58009
14926KSTC STC20010808145509908/08/01 14:55:31  5-MIN KSTC 082055Z AUTO 20012KT 10SM CLR 34/21 A2982 1120 45 3600 190/12 RMK AO2
14926KSTC STC20010808150009908/08/01 15:00:31  5-MIN KSTC 082100Z AUTO 20013KT 10SM CLR 34/21 A2982 1120 45 3600 190/13 RMK AO2
14926KSTC STC20010808150509908/08/01 15:05:31  5-MIN KSTC 082105Z AUTO 19015KT 10SM CLR 34/21 A2982 1120 45 3600 190/15 RMK AO2
14926KSTC STC20010808151009908/08/01 15:10:31  5-MIN KSTC 082110Z AUTO 21013KT 10SM CLR 34/21 A2982 1120 45 3600 200/13 RMK AO2
14926KSTC STC20010808151510508/08/01 15:15:31  5-MIN KSTC 082115Z AUTO 19014G20KT 10SM CLR 34/21 A2982 1120 45 3600 190/14G20 RMK AO2
14926KSTC STC20010808152010508/08/01 15:20:31  5-MIN KSTC 082120Z AUTO 20013G20KT 10SM CLR 34/21 A2982 1120 45 3600 200/13G20 RMK AO2
14926KSTC STC20010808152509908/08/01 15:25:31  5-MIN KSTC 082125Z AUTO 22015KT 10SM CLR 34/21 A2982 1120 43 3600 210/15 RMK AO2
14926KSTC STC20010808153010508/08/01 15:30:31  5-MIN KSTC 082130Z AUTO 21017G20KT 10SM CLR 34/19 A2982 1120 40 3600 200/17G20 RMK AO2
14926KSTC STC20010808153510508/08/01 15:35:31  5-MIN KSTC 082135Z AUTO 21014G22KT 10SM CLR 34/20 A2982 1120 43 3600 210/14G22 RMK AO2
14926KSTC STC20010808154010508/08/01 15:40:31  5-MIN KSTC 082140Z AUTO 20017G22KT 10SM CLR 34/20 A2982 1120 43 3600 200/17G22 RMK AO2
14926KSTC STC20010808154510508/08/01 15:45:31  5-MIN KSTC 082145Z AUTO 21015G22KT 10SM CLR 34/19 A2982 1120 40 3600 200/15G22 RMK AO2
14926KSTC STC20010808155011608/08/01 15:50:31  5-MIN KSTC 082150Z AUTO 20015KT 10SM CLR 34/20 A2982 1120 43 3600 200/15 RMK AO2 SLP096 T03390200
14926KSTC STC20010808155510508/08/01 15:55:31  5-MIN KSTC 082155Z AUTO 21017G21KT 10SM CLR 34/19 A2982 1120 42 3600 210/17G21 RMK AO2
14926KSTC STC20010808160009908/08/01 16:00:31  5-MIN KSTC 082200Z AUTO 20017KT 10SM CLR 33/19 A2982 1120 43 3500 190/17 RMK AO2
14926KSTC STC20010808160510508/08/01 16:05:31  5-MIN KSTC 082205Z AUTO 20016G22KT 10SM CLR 33/19 A2982 1120 43 3500 200/16G22 RMK AO2
14926KSTC STC20010808161010508/08/01 16:10:31  5-MIN KSTC 082210Z AUTO 21015G22KT 10SM CLR 33/19 A2982 1120 43 3500 210/15G22 RMK AO2
14926KSTC STC20010808161509908/08/01 16:15:31  5-MIN KSTC 082215Z AUTO 20017KT 10SM CLR 33/19 A2982 1120 43 3500 200/17 RMK AO2
14926KSTC STC20010808162009908/08/01 16:20:31  5-MIN KSTC 082220Z AUTO 20017KT 10SM CLR 33/19 A2982 1120 43 3500 200/17 RMK AO2
14926KSTC STC20010808162509908/08/01 16:25:31  5-MIN KSTC 082225Z AUTO 21015KT 10SM CLR 33/19 A2982 1120 43 3500 210/15 RMK AO2
14926KSTC STC20010808163010508/08/01 16:30:31  5-MIN KSTC 082230Z AUTO 21016G22KT 10SM CLR 33/19 A2982 1120 43 3500 210/16G22 RMK AO2
14926KSTC STC20010808163510508/08/01 16:35:31  5-MIN KSTC 082235Z AUTO 21013G22KT 10SM CLR 33/19 A2982 1120 43 3500 210/13G22 RMK AO2
14926KSTC STC20010808164009908/08/01 16:40:31  5-MIN KSTC 082240Z AUTO 20014KT 10SM CLR 33/19 A2983 1110 42 3500 200/14 RMK AO2
14926KSTC STC20010808164509908/08/01 16:45:31  5-MIN KSTC 082245Z AUTO 20016KT 10SM CLR 33/19 A2983 1110 43 3400 200/16 RMK AO2
14926KSTC STC20010808165012208/08/01 16:50:31  5-MIN KSTC 082250Z AUTO 21016G20KT 10SM CLR 33/19 A2982 1120 44 3400 200/16G20 RMK AO2 SLP099 T03280194
14926KSTC STC20010808165510508/08/01 16:55:31  5-MIN KSTC 082255Z AUTO 21013G20KT 10SM CLR 33/19 A2982 1120 43 3400 210/13G20 RMK AO2
14926KSTC STC20010808170009908/08/01 17:00:31  5-MIN KSTC 082300Z AUTO 20015KT 10SM CLR 33/19 A2982 1120 44 3400 200/15 RMK AO2
14926KSTC STC20010808170509908/08/01 17:05:31  5-MIN KSTC 082305Z AUTO 21012KT 10SM CLR 33/19 A2982 1120 44 3400 200/12 RMK AO2
14926KSTC STC20010808171009908/08/01 17:10:31  5-MIN KSTC 082310Z AUTO 20014KT 10SM CLR 32/19 A2982 1120 46 3400 200/14 RMK AO2
14926KSTC STC20010808171509908/08/01 17:15:31  5-MIN KSTC 082315Z AUTO 21012KT 10SM CLR 32/19 A2982 1120 44 3400 210/12 RMK AO2
14926KSTC STC20010808172009908/08/01 17:20:31  5-MIN KSTC 082320Z AUTO 21013KT 10SM CLR 32/19 A2982 1120 46 3400 200/13 RMK AO2
14926KSTC STC20010808172509908/08/01 17:25:31  5-MIN KSTC 082325Z AUTO 20014KT 10SM CLR 32/20 A2982 1120 48 3400 200/14 RMK AO2
14926KSTC STC20010808173009908/08/01 17:30:31  5-MIN KSTC 082330Z AUTO 20014KT 10SM CLR 32/20 A2982 1120 48 3400 200/14 RMK AO2
14926KSTC STC20010808173509908/08/01 17:35:31  5-MIN KSTC 082335Z AUTO 20012KT 10SM CLR 32/21 A2981 1120 51 3300 200/12 RMK AO2
14926KSTC STC20010808174009908/08/01 17:40:31  5-MIN KSTC 082340Z AUTO 19016KT 10SM CLR 32/20 A2981 1120 49 3300 190/16 RMK AO2
14926KSTC STC20010808174510508/08/01 17:45:31  5-MIN KSTC 082345Z AUTO 20013G17KT 10SM CLR 32/20 A2981 1130 49 3300 190/13G17 RMK AO2
14926KSTC STC20010808175013408/08/01 17:50:31  5-MIN KSTC 082350Z AUTO 20012KT 10SM CLR 32/20 A2981 1130 49 3300 190/12 RMK AO2 SLP094 T03170200 10344 20317 56022
14926KSTC STC20010808175509908/08/01 17:55:31  5-MIN KSTC 082355Z AUTO 19012KT 10SM CLR 32/20 A2981 1130 49 3300 190/12 RMK AO2
14926KSTC STC20010808180009908/08/01 18:00:31  5-MIN KSTC 090000Z AUTO 19011KT 10SM CLR 31/20 A2981 1130 51 3300 190/11 RMK AO2
14926KSTC STC20010808180509908/08/01 18:05:31  5-MIN KSTC 090005Z AUTO 19011KT 10SM CLR 31/20 A2980 1140 51 3300 190/11 RMK AO2
14926KSTC STC20010808181009908/08/01 18:10:31  5-MIN KSTC 090010Z AUTO 19012KT 10SM CLR 31/20 A2980 1140 51 3300 190/12 RMK AO2
14926KSTC STC20010808181509908/08/01 18:15:31  5-MIN KSTC 090015Z AUTO 19012KT 10SM CLR 31/20 A2979 1140 52 3200 190/12 RMK AO2
14926KSTC STC20010808182009908/08/01 18:20:31  5-MIN KSTC 090020Z AUTO 19012KT 10SM CLR 31/20 A2979 1150 52 3200 190/12 RMK AO2
14926KSTC STC20010808182509908/08/01 18:25:31  5-MIN KSTC 090025Z AUTO 19011KT 10SM CLR 31/20 A2979 1150 52 3200 190/11 RMK AO2
14926KSTC STC20010808183009908/08/01 18:30:31  5-MIN KSTC 090030Z AUTO 19015KT 10SM CLR 31/20 A2979 1150 52 3200 190/15 RMK AO2
14926KSTC STC20010808183509908/08/01 18:35:31  5-MIN KSTC 090035Z AUTO 19011KT 10SM CLR 30/19 A2978 1150 52 3200 190/11 RMK AO2
14926KSTC STC20010808184009908/08/01 18:40:31  5-MIN KSTC 090040Z AUTO 19011KT 10SM CLR 30/20 A2978 1150 54 3200 190/11 RMK AO2
14926KSTC STC20010808184509908/08/01 18:45:31  5-MIN KSTC 090045Z AUTO 19011KT 10SM CLR 30/19 A2978 1160 52 3200 190/11 RMK AO2
14926KSTC STC20010808185011608/08/01 18:50:31  5-MIN KSTC 090050Z AUTO 19010KT 10SM CLR 29/20 A2978 1160 56 3100 180/10 RMK AO2 SLP084 T02940200
14926KSTC STC20010808185509908/08/01 18:55:31  5-MIN KSTC 090055Z AUTO 19010KT 10SM CLR 29/20 A2978 1160 56 3100 180/10 RMK AO2
14926KSTC STC20010808190009908/08/01 19:00:31  5-MIN KSTC 090100Z AUTO 18009KT 10SM CLR 29/20 A2978 1160 56 3100 180/09 RMK AO2
14926KSTC STC20010808190509908/08/01 19:05:31  5-MIN KSTC 090105Z AUTO 18010KT 10SM CLR 29/21 A2978 1160 60 3100 180/10 RMK AO2
14926KSTC STC20010808191009908/08/01 19:10:31  5-MIN KSTC 090110Z AUTO 18010KT 10SM CLR 29/21 A2978 1160 60 3100 180/10 RMK AO2
14926KSTC STC20010808191509908/08/01 19:15:31  5-MIN KSTC 090115Z AUTO 18009KT 10SM CLR 29/21 A2978 1160 60 3100 180/09 RMK AO2
14926KSTC STC20010808192009908/08/01 19:20:31  5-MIN KSTC 090120Z AUTO 18011KT 10SM CLR 28/21 A2977 1160 62 3000 180/11 RMK AO2
14926KSTC STC20010808192509908/08/01 19:25:31  5-MIN KSTC 090125Z AUTO 19009KT 10SM CLR 28/21 A2977 1160 62 3000 180/09 RMK AO2
14926KSTC STC20010808193009908/08/01 19:30:31  5-MIN KSTC 090130Z AUTO 19008KT 10SM CLR 28/21 A2977 1160 62 3000 180/08 RMK AO2
14926KSTC STC20010808193509908/08/01 19:35:31  5-MIN KSTC 090135Z AUTO 18007KT 10SM CLR 28/21 A2977 1160 64 2900 180/07 RMK AO2
14926KSTC STC20010808194009908/08/01 19:40:31  5-MIN KSTC 090140Z AUTO 18008KT 10SM CLR 28/21 A2977 1170 64 2900 180/08 RMK AO2
14926KSTC STC20010808194509908/08/01 19:45:31  5-MIN KSTC 090145Z AUTO 18008KT 10SM CLR 27/21 A2977 1170 66 2900 180/08 RMK AO2
14926KSTC STC20010808195011608/08/01 19:50:31  5-MIN KSTC 090150Z AUTO 19008KT 10SM CLR 27/21 A2977 1160 66 2900 180/08 RMK AO2 SLP081 T02720206
14926KSTC STC20010808195509908/08/01 19:55:31  5-MIN KSTC 090155Z AUTO 18007KT 10SM CLR 27/21 A2977 1170 66 2900 180/07 RMK AO2
14926KSTC STC20010808200009908/08/01 20:00:31  5-MIN KSTC 090200Z AUTO 18007KT 10SM CLR 27/21 A2977 1170 69 2800 170/07 RMK AO2
14926KSTC STC20010808200509908/08/01 20:05:31  5-MIN KSTC 090205Z AUTO 17006KT 10SM CLR 27/21 A2977 1160 69 2800 170/06 RMK AO2
14926KSTC STC20010808201009908/08/01 20:10:31  5-MIN KSTC 090210Z AUTO 18006KT 10SM CLR 26/21 A2977 1160 73 2700 170/06 RMK AO2
14926KSTC STC20010808201509908/08/01 20:15:31  5-MIN KSTC 090215Z AUTO 18005KT 10SM CLR 26/21 A2977 1160 73 2700 170/05 RMK AO2
14926KSTC STC20010808202009908/08/01 20:20:31  5-MIN KSTC 090220Z AUTO 17005KT 10SM CLR 26/21 A2977 1160 76 2700 170/05 RMK AO2
14926KSTC STC20010808202509908/08/01 20:25:31  5-MIN KSTC 090225Z AUTO 17005KT 10SM CLR 25/21 A2977 1160 79 2600 170/05 RMK AO2
14926KSTC STC20010808203009908/08/01 20:30:31  5-MIN KSTC 090230Z AUTO 17005KT 10SM CLR 24/21 A2977 1170 81 2600 170/05 RMK AO2
14926KSTC STC20010808203509908/08/01 20:35:31  5-MIN KSTC 090235Z AUTO 17006KT 10SM CLR 24/21 A2976 1170 81 2600 160/06 RMK AO2
14926KSTC STC20010808204009908/08/01 20:40:31  5-MIN KSTC 090240Z AUTO 17006KT 10SM CLR 24/21 A2976 1170 81 2600 160/06 RMK AO2
14926KSTC STC20010808204509908/08/01 20:45:31  5-MIN KSTC 090245Z AUTO 16006KT 10SM CLR 24/22 A2976 1180 84 2600 160/06 RMK AO2
14926KSTC STC20010808205012208/08/01 20:50:31  5-MIN KSTC 090250Z AUTO 16006KT 10SM CLR 24/22 A2976 1180 84 2600 160/06 RMK AO2 SLP077 T02440217 58003
14926KSTC STC20010808205509908/08/01 20:55:31  5-MIN KSTC 090255Z AUTO 15005KT 10SM CLR 24/22 A2975 1180 84 2600 150/05 RMK AO2
14926KSTC STC20010808210009908/08/01 21:00:31  5-MIN KSTC 090300Z AUTO 15004KT 10SM CLR 24/22 A2976 1180 84 2600 150/04 RMK AO2
14926KSTC STC20010808210509908/08/01 21:05:31  5-MIN KSTC 090305Z AUTO 15004KT 10SM CLR 25/22 A2976 1170 81 2600 150/04 RMK AO2
14926KSTC STC20010808211009908/08/01 21:10:31  5-MIN KSTC 090310Z AUTO 16004KT 10SM CLR 24/22 A2976 1170 84 2600 160/04 RMK AO2
14926KSTC STC20010808211509908/08/01 21:15:31  5-MIN KSTC 090315Z AUTO 16004KT 10SM CLR 24/22 A2976 1170 84 2600 160/04 RMK AO2
14926KSTC STC20010808212009808/08/01 21:20:31  5-MIN KSTC 090320Z AUTO 17005KT 9SM CLR 24/22 A2977 1170 87 2500 170/05 RMK AO2
14926KSTC STC20010808212509808/08/01 21:25:31  5-MIN KSTC 090325Z AUTO 19004KT 9SM CLR 24/22 A2977 1170 87 2500 190/04 RMK AO2
14926KSTC STC20010808213009808/08/01 21:30:31  5-MIN KSTC 090330Z AUTO 20006KT 9SM CLR 24/22 A2977 1170 84 2600 190/06 RMK AO2
14926KSTC STC20010808213509808/08/01 21:35:31  5-MIN KSTC 090335Z AUTO 21006KT 9SM CLR 24/22 A2978 1160 84 2600 210/06 RMK AO2
14926KSTC STC20010808214010508/08/01 21:40:31  5-MIN KSTC 090340Z AUTO 22005KT 9SM CLR 24/22 A2979 1150 87 2500 220/05 RMK AO2 PRESRR
14926KSTC STC20010808214510508/08/01 21:45:31  5-MIN KSTC 090345Z AUTO 23004KT 9SM CLR 24/22 A2980 1140 84 2500 230/04 RMK AO2 PRESRR
14926KSTC STC20010808215011508/08/01 21:50:31  5-MIN KSTC 090350Z AUTO 23003KT 9SM CLR 24/22 A2980 1140 84 2500 230/03 RMK AO2 SLP090 T02440217
14926KSTC STC20010808215509808/08/01 21:55:31  5-MIN KSTC 090355Z AUTO 20004KT 9SM CLR 24/22 A2979 1150 87 2500 190/04 RMK AO2
14926KSTC STC20010808220009808/08/01 22:00:31  5-MIN KSTC 090400Z AUTO 18006KT 9SM CLR 23/22 A2978 1160 90 2400 180/06 RMK AO2
14926KSTC STC20010808220509808/08/01 22:05:31  5-MIN KSTC 090405Z AUTO 18006KT 8SM CLR 23/22 A2978 1160 90 2400 180/06 RMK AO2
14926KSTC STC20010808221009808/08/01 22:10:31  5-MIN KSTC 090410Z AUTO 20005KT 8SM CLR 23/22 A2979 1150 90 2400 200/05 RMK AO2
14926KSTC STC20010808221509808/08/01 22:15:31  5-MIN KSTC 090415Z AUTO 21003KT 8SM CLR 24/22 A2980 1140 87 2500 210/03 RMK AO2
14926KSTC STC20010808222009808/08/01 22:20:31  5-MIN KSTC 090420Z AUTO 20003KT 8SM CLR 24/22 A2979 1140 87 2500 200/03 RMK AO2
14926KSTC STC20010808222509808/08/01 22:25:31  5-MIN KSTC 090425Z AUTO 00000KT 8SM CLR 24/22 A2979 1140 87 2500 000/00 RMK AO2
14926KSTC STC20010808223009808/08/01 22:30:31  5-MIN KSTC 090430Z AUTO 18003KT 8SM CLR 23/22 A2979 1150 90 2400 180/03 RMK AO2
14926KSTC STC20010808223509808/08/01 22:35:31  5-MIN KSTC 090435Z AUTO 00000KT 8SM CLR 23/22 A2979 1150 90 2400 000/00 RMK AO2
14926KSTC STC20010808224009808/08/01 22:40:31  5-MIN KSTC 090440Z AUTO 15003KT 8SM CLR 23/22 A2979 1150 90 2400 140/03 RMK AO2
14926KSTC STC20010808224509808/08/01 22:45:31  5-MIN KSTC 090445Z AUTO 13003KT 8SM CLR 23/22 A2979 1150 90 2400 130/03 RMK AO2
14926KSTC STC20010808225011508/08/01 22:50:31  5-MIN KSTC 090450Z AUTO 14003KT 8SM CLR 23/22 A2979 1150 90 2400 140/03 RMK AO2 SLP086 T02330217
14926KSTC STC20010808225509808/08/01 22:55:31  5-MIN KSTC 090455Z AUTO 00000KT 8SM CLR 23/22 A2979 1150 90 2400 000/00 RMK AO2
14926KSTC STC20010808230009808/08/01 23:00:31  5-MIN KSTC 090500Z AUTO 00000KT 8SM CLR 23/22 A2979 1150 93 2400 000/00 RMK AO2
14926KSTC STC20010808230509808/08/01 23:05:31  5-MIN KSTC 090505Z AUTO 15003KT 7SM CLR 23/22 A2979 1150 90 2400 150/03 RMK AO2
14926KSTC STC20010808231009808/08/01 23:10:31  5-MIN KSTC 090510Z AUTO 16004KT 7SM CLR 23/22 A2979 1150 93 2400 150/04 RMK AO2
14926KSTC STC20010808231509808/08/01 23:15:31  5-MIN KSTC 090515Z AUTO 15004KT 7SM CLR 22/21 A2979 1150 97 2200 150/04 RMK AO2
14926KSTC STC20010808232010108/08/01 23:20:31  5-MIN KSTC 090520Z AUTO 15005KT 6SM BR CLR 22/21 A2979 1150 97 2200 140/05 RMK AO2
14926KSTC STC20010808232510108/08/01 23:25:31  5-MIN KSTC 090525Z AUTO 15005KT 5SM BR CLR 22/21 A2979 1150 97 2200 150/05 RMK AO2
14926KSTC STC20010808233010108/08/01 23:30:31  5-MIN KSTC 090530Z AUTO 15004KT 6SM BR CLR 22/21 A2979 1150 97 2200 150/04 RMK AO2
14926KSTC STC20010808233510108/08/01 23:35:31  5-MIN KSTC 090535Z AUTO 14003KT 6SM BR CLR 22/22 A2979 1150 97 2300 130/03 RMK AO2
14926KSTC STC20010808234010108/08/01 23:40:31  5-MIN KSTC 090540Z AUTO 00000KT 6SM BR CLR 23/22 A2979 1150 93 2400 000/00 RMK AO2
14926KSTC STC20010808234510108/08/01 23:45:31  5-MIN KSTC 090545Z AUTO 00000KT 6SM BR CLR 23/22 A2979 1150 93 2400 000/00 RMK AO2
14926KSTC STC20010808235014608/08/01 23:50:31  5-MIN KSTC 090550Z AUTO 15003KT 6SM BR CLR 23/22 A2979 1150 93 2400 140/03 RMK AO2 SLP086 T02280217 10317 20217 403440217 56017
14926KSTC STC20010808235510108/08/01 23:55:31  5-MIN KSTC 090555Z AUTO 00000KT 6SM BR CLR 22/21 A2979 1150 97 2200 000/00 RMK AO2
14926KSTC STC20010809000010108/09/01 00:00:31  5-MIN KSTC 090600Z AUTO 13003KT 6SM BR CLR 22/21 A2978 1150 97 2200 130/03 RMK AO2
14926KSTC STC20010809000510108/09/01 00:05:31  5-MIN KSTC 090605Z AUTO 00000KT 5SM BR CLR 22/21 A2978 1150 97 2200 000/00 RMK AO2
14926KSTC STC20010809001010108/09/01 00:10:31  5-MIN KSTC 090610Z AUTO 00000KT 5SM BR CLR 22/21 A2979 1150 97 2200 000/00 RMK AO2
14926KSTC STC20010809001510208/09/01 00:15:31  5-MIN KSTC 090615Z AUTO 00000KT 4SM BR CLR 21/21 A2979 1140 100 2200 000/00 RMK AO2
14926KSTC STC20010809002010908/09/01 00:20:31  5-MIN KSTC 090620Z AUTO 36008KT 4SM BR CLR 21/21 A2982 1120 100 2100 360/08 RMK AO2 PRESRR
14926KSTC STC20010809002511708/09/01 00:25:31  5-MIN KSTC 090625Z AUTO 36013G17KT 5SM BR FEW018 23/22 A2983 1110 93 2300 350/13G17 RMK AO2 PRESRR
14926KSTC STC20010809003011008/09/01 00:30:31  5-MIN KSTC 090630Z AUTO VRB06G18KT 6SM BR FEW018 24/22 A2981 1120 87 2400 VRB/06G18 RMK AO2
14926KSTC STC20010809003510708/09/01 00:35:31  5-MIN KSTC 090635Z AUTO VRB05G18KT 8SM FEW020 24/22 A2981 1130 84 2500 VRB/05G18 RMK AO2
14926KSTC STC20010809004010108/09/01 00:40:31  5-MIN KSTC 090640Z AUTO 32005KT 8SM FEW020 25/22 A2980 1140 81 2600 320/05 RMK AO2
14926KSTC STC20010809004510108/09/01 00:45:31  5-MIN KSTC 090645Z AUTO 00000KT 8SM FEW020 24/22 A2980 1130 84 2500 000/00 RMK AO2
14926KSTC STC20010809005011808/09/01 00:50:31  5-MIN KSTC 090650Z AUTO 35009KT 8SM FEW020 24/22 A2982 1120 84 2500 340/09 RMK AO2 SLP097 T02440217
14926KSTC STC20010809005509808/09/01 00:55:31  5-MIN KSTC 090655Z AUTO 36006KT 8SM CLR 24/22 A2982 1120 84 2500 360/06 RMK AO2
14926KSTC STC20010809010010108/09/01 01:00:31  5-MIN KSTC 090700Z AUTO 04004KT 8SM FEW080 24/22 A2981 1130 84 2500 030/04 RMK AO2
14926KSTC STC20010809010510108/09/01 01:05:31  5-MIN KSTC 090705Z AUTO 01004KT 8SM SCT080 24/22 A2982 1120 84 2500 010/04 RMK AO2
14926KSTC STC20010809011010108/09/01 01:10:31  5-MIN KSTC 090710Z AUTO 02003KT 8SM SCT080 24/22 A2981 1130 84 2500 020/03 RMK AO2
14926KSTC STC20010809011510808/09/01 01:15:31  5-MIN KSTC 090715Z AUTO 00000KT 8SM BKN085 BKN100 24/22 A2982 1120 84 2500 000/00 RMK AO2
14926KSTC STC20010809012010808/09/01 01:20:31  5-MIN KSTC 090720Z AUTO 00000KT 7SM FEW050 BKN085 24/22 A2981 1130 87 2500 000/00 RMK AO2
14926KSTC STC20010809012511508/09/01 01:25:31  5-MIN KSTC 090725Z AUTO 07004KT 7SM FEW045 BKN085 BKN110 24/22 A2980 1140 90 2500 070/04 RMK AO2
14926KSTC STC20010809013011508/09/01 01:30:31  5-MIN KSTC 090730Z AUTO 00000KT 7SM FEW046 BKN085 OVC110 24/22 A2980 1130 87 2500 000/00 RMK AO2
14926KSTC STC20010809013511508/09/01 01:35:31  5-MIN KSTC 090735Z AUTO 00000KT 7SM SCT046 SCT065 OVC090 24/22 A2980 1140 87 2500 000/00 RMK AO2
14926KSTC STC20010809014011508/09/01 01:40:31  5-MIN KSTC 090740Z AUTO 00000KT 7SM FEW044 SCT055 BKN090 24/22 A2980 1140 87 2500 000/00 RMK AO2
14926KSTC STC20010809014510808/09/01 01:45:31  5-MIN KSTC 090745Z AUTO 00000KT 7SM FEW044 SCT090 24/22 A2980 1140 87 2500 000/00 RMK AO2
14926KSTC STC20010809015012508/09/01 01:50:31  5-MIN KSTC 090750Z AUTO 08006KT 8SM FEW044 SCT090 24/21 A2979 1150 81 2500 070/06 RMK AO2 SLP086 T02390206
14926KSTC STC20010809015510108/09/01 01:55:31  5-MIN KSTC 090755Z AUTO 06007KT 9SM FEW044 24/20 A2979 1150 78 2500 060/07 RMK AO2
14926KSTC STC20010809020010208/09/01 02:00:31  5-MIN KSTC 090800Z AUTO 09006KT 10SM FEW044 24/19 A2980 1140 76 2500 080/06 RMK AO2
14926KSTC STC20010809020509908/09/01 02:05:31  5-MIN KSTC 090805Z AUTO VRB04KT 10SM CLR 24/20 A2980 1140 78 2500 VRB/04 RMK AO2
14926KSTC STC20010809021009908/09/01 02:10:31  5-MIN KSTC 090810Z AUTO 03005KT 10SM CLR 24/19 A2980 1140 76 2500 020/05 RMK AO2
14926KSTC STC20010809021509908/09/01 02:15:31  5-MIN KSTC 090815Z AUTO 02004KT 10SM CLR 23/19 A2979 1140 78 2400 010/04 RMK AO2
14926KSTC STC20010809022009908/09/01 02:20:31  5-MIN KSTC 090820Z AUTO 06004KT 10SM CLR 23/19 A2979 1150 78 2400 050/04 RMK AO2
14926KSTC STC20010809022509908/09/01 02:25:31  5-MIN KSTC 090825Z AUTO 06003KT 10SM CLR 23/21 A2979 1150 84 2400 060/03 RMK AO2
14926KSTC STC20010809023009908/09/01 02:30:31  5-MIN KSTC 090830Z AUTO 06005KT 10SM CLR 23/21 A2979 1150 87 2400 060/05 RMK AO2
14926KSTC STC20010809023509908/09/01 02:35:31  5-MIN KSTC 090835Z AUTO 08004KT 10SM CLR 23/19 A2979 1150 78 2400 070/04 RMK AO2
14926KSTC STC20010809024009908/09/01 02:40:31  5-MIN KSTC 090840Z AUTO 07005KT 10SM CLR 23/19 A2978 1150 78 2400 070/05 RMK AO2
14926KSTC STC20010809024510208/09/01 02:45:31  5-MIN KSTC 090845Z AUTO 07004KT 10SM FEW037 23/19 A2978 1150 78 2400 070/04 RMK AO2
14926KSTC STC20010809025012508/09/01 02:50:31  5-MIN KSTC 090850Z AUTO 05004KT 10SM SCT037 22/19 A2979 1150 84 2300 050/04 RMK AO2 SLP086 T02220194 50010
14926KSTC STC20010809025510208/09/01 02:55:31  5-MIN KSTC 090855Z AUTO 36006KT 10SM SCT037 23/19 A2980 1140 78 2300 360/06 RMK AO2
14926KSTC STC20010809030010208/09/01 03:00:31  5-MIN KSTC 090900Z AUTO 34008KT 10SM SCT037 22/19 A2980 1140 81 2300 340/08 RMK AO2
14926KSTC STC20010809030510908/09/01 03:05:31  5-MIN KSTC 090905Z AUTO 35006KT 10SM BKN037 22/19 A2981 1130 81 2300 340/06 RMK AO2 PRESRR
14926KSTC STC20010809031010908/09/01 03:10:31  5-MIN KSTC 090910Z AUTO 32008KT 10SM BKN037 22/19 A2982 1120 81 2300 320/08 RMK AO2 PRESRR
14926KSTC STC20010809031510208/09/01 03:15:31  5-MIN KSTC 090915Z AUTO 33008KT 10SM OVC039 22/19 A2981 1130 81 2300 330/08 RMK AO2
14926KSTC STC20010809032010208/09/01 03:20:31  5-MIN KSTC 090920Z AUTO 34008KT 10SM OVC039 22/18 A2981 1130 78 2300 340/08 RMK AO2
14926KSTC STC20010809032510208/09/01 03:25:31  5-MIN KSTC 090925Z AUTO 35006KT 10SM BKN041 22/18 A2981 1130 78 2300 350/06 RMK AO2
14926KSTC STC20010809033010208/09/01 03:30:31  5-MIN KSTC 090930Z AUTO 36004KT 10SM BKN041 22/18 A2980 1140 78 2300 360/04 RMK AO2
14926KSTC STC20010809033510908/09/01 03:35:31  5-MIN KSTC 090935Z AUTO 04004KT 10SM BKN041 22/18 A2979 1150 78 2300 030/04 RMK AO2 PRESFR
14926KSTC STC20010809034010908/09/01 03:40:31  5-MIN KSTC 090940Z AUTO 08004KT 10SM SCT041 22/18 A2978 1150 78 2300 070/04 RMK AO2 PRESFR
14926KSTC STC20010809034510908/09/01 03:45:31  5-MIN KSTC 090945Z AUTO 09004KT 10SM SCT043 22/18 A2978 1160 78 2300 090/04 RMK AO2 PRESFR
14926KSTC STC20010809035011908/09/01 03:50:31  5-MIN KSTC 090950Z AUTO 10004KT 10SM FEW045 22/18 A2978 1160 75 2300 100/04 RMK AO2 SLP084 T02220178
14926KSTC STC20010809035510208/09/01 03:55:31  5-MIN KSTC 090955Z AUTO 11004KT 10SM FEW045 22/18 A2978 1160 78 2200 100/04 RMK AO2
14926KSTC STC20010809040009908/09/01 04:00:31  5-MIN KSTC 091000Z AUTO 11004KT 10SM CLR 22/18 A2978 1160 81 2200 100/04 RMK AO2
14926KSTC STC20010809040509908/09/01 04:05:31  5-MIN KSTC 091005Z AUTO 12003KT 10SM CLR 22/18 A2978 1160 81 2200 110/03 RMK AO2
14926KSTC STC20010809041009908/09/01 04:10:31  5-MIN KSTC 091010Z AUTO 00000KT 10SM CLR 21/18 A2978 1160 84 2200 000/00 RMK AO2
14926KSTC STC20010809041509908/09/01 04:15:31  5-MIN KSTC 091015Z AUTO 00000KT 10SM CLR 21/18 A2978 1160 84 2200 000/00 RMK AO2
14926KSTC STC20010809042009908/09/01 04:20:31  5-MIN KSTC 091020Z AUTO 17003KT 10SM CLR 21/18 A2978 1160 84 2200 170/03 RMK AO2
14926KSTC STC20010809042509908/09/01 04:25:31  5-MIN KSTC 091025Z AUTO 13003KT 10SM CLR 21/18 A2977 1170 84 2200 130/03 RMK AO2
14926KSTC STC20010809043010208/09/01 04:30:31  5-MIN KSTC 091030Z AUTO 00000KT 10SM FEW110 21/18 A2976 1170 84 2200 000/00 RMK AO2
14926KSTC STC20010809043510208/09/01 04:35:31  5-MIN KSTC 091035Z AUTO 00000KT 10SM FEW110 21/18 A2978 1160 84 2200 000/00 RMK AO2
14926KSTC STC20010809044010208/09/01 04:40:31  5-MIN KSTC 091040Z AUTO 30004KT 10SM SCT100 21/19 A2979 1140 87 2200 300/04 RMK AO2
14926KSTC STC20010809044510908/09/01 04:45:31  5-MIN KSTC 091045Z AUTO 32005KT 10SM SCT100 SCT110 21/19 A2980 1140 87 2200 310/05 RMK AO2
14926KSTC STC20010809045012608/09/01 04:50:31  5-MIN KSTC 091050Z AUTO 33007KT 10SM FEW095 SCT110 21/18 A2980 1140 84 2200 320/07 RMK AO2 SLP091 T02110183
14926KSTC STC20010809045510208/09/01 04:55:31  5-MIN KSTC 091055Z AUTO 33007KT 10SM FEW100 21/18 A2981 1130 84 2100 330/07 RMK AO2
14926KSTC STC20010809050010208/09/01 05:00:31  5-MIN KSTC 091100Z AUTO 33006KT 10SM FEW100 21/18 A2980 1130 84 2100 330/06 RMK AO2
14926KSTC STC20010809050510208/09/01 05:05:31  5-MIN KSTC 091105Z AUTO 34007KT 10SM FEW095 21/18 A2980 1140 84 2100 340/07 RMK AO2
14926KSTC STC20010809051009908/09/01 05:10:31  5-MIN KSTC 091110Z AUTO 36005KT 10SM CLR 21/18 A2980 1140 84 2100 350/05 RMK AO2
14926KSTC STC20010809051509908/09/01 05:15:31  5-MIN KSTC 091115Z AUTO 33006KT 10SM CLR 21/18 A2981 1130 84 2100 330/06 RMK AO2
14926KSTC STC20010809052009908/09/01 05:20:31  5-MIN KSTC 091120Z AUTO 33007KT 10SM CLR 21/18 A2981 1120 84 2100 330/07 RMK AO2
14926KSTC STC20010809052509908/09/01 05:25:31  5-MIN KSTC 091125Z AUTO 33006KT 10SM CLR 21/18 A2982 1120 84 2100 330/06 RMK AO2
14926KSTC STC20010809053010608/09/01 05:30:31  5-MIN KSTC 091130Z AUTO 32006KT 10SM CLR 21/18 A2983 1110 84 2100 320/06 RMK AO2 PRESRR
14926KSTC STC20010809053509908/09/01 05:35:31  5-MIN KSTC 091135Z AUTO 32007KT 10SM CLR 21/18 A2983 1110 84 2100 320/07 RMK AO2
14926KSTC STC20010809054009908/09/01 05:40:31  5-MIN KSTC 091140Z AUTO 32007KT 10SM CLR 21/18 A2984 1100 84 2100 320/07 RMK AO2
14926KSTC STC20010809054509908/09/01 05:45:31  5-MIN KSTC 091145Z AUTO 32007KT 10SM CLR 21/18 A2984 1100 84 2100 320/07 RMK AO2
14926KSTC STC20010809055013408/09/01 05:50:31  5-MIN KSTC 091150Z AUTO 32008KT 10SM CLR 21/18 A2984 1110 84 2100 320/08 RMK AO2 SLP103 T02110183 10250 20211 51002
14926KSTC STC20010809055509908/09/01 05:55:31  5-MIN KSTC 091155Z AUTO 32007KT 10SM CLR 21/18 A2984 1100 84 2100 310/07 RMK AO2
14926KSTC STC20010809060009908/09/01 06:00:31  5-MIN KSTC 091200Z AUTO 32007KT 10SM CLR 21/18 A2984 1100 84 2100 310/07 RMK AO2
14926KSTC STC20010809060509908/09/01 06:05:31  5-MIN KSTC 091205Z AUTO 31008KT 10SM CLR 21/18 A2985 1090 84 2100 310/08 RMK AO2
14926KSTC STC20010809061009908/09/01 06:10:31  5-MIN KSTC 091210Z AUTO 32009KT 10SM CLR 21/18 A2985 1100 84 2100 320/09 RMK AO2
14926KSTC STC20010809061509908/09/01 06:15:31  5-MIN KSTC 091215Z AUTO 32008KT 10SM CLR 22/18 A2985 1100 81 2200 320/08 RMK AO2
14926KSTC STC20010809062009908/09/01 06:20:31  5-MIN KSTC 091220Z AUTO 32011KT 10SM CLR 22/18 A2985 1090 81 2200 320/11 RMK AO2
14926KSTC STC20010809062509908/09/01 06:25:31  5-MIN KSTC 091225Z AUTO 32011KT 10SM CLR 22/18 A2985 1090 81 2200 320/11 RMK AO2
14926KSTC STC20010809063009908/09/01 06:30:31  5-MIN KSTC 091230Z AUTO 32011KT 10SM CLR 22/18 A2985 1090 81 2200 320/11 RMK AO2
14926KSTC STC20010809063509908/09/01 06:35:31  5-MIN KSTC 091235Z AUTO 32012KT 10SM CLR 22/18 A2986 1090 81 2100 320/12 RMK AO2
14926KSTC STC20010809064010508/09/01 06:40:31  5-MIN KSTC 091240Z AUTO 34011G19KT 10SM CLR 22/18 A2986 1080 81 2100 330/11G19 RMK AO2
14926KSTC STC20010809064510508/09/01 06:45:31  5-MIN KSTC 091245Z AUTO 32013G19KT 10SM CLR 22/18 A2986 1080 81 2100 320/13G19 RMK AO2
14926KSTC STC20010809065012508/09/01 06:50:31  5-MIN KSTC 091250Z AUTO 33012G17KT 10SM FEW028 22/18 A2987 1080 81 2100 330/12G17 RMK AO2 SLP115 T02170183
14926KSTC STC20010809065510208/09/01 06:55:31  5-MIN KSTC 091255Z AUTO 33010KT 10SM SCT028 22/18 A2987 1070 75 2200 330/10 RMK AO2
14926KSTC STC20010809070010808/09/01 07:00:31  5-MIN KSTC 091300Z AUTO 33011G19KT 10SM BKN028 22/18 A2987 1070 78 2100 330/11G19 RMK AO2
14926KSTC STC20010809070510808/09/01 07:05:31  5-MIN KSTC 091305Z AUTO 33014G19KT 10SM SCT028 22/18 A2987 1070 78 2100 330/14G19 RMK AO2
14926KSTC STC20010809071010808/09/01 07:10:31  5-MIN KSTC 091310Z AUTO 33010G18KT 10SM SCT028 22/18 A2988 1070 78 2100 320/10G18 RMK AO2
14926KSTC STC20010809071510208/09/01 07:15:31  5-MIN KSTC 091315Z AUTO 31014KT 10SM SCT028 22/17 A2988 1060 73 2200 310/14 RMK AO2
14926KSTC STC20010809072010208/09/01 07:20:31  5-MIN KSTC 091320Z AUTO 32013KT 10SM SCT028 22/17 A2988 1070 73 2200 320/13 RMK AO2
14926KSTC STC20010809072510808/09/01 07:25:31  5-MIN KSTC 091325Z AUTO 32014G19KT 10SM SCT026 23/17 A2988 1060 70 2200 320/14G19 RMK AO2
14926KSTC STC20010809073010808/09/01 07:30:31  5-MIN KSTC 091330Z AUTO 33012G19KT 10SM FEW026 23/17 A2988 1060 70 2200 330/12G19 RMK AO2
14926KSTC STC20010809073510208/09/01 07:35:31  5-MIN KSTC 091335Z AUTO 34012KT 10SM FEW026 22/17 A2988 1060 73 2200 340/12 RMK AO2
14926KSTC STC20010809074010908/09/01 07:40:31  5-MIN KSTC 091340Z AUTO 33012KT 10SM FEW024 SCT035 23/17 A2988 1060 70 2200 330/12 RMK AO2
14926KSTC STC20010809074511508/09/01 07:45:31  5-MIN KSTC 091345Z AUTO 35014G18KT 10SM FEW024 SCT035 23/18 A2989 1060 73 2200 340/14G18 RMK AO2
14926KSTC STC20010809075013208/09/01 07:50:31  5-MIN KSTC 091350Z AUTO 32016G23KT 10SM FEW024 BKN032 22/17 A2989 1060 73 2200 320/16G23 RMK AO2 SLP122 T02220172
14926KSTC STC20010809075511508/09/01 07:55:31  5-MIN KSTC 091355Z AUTO 34011G23KT 10SM FEW026 BKN032 22/17 A2989 1050 75 2100 340/11G23 RMK AO2
14926KSTC STC20010809080010908/09/01 08:00:31  5-MIN KSTC 091400Z AUTO 34010KT 10SM FEW024 BKN032 22/17 A2989 1050 75 2100 330/10 RMK AO2
14926KSTC STC20010809080510908/09/01 08:05:31  5-MIN KSTC 091405Z AUTO 34010KT 10SM FEW024 BKN034 23/18 A2990 1050 73 2200 340/10 RMK AO2
14926KSTC STC20010809081011508/09/01 08:10:31  5-MIN KSTC 091410Z AUTO 32012G17KT 10SM FEW026 BKN034 22/17 A2990 1050 73 2200 320/12G17 RMK AO2
14926KSTC STC20010809081511508/09/01 08:15:31  5-MIN KSTC 091415Z AUTO 33014G19KT 10SM FEW026 BKN034 22/17 A2990 1050 73 2200 330/14G19 RMK AO2
14926KSTC STC20010809082010908/09/01 08:20:31  5-MIN KSTC 091420Z AUTO 34011KT 10SM FEW024 BKN034 23/17 A2990 1040 70 2200 330/11 RMK AO2
14926KSTC STC20010809082510908/09/01 08:25:31  5-MIN KSTC 091425Z AUTO 34012KT 10SM FEW024 BKN034 23/18 A2991 1040 73 2200 340/12 RMK AO2
14926KSTC STC20010809083011608/09/01 08:30:31  5-MIN KSTC 091430Z AUTO 33012KT 10SM FEW024 BKN030 OVC036 23/17 A2991 1040 70 2200 330/12 RMK AO2
14926KSTC STC20010809083511508/09/01 08:35:31  5-MIN KSTC 091435Z AUTO 33012G16KT 10SM SCT024 BKN033 22/17 A2991 1040 73 2200 330/12G16 RMK AO2
14926KSTC STC20010809084011508/09/01 08:40:31  5-MIN KSTC 091440Z AUTO 32013G17KT 10SM BKN027 OVC035 23/18 A2991 1040 70 2300 320/13G17 RMK AO2
14926KSTC STC20010809084511508/09/01 08:45:31  5-MIN KSTC 091445Z AUTO 32013G17KT 10SM BKN028 BKN035 23/17 A2991 1040 70 2200 320/13G17 RMK AO2
14926KSTC STC20010809085013208/09/01 08:50:31  5-MIN KSTC 091450Z AUTO 35013KT 10SM BKN027 BKN031 24/17 A2991 1040 66 2300 340/13 RMK AO2 SLP129 T02390172 53015
14926KSTC STC20010809085510908/09/01 08:55:31  5-MIN KSTC 091455Z AUTO 32013KT 10SM BKN027 BKN031 24/17 A2991 1040 66 2300 320/13 RMK AO2
14926KSTC STC20010809090010908/09/01 09:00:31  5-MIN KSTC 091500Z AUTO 34010KT 10SM SCT027 BKN031 23/17 A2991 1030 68 2300 340/10 RMK AO2
14926KSTC STC20010809090511508/09/01 09:05:31  5-MIN KSTC 091505Z AUTO 34015G21KT 10SM FEW025 SCT032 24/16 A2991 1030 61 2300 340/15G21 RMK AO2
14926KSTC STC20010809091010808/09/01 09:10:31  5-MIN KSTC 091510Z AUTO 34013G21KT 10SM SCT029 24/17 A2991 1030 63 2300 340/13G21 RMK AO2
14926KSTC STC20010809091510808/09/01 09:15:31  5-MIN KSTC 091515Z AUTO 33015G19KT 10SM SCT028 23/16 A2991 1030 63 2300 320/15G19 RMK AO2
14926KSTC STC20010809092010808/09/01 09:20:31  5-MIN KSTC 091520Z AUTO 35011G19KT 10SM FEW028 23/16 A2991 1030 63 2300 340/11G19 RMK AO2
14926KSTC STC20010809092510208/09/01 09:25:31  5-MIN KSTC 091525Z AUTO 33012KT 10SM FEW030 24/17 A2992 1020 61 2400 320/12 RMK AO2
14926KSTC STC20010809093010808/09/01 09:30:31  5-MIN KSTC 091530Z AUTO 34013G19KT 10SM FEW030 24/16 A2992 1030 59 2400 330/13G19 RMK AO2
14926KSTC STC20010809093510808/09/01 09:35:31  5-MIN KSTC 091535Z AUTO 33011G19KT 10SM FEW030 24/16 A2992 1030 57 2400 330/11G19 RMK AO2
14926KSTC STC20010809094010208/09/01 09:40:31  5-MIN KSTC 091540Z AUTO 34013KT 10SM FEW033 24/16 A2992 1020 57 2400 340/13 RMK AO2
14926KSTC STC20010809094510808/09/01 09:45:31  5-MIN KSTC 091545Z AUTO 33014G23KT 10SM FEW033 25/14 A2993 1020 51 2400 330/14G23 RMK AO2
14926KSTC STC20010809095012508/09/01 09:50:31  5-MIN KSTC 091550Z AUTO 34010G23KT 10SM FEW033 25/14 A2993 1020 51 2400 330/10G23 RMK AO2 SLP135 T02500144
14926KSTC STC20010809095510508/09/01 09:55:31  5-MIN KSTC 091555Z AUTO 34015G21KT 10SM CLR 25/14 A2993 1020 49 2400 330/15G21 RMK AO2
14926KSTC STC20010809100010508/09/01 10:00:31  5-MIN KSTC 091600Z AUTO 34014G21KT 10SM CLR 24/14 A2993 1010 51 2400 330/14G21 RMK AO2
14926KSTC STC20010809100509908/09/01 10:05:31  5-MIN KSTC 091605Z AUTO 34013KT 10SM CLR 24/13 A2993 1010 49 2400 340/13 RMK AO2
14926KSTC STC20010809101010508/09/01 10:10:31  5-MIN KSTC 091610Z AUTO 35013G19KT 10SM CLR 24/14 A2994 1010 51 2400 340/13G19 RMK AO2
14926KSTC STC20010809101510508/09/01 10:15:31  5-MIN KSTC 091615Z AUTO 34015G20KT 10SM CLR 25/13 A2994 1010 48 2400 340/15G20 RMK AO2
14926KSTC STC20010809102010508/09/01 10:20:31  5-MIN KSTC 091620Z AUTO 35016G21KT 10SM CLR 25/13 A2994 1010 46 2400 340/16G21 RMK AO2
14926KSTC STC20010809102510508/09/01 10:25:31  5-MIN KSTC 091625Z AUTO 34013G21KT 10SM CLR 24/13 A2994 1010 47 2400 340/13G21 RMK AO2
14926KSTC STC20010809103009908/09/01 10:30:31  5-MIN KSTC 091630Z AUTO 34013KT 10SM CLR 24/14 A2994 1010 51 2400 340/13 RMK AO2
14926KSTC STC20010809103509908/09/01 10:35:31  5-MIN KSTC 091635Z AUTO 34015KT 10SM CLR 24/14 A2994 1010 53 2400 340/15 RMK AO2
14926KSTC STC20010809104010508/09/01 10:40:31  5-MIN KSTC 091640Z AUTO 35013G19KT 10SM CLR 25/14 A2994 1010 51 2400 340/13G19 RMK AO2
14926KSTC STC20010809104510808/09/01 10:45:31  5-MIN KSTC 091645Z AUTO 32016G20KT 10SM FEW041 25/14 A2995 1000 51 2400 320/16G20 RMK AO2
14926KSTC STC20010809105012508/09/01 10:50:31  5-MIN KSTC 091650Z AUTO 32015G20KT 10SM FEW041 25/14 A2995 1000 51 2400 320/15G20 RMK AO2 SLP143 T02500144
14926KSTC STC20010809105510508/09/01 10:55:31  5-MIN KSTC 091655Z AUTO 32018G22KT 10SM CLR 25/13 A2995 1000 48 2400 320/18G22 RMK AO2
14926KSTC STC20010809110010508/09/01 11:00:31  5-MIN KSTC 091700Z AUTO 32015G22KT 10SM CLR 24/13 A2995 1000 49 2400 310/15G22 RMK AO2
14926KSTC STC20010809110510508/09/01 11:05:31  5-MIN KSTC 091705Z AUTO 31019G25KT 10SM CLR 26/13 A2995 1000 44 2500 310/19G25 RMK AO2
14926KSTC STC20010809111010508/09/01 11:10:31  5-MIN KSTC 091710Z AUTO 33015G25KT 10SM CLR 25/12 A2995 1000 44 2400 330/15G25 RMK AO2
14926KSTC STC20010809111510408/09/01 11:15:31  5-MIN KSTC 091715Z AUTO 33013G23KT 10SM CLR 26/12 A2996 990 41 2500 330/13G23 RMK AO2
14926KSTC STC20010809112010408/09/01 11:20:31  5-MIN KSTC 091720Z AUTO 32016G24KT 10SM CLR 25/11 A2996 990 41 2400 320/16G24 RMK AO2
14926KSTC STC20010809112510408/09/01 11:25:31  5-MIN KSTC 091725Z AUTO 34013G24KT 10SM CLR 25/12 A2996 990 43 2400 340/13G24 RMK AO2
14926KSTC STC20010809113010408/09/01 11:30:31  5-MIN KSTC 091730Z AUTO 34015G22KT 10SM CLR 26/12 A2996 990 43 2500 340/15G22 RMK AO2
14926KSTC STC20010809113510408/09/01 11:35:31  5-MIN KSTC 091735Z AUTO 33016G22KT 10SM CLR 25/12 A2995 990 43 2400 320/16G22 RMK AO2
14926KSTC STC20010809114010408/09/01 11:40:31  5-MIN KSTC 091740Z AUTO 32014G20KT 10SM CLR 26/12 A2996 990 43 2500 320/14G20 RMK AO2
14926KSTC STC20010809114510408/09/01 11:45:31  5-MIN KSTC 091745Z AUTO 34015G20KT 10SM CLR 26/12 A2996 990 41 2500 330/15G20 RMK AO2
14926KSTC STC20010809115013908/09/01 11:50:31  5-MIN KSTC 091750Z AUTO 34015G20KT 10SM CLR 25/11 A2997 980 41 2400 330/15G20 RMK AO2 SLP149 T02500111 10256 20211 51023
14926KSTC STC20010809115510408/09/01 11:55:31  5-MIN KSTC 091755Z AUTO 35019G24KT 10SM CLR 25/10 A2996 990 38 2400 340/19G24 RMK AO2
14926KSTC STC20010809120010408/09/01 12:00:31  5-MIN KSTC 091800Z AUTO 35013G24KT 10SM CLR 24/10 A2996 990 39 2300 340/13G24 RMK AO2
14926KSTC STC20010809120510408/09/01 12:05:31  5-MIN KSTC 091805Z AUTO 34015G22KT 10SM CLR 25/10 A2996 990 38 2400 340/15G22 RMK AO2
14926KSTC STC20010809121010408/09/01 12:10:31  5-MIN KSTC 091810Z AUTO 35017G24KT 10SM CLR 24/10 A2996 990 39 2300 340/17G24 RMK AO2
14926KSTC STC20010809121510408/09/01 12:15:31  5-MIN KSTC 091815Z AUTO 34016G24KT 10SM CLR 24/11 A2996 990 41 2300 340/16G24 RMK AO2
14926KSTC STC20010809122010408/09/01 12:20:31  5-MIN KSTC 091820Z AUTO 35016G19KT 10SM CLR 25/11 A2996 990 39 2400 340/16G19 RMK AO2
14926KSTC STC20010809122510408/09/01 12:25:31  5-MIN KSTC 091825Z AUTO 33015G19KT 10SM CLR 25/11 A2996 990 41 2400 330/15G19 RMK AO2
14926KSTC STC20010809123010408/09/01 12:30:31  5-MIN KSTC 091830Z AUTO 35016G20KT 10SM CLR 24/11 A2996 990 42 2300 340/16G20 RMK AO2
14926KSTC STC20010809123510408/09/01 12:35:31  5-MIN KSTC 091835Z AUTO 34011G20KT 10SM CLR 26/12 A2996 990 41 2500 340/11G20 RMK AO2
14926KSTC STC20010809124010408/09/01 12:40:31  5-MIN KSTC 091840Z AUTO 32014G20KT 10SM CLR 26/12 A2997 980 41 2500 320/14G20 RMK AO2
14926KSTC STC20010809124510408/09/01 12:45:31  5-MIN KSTC 091845Z AUTO 32018G21KT 10SM CLR 25/11 A2997 980 41 2400 310/18G21 RMK AO2
14926KSTC STC20010809125012108/09/01 12:50:31  5-MIN KSTC 091850Z AUTO 34014G21KT 10SM CLR 26/12 A2997 980 41 2500 340/14G21 RMK AO2 SLP149 T02560117
14926KSTC STC20010809125510408/09/01 12:55:31  5-MIN KSTC 091855Z AUTO 34014G18KT 10SM CLR 25/12 A2996 990 43 2400 330/14G18 RMK AO2
14926KSTC STC20010809130009808/09/01 13:00:31  5-MIN KSTC 091900Z AUTO 32015KT 10SM CLR 26/12 A2997 980 40 2500 320/15 RMK AO2
14926KSTC STC20010809130510408/09/01 13:05:31  5-MIN KSTC 091905Z AUTO 32015G21KT 10SM CLR 26/12 A2997 980 41 2500 320/15G21 RMK AO2
14926KSTC STC20010809131010408/09/01 13:10:31  5-MIN KSTC 091910Z AUTO 34013G21KT 10SM CLR 26/11 A2997 980 40 2500 340/13G21 RMK AO2
14926KSTC STC20010809131510408/09/01 13:15:31  5-MIN KSTC 091915Z AUTO 32015G21KT 10SM CLR 26/11 A2997 980 38 2500 320/15G21 RMK AO2
14926KSTC STC20010809132010408/09/01 13:20:31  5-MIN KSTC 091920Z AUTO 32018G22KT 10SM CLR 26/10 A2997 980 36 2500 320/18G22 RMK AO2
14926KSTC STC20010809132510408/09/01 13:25:31  5-MIN KSTC 091925Z AUTO 32016G23KT 10SM CLR 25/10 A2997 980 38 2400 320/16G23 RMK AO2
14926KSTC STC20010809133010408/09/01 13:30:31  5-MIN KSTC 091930Z AUTO 33013G23KT 10SM CLR 26/11 A2997 980 38 2500 330/13G23 RMK AO2
14926KSTC STC20010809133510408/09/01 13:35:31  5-MIN KSTC 091935Z AUTO 33012G21KT 10SM CLR 26/11 A2997 980 38 2500 330/12G21 RMK AO2
14926KSTC STC20010809134010408/09/01 13:40:31  5-MIN KSTC 091940Z AUTO 32017G23KT 10SM CLR 26/11 A2997 980 38 2500 320/17G23 RMK AO2
14926KSTC STC20010809134510408/09/01 13:45:31  5-MIN KSTC 091945Z AUTO 32017G23KT 10SM CLR 26/10 A2997 980 36 2500 320/17G23 RMK AO2
14926KSTC STC20010809135012108/09/01 13:50:31  5-MIN KSTC 091950Z AUTO 32016G23KT 10SM CLR 26/10 A2998 970 37 2500 320/16G23 RMK AO2 SLP152 T02560100
14926KSTC STC20010809135510408/09/01 13:55:31  5-MIN KSTC 091955Z AUTO 35015G23KT 10SM CLR 26/10 A2997 980 37 2500 340/15G23 RMK AO2
14926KSTC STC20010809140010408/09/01 14:00:31  5-MIN KSTC 092000Z AUTO 34017G21KT 10SM CLR 26/10 A2998 980 37 2500 330/17G21 RMK AO2
14926KSTC STC20010809140510408/09/01 14:05:31  5-MIN KSTC 092005Z AUTO 35012G21KT 10SM CLR 26/10 A2998 970 37 2500 340/12G21 RMK AO2
14926KSTC STC20010809141010408/09/01 14:10:31  5-MIN KSTC 092010Z AUTO 34015G21KT 10SM CLR 26/10 A2998 970 37 2500 340/15G21 RMK AO2
14926KSTC STC20010809141510408/09/01 14:15:31  5-MIN KSTC 092015Z AUTO 32014G20KT 10SM CLR 26/11 A2998 970 38 2500 320/14G20 RMK AO2
14926KSTC STC20010809142010408/09/01 14:20:31  5-MIN KSTC 092020Z AUTO 32016G21KT 10SM CLR 26/10 A2999 970 37 2400 320/16G21 RMK AO2
14926KSTC STC20010809142510408/09/01 14:25:31  5-MIN KSTC 092025Z AUTO 33016G23KT 10SM CLR 25/10 A2999 970 38 2400 330/16G23 RMK AO2
14926KSTC STC20010809143010408/09/01 14:30:31  5-MIN KSTC 092030Z AUTO 33014G23KT 10SM CLR 25/10 A2999 960 38 2400 330/14G23 RMK AO2
14926KSTC STC20010809143510408/09/01 14:35:31  5-MIN KSTC 092035Z AUTO 33014G22KT 10SM CLR 26/09 A2999 960 34 2400 320/14G22 RMK AO2
14926KSTC STC20010809144010408/09/01 14:40:31  5-MIN KSTC 092040Z AUTO 33016G22KT 10SM CLR 25/09 A2999 960 35 2400 320/16G22 RMK AO2
14926KSTC STC20010809144510408/09/01 14:45:31  5-MIN KSTC 092045Z AUTO 33014G22KT 10SM CLR 26/08 A2999 970 33 2400 330/14G22 RMK AO2
14926KSTC STC20010809145012708/09/01 14:50:31  5-MIN KSTC 092050Z AUTO 34012G22KT 10SM CLR 25/08 A2999 970 34 2400 340/12G22 RMK AO2 SLP157 T02500083 51017
14926KSTC STC20010809145509808/09/01 14:55:31  5-MIN KSTC 092055Z AUTO 35013KT 10SM CLR 25/09 A2999 960 35 2400 350/13 RMK AO2
14926KSTC STC20010809150010408/09/01 15:00:31  5-MIN KSTC 092100Z AUTO 32014G19KT 10SM CLR 26/09 A2999 960 34 2400 310/14G19 RMK AO2
14926KSTC STC20010809150510408/09/01 15:05:31  5-MIN KSTC 092105Z AUTO 32014G19KT 10SM CLR 25/09 A2999 960 35 2400 320/14G19 RMK AO2
14926KSTC STC20010809151010408/09/01 15:10:31  5-MIN KSTC 092110Z AUTO 31017G21KT 10SM CLR 26/09 A2999 960 34 2400 310/17G21 RMK AO2
14926KSTC STC20010809151510408/09/01 15:15:31  5-MIN KSTC 092115Z AUTO 34010G21KT 10SM CLR 25/09 A2999 960 35 2400 340/10G21 RMK AO2
14926KSTC STC20010809152010408/09/01 15:20:31  5-MIN KSTC 092120Z AUTO 31013G18KT 10SM CLR 25/09 A2999 960 35 2400 300/13G18 RMK AO2
14926KSTC STC20010809152510408/09/01 15:25:31  5-MIN KSTC 092125Z AUTO 31014G20KT 10SM CLR 26/08 A2999 960 32 2500 310/14G20 RMK AO2
14926KSTC STC20010809153010408/09/01 15:30:31  5-MIN KSTC 092130Z AUTO 34013G22KT 10SM CLR 26/08 A2999 960 33 2400 330/13G22 RMK AO2
14926KSTC STC20010809153510408/09/01 15:35:31  5-MIN KSTC 092135Z AUTO 33014G22KT 10SM CLR 25/07 A2999 960 31 2400 320/14G22 RMK AO2
14926KSTC STC20010809154009808/09/01 15:40:31  5-MIN KSTC 092140Z AUTO 32016KT 10SM CLR 25/07 A2999 960 30 2400 310/16 RMK AO2
14926KSTC STC20010809154509808/09/01 15:45:31  5-MIN KSTC 092145Z AUTO 33011KT 10SM CLR 26/07 A2999 960 30 2400 330/11 RMK AO2
14926KSTC STC20010809155011508/09/01 15:50:31  5-MIN KSTC 092150Z AUTO 34013KT 10SM CLR 25/08 A2999 960 33 2400 330/13 RMK AO2 SLP159 T02500078
14926KSTC STC20010809155509808/09/01 15:55:31  5-MIN KSTC 092155Z AUTO 33012KT 10SM CLR 25/08 A3000 960 33 2400 330/12 RMK AO2
14926KSTC STC20010809160010408/09/01 16:00:31  5-MIN KSTC 092200Z AUTO 32015G19KT 10SM CLR 25/09 A3000 950 35 2400 320/15G19 RMK AO2
14926KSTC STC20010809160510408/09/01 16:05:31  5-MIN KSTC 092205Z AUTO 32012G19KT 10SM CLR 25/09 A3000 960 37 2400 310/12G19 RMK AO2
14926KSTC STC20010809161010408/09/01 16:10:31  5-MIN KSTC 092210Z AUTO 32016G20KT 10SM CLR 25/08 A3000 960 34 2400 310/16G20 RMK AO2
14926KSTC STC20010809161510408/09/01 16:15:31  5-MIN KSTC 092215Z AUTO 32016G21KT 10SM CLR 25/08 A3000 950 34 2400 310/16G21 RMK AO2
14926KSTC STC20010809162010408/09/01 16:20:31  5-MIN KSTC 092220Z AUTO 33015G21KT 10SM CLR 24/07 A3000 950 33 2300 330/15G21 RMK AO2
14926KSTC STC20010809162510408/09/01 16:25:31  5-MIN KSTC 092225Z AUTO 33013G18KT 10SM CLR 24/07 A3000 950 33 2300 330/13G18 RMK AO2
14926KSTC STC20010809163010408/09/01 16:30:31  5-MIN KSTC 092230Z AUTO 33012G18KT 10SM CLR 24/07 A3000 950 33 2300 320/12G18 RMK AO2
14926KSTC STC20010809163509808/09/01 16:35:31  5-MIN KSTC 092235Z AUTO 34010KT 10SM CLR 24/08 A3000 950 34 2300 340/10 RMK AO2
14926KSTC STC20010809164009808/09/01 16:40:31  5-MIN KSTC 092240Z AUTO 31012KT 10SM CLR 24/09 A3000 950 36 2300 300/12 RMK AO2
14926KSTC STC20010809164510408/09/01 16:45:31  5-MIN KSTC 092245Z AUTO 32013G20KT 10SM CLR 24/09 A3000 950 36 2300 320/13G20 RMK AO2
14926KSTC STC20010809165012108/09/01 16:50:31  5-MIN KSTC 092250Z AUTO 32014G20KT 10SM CLR 24/09 A3000 950 38 2200 310/14G20 RMK AO2 SLP163 T02390089
14926KSTC STC20010809165510408/09/01 16:55:31  5-MIN KSTC 092255Z AUTO 33011G19KT 10SM CLR 24/08 A3000 950 36 2200 320/11G19 RMK AO2
14926KSTC STC20010809170010408/09/01 17:00:31  5-MIN KSTC 092300Z AUTO 33012G19KT 10SM CLR 24/09 A3000 950 36 2300 330/12G19 RMK AO2
14926KSTC STC20010809170510408/09/01 17:05:31  5-MIN KSTC 092305Z AUTO 33012G18KT 10SM CLR 24/08 A3000 950 36 2200 330/12G18 RMK AO2
14926KSTC STC20010809171009808/09/01 17:10:31  5-MIN KSTC 092310Z AUTO 35011KT 10SM CLR 24/09 A3000 950 38 2200 350/11 RMK AO2
14926KSTC STC20010809171509808/09/01 17:15:31  5-MIN KSTC 092315Z AUTO 33014KT 10SM CLR 23/08 A3001 950 38 2200 330/14 RMK AO2
14926KSTC STC20010809172010408/09/01 17:20:31  5-MIN KSTC 092320Z AUTO 32011G17KT 10SM CLR 23/09 A3001 950 39 2200 320/11G17 RMK AO2
14926KSTC STC20010809172510408/09/01 17:25:31  5-MIN KSTC 092325Z AUTO 32014G19KT 10SM CLR 23/09 A3000 950 39 2200 320/14G19 RMK AO2
14926KSTC STC20010809173010408/09/01 17:30:31  5-MIN KSTC 092330Z AUTO 32015G19KT 10SM CLR 23/08 A3000 950 38 2200 320/15G19 RMK AO2
14926KSTC STC20010809173510408/09/01 17:35:31  5-MIN KSTC 092335Z AUTO 32016G20KT 10SM CLR 23/09 A3001 950 40 2100 310/16G20 RMK AO2
14926KSTC STC20010809174010408/09/01 17:40:31  5-MIN KSTC 092340Z AUTO 33012G20KT 10SM CLR 23/09 A3001 950 40 2100 330/12G20 RMK AO2
14926KSTC STC20010809174509808/09/01 17:45:31  5-MIN KSTC 092345Z AUTO 32013KT 10SM CLR 23/09 A3001 950 40 2100 320/13 RMK AO2
14926KSTC STC20010809175013308/09/01 17:50:31  5-MIN KSTC 092350Z AUTO 33013KT 10SM CLR 23/09 A3001 950 40 2100 320/13 RMK AO2 SLP164 T02280089 10261 20228 53009
14926KSTC STC20010809175509808/09/01 17:55:31  5-MIN KSTC 092355Z AUTO 32011KT 10SM CLR 23/09 A3001 950 42 2100 320/11 RMK AO2
14926KSTC STC20010809180010408/09/01 18:00:31  5-MIN KSTC 100000Z AUTO 31014G18KT 10SM CLR 23/09 A3001 950 42 2100 310/14G18 RMK AO2
14926KSTC STC20010809180509808/09/01 18:05:31  5-MIN KSTC 100005Z AUTO 31015KT 10SM CLR 22/09 A3001 940 42 2000 310/15 RMK AO2
14926KSTC STC20010809181010408/09/01 18:10:31  5-MIN KSTC 100010Z AUTO 32014G21KT 10SM CLR 22/08 A3001 940 40 2000 320/14G21 RMK AO2
14926KSTC STC20010809181510408/09/01 18:15:31  5-MIN KSTC 100015Z AUTO 33010G21KT 10SM CLR 22/09 A3001 940 42 2000 330/10G21 RMK AO2
14926KSTC STC20010809182009808/09/01 18:20:31  5-MIN KSTC 100020Z AUTO 33011KT 10SM CLR 22/09 A3001 940 43 2000 330/11 RMK AO2
14926KSTC STC20010809182510408/09/01 18:25:31  5-MIN KSTC 100025Z AUTO 33012G16KT 10SM CLR 22/09 A3001 940 45 2000 320/12G16 RMK AO2
14926KSTC STC20010809183010408/09/01 18:30:31  5-MIN KSTC 100030Z AUTO 33009G15KT 10SM CLR 22/09 A3001 950 45 2000 330/09G15 RMK AO2
14926KSTC STC20010809183509808/09/01 18:35:31  5-MIN KSTC 100035Z AUTO 33009KT 10SM CLR 21/09 A3001 950 47 1900 330/09 RMK AO2
14926KSTC STC20010809184009808/09/01 18:40:31  5-MIN KSTC 100040Z AUTO 33012KT 10SM CLR 21/09 A3001 950 47 1900 320/12 RMK AO2
14926KSTC STC20010809184510408/09/01 18:45:31  5-MIN KSTC 100045Z AUTO 33010G17KT 10SM CLR 21/09 A3001 950 47 1900 330/10G17 RMK AO2
14926KSTC STC20010809185012108/09/01 18:50:31  5-MIN KSTC 100050Z AUTO 33007G17KT 10SM CLR 21/09 A3001 950 48 1900 330/07G17 RMK AO2 SLP166 T02060094
14926KSTC STC20010809185510408/09/01 18:55:31  5-MIN KSTC 100055Z AUTO 33010G16KT 10SM CLR 21/09 A3001 940 48 1800 320/10G16 RMK AO2
14926KSTC STC20010809190009808/09/01 19:00:31  5-MIN KSTC 100100Z AUTO 33011KT 10SM CLR 21/09 A3001 940 46 1800 320/11 RMK AO2
14926KSTC STC20010809190509808/09/01 19:05:31  5-MIN KSTC 100105Z AUTO 33011KT 10SM CLR 20/09 A3001 940 48 1800 320/11 RMK AO2
14926KSTC STC20010809191009808/09/01 19:10:31  5-MIN KSTC 100110Z AUTO 32011KT 10SM CLR 20/09 A3001 940 50 1800 320/11 RMK AO2
14926KSTC STC20010809191509808/09/01 19:15:31  5-MIN KSTC 100115Z AUTO 32008KT 10SM CLR 20/09 A3001 940 50 1800 320/08 RMK AO2
14926KSTC STC20010809192009808/09/01 19:20:31  5-MIN KSTC 100120Z AUTO 32009KT 10SM CLR 20/09 A3001 940 48 1800 320/09 RMK AO2
14926KSTC STC20010809192509808/09/01 19:25:31  5-MIN KSTC 100125Z AUTO 32008KT 10SM CLR 19/09 A3001 940 52 1700 320/08 RMK AO2
14926KSTC STC20010809193009808/09/01 19:30:31  5-MIN KSTC 100130Z AUTO 33008KT 10SM CLR 19/09 A3001 940 52 1700 320/08 RMK AO2
14926KSTC STC20010809193509808/09/01 19:35:31  5-MIN KSTC 100135Z AUTO 33008KT 10SM CLR 19/09 A3002 940 54 1600 320/08 RMK AO2
14926KSTC STC20010809194009808/09/01 19:40:31  5-MIN KSTC 100140Z AUTO 33007KT 10SM CLR 19/09 A3002 940 54 1600 330/07 RMK AO2
14926KSTC STC20010809194509808/09/01 19:45:31  5-MIN KSTC 100145Z AUTO 32008KT 10SM CLR 19/09 A3002 940 54 1600 320/08 RMK AO2
14926KSTC STC20010809195011508/09/01 19:50:31  5-MIN KSTC 100150Z AUTO 33008KT 10SM CLR 18/09 A3002 930 56 1600 330/08 RMK AO2 SLP170 T01830094
14926KSTC STC20010809195509808/09/01 19:55:31  5-MIN KSTC 100155Z AUTO 33007KT 10SM CLR 18/09 A3002 930 56 1600 320/07 RMK AO2
14926KSTC STC20010809200009808/09/01 20:00:31  5-MIN KSTC 100200Z AUTO 32008KT 10SM CLR 18/09 A3002 930 56 1600 320/08 RMK AO2
14926KSTC STC20010809200509808/09/01 20:05:31  5-MIN KSTC 100205Z AUTO 33007KT 10SM CLR 18/09 A3002 930 56 1600 320/07 RMK AO2
14926KSTC STC20010809201009808/09/01 20:10:31  5-MIN KSTC 100210Z AUTO 33008KT 10SM CLR 18/09 A3003 930 58 1500 330/08 RMK AO2
14926KSTC STC20010809201509808/09/01 20:15:31  5-MIN KSTC 100215Z AUTO 33007KT 10SM CLR 18/09 A3003 930 58 1500 330/07 RMK AO2
14926KSTC STC20010809202009808/09/01 20:20:31  5-MIN KSTC 100220Z AUTO 33006KT 10SM CLR 18/09 A3003 920 58 1500 330/06 RMK AO2
14926KSTC STC20010809202509808/09/01 20:25:31  5-MIN KSTC 100225Z AUTO 33006KT 10SM CLR 17/09 A3003 920 60 1400 330/06 RMK AO2
14926KSTC STC20010809203009808/09/01 20:30:31  5-MIN KSTC 100230Z AUTO 33005KT 10SM CLR 17/09 A3003 920 60 1400 330/05 RMK AO2
14926KSTC STC20010809203509808/09/01 20:35:31  5-MIN KSTC 100235Z AUTO 33006KT 10SM CLR 17/09 A3003 920 62 1400 320/06 RMK AO2
14926KSTC STC20010809204009808/09/01 20:40:31  5-MIN KSTC 100240Z AUTO 33006KT 10SM CLR 17/10 A3004 920 64 1400 320/06 RMK AO2
14926KSTC STC20010809204509808/09/01 20:45:31  5-MIN KSTC 100245Z AUTO 33006KT 10SM CLR 17/10 A3004 910 62 1400 330/06 RMK AO2
14926KSTC STC20010809205012108/09/01 20:50:31  5-MIN KSTC 100250Z AUTO 34005KT 10SM CLR 17/10 A3004 910 64 1400 340/05 RMK AO2 SLP178 T01670100 51006
14926KSTC STC20010809205509808/09/01 20:55:31  5-MIN KSTC 100255Z AUTO 33006KT 10SM CLR 16/10 A3004 910 67 1300 330/06 RMK AO2
14926KSTC STC20010809210009808/09/01 21:00:31  5-MIN KSTC 100300Z AUTO 34005KT 10SM CLR 16/10 A3004 910 67 1300 330/05 RMK AO2
14926KSTC STC20010809210509808/09/01 21:05:31  5-MIN KSTC 100305Z AUTO 33005KT 10SM CLR 16/10 A3005 910 67 1300 330/05 RMK AO2
14926KSTC STC20010809211009808/09/01 21:10:31  5-MIN KSTC 100310Z AUTO 34005KT 10SM CLR 16/10 A3005 910 67 1300 330/05 RMK AO2
14926KSTC STC20010809211509808/09/01 21:15:31  5-MIN KSTC 100315Z AUTO 33004KT 10SM CLR 16/10 A3005 900 69 1200 330/04 RMK AO2
14926KSTC STC20010809212009808/09/01 21:20:31  5-MIN KSTC 100320Z AUTO 33004KT 10SM CLR 16/10 A3005 900 69 1200 330/04 RMK AO2
14926KSTC STC20010809212509808/09/01 21:25:31  5-MIN KSTC 100325Z AUTO 33006KT 10SM CLR 16/10 A3006 900 69 1200 330/06 RMK AO2
14926KSTC STC20010809213009808/09/01 21:30:31  5-MIN KSTC 100330Z AUTO 33005KT 10SM CLR 16/10 A3006 900 69 1200 330/05 RMK AO2
14926KSTC STC20010809213509808/09/01 21:35:31  5-MIN KSTC 100335Z AUTO 33006KT 10SM CLR 16/10 A3006 900 69 1200 330/06 RMK AO2
14926KSTC STC20010809214009808/09/01 21:40:31  5-MIN KSTC 100340Z AUTO 34004KT 10SM CLR 16/10 A3006 900 69 1200 330/04 RMK AO2
14926KSTC STC20010810121009808/10/01 12:10:31  5-MIN KSTC 101810Z AUTO VRB04KT 10SM CLR 21/07 A3017 790 40 1700 VRB/04 RMK AO2
14926KSTC STC20010810121509808/10/01 12:15:31  5-MIN KSTC 101815Z AUTO VRB03KT 10SM CLR 21/07 A3017 790 40 1700 VRB/03 RMK AO2
14926KSTC STC20010810122009808/10/01 12:20:31  5-MIN KSTC 101820Z AUTO 35008KT 10SM CLR 22/08 A3017 800 39 1900 350/08 RMK AO2
14926KSTC STC20010810122509808/10/01 12:25:31  5-MIN KSTC 101825Z AUTO VRB04KT 10SM CLR 22/07 A3017 800 39 1800 VRB/04 RMK AO2
14926KSTC STC20010810123011408/10/01 12:30:31  5-MIN KSTC 101830Z AUTO 35008KT 050V040 10SM CLR 22/07 A3017 800 39 1800 350/08 050V040 RMK AO2
14926KSTC STC20010810123509808/10/01 12:35:31  5-MIN KSTC 101835Z AUTO VRB05KT 10SM CLR 23/08 A3017 800 37 1900 VRB/05 RMK AO2
14926KSTC STC20010810124009808/10/01 12:40:31  5-MIN KSTC 101840Z AUTO VRB03KT 10SM CLR 22/08 A3016 800 39 1900 VRB/03 RMK AO2
14926KSTC STC20010810124511408/10/01 12:45:31  5-MIN KSTC 101845Z AUTO 31007KT 270V020 10SM CLR 23/08 A3016 800 39 1900 310/07 270V020 RMK AO2
14926KSTC STC20010810125012108/10/01 12:50:31  5-MIN KSTC 101850Z AUTO 30009G14KT 10SM CLR 22/08 A3016 800 39 1900 290/09G14 RMK AO2 SLP222 T02220078
14926KSTC STC20010810125509808/10/01 12:55:31  5-MIN KSTC 101855Z AUTO 31005KT 10SM CLR 22/08 A3016 800 39 1900 310/05 RMK AO2
14926KSTC STC20010810130009808/10/01 13:00:31  5-MIN KSTC 101900Z AUTO VRB05KT 10SM CLR 22/08 A3016 800 40 1800 VRB/05 RMK AO2
14926KSTC STC20010810130510108/10/01 13:05:31  5-MIN KSTC 101905Z AUTO VRB06KT 10SM FEW055 22/08 A3016 800 40 1900 VRB/06 RMK AO2
14926KSTC STC20010810131010108/10/01 13:10:31  5-MIN KSTC 101910Z AUTO VRB04KT 10SM FEW055 22/08 A3016 800 40 1900 VRB/04 RMK AO2
14926KSTC STC20010810131510108/10/01 13:15:31  5-MIN KSTC 101915Z AUTO 33006KT 10SM FEW055 23/08 A3016 800 39 1900 330/06 RMK AO2
14926KSTC STC20010810132010108/10/01 13:20:31  5-MIN KSTC 101920Z AUTO VRB05KT 10SM SCT055 22/08 A3016 810 39 1900 VRB/05 RMK AO2
14926KSTC STC20010810132511708/10/01 13:25:31  5-MIN KSTC 101925Z AUTO 30008KT 270V360 10SM FEW055 23/08 A3016 810 39 1900 300/08 270V360 RMK AO2
14926KSTC STC20010810133010108/10/01 13:30:31  5-MIN KSTC 101930Z AUTO VRB06KT 10SM SCT055 22/08 A3016 810 40 1900 VRB/06 RMK AO2
14926KSTC STC20010810133510108/10/01 13:35:31  5-MIN KSTC 101935Z AUTO 36005KT 10SM SCT055 22/08 A3016 810 39 1900 360/05 RMK AO2
14926KSTC STC20010810134010108/10/01 13:40:31  5-MIN KSTC 101940Z AUTO 35008KT 10SM BKN055 22/08 A3015 810 42 1800 350/08 RMK AO2
14926KSTC STC20010810134510108/10/01 13:45:31  5-MIN KSTC 101945Z AUTO 33009KT 10SM SCT055 22/09 A3015 810 42 1900 330/09 RMK AO2
14926KSTC STC20010810135013408/10/01 13:50:31  5-MIN KSTC 101950Z AUTO 32008KT 300V360 10SM SCT055 22/08 A3015 810 40 1900 320/08 300V360 RMK AO2 SLP218 T02220083
14926KSTC STC20010810135510108/10/01 13:55:31  5-MIN KSTC 101955Z AUTO 36006KT 10SM SCT055 23/08 A3015 810 39 1900 360/06 RMK AO2
14926KSTC STC20010810140010108/10/01 14:00:31  5-MIN KSTC 102000Z AUTO VRB04KT 10SM FEW055 22/08 A3015 810 39 1900 VRB/04 RMK AO2
14926KSTC STC20010810140510108/10/01 14:05:31  5-MIN KSTC 102005Z AUTO 36005KT 10SM FEW055 23/08 A3015 810 39 1900 350/05 RMK AO2
14926KSTC STC20010810141010108/10/01 14:10:31  5-MIN KSTC 102010Z AUTO VRB03KT 10SM FEW060 22/08 A3015 820 40 1900 VRB/03 RMK AO2
14926KSTC STC20010810141510108/10/01 14:15:31  5-MIN KSTC 102015Z AUTO 33008KT 10SM FEW060 23/08 A3015 820 39 1900 320/08 RMK AO2
14926KSTC STC20010810142010108/10/01 14:20:31  5-MIN KSTC 102020Z AUTO 33006KT 10SM FEW060 22/08 A3015 820 40 1900 330/06 RMK AO2
14926KSTC STC20010810142510108/10/01 14:25:31  5-MIN KSTC 102025Z AUTO 32006KT 10SM SCT060 22/08 A3015 820 40 1900 320/06 RMK AO2
14926KSTC STC20010810143010108/10/01 14:30:31  5-MIN KSTC 102030Z AUTO 36005KT 10SM SCT060 23/08 A3015 820 39 1900 360/05 RMK AO2
14926KSTC STC20010810143511708/10/01 14:35:31  5-MIN KSTC 102035Z AUTO 31007KT 280V340 10SM SCT060 23/08 A3015 820 39 1900 300/07 280V340 RMK AO2
14926KSTC STC20010810144010108/10/01 14:40:31  5-MIN KSTC 102040Z AUTO 29007KT 10SM SCT060 23/08 A3015 820 37 1900 290/07 RMK AO2
14926KSTC STC20010810144510108/10/01 14:45:31  5-MIN KSTC 102045Z AUTO VRB05KT 10SM FEW060 23/08 A3014 820 37 2000 VRB/05 RMK AO2
14926KSTC STC20010810145012408/10/01 14:50:31  5-MIN KSTC 102050Z AUTO 27008KT 10SM SCT060 23/08 A3014 820 38 2000 270/08 RMK AO2 SLP215 T02330083 58002
14926KSTC STC20010810145510108/10/01 14:55:31  5-MIN KSTC 102055Z AUTO VRB06KT 10SM BKN060 23/08 A3015 820 38 2000 VRB/06 RMK AO2
14926KSTC STC20010810150010108/10/01 15:00:31  5-MIN KSTC 102100Z AUTO 24007KT 10SM BKN060 23/08 A3015 820 39 1900 240/07 RMK AO2
14926KSTC STC20010810150510108/10/01 15:05:31  5-MIN KSTC 102105Z AUTO 30007KT 10SM BKN060 23/08 A3014 820 39 2000 300/07 RMK AO2
14926KSTC STC20010810151010108/10/01 15:10:31  5-MIN KSTC 102110Z AUTO 33006KT 10SM OVC060 23/08 A3014 820 39 2000 330/06 RMK AO2
14926KSTC STC20010810151510108/10/01 15:15:31  5-MIN KSTC 102115Z AUTO 35005KT 10SM OVC060 23/08 A3014 820 39 2000 350/05 RMK AO2
14926KSTC STC20010810152010108/10/01 15:20:31  5-MIN KSTC 102120Z AUTO 31006KT 10SM BKN060 23/08 A3014 820 39 2000 300/06 RMK AO2
14926KSTC STC20010810152510108/10/01 15:25:31  5-MIN KSTC 102125Z AUTO VRB04KT 10SM BKN060 22/08 A3014 830 39 1900 VRB/04 RMK AO2
14926KSTC STC20010810153010108/10/01 15:30:31  5-MIN KSTC 102130Z AUTO 28004KT 10SM BKN060 22/08 A3014 830 39 1900 280/04 RMK AO2
14926KSTC STC20010810153510108/10/01 15:35:31  5-MIN KSTC 102135Z AUTO 35005KT 10SM BKN060 22/08 A3014 830 40 1900 340/05 RMK AO2
14926KSTC STC20010810154010108/10/01 15:40:31  5-MIN KSTC 102140Z AUTO 29007KT 10SM BKN060 24/09 A3014 830 38 2100 280/07 RMK AO2
14926KSTC STC20010810154510108/10/01 15:45:31  5-MIN KSTC 102145Z AUTO 34005KT 10SM BKN060 23/08 A3013 830 39 2000 340/05 RMK AO2
14926KSTC STC20010810155011808/10/01 15:50:31  5-MIN KSTC 102150Z AUTO 35005KT 10SM BKN060 22/08 A3013 830 40 1900 350/05 RMK AO2 SLP212 T02220083
14926KSTC STC20010810155510108/10/01 15:55:31  5-MIN KSTC 102155Z AUTO VRB04KT 10SM BKN060 23/08 A3013 830 39 2000 VRB/04 RMK AO2
14926KSTC STC20010810160010108/10/01 16:00:31  5-MIN KSTC 102200Z AUTO 30008KT 10SM BKN060 24/08 A3013 830 35 2100 300/08 RMK AO2
14926KSTC STC20010810160510108/10/01 16:05:31  5-MIN KSTC 102205Z AUTO 27007KT 10SM BKN060 23/08 A3013 830 36 2000 270/07 RMK AO2
14926KSTC STC20010810161010108/10/01 16:10:31  5-MIN KSTC 102210Z AUTO 27006KT 10SM BKN060 23/08 A3013 840 38 2000 260/06 RMK AO2
14926KSTC STC20010810161510108/10/01 16:15:31  5-MIN KSTC 102215Z AUTO 28008KT 10SM BKN060 23/08 A3012 840 38 2000 280/08 RMK AO2
14926KSTC STC20010810162010108/10/01 16:20:31  5-MIN KSTC 102220Z AUTO 29006KT 10SM BKN060 23/08 A3012 840 37 2000 290/06 RMK AO2
14926KSTC STC20010810162510108/10/01 16:25:31  5-MIN KSTC 102225Z AUTO 31007KT 10SM BKN060 23/08 A3013 840 39 2000 310/07 RMK AO2
14926KSTC STC20010810163010108/10/01 16:30:31  5-MIN KSTC 102230Z AUTO 30006KT 10SM BKN060 22/08 A3012 840 40 1900 290/06 RMK AO2
14926KSTC STC20010810163510108/10/01 16:35:31  5-MIN KSTC 102235Z AUTO VRB03KT 10SM SCT060 22/08 A3012 840 40 1900 VRB/03 RMK AO2
14926KSTC STC20010810164010108/10/01 16:40:31  5-MIN KSTC 102240Z AUTO VRB03KT 10SM SCT060 23/08 A3012 840 39 2000 VRB/03 RMK AO2
14926KSTC STC20010810164510108/10/01 16:45:31  5-MIN KSTC 102245Z AUTO 00000KT 10SM SCT060 23/08 A3012 840 38 2000 000/00 RMK AO2
14926KSTC STC20010810165011808/10/01 16:50:31  5-MIN KSTC 102250Z AUTO 00000KT 10SM BKN060 23/08 A3012 840 39 2000 000/00 RMK AO2 SLP207 T02280083
14926KSTC STC20010810165510108/10/01 16:55:31  5-MIN KSTC 102255Z AUTO 26007KT 10SM BKN060 23/08 A3012 840 39 2000 250/07 RMK AO2
14926KSTC STC20010810170010108/10/01 17:00:31  5-MIN KSTC 102300Z AUTO 30007KT 10SM BKN060 23/08 A3012 840 39 2000 300/07 RMK AO2
14926KSTC STC20010810170510108/10/01 17:05:31  5-MIN KSTC 102305Z AUTO 30006KT 10SM BKN060 23/08 A3012 840 39 2000 300/06 RMK AO2
14926KSTC STC20010810171010108/10/01 17:10:31  5-MIN KSTC 102310Z AUTO 29005KT 10SM BKN060 22/08 A3012 840 40 1900 290/05 RMK AO2
14926KSTC STC20010810171510108/10/01 17:15:31  5-MIN KSTC 102315Z AUTO 33005KT 10SM SCT060 22/08 A3012 840 40 1900 320/05 RMK AO2
14926KSTC STC20010810172010108/10/01 17:20:31  5-MIN KSTC 102320Z AUTO 34004KT 10SM SCT060 23/09 A3012 840 40 2000 340/04 RMK AO2
14926KSTC STC20010810172510108/10/01 17:25:31  5-MIN KSTC 102325Z AUTO 27004KT 10SM FEW060 23/08 A3012 840 38 2000 270/04 RMK AO2
14926KSTC STC20010810173009808/10/01 17:30:31  5-MIN KSTC 102330Z AUTO 30004KT 10SM CLR 23/08 A3012 840 39 2000 300/04 RMK AO2
14926KSTC STC20010810173509808/10/01 17:35:31  5-MIN KSTC 102335Z AUTO 30007KT 10SM CLR 22/09 A3012 840 42 1900 300/07 RMK AO2
14926KSTC STC20010810174009808/10/01 17:40:31  5-MIN KSTC 102340Z AUTO 30006KT 10SM CLR 22/08 A3012 840 40 1900 290/06 RMK AO2
14926KSTC STC20010810174510108/10/01 17:45:31  5-MIN KSTC 102345Z AUTO 31004KT 10SM FEW065 22/09 A3012 850 42 1900 310/04 RMK AO2
14926KSTC STC20010810175013608/10/01 17:50:31  5-MIN KSTC 102350Z AUTO 30004KT 10SM FEW065 22/09 A3011 850 42 1900 300/04 RMK AO2 SLP205 T02220089 10239 20211 56009
14926KSTC STC20010810175510108/10/01 17:55:31  5-MIN KSTC 102355Z AUTO 29005KT 10SM FEW065 22/09 A3011 850 43 1900 290/05 RMK AO2
14926KSTC STC20010810180010108/10/01 18:00:31  5-MIN KSTC 110000Z AUTO 26005KT 10SM SCT065 22/09 A3011 850 43 1900 260/05 RMK AO2
14926KSTC STC20010810180510108/10/01 18:05:31  5-MIN KSTC 110005Z AUTO 26003KT 10SM BKN065 22/09 A3011 850 43 1900 250/03 RMK AO2
14926KSTC STC20010810181010108/10/01 18:10:31  5-MIN KSTC 110010Z AUTO 26003KT 10SM BKN065 22/08 A3011 850 40 1900 250/03 RMK AO2
14926KSTC STC20010810181510108/10/01 18:15:31  5-MIN KSTC 110015Z AUTO 26003KT 10SM BKN060 22/09 A3011 850 42 1900 260/03 RMK AO2
14926KSTC STC20010810182010108/10/01 18:20:31  5-MIN KSTC 110020Z AUTO 26004KT 10SM BKN060 22/09 A3011 850 42 1900 260/04 RMK AO2
14926KSTC STC20010810182510108/10/01 18:25:31  5-MIN KSTC 110025Z AUTO 28004KT 10SM BKN065 22/09 A3011 850 43 1900 280/04 RMK AO2
14926KSTC STC20010810183010108/10/01 18:30:31  5-MIN KSTC 110030Z AUTO 26004KT 10SM BKN065 22/09 A3011 850 43 1900 250/04 RMK AO2
14926KSTC STC20010810183510108/10/01 18:35:31  5-MIN KSTC 110035Z AUTO 27005KT 10SM BKN065 21/09 A3011 860 47 1800 260/05 RMK AO2
14926KSTC STC20010810184010108/10/01 18:40:31  5-MIN KSTC 110040Z AUTO 26004KT 10SM SCT065 21/10 A3010 860 48 1800 260/04 RMK AO2
14926KSTC STC20010810184510108/10/01 18:45:31  5-MIN KSTC 110045Z AUTO 26004KT 10SM FEW065 21/10 A3010 860 50 1700 260/04 RMK AO2
14926KSTC STC20010810185011808/10/01 18:50:31  5-MIN KSTC 110050Z AUTO 26004KT 10SM FEW065 21/11 A3010 860 52 1700 260/04 RMK AO2 SLP201 T02060106
14926KSTC STC20010810185510108/10/01 18:55:31  5-MIN KSTC 110055Z AUTO 26003KT 10SM FEW065 21/10 A3010 860 50 1700 250/03 RMK AO2
14926KSTC STC20010810190009808/10/01 19:00:31  5-MIN KSTC 110100Z AUTO 25003KT 10SM CLR 20/11 A3010 860 54 1700 250/03 RMK AO2
14926KSTC STC20010810190509808/10/01 19:05:31  5-MIN KSTC 110105Z AUTO 00000KT 10SM CLR 20/11 A3010 860 54 1700 000/00 RMK AO2
14926KSTC STC20010810191009808/10/01 19:10:31  5-MIN KSTC 110110Z AUTO 24003KT 10SM CLR 19/11 A3010 860 56 1600 240/03 RMK AO2
14926KSTC STC20010810191509808/10/01 19:15:31  5-MIN KSTC 110115Z AUTO 00000KT 10SM CLR 19/11 A3010 860 60 1600 000/00 RMK AO2
14926KSTC STC20010810192009808/10/01 19:20:31  5-MIN KSTC 110120Z AUTO 00000KT 10SM CLR 18/12 A3010 860 67 1400 000/00 RMK AO2
14926KSTC STC20010810192509808/10/01 19:25:31  5-MIN KSTC 110125Z AUTO 00000KT 10SM CLR 18/11 A3010 860 64 1400 000/00 RMK AO2
14926KSTC STC20010810193009808/10/01 19:30:31  5-MIN KSTC 110130Z AUTO 00000KT 10SM CLR 17/12 A3010 860 69 1400 000/00 RMK AO2
14926KSTC STC20010810193509808/10/01 19:35:31  5-MIN KSTC 110135Z AUTO 00000KT 10SM CLR 17/12 A3010 860 69 1400 000/00 RMK AO2
14926KSTC STC20010810194009808/10/01 19:40:31  5-MIN KSTC 110140Z AUTO 00000KT 10SM CLR 17/12 A3010 860 69 1400 000/00 RMK AO2
14926KSTC STC20010810194509808/10/01 19:45:31  5-MIN KSTC 110145Z AUTO 00000KT 10SM CLR 17/12 A3010 860 72 1300 000/00 RMK AO2
14926KSTC STC20010810195011408/10/01 19:50:31  5-MIN KSTC 110150Z AUTO 00000KT 8SM CLR 16/11 A3010 860 72 1200 000/00 RMK AO2 SLP200 T01610111
14926KSTC STC20010810195509708/10/01 19:55:31  5-MIN KSTC 110155Z AUTO 00000KT 8SM CLR 16/12 A3010 860 77 1200 000/00 RMK AO2
14926KSTC STC20010810200009808/10/01 20:00:31  5-MIN KSTC 110200Z AUTO 00000KT 10SM CLR 16/12 A3010 860 80 1200 000/00 RMK AO2
14926KSTC STC20010810200509708/10/01 20:05:31  5-MIN KSTC 110205Z AUTO 00000KT 9SM CLR 15/12 A3010 860 83 1100 000/00 RMK AO2
14926KSTC STC20010810201009708/10/01 20:10:31  5-MIN KSTC 110210Z AUTO 00000KT 8SM CLR 15/12 A3010 860 80 1100 000/00 RMK AO2
14926KSTC STC20010810201509708/10/01 20:15:31  5-MIN KSTC 110215Z AUTO 00000KT 9SM CLR 15/12 A3010 860 80 1100 000/00 RMK AO2
14926KSTC STC20010810202009808/10/01 20:20:31  5-MIN KSTC 110220Z AUTO 00000KT 10SM CLR 15/12 A3010 860 80 1100 000/00 RMK AO2
14926KSTC STC20010810202509808/10/01 20:25:31  5-MIN KSTC 110225Z AUTO 00000KT 10SM CLR 14/12 A3010 860 86 1000 000/00 RMK AO2
14926KSTC STC20010810203009808/10/01 20:30:31  5-MIN KSTC 110230Z AUTO 00000KT 10SM CLR 14/12 A3010 860 86 1000 000/00 RMK AO2
14926KSTC STC20010810203509808/10/01 20:35:31  5-MIN KSTC 110235Z AUTO 00000KT 10SM CLR 14/11 A3010 860 83 1000 000/00 RMK AO2
14926KSTC STC20010810204009808/10/01 20:40:31  5-MIN KSTC 110240Z AUTO 00000KT 10SM CLR 14/11 A3010 860 83 1000 000/00 RMK AO2
14926KSTC STC20010810204509708/10/01 20:45:31  5-MIN KSTC 110245Z AUTO 00000KT 10SM CLR 13/12 A3011 860 89 900 000/00 RMK AO2
14926KSTC STC20010810205012008/10/01 20:50:31  5-MIN KSTC 110250Z AUTO 00000KT 10SM CLR 13/11 A3011 860 86 900 000/00 RMK AO2 SLP203 T01330111 56010
14926KSTC STC20010810205509708/10/01 20:55:31  5-MIN KSTC 110255Z AUTO 00000KT 10SM CLR 13/11 A3011 860 86 900 000/00 RMK AO2
14926KSTC STC20010810210009708/10/01 21:00:31  5-MIN KSTC 110300Z AUTO 00000KT 10SM CLR 13/11 A3011 850 86 900 000/00 RMK AO2
14926KSTC STC20010810210509708/10/01 21:05:31  5-MIN KSTC 110305Z AUTO 00000KT 10SM CLR 13/11 A3011 850 86 900 000/00 RMK AO2
14926KSTC STC20010810211009708/10/01 21:10:31  5-MIN KSTC 110310Z AUTO 00000KT 10SM CLR 13/11 A3011 860 89 800 000/00 RMK AO2
14926KSTC STC20010810211509708/10/01 21:15:31  5-MIN KSTC 110315Z AUTO 00000KT 10SM CLR 13/11 A3011 860 86 900 000/00 RMK AO2
14926KSTC STC20010810212009708/10/01 21:20:31  5-MIN KSTC 110320Z AUTO 00000KT 10SM CLR 13/11 A3011 860 86 900 000/00 RMK AO2
14926KSTC STC20010810212509708/10/01 21:25:31  5-MIN KSTC 110325Z AUTO 00000KT 10SM CLR 13/11 A3011 860 86 900 000/00 RMK AO2
14926KSTC STC20010810213009708/10/01 21:30:31  5-MIN KSTC 110330Z AUTO 00000KT 10SM CLR 13/11 A3011 860 89 800 000/00 RMK AO2
14926KSTC STC20010810213509708/10/01 21:35:31  5-MIN KSTC 110335Z AUTO 00000KT 10SM CLR 13/11 A3011 850 86 900 000/00 RMK AO2
14926KSTC STC20010810214009708/10/01 21:40:31  5-MIN KSTC 110340Z AUTO 00000KT 10SM CLR 13/11 A3011 850 86 900 000/00 RMK AO2
14926KSTC STC20010810214509708/10/01 21:45:31  5-MIN KSTC 110345Z AUTO 00000KT 10SM CLR 13/11 A3011 860 89 800 000/00 RMK AO2
14926KSTC STC20010810215011408/10/01 21:50:31  5-MIN KSTC 110350Z AUTO 00000KT 10SM CLR 13/11 A3011 860 86 900 000/00 RMK AO2 SLP203 T01330111
14926KSTC STC20010810215509708/10/01 21:55:31  5-MIN KSTC 110355Z AUTO 00000KT 10SM CLR 13/11 A3011 850 89 800 000/00 RMK AO2
14926KSTC STC20010810220009708/10/01 22:00:31  5-MIN KSTC 110400Z AUTO 00000KT 10SM CLR 13/11 A3011 850 86 800 000/00 RMK AO2
14926KSTC STC20010810220509708/10/01 22:05:31  5-MIN KSTC 110405Z AUTO 00000KT 10SM CLR 13/11 A3011 850 89 800 000/00 RMK AO2
14926KSTC STC20010810221009708/10/01 22:10:31  5-MIN KSTC 110410Z AUTO 00000KT 10SM CLR 13/11 A3011 850 86 900 000/00 RMK AO2
14926KSTC STC20010810221509708/10/01 22:15:31  5-MIN KSTC 110415Z AUTO 00000KT 10SM CLR 13/11 A3011 850 86 800 000/00 RMK AO2
14926KSTC STC20010810222009708/10/01 22:20:31  5-MIN KSTC 110420Z AUTO 00000KT 10SM CLR 13/11 A3011 850 86 800 000/00 RMK AO2
14926KSTC STC20010810222509708/10/01 22:25:31  5-MIN KSTC 110425Z AUTO 00000KT 10SM CLR 13/11 A3011 850 86 800 000/00 RMK AO2
14926KSTC STC20010810223009708/10/01 22:30:31  5-MIN KSTC 110430Z AUTO 00000KT 10SM CLR 12/11 A3011 850 89 800 000/00 RMK AO2
14926KSTC STC20010810223509708/10/01 22:35:31  5-MIN KSTC 110435Z AUTO 00000KT 10SM CLR 12/11 A3011 850 93 800 000/00 RMK AO2
14926KSTC STC20010810224009708/10/01 22:40:31  5-MIN KSTC 110440Z AUTO 00000KT 10SM CLR 12/11 A3011 850 93 800 000/00 RMK AO2
14926KSTC STC20010810224509708/10/01 22:45:31  5-MIN KSTC 110445Z AUTO 00000KT 10SM CLR 12/11 A3011 850 93 700 000/00 RMK AO2
14926KSTC STC20010810225011408/10/01 22:50:31  5-MIN KSTC 110450Z AUTO 00000KT 10SM CLR 12/11 A3011 850 93 800 000/00 RMK AO2 SLP204 T01220111
14926KSTC STC20010810225509708/10/01 22:55:31  5-MIN KSTC 110455Z AUTO 00000KT 10SM CLR 12/11 A3011 850 89 800 000/00 RMK AO2
14926KSTC STC20010810230009708/10/01 23:00:31  5-MIN KSTC 110500Z AUTO 00000KT 10SM CLR 12/11 A3011 850 89 800 000/00 RMK AO2
14926KSTC STC20010810230509708/10/01 23:05:31  5-MIN KSTC 110505Z AUTO 00000KT 10SM CLR 12/11 A3011 850 89 800 000/00 RMK AO2
14926KSTC STC20010810231009708/10/01 23:10:31  5-MIN KSTC 110510Z AUTO 17003KT 10SM CLR 12/10 A3011 850 89 700 160/03 RMK AO2
14926KSTC STC20010810231509708/10/01 23:15:31  5-MIN KSTC 110515Z AUTO 16003KT 10SM CLR 11/10 A3011 850 96 600 160/03 RMK AO2
14926KSTC STC20010810232009708/10/01 23:20:31  5-MIN KSTC 110520Z AUTO 16003KT 10SM CLR 11/09 A3011 850 93 600 160/03 RMK AO2
14926KSTC STC20010810232509708/10/01 23:25:31  5-MIN KSTC 110525Z AUTO 16003KT 10SM CLR 11/10 A3011 850 93 600 160/03 RMK AO2
14926KSTC STC20010810233009708/10/01 23:30:31  5-MIN KSTC 110530Z AUTO 16003KT 10SM CLR 12/11 A3011 850 93 700 160/03 RMK AO2
14926KSTC STC20010810233509708/10/01 23:35:31  5-MIN KSTC 110535Z AUTO 16003KT 10SM CLR 12/11 A3011 850 93 700 150/03 RMK AO2
14926KSTC STC20010810234009708/10/01 23:40:31  5-MIN KSTC 110540Z AUTO 16003KT 10SM CLR 12/11 A3011 850 93 700 160/03 RMK AO2
14926KSTC STC20010810234509708/10/01 23:45:31  5-MIN KSTC 110545Z AUTO 16003KT 10SM CLR 12/11 A3011 850 93 700 160/03 RMK AO2
14926KSTC STC20010810235014208/10/01 23:50:31  5-MIN KSTC 110550Z AUTO 16003KT 10SM CLR 12/11 A3011 850 93 700 160/03 RMK AO2 SLP204 T01170106 10222 20106 402390089 55002
14926KSTC STC20010810235509708/10/01 23:55:31  5-MIN KSTC 110555Z AUTO 00000KT 10SM CLR 11/11 A3011 850 96 600 000/00 RMK AO2
14926KSTC STC20010811000009708/11/01 00:00:31  5-MIN KSTC 110600Z AUTO 00000KT 10SM CLR 11/10 A3011 850 93 600 000/00 RMK AO2
14926KSTC STC20010811000509708/11/01 00:05:31  5-MIN KSTC 110605Z AUTO 00000KT 10SM CLR 11/10 A3011 850 93 600 000/00 RMK AO2
14926KSTC STC20010823044509808/23/01 04:45:31  5-MIN KSTC 231045Z AUTO 05005KT 10SM CLR 18/17 A3006 900 93 1500 050/05 RMK AO2
14926KSTC STC20010823045011508/23/01 04:50:31  5-MIN KSTC 231050Z AUTO 05006KT 10SM CLR 18/17 A3006 890 93 1500 050/06 RMK AO2 SLP183 T01830172
14926KSTC STC20010823045509808/23/01 04:55:31  5-MIN KSTC 231055Z AUTO 05006KT 10SM CLR 18/17 A3007 890 93 1500 050/06 RMK AO2
14926KSTC STC20010823050009808/23/01 05:00:31  5-MIN KSTC 231100Z AUTO 05006KT 10SM CLR 18/17 A3007 890 90 1500 050/06 RMK AO2
14926KSTC STC20010823050509808/23/01 05:05:31  5-MIN KSTC 231105Z AUTO 06006KT 10SM CLR 18/17 A3007 890 90 1500 050/06 RMK AO2
14926KSTC STC20010823051009808/23/01 05:10:31  5-MIN KSTC 231110Z AUTO 05006KT 10SM CLR 18/17 A3006 890 90 1500 050/06 RMK AO2
14926KSTC STC20010823051509808/23/01 05:15:31  5-MIN KSTC 231115Z AUTO 05006KT 10SM CLR 18/17 A3006 900 93 1500 050/06 RMK AO2
14926KSTC STC20010823052009808/23/01 05:20:31  5-MIN KSTC 231120Z AUTO 06005KT 10SM CLR 18/17 A3006 900 93 1500 050/05 RMK AO2
14926KSTC STC20010823052509808/23/01 05:25:31  5-MIN KSTC 231125Z AUTO 06006KT 10SM CLR 18/17 A3006 890 93 1500 050/06 RMK AO2
14926KSTC STC20010823053009808/23/01 05:30:31  5-MIN KSTC 231130Z AUTO 06005KT 10SM CLR 18/17 A3007 890 90 1500 050/05 RMK AO2
14926KSTC STC20010823053509808/23/01 05:35:31  5-MIN KSTC 231135Z AUTO 06004KT 10SM CLR 18/17 A3007 890 90 1500 060/04 RMK AO2
14926KSTC STC20010823054009808/23/01 05:40:31  5-MIN KSTC 231140Z AUTO 07004KT 10SM CLR 18/17 A3007 880 90 1500 060/04 RMK AO2
14926KSTC STC20010823054509808/23/01 05:45:31  5-MIN KSTC 231145Z AUTO 06003KT 10SM CLR 18/17 A3008 880 90 1500 050/03 RMK AO2
14926KSTC STC20010823055013308/23/01 05:50:31  5-MIN KSTC 231150Z AUTO 00000KT 10SM CLR 18/17 A3008 880 93 1500 000/00 RMK AO2 SLP188 T01780167 10217 20178 53014
14926KSTC STC20010823055509808/23/01 05:55:31  5-MIN KSTC 231155Z AUTO 00000KT 10SM CLR 18/17 A3008 880 93 1400 000/00 RMK AO2
14926KSTC STC20010823060009808/23/01 06:00:31  5-MIN KSTC 231200Z AUTO 06004KT 10SM CLR 18/17 A3008 880 93 1400 060/04 RMK AO2
14926KSTC STC20010823060509808/23/01 06:05:31  5-MIN KSTC 231205Z AUTO 06005KT 10SM CLR 18/17 A3008 880 93 1400 050/05 RMK AO2
14926KSTC STC20010823061009808/23/01 06:10:31  5-MIN KSTC 231210Z AUTO 05005KT 10SM CLR 18/17 A3008 880 90 1500 050/05 RMK AO2
14926KSTC STC20010823061509808/23/01 06:15:31  5-MIN KSTC 231215Z AUTO 06005KT 10SM CLR 18/17 A3009 870 90 1500 050/05 RMK AO2
14926KSTC STC20010823062009808/23/01 06:20:31  5-MIN KSTC 231220Z AUTO 06005KT 10SM CLR 18/17 A3009 870 90 1500 060/05 RMK AO2
14926KSTC STC20010823062509808/23/01 06:25:31  5-MIN KSTC 231225Z AUTO 06006KT 10SM CLR 19/17 A3009 870 90 1600 050/06 RMK AO2
14926KSTC STC20010823063009808/23/01 06:30:31  5-MIN KSTC 231230Z AUTO 06004KT 10SM CLR 19/17 A3009 870 90 1600 060/04 RMK AO2
14926KSTC STC20010823063509808/23/01 06:35:31  5-MIN KSTC 231235Z AUTO 05006KT 10SM CLR 19/17 A3009 870 90 1600 050/06 RMK AO2
14926KSTC STC20010823064009808/23/01 06:40:31  5-MIN KSTC 231240Z AUTO 05005KT 10SM CLR 19/17 A3009 870 90 1600 050/05 RMK AO2
14926KSTC STC20010823064509808/23/01 06:45:31  5-MIN KSTC 231245Z AUTO 05005KT 10SM CLR 19/17 A3009 870 87 1600 050/05 RMK AO2
14926KSTC STC20010823065011508/23/01 06:50:31  5-MIN KSTC 231250Z AUTO 06005KT 10SM CLR 19/17 A3009 870 87 1600 060/05 RMK AO2 SLP194 T01940172
14926KSTC STC20010823065509808/23/01 06:55:31  5-MIN KSTC 231255Z AUTO 06005KT 10SM CLR 19/17 A3010 860 87 1600 060/05 RMK AO2
14926KSTC STC20010823070009808/23/01 07:00:31  5-MIN KSTC 231300Z AUTO 07007KT 10SM CLR 19/17 A3010 860 87 1600 060/07 RMK AO2
14926KSTC STC20010823070509808/23/01 07:05:31  5-MIN KSTC 231305Z AUTO 06005KT 10SM CLR 20/17 A3010 860 84 1700 050/05 RMK AO2
14926KSTC STC20010823071009808/23/01 07:10:31  5-MIN KSTC 231310Z AUTO 06007KT 10SM CLR 20/17 A3010 860 84 1700 060/07 RMK AO2
14926KSTC STC20010823071509808/23/01 07:15:31  5-MIN KSTC 231315Z AUTO 06006KT 10SM CLR 20/17 A3010 860 84 1700 060/06 RMK AO2
14926KSTC STC20010823072009808/23/01 07:20:31  5-MIN KSTC 231320Z AUTO 07007KT 10SM CLR 20/17 A3010 860 84 1700 060/07 RMK AO2
14926KSTC STC20010823072509808/23/01 07:25:31  5-MIN KSTC 231325Z AUTO 08007KT 10SM CLR 21/17 A3010 860 81 1700 070/07 RMK AO2
14926KSTC STC20010823073009808/23/01 07:30:31  5-MIN KSTC 231330Z AUTO 06007KT 10SM CLR 21/17 A3010 860 81 1700 060/07 RMK AO2
14926KSTC STC20010823073509808/23/01 07:35:31  5-MIN KSTC 231335Z AUTO 06006KT 10SM CLR 21/17 A3010 860 81 1700 060/06 RMK AO2
14926KSTC STC20010823074009708/23/01 07:40:31  5-MIN KSTC 231340Z AUTO VRB05KT 9SM CLR 21/18 A3010 860 81 1800 VRB/05 RMK AO2
14926KSTC STC20010823074509708/23/01 07:45:31  5-MIN KSTC 231345Z AUTO 06006KT 9SM CLR 21/18 A3010 860 81 1800 060/06 RMK AO2
14926KSTC STC20010823075011508/23/01 07:50:31  5-MIN KSTC 231350Z AUTO 06007KT 10SM CLR 21/18 A3010 860 81 1800 060/07 RMK AO2 SLP197 T02110178
14926KSTC STC20010823075509808/23/01 07:55:31  5-MIN KSTC 231355Z AUTO 07006KT 10SM CLR 21/18 A3010 860 81 1800 070/06 RMK AO2
14926KSTC STC20010823080009808/23/01 08:00:31  5-MIN KSTC 231400Z AUTO 08005KT 10SM CLR 22/18 A3010 860 81 1900 070/05 RMK AO2
14926KSTC STC20010823080509708/23/01 08:05:31  5-MIN KSTC 231405Z AUTO 08006KT 9SM CLR 22/18 A3010 860 81 1900 080/06 RMK AO2
14926KSTC STC20010823081009708/23/01 08:10:31  5-MIN KSTC 231410Z AUTO 09007KT 7SM CLR 22/18 A3010 860 78 1900 090/07 RMK AO2
14926KSTC STC20010823081509708/23/01 08:15:31  5-MIN KSTC 231415Z AUTO 07007KT 8SM CLR 22/18 A3010 860 81 1900 070/07 RMK AO2
14926KSTC STC20010823082009808/23/01 08:20:31  5-MIN KSTC 231420Z AUTO 08006KT 10SM CLR 22/18 A3010 860 78 1900 070/06 RMK AO2
14926KSTC STC20010823082509708/23/01 08:25:31  5-MIN KSTC 231425Z AUTO 05007KT 9SM CLR 23/19 A3010 860 78 2000 040/07 RMK AO2
14926KSTC STC20010823083009708/23/01 08:30:31  5-MIN KSTC 231430Z AUTO 07006KT 9SM CLR 22/19 A3010 860 81 1900 070/06 RMK AO2
14926KSTC STC20010823083509808/23/01 08:35:31  5-MIN KSTC 231435Z AUTO 08006KT 10SM CLR 22/19 A3010 860 81 1900 070/06 RMK AO2
14926KSTC STC20010823084009708/23/01 08:40:31  5-MIN KSTC 231440Z AUTO 09007KT 9SM CLR 23/19 A3010 860 76 2100 080/07 RMK AO2
14926KSTC STC20010823084509708/23/01 08:45:31  5-MIN KSTC 231445Z AUTO 08007KT 7SM CLR 23/19 A3010 860 76 2100 070/07 RMK AO2
14926KSTC STC20010823085012008/23/01 08:50:31  5-MIN KSTC 231450Z AUTO 09007KT 8SM CLR 23/19 A3010 860 76 2100 080/07 RMK AO2 SLP196 T02330189 53013
14926KSTC STC20010823085509808/23/01 08:55:31  5-MIN KSTC 231455Z AUTO 07006KT 10SM CLR 23/19 A3010 860 76 2100 070/06 RMK AO2
14926KSTC STC20010823090009808/23/01 09:00:31  5-MIN KSTC 231500Z AUTO 06006KT 10SM CLR 23/19 A3010 860 78 2100 060/06 RMK AO2
14926KSTC STC20010823090509808/23/01 09:05:31  5-MIN KSTC 231505Z AUTO 07007KT 10SM CLR 24/19 A3010 860 76 2100 070/07 RMK AO2
14926KSTC STC20010823091009808/23/01 09:10:31  5-MIN KSTC 231510Z AUTO VRB05KT 10SM CLR 24/19 A3010 860 76 2100 VRB/05 RMK AO2
14926KSTC STC20010823091509808/23/01 09:15:31  5-MIN KSTC 231515Z AUTO 12007KT 10SM CLR 24/19 A3010 860 73 2200 120/07 RMK AO2
14926KSTC STC20010823092009808/23/01 09:20:31  5-MIN KSTC 231520Z AUTO 08005KT 10SM CLR 24/19 A3010 860 73 2200 070/05 RMK AO2
14926KSTC STC20010823092509808/23/01 09:25:31  5-MIN KSTC 231525Z AUTO 11005KT 10SM CLR 24/19 A3010 860 73 2200 100/05 RMK AO2
14926KSTC STC20010823093009808/23/01 09:30:31  5-MIN KSTC 231530Z AUTO 10005KT 10SM CLR 24/19 A3011 860 73 2200 100/05 RMK AO2
14926KSTC STC20010823093509808/23/01 09:35:31  5-MIN KSTC 231535Z AUTO 09005KT 10SM CLR 24/19 A3011 850 73 2200 090/05 RMK AO2
14926KSTC STC20010823094009808/23/01 09:40:31  5-MIN KSTC 231540Z AUTO VRB04KT 10SM CLR 24/19 A3011 850 73 2200 VRB/04 RMK AO2
14926KSTC STC20010823094509808/23/01 09:45:31  5-MIN KSTC 231545Z AUTO 09006KT 10SM CLR 26/20 A3011 850 71 2300 090/06 RMK AO2
14926KSTC STC20010823095011508/23/01 09:50:31  5-MIN KSTC 231550Z AUTO 08005KT 10SM CLR 25/20 A3011 850 73 2200 080/05 RMK AO2 SLP199 T02500200
14926KSTC STC20010823095509808/23/01 09:55:31  5-MIN KSTC 231555Z AUTO 07006KT 10SM CLR 25/20 A3011 850 73 2200 070/06 RMK AO2
14926KSTC STC20010823100009808/23/01 10:00:31  5-MIN KSTC 231600Z AUTO 06007KT 10SM CLR 26/20 A3011 850 71 2300 060/07 RMK AO2
14926KSTC STC20010823100509808/23/01 10:05:31  5-MIN KSTC 231605Z AUTO 07006KT 10SM CLR 26/20 A3011 850 71 2300 070/06 RMK AO2
14926KSTC STC20010823101009708/23/01 10:10:31  5-MIN KSTC 231610Z AUTO 08009KT 9SM CLR 26/20 A3011 850 68 2400 080/09 RMK AO2
14926KSTC STC20010823101509708/23/01 10:15:31  5-MIN KSTC 231615Z AUTO 05007KT 9SM CLR 26/20 A3011 850 71 2300 040/07 RMK AO2
14926KSTC STC20010823102009808/23/01 10:20:31  5-MIN KSTC 231620Z AUTO 06008KT 10SM CLR 26/20 A3011 850 68 2400 050/08 RMK AO2
14926KSTC STC20010823102509808/23/01 10:25:31  5-MIN KSTC 231625Z AUTO 08009KT 10SM CLR 26/20 A3011 850 68 2400 080/09 RMK AO2
14926KSTC STC20010823103009808/23/01 10:30:31  5-MIN KSTC 231630Z AUTO 08008KT 10SM CLR 26/20 A3011 860 68 2400 080/08 RMK AO2
14926KSTC STC20010823103509808/23/01 10:35:31  5-MIN KSTC 231635Z AUTO 09007KT 10SM CLR 27/20 A3011 850 66 2400 090/07 RMK AO2
14926KSTC STC20010823104009808/23/01 10:40:31  5-MIN KSTC 231640Z AUTO 07008KT 10SM CLR 26/20 A3011 850 68 2400 070/08 RMK AO2
14926KSTC STC20010823104509808/23/01 10:45:31  5-MIN KSTC 231645Z AUTO 09008KT 10SM CLR 27/20 A3011 850 66 2400 090/08 RMK AO2
14926KSTC STC20010823105011508/23/01 10:50:31  5-MIN KSTC 231650Z AUTO 10008KT 10SM CLR 26/20 A3011 850 68 2400 090/08 RMK AO2 SLP200 T02610200
14926KSTC STC20010823105509808/23/01 10:55:31  5-MIN KSTC 231655Z AUTO 10009KT 10SM CLR 27/20 A3011 850 66 2400 100/09 RMK AO2
14926KSTC STC20010823110009808/23/01 11:00:31  5-MIN KSTC 231700Z AUTO 08006KT 10SM CLR 27/20 A3011 850 66 2400 080/06 RMK AO2
14926KSTC STC20010823110509808/23/01 11:05:31  5-MIN KSTC 231705Z AUTO 10006KT 10SM CLR 27/19 A3011 850 64 2400 100/06 RMK AO2
14926KSTC STC20010823111009808/23/01 11:10:31  5-MIN KSTC 231710Z AUTO 08008KT 10SM CLR 27/20 A3011 850 66 2400 080/08 RMK AO2
14926KSTC STC20010823111509808/23/01 11:15:31  5-MIN KSTC 231715Z AUTO 05006KT 10SM CLR 27/20 A3012 840 66 2400 050/06 RMK AO2
14926KSTC STC20010823112009808/23/01 11:20:31  5-MIN KSTC 231720Z AUTO 04009KT 10SM CLR 27/20 A3012 850 66 2400 040/09 RMK AO2
14926KSTC STC20010823112509808/23/01 11:25:31  5-MIN KSTC 231725Z AUTO 08007KT 10SM CLR 27/20 A3012 850 64 2500 070/07 RMK AO2
14926KSTC STC20010823113009808/23/01 11:30:31  5-MIN KSTC 231730Z AUTO 07006KT 10SM CLR 27/21 A3011 850 66 2500 060/06 RMK AO2
14926KSTC STC20010823113509808/23/01 11:35:31  5-MIN KSTC 231735Z AUTO 09006KT 10SM CLR 27/20 A3011 850 64 2500 090/06 RMK AO2
14926KSTC STC20010823114009808/23/01 11:40:31  5-MIN KSTC 231740Z AUTO 09008KT 10SM CLR 27/20 A3011 850 64 2500 080/08 RMK AO2
14926KSTC STC20010823114509808/23/01 11:45:31  5-MIN KSTC 231745Z AUTO 09009KT 10SM CLR 27/20 A3011 850 64 2500 090/09 RMK AO2
14926KSTC STC20010823115013308/23/01 11:50:31  5-MIN KSTC 231750Z AUTO 07007KT 10SM CLR 27/20 A3011 850 64 2500 070/07 RMK AO2 SLP198 T02720200 10272 20178 50007
14926KSTC STC20010823115510108/23/01 11:55:31  5-MIN KSTC 231755Z AUTO 07009KT 10SM FEW026 27/20 A3011 850 64 2500 060/09 RMK AO2
14926KSTC STC20010823120010108/23/01 12:00:31  5-MIN KSTC 231800Z AUTO VRB05KT 10SM FEW026 27/21 A3011 850 66 2500 VRB/05 RMK AO2
14926KSTC STC20010823120510108/23/01 12:05:31  5-MIN KSTC 231805Z AUTO 08008KT 10SM FEW026 28/20 A3011 850 62 2600 080/08 RMK AO2
14926KSTC STC20010823121010108/23/01 12:10:31  5-MIN KSTC 231810Z AUTO 08008KT 10SM FEW026 28/20 A3011 860 62 2600 080/08 RMK AO2
14926KSTC STC20010823121510108/23/01 12:15:31  5-MIN KSTC 231815Z AUTO 08008KT 10SM FEW026 28/20 A3010 860 62 2600 080/08 RMK AO2
14926KSTC STC20010823122010108/23/01 12:20:31  5-MIN KSTC 231820Z AUTO 07009KT 10SM FEW026 27/21 A3010 860 66 2500 070/09 RMK AO2
14926KSTC STC20010823122509808/23/01 12:25:31  5-MIN KSTC 231825Z AUTO 06009KT 10SM CLR 27/21 A3010 860 66 2500 060/09 RMK AO2
14926KSTC STC20010823123009808/23/01 12:30:31  5-MIN KSTC 231830Z AUTO 06008KT 10SM CLR 28/21 A3010 860 64 2600 060/08 RMK AO2
14926KSTC STC20010823123509808/23/01 12:35:31  5-MIN KSTC 231835Z AUTO 10007KT 10SM CLR 28/21 A3010 860 64 2600 100/07 RMK AO2
14926KSTC STC20010823124009808/23/01 12:40:31  5-MIN KSTC 231840Z AUTO VRB06KT 10SM CLR 28/21 A3011 860 64 2600 VRB/06 RMK AO2
14926KSTC STC20010823124509808/23/01 12:45:31  5-MIN KSTC 231845Z AUTO 08008KT 10SM CLR 28/20 A3010 860 62 2600 070/08 RMK AO2
14926KSTC STC20010823125013108/23/01 12:50:31  5-MIN KSTC 231850Z AUTO 08007KT 040V110 10SM CLR 28/21 A3010 860 62 2600 080/07 040V110 RMK AO2 SLP196 T02830206
14926KSTC STC20010823125509808/23/01 12:55:31  5-MIN KSTC 231855Z AUTO 07008KT 10SM CLR 28/20 A3010 860 62 2600 070/08 RMK AO2
14926KSTC STC20010823130009808/23/01 13:00:31  5-MIN KSTC 231900Z AUTO 07006KT 10SM CLR 28/20 A3010 860 62 2600 060/06 RMK AO2
14926KSTC STC20010823130509808/23/01 13:05:31  5-MIN KSTC 231905Z AUTO 08007KT 10SM CLR 28/21 A3010 860 64 2600 080/07 RMK AO2
14926KSTC STC20010823131009808/23/01 13:10:31  5-MIN KSTC 231910Z AUTO 10009KT 10SM CLR 28/20 A3010 860 62 2600 090/09 RMK AO2
14926KSTC STC20010823131509808/23/01 13:15:31  5-MIN KSTC 231915Z AUTO 09009KT 10SM CLR 28/20 A3010 860 60 2600 090/09 RMK AO2
14926KSTC STC20010823132009808/23/01 13:20:31  5-MIN KSTC 231920Z AUTO VRB06KT 10SM CLR 28/20 A3010 860 62 2600 VRB/06 RMK AO2
14926KSTC STC20010823132509808/23/01 13:25:31  5-MIN KSTC 231925Z AUTO 09005KT 10SM CLR 28/21 A3010 860 62 2600 080/05 RMK AO2
14926KSTC STC20010823133010408/23/01 13:30:31  5-MIN KSTC 231930Z AUTO 07008G14KT 10SM CLR 28/20 A3010 860 60 2600 060/08G14 RMK AO2
14926KSTC STC20010823133509808/23/01 13:35:31  5-MIN KSTC 231935Z AUTO 09009KT 10SM CLR 28/20 A3010 860 60 2600 090/09 RMK AO2
14926KSTC STC20010823134009808/23/01 13:40:31  5-MIN KSTC 231940Z AUTO 06010KT 10SM CLR 28/20 A3010 860 60 2600 050/10 RMK AO2
14926KSTC STC20010823134509808/23/01 13:45:31  5-MIN KSTC 231945Z AUTO 08008KT 10SM CLR 28/19 A3010 860 58 2600 080/08 RMK AO2
14926KSTC STC20010823135011508/23/01 13:50:31  5-MIN KSTC 231950Z AUTO 07010KT 10SM CLR 28/19 A3010 860 58 2600 070/10 RMK AO2 SLP194 T02830194
14926KSTC STC20010823135509808/23/01 13:55:31  5-MIN KSTC 231955Z AUTO 08010KT 10SM CLR 28/19 A3009 870 60 2600 070/10 RMK AO2
14926KSTC STC20010823140009708/23/01 14:00:31  5-MIN KSTC 232000Z AUTO 09008KT 9SM CLR 28/20 A3009 870 60 2600 080/08 RMK AO2
14926KSTC STC20010823140511308/23/01 14:05:31  5-MIN KSTC 232005Z AUTO 10008KT 050V120 9SM CLR 28/20 A3009 870 60 2600 090/08 050V120 RMK AO2
14926KSTC STC20010823141009708/23/01 14:10:31  5-MIN KSTC 232010Z AUTO 09007KT 9SM CLR 29/20 A3009 870 58 2700 080/07 RMK AO2
14926KSTC STC20010823141510008/23/01 14:15:31  5-MIN KSTC 232015Z AUTO 10009KT 8SM FEW031 29/20 A3009 870 58 2700 090/09 RMK AO2
14926KSTC STC20010823142010008/23/01 14:20:31  5-MIN KSTC 232020Z AUTO 11008KT 8SM FEW031 28/20 A3009 870 60 2600 110/08 RMK AO2
14926KSTC STC20010823142510008/23/01 14:25:31  5-MIN KSTC 232025Z AUTO 08008KT 8SM FEW031 28/20 A3009 870 60 2600 080/08 RMK AO2
14926KSTC STC20010823143011608/23/01 14:30:31  5-MIN KSTC 232030Z AUTO 07008KT 030V100 9SM FEW031 28/20 A3009 870 60 2600 070/08 030V100 RMK AO2
14926KSTC STC20010823143510008/23/01 14:35:31  5-MIN KSTC 232035Z AUTO 07008KT 8SM FEW031 28/20 A3009 870 62 2600 060/08 RMK AO2
14926KSTC STC20010823144010008/23/01 14:40:31  5-MIN KSTC 232040Z AUTO 10008KT 7SM SCT035 28/19 A3009 870 58 2600 100/08 RMK AO2
14926KSTC STC20010823144510308/23/01 14:45:31  5-MIN KSTC 232045Z AUTO 07005KT 5SM HZ SCT035 28/20 A3009 870 62 2600 070/05 RMK AO2
14926KSTC STC20010823145012608/23/01 14:50:31  5-MIN KSTC 232050Z AUTO 11008KT 5SM HZ FEW035 28/19 A3009 870 58 2600 110/08 RMK AO2 SLP191 T02830194 50003
14926KSTC STC20010823145510008/23/01 14:55:31  5-MIN KSTC 232055Z AUTO 11009KT 7SM FEW035 28/19 A3009 870 58 2600 100/09 RMK AO2
14926KSTC STC20010823150010008/23/01 15:00:31  5-MIN KSTC 232100Z AUTO 09007KT 7SM FEW035 28/19 A3009 870 58 2600 090/07 RMK AO2
14926KSTC STC20010823150510008/23/01 15:05:31  5-MIN KSTC 232105Z AUTO 09008KT 7SM FEW038 28/19 A3009 870 56 2600 090/08 RMK AO2
14926KSTC STC20010823151010008/23/01 15:10:31  5-MIN KSTC 232110Z AUTO 11005KT 6SM HZ CLR 28/19 A3008 870 60 2600 110/05 RMK AO2
14926KSTC STC20010823151510308/23/01 15:15:31  5-MIN KSTC 232115Z AUTO 07007KT 6SM HZ FEW037 28/19 A3008 880 58 2600 070/07 RMK AO2
14926KSTC STC20010823152010108/23/01 15:20:31  5-MIN KSTC 232120Z AUTO 08010KT 10SM FEW037 29/19 A3008 880 56 2700 080/10 RMK AO2
14926KSTC STC20010823152509808/23/01 15:25:31  5-MIN KSTC 232125Z AUTO 07010KT 10SM CLR 28/19 A3008 880 56 2600 070/10 RMK AO2
14926KSTC STC20010823153009808/23/01 15:30:31  5-MIN KSTC 232130Z AUTO VRB06KT 10SM CLR 28/19 A3008 880 58 2600 VRB/06 RMK AO2
14926KSTC STC20010823153511708/23/01 15:35:31  5-MIN KSTC 232135Z AUTO 08007KT 060V120 10SM FEW037 28/19 A3008 880 58 2600 080/07 060V120 RMK AO2
14926KSTC STC20010823154010108/23/01 15:40:31  5-MIN KSTC 232140Z AUTO 08008KT 10SM FEW037 28/19 A3008 880 56 2600 080/08 RMK AO2
14926KSTC STC20010823154511408/23/01 15:45:31  5-MIN KSTC 232145Z AUTO 09007KT 060V120 10SM CLR 28/19 A3008 880 56 2700 080/07 060V120 RMK AO2
14926KSTC STC20010823155013108/23/01 15:50:31  5-MIN KSTC 232150Z AUTO 11007KT 080V140 10SM CLR 28/19 A3008 880 56 2700 110/07 080V140 RMK AO2 SLP188 T02830189
14926KSTC STC20010823155509808/23/01 15:55:31  5-MIN KSTC 232155Z AUTO 09008KT 10SM CLR 28/18 A3008 880 54 2600 090/08 RMK AO2
14926KSTC STC20010823160009808/23/01 16:00:31  5-MIN KSTC 232200Z AUTO 10007KT 10SM CLR 29/18 A3008 880 52 2700 090/07 RMK AO2
14926KSTC STC20010823160509808/23/01 16:05:31  5-MIN KSTC 232205Z AUTO 09008KT 10SM CLR 29/19 A3008 880 54 2700 090/08 RMK AO2
14926KSTC STC20010823161009808/23/01 16:10:31  5-MIN KSTC 232210Z AUTO VRB05KT 10SM CLR 28/18 A3008 880 54 2700 VRB/05 RMK AO2
14926KSTC STC20010823161510108/23/01 16:15:31  5-MIN KSTC 232215Z AUTO 06007KT 10SM FEW039 28/19 A3008 880 56 2600 060/07 RMK AO2
14926KSTC STC20010823162010108/23/01 16:20:31  5-MIN KSTC 232220Z AUTO 11008KT 10SM FEW039 29/19 A3008 880 54 2700 110/08 RMK AO2
14926KSTC STC20010823162510108/23/01 16:25:31  5-MIN KSTC 232225Z AUTO 09006KT 10SM FEW039 28/19 A3008 880 56 2600 090/06 RMK AO2
14926KSTC STC20010823163010108/23/01 16:30:31  5-MIN KSTC 232230Z AUTO 10007KT 10SM FEW039 28/19 A3008 880 56 2600 100/07 RMK AO2
14926KSTC STC20010823163510108/23/01 16:35:31  5-MIN KSTC 232235Z AUTO 10006KT 10SM FEW039 28/18 A3008 880 54 2700 090/06 RMK AO2
14926KSTC STC20010823164010108/23/01 16:40:31  5-MIN KSTC 232240Z AUTO 10007KT 10SM FEW039 28/18 A3008 880 54 2700 100/07 RMK AO2
14926KSTC STC20010823181009808/23/01 18:10:31  5-MIN KSTC 240010Z AUTO 08008KT 10SM CLR 26/19 A3007 890 64 2400 070/08 RMK AO2
14926KSTC STC20010823181509808/23/01 18:15:31  5-MIN KSTC 240015Z AUTO 09008KT 10SM CLR 26/19 A3007 890 66 2300 080/08 RMK AO2
14926KSTC STC20010823182009808/23/01 18:20:31  5-MIN KSTC 240020Z AUTO 07008KT 10SM CLR 26/19 A3007 890 66 2300 070/08 RMK AO2
14926KSTC STC20010823182509808/23/01 18:25:31  5-MIN KSTC 240025Z AUTO 08009KT 10SM CLR 26/19 A3007 890 66 2400 070/09 RMK AO2
14926KSTC STC20010823183009808/23/01 18:30:31  5-MIN KSTC 240030Z AUTO 08008KT 10SM CLR 25/19 A3007 890 68 2300 070/08 RMK AO2
14926KSTC STC20010823183509808/23/01 18:35:31  5-MIN KSTC 240035Z AUTO 08007KT 10SM CLR 25/19 A3007 890 68 2300 080/07 RMK AO2
14926KSTC STC20010823184009808/23/01 18:40:31  5-MIN KSTC 240040Z AUTO 08006KT 10SM CLR 24/19 A3006 890 71 2200 070/06 RMK AO2
14926KSTC STC20010823184509808/23/01 18:45:31  5-MIN KSTC 240045Z AUTO 08007KT 10SM CLR 24/18 A3007 890 68 2200 080/07 RMK AO2
14926KSTC STC20010823185011508/23/01 18:50:31  5-MIN KSTC 240050Z AUTO 08006KT 10SM CLR 24/18 A3007 890 68 2200 080/06 RMK AO2 SLP187 T02440183
14926KSTC STC20010823185509808/23/01 18:55:31  5-MIN KSTC 240055Z AUTO 08006KT 10SM CLR 24/18 A3007 880 68 2200 080/06 RMK AO2
14926KSTC STC20010823190009808/23/01 19:00:31  5-MIN KSTC 240100Z AUTO 08006KT 10SM CLR 24/18 A3007 880 68 2200 080/06 RMK AO2
14926KSTC STC20010823190509808/23/01 19:05:31  5-MIN KSTC 240105Z AUTO 08006KT 10SM CLR 24/18 A3008 880 71 2200 080/06 RMK AO2
14926KSTC STC20010823191009808/23/01 19:10:31  5-MIN KSTC 240110Z AUTO 08006KT 10SM CLR 24/18 A3008 880 71 2200 080/06 RMK AO2
14926KSTC STC20010823191509808/23/01 19:15:31  5-MIN KSTC 240115Z AUTO 08006KT 10SM CLR 24/18 A3008 880 68 2200 080/06 RMK AO2
14926KSTC STC20010823192009808/23/01 19:20:31  5-MIN KSTC 240120Z AUTO 08006KT 10SM CLR 23/18 A3008 880 70 2100 080/06 RMK AO2
14926KSTC STC20010823192509808/23/01 19:25:31  5-MIN KSTC 240125Z AUTO 08005KT 10SM CLR 23/18 A3008 880 70 2100 080/05 RMK AO2
14926KSTC STC20010823193009808/23/01 19:30:31  5-MIN KSTC 240130Z AUTO 08005KT 10SM CLR 23/18 A3008 880 70 2100 070/05 RMK AO2
14926KSTC STC20010823193509808/23/01 19:35:31  5-MIN KSTC 240135Z AUTO 07005KT 10SM CLR 23/18 A3008 880 73 2000 070/05 RMK AO2
14926KSTC STC20010823194009808/23/01 19:40:31  5-MIN KSTC 240140Z AUTO 08006KT 10SM CLR 23/18 A3008 870 73 2000 070/06 RMK AO2
14926KSTC STC20010823194509808/23/01 19:45:31  5-MIN KSTC 240145Z AUTO 08007KT 10SM CLR 23/18 A3009 870 73 2000 070/07 RMK AO2
14926KSTC STC20010823195011508/23/01 19:50:31  5-MIN KSTC 240150Z AUTO 08007KT 10SM CLR 22/18 A3009 870 75 2000 070/07 RMK AO2 SLP193 T02220178
14926KSTC STC20010823195509808/23/01 19:55:31  5-MIN KSTC 240155Z AUTO 07006KT 10SM CLR 22/17 A3009 870 73 2000 070/06 RMK AO2
14926KSTC STC20010823200009808/23/01 20:00:31  5-MIN KSTC 240200Z AUTO 07008KT 10SM CLR 22/17 A3009 870 73 2000 070/08 RMK AO2
14926KSTC STC20010823200509808/23/01 20:05:31  5-MIN KSTC 240205Z AUTO 07007KT 10SM CLR 22/17 A3009 870 70 1900 070/07 RMK AO2
14926KSTC STC20010823201009808/23/01 20:10:31  5-MIN KSTC 240210Z AUTO 08007KT 10SM CLR 22/17 A3009 870 70 1900 070/07 RMK AO2
14926KSTC STC20010823201509808/23/01 20:15:31  5-MIN KSTC 240215Z AUTO 08008KT 10SM CLR 22/17 A3009 870 70 1900 080/08 RMK AO2
14926KSTC STC20010823202009808/23/01 20:20:31  5-MIN KSTC 240220Z AUTO 08008KT 10SM CLR 22/16 A3010 860 70 1900 080/08 RMK AO2
14926KSTC STC20010823202509808/23/01 20:25:31  5-MIN KSTC 240225Z AUTO 08008KT 10SM CLR 22/16 A3010 860 70 1900 070/08 RMK AO2
14926KSTC STC20010823203009808/23/01 20:30:31  5-MIN KSTC 240230Z AUTO 07009KT 10SM CLR 22/16 A3010 860 70 1900 070/09 RMK AO2
14926KSTC STC20010823203509808/23/01 20:35:31  5-MIN KSTC 240235Z AUTO 07008KT 10SM CLR 22/16 A3010 860 70 1900 070/08 RMK AO2
14926KSTC STC20010823204009808/23/01 20:40:31  5-MIN KSTC 240240Z AUTO 08009KT 10SM CLR 22/16 A3010 860 70 1900 070/09 RMK AO2
14926KSTC STC20010823204509808/23/01 20:45:31  5-MIN KSTC 240245Z AUTO 08008KT 10SM CLR 21/16 A3011 860 70 1800 080/08 RMK AO2
14926KSTC STC20010823205012708/23/01 20:50:31  5-MIN KSTC 240250Z AUTO 08008G14KT 10SM CLR 21/16 A3011 850 70 1800 080/08G14 RMK AO2 SLP199 T02110156 56005
14926KSTC STC20010823205509808/23/01 20:55:31  5-MIN KSTC 240255Z AUTO 08008KT 10SM CLR 21/16 A3011 850 70 1800 080/08 RMK AO2
14926KSTC STC20010823210009808/23/01 21:00:31  5-MIN KSTC 240300Z AUTO 08006KT 10SM CLR 21/16 A3011 850 70 1800 080/06 RMK AO2
14926KSTC STC20010823210510408/23/01 21:05:31  5-MIN KSTC 240305Z AUTO 08008G14KT 10SM CLR 21/16 A3011 850 73 1700 080/08G14 RMK AO2
14926KSTC STC20010823211009808/23/01 21:10:31  5-MIN KSTC 240310Z AUTO 08007KT 10SM CLR 21/15 A3011 850 70 1700 080/07 RMK AO2
14926KSTC STC20010823211509808/23/01 21:15:31  5-MIN KSTC 240315Z AUTO 08008KT 10SM CLR 21/15 A3011 850 70 1700 070/08 RMK AO2
14926KSTC STC20010823212009808/23/01 21:20:31  5-MIN KSTC 240320Z AUTO 08009KT 10SM CLR 21/15 A3011 850 70 1700 080/09 RMK AO2
14926KSTC STC20010823212509808/23/01 21:25:31  5-MIN KSTC 240325Z AUTO 09008KT 10SM CLR 20/15 A3011 850 72 1700 080/08 RMK AO2
14926KSTC STC20010823213009808/23/01 21:30:31  5-MIN KSTC 240330Z AUTO 08006KT 10SM CLR 20/15 A3011 850 72 1700 080/06 RMK AO2
14926KSTC STC20010823213509808/23/01 21:35:31  5-MIN KSTC 240335Z AUTO 09007KT 10SM CLR 20/15 A3012 850 72 1700 080/07 RMK AO2
14926KSTC STC20010823214009808/23/01 21:40:31  5-MIN KSTC 240340Z AUTO 08005KT 10SM CLR 19/15 A3011 850 75 1600 080/05 RMK AO2
14926KSTC STC20010823214509808/23/01 21:45:31  5-MIN KSTC 240345Z AUTO 08008KT 10SM CLR 19/14 A3011 850 72 1600 080/08 RMK AO2
14926KSTC STC20010823215011508/23/01 21:50:31  5-MIN KSTC 240350Z AUTO 09007KT 10SM CLR 19/14 A3011 850 72 1600 080/07 RMK AO2 SLP200 T01940144
14926KSTC STC20010823215509808/23/01 21:55:31  5-MIN KSTC 240355Z AUTO 08007KT 10SM CLR 19/14 A3011 850 72 1600 080/07 RMK AO2
14926KSTC STC20010823220009808/23/01 22:00:31  5-MIN KSTC 240400Z AUTO 09006KT 10SM CLR 19/14 A3011 850 72 1600 080/06 RMK AO2
14926KSTC STC20010823220509808/23/01 22:05:31  5-MIN KSTC 240405Z AUTO 08007KT 10SM CLR 19/14 A3011 850 70 1600 080/07 RMK AO2
14926KSTC STC20010823221009808/23/01 22:10:31  5-MIN KSTC 240410Z AUTO 08008KT 10SM CLR 19/14 A3011 850 72 1500 080/08 RMK AO2
14926KSTC STC20010823221509808/23/01 22:15:31  5-MIN KSTC 240415Z AUTO 09006KT 10SM CLR 19/14 A3011 850 72 1500 080/06 RMK AO2
14926KSTC STC20010823222009808/23/01 22:20:31  5-MIN KSTC 240420Z AUTO 09008KT 10SM CLR 19/14 A3011 850 72 1500 090/08 RMK AO2
14926KSTC STC20010823222509808/23/01 22:25:31  5-MIN KSTC 240425Z AUTO 08008KT 10SM CLR 19/14 A3011 850 72 1500 080/08 RMK AO2
14926KSTC STC20010823223009808/23/01 22:30:31  5-MIN KSTC 240430Z AUTO 08007KT 10SM CLR 19/13 A3011 850 70 1500 080/07 RMK AO2
14926KSTC STC20010823223509808/23/01 22:35:31  5-MIN KSTC 240435Z AUTO 09006KT 10SM CLR 18/13 A3011 850 72 1500 080/06 RMK AO2
14926KSTC STC20010823224009808/23/01 22:40:31  5-MIN KSTC 240440Z AUTO 08006KT 10SM CLR 18/13 A3011 850 72 1500 080/06 RMK AO2
14926KSTC STC20010823224509808/23/01 22:45:31  5-MIN KSTC 240445Z AUTO 09007KT 10SM CLR 18/13 A3011 850 72 1500 080/07 RMK AO2
14926KSTC STC20010823225011508/23/01 22:50:31  5-MIN KSTC 240450Z AUTO 08006KT 10SM CLR 18/13 A3011 850 70 1500 080/06 RMK AO2 SLP200 T01830128
14926KSTC STC20010823225509808/23/01 22:55:31  5-MIN KSTC 240455Z AUTO 08005KT 10SM CLR 18/13 A3011 850 70 1500 080/05 RMK AO2
14926KSTC STC20010823230009808/23/01 23:00:31  5-MIN KSTC 240500Z AUTO 08006KT 10SM CLR 18/13 A3011 850 72 1400 080/06 RMK AO2
14926KSTC STC20010823230509808/23/01 23:05:31  5-MIN KSTC 240505Z AUTO 08006KT 10SM CLR 18/13 A3011 850 72 1400 080/06 RMK AO2
14926KSTC STC20010823231009808/23/01 23:10:31  5-MIN KSTC 240510Z AUTO 08006KT 10SM CLR 18/13 A3011 850 72 1400 080/06 RMK AO2
14926KSTC STC20010823231509808/23/01 23:15:31  5-MIN KSTC 240515Z AUTO 09008KT 10SM CLR 18/12 A3011 850 69 1400 080/08 RMK AO2
14926KSTC STC20010823232009808/23/01 23:20:31  5-MIN KSTC 240520Z AUTO 08008KT 10SM CLR 18/12 A3011 850 69 1400 080/08 RMK AO2
14926KSTC STC20010823232509808/23/01 23:25:31  5-MIN KSTC 240525Z AUTO 08006KT 10SM CLR 18/12 A3011 850 69 1400 080/06 RMK AO2
14926KSTC STC20010823233009808/23/01 23:30:31  5-MIN KSTC 240530Z AUTO 08007KT 10SM CLR 17/12 A3011 850 72 1400 070/07 RMK AO2
14926KSTC STC20010823233509808/23/01 23:35:31  5-MIN KSTC 240535Z AUTO 08006KT 10SM CLR 17/12 A3011 850 72 1400 070/06 RMK AO2
14926KSTC STC20010823234009808/23/01 23:40:31  5-MIN KSTC 240540Z AUTO 08008KT 10SM CLR 17/12 A3011 850 69 1400 080/08 RMK AO2
14926KSTC STC20010823234509808/23/01 23:45:31  5-MIN KSTC 240545Z AUTO 08008KT 10SM CLR 17/12 A3011 850 69 1400 080/08 RMK AO2
14926KSTC STC20010823235014308/23/01 23:50:31  5-MIN KSTC 240550Z AUTO 08007KT 10SM CLR 17/12 A3011 860 69 1400 080/07 RMK AO2 SLP198 T01720117 10267 20172 402890172 53013
14926KSTC STC20010823235509808/23/01 23:55:31  5-MIN KSTC 240555Z AUTO 08006KT 10SM CLR 17/12 A3011 850 69 1400 080/06 RMK AO2
14926KSTC STC20010824000009808/24/01 00:00:31  5-MIN KSTC 240600Z AUTO 09006KT 10SM CLR 17/12 A3011 850 69 1400 090/06 RMK AO2
14926KSTC STC20010824000509808/24/01 00:05:31  5-MIN KSTC 240605Z AUTO 09007KT 10SM CLR 17/12 A3011 860 69 1400 080/07 RMK AO2
14926KSTC STC20010824001009808/24/01 00:10:31  5-MIN KSTC 240610Z AUTO 09006KT 10SM CLR 17/12 A3011 850 72 1300 080/06 RMK AO2
14926KSTC STC20010824001509808/24/01 00:15:31  5-MIN KSTC 240615Z AUTO 09006KT 10SM CLR 17/12 A3011 850 72 1300 090/06 RMK AO2
14926KSTC STC20010824002009808/24/01 00:20:31  5-MIN KSTC 240620Z AUTO 08008KT 10SM CLR 17/11 A3011 860 69 1300 080/08 RMK AO2
14926KSTC STC20010824002509808/24/01 00:25:31  5-MIN KSTC 240625Z AUTO 08007KT 10SM CLR 17/11 A3010 860 69 1300 080/07 RMK AO2
14926KSTC STC20010824003009808/24/01 00:30:31  5-MIN KSTC 240630Z AUTO 08006KT 10SM CLR 17/11 A3010 860 69 1300 080/06 RMK AO2
14926KSTC STC20010824003509808/24/01 00:35:31  5-MIN KSTC 240635Z AUTO 08008KT 10SM CLR 17/11 A3010 860 69 1300 080/08 RMK AO2
14926KSTC STC20010824004009808/24/01 00:40:31  5-MIN KSTC 240640Z AUTO 08006KT 10SM CLR 16/11 A3011 860 72 1200 080/06 RMK AO2
14926KSTC STC20010824004509808/24/01 00:45:31  5-MIN KSTC 240645Z AUTO 08007KT 10SM CLR 16/11 A3011 860 72 1200 080/07 RMK AO2
14926KSTC STC20010824005011508/24/01 00:50:31  5-MIN KSTC 240650Z AUTO 08007KT 10SM CLR 16/11 A3010 860 72 1200 080/07 RMK AO2 SLP198 T01610111
14926KSTC STC20010824005509808/24/01 00:55:31  5-MIN KSTC 240655Z AUTO 08005KT 10SM CLR 16/11 A3011 860 72 1200 070/05 RMK AO2
14926KSTC STC20010824010009808/24/01 01:00:31  5-MIN KSTC 240700Z AUTO 08007KT 10SM CLR 16/11 A3011 860 72 1200 070/07 RMK AO2
14926KSTC STC20010824010509808/24/01 01:05:31  5-MIN KSTC 240705Z AUTO 08006KT 10SM CLR 16/11 A3011 850 72 1200 080/06 RMK AO2
14926KSTC STC20010824011009808/24/01 01:10:31  5-MIN KSTC 240710Z AUTO 08006KT 10SM CLR 16/11 A3011 850 72 1200 080/06 RMK AO2
14926KSTC STC20010824011509808/24/01 01:15:31  5-MIN KSTC 240715Z AUTO 09006KT 10SM CLR 16/11 A3011 860 74 1200 080/06 RMK AO2
14926KSTC STC20010824012009808/24/01 01:20:31  5-MIN KSTC 240720Z AUTO 08005KT 10SM CLR 16/11 A3011 860 74 1200 080/05 RMK AO2
14926KSTC STC20010824012509808/24/01 01:25:31  5-MIN KSTC 240725Z AUTO 09006KT 10SM CLR 16/11 A3011 850 74 1200 080/06 RMK AO2
14926KSTC STC20010824013009808/24/01 01:30:31  5-MIN KSTC 240730Z AUTO 08005KT 10SM CLR 16/11 A3011 850 74 1200 080/05 RMK AO2
14926KSTC STC20010824013509808/24/01 01:35:31  5-MIN KSTC 240735Z AUTO 08005KT 10SM CLR 16/11 A3011 850 74 1200 080/05 RMK AO2
14926KSTC STC20010824014009808/24/01 01:40:31  5-MIN KSTC 240740Z AUTO 08006KT 10SM CLR 15/11 A3011 850 77 1100 080/06 RMK AO2
14926KSTC STC20010824014509808/24/01 01:45:31  5-MIN KSTC 240745Z AUTO 09005KT 10SM CLR 15/11 A3011 850 77 1100 090/05 RMK AO2
14926KSTC STC20010824015011508/24/01 01:50:31  5-MIN KSTC 240750Z AUTO 09005KT 10SM CLR 15/11 A3011 850 77 1100 090/05 RMK AO2 SLP199 T01500111
14926KSTC STC20010824015509808/24/01 01:55:31  5-MIN KSTC 240755Z AUTO 09004KT 10SM CLR 15/11 A3011 850 77 1100 080/04 RMK AO2
14926KSTC STC20010824020009808/24/01 02:00:31  5-MIN KSTC 240800Z AUTO 09004KT 10SM CLR 15/11 A3011 860 77 1100 090/04 RMK AO2
14926KSTC STC20010824020509808/24/01 02:05:31  5-MIN KSTC 240805Z AUTO 09004KT 10SM CLR 15/11 A3010 860 77 1100 080/04 RMK AO2
14926KSTC STC20010824021009808/24/01 02:10:31  5-MIN KSTC 240810Z AUTO 08005KT 10SM CLR 15/11 A3010 860 77 1100 080/05 RMK AO2
14926KSTC STC20010824021509808/24/01 02:15:31  5-MIN KSTC 240815Z AUTO 09004KT 10SM CLR 14/11 A3010 860 80 1000 090/04 RMK AO2
14926KSTC STC20010824022009808/24/01 02:20:31  5-MIN KSTC 240820Z AUTO 08005KT 10SM CLR 15/12 A3010 860 80 1100 080/05 RMK AO2
14926KSTC STC20010824022509808/24/01 02:25:31  5-MIN KSTC 240825Z AUTO 08005KT 10SM CLR 14/12 A3010 860 83 1000 080/05 RMK AO2
14926KSTC STC20010824023009808/24/01 02:30:31  5-MIN KSTC 240830Z AUTO 08005KT 10SM CLR 14/11 A3010 860 80 1000 080/05 RMK AO2
14926KSTC STC20010824023509808/24/01 02:35:31  5-MIN KSTC 240835Z AUTO 08005KT 10SM CLR 14/11 A3010 860 80 1000 070/05 RMK AO2
14926KSTC STC20010824024009808/24/01 02:40:31  5-MIN KSTC 240840Z AUTO 08005KT 10SM CLR 14/11 A3010 860 80 1000 080/05 RMK AO2
14926KSTC STC20010824024510108/24/01 02:45:31  5-MIN KSTC 240845Z AUTO 08005KT 10SM FEW031 14/12 A3010 860 83 1000 070/05 RMK AO2
14926KSTC STC20010824025012408/24/01 02:50:31  5-MIN KSTC 240850Z AUTO 07005KT 10SM FEW031 14/12 A3010 860 83 1000 070/05 RMK AO2 SLP196 T01440117 58001
14926KSTC STC20010824025509808/24/01 02:55:31  5-MIN KSTC 240855Z AUTO 07006KT 10SM CLR 14/12 A3009 870 83 1000 070/06 RMK AO2
14926KSTC STC20010824030009808/24/01 03:00:31  5-MIN KSTC 240900Z AUTO 07005KT 10SM CLR 14/12 A3009 870 83 1000 070/05 RMK AO2
14926KSTC STC20010824030509808/24/01 03:05:31  5-MIN KSTC 240905Z AUTO 08007KT 10SM CLR 14/12 A3009 870 83 1000 070/07 RMK AO2
14926KSTC STC20010824031009808/24/01 03:10:31  5-MIN KSTC 240910Z AUTO 07006KT 10SM CLR 14/12 A3009 870 83 1100 070/06 RMK AO2
14926KSTC STC20010824031509808/24/01 03:15:31  5-MIN KSTC 240915Z AUTO 07006KT 10SM CLR 14/12 A3009 870 83 1100 060/06 RMK AO2
14926KSTC STC20010824032009808/24/01 03:20:31  5-MIN KSTC 240920Z AUTO 07006KT 10SM CLR 14/12 A3009 870 86 1000 070/06 RMK AO2
14926KSTC STC20010824032509808/24/01 03:25:31  5-MIN KSTC 240925Z AUTO 08006KT 10SM CLR 14/12 A3008 880 86 1000 070/06 RMK AO2
14926KSTC STC20010824033009808/24/01 03:30:31  5-MIN KSTC 240930Z AUTO 08006KT 10SM CLR 14/12 A3009 870 86 1000 080/06 RMK AO2
14926KSTC STC20010824033509808/24/01 03:35:31  5-MIN KSTC 240935Z AUTO 08005KT 10SM CLR 14/12 A3008 880 86 1000 080/05 RMK AO2
14926KSTC STC20010824034009808/24/01 03:40:31  5-MIN KSTC 240940Z AUTO 08005KT 10SM CLR 14/12 A3008 880 86 1000 070/05 RMK AO2
14926KSTC STC20010824034509808/24/01 03:45:31  5-MIN KSTC 240945Z AUTO 08005KT 10SM CLR 14/12 A3008 880 86 1000 070/05 RMK AO2
14926KSTC STC20010824035011508/24/01 03:50:31  5-MIN KSTC 240950Z AUTO 08006KT 10SM CLR 14/12 A3008 880 86 1000 080/06 RMK AO2 SLP190 T01390117
14926KSTC STC20010824035509808/24/01 03:55:31  5-MIN KSTC 240955Z AUTO 07006KT 10SM CLR 14/12 A3008 880 86 1000 070/06 RMK AO2
14926KSTC STC20010824040009808/24/01 04:00:31  5-MIN KSTC 241000Z AUTO 07004KT 10SM CLR 14/12 A3008 880 86 1000 070/04 RMK AO2
14926KSTC STC20010824040509808/24/01 04:05:31  5-MIN KSTC 241005Z AUTO 07006KT 10SM CLR 14/12 A3008 880 86 1000 070/06 RMK AO2
14926KSTC STC20010824041009808/24/01 04:10:31  5-MIN KSTC 241010Z AUTO 08005KT 10SM CLR 14/12 A3008 880 86 1000 080/05 RMK AO2
14926KSTC STC20010824041509808/24/01 04:15:31  5-MIN KSTC 241015Z AUTO 08005KT 10SM CLR 14/12 A3008 880 90 1000 070/05 RMK AO2
14926KSTC STC20010824042009808/24/01 04:20:31  5-MIN KSTC 241020Z AUTO 08005KT 10SM CLR 14/12 A3008 880 90 1000 070/05 RMK AO2
14926KSTC STC20010824042509808/24/01 04:25:31  5-MIN KSTC 241025Z AUTO 07005KT 10SM CLR 14/12 A3008 880 90 1000 070/05 RMK AO2
14926KSTC STC20010824043009808/24/01 04:30:31  5-MIN KSTC 241030Z AUTO 07005KT 10SM CLR 14/12 A3008 880 90 1000 070/05 RMK AO2
14926KSTC STC20010824043509808/24/01 04:35:31  5-MIN KSTC 241035Z AUTO 07005KT 10SM CLR 14/12 A3007 880 90 1000 070/05 RMK AO2
14926KSTC STC20010824044009808/24/01 04:40:31  5-MIN KSTC 241040Z AUTO 07005KT 10SM CLR 14/12 A3008 880 90 1000 060/05 RMK AO2
14926KSTC STC20010824044509808/24/01 04:45:31  5-MIN KSTC 241045Z AUTO 07005KT 10SM CLR 14/12 A3007 880 90 1000 060/05 RMK AO2
14926KSTC STC20010824045011508/24/01 04:50:31  5-MIN KSTC 241050Z AUTO 07003KT 10SM CLR 14/12 A3008 880 90 1000 070/03 RMK AO2 SLP189 T01390122
14926KSTC STC20010824045509808/24/01 04:55:31  5-MIN KSTC 241055Z AUTO 07004KT 10SM CLR 14/12 A3007 880 90 1000 070/04 RMK AO2
14926KSTC STC20010824050009808/24/01 05:00:31  5-MIN KSTC 241100Z AUTO 07004KT 10SM CLR 14/12 A3008 880 90 1000 060/04 RMK AO2
14926KSTC STC20010824050509708/24/01 05:05:31  5-MIN KSTC 241105Z AUTO 07004KT 10SM CLR 13/12 A3008 880 93 900 060/04 RMK AO2
14926KSTC STC20010824051009708/24/01 05:10:31  5-MIN KSTC 241110Z AUTO 07004KT 10SM CLR 13/12 A3008 880 93 900 070/04 RMK AO2
14926KSTC STC20010824051509708/24/01 05:15:31  5-MIN KSTC 241115Z AUTO 07005KT 10SM CLR 13/12 A3008 880 93 900 070/05 RMK AO2
14926KSTC STC20010824052009808/24/01 05:20:31  5-MIN KSTC 241120Z AUTO 08006KT 10SM CLR 14/12 A3008 880 90 1000 080/06 RMK AO2
14926KSTC STC20010824052509808/24/01 05:25:31  5-MIN KSTC 241125Z AUTO 08004KT 10SM CLR 14/12 A3008 880 90 1000 080/04 RMK AO2
14926KSTC STC20010824053009808/24/01 05:30:31  5-MIN KSTC 241130Z AUTO 08004KT 10SM CLR 14/12 A3008 880 90 1000 080/04 RMK AO2
14926KSTC STC20010824053509808/24/01 05:35:31  5-MIN KSTC 241135Z AUTO 07004KT 10SM CLR 14/12 A3008 880 90 1000 070/04 RMK AO2
14926KSTC STC20010824054009808/24/01 05:40:31  5-MIN KSTC 241140Z AUTO 08004KT 10SM CLR 14/12 A3008 880 90 1000 080/04 RMK AO2
14926KSTC STC20010824054509808/24/01 05:45:31  5-MIN KSTC 241145Z AUTO 08004KT 10SM CLR 14/12 A3009 870 90 1000 080/04 RMK AO2
14926KSTC STC20010824055013308/24/01 05:50:31  5-MIN KSTC 241150Z AUTO VRB03KT 10SM CLR 14/12 A3008 880 90 1000 VRB/03 RMK AO2 SLP192 T01390122 10172 20133 58004
14926KSTC STC20010824055509808/24/01 05:55:31  5-MIN KSTC 241155Z AUTO 08004KT 10SM CLR 14/12 A3008 880 90 1000 080/04 RMK AO2
14926KSTC STC20010824060009808/24/01 06:00:31  5-MIN KSTC 241200Z AUTO 09005KT 10SM CLR 14/12 A3008 880 90 1000 080/05 RMK AO2
14926KSTC STC20010824060509808/24/01 06:05:31  5-MIN KSTC 241205Z AUTO 09004KT 10SM CLR 14/13 A3009 870 93 1000 080/04 RMK AO2
14926KSTC STC20010824061009808/24/01 06:10:31  5-MIN KSTC 241210Z AUTO 09005KT 10SM CLR 14/13 A3009 870 93 1000 090/05 RMK AO2
14926KSTC STC20010824061509808/24/01 06:15:31  5-MIN KSTC 241215Z AUTO 09005KT 10SM CLR 14/13 A3008 880 90 1100 090/05 RMK AO2
14926KSTC STC20010824062009808/24/01 06:20:31  5-MIN KSTC 241220Z AUTO 09004KT 10SM CLR 14/13 A3008 880 90 1100 090/04 RMK AO2
14926KSTC STC20010824062509808/24/01 06:25:31  5-MIN KSTC 241225Z AUTO 10005KT 10SM CLR 14/13 A3009 870 90 1100 100/05 RMK AO2
14926KSTC STC20010824063009808/24/01 06:30:31  5-MIN KSTC 241230Z AUTO 09005KT 10SM CLR 14/13 A3009 870 90 1100 090/05 RMK AO2
14926KSTC STC20010824063509808/24/01 06:35:31  5-MIN KSTC 241235Z AUTO 10005KT 10SM CLR 14/13 A3008 880 90 1100 100/05 RMK AO2
14926KSTC STC20010824064009808/24/01 06:40:31  5-MIN KSTC 241240Z AUTO 10007KT 10SM CLR 14/13 A3009 870 90 1100 100/07 RMK AO2
14926KSTC STC20010824064509808/24/01 06:45:31  5-MIN KSTC 241245Z AUTO 10007KT 10SM CLR 14/13 A3008 870 93 1100 100/07 RMK AO2
14926KSTC STC20010824065011508/24/01 06:50:31  5-MIN KSTC 241250Z AUTO VRB06KT 10SM CLR 15/13 A3009 870 90 1100 VRB/06 RMK AO2 SLP193 T01500133
14926KSTC STC20010824065509808/24/01 06:55:31  5-MIN KSTC 241255Z AUTO 10006KT 10SM CLR 15/13 A3008 880 90 1100 100/06 RMK AO2
14926KSTC STC20010824070009808/24/01 07:00:31  5-MIN KSTC 241300Z AUTO 11006KT 10SM CLR 15/13 A3008 880 90 1100 100/06 RMK AO2
14926KSTC STC20010824070509808/24/01 07:05:31  5-MIN KSTC 241305Z AUTO 10007KT 10SM CLR 15/13 A3009 870 90 1100 100/07 RMK AO2
14926KSTC STC20010824071009808/24/01 07:10:31  5-MIN KSTC 241310Z AUTO 12005KT 10SM CLR 16/14 A3009 870 90 1200 120/05 RMK AO2
14926KSTC STC20010824071509808/24/01 07:15:31  5-MIN KSTC 241315Z AUTO 11005KT 10SM CLR 16/14 A3009 870 90 1200 100/05 RMK AO2
14926KSTC STC20010824072009808/24/01 07:20:31  5-MIN KSTC 241320Z AUTO 10006KT 10SM CLR 16/14 A3008 880 86 1300 100/06 RMK AO2
14926KSTC STC20010824072509808/24/01 07:25:31  5-MIN KSTC 241325Z AUTO 10006KT 10SM CLR 16/14 A3008 880 90 1300 100/06 RMK AO2
14926KSTC STC20010824073009808/24/01 07:30:31  5-MIN KSTC 241330Z AUTO 10006KT 10SM CLR 16/14 A3008 880 90 1300 100/06 RMK AO2
14926KSTC STC20010824073509808/24/01 07:35:31  5-MIN KSTC 241335Z AUTO 10005KT 10SM CLR 17/14 A3008 880 86 1300 100/05 RMK AO2
14926KSTC STC20010824074010108/24/01 07:40:31  5-MIN KSTC 241340Z AUTO 10005KT 10SM FEW008 17/14 A3008 880 86 1300 100/05 RMK AO2
14926KSTC STC20010824074510108/24/01 07:45:31  5-MIN KSTC 241345Z AUTO 11004KT 10SM SCT008 17/15 A3008 880 90 1300 110/04 RMK AO2
14926KSTC STC20010824075011808/24/01 07:50:31  5-MIN KSTC 241350Z AUTO 12007KT 10SM BKN008 17/15 A3008 880 87 1400 120/07 RMK AO2 SLP192 T01720150
14926KSTC STC20010824075510108/24/01 07:55:31  5-MIN KSTC 241355Z AUTO 11007KT 10SM BKN008 17/15 A3008 880 87 1400 110/07 RMK AO2
14926KSTC STC20010824080010108/24/01 08:00:31  5-MIN KSTC 241400Z AUTO 11005KT 10SM BKN008 17/15 A3008 880 87 1400 110/05 RMK AO2
14926KSTC STC20010824080510108/24/01 08:05:31  5-MIN KSTC 241405Z AUTO 12004KT 10SM OVC008 18/16 A3008 870 87 1400 120/04 RMK AO2
14926KSTC STC20010824081010108/24/01 08:10:31  5-MIN KSTC 241410Z AUTO VRB04KT 10SM OVC008 18/16 A3009 870 87 1400 VRB/04 RMK AO2
14926KSTC STC20010824081510108/24/01 08:15:31  5-MIN KSTC 241415Z AUTO 13006KT 10SM OVC008 18/16 A3008 880 87 1400 120/06 RMK AO2
14926KSTC STC20010824082010108/24/01 08:20:31  5-MIN KSTC 241420Z AUTO 11006KT 10SM OVC008 18/16 A3008 880 84 1500 100/06 RMK AO2
14926KSTC STC20010824082510108/24/01 08:25:31  5-MIN KSTC 241425Z AUTO 12007KT 10SM OVC008 18/16 A3008 880 87 1500 110/07 RMK AO2
14926KSTC STC20010824083010108/24/01 08:30:31  5-MIN KSTC 241430Z AUTO 13007KT 10SM OVC008 18/16 A3008 880 87 1500 120/07 RMK AO2
14926KSTC STC20010824083510108/24/01 08:35:31  5-MIN KSTC 241435Z AUTO 13005KT 10SM OVC008 19/17 A3008 880 87 1600 120/05 RMK AO2
14926KSTC STC20010824084010108/24/01 08:40:31  5-MIN KSTC 241440Z AUTO VRB05KT 10SM OVC008 19/17 A3008 880 87 1600 VRB/05 RMK AO2
14926KSTC STC20010824084510108/24/01 08:45:31  5-MIN KSTC 241445Z AUTO VRB04KT 10SM OVC008 19/17 A3008 880 84 1600 VRB/04 RMK AO2
14926KSTC STC20010824085012408/24/01 08:50:31  5-MIN KSTC 241450Z AUTO 13006KT 10SM OVC008 20/17 A3008 880 84 1700 130/06 RMK AO2 SLP190 T02000172 55004
14926KSTC STC20010824085510108/24/01 08:55:31  5-MIN KSTC 241455Z AUTO 12005KT 10SM OVC008 20/17 A3008 880 84 1700 120/05 RMK AO2
14926KSTC STC20010824090010008/24/01 09:00:31  5-MIN KSTC 241500Z AUTO 15007KT 9SM OVC008 20/17 A3008 880 84 1700 150/07 RMK AO2
14926KSTC STC20010824090510008/24/01 09:05:31  5-MIN KSTC 241505Z AUTO 14006KT 8SM OVC008 20/17 A3008 880 84 1700 140/06 RMK AO2
14926KSTC STC20010824091010008/24/01 09:10:31  5-MIN KSTC 241510Z AUTO 15005KT 8SM OVC008 20/18 A3008 880 87 1700 150/05 RMK AO2
14926KSTC STC20010824091510008/24/01 09:15:31  5-MIN KSTC 241515Z AUTO 16006KT 8SM OVC008 21/18 A3008 880 84 1800 160/06 RMK AO2
14926KSTC STC20010824092010008/24/01 09:20:31  5-MIN KSTC 241520Z AUTO 15007KT 8SM OVC008 20/18 A3008 880 87 1700 140/07 RMK AO2
14926KSTC STC20010824092510008/24/01 09:25:31  5-MIN KSTC 241525Z AUTO 15008KT 7SM OVC008 21/18 A3008 880 87 1800 140/08 RMK AO2
14926KSTC STC20010824093010708/24/01 09:30:31  5-MIN KSTC 241530Z AUTO 12005KT 7SM BKN008 OVC024 21/18 A3008 880 84 1800 110/05 RMK AO2
14926KSTC STC20010824093510008/24/01 09:35:31  5-MIN KSTC 241535Z AUTO 15006KT 7SM OVC008 21/18 A3007 880 87 1800 150/06 RMK AO2
14926KSTC STC20010824094010008/24/01 09:40:31  5-MIN KSTC 241540Z AUTO 12007KT 7SM OVC008 22/18 A3007 880 81 1900 120/07 RMK AO2
14926KSTC STC20010824094510008/24/01 09:45:31  5-MIN KSTC 241545Z AUTO 14005KT 7SM OVC008 21/18 A3008 880 84 1800 140/05 RMK AO2
14926KSTC STC20010824095011708/24/01 09:50:31  5-MIN KSTC 241550Z AUTO 14007KT 7SM OVC008 22/19 A3008 880 84 1900 140/07 RMK AO2 SLP190 T02170189
14926KSTC STC20010824095510308/24/01 09:55:31  5-MIN KSTC 241555Z AUTO VRB06KT 6SM HZ OVC010 22/19 A3008 880 84 1900 VRB/06 RMK AO2
14926KSTC STC20010824100010308/24/01 10:00:31  5-MIN KSTC 241600Z AUTO 13006KT 6SM HZ OVC010 22/19 A3008 880 84 1900 130/06 RMK AO2
14926KSTC STC20010824100510308/24/01 10:05:31  5-MIN KSTC 241605Z AUTO 16007KT 6SM HZ OVC010 22/19 A3008 880 84 1900 150/07 RMK AO2
14926KSTC STC20010824101010308/24/01 10:10:31  5-MIN KSTC 241610Z AUTO 13007KT 6SM HZ OVC010 22/19 A3008 880 84 1900 130/07 RMK AO2
14926KSTC STC20010824101510308/24/01 10:15:31  5-MIN KSTC 241615Z AUTO VRB06KT 6SM HZ OVC010 22/19 A3007 880 84 1900 VRB/06 RMK AO2
14926KSTC STC20010824102010308/24/01 10:20:31  5-MIN KSTC 241620Z AUTO 15007KT 6SM HZ OVC010 22/19 A3007 880 81 2000 150/07 RMK AO2
14926KSTC STC20010824102510308/24/01 10:25:31  5-MIN KSTC 241625Z AUTO 14008KT 6SM HZ OVC010 22/19 A3007 890 81 2000 140/08 RMK AO2
14926KSTC STC20010824103010308/24/01 10:30:31  5-MIN KSTC 241630Z AUTO 15007KT 6SM HZ OVC010 22/19 A3007 890 81 2000 140/07 RMK AO2
14926KSTC STC20010824103510308/24/01 10:35:31  5-MIN KSTC 241635Z AUTO 15007KT 6SM HZ OVC010 23/19 A3007 890 81 2000 150/07 RMK AO2
14926KSTC STC20010824104010308/24/01 10:40:31  5-MIN KSTC 241640Z AUTO 16006KT 6SM HZ OVC010 22/19 A3007 890 84 2000 150/06 RMK AO2
14926KSTC STC20010824104511008/24/01 10:45:31  5-MIN KSTC 241645Z AUTO 14007KT 6SM HZ BKN012 OVC024 23/19 A3007 890 81 2000 130/07 RMK AO2
14926KSTC STC20010824105012008/24/01 10:50:31  5-MIN KSTC 241650Z AUTO 14006KT 6SM HZ OVC012 23/19 A3007 890 81 2000 140/06 RMK AO2 SLP186 T02280194
14926KSTC STC20010824105510308/24/01 10:55:31  5-MIN KSTC 241655Z AUTO 15007KT 6SM HZ OVC012 23/19 A3007 890 81 2000 150/07 RMK AO2
14926KSTC STC20010824110010308/24/01 11:00:31  5-MIN KSTC 241700Z AUTO 15007KT 6SM HZ OVC012 23/19 A3006 890 81 2000 150/07 RMK AO2
14926KSTC STC20010824110510308/24/01 11:05:31  5-MIN KSTC 241705Z AUTO 16009KT 6SM HZ BKN012 23/20 A3006 890 84 2000 160/09 RMK AO2
14926KSTC STC20010824111011908/24/01 11:10:31  5-MIN KSTC 241710Z AUTO 16008KT 110V180 6SM HZ BKN012 23/20 A3006 900 81 2100 160/08 110V180 RMK AO2
14926KSTC STC20010824111510308/24/01 11:15:31  5-MIN KSTC 241715Z AUTO VRB05KT 6SM HZ BKN012 23/20 A3006 900 81 2100 VRB/05 RMK AO2
14926KSTC STC20010824112010308/24/01 11:20:31  5-MIN KSTC 241720Z AUTO 13005KT 6SM HZ BKN012 23/20 A3005 900 81 2100 130/05 RMK AO2
14926KSTC STC20010824112510308/24/01 11:25:31  5-MIN KSTC 241725Z AUTO 14006KT 6SM HZ BKN012 23/20 A3005 900 81 2100 140/06 RMK AO2
14926KSTC STC20010824113010308/24/01 11:30:31  5-MIN KSTC 241730Z AUTO 12005KT 6SM HZ SCT012 23/20 A3005 910 81 2100 110/05 RMK AO2
14926KSTC STC20010824113510308/24/01 11:35:31  5-MIN KSTC 241735Z AUTO 13006KT 6SM HZ SCT014 24/20 A3005 910 78 2200 120/06 RMK AO2
14926KSTC STC20010824114010308/24/01 11:40:31  5-MIN KSTC 241740Z AUTO 14006KT 6SM HZ SCT014 24/20 A3005 910 78 2200 140/06 RMK AO2
14926KSTC STC20010824114510308/24/01 11:45:31  5-MIN KSTC 241745Z AUTO 15008KT 6SM HZ SCT014 25/20 A3005 910 73 2300 150/08 RMK AO2
14926KSTC STC20010824115013808/24/01 11:50:31  5-MIN KSTC 241750Z AUTO 13009KT 6SM HZ FEW016 25/20 A3005 910 73 2300 130/09 RMK AO2 SLP179 T02500200 10250 20139 58001
14926KSTC STC20010824115510308/24/01 11:55:31  5-MIN KSTC 241755Z AUTO 15008KT 6SM HZ SCT016 25/20 A3005 910 73 2300 140/08 RMK AO2
14926KSTC STC20010824120010308/24/01 12:00:31  5-MIN KSTC 241800Z AUTO 12007KT 6SM HZ SCT016 25/20 A3004 910 73 2300 110/07 RMK AO2
14926KSTC STC20010824120510308/24/01 12:05:31  5-MIN KSTC 241805Z AUTO 12006KT 6SM HZ SCT018 24/20 A3004 920 76 2300 110/06 RMK AO2
14926KSTC STC20010824121010308/24/01 12:10:31  5-MIN KSTC 241810Z AUTO 12008KT 6SM HZ BKN020 24/20 A3004 920 76 2300 120/08 RMK AO2
14926KSTC STC20010824121510308/24/01 12:15:31  5-MIN KSTC 241815Z AUTO 14007KT 6SM HZ BKN020 26/20 A3004 920 71 2400 140/07 RMK AO2
14926KSTC STC20010824122010008/24/01 12:20:31  5-MIN KSTC 241820Z AUTO 14009KT 7SM BKN020 26/20 A3004 920 71 2400 130/09 RMK AO2
14926KSTC STC20010824122510008/24/01 12:25:31  5-MIN KSTC 241825Z AUTO 15010KT 7SM BKN020 27/20 A3004 920 66 2500 150/10 RMK AO2
14926KSTC STC20010824123010008/24/01 12:30:31  5-MIN KSTC 241830Z AUTO 15011KT 7SM BKN020 27/20 A3004 920 66 2500 150/11 RMK AO2
14926KSTC STC20010824123510708/24/01 12:35:31  5-MIN KSTC 241835Z AUTO 16009KT 7SM BKN020 BKN030 27/20 A3003 920 66 2500 150/09 RMK AO2
14926KSTC STC20010824124012308/24/01 12:40:31  5-MIN KSTC 241840Z AUTO 13009KT 060V150 7SM BKN022 BKN030 27/20 A3003 920 66 2500 120/09 060V150 RMK AO2
14926KSTC STC20010824124510708/24/01 12:45:31  5-MIN KSTC 241845Z AUTO 14009KT 7SM SCT022 BKN030 27/20 A3003 920 66 2500 140/09 RMK AO2
14926KSTC STC20010824125012408/24/01 12:50:31  5-MIN KSTC 241850Z AUTO 16011KT 7SM FEW022 SCT030 27/20 A3003 930 66 2500 150/11 RMK AO2 SLP173 T02670200
14926KSTC STC20010824125510708/24/01 12:55:31  5-MIN KSTC 241855Z AUTO 16010KT 8SM FEW024 SCT030 27/19 A3003 930 64 2500 160/10 RMK AO2
14926KSTC STC20010824130010708/24/01 13:00:31  5-MIN KSTC 241900Z AUTO 14011KT 8SM SCT026 SCT030 27/20 A3003 930 64 2600 140/11 RMK AO2
14926KSTC STC20010824130510008/24/01 13:05:31  5-MIN KSTC 241905Z AUTO 13011KT 8SM SCT026 27/19 A3003 930 62 2600 130/11 RMK AO2
14926KSTC STC20010824131010008/24/01 13:10:31  5-MIN KSTC 241910Z AUTO 13010KT 8SM FEW028 27/19 A3003 930 64 2500 130/10 RMK AO2
14926KSTC STC20010824131510008/24/01 13:15:31  5-MIN KSTC 241915Z AUTO 15009KT 8SM FEW028 27/19 A3003 930 62 2600 150/09 RMK AO2
14926KSTC STC20010824132010008/24/01 13:20:31  5-MIN KSTC 241920Z AUTO 13010KT 8SM SCT028 28/20 A3003 930 62 2600 120/10 RMK AO2
14926KSTC STC20010824132510008/24/01 13:25:31  5-MIN KSTC 241925Z AUTO 12009KT 8SM SCT028 27/19 A3003 930 64 2500 120/09 RMK AO2
14926KSTC STC20010824133010708/24/01 13:30:31  5-MIN KSTC 241930Z AUTO 14010KT 8SM SCT028 BKN035 27/19 A3003 930 64 2500 140/10 RMK AO2
14926KSTC STC20010824133510708/24/01 13:35:31  5-MIN KSTC 241935Z AUTO 13009KT 8SM SCT030 BKN035 27/19 A3003 930 62 2600 120/09 RMK AO2
14926KSTC STC20010824134010708/24/01 13:40:31  5-MIN KSTC 241940Z AUTO 15008KT 8SM SCT028 SCT035 27/19 A3003 930 62 2600 150/08 RMK AO2
14926KSTC STC20010824134510708/24/01 13:45:31  5-MIN KSTC 241945Z AUTO 14008KT 8SM SCT028 SCT035 28/19 A3002 930 60 2700 140/08 RMK AO2
14926KSTC STC20010824135012408/24/01 13:50:31  5-MIN KSTC 241950Z AUTO 13010KT 8SM SCT030 SCT035 28/19 A3002 930 60 2700 130/10 RMK AO2 SLP170 T02780194
14926KSTC STC20010824135510008/24/01 13:55:31  5-MIN KSTC 241955Z AUTO 14006KT 8SM SCT030 28/19 A3002 940 60 2700 140/06 RMK AO2
14926KSTC STC20010824140011608/24/01 14:00:31  5-MIN KSTC 242000Z AUTO 14008KT 110V170 8SM SCT030 27/19 A3002 940 62 2600 140/08 110V170 RMK AO2
14926KSTC STC20010824140510008/24/01 14:05:31  5-MIN KSTC 242005Z AUTO 14008KT 8SM SCT030 27/19 A3002 940 62 2600 140/08 RMK AO2
14926KSTC STC20010824141010008/24/01 14:10:31  5-MIN KSTC 242010Z AUTO 14009KT 8SM FEW030 27/19 A3001 940 62 2600 140/09 RMK AO2
14926KSTC STC20010824141510008/24/01 14:15:31  5-MIN KSTC 242015Z AUTO 13010KT 8SM FEW030 27/19 A3001 940 62 2600 130/10 RMK AO2
14926KSTC STC20010824142010008/24/01 14:20:31  5-MIN KSTC 242020Z AUTO 13008KT 8SM FEW030 27/19 A3001 940 62 2600 120/08 RMK AO2
14926KSTC STC20010824142510008/24/01 14:25:31  5-MIN KSTC 242025Z AUTO 12009KT 8SM FEW030 28/19 A3001 940 60 2700 120/09 RMK AO2
14926KSTC STC20010824143010008/24/01 14:30:31  5-MIN KSTC 242030Z AUTO 14011KT 8SM FEW030 27/19 A3001 940 62 2600 140/11 RMK AO2
14926KSTC STC20010824143510008/24/01 14:35:31  5-MIN KSTC 242035Z AUTO 15009KT 8SM FEW030 28/19 A3001 950 60 2700 140/09 RMK AO2
14926KSTC STC20010824144010008/24/01 14:40:31  5-MIN KSTC 242040Z AUTO 14010KT 8SM FEW030 29/19 A3001 950 56 2800 130/10 RMK AO2
14926KSTC STC20010824144510708/24/01 14:45:31  5-MIN KSTC 242045Z AUTO 13008KT 8SM FEW032 BKN047 27/19 A3001 950 62 2600 130/08 RMK AO2
14926KSTC STC20010824145013008/24/01 14:50:31  5-MIN KSTC 242050Z AUTO 16009KT 8SM FEW032 SCT045 27/19 A3001 950 62 2600 160/09 RMK AO2 SLP166 T02720194 58011
14926KSTC STC20010824145510708/24/01 14:55:31  5-MIN KSTC 242055Z AUTO 13008KT 8SM SCT032 BKN045 28/19 A3001 950 60 2700 120/08 RMK AO2
14926KSTC STC20010824150011408/24/01 15:00:31  5-MIN KSTC 242100Z AUTO 13009KT 8SM SCT032 SCT041 BKN048 28/19 A3001 950 60 2700 130/09 RMK AO2
14926KSTC STC20010824150510708/24/01 15:05:31  5-MIN KSTC 242105Z AUTO 10008KT 8SM SCT034 BKN045 28/19 A3001 950 60 2700 100/08 RMK AO2
14926KSTC STC20010824151010708/24/01 15:10:31  5-MIN KSTC 242110Z AUTO 11006KT 8SM SCT034 BKN045 27/19 A3001 950 62 2600 110/06 RMK AO2
14926KSTC STC20010824151510708/24/01 15:15:31  5-MIN KSTC 242115Z AUTO 12008KT 8SM SCT034 BKN043 27/19 A3001 940 62 2600 120/08 RMK AO2
14926KSTC STC20010824152010708/24/01 15:20:31  5-MIN KSTC 242120Z AUTO 13007KT 8SM BKN034 BKN049 27/19 A3001 950 64 2500 120/07 RMK AO2
14926KSTC STC20010824152510708/24/01 15:25:31  5-MIN KSTC 242125Z AUTO 14008KT 7SM SCT034 BKN049 27/19 A3001 950 64 2500 140/08 RMK AO2
14926KSTC STC20010824153010708/24/01 15:30:31  5-MIN KSTC 242130Z AUTO 14010KT 7SM SCT034 SCT049 27/19 A3001 950 64 2500 140/10 RMK AO2
14926KSTC STC20010824153510708/24/01 15:35:31  5-MIN KSTC 242135Z AUTO 13008KT 7SM SCT034 SCT049 27/19 A3001 950 64 2500 120/08 RMK AO2
14926KSTC STC20010824154010708/24/01 15:40:31  5-MIN KSTC 242140Z AUTO 14008KT 7SM SCT032 SCT049 27/19 A3001 950 62 2600 140/08 RMK AO2
14926KSTC STC20010824154510708/24/01 15:45:31  5-MIN KSTC 242145Z AUTO 14009KT 7SM SCT032 BKN049 27/20 A3000 950 64 2600 140/09 RMK AO2
14926KSTC STC20010824155012408/24/01 15:50:31  5-MIN KSTC 242150Z AUTO 13007KT 7SM SCT030 SCT049 27/20 A3000 950 66 2500 130/07 RMK AO2 SLP164 T02670200
14926KSTC STC20010824155510008/24/01 15:55:31  5-MIN KSTC 242155Z AUTO 14009KT 7SM SCT030 27/19 A3000 950 64 2500 140/09 RMK AO2
14926KSTC STC20010824160010008/24/01 16:00:31  5-MIN KSTC 242200Z AUTO 14008KT 7SM FEW030 27/19 A3000 950 64 2500 140/08 RMK AO2
14926KSTC STC20010824160510008/24/01 16:05:31  5-MIN KSTC 242205Z AUTO 14008KT 7SM SCT030 26/19 A3000 950 66 2500 140/08 RMK AO2
14926KSTC STC20010824161010708/24/01 16:10:31  5-MIN KSTC 242210Z AUTO 13007KT 7SM FEW030 SCT037 26/19 A3000 950 66 2500 130/07 RMK AO2
14926KSTC STC20010824161510008/24/01 16:15:31  5-MIN KSTC 242215Z AUTO 12004KT 7SM FEW033 27/19 A3000 950 64 2500 120/04 RMK AO2
14926KSTC STC20010824162010008/24/01 16:20:31  5-MIN KSTC 242220Z AUTO 12007KT 7SM FEW033 26/19 A3000 950 66 2500 110/07 RMK AO2
14926KSTC STC20010824162510008/24/01 16:25:31  5-MIN KSTC 242225Z AUTO 13006KT 7SM FEW033 26/19 A3000 950 66 2500 120/06 RMK AO2
14926KSTC STC20010824163010008/24/01 16:30:31  5-MIN KSTC 242230Z AUTO 11006KT 7SM FEW033 26/19 A3000 950 64 2500 110/06 RMK AO2
14926KSTC STC20010824163510008/24/01 16:35:31  5-MIN KSTC 242235Z AUTO 13007KT 7SM FEW035 26/19 A3000 950 66 2500 120/07 RMK AO2
14926KSTC STC20010824164010008/24/01 16:40:31  5-MIN KSTC 242240Z AUTO 12006KT 7SM FEW033 26/19 A3000 950 66 2500 120/06 RMK AO2
14926KSTC STC20010824164510008/24/01 16:45:31  5-MIN KSTC 242245Z AUTO 12006KT 7SM FEW037 26/19 A3000 950 66 2500 120/06 RMK AO2
14926KSTC STC20010824165011708/24/01 16:50:31  5-MIN KSTC 242250Z AUTO 13006KT 7SM FEW037 26/19 A3000 950 66 2500 130/06 RMK AO2 SLP164 T02610194
14926KSTC STC20010824165510008/24/01 16:55:31  5-MIN KSTC 242255Z AUTO 13006KT 7SM FEW037 26/19 A3000 950 66 2500 120/06 RMK AO2
14926KSTC STC20010824170010008/24/01 17:00:31  5-MIN KSTC 242300Z AUTO 14008KT 8SM FEW040 26/19 A3000 960 64 2500 140/08 RMK AO2
14926KSTC STC20010824170510008/24/01 17:05:31  5-MIN KSTC 242305Z AUTO 13005KT 8SM FEW042 26/19 A2999 960 66 2500 130/05 RMK AO2
14926KSTC STC20010824171009708/24/01 17:10:31  5-MIN KSTC 242310Z AUTO 12004KT 8SM CLR 26/19 A2999 960 66 2500 120/04 RMK AO2
14926KSTC STC20010824171510008/24/01 17:15:31  5-MIN KSTC 242315Z AUTO 11005KT 8SM FEW040 26/19 A2999 960 68 2400 110/05 RMK AO2
14926KSTC STC20010824172010008/24/01 17:20:31  5-MIN KSTC 242320Z AUTO 11005KT 8SM FEW040 26/20 A2999 960 71 2400 110/05 RMK AO2
14926KSTC STC20010824172510008/24/01 17:25:31  5-MIN KSTC 242325Z AUTO 12006KT 8SM FEW048 26/20 A2999 960 71 2400 120/06 RMK AO2
14926KSTC STC20010824173010008/24/01 17:30:31  5-MIN KSTC 242330Z AUTO 12005KT 8SM FEW035 26/19 A2999 960 68 2400 110/05 RMK AO2
14926KSTC STC20010824173510008/24/01 17:35:31  5-MIN KSTC 242335Z AUTO 13006KT 8SM FEW035 26/19 A2999 960 68 2400 120/06 RMK AO2
14926KSTC STC20010824174010008/24/01 17:40:31  5-MIN KSTC 242340Z AUTO 10004KT 8SM FEW035 26/20 A2999 960 71 2400 090/04 RMK AO2
14926KSTC STC20010824174510008/24/01 17:45:31  5-MIN KSTC 242345Z AUTO 11005KT 8SM FEW035 25/20 A2999 960 73 2400 100/05 RMK AO2
14926KSTC STC20010824175013508/24/01 17:50:31  5-MIN KSTC 242350Z AUTO 12005KT 8SM SCT035 25/20 A2999 960 73 2400 120/05 RMK AO2 SLP160 T02500200 10289 20244 56013
14926KSTC STC20010824175510008/24/01 17:55:31  5-MIN KSTC 242355Z AUTO 13005KT 8SM SCT035 26/19 A2999 960 68 2400 130/05 RMK AO2
14926KSTC STC20010824180010008/24/01 18:00:31  5-MIN KSTC 250000Z AUTO 12006KT 8SM SCT035 25/19 A2999 960 71 2400 120/06 RMK AO2
14926KSTC STC20010824180510008/24/01 18:05:31  5-MIN KSTC 250005Z AUTO 12005KT 8SM SCT035 25/19 A2999 970 71 2400 110/05 RMK AO2
14926KSTC STC20010824181010008/24/01 18:10:31  5-MIN KSTC 250010Z AUTO 11003KT 8SM BKN037 25/20 A2998 970 73 2400 110/03 RMK AO2
14926KSTC STC20010824181510008/24/01 18:15:31  5-MIN KSTC 250015Z AUTO 12004KT 8SM BKN037 25/20 A2998 970 73 2400 110/04 RMK AO2
14926KSTC STC20010824182010708/24/01 18:20:31  5-MIN KSTC 250020Z AUTO 10004KT 8SM BKN037 BKN043 24/20 A2998 970 76 2300 100/04 RMK AO2
14926KSTC STC20010824182510708/24/01 18:25:31  5-MIN KSTC 250025Z AUTO 11003KT 8SM BKN037 BKN045 24/20 A2998 970 76 2300 100/03 RMK AO2
14926KSTC STC20010824183010708/24/01 18:30:31  5-MIN KSTC 250030Z AUTO 11004KT 8SM BKN035 BKN045 24/20 A2998 970 76 2300 100/04 RMK AO2
14926KSTC STC20010824183510708/24/01 18:35:31  5-MIN KSTC 250035Z AUTO 12004KT 8SM SCT035 SCT043 24/20 A2998 970 76 2300 120/04 RMK AO2
14926KSTC STC20010824184010008/24/01 18:40:31  5-MIN KSTC 250040Z AUTO 11004KT 8SM SCT035 24/20 A2998 970 76 2300 110/04 RMK AO2
14926KSTC STC20010824184510708/24/01 18:45:31  5-MIN KSTC 250045Z AUTO 11003KT 8SM FEW035 SCT044 24/20 A2998 970 78 2300 110/03 RMK AO2
14926KSTC STC20010824185011708/24/01 18:50:31  5-MIN KSTC 250050Z AUTO 12003KT 8SM FEW035 24/20 A2998 970 78 2300 120/03 RMK AO2 SLP156 T02390200
14926KSTC STC20010824185509708/24/01 18:55:31  5-MIN KSTC 250055Z AUTO 12003KT 8SM CLR 23/20 A2998 970 81 2200 120/03 RMK AO2
14926KSTC STC20010824190009708/24/01 19:00:31  5-MIN KSTC 250100Z AUTO 00000KT 8SM CLR 23/20 A2998 970 84 2100 000/00 RMK AO2
14926KSTC STC20010824190509708/24/01 19:05:31  5-MIN KSTC 250105Z AUTO 16003KT 8SM CLR 23/20 A2998 970 84 2100 160/03 RMK AO2
14926KSTC STC20010824191009708/24/01 19:10:31  5-MIN KSTC 250110Z AUTO 15004KT 7SM CLR 22/20 A2998 970 87 2100 150/04 RMK AO2
14926KSTC STC20010824191509708/24/01 19:15:31  5-MIN KSTC 250115Z AUTO 14004KT 7SM CLR 23/20 A2998 970 84 2100 130/04 RMK AO2
14926KSTC STC20010824192009708/24/01 19:20:31  5-MIN KSTC 250120Z AUTO 12004KT 8SM CLR 23/20 A2998 970 84 2100 120/04 RMK AO2
14926KSTC STC20010824192509708/24/01 19:25:31  5-MIN KSTC 250125Z AUTO 12003KT 8SM CLR 23/20 A2998 970 84 2100 110/03 RMK AO2
14926KSTC STC20010824193009708/24/01 19:30:31  5-MIN KSTC 250130Z AUTO 11003KT 9SM CLR 23/20 A2998 970 84 2100 110/03 RMK AO2
14926KSTC STC20010824193509708/24/01 19:35:31  5-MIN KSTC 250135Z AUTO 12003KT 9SM CLR 22/19 A2998 970 84 2100 120/03 RMK AO2
14926KSTC STC20010824194009708/24/01 19:40:31  5-MIN KSTC 250140Z AUTO 12003KT 9SM CLR 22/19 A2998 970 84 2100 120/03 RMK AO2
14926KSTC STC20010824194509708/24/01 19:45:31  5-MIN KSTC 250145Z AUTO 12003KT 9SM CLR 22/19 A2998 970 84 2100 120/03 RMK AO2
14926KSTC STC20010824195011408/24/01 19:50:31  5-MIN KSTC 250150Z AUTO 10003KT 9SM CLR 22/19 A2998 970 84 2100 100/03 RMK AO2 SLP159 T02220194
14926KSTC STC20010824195509708/24/01 19:55:31  5-MIN KSTC 250155Z AUTO 10003KT 8SM CLR 21/19 A2998 970 90 1900 100/03 RMK AO2
14926KSTC STC20010824200009708/24/01 20:00:31  5-MIN KSTC 250200Z AUTO 11004KT 8SM CLR 21/19 A2999 970 90 1900 110/04 RMK AO2
14926KSTC STC20010824200509708/24/01 20:05:31  5-MIN KSTC 250205Z AUTO 12004KT 8SM CLR 21/19 A2998 970 93 1900 110/04 RMK AO2
14926KSTC STC20010824201009708/24/01 20:10:31  5-MIN KSTC 250210Z AUTO 12005KT 8SM CLR 21/19 A2999 970 90 1900 120/05 RMK AO2
14926KSTC STC20010824201509708/24/01 20:15:31  5-MIN KSTC 250215Z AUTO 12004KT 9SM CLR 21/19 A2998 970 90 1900 120/04 RMK AO2
14926KSTC STC20010824202009708/24/01 20:20:31  5-MIN KSTC 250220Z AUTO 12004KT 9SM CLR 21/19 A2998 970 90 1900 110/04 RMK AO2
14926KSTC STC20010824202509708/24/01 20:25:31  5-MIN KSTC 250225Z AUTO 12004KT 9SM CLR 21/19 A2999 970 90 1900 120/04 RMK AO2
14926KSTC STC20010824203009708/24/01 20:30:31  5-MIN KSTC 250230Z AUTO 13003KT 9SM CLR 21/19 A2998 970 90 1900 120/03 RMK AO2
14926KSTC STC20010824203509708/24/01 20:35:31  5-MIN KSTC 250235Z AUTO 12004KT 9SM CLR 21/19 A2998 970 90 1900 110/04 RMK AO2
14926KSTC STC20010824204009708/24/01 20:40:31  5-MIN KSTC 250240Z AUTO 10003KT 8SM CLR 21/19 A2998 970 90 1900 100/03 RMK AO2
14926KSTC STC20010824204509708/24/01 20:45:31  5-MIN KSTC 250245Z AUTO 10004KT 8SM CLR 21/19 A2998 970 93 1900 090/04 RMK AO2
14926KSTC STC20010824205012008/24/01 20:50:31  5-MIN KSTC 250250Z AUTO 10004KT 7SM CLR 20/19 A2998 970 97 1800 100/04 RMK AO2 SLP158 T02000194 58006
14926KSTC STC20010824205509708/24/01 20:55:31  5-MIN KSTC 250255Z AUTO 10004KT 7SM CLR 20/19 A2998 970 97 1800 100/04 RMK AO2
14926KSTC STC20010824210009708/24/01 21:00:31  5-MIN KSTC 250300Z AUTO 10003KT 7SM CLR 20/19 A2998 970 97 1800 100/03 RMK AO2
14926KSTC STC20010824210509708/24/01 21:05:31  5-MIN KSTC 250305Z AUTO 11004KT 7SM CLR 20/19 A2998 970 97 1800 110/04 RMK AO2
14926KSTC STC20010824211009708/24/01 21:10:31  5-MIN KSTC 250310Z AUTO 12004KT 8SM CLR 21/19 A2998 970 93 1900 120/04 RMK AO2
14926KSTC STC20010824211509708/24/01 21:15:31  5-MIN KSTC 250315Z AUTO 13004KT 8SM CLR 21/19 A2998 970 93 1900 120/04 RMK AO2
14926KSTC STC20010824212009708/24/01 21:20:31  5-MIN KSTC 250320Z AUTO 13004KT 8SM CLR 21/19 A2998 970 93 1900 120/04 RMK AO2
14926KSTC STC20010824212509708/24/01 21:25:31  5-MIN KSTC 250325Z AUTO 13004KT 8SM CLR 21/19 A2998 970 93 1900 120/04 RMK AO2
14926KSTC STC20010824213009708/24/01 21:30:31  5-MIN KSTC 250330Z AUTO 13004KT 8SM CLR 21/19 A2998 970 93 1900 130/04 RMK AO2
14926KSTC STC20010824213509708/24/01 21:35:31  5-MIN KSTC 250335Z AUTO 13004KT 8SM CLR 21/19 A2998 970 90 1900 130/04 RMK AO2
14926KSTC STC20010824214009708/24/01 21:40:31  5-MIN KSTC 250340Z AUTO 13003KT 9SM CLR 21/19 A2998 970 90 1900 130/03 RMK AO2
14926KSTC STC20010824214509708/24/01 21:45:31  5-MIN KSTC 250345Z AUTO 13004KT 8SM CLR 20/19 A2998 970 93 1800 130/04 RMK AO2
14926KSTC STC20010824215011408/24/01 21:50:31  5-MIN KSTC 250350Z AUTO 14004KT 7SM CLR 19/19 A2998 970 97 1800 130/04 RMK AO2 SLP155 T01940189
14926KSTC STC20010824215510108/24/01 21:55:31  5-MIN KSTC 250355Z AUTO 13003KT 6SM BR CLR 19/19 A2998 980 100 1700 130/03 RMK AO2
14926KSTC STC20010824220010108/24/01 22:00:31  5-MIN KSTC 250400Z AUTO 12003KT 6SM BR CLR 19/19 A2997 980 100 1700 120/03 RMK AO2
14926KSTC STC20010824220510008/24/01 22:05:31  5-MIN KSTC 250405Z AUTO 12003KT 6SM BR CLR 19/19 A2998 970 97 1800 120/03 RMK AO2
14926KSTC STC20010824221009708/24/01 22:10:31  5-MIN KSTC 250410Z AUTO 13004KT 7SM CLR 20/19 A2997 980 93 1800 130/04 RMK AO2
14926KSTC STC20010824221509708/24/01 22:15:31  5-MIN KSTC 250415Z AUTO 14004KT 8SM CLR 20/19 A2997 980 93 1800 130/04 RMK AO2
14926KSTC STC20010824222009708/24/01 22:20:31  5-MIN KSTC 250420Z AUTO 14004KT 8SM CLR 20/19 A2997 980 93 1800 130/04 RMK AO2
14926KSTC STC20010824222509708/24/01 22:25:31  5-MIN KSTC 250425Z AUTO 14004KT 8SM CLR 19/18 A2997 980 93 1800 140/04 RMK AO2
14926KSTC STC20010824223009708/24/01 22:30:31  5-MIN KSTC 250430Z AUTO 14003KT 7SM CLR 19/18 A2997 980 97 1700 130/03 RMK AO2
14926KSTC STC20010824223510008/24/01 22:35:31  5-MIN KSTC 250435Z AUTO 14004KT 6SM BR CLR 19/18 A2997 980 97 1700 140/04 RMK AO2
14926KSTC STC20010824224010008/24/01 22:40:31  5-MIN KSTC 250440Z AUTO 13004KT 6SM BR CLR 19/18 A2997 980 97 1700 130/04 RMK AO2
14926KSTC STC20010824224509708/24/01 22:45:31  5-MIN KSTC 250445Z AUTO 13004KT 7SM CLR 19/18 A2997 980 93 1800 130/04 RMK AO2
14926KSTC STC20010824225011408/24/01 22:50:31  5-MIN KSTC 250450Z AUTO 13004KT 8SM CLR 19/18 A2997 980 93 1800 130/04 RMK AO2 SLP154 T01940183
14926KSTC STC20010824225509708/24/01 22:55:31  5-MIN KSTC 250455Z AUTO 13004KT 8SM CLR 19/18 A2998 970 93 1800 130/04 RMK AO2
14926KSTC STC20010824230009808/24/01 23:00:31  5-MIN KSTC 250500Z AUTO 14004KT 7SM CLR 18/18 A2998 980 100 1600 130/04 RMK AO2
14926KSTC STC20010824230509808/24/01 23:05:31  5-MIN KSTC 250505Z AUTO 13003KT 7SM CLR 18/18 A2998 970 100 1600 130/03 RMK AO2
14926KSTC STC20010824231009708/24/01 23:10:31  5-MIN KSTC 250510Z AUTO 14004KT 7SM CLR 19/18 A2998 980 97 1700 130/04 RMK AO2
14926KSTC STC20010824231509708/24/01 23:15:31  5-MIN KSTC 250515Z AUTO 13003KT 8SM CLR 19/18 A2998 980 97 1700 130/03 RMK AO2
14926KSTC STC20010824232009708/24/01 23:20:31  5-MIN KSTC 250520Z AUTO 12003KT 8SM CLR 19/18 A2997 980 93 1800 120/03 RMK AO2
14926KSTC STC20010824232509708/24/01 23:25:31  5-MIN KSTC 250525Z AUTO 13003KT 8SM CLR 19/18 A2997 980 93 1800 120/03 RMK AO2
14926KSTC STC20010824233009708/24/01 23:30:31  5-MIN KSTC 250530Z AUTO 00000KT 7SM CLR 19/18 A2997 980 97 1700 000/00 RMK AO2
14926KSTC STC20010824233509708/24/01 23:35:31  5-MIN KSTC 250535Z AUTO 00000KT 7SM CLR 19/18 A2997 980 93 1700 000/00 RMK AO2
14926KSTC STC20010824234009708/24/01 23:40:31  5-MIN KSTC 250540Z AUTO 00000KT 7SM CLR 19/18 A2997 980 93 1700 000/00 RMK AO2
14926KSTC STC20010824234510008/24/01 23:45:31  5-MIN KSTC 250545Z AUTO 00000KT 6SM BR CLR 18/18 A2997 980 96 1600 000/00 RMK AO2
14926KSTC STC20010824235014508/24/01 23:50:31  5-MIN KSTC 250550Z AUTO 11003KT 6SM BR CLR 18/18 A2997 980 96 1600 100/03 RMK AO2 SLP151 T01830178 10256 20183 402890133 56002
14926KSTC STC20010824235510008/24/01 23:55:31  5-MIN KSTC 250555Z AUTO 10003KT 5SM BR CLR 18/18 A2996 990 96 1600 100/03 RMK AO2
14926KSTC STC20010825000010008/25/01 00:00:31  5-MIN KSTC 250600Z AUTO 11003KT 5SM BR CLR 18/18 A2996 990 96 1600 110/03 RMK AO2
14926KSTC STC20010825000510008/25/01 00:05:31  5-MIN KSTC 250605Z AUTO 00000KT 5SM BR CLR 18/18 A2996 990 96 1600 000/00 RMK AO2
14926KSTC STC20010825001010008/25/01 00:10:31  5-MIN KSTC 250610Z AUTO 00000KT 5SM BR CLR 18/18 A2996 990 96 1600 000/00 RMK AO2
14926KSTC STC20010825001510008/25/01 00:15:31  5-MIN KSTC 250615Z AUTO 00000KT 5SM BR CLR 18/18 A2996 990 96 1600 000/00 RMK AO2
14926KSTC STC20010825002010008/25/01 00:20:31  5-MIN KSTC 250620Z AUTO 00000KT 5SM BR CLR 18/18 A2996 990 96 1600 000/00 RMK AO2
14926KSTC STC20010825002510008/25/01 00:25:31  5-MIN KSTC 250625Z AUTO 00000KT 5SM BR CLR 18/18 A2996 990 96 1700 000/00 RMK AO2
14926KSTC STC20010825003010108/25/01 00:30:31  5-MIN KSTC 250630Z AUTO 00000KT 4SM BR CLR 18/18 A2996 990 100 1600 000/00 RMK AO2
14926KSTC STC20010825003510008/25/01 00:35:31  5-MIN KSTC 250635Z AUTO 08003KT 4SM BR CLR 18/17 A2996 990 96 1600 080/03 RMK AO2
14926KSTC STC20010825004010108/25/01 00:40:31  5-MIN KSTC 250640Z AUTO 08003KT 4SM BR CLR 17/17 A2996 990 100 1500 070/03 RMK AO2
14926KSTC STC20010825004510108/25/01 00:45:31  5-MIN KSTC 250645Z AUTO 00000KT 3SM BR CLR 17/17 A2995 990 100 1500 000/00 RMK AO2
14926KSTC STC20010825005011908/25/01 00:50:31  5-MIN KSTC 250650Z AUTO 07003KT 3SM BR CLR 17/17 A2995 1000 100 1500 060/03 RMK AO2 SLP146 T01720172
14926KSTC STC20010825005510208/25/01 00:55:31  5-MIN KSTC 250655Z AUTO 00000KT 3SM BR CLR 17/17 A2995 1000 100 1500 000/00 RMK AO2
14926KSTC STC20010825010010208/25/01 01:00:31  5-MIN KSTC 250700Z AUTO 09004KT 4SM BR CLR 17/17 A2995 1000 100 1500 090/04 RMK AO2
14926KSTC STC20010825010510108/25/01 01:05:31  5-MIN KSTC 250705Z AUTO 09004KT 4SM BR CLR 18/17 A2995 1000 96 1600 090/04 RMK AO2
14926KSTC STC20010825011010208/25/01 01:10:31  5-MIN KSTC 250710Z AUTO 09004KT 4SM BR CLR 18/18 A2995 1000 100 1600 080/04 RMK AO2
14926KSTC STC20010825011510208/25/01 01:15:31  5-MIN KSTC 250715Z AUTO 09004KT 4SM BR CLR 18/18 A2995 1000 100 1600 090/04 RMK AO2
14926KSTC STC20010825012010208/25/01 01:20:31  5-MIN KSTC 250720Z AUTO 08004KT 4SM BR CLR 18/18 A2995 1000 100 1600 080/04 RMK AO2
14926KSTC STC20010825012510208/25/01 01:25:31  5-MIN KSTC 250725Z AUTO 08005KT 4SM BR CLR 18/18 A2995 1000 100 1600 080/05 RMK AO2
14926KSTC STC20010825013010208/25/01 01:30:31  5-MIN KSTC 250730Z AUTO 08004KT 4SM BR CLR 18/18 A2995 1000 100 1600 070/04 RMK AO2
14926KSTC STC20010825013510208/25/01 01:35:31  5-MIN KSTC 250735Z AUTO 08003KT 4SM BR CLR 18/18 A2995 1000 100 1600 080/03 RMK AO2
14926KSTC STC20010825014010208/25/01 01:40:31  5-MIN KSTC 250740Z AUTO 07003KT 4SM BR CLR 18/18 A2995 1000 100 1600 070/03 RMK AO2
14926KSTC STC20010825014510208/25/01 01:45:31  5-MIN KSTC 250745Z AUTO 07004KT 4SM BR CLR 17/17 A2995 1000 100 1500 060/04 RMK AO2
14926KSTC STC20010825015011908/25/01 01:50:31  5-MIN KSTC 250750Z AUTO 07004KT 4SM BR CLR 18/18 A2995 1000 100 1600 070/04 RMK AO2 SLP144 T01780178
14926KSTC STC20010825015510208/25/01 01:55:31  5-MIN KSTC 250755Z AUTO 08004KT 4SM BR CLR 18/18 A2995 1000 100 1600 070/04 RMK AO2
14926KSTC STC20010825020010208/25/01 02:00:31  5-MIN KSTC 250800Z AUTO 08004KT 4SM BR CLR 18/18 A2995 1000 100 1600 080/04 RMK AO2
14926KSTC STC20010825020510208/25/01 02:05:31  5-MIN KSTC 250805Z AUTO 07004KT 4SM BR CLR 18/18 A2995 1000 100 1600 070/04 RMK AO2
14926KSTC STC20010825021010208/25/01 02:10:31  5-MIN KSTC 250810Z AUTO 06004KT 4SM BR CLR 17/17 A2995 1000 100 1500 060/04 RMK AO2
14926KSTC STC20010825021510208/25/01 02:15:31  5-MIN KSTC 250815Z AUTO 06004KT 3SM BR CLR 17/17 A2995 1000 100 1500 060/04 RMK AO2
14926KSTC STC20010825022010208/25/01 02:20:31  5-MIN KSTC 250820Z AUTO 07004KT 3SM BR CLR 17/17 A2994 1000 100 1500 060/04 RMK AO2
14926KSTC STC20010825022510108/25/01 02:25:31  5-MIN KSTC 250825Z AUTO 07004KT 3SM BR CLR 18/17 A2994 1010 96 1600 070/04 RMK AO2
14926KSTC STC20010825023010208/25/01 02:30:31  5-MIN KSTC 250830Z AUTO 07003KT 3SM BR CLR 18/18 A2994 1010 100 1600 070/03 RMK AO2
14926KSTC STC20010825023510208/25/01 02:35:31  5-MIN KSTC 250835Z AUTO 07003KT 3SM BR CLR 18/18 A2994 1010 100 1600 070/03 RMK AO2
14926KSTC STC20010825024010208/25/01 02:40:31  5-MIN KSTC 250840Z AUTO 08003KT 3SM BR CLR 17/17 A2994 1010 100 1500 070/03 RMK AO2
14926KSTC STC20010825024510208/25/01 02:45:31  5-MIN KSTC 250845Z AUTO 06004KT 3SM BR CLR 18/18 A2994 1010 100 1600 060/04 RMK AO2
14926KSTC STC20010825025012508/25/01 02:50:31  5-MIN KSTC 250850Z AUTO 06004KT 3SM BR CLR 17/17 A2994 1010 100 1500 060/04 RMK AO2 SLP140 T01720172 58006
14926KSTC STC20010825025510208/25/01 02:55:31  5-MIN KSTC 250855Z AUTO 07004KT 3SM BR CLR 17/17 A2993 1010 100 1600 070/04 RMK AO2
14926KSTC STC20010825030010208/25/01 03:00:31  5-MIN KSTC 250900Z AUTO 08005KT 3SM BR CLR 18/18 A2993 1020 100 1600 080/05 RMK AO2
14926KSTC STC20010825030510208/25/01 03:05:31  5-MIN KSTC 250905Z AUTO 08005KT 3SM BR CLR 18/18 A2993 1020 100 1600 080/05 RMK AO2
14926KSTC STC20010825031010208/25/01 03:10:31  5-MIN KSTC 250910Z AUTO 08004KT 3SM BR CLR 17/17 A2993 1020 100 1600 080/04 RMK AO2
14926KSTC STC20010825031510208/25/01 03:15:31  5-MIN KSTC 250915Z AUTO 07004KT 3SM BR CLR 18/18 A2993 1020 100 1600 070/04 RMK AO2
14926KSTC STC20010825032010208/25/01 03:20:31  5-MIN KSTC 250920Z AUTO 07004KT 3SM BR CLR 17/17 A2993 1020 100 1600 070/04 RMK AO2
14926KSTC STC20010825032510208/25/01 03:25:31  5-MIN KSTC 250925Z AUTO 07004KT 3SM BR CLR 17/17 A2993 1010 100 1500 070/04 RMK AO2
14926KSTC STC20010825033010208/25/01 03:30:31  5-MIN KSTC 250930Z AUTO 04003KT 3SM BR CLR 17/17 A2994 1010 100 1500 040/03 RMK AO2
14926KSTC STC20010825033510208/25/01 03:35:31  5-MIN KSTC 250935Z AUTO 04004KT 3SM BR CLR 17/17 A2994 1010 100 1500 030/04 RMK AO2
14926KSTC STC20010825034010208/25/01 03:40:31  5-MIN KSTC 250940Z AUTO 03003KT 3SM BR CLR 17/17 A2994 1010 100 1500 020/03 RMK AO2
14926KSTC STC20010825034510208/25/01 03:45:31  5-MIN KSTC 250945Z AUTO 02003KT 3SM BR CLR 17/17 A2995 1000 100 1500 020/03 RMK AO2
14926KSTC STC20010825035011908/25/01 03:50:31  5-MIN KSTC 250950Z AUTO 01003KT 3SM BR CLR 17/17 A2995 1000 100 1500 010/03 RMK AO2 SLP145 T01720172
14926KSTC STC20010825035510208/25/01 03:55:31  5-MIN KSTC 250955Z AUTO 01004KT 3SM BR CLR 17/17 A2995 1000 100 1500 010/04 RMK AO2
14926KSTC STC20010825040010208/25/01 04:00:31  5-MIN KSTC 251000Z AUTO 01004KT 3SM BR CLR 17/17 A2995 1000 100 1500 010/04 RMK AO2
14926KSTC STC20010825040510208/25/01 04:05:31  5-MIN KSTC 251005Z AUTO 01003KT 3SM BR CLR 17/17 A2995 1000 100 1500 010/03 RMK AO2
14926KSTC STC20010825041010208/25/01 04:10:31  5-MIN KSTC 251010Z AUTO 05004KT 3SM BR CLR 17/17 A2995 1000 100 1500 040/04 RMK AO2
14926KSTC STC20010825041510208/25/01 04:15:31  5-MIN KSTC 251015Z AUTO 05004KT 3SM BR CLR 17/17 A2995 1000 100 1500 050/04 RMK AO2
14926KSTC STC20010825042010108/25/01 04:20:31  5-MIN KSTC 251020Z AUTO 04005KT 3SM BR CLR 17/17 A2996 990 100 1500 040/05 RMK AO2
14926KSTC STC20010825042510108/25/01 04:25:31  5-MIN KSTC 251025Z AUTO 04004KT 3SM BR CLR 17/17 A2996 990 100 1500 040/04 RMK AO2
14926KSTC STC20010825043010108/25/01 04:30:31  5-MIN KSTC 251030Z AUTO 04004KT 3SM BR CLR 17/17 A2996 990 100 1500 040/04 RMK AO2
14926KSTC STC20010825043510408/25/01 04:35:31  5-MIN KSTC 251035Z AUTO 04003KT 3SM BR FEW029 17/17 A2996 990 100 1500 040/03 RMK AO2
14926KSTC STC20010825044010408/25/01 04:40:31  5-MIN KSTC 251040Z AUTO 04004KT 3SM BR SCT029 17/17 A2996 990 100 1500 040/04 RMK AO2
14926KSTC STC20010825044510408/25/01 04:45:31  5-MIN KSTC 251045Z AUTO 05003KT 3SM BR BKN029 17/17 A2996 990 100 1500 040/03 RMK AO2
14926KSTC STC20010825045012108/25/01 04:50:31  5-MIN KSTC 251050Z AUTO 04004KT 3SM BR BKN029 17/17 A2996 990 100 1500 040/04 RMK AO2 SLP150 T01720172
14926KSTC STC20010825045510408/25/01 04:55:31  5-MIN KSTC 251055Z AUTO 00000KT 4SM BR BKN029 17/17 A2997 980 100 1500 000/00 RMK AO2
14926KSTC STC20010825050010408/25/01 05:00:31  5-MIN KSTC 251100Z AUTO 00000KT 4SM BR OVC029 17/17 A2997 980 100 1500 000/00 RMK AO2
14926KSTC STC20010825084009808/25/01 08:40:31  5-MIN KSTC 251440Z AUTO 12006KT 7SM CLR 21/18 A2993 1020 87 1900 120/06 RMK AO2
14926KSTC STC20010825084510508/25/01 08:45:31  5-MIN KSTC 251445Z AUTO 13007KT 7SM CLR 21/18 A2992 1030 87 2000 120/07 RMK AO2 PRESFR
14926KSTC STC20010825085013108/25/01 08:50:31  5-MIN KSTC 251450Z AUTO 13007KT 6SM BR CLR 21/18 A2991 1040 87 2000 130/07 RMK AO2 PRESFR SLP133 T02060183 53020
14926KSTC STC20010825085510108/25/01 08:55:31  5-MIN KSTC 251455Z AUTO 12006KT 6SM HZ CLR 21/18 A2991 1030 84 2000 120/06 RMK AO2
14926KSTC STC20010825090009808/25/01 09:00:31  5-MIN KSTC 251500Z AUTO 11007KT 7SM CLR 21/19 A2991 1030 87 2000 110/07 RMK AO2
14926KSTC STC20010825090509808/25/01 09:05:31  5-MIN KSTC 251505Z AUTO 11007KT 7SM CLR 22/18 A2992 1020 81 2100 110/07 RMK AO2
14926KSTC STC20010825091009808/25/01 09:10:31  5-MIN KSTC 251510Z AUTO 11005KT 7SM CLR 22/18 A2993 1020 81 2100 110/05 RMK AO2
14926KSTC STC20010825091509808/25/01 09:15:31  5-MIN KSTC 251515Z AUTO VRB03KT 7SM CLR 22/19 A2993 1010 81 2100 VRB/03 RMK AO2
14926KSTC STC20010825092009808/25/01 09:20:31  5-MIN KSTC 251520Z AUTO 07004KT 8SM CLR 22/19 A2993 1020 81 2100 070/04 RMK AO2
14926KSTC STC20010825092509808/25/01 09:25:31  5-MIN KSTC 251525Z AUTO 08005KT 8SM CLR 23/19 A2994 1010 78 2200 080/05 RMK AO2
14926KSTC STC20010825093009808/25/01 09:30:31  5-MIN KSTC 251530Z AUTO VRB03KT 8SM CLR 23/18 A2994 1010 76 2200 VRB/03 RMK AO2
14926KSTC STC20010825093509808/25/01 09:35:31  5-MIN KSTC 251535Z AUTO VRB05KT 8SM CLR 23/19 A2994 1010 76 2200 VRB/05 RMK AO2
14926KSTC STC20010825094009808/25/01 09:40:31  5-MIN KSTC 251540Z AUTO VRB04KT 9SM CLR 23/19 A2994 1010 76 2200 VRB/04 RMK AO2
14926KSTC STC20010825094509808/25/01 09:45:31  5-MIN KSTC 251545Z AUTO 00000KT 9SM CLR 23/18 A2995 1000 73 2200 000/00 RMK AO2
14926KSTC STC20010825095011808/25/01 09:50:31  5-MIN KSTC 251550Z AUTO VRB05KT 9SM FEW018 24/19 A2995 1000 71 2400 VRB/05 RMK AO2 SLP145 T02440189
14926KSTC STC20010825095510208/25/01 09:55:31  5-MIN KSTC 251555Z AUTO 00000KT 10SM FEW018 24/18 A2995 1000 68 2400 000/00 RMK AO2
14926KSTC STC20010825100010108/25/01 10:00:31  5-MIN KSTC 251600Z AUTO 06004KT 9SM FEW018 24/18 A2995 1000 71 2300 050/04 RMK AO2
14926KSTC STC20010825100510108/25/01 10:05:31  5-MIN KSTC 251605Z AUTO VRB03KT 9SM FEW020 24/18 A2995 1000 71 2300 VRB/03 RMK AO2
14926KSTC STC20010825101010208/25/01 10:10:31  5-MIN KSTC 251610Z AUTO VRB03KT 10SM FEW020 24/18 A2995 1000 68 2400 VRB/03 RMK AO2
14926KSTC STC20010825101510208/25/01 10:15:31  5-MIN KSTC 251615Z AUTO 01005KT 10SM FEW020 26/18 A2995 1000 64 2500 010/05 RMK AO2
14926KSTC STC20010825102010208/25/01 10:20:31  5-MIN KSTC 251620Z AUTO VRB05KT 10SM FEW020 25/18 A2995 1000 66 2400 VRB/05 RMK AO2
14926KSTC STC20010825102510208/25/01 10:25:31  5-MIN KSTC 251625Z AUTO 00000KT 10SM FEW022 24/18 A2995 1000 68 2400 000/00 RMK AO2
14926KSTC STC20010825103010208/25/01 10:30:31  5-MIN KSTC 251630Z AUTO VRB04KT 10SM FEW022 24/18 A2995 1000 68 2400 VRB/04 RMK AO2
14926KSTC STC20010825103510208/25/01 10:35:31  5-MIN KSTC 251635Z AUTO VRB06KT 10SM FEW022 25/18 A2995 1000 66 2400 VRB/06 RMK AO2
14926KSTC STC20010825104010208/25/01 10:40:31  5-MIN KSTC 251640Z AUTO 35006KT 10SM FEW022 25/18 A2995 1000 66 2400 340/06 RMK AO2
14926KSTC STC20010825104510208/25/01 10:45:31  5-MIN KSTC 251645Z AUTO 35007KT 10SM FEW022 26/18 A2995 1000 64 2500 350/07 RMK AO2
14926KSTC STC20010825105011808/25/01 10:50:31  5-MIN KSTC 251650Z AUTO VRB05KT 10SM FEW022 26/19 A2995 990 66 2500 VRB/05 RMK AO2 SLP147 T02560189
14926KSTC STC20010825105510108/25/01 10:55:31  5-MIN KSTC 251655Z AUTO 35007KT 10SM FEW022 26/19 A2996 990 66 2500 340/07 RMK AO2
14926KSTC STC20010825110009808/25/01 11:00:31  5-MIN KSTC 251700Z AUTO VRB04KT 10SM CLR 25/19 A2996 990 68 2400 VRB/04 RMK AO2
14926KSTC STC20010825110509808/25/01 11:05:31  5-MIN KSTC 251705Z AUTO VRB05KT 10SM CLR 26/19 A2996 990 66 2500 VRB/05 RMK AO2
14926KSTC STC20010825111009808/25/01 11:10:31  5-MIN KSTC 251710Z AUTO 31006KT 10SM CLR 26/18 A2996 990 64 2500 310/06 RMK AO2
14926KSTC STC20010825111510108/25/01 11:15:31  5-MIN KSTC 251715Z AUTO VRB06KT 10SM FEW024 26/18 A2996 990 64 2500 VRB/06 RMK AO2
14926KSTC STC20010825112010108/25/01 11:20:31  5-MIN KSTC 251720Z AUTO 33005KT 10SM FEW024 26/18 A2996 990 64 2500 330/05 RMK AO2
14926KSTC STC20010825112510108/25/01 11:25:31  5-MIN KSTC 251725Z AUTO VRB05KT 10SM FEW024 26/18 A2996 990 62 2500 VRB/05 RMK AO2
14926KSTC STC20010825113010108/25/01 11:30:31  5-MIN KSTC 251730Z AUTO VRB06KT 10SM FEW024 27/18 A2996 990 57 2600 VRB/06 RMK AO2
14926KSTC STC20010825113510208/25/01 11:35:31  5-MIN KSTC 251735Z AUTO 33006KT 10SM FEW024 26/18 A2995 1000 59 2500 330/06 RMK AO2
14926KSTC STC20010825114010208/25/01 11:40:31  5-MIN KSTC 251740Z AUTO 35008KT 10SM FEW024 26/18 A2995 1000 59 2500 340/08 RMK AO2
14926KSTC STC20010825114510208/25/01 11:45:31  5-MIN KSTC 251745Z AUTO 33008KT 10SM FEW027 27/18 A2995 1000 60 2600 330/08 RMK AO2
14926KSTC STC20010825115013708/25/01 11:50:31  5-MIN KSTC 251750Z AUTO 35006KT 10SM FEW027 27/18 A2995 1000 60 2600 350/06 RMK AO2 SLP146 T02670183 10267 20167 58028
14926KSTC STC20010825115510208/25/01 11:55:31  5-MIN KSTC 251755Z AUTO VRB06KT 10SM FEW029 27/18 A2995 1000 60 2600 VRB/06 RMK AO2
14926KSTC STC20010825120011808/25/01 12:00:31  5-MIN KSTC 251800Z AUTO 35008KT 320V030 10SM FEW029 27/18 A2995 1000 58 2700 350/08 320V030 RMK AO2
14926KSTC STC20010825120510208/25/01 12:05:31  5-MIN KSTC 251805Z AUTO 34006KT 10SM FEW029 27/18 A2995 1000 56 2700 330/06 RMK AO2
14926KSTC STC20010825121010208/25/01 12:10:31  5-MIN KSTC 251810Z AUTO 35008KT 10SM FEW029 27/18 A2994 1000 56 2700 350/08 RMK AO2
14926KSTC STC20010825121511808/25/01 12:15:31  5-MIN KSTC 251815Z AUTO 36008KT 300V030 10SM FEW029 27/18 A2994 1010 56 2700 350/08 300V030 RMK AO2
14926KSTC STC20010825122010208/25/01 12:20:31  5-MIN KSTC 251820Z AUTO 03008KT 10SM FEW029 27/18 A2994 1010 58 2700 030/08 RMK AO2
14926KSTC STC20010825122509908/25/01 12:25:31  5-MIN KSTC 251825Z AUTO 35008KT 10SM CLR 28/18 A2994 1010 56 2700 350/08 RMK AO2
14926KSTC STC20010825123009908/25/01 12:30:31  5-MIN KSTC 251830Z AUTO 36009KT 10SM CLR 28/17 A2994 1010 52 2700 350/09 RMK AO2
14926KSTC STC20010825123511508/25/01 12:35:31  5-MIN KSTC 251835Z AUTO 35007KT 300V020 10SM CLR 28/17 A2994 1010 52 2700 340/07 300V020 RMK AO2
14926KSTC STC20010825124009908/25/01 12:40:31  5-MIN KSTC 251840Z AUTO 31009KT 10SM CLR 28/18 A2994 1010 54 2700 300/09 RMK AO2
14926KSTC STC20010825124510808/25/01 12:45:31  5-MIN KSTC 251845Z AUTO 34011G15KT 10SM FEW033 28/18 A2994 1010 56 2700 340/11G15 RMK AO2
14926KSTC STC20010825125014108/25/01 12:50:31  5-MIN KSTC 251850Z AUTO 34007G15KT 300V360 10SM SCT033 28/18 A2994 1010 56 2700 340/07G15 300V360 RMK AO2 SLP141 T02780183
14926KSTC STC20010825125510208/25/01 12:55:31  5-MIN KSTC 251855Z AUTO 35010KT 10SM FEW033 28/19 A2994 1010 56 2800 350/10 RMK AO2
14926KSTC STC20010825130010208/25/01 13:00:31  5-MIN KSTC 251900Z AUTO 35009KT 10SM FEW033 28/19 A2994 1010 58 2700 340/09 RMK AO2
14926KSTC STC20010825130510208/25/01 13:05:31  5-MIN KSTC 251905Z AUTO 01009KT 10SM FEW033 28/18 A2994 1010 56 2700 010/09 RMK AO2
14926KSTC STC20010825131011808/25/01 13:10:31  5-MIN KSTC 251910Z AUTO 33007KT 310V020 10SM FEW033 28/18 A2994 1010 56 2700 330/07 310V020 RMK AO2
14926KSTC STC20010825131511808/25/01 13:15:31  5-MIN KSTC 251915Z AUTO 33008KT 290V030 10SM FEW033 28/18 A2994 1010 54 2800 330/08 290V030 RMK AO2
14926KSTC STC20010825132009908/25/01 13:20:31  5-MIN KSTC 251920Z AUTO 35008KT 10SM CLR 28/18 A2994 1010 54 2700 350/08 RMK AO2
14926KSTC STC20010825132509908/25/01 13:25:31  5-MIN KSTC 251925Z AUTO VRB04KT 10SM CLR 28/18 A2994 1010 54 2700 VRB/04 RMK AO2
14926KSTC STC20010825133009908/25/01 13:30:31  5-MIN KSTC 251930Z AUTO 30008KT 10SM CLR 29/18 A2994 1010 50 2900 290/08 RMK AO2
14926KSTC STC20010825133509908/25/01 13:35:31  5-MIN KSTC 251935Z AUTO VRB05KT 10SM CLR 28/18 A2994 1010 52 2800 VRB/05 RMK AO2
14926KSTC STC20010825134009908/25/01 13:40:31  5-MIN KSTC 251940Z AUTO VRB05KT 10SM CLR 28/18 A2993 1020 52 2800 VRB/05 RMK AO2
14926KSTC STC20010825134509908/25/01 13:45:31  5-MIN KSTC 251945Z AUTO 34006KT 10SM CLR 28/17 A2993 1020 50 2800 330/06 RMK AO2
14926KSTC STC20010825135011608/25/01 13:50:31  5-MIN KSTC 251950Z AUTO VRB05KT 10SM CLR 29/17 A2993 1020 48 2900 VRB/05 RMK AO2 SLP137 T02890172
14926KSTC STC20010825135509908/25/01 13:55:31  5-MIN KSTC 251955Z AUTO VRB03KT 10SM CLR 28/17 A2993 1020 50 2800 VRB/03 RMK AO2
14926KSTC STC20010825140009908/25/01 14:00:31  5-MIN KSTC 252000Z AUTO 03005KT 10SM CLR 28/17 A2993 1020 48 2800 020/05 RMK AO2
14926KSTC STC20010825140509908/25/01 14:05:31  5-MIN KSTC 252005Z AUTO 01006KT 10SM CLR 29/17 A2992 1020 47 2900 360/06 RMK AO2
14926KSTC STC20010825141009908/25/01 14:10:31  5-MIN KSTC 252010Z AUTO VRB04KT 10SM CLR 28/17 A2992 1020 48 2800 VRB/04 RMK AO2
14926KSTC STC20010825141509908/25/01 14:15:31  5-MIN KSTC 252015Z AUTO VRB05KT 10SM CLR 28/17 A2992 1020 48 2800 VRB/05 RMK AO2
14926KSTC STC20010825142009908/25/01 14:20:31  5-MIN KSTC 252020Z AUTO VRB06KT 10SM CLR 29/17 A2993 1020 47 2900 VRB/06 RMK AO2
14926KSTC STC20010825142509908/25/01 14:25:31  5-MIN KSTC 252025Z AUTO 32006KT 10SM CLR 29/16 A2993 1020 45 2900 310/06 RMK AO2
14926KSTC STC20010825143009908/25/01 14:30:31  5-MIN KSTC 252030Z AUTO VRB06KT 10SM CLR 29/16 A2992 1020 44 2900 VRB/06 RMK AO2
14926KSTC STC20010825143509908/25/01 14:35:31  5-MIN KSTC 252035Z AUTO VRB05KT 10SM CLR 29/16 A2992 1020 45 2900 VRB/05 RMK AO2
14926KSTC STC20010825144009908/25/01 14:40:31  5-MIN KSTC 252040Z AUTO 32009KT 10SM CLR 29/16 A2992 1020 44 2900 320/09 RMK AO2
14926KSTC STC20010825144509908/25/01 14:45:31  5-MIN KSTC 252045Z AUTO 31007KT 10SM CLR 29/16 A2992 1030 44 2900 310/07 RMK AO2
14926KSTC STC20010825145012208/25/01 14:50:31  5-MIN KSTC 252050Z AUTO 35006KT 10SM CLR 30/17 A2992 1020 44 3000 340/06 RMK AO2 SLP135 T03000167 50014
14926KSTC STC20010825145511508/25/01 14:55:31  5-MIN KSTC 252055Z AUTO 36008KT 340V040 10SM CLR 29/17 A2992 1020 45 2900 360/08 340V040 RMK AO2
14926KSTC STC20010825150009908/25/01 15:00:31  5-MIN KSTC 252100Z AUTO 35008KT 10SM CLR 29/17 A2992 1030 45 3000 350/08 RMK AO2
14926KSTC STC20010825150509908/25/01 15:05:31  5-MIN KSTC 252105Z AUTO VRB05KT 10SM CLR 29/17 A2992 1030 45 3000 VRB/05 RMK AO2
14926KSTC STC20010825151009908/25/01 15:10:31  5-MIN KSTC 252110Z AUTO VRB05KT 10SM CLR 29/16 A2992 1030 44 3000 VRB/05 RMK AO2
14926KSTC STC20010825151509908/25/01 15:15:31  5-MIN KSTC 252115Z AUTO 36009KT 10SM CLR 30/16 A2991 1030 42 3000 360/09 RMK AO2
14926KSTC STC20010825152009908/25/01 15:20:31  5-MIN KSTC 252120Z AUTO 01006KT 10SM CLR 29/16 A2991 1030 42 3000 360/06 RMK AO2
14926KSTC STC20010825152509908/25/01 15:25:31  5-MIN KSTC 252125Z AUTO 02008KT 10SM CLR 30/16 A2991 1030 41 3000 010/08 RMK AO2
14926KSTC STC20010825153009908/25/01 15:30:31  5-MIN KSTC 252130Z AUTO 36009KT 10SM CLR 29/16 A2991 1030 42 3000 360/09 RMK AO2
14926KSTC STC20010825153509908/25/01 15:35:31  5-MIN KSTC 252135Z AUTO 01006KT 10SM CLR 30/16 A2991 1030 41 3000 010/06 RMK AO2
14926KSTC STC20010825154009908/25/01 15:40:31  5-MIN KSTC 252140Z AUTO 35007KT 10SM CLR 30/15 A2991 1040 39 3000 350/07 RMK AO2
14926KSTC STC20010825154509908/25/01 15:45:31  5-MIN KSTC 252145Z AUTO 35005KT 10SM CLR 30/15 A2991 1040 39 3000 350/05 RMK AO2
14926KSTC STC20010825155011608/25/01 15:50:31  5-MIN KSTC 252150Z AUTO VRB05KT 10SM CLR 30/15 A2991 1040 39 3000 VRB/05 RMK AO2 SLP129 T03000150
14926KSTC STC20010825155509908/25/01 15:55:31  5-MIN KSTC 252155Z AUTO 02006KT 10SM CLR 31/15 A2991 1040 38 3100 020/06 RMK AO2
14926KSTC STC20010825160009908/25/01 16:00:31  5-MIN KSTC 252200Z AUTO 01008KT 10SM CLR 30/15 A2990 1040 39 3000 010/08 RMK AO2
14926KSTC STC20010825160509908/25/01 16:05:31  5-MIN KSTC 252205Z AUTO 35008KT 10SM CLR 30/15 A2991 1040 39 3000 350/08 RMK AO2
14926KSTC STC20010825161009908/25/01 16:10:31  5-MIN KSTC 252210Z AUTO 34008KT 10SM CLR 30/14 A2990 1040 38 3000 340/08 RMK AO2
14926KSTC STC20010825161509908/25/01 16:15:31  5-MIN KSTC 252215Z AUTO 36005KT 10SM CLR 29/15 A2990 1040 41 3000 360/05 RMK AO2
14926KSTC STC20010825162009908/25/01 16:20:31  5-MIN KSTC 252220Z AUTO 34007KT 10SM CLR 29/15 A2990 1040 41 3000 340/07 RMK AO2
14926KSTC STC20010825162509908/25/01 16:25:31  5-MIN KSTC 252225Z AUTO 34007KT 10SM CLR 29/15 A2990 1040 41 3000 330/07 RMK AO2
14926KSTC STC20010825163009908/25/01 16:30:31  5-MIN KSTC 252230Z AUTO 35006KT 10SM CLR 29/15 A2990 1040 41 3000 350/06 RMK AO2
14926KSTC STC20010825163509908/25/01 16:35:31  5-MIN KSTC 252235Z AUTO 01008KT 10SM CLR 29/15 A2990 1040 41 3000 360/08 RMK AO2
14926KSTC STC20010825164009908/25/01 16:40:31  5-MIN KSTC 252240Z AUTO 36006KT 10SM CLR 30/15 A2990 1040 39 3000 350/06 RMK AO2
14926KSTC STC20010825164509908/25/01 16:45:31  5-MIN KSTC 252245Z AUTO 35006KT 10SM CLR 30/15 A2990 1040 39 3000 350/06 RMK AO2
14926KSTC STC20010825165011608/25/01 16:50:31  5-MIN KSTC 252250Z AUTO 34006KT 10SM CLR 30/15 A2990 1040 39 3000 330/06 RMK AO2 SLP128 T03000150
14926KSTC STC20010825165509908/25/01 16:55:31  5-MIN KSTC 252255Z AUTO 33008KT 10SM CLR 29/15 A2990 1040 41 3000 330/08 RMK AO2
14926KSTC STC20010825170009908/25/01 17:00:31  5-MIN KSTC 252300Z AUTO 36007KT 10SM CLR 29/15 A2990 1040 42 2900 360/07 RMK AO2
14926KSTC STC20010825170510208/25/01 17:05:31  5-MIN KSTC 252305Z AUTO 35008KT 10SM FEW095 29/15 A2990 1040 41 3000 340/08 RMK AO2
14926KSTC STC20010825171010208/25/01 17:10:31  5-MIN KSTC 252310Z AUTO 35006KT 10SM FEW095 29/14 A2990 1040 39 3000 350/06 RMK AO2
14926KSTC STC20010825171509908/25/01 17:15:31  5-MIN KSTC 252315Z AUTO 35005KT 10SM CLR 29/15 A2991 1040 41 3000 340/05 RMK AO2
14926KSTC STC20010825172009908/25/01 17:20:31  5-MIN KSTC 252320Z AUTO 34005KT 10SM CLR 29/15 A2991 1040 42 2900 340/05 RMK AO2
14926KSTC STC20010825172509908/25/01 17:25:31  5-MIN KSTC 252325Z AUTO 34004KT 10SM CLR 28/16 A2991 1040 45 2800 330/04 RMK AO2
14926KSTC STC20010825173009908/25/01 17:30:31  5-MIN KSTC 252330Z AUTO 34004KT 10SM CLR 28/16 A2991 1040 46 2800 340/04 RMK AO2
14926KSTC STC20010825173509908/25/01 17:35:31  5-MIN KSTC 252335Z AUTO 33004KT 10SM CLR 27/16 A2991 1040 50 2700 330/04 RMK AO2
14926KSTC STC20010825174009908/25/01 17:40:31  5-MIN KSTC 252340Z AUTO 33004KT 10SM CLR 28/16 A2991 1040 47 2800 330/04 RMK AO2
14926KSTC STC20010825174509908/25/01 17:45:31  5-MIN KSTC 252345Z AUTO 33004KT 10SM CLR 28/16 A2991 1040 47 2800 330/04 RMK AO2
14926KSTC STC20010825175013408/25/01 17:50:31  5-MIN KSTC 252350Z AUTO 33003KT 10SM CLR 28/16 A2991 1040 47 2800 320/03 RMK AO2 SLP130 T02830161 10306 20261 56010
14926KSTC STC20010825175509908/25/01 17:55:31  5-MIN KSTC 252355Z AUTO 32003KT 10SM CLR 28/16 A2991 1040 47 2800 320/03 RMK AO2
14926KSTC STC20010825180009908/25/01 18:00:31  5-MIN KSTC 260000Z AUTO 32004KT 10SM CLR 28/16 A2991 1040 47 2800 320/04 RMK AO2
14926KSTC STC20010825180509908/25/01 18:05:31  5-MIN KSTC 260005Z AUTO 32004KT 10SM CLR 28/16 A2990 1040 47 2800 320/04 RMK AO2
14926KSTC STC20010825181009908/25/01 18:10:31  5-MIN KSTC 260010Z AUTO 33004KT 10SM CLR 28/16 A2991 1040 48 2800 330/04 RMK AO2
14926KSTC STC20010825181509908/25/01 18:15:31  5-MIN KSTC 260015Z AUTO 33003KT 10SM CLR 28/17 A2991 1040 50 2800 330/03 RMK AO2
14926KSTC STC20010825182009908/25/01 18:20:31  5-MIN KSTC 260020Z AUTO 33003KT 10SM CLR 27/17 A2991 1040 54 2700 330/03 RMK AO2
14926KSTC STC20010825182509908/25/01 18:25:31  5-MIN KSTC 260025Z AUTO 35003KT 10SM CLR 27/18 A2991 1040 57 2700 340/03 RMK AO2
14926KSTC STC20010825183009908/25/01 18:30:31  5-MIN KSTC 260030Z AUTO 33003KT 10SM CLR 27/18 A2991 1040 57 2700 330/03 RMK AO2
14926KSTC STC20010825183509908/25/01 18:35:31  5-MIN KSTC 260035Z AUTO 04004KT 10SM CLR 26/18 A2991 1040 64 2500 030/04 RMK AO2
14926KSTC STC20010825184009908/25/01 18:40:31  5-MIN KSTC 260040Z AUTO 03005KT 10SM CLR 25/17 A2991 1030 61 2500 030/05 RMK AO2
14926KSTC STC20010825184509908/25/01 18:45:31  5-MIN KSTC 260045Z AUTO 05003KT 10SM CLR 26/17 A2991 1040 57 2500 050/03 RMK AO2
14926KSTC STC20010825185011808/25/01 18:50:31  5-MIN KSTC 260050Z AUTO 06003KT 10SM CLR 26/17 A2991 1030 57 2500 060/03 RMK AO2 SLP132 T02560167 $
14926KSTC STC20010825185510008/25/01 18:55:31  5-MIN KSTC 260055Z AUTO 09003KT 7SM CLR 25/17 A2991 1030 61 2500 090/03 RMK AO2 $
14926KSTC STC20010825190010308/25/01 19:00:31  5-MIN KSTC 260100Z AUTO 00000KT 5SM HZ CLR 24/18 A2991 1030 68 2300 000/00 RMK AO2 $
14926KSTC STC20010825190510308/25/01 19:05:31  5-MIN KSTC 260105Z AUTO 35003KT 6SM HZ CLR 23/18 A2992 1030 70 2300 350/03 RMK AO2 $
14926KSTC STC20010825191010408/25/01 19:10:31  5-MIN KSTC 260110Z AUTO 33003KT 10SM FEW075 22/18 A2992 1030 75 2100 330/03 RMK AO2 $
14926KSTC STC20010825191510408/25/01 19:15:31  5-MIN KSTC 260115Z AUTO 00000KT 10SM FEW075 23/17 A2992 1030 70 2200 000/00 RMK AO2 $
14926KSTC STC20010825192010108/25/01 19:20:31  5-MIN KSTC 260120Z AUTO 00000KT 10SM CLR 23/17 A2992 1030 70 2200 000/00 RMK AO2 $
14926KSTC STC20010825192510108/25/01 19:25:31  5-MIN KSTC 260125Z AUTO 00000KT 10SM CLR 23/17 A2992 1020 70 2200 000/00 RMK AO2 $
14926KSTC STC20010825193010108/25/01 19:30:31  5-MIN KSTC 260130Z AUTO 02003KT 10SM CLR 22/18 A2993 1020 78 2100 010/03 RMK AO2 $
14926KSTC STC20010825193510108/25/01 19:35:31  5-MIN KSTC 260135Z AUTO 36003KT 10SM CLR 22/18 A2993 1020 78 2100 360/03 RMK AO2 $
14926KSTC STC20010825194010108/25/01 19:40:31  5-MIN KSTC 260140Z AUTO 33005KT 10SM CLR 21/17 A2993 1020 78 2000 330/05 RMK AO2 $
14926KSTC STC20010825194510108/25/01 19:45:31  5-MIN KSTC 260145Z AUTO 35004KT 10SM CLR 22/17 A2993 1010 75 2100 340/04 RMK AO2 $
14926KSTC STC20010825195011808/25/01 19:50:31  5-MIN KSTC 260150Z AUTO 35004KT 10SM CLR 22/17 A2994 1010 75 2100 350/04 RMK AO2 SLP141 T02170172 $
14926KSTC STC20010825195510108/25/01 19:55:31  5-MIN KSTC 260155Z AUTO 01003KT 10SM CLR 22/17 A2994 1010 75 2100 360/03 RMK AO2 $
14926KSTC STC20010825200010108/25/01 20:00:31  5-MIN KSTC 260200Z AUTO 01003KT 10SM CLR 21/17 A2994 1010 78 2000 360/03 RMK AO2 $
14926KSTC STC20010825200510108/25/01 20:05:31  5-MIN KSTC 260205Z AUTO 02003KT 10SM CLR 22/17 A2994 1010 75 2100 020/03 RMK AO2 $
14926KSTC STC20010825201010108/25/01 20:10:31  5-MIN KSTC 260210Z AUTO 03003KT 10SM CLR 20/17 A2995 1000 84 1900 030/03 RMK AO2 $
14926KSTC STC20010825201510108/25/01 20:15:31  5-MIN KSTC 260215Z AUTO 00000KT 10SM CLR 19/17 A2995 1000 87 1800 000/00 RMK AO2 $
14926KSTC STC20010825202010108/25/01 20:20:31  5-MIN KSTC 260220Z AUTO 34003KT 10SM CLR 20/17 A2995 1000 84 1900 340/03 RMK AO2 $
14926KSTC STC20010825202510108/25/01 20:25:31  5-MIN KSTC 260225Z AUTO 00000KT 10SM CLR 21/17 A2995 1000 78 2000 000/00 RMK AO2 $
14926KSTC STC20010825203010108/25/01 20:30:31  5-MIN KSTC 260230Z AUTO 03003KT 10SM CLR 20/17 A2995 1000 84 1800 020/03 RMK AO2 $
14926KSTC STC20010825203510008/25/01 20:35:31  5-MIN KSTC 260235Z AUTO 00000KT 10SM CLR 19/17 A2995 990 87 1800 000/00 RMK AO2 $
14926KSTC STC20010825204010008/25/01 20:40:31  5-MIN KSTC 260240Z AUTO 33003KT 10SM CLR 19/17 A2996 990 87 1800 330/03 RMK AO2 $
14926KSTC STC20010825204510008/25/01 20:45:31  5-MIN KSTC 260245Z AUTO 00000KT 10SM CLR 20/17 A2996 990 84 1800 000/00 RMK AO2 $
14926KSTC STC20010825205012308/25/01 20:50:31  5-MIN KSTC 260250Z AUTO 32003KT 10SM CLR 18/16 A2996 990 87 1700 320/03 RMK AO2 SLP150 T01830161 55005 $
14926KSTC STC20010825205510008/25/01 20:55:31  5-MIN KSTC 260255Z AUTO 00000KT 10SM CLR 19/17 A2996 990 90 1700 000/00 RMK AO2 $
14926KSTC STC20010825210010008/25/01 21:00:31  5-MIN KSTC 260300Z AUTO 00000KT 10SM CLR 19/17 A2996 990 90 1700 000/00 RMK AO2 $
14926KSTC STC20010825210510008/25/01 21:05:31  5-MIN KSTC 260305Z AUTO 00000KT 10SM CLR 18/17 A2996 990 93 1600 000/00 RMK AO2 $
14926KSTC STC20010825211010008/25/01 21:10:31  5-MIN KSTC 260310Z AUTO 00000KT 10SM CLR 18/17 A2996 990 93 1600 000/00 RMK AO2 $
14926KSTC STC20010825211510008/25/01 21:15:31  5-MIN KSTC 260315Z AUTO 00000KT 10SM CLR 18/17 A2996 990 93 1600 000/00 RMK AO2 $
14926KSTC STC20010825212010008/25/01 21:20:31  5-MIN KSTC 260320Z AUTO 00000KT 10SM CLR 18/17 A2996 990 93 1600 000/00 RMK AO2 $
14926KSTC STC20010825212510008/25/01 21:25:31  5-MIN KSTC 260325Z AUTO 00000KT 10SM CLR 18/17 A2996 990 96 1600 000/00 RMK AO2 $
14926KSTC STC20010825213010008/25/01 21:30:31  5-MIN KSTC 260330Z AUTO 00000KT 10SM CLR 18/17 A2996 990 93 1600 000/00 RMK AO2 $
14926KSTC STC20010825213510008/25/01 21:35:31  5-MIN KSTC 260335Z AUTO 00000KT 10SM CLR 18/17 A2996 990 93 1600 000/00 RMK AO2 $
14926KSTC STC20010825214010008/25/01 21:40:31  5-MIN KSTC 260340Z AUTO 00000KT 10SM CLR 17/17 A2996 990 96 1500 000/00 RMK AO2 $
14926KSTC STC20010825214509908/25/01 21:45:31  5-MIN KSTC 260345Z AUTO 00000KT 9SM CLR 16/16 A2996 990 96 1400 000/00 RMK AO2 $
14926KSTC STC20010825215011608/25/01 21:50:31  5-MIN KSTC 260350Z AUTO 00000KT 9SM CLR 17/16 A2996 990 93 1500 000/00 RMK AO2 SLP151 T01720161 $
14926KSTC STC20010825215510008/25/01 21:55:31  5-MIN KSTC 260355Z AUTO 00000KT 9SM CLR 17/17 A2996 990 100 1400 000/00 RMK AO2 $
14926KSTC STC20010825220010008/25/01 22:00:31  5-MIN KSTC 260400Z AUTO 00000KT 10SM CLR 16/16 A2997 980 96 1400 000/00 RMK AO2 $
14926KSTC STC20010825220510008/25/01 22:05:31  5-MIN KSTC 260405Z AUTO 31003KT 10SM CLR 17/16 A2997 980 96 1400 310/03 RMK AO2 $
14926KSTC STC20010825221010008/25/01 22:10:31  5-MIN KSTC 260410Z AUTO 00000KT 10SM CLR 17/16 A2997 980 96 1400 000/00 RMK AO2 $
14926KSTC STC20010825221510108/25/01 22:15:31  5-MIN KSTC 260415Z AUTO 00000KT 10SM CLR 16/16 A2997 980 100 1400 000/00 RMK AO2 $
14926KSTC STC20010825222010108/25/01 22:20:31  5-MIN KSTC 260420Z AUTO 00000KT 10SM CLR 16/16 A2997 980 100 1400 000/00 RMK AO2 $
14926KSTC STC20010825222510008/25/01 22:25:31  5-MIN KSTC 260425Z AUTO 00000KT 10SM CLR 16/16 A2997 980 96 1400 000/00 RMK AO2 $
14926KSTC STC20010825223010008/25/01 22:30:31  5-MIN KSTC 260430Z AUTO 00000KT 10SM CLR 17/16 A2997 980 96 1400 000/00 RMK AO2 $
14926KSTC STC20010825223510008/25/01 22:35:31  5-MIN KSTC 260435Z AUTO 00000KT 10SM CLR 16/15 A2997 980 93 1400 000/00 RMK AO2 $
14926KSTC STC20010825224010008/25/01 22:40:31  5-MIN KSTC 260440Z AUTO 32003KT 10SM CLR 16/15 A2997 980 93 1400 310/03 RMK AO2 $
14926KSTC STC20010825224510008/25/01 22:45:31  5-MIN KSTC 260445Z AUTO 32003KT 10SM CLR 16/15 A2997 980 96 1300 310/03 RMK AO2 $
14926KSTC STC20010825225011708/25/01 22:50:31  5-MIN KSTC 260450Z AUTO 32003KT 10SM CLR 14/14 A2997 980 96 1200 310/03 RMK AO2 SLP154 T01440139 $
14926KSTC STC20010825225510108/25/01 22:55:31  5-MIN KSTC 260455Z AUTO 31004KT 10SM CLR 15/15 A2997 980 100 1200 300/04 RMK AO2 $
14926KSTC STC20010825230010008/25/01 23:00:31  5-MIN KSTC 260500Z AUTO 31004KT 10SM CLR 16/15 A2997 980 96 1300 310/04 RMK AO2 $
14926KSTC STC20010825230510008/25/01 23:05:31  5-MIN KSTC 260505Z AUTO 33003KT 10SM CLR 16/14 A2997 980 93 1300 330/03 RMK AO2 $
14926KSTC STC20010825231010008/25/01 23:10:31  5-MIN KSTC 260510Z AUTO 34003KT 10SM CLR 16/15 A2998 980 93 1400 330/03 RMK AO2 $
14926KSTC STC20010825231510008/25/01 23:15:31  5-MIN KSTC 260515Z AUTO 34003KT 10SM CLR 16/14 A2998 970 93 1300 340/03 RMK AO2 $
14926KSTC STC20010825232010008/25/01 23:20:31  5-MIN KSTC 260520Z AUTO 34003KT 10SM CLR 16/15 A2998 970 96 1300 330/03 RMK AO2 $
14926KSTC STC20010825232510008/25/01 23:25:31  5-MIN KSTC 260525Z AUTO 34004KT 10SM CLR 16/15 A2998 970 96 1300 340/04 RMK AO2 $
14926KSTC STC20010825233010008/25/01 23:30:31  5-MIN KSTC 260530Z AUTO 35003KT 10SM CLR 17/14 A2998 970 86 1400 350/03 RMK AO2 $
14926KSTC STC20010825233510008/25/01 23:35:31  5-MIN KSTC 260535Z AUTO 35003KT 10SM CLR 16/14 A2998 970 93 1300 350/03 RMK AO2 $
14926KSTC STC20010825234010008/25/01 23:40:31  5-MIN KSTC 260540Z AUTO 00000KT 10SM CLR 14/14 A2998 970 96 1200 000/00 RMK AO2 $
14926KSTC STC20010825234510008/25/01 23:45:31  5-MIN KSTC 260545Z AUTO 35003KT 10SM CLR 14/14 A2998 970 96 1200 340/03 RMK AO2 $
14926KSTC STC20010825235014508/25/01 23:50:31  5-MIN KSTC 260550Z AUTO 34003KT 10SM CLR 15/14 A2998 970 96 1200 330/03 RMK AO2 SLP156 T01500144 10283 20144 403060144 53017 $
14926KSTC STC20010825235510008/25/01 23:55:31  5-MIN KSTC 260555Z AUTO 00000KT 10SM CLR 16/15 A2998 970 96 1300 000/00 RMK AO2 $
14926KSTC STC20010826000010008/26/01 00:00:31  5-MIN KSTC 260600Z AUTO 00000KT 10SM CLR 16/14 A2998 970 93 1300 000/00 RMK AO2 $
14926KSTC STC20010826000510008/26/01 00:05:31  5-MIN KSTC 260605Z AUTO 32003KT 10SM CLR 16/14 A2998 970 93 1300 320/03 RMK AO2 $
14926KSTC STC20010826001010008/26/01 00:10:31  5-MIN KSTC 260610Z AUTO 00000KT 10SM CLR 15/14 A2998 970 96 1200 000/00 RMK AO2 $
14926KSTC STC20010826001510008/26/01 00:15:31  5-MIN KSTC 260615Z AUTO 00000KT 10SM CLR 14/14 A2998 970 96 1200 000/00 RMK AO2 $
14926KSTC STC20010826002010008/26/01 00:20:31  5-MIN KSTC 260620Z AUTO 00000KT 10SM CLR 15/14 A2998 970 93 1200 000/00 RMK AO2 $
14926KSTC STC20010826002510008/26/01 00:25:31  5-MIN KSTC 260625Z AUTO 33003KT 10SM CLR 15/14 A2998 970 93 1200 320/03 RMK AO2 $
14926KSTC STC20010826003010008/26/01 00:30:31  5-MIN KSTC 260630Z AUTO 00000KT 10SM CLR 14/14 A2998 970 96 1200 000/00 RMK AO2 $
14926KSTC STC20010826003510008/26/01 00:35:31  5-MIN KSTC 260635Z AUTO 00000KT 10SM CLR 14/13 A2998 970 96 1100 000/00 RMK AO2 $
14926KSTC STC20010826004010008/26/01 00:40:31  5-MIN KSTC 260640Z AUTO 31003KT 10SM CLR 14/13 A2998 970 96 1100 310/03 RMK AO2 $
14926KSTC STC20010826004510008/26/01 00:45:31  5-MIN KSTC 260645Z AUTO 32003KT 10SM CLR 14/13 A2998 970 93 1200 320/03 RMK AO2 $
14926KSTC STC20010826005011708/26/01 00:50:31  5-MIN KSTC 260650Z AUTO 00000KT 10SM CLR 14/13 A2998 970 93 1100 000/00 RMK AO2 SLP156 T01390128 $
14926KSTC STC20010826005510008/26/01 00:55:31  5-MIN KSTC 260655Z AUTO 00000KT 10SM CLR 13/13 A2998 970 96 1000 000/00 RMK AO2 $
14926KSTC STC20010826010010008/26/01 01:00:31  5-MIN KSTC 260700Z AUTO 00000KT 10SM CLR 14/13 A2998 970 96 1100 000/00 RMK AO2 $
14926KSTC STC20010826010510008/26/01 01:05:31  5-MIN KSTC 260705Z AUTO 00000KT 10SM CLR 14/13 A2998 970 96 1100 000/00 RMK AO2 $
14926KSTC STC20010826011010008/26/01 01:10:31  5-MIN KSTC 260710Z AUTO 00000KT 10SM CLR 14/13 A2998 970 96 1100 000/00 RMK AO2 $
14926KSTC STC20010826011510008/26/01 01:15:31  5-MIN KSTC 260715Z AUTO 00000KT 10SM CLR 14/13 A2998 970 96 1100 000/00 RMK AO2 $
14926KSTC STC20010826012010008/26/01 01:20:31  5-MIN KSTC 260720Z AUTO 00000KT 10SM CLR 14/13 A2998 970 96 1100 000/00 RMK AO2 $
14926KSTC STC20010826012510008/26/01 01:25:31  5-MIN KSTC 260725Z AUTO 00000KT 10SM CLR 14/13 A2998 970 96 1100 000/00 RMK AO2 $
14926KSTC STC20010826013010008/26/01 01:30:31  5-MIN KSTC 260730Z AUTO 00000KT 10SM CLR 14/13 A2998 970 96 1100 000/00 RMK AO2 $
14926KSTC STC20010826013510108/26/01 01:35:31  5-MIN KSTC 260735Z AUTO 33003KT 10SM CLR 13/13 A2998 970 100 1000 330/03 RMK AO2 $
14926KSTC STC20010826014010008/26/01 01:40:31  5-MIN KSTC 260740Z AUTO 32004KT 10SM CLR 14/13 A2998 970 96 1100 320/04 RMK AO2 $
14926KSTC STC20010826014510008/26/01 01:45:31  5-MIN KSTC 260745Z AUTO 34003KT 10SM CLR 14/14 A2998 970 96 1200 330/03 RMK AO2 $
14926KSTC STC20010826015011708/26/01 01:50:31  5-MIN KSTC 260750Z AUTO 36003KT 10SM CLR 14/13 A2998 970 96 1100 350/03 RMK AO2 SLP157 T01390133 $
14926KSTC STC20010826015510008/26/01 01:55:31  5-MIN KSTC 260755Z AUTO 34003KT 10SM CLR 13/13 A2998 970 96 1000 340/03 RMK AO2 $
14926KSTC STC20010826020010008/26/01 02:00:31  5-MIN KSTC 260800Z AUTO 34003KT 10SM CLR 14/13 A2998 970 93 1100 330/03 RMK AO2 $
14926KSTC STC20010826020510008/26/01 02:05:31  5-MIN KSTC 260805Z AUTO 33003KT 10SM CLR 14/13 A2998 970 93 1100 330/03 RMK AO2 $
14926KSTC STC20010826021010008/26/01 02:10:31  5-MIN KSTC 260810Z AUTO 33003KT 10SM CLR 14/13 A2998 970 93 1100 330/03 RMK AO2 $
14926KSTC STC20010826021510008/26/01 02:15:31  5-MIN KSTC 260815Z AUTO 33003KT 10SM CLR 14/13 A2998 970 90 1200 320/03 RMK AO2 $
14926KSTC STC20010826022010008/26/01 02:20:31  5-MIN KSTC 260820Z AUTO 32003KT 10SM CLR 14/13 A2998 970 93 1200 320/03 RMK AO2 $
14926KSTC STC20010826022510008/26/01 02:25:31  5-MIN KSTC 260825Z AUTO 31003KT 10SM CLR 14/13 A2998 970 96 1100 310/03 RMK AO2 $
14926KSTC STC20010826023010008/26/01 02:30:31  5-MIN KSTC 260830Z AUTO 32004KT 10SM CLR 13/13 A2998 970 96 1000 320/04 RMK AO2 $
14926KSTC STC20010826023510008/26/01 02:35:31  5-MIN KSTC 260835Z AUTO 33003KT 10SM CLR 13/13 A2999 970 96 1000 320/03 RMK AO2 $
14926KSTC STC20010826024010008/26/01 02:40:31  5-MIN KSTC 260840Z AUTO 32003KT 10SM CLR 13/13 A2999 970 96 1000 320/03 RMK AO2 $
14926KSTC STC20010826024510008/26/01 02:45:31  5-MIN KSTC 260845Z AUTO 00000KT 10SM CLR 13/12 A2999 960 96 1000 000/00 RMK AO2 $
14926KSTC STC20010826025012308/26/01 02:50:31  5-MIN KSTC 260850Z AUTO 00000KT 10SM CLR 13/12 A2999 960 96 1000 000/00 RMK AO2 SLP159 T01280122 53007 $
14926KSTC STC20010826025510008/26/01 02:55:31  5-MIN KSTC 260855Z AUTO 34003KT 10SM CLR 13/12 A2999 960 96 1000 340/03 RMK AO2 $
14926KSTC STC20010826030010008/26/01 03:00:31  5-MIN KSTC 260900Z AUTO 33003KT 10SM CLR 13/13 A2999 960 96 1000 330/03 RMK AO2 $
14926KSTC STC20010826030510008/26/01 03:05:31  5-MIN KSTC 260905Z AUTO 33003KT 10SM CLR 13/13 A2999 960 96 1000 330/03 RMK AO2 $
14926KSTC STC20010826031010008/26/01 03:10:31  5-MIN KSTC 260910Z AUTO 00000KT 10SM CLR 13/13 A2999 960 96 1000 000/00 RMK AO2 $
14926KSTC STC20010826031510008/26/01 03:15:31  5-MIN KSTC 260915Z AUTO 00000KT 10SM CLR 13/13 A2999 970 96 1000 000/00 RMK AO2 $
14926KSTC STC20010826111511108/26/01 11:15:31  5-MIN KSTC 261715Z AUTO 21004KT 10SM -RA OVC017 18/17 A3005 910 93 1500 210/04 RMK AO2 P0001
14926KSTC STC20010826112011808/26/01 11:20:31  5-MIN KSTC 261720Z AUTO 18004KT 10SM -RA BKN017 19/17 A3002 930 90 1600 180/04 RMK AO2 PRESFR P0001
14926KSTC STC20010826112511808/26/01 11:25:31  5-MIN KSTC 261725Z AUTO 15005KT 10SM -RA BKN017 19/18 A3001 940 93 1700 150/05 RMK AO2 PRESFR P0001
14926KSTC STC20010826113011108/26/01 11:30:31  5-MIN KSTC 261730Z AUTO 16005KT 10SM -RA SCT017 18/18 A3001 940 96 1600 150/05 RMK AO2 P0001
14926KSTC STC20010826113511108/26/01 11:35:31  5-MIN KSTC 261735Z AUTO 15004KT 10SM -RA SCT017 19/18 A3002 940 93 1600 150/04 RMK AO2 P0001
14926KSTC STC20010826114011308/26/01 11:40:31  5-MIN KSTC 261740Z AUTO 18003KT 10SM FEW017 19/18 A3002 930 93 1600 170/03 RMK AO2 RAE38 P0001
14926KSTC STC20010826114511308/26/01 11:45:31  5-MIN KSTC 261745Z AUTO 21003KT 10SM FEW017 19/17 A3003 930 90 1600 210/03 RMK AO2 RAE38 P0001
14926KSTC STC20010826115015108/26/01 11:50:31  5-MIN KSTC 261750Z AUTO 22005KT 10SM CLR 19/17 A3003 930 90 1600 210/05 RMK AO2 RAE38 SLP176 P0001 60010 T01890172 10222 20111 53010
14926KSTC STC20010826115509808/26/01 11:55:31  5-MIN KSTC 261755Z AUTO 22004KT 10SM CLR 19/17 A3003 930 90 1600 210/04 RMK AO2
14926KSTC STC20010826120010108/26/01 12:00:31  5-MIN KSTC 261800Z AUTO 21005KT 10SM FEW120 19/18 A3002 930 93 1600 200/05 RMK AO2
14926KSTC STC20010826120510108/26/01 12:05:31  5-MIN KSTC 261805Z AUTO 21005KT 10SM FEW120 19/18 A3002 940 93 1600 200/05 RMK AO2
14926KSTC STC20010826121010108/26/01 12:10:31  5-MIN KSTC 261810Z AUTO 18004KT 10SM FEW120 19/18 A3001 940 90 1700 180/04 RMK AO2
14926KSTC STC20010826121510108/26/01 12:15:31  5-MIN KSTC 261815Z AUTO VRB03KT 10SM FEW120 19/18 A3001 940 90 1700 VRB/03 RMK AO2
14926KSTC STC20010826122010108/26/01 12:20:31  5-MIN KSTC 261820Z AUTO 17003KT 10SM SCT110 19/18 A3001 940 90 1700 160/03 RMK AO2
14926KSTC STC20010826122510108/26/01 12:25:31  5-MIN KSTC 261825Z AUTO 18004KT 10SM BKN110 19/18 A3001 940 90 1700 170/04 RMK AO2
14926KSTC STC20010826123010108/26/01 12:30:31  5-MIN KSTC 261830Z AUTO 18004KT 10SM BKN110 19/18 A3001 950 90 1700 170/04 RMK AO2
14926KSTC STC20010826123510108/26/01 12:35:31  5-MIN KSTC 261835Z AUTO 17005KT 10SM BKN110 19/18 A3000 950 90 1700 170/05 RMK AO2
14926KSTC STC20010826124010108/26/01 12:40:31  5-MIN KSTC 261840Z AUTO 17004KT 10SM BKN110 20/18 A3000 950 90 1800 170/04 RMK AO2
14926KSTC STC20010826124510108/26/01 12:45:31  5-MIN KSTC 261845Z AUTO 18005KT 10SM BKN110 20/18 A3000 950 90 1800 170/05 RMK AO2
14926KSTC STC20010826125011808/26/01 12:50:31  5-MIN KSTC 261850Z AUTO 19007KT 10SM SCT110 21/18 A3000 960 87 1900 190/07 RMK AO2 SLP165 T02060183
14926KSTC STC20010826125510108/26/01 12:55:31  5-MIN KSTC 261855Z AUTO 19007KT 10SM SCT110 21/19 A2999 960 87 1900 190/07 RMK AO2
14926KSTC STC20010826130010108/26/01 13:00:31  5-MIN KSTC 261900Z AUTO 19008KT 10SM SCT110 22/19 A2999 960 84 2000 180/08 RMK AO2
14926KSTC STC20010826130510108/26/01 13:05:31  5-MIN KSTC 261905Z AUTO 19008KT 10SM FEW110 22/18 A2999 970 81 2000 190/08 RMK AO2
14926KSTC STC20010826131010108/26/01 13:10:31  5-MIN KSTC 261910Z AUTO 19008KT 10SM FEW110 22/19 A2998 970 81 2100 190/08 RMK AO2
14926KSTC STC20010826131510108/26/01 13:15:31  5-MIN KSTC 261915Z AUTO 20008KT 10SM FEW110 22/18 A2998 970 78 2100 200/08 RMK AO2
14926KSTC STC20010826132009808/26/01 13:20:31  5-MIN KSTC 261920Z AUTO 18008KT 10SM CLR 22/18 A2998 970 78 2100 170/08 RMK AO2
14926KSTC STC20010826132509808/26/01 13:25:31  5-MIN KSTC 261925Z AUTO 18007KT 10SM CLR 22/18 A2997 980 78 2100 180/07 RMK AO2
14926KSTC STC20010826133009808/26/01 13:30:31  5-MIN KSTC 261930Z AUTO 18007KT 10SM CLR 23/19 A2997 980 76 2200 180/07 RMK AO2
14926KSTC STC20010826133509808/26/01 13:35:31  5-MIN KSTC 261935Z AUTO 19008KT 10SM CLR 23/19 A2997 980 76 2200 180/08 RMK AO2
14926KSTC STC20010826134009808/26/01 13:40:31  5-MIN KSTC 261940Z AUTO 20010KT 10SM CLR 23/18 A2997 980 73 2200 190/10 RMK AO2
14926KSTC STC20010826134509808/26/01 13:45:31  5-MIN KSTC 261945Z AUTO 20007KT 10SM CLR 23/18 A2997 980 70 2200 200/07 RMK AO2
14926KSTC STC20010826135011508/26/01 13:50:31  5-MIN KSTC 261950Z AUTO 20006KT 10SM CLR 23/18 A2996 990 73 2200 200/06 RMK AO2 SLP153 T02330183
14926KSTC STC20010826135509808/26/01 13:55:31  5-MIN KSTC 261955Z AUTO 18008KT 10SM CLR 24/18 A2996 990 68 2300 170/08 RMK AO2
14926KSTC STC20010826140009808/26/01 14:00:31  5-MIN KSTC 262000Z AUTO 17007KT 10SM CLR 24/18 A2996 990 68 2300 170/07 RMK AO2
14926KSTC STC20010826140509808/26/01 14:05:31  5-MIN KSTC 262005Z AUTO 19008KT 10SM CLR 24/18 A2996 990 68 2300 190/08 RMK AO2
14926KSTC STC20010826141009808/26/01 14:10:31  5-MIN KSTC 262010Z AUTO VRB06KT 10SM CLR 24/18 A2996 990 68 2400 VRB/06 RMK AO2
14926KSTC STC20010826141509908/26/01 14:15:31  5-MIN KSTC 262015Z AUTO 19007KT 10SM CLR 24/18 A2995 1000 68 2400 180/07 RMK AO2
14926KSTC STC20010826142009908/26/01 14:20:31  5-MIN KSTC 262020Z AUTO 18007KT 10SM CLR 24/18 A2995 1000 68 2400 170/07 RMK AO2
14926KSTC STC20010826142509908/26/01 14:25:31  5-MIN KSTC 262025Z AUTO 16007KT 10SM CLR 24/19 A2995 1000 71 2400 160/07 RMK AO2
14926KSTC STC20010826143009908/26/01 14:30:31  5-MIN KSTC 262030Z AUTO 16008KT 10SM CLR 24/19 A2994 1000 71 2400 160/08 RMK AO2
14926KSTC STC20010826143509908/26/01 14:35:31  5-MIN KSTC 262035Z AUTO 16007KT 10SM CLR 25/19 A2994 1010 68 2400 160/07 RMK AO2
14926KSTC STC20010826144009908/26/01 14:40:31  5-MIN KSTC 262040Z AUTO 17008KT 10SM CLR 26/19 A2994 1010 68 2500 170/08 RMK AO2
14926KSTC STC20010826144509908/26/01 14:45:31  5-MIN KSTC 262045Z AUTO 17011KT 10SM CLR 26/18 A2994 1010 64 2500 170/11 RMK AO2
14926KSTC STC20010826145012208/26/01 14:50:31  5-MIN KSTC 262050Z AUTO 20009KT 10SM CLR 26/17 A2993 1020 57 2600 190/09 RMK AO2 SLP140 T02610172 58004
14926KSTC STC20010826145509908/26/01 14:55:31  5-MIN KSTC 262055Z AUTO 19010KT 10SM CLR 27/18 A2992 1020 57 2600 190/10 RMK AO2
14926KSTC STC20010826150009908/26/01 15:00:31  5-MIN KSTC 262100Z AUTO 17012KT 10SM CLR 27/17 A2992 1030 55 2600 170/12 RMK AO2
14926KSTC STC20010826150509908/26/01 15:05:31  5-MIN KSTC 262105Z AUTO 18014KT 10SM CLR 27/17 A2992 1030 55 2600 180/14 RMK AO2
14926KSTC STC20010826151009908/26/01 15:10:31  5-MIN KSTC 262110Z AUTO 18014KT 10SM CLR 27/17 A2991 1040 53 2700 180/14 RMK AO2
14926KSTC STC20010826151509908/26/01 15:15:31  5-MIN KSTC 262115Z AUTO 17013KT 10SM CLR 27/17 A2991 1040 53 2700 170/13 RMK AO2
14926KSTC STC20010826152009908/26/01 15:20:31  5-MIN KSTC 262120Z AUTO 17013KT 10SM CLR 27/17 A2990 1040 53 2700 170/13 RMK AO2
14926KSTC STC20010826152509908/26/01 15:25:31  5-MIN KSTC 262125Z AUTO 18011KT 10SM CLR 27/17 A2990 1040 52 2700 170/11 RMK AO2
14926KSTC STC20010826153009908/26/01 15:30:31  5-MIN KSTC 262130Z AUTO 17011KT 10SM CLR 27/17 A2990 1050 52 2700 170/11 RMK AO2
14926KSTC STC20010826153509908/26/01 15:35:31  5-MIN KSTC 262135Z AUTO 16012KT 10SM CLR 27/17 A2990 1050 52 2700 160/12 RMK AO2
14926KSTC STC20010826154010508/26/01 15:40:31  5-MIN KSTC 262140Z AUTO 17011G18KT 10SM CLR 27/17 A2990 1050 53 2700 160/11G18 RMK AO2
14926KSTC STC20010826154509908/26/01 15:45:31  5-MIN KSTC 262145Z AUTO 16014KT 10SM CLR 27/17 A2989 1050 53 2700 150/14 RMK AO2
14926KSTC STC20010826155011608/26/01 15:50:31  5-MIN KSTC 262150Z AUTO 17010KT 10SM CLR 27/17 A2989 1050 55 2700 170/10 RMK AO2 SLP128 T02670172
14926KSTC STC20010826155509908/26/01 15:55:31  5-MIN KSTC 262155Z AUTO 16011KT 10SM CLR 27/17 A2989 1050 55 2700 160/11 RMK AO2
14926KSTC STC20010826160009908/26/01 16:00:31  5-MIN KSTC 262200Z AUTO 17012KT 10SM CLR 27/18 A2989 1050 57 2700 160/12 RMK AO2
14926KSTC STC20010826160509908/26/01 16:05:31  5-MIN KSTC 262205Z AUTO 17011KT 10SM CLR 27/18 A2989 1050 57 2700 160/11 RMK AO2
14926KSTC STC20010826161009908/26/01 16:10:31  5-MIN KSTC 262210Z AUTO 17013KT 10SM CLR 27/17 A2989 1050 55 2700 160/13 RMK AO2
14926KSTC STC20010826161509908/26/01 16:15:31  5-MIN KSTC 262215Z AUTO 17013KT 10SM CLR 27/17 A2989 1050 55 2700 160/13 RMK AO2
14926KSTC STC20010826162010208/26/01 16:20:31  5-MIN KSTC 262220Z AUTO 17012KT 10SM FEW075 26/17 A2989 1050 57 2600 160/12 RMK AO2
14926KSTC STC20010826162510808/26/01 16:25:31  5-MIN KSTC 262225Z AUTO 18011G17KT 10SM SCT075 26/18 A2989 1060 59 2600 180/11G17 RMK AO2
14926KSTC STC20010826163010808/26/01 16:30:31  5-MIN KSTC 262230Z AUTO 18012G18KT 10SM BKN075 27/18 A2988 1060 57 2700 170/12G18 RMK AO2
14926KSTC STC20010826163510208/26/01 16:35:31  5-MIN KSTC 262235Z AUTO 17011KT 10SM SCT075 27/18 A2988 1060 60 2700 170/11 RMK AO2
14926KSTC STC20010826164010208/26/01 16:40:31  5-MIN KSTC 262240Z AUTO 18010KT 10SM BKN075 27/18 A2988 1060 60 2700 170/10 RMK AO2
14926KSTC STC20010826164510208/26/01 16:45:31  5-MIN KSTC 262245Z AUTO 17009KT 10SM BKN075 27/18 A2989 1060 60 2700 170/09 RMK AO2
14926KSTC STC20010826165011908/26/01 16:50:31  5-MIN KSTC 262250Z AUTO 17012KT 10SM SCT075 26/18 A2989 1060 62 2600 170/12 RMK AO2 SLP125 T02610183
14926KSTC STC20010826165510208/26/01 16:55:31  5-MIN KSTC 262255Z AUTO 18009KT 10SM BKN070 26/18 A2988 1060 62 2600 170/09 RMK AO2
14926KSTC STC20010826170010208/26/01 17:00:31  5-MIN KSTC 262300Z AUTO 17009KT 10SM BKN075 26/19 A2988 1060 64 2600 170/09 RMK AO2
14926KSTC STC20010826170510208/26/01 17:05:31  5-MIN KSTC 262305Z AUTO 17009KT 10SM BKN075 26/19 A2988 1060 64 2600 170/09 RMK AO2
14926KSTC STC20010826171010208/26/01 17:10:31  5-MIN KSTC 262310Z AUTO 17009KT 10SM BKN075 26/19 A2988 1060 64 2600 160/09 RMK AO2
14926KSTC STC20010826171510208/26/01 17:15:31  5-MIN KSTC 262315Z AUTO 18009KT 10SM OVC075 26/18 A2988 1060 62 2600 180/09 RMK AO2
14926KSTC STC20010826172010208/26/01 17:20:31  5-MIN KSTC 262320Z AUTO 18010KT 10SM OVC075 26/18 A2988 1070 59 2600 180/10 RMK AO2
14926KSTC STC20010826172510208/26/01 17:25:31  5-MIN KSTC 262325Z AUTO 18010KT 10SM OVC080 26/17 A2988 1070 57 2600 180/10 RMK AO2
14926KSTC STC20010826173010208/26/01 17:30:31  5-MIN KSTC 262330Z AUTO 18009KT 10SM OVC080 26/17 A2988 1070 57 2600 180/09 RMK AO2
14926KSTC STC20010826173510208/26/01 17:35:31  5-MIN KSTC 262335Z AUTO 18011KT 10SM OVC080 26/17 A2988 1070 57 2600 180/11 RMK AO2
14926KSTC STC20010826174010208/26/01 17:40:31  5-MIN KSTC 262340Z AUTO 18007KT 10SM OVC080 26/17 A2987 1070 57 2600 180/07 RMK AO2
14926KSTC STC20010826174510208/26/01 17:45:31  5-MIN KSTC 262345Z AUTO 18009KT 10SM OVC080 26/17 A2987 1070 57 2600 180/09 RMK AO2
14926KSTC STC20010826175014408/26/01 17:50:31  5-MIN KSTC 262350Z AUTO 18008KT 10SM FEW070 BKN085 26/18 A2987 1070 59 2600 180/08 RMK AO2 SLP122 T02610178 10272 20189 58033
14926KSTC STC20010826175510908/26/01 17:55:31  5-MIN KSTC 262355Z AUTO 17009KT 10SM FEW070 BKN085 26/18 A2987 1070 59 2600 170/09 RMK AO2
14926KSTC STC20010826180010908/26/01 18:00:31  5-MIN KSTC 270000Z AUTO 17010KT 10SM FEW070 BKN085 26/18 A2987 1080 61 2600 170/10 RMK AO2
14926KSTC STC20010826180510908/26/01 18:05:31  5-MIN KSTC 270005Z AUTO 17008KT 10SM FEW070 SCT085 25/18 A2987 1070 64 2500 170/08 RMK AO2
14926KSTC STC20010826181010908/26/01 18:10:31  5-MIN KSTC 270010Z AUTO 17008KT 10SM SCT070 SCT090 25/18 A2986 1080 66 2500 170/08 RMK AO2
14926KSTC STC20010826181510908/26/01 18:15:31  5-MIN KSTC 270015Z AUTO 16007KT 10SM SCT065 BKN085 25/18 A2986 1080 66 2500 160/07 RMK AO2
14926KSTC STC20010826182010208/26/01 18:20:31  5-MIN KSTC 270020Z AUTO 16007KT 10SM SCT065 25/18 A2986 1080 66 2500 160/07 RMK AO2
14926KSTC STC20010826182510208/26/01 18:25:31  5-MIN KSTC 270025Z AUTO 16007KT 10SM SCT065 24/18 A2986 1080 68 2500 160/07 RMK AO2
14926KSTC STC20010826183010208/26/01 18:30:31  5-MIN KSTC 270030Z AUTO 16007KT 10SM SCT065 24/18 A2986 1080 68 2500 160/07 RMK AO2
14926KSTC STC20010826183510208/26/01 18:35:31  5-MIN KSTC 270035Z AUTO 16006KT 10SM SCT065 24/19 A2986 1080 71 2500 160/06 RMK AO2
14926KSTC STC20010826184010208/26/01 18:40:31  5-MIN KSTC 270040Z AUTO 16007KT 10SM FEW060 24/19 A2986 1090 71 2500 160/07 RMK AO2
14926KSTC STC20010826184510208/26/01 18:45:31  5-MIN KSTC 270045Z AUTO 16007KT 10SM FEW065 24/19 A2985 1090 73 2400 160/07 RMK AO2
14926KSTC STC20010826185011608/26/01 18:50:31  5-MIN KSTC 270050Z AUTO 16007KT 10SM CLR 24/19 A2985 1090 73 2400 150/07 RMK AO2 SLP113 T02390189
14926KSTC STC20010826185509908/26/01 18:55:31  5-MIN KSTC 270055Z AUTO 16006KT 10SM CLR 23/19 A2985 1090 76 2300 150/06 RMK AO2
14926KSTC STC20010826190009908/26/01 19:00:31  5-MIN KSTC 270100Z AUTO 16006KT 10SM CLR 23/19 A2985 1090 81 2300 150/06 RMK AO2
14926KSTC STC20010826190510808/26/01 19:05:31  5-MIN KSTC 270105Z AUTO 15007KT 10SM TS CLR 23/19 A2984 1100 81 2300 150/07 RMK AO2 TSB01
14926KSTC STC20010826191010808/26/01 19:10:31  5-MIN KSTC 270110Z AUTO 15006KT 10SM TS CLR 23/19 A2984 1100 81 2300 150/06 RMK AO2 TSB01
14926KSTC STC20010826191511108/26/01 19:15:31  5-MIN KSTC 270115Z AUTO 15007KT 10SM TS FEW065 23/19 A2984 1100 81 2300 150/07 RMK AO2 TSB01
14926KSTC STC20010826192011108/26/01 19:20:31  5-MIN KSTC 270120Z AUTO 15005KT 10SM TS FEW070 23/19 A2984 1100 81 2300 150/05 RMK AO2 TSB01
14926KSTC STC20010826192511108/26/01 19:25:31  5-MIN KSTC 270125Z AUTO 15006KT 10SM TS SCT065 22/19 A2984 1100 84 2200 150/06 RMK AO2 TSB01
14926KSTC STC20010826193012308/26/01 19:30:31  5-MIN KSTC 270130Z AUTO 16006KT 9SM TS FEW035 SCT065 22/19 A2984 1100 84 2200 150/06 RMK AO2 TSB01 P0003
14926KSTC STC20010826193513008/26/01 19:35:31  5-MIN KSTC 270135Z AUTO 10003KT 7SM TSRA SCT028 BKN070 22/20 A2984 1100 87 2200 100/03 RMK AO2 TSB01RAB32 P0005
14926KSTC STC20010826194013108/26/01 19:40:31  5-MIN KSTC 270140Z AUTO 08006KT 7SM -TSRA SCT029 BKN065 22/20 A2983 1110 90 2200 080/06 RMK AO2 TSB01RAB32 P0006
14926KSTC STC20010826194513108/26/01 19:45:31  5-MIN KSTC 270145Z AUTO 04007KT 9SM -TSRA SCT031 BKN060 22/21 A2984 1100 93 2200 040/07 RMK AO2 TSB01RAB32 P0007
14926KSTC STC20010826195015608/26/01 19:50:31  5-MIN KSTC 270150Z AUTO 04012KT 10SM -TSRA FEW031 BKN060 OVC070 22/21 A2984 1100 93 2200 040/12 RMK AO2 TSB01RAB32 SLP110 P0009 T02170206
14926KSTC STC20010826195512008/26/01 19:55:31  5-MIN KSTC 270155Z AUTO 08009KT 8SM -TSRA FEW026 OVC060 22/20 A2985 1090 90 2200 080/09 RMK AO2 P0000
14926KSTC STC20010826200012008/26/01 20:00:31  5-MIN KSTC 270200Z AUTO 11010KT 9SM -TSRA FEW026 OVC060 22/21 A2985 1090 90 2200 110/10 RMK AO2 P0000
14926KSTC STC20010826200512408/26/01 20:05:31  5-MIN KSTC 270205Z AUTO 13007KT 10SM TS FEW032 OVC060 22/21 A2985 1090 90 2200 120/07 RMK AO2 RAE05 P0000
14926KSTC STC20010826201012408/26/01 20:10:31  5-MIN KSTC 270210Z AUTO 13006KT 10SM TS BKN060 OVC070 22/21 A2985 1090 90 2200 130/06 RMK AO2 RAE05 P0000
14926KSTC STC20010826201513108/26/01 20:15:31  5-MIN KSTC 270215Z AUTO 13003KT 10SM TS BKN055 BKN070 BKN085 22/21 A2985 1090 90 2200 130/03 RMK AO2 RAE05 P0000
14926KSTC STC20010826202013108/26/01 20:20:31  5-MIN KSTC 270220Z AUTO 14004KT 10SM TS BKN060 BKN075 OVC110 22/21 A2985 1090 90 2200 140/04 RMK AO2 RAE05 P0000
14926KSTC STC20010826202513108/26/01 20:25:31  5-MIN KSTC 270225Z AUTO 15005KT 10SM TS BKN060 BKN075 OVC090 22/21 A2985 1090 90 2200 150/05 RMK AO2 RAE05 P0000
14926KSTC STC20010826203013108/26/01 20:30:31  5-MIN KSTC 270230Z AUTO 12004KT 10SM TS BKN060 BKN075 OVC085 22/21 A2985 1090 93 2200 110/04 RMK AO2 RAE05 P0000
14926KSTC STC20010826203513108/26/01 20:35:31  5-MIN KSTC 270235Z AUTO 11005KT 10SM TS FEW050 SCT060 BKN070 21/21 A2985 1090 97 2100 110/05 RMK AO2 RAE05 P0000
14926KSTC STC20010826204013108/26/01 20:40:31  5-MIN KSTC 270240Z AUTO 13003KT 10SM TS FEW049 BKN060 OVC090 21/21 A2986 1080 97 2100 130/03 RMK AO2 RAE05 P0000
14926KSTC STC20010826204513108/26/01 20:45:31  5-MIN KSTC 270245Z AUTO 14005KT 10SM TS BKN055 BKN070 OVC090 21/21 A2986 1080 97 2100 130/05 RMK AO2 RAE05 P0000
14926KSTC STC20010826205016008/26/01 20:50:31  5-MIN KSTC 270250Z AUTO 15004KT 10SM TS SCT049 BKN060 OVC090 21/21 A2986 1080 97 2100 140/04 RMK AO2 RAE05 SLP114 P0000 60010 T02110206 56018
14926KSTC STC20010826205511908/26/01 20:55:31  5-MIN KSTC 270255Z AUTO 16003KT 10SM TS SCT049 BKN055 OVC080 21/21 A2986 1090 97 2100 150/03 RMK AO2
14926KSTC STC20010826210011508/26/01 21:00:31  5-MIN KSTC 270300Z AUTO 17004KT 10SM BKN055 OVC080 21/21 A2985 1090 97 2100 170/04 RMK AO2 TSE00
14926KSTC STC20010826210511508/26/01 21:05:31  5-MIN KSTC 270305Z AUTO 19004KT 10SM BKN049 OVC055 21/21 A2985 1090 97 2100 190/04 RMK AO2 TSE00
14926KSTC STC20010826211012208/26/01 21:10:31  5-MIN KSTC 270310Z AUTO 18004KT 10SM BKN049 BKN055 OVC075 22/21 A2985 1090 93 2200 180/04 RMK AO2 TSE00
14926KSTC STC20010826211512208/26/01 21:15:31  5-MIN KSTC 270315Z AUTO 18003KT 10SM BKN047 BKN055 OVC075 22/21 A2985 1090 93 2200 170/03 RMK AO2 TSE00
14926KSTC STC20010826212011508/26/01 21:20:31  5-MIN KSTC 270320Z AUTO 00000KT 10SM BKN047 OVC055 22/21 A2985 1090 90 2200 000/00 RMK AO2 TSE00
14926KSTC STC20010826212511508/26/01 21:25:31  5-MIN KSTC 270325Z AUTO 22003KT 10SM SCT045 BKN050 21/21 A2984 1100 97 2100 220/03 RMK AO2 TSE00
14926KSTC STC20010826213011508/26/01 21:30:31  5-MIN KSTC 270330Z AUTO 20006KT 10SM SCT045 BKN050 22/21 A2984 1100 93 2200 190/06 RMK AO2 TSE00
14926KSTC STC20010826213510808/26/01 21:35:31  5-MIN KSTC 270335Z AUTO 20007KT 10SM SCT045 21/20 A2984 1100 93 2100 190/07 RMK AO2 TSE00
14926KSTC STC20010826214010808/26/01 21:40:31  5-MIN KSTC 270340Z AUTO 20007KT 10SM FEW045 21/20 A2984 1100 93 2100 200/07 RMK AO2 TSE00
14926KSTC STC20010826214510808/26/01 21:45:31  5-MIN KSTC 270345Z AUTO 20006KT 10SM FEW043 21/20 A2984 1100 93 2100 200/06 RMK AO2 TSE00
14926KSTC STC20010826215012208/26/01 21:50:31  5-MIN KSTC 270350Z AUTO 21006KT 10SM CLR 21/20 A2984 1100 93 2100 210/06 RMK AO2 TSE00 SLP108 T02110200
14926KSTC STC20010826215509908/26/01 21:55:31  5-MIN KSTC 270355Z AUTO 22005KT 10SM CLR 22/20 A2984 1100 90 2200 220/05 RMK AO2
14926KSTC STC20010826220009908/26/01 22:00:31  5-MIN KSTC 270400Z AUTO 28003KT 10SM CLR 21/20 A2984 1100 93 2100 280/03 RMK AO2
14926KSTC STC20010826220509908/26/01 22:05:31  5-MIN KSTC 270405Z AUTO 29004KT 10SM CLR 21/20 A2985 1100 97 2000 290/04 RMK AO2
14926KSTC STC20010826221009908/26/01 22:10:31  5-MIN KSTC 270410Z AUTO 32003KT 10SM CLR 21/19 A2985 1090 93 2000 320/03 RMK AO2
14926KSTC STC20010826221509908/26/01 22:15:31  5-MIN KSTC 270415Z AUTO 33003KT 10SM CLR 21/19 A2985 1090 93 2000 330/03 RMK AO2
14926KSTC STC20010826222009908/26/01 22:20:31  5-MIN KSTC 270420Z AUTO 02003KT 10SM CLR 20/19 A2985 1090 97 2000 020/03 RMK AO2
14926KSTC STC20010826222509908/26/01 22:25:31  5-MIN KSTC 270425Z AUTO 03003KT 10SM CLR 20/19 A2985 1090 97 2000 030/03 RMK AO2
14926KSTC STC20010826223009908/26/01 22:30:31  5-MIN KSTC 270430Z AUTO 04003KT 10SM CLR 20/19 A2985 1090 97 2000 040/03 RMK AO2
14926KSTC STC20010826223510008/26/01 22:35:31  5-MIN KSTC 270435Z AUTO 05004KT 10SM CLR 19/19 A2985 1090 100 1900 050/04 RMK AO2
14926KSTC STC20010826224009808/26/01 22:40:31  5-MIN KSTC 270440Z AUTO 06005KT 9SM CLR 20/19 A2985 1090 97 2000 060/05 RMK AO2
14926KSTC STC20010826224509908/26/01 22:45:31  5-MIN KSTC 270445Z AUTO 06003KT 9SM CLR 20/20 A2985 1090 100 2000 060/03 RMK AO2
14926KSTC STC20010826225011508/26/01 22:50:31  5-MIN KSTC 270450Z AUTO 05003KT 8SM CLR 20/19 A2985 1090 97 2000 050/03 RMK AO2 SLP113 T02000194
14926KSTC STC20010826225509908/26/01 22:55:31  5-MIN KSTC 270455Z AUTO 05003KT 7SM CLR 19/19 A2985 1090 100 1900 050/03 RMK AO2
14926KSTC STC20010826230010208/26/01 23:00:31  5-MIN KSTC 270500Z AUTO 05003KT 6SM BR CLR 19/19 A2985 1090 100 1900 040/03 RMK AO2
14926KSTC STC20010826230510208/26/01 23:05:31  5-MIN KSTC 270505Z AUTO 06003KT 6SM BR CLR 19/19 A2986 1090 100 1900 060/03 RMK AO2
14926KSTC STC20010826231010208/26/01 23:10:31  5-MIN KSTC 270510Z AUTO 06003KT 6SM BR CLR 19/19 A2986 1080 100 1900 050/03 RMK AO2
14926KSTC STC20010826231510208/26/01 23:15:31  5-MIN KSTC 270515Z AUTO 00000KT 6SM BR CLR 19/19 A2986 1080 100 1900 000/00 RMK AO2
14926KSTC STC20010826232010208/26/01 23:20:31  5-MIN KSTC 270520Z AUTO 00000KT 6SM BR CLR 19/19 A2986 1080 100 1900 000/00 RMK AO2
14926KSTC STC20010826232510208/26/01 23:25:31  5-MIN KSTC 270525Z AUTO 00000KT 6SM BR CLR 18/18 A2986 1080 100 1800 000/00 RMK AO2
14926KSTC STC20010826233010208/26/01 23:30:31  5-MIN KSTC 270530Z AUTO 00000KT 5SM BR CLR 18/18 A2986 1080 100 1800 000/00 RMK AO2
14926KSTC STC20010826233510208/26/01 23:35:31  5-MIN KSTC 270535Z AUTO 36003KT 5SM BR CLR 18/18 A2987 1080 100 1800 360/03 RMK AO2
14926KSTC STC20010826234010208/26/01 23:40:31  5-MIN KSTC 270540Z AUTO 33003KT 4SM BR CLR 18/18 A2987 1080 100 1800 330/03 RMK AO2
14926KSTC STC20010826234510208/26/01 23:45:31  5-MIN KSTC 270545Z AUTO 34003KT 4SM BR CLR 18/18 A2987 1080 100 1800 330/03 RMK AO2
14926KSTC STC20010826235015308/26/01 23:50:31  5-MIN KSTC 270550Z AUTO 00000KT 4SM BR CLR 18/18 A2987 1080 100 1700 000/00 RMK AO2 SLP119 60010 T01780178 10261 20178 402720111 55005
14926KSTC STC20010826235510208/26/01 23:55:31  5-MIN KSTC 270555Z AUTO 31003KT 5SM BR CLR 18/18 A2986 1080 100 1800 310/03 RMK AO2
14926KSTC STC20010827000010208/27/01 00:00:31  5-MIN KSTC 270600Z AUTO 30004KT 4SM BR CLR 18/18 A2986 1080 100 1800 300/04 RMK AO2
14926KSTC STC20010827000510208/27/01 00:05:31  5-MIN KSTC 270605Z AUTO 31004KT 3SM BR CLR 18/18 A2986 1080 100 1700 310/04 RMK AO2
14926KSTC STC20010827001010808/27/01 00:10:31  5-MIN KSTC 270610Z AUTO 31005KT 4SM BR CLR 18/18 A2987 1080 100 1800 300/05 RMK AO2 P0001
14926KSTC STC20010827001510808/27/01 00:15:31  5-MIN KSTC 270615Z AUTO 30005KT 4SM BR CLR 18/18 A2987 1080 100 1700 300/05 RMK AO2 P0001
14926KSTC STC20010827002010808/27/01 00:20:31  5-MIN KSTC 270620Z AUTO 30004KT 4SM BR CLR 18/18 A2987 1080 100 1700 290/04 RMK AO2 P0001
14926KSTC STC20010827002510808/27/01 00:25:31  5-MIN KSTC 270625Z AUTO 30004KT 4SM BR CLR 18/18 A2987 1080 100 1800 300/04 RMK AO2 P0001
14926KSTC STC20010827003010808/27/01 00:30:31  5-MIN KSTC 270630Z AUTO 30004KT 3SM BR CLR 18/18 A2987 1080 100 1700 300/04 RMK AO2 P0001
14926KSTC STC20010827003510808/27/01 00:35:31  5-MIN KSTC 270635Z AUTO 30005KT 2SM BR CLR 17/17 A2987 1080 100 1600 300/05 RMK AO2 P0001
14926KSTC STC20010827004010808/27/01 00:40:31  5-MIN KSTC 270640Z AUTO 30005KT 2SM BR CLR 18/18 A2987 1080 100 1700 300/05 RMK AO2 P0001
14926KSTC STC20010827004510808/27/01 00:45:31  5-MIN KSTC 270645Z AUTO 32006KT 3SM BR CLR 18/18 A2987 1080 100 1700 320/06 RMK AO2 P0001
14926KSTC STC20010827005012508/27/01 00:50:31  5-MIN KSTC 270650Z AUTO 32006KT 4SM BR CLR 18/18 A2986 1080 100 1800 320/06 RMK AO2 SLP118 P0001 T01830183
14926KSTC STC20010827005510208/27/01 00:55:31  5-MIN KSTC 270655Z AUTO 32006KT 6SM BR CLR 18/18 A2987 1080 100 1800 320/06 RMK AO2
14926KSTC STC20010827010009908/27/01 01:00:31  5-MIN KSTC 270700Z AUTO 32005KT 7SM CLR 18/18 A2987 1080 100 1800 320/05 RMK AO2
14926KSTC STC20010827010509908/27/01 01:05:31  5-MIN KSTC 270705Z AUTO 32006KT 7SM CLR 18/18 A2987 1080 100 1700 320/06 RMK AO2
14926KSTC STC20010827011010208/27/01 01:10:31  5-MIN KSTC 270710Z AUTO 32006KT 6SM BR CLR 18/18 A2987 1080 100 1800 310/06 RMK AO2
14926KSTC STC20010827011510208/27/01 01:15:31  5-MIN KSTC 270715Z AUTO 32006KT 6SM BR CLR 18/18 A2987 1080 100 1800 320/06 RMK AO2
14926KSTC STC20010827012010208/27/01 01:20:31  5-MIN KSTC 270720Z AUTO 32006KT 6SM BR CLR 18/18 A2987 1070 100 1800 310/06 RMK AO2
14926KSTC STC20010827012509908/27/01 01:25:31  5-MIN KSTC 270725Z AUTO 32006KT 7SM CLR 18/18 A2987 1070 100 1800 310/06 RMK AO2
14926KSTC STC20010827013010208/27/01 01:30:31  5-MIN KSTC 270730Z AUTO 32006KT 6SM BR CLR 18/18 A2987 1070 100 1700 310/06 RMK AO2
14926KSTC STC20010827013510208/27/01 01:35:31  5-MIN KSTC 270735Z AUTO 31006KT 6SM BR CLR 18/18 A2987 1070 100 1700 310/06 RMK AO2
14926KSTC STC20010827014010208/27/01 01:40:31  5-MIN KSTC 270740Z AUTO 31006KT 6SM BR CLR 18/18 A2987 1070 100 1700 310/06 RMK AO2
14926KSTC STC20010827014510208/27/01 01:45:31  5-MIN KSTC 270745Z AUTO 32006KT 6SM BR CLR 18/18 A2987 1070 100 1700 310/06 RMK AO2
14926KSTC STC20010827015011908/27/01 01:50:31  5-MIN KSTC 270750Z AUTO 32006KT 6SM BR CLR 18/18 A2987 1070 100 1700 310/06 RMK AO2 SLP120 T01780178
14926KSTC STC20010827015509908/27/01 01:55:31  5-MIN KSTC 270755Z AUTO 32006KT 7SM CLR 18/18 A2987 1070 100 1700 310/06 RMK AO2
14926KSTC STC20010827020009908/27/01 02:00:31  5-MIN KSTC 270800Z AUTO 32007KT 7SM CLR 18/18 A2988 1070 100 1700 310/07 RMK AO2
14926KSTC STC20010827020509908/27/01 02:05:31  5-MIN KSTC 270805Z AUTO 32007KT 7SM CLR 18/18 A2988 1060 100 1700 320/07 RMK AO2
14926KSTC STC20010827021009908/27/01 02:10:31  5-MIN KSTC 270810Z AUTO 32007KT 8SM CLR 18/18 A2988 1060 100 1700 320/07 RMK AO2
14926KSTC STC20010827021509908/27/01 02:15:31  5-MIN KSTC 270815Z AUTO 32007KT 9SM CLR 18/18 A2988 1060 100 1700 320/07 RMK AO2
14926KSTC STC20010827022009908/27/01 02:20:31  5-MIN KSTC 270820Z AUTO 32007KT 9SM CLR 18/18 A2988 1060 100 1700 320/07 RMK AO2
14926KSTC STC20010827113509908/27/01 11:35:31  5-MIN KSTC 271735Z AUTO 33007KT 10SM CLR 27/11 A2995 1000 36 2700 330/07 RMK AO2
14926KSTC STC20010827114009908/27/01 11:40:31  5-MIN KSTC 271740Z AUTO 32009KT 10SM CLR 27/11 A2995 1000 36 2600 320/09 RMK AO2
14926KSTC STC20010827114509908/27/01 11:45:31  5-MIN KSTC 271745Z AUTO 34008KT 10SM CLR 27/11 A2995 1000 37 2600 330/08 RMK AO2
14926KSTC STC20010827115013408/27/01 11:50:31  5-MIN KSTC 271750Z AUTO 30010KT 10SM CLR 27/11 A2995 1000 36 2600 290/10 RMK AO2 SLP144 T02670106 10272 20156 53007
14926KSTC STC20010827115509908/27/01 11:55:31  5-MIN KSTC 271755Z AUTO 30015KT 10SM CLR 28/10 A2995 1000 32 2700 300/15 RMK AO2
14926KSTC STC20010827120009908/27/01 12:00:31  5-MIN KSTC 271800Z AUTO 31009KT 10SM CLR 28/11 A2995 1000 33 2700 310/09 RMK AO2
14926KSTC STC20010827120509908/27/01 12:05:31  5-MIN KSTC 271805Z AUTO 31012KT 10SM CLR 28/11 A2995 1000 33 2700 310/12 RMK AO2
14926KSTC STC20010827121009908/27/01 12:10:31  5-MIN KSTC 271810Z AUTO 31011KT 10SM CLR 28/10 A2995 1000 32 2700 310/11 RMK AO2
14926KSTC STC20010827121509908/27/01 12:15:31  5-MIN KSTC 271815Z AUTO 33008KT 10SM CLR 28/10 A2995 1000 32 2700 330/08 RMK AO2
14926KSTC STC20010827122009908/27/01 12:20:31  5-MIN KSTC 271820Z AUTO 36009KT 10SM CLR 27/10 A2994 1000 33 2700 360/09 RMK AO2
14926KSTC STC20010827122511508/27/01 12:25:31  5-MIN KSTC 271825Z AUTO 33007KT 300V010 10SM CLR 28/11 A2994 1000 33 2700 320/07 300V010 RMK AO2
14926KSTC STC20010827123010508/27/01 12:30:31  5-MIN KSTC 271830Z AUTO 34009G16KT 10SM CLR 28/10 A2994 1010 32 2700 330/09G16 RMK AO2
14926KSTC STC20010827123510508/27/01 12:35:31  5-MIN KSTC 271835Z AUTO 31010G16KT 10SM CLR 28/10 A2994 1010 32 2700 310/10G16 RMK AO2
14926KSTC STC20010827124010508/27/01 12:40:31  5-MIN KSTC 271840Z AUTO 32009G18KT 10SM CLR 28/10 A2994 1010 32 2700 320/09G18 RMK AO2
14926KSTC STC20010827124510508/27/01 12:45:31  5-MIN KSTC 271845Z AUTO 31008G18KT 10SM CLR 28/10 A2994 1010 32 2700 310/08G18 RMK AO2
14926KSTC STC20010827125012208/27/01 12:50:31  5-MIN KSTC 271850Z AUTO 31009G15KT 10SM CLR 28/09 A2994 1010 30 2800 310/09G15 RMK AO2 SLP141 T02830094
14926KSTC STC20010827125510508/27/01 12:55:31  5-MIN KSTC 271855Z AUTO 28015G18KT 10SM CLR 28/09 A2994 1010 30 2800 280/15G18 RMK AO2
14926KSTC STC20010827130010508/27/01 13:00:31  5-MIN KSTC 271900Z AUTO 28010G18KT 10SM CLR 28/09 A2994 1010 30 2800 280/10G18 RMK AO2
14926KSTC STC20010827130509908/27/01 13:05:31  5-MIN KSTC 271905Z AUTO 28012KT 10SM CLR 28/10 A2994 1010 31 2800 280/12 RMK AO2
14926KSTC STC20010827131009908/27/01 13:10:31  5-MIN KSTC 271910Z AUTO 30008KT 10SM CLR 28/10 A2994 1010 31 2800 290/08 RMK AO2
14926KSTC STC20010827131510508/27/01 13:15:31  5-MIN KSTC 271915Z AUTO 33011G21KT 10SM CLR 28/09 A2993 1010 30 2800 330/11G21 RMK AO2
14926KSTC STC20010827132010508/27/01 13:20:31  5-MIN KSTC 271920Z AUTO 32011G21KT 10SM CLR 28/09 A2993 1020 30 2800 320/11G21 RMK AO2
14926KSTC STC20010827132509908/27/01 13:25:31  5-MIN KSTC 271925Z AUTO 31008KT 10SM CLR 28/09 A2993 1020 30 2800 310/08 RMK AO2
14926KSTC STC20010827133010508/27/01 13:30:31  5-MIN KSTC 271930Z AUTO 29010G17KT 10SM CLR 29/09 A2993 1020 29 2900 290/10G17 RMK AO2
14926KSTC STC20010827133510508/27/01 13:35:31  5-MIN KSTC 271935Z AUTO 31012G20KT 10SM CLR 29/09 A2993 1020 29 2900 300/12G20 RMK AO2
14926KSTC STC20010827134010508/27/01 13:40:31  5-MIN KSTC 271940Z AUTO 31012G20KT 10SM CLR 28/09 A2993 1020 29 2800 310/12G20 RMK AO2
14926KSTC STC20010827134510508/27/01 13:45:31  5-MIN KSTC 271945Z AUTO 32012G18KT 10SM CLR 28/09 A2993 1020 29 2800 320/12G18 RMK AO2
14926KSTC STC20010827135012208/27/01 13:50:31  5-MIN KSTC 271950Z AUTO 33008G18KT 10SM CLR 28/09 A2993 1020 29 2800 330/08G18 RMK AO2 SLP137 T02830089
14926KSTC STC20010827135510508/27/01 13:55:31  5-MIN KSTC 271955Z AUTO 30013G17KT 10SM CLR 29/09 A2993 1020 29 2900 300/13G17 RMK AO2
14926KSTC STC20010827140010508/27/01 14:00:31  5-MIN KSTC 272000Z AUTO 29012G17KT 10SM CLR 29/08 A2992 1020 26 2900 290/12G17 RMK AO2
14926KSTC STC20010827140509908/27/01 14:05:31  5-MIN KSTC 272005Z AUTO 30011KT 10SM CLR 29/08 A2992 1020 27 2900 300/11 RMK AO2
14926KSTC STC20010827141009908/27/01 14:10:31  5-MIN KSTC 272010Z AUTO 31011KT 10SM CLR 28/09 A2992 1030 29 2800 300/11 RMK AO2
14926KSTC STC20010827141510508/27/01 14:15:31  5-MIN KSTC 272015Z AUTO 34009G16KT 10SM CLR 29/09 A2992 1030 29 2900 340/09G16 RMK AO2
14926KSTC STC20010827142010508/27/01 14:20:31  5-MIN KSTC 272020Z AUTO 31008G16KT 10SM CLR 29/09 A2992 1030 29 2900 310/08G16 RMK AO2
14926KSTC STC20010827142509908/27/01 14:25:31  5-MIN KSTC 272025Z AUTO 33010KT 10SM CLR 29/09 A2992 1030 29 2900 320/10 RMK AO2
14926KSTC STC20010827143010508/27/01 14:30:31  5-MIN KSTC 272030Z AUTO 33012G22KT 10SM CLR 28/09 A2992 1030 30 2800 330/12G22 RMK AO2
14926KSTC STC20010827143510508/27/01 14:35:31  5-MIN KSTC 272035Z AUTO 32010G22KT 10SM CLR 29/09 A2992 1030 29 2900 320/10G22 RMK AO2
14926KSTC STC20010827144009908/27/01 14:40:31  5-MIN KSTC 272040Z AUTO 32012KT 10SM CLR 29/09 A2992 1030 28 2900 310/12 RMK AO2
14926KSTC STC20010827144509908/27/01 14:45:31  5-MIN KSTC 272045Z AUTO 32009KT 10SM CLR 29/09 A2991 1030 28 2900 310/09 RMK AO2
14926KSTC STC20010827145012508/27/01 14:50:31  5-MIN KSTC 272050Z AUTO 34008KT 10SM FEW080 28/09 A2991 1030 30 2800 340/08 RMK AO2 SLP132 T02830094 58002
14926KSTC STC20010827145510208/27/01 14:55:31  5-MIN KSTC 272055Z AUTO 34010KT 10SM FEW080 28/10 A2991 1030 31 2800 330/10 RMK AO2
14926KSTC STC20010827150010208/27/01 15:00:31  5-MIN KSTC 272100Z AUTO 32011KT 10SM FEW080 28/09 A2991 1040 31 2800 320/11 RMK AO2
14926KSTC STC20010827150510208/27/01 15:05:31  5-MIN KSTC 272105Z AUTO 36011KT 10SM FEW080 28/09 A2991 1040 31 2800 350/11 RMK AO2
14926KSTC STC20010827151010208/27/01 15:10:31  5-MIN KSTC 272110Z AUTO 36008KT 10SM SCT080 28/11 A2991 1040 32 2800 350/08 RMK AO2
14926KSTC STC20010827151510208/27/01 15:15:31  5-MIN KSTC 272115Z AUTO 35007KT 10SM SCT080 28/11 A2991 1040 32 2800 340/07 RMK AO2
14926KSTC STC20010827152010208/27/01 15:20:31  5-MIN KSTC 272120Z AUTO 33011KT 10SM SCT080 29/10 A2991 1040 30 2900 330/11 RMK AO2
14926KSTC STC20010827152510208/27/01 15:25:31  5-MIN KSTC 272125Z AUTO 33011KT 10SM SCT080 29/09 A2990 1040 29 2900 330/11 RMK AO2
14926KSTC STC20010827153010208/27/01 15:30:31  5-MIN KSTC 272130Z AUTO 35008KT 10SM SCT080 28/09 A2990 1040 30 2800 350/08 RMK AO2
14926KSTC STC20010827153511808/27/01 15:35:31  5-MIN KSTC 272135Z AUTO 33008KT 300V360 10SM SCT080 29/10 A2990 1040 30 2900 330/08 300V360 RMK AO2
14926KSTC STC20010827154010208/27/01 15:40:31  5-MIN KSTC 272140Z AUTO 34009KT 10SM SCT080 28/10 A2990 1040 31 2800 330/09 RMK AO2
14926KSTC STC20010827154510208/27/01 15:45:31  5-MIN KSTC 272145Z AUTO 35007KT 10SM FEW080 28/10 A2990 1040 31 2800 340/07 RMK AO2
14926KSTC STC20010827155011908/27/01 15:50:31  5-MIN KSTC 272150Z AUTO 34010KT 10SM FEW080 28/09 A2990 1040 30 2800 340/10 RMK AO2 SLP129 T02830094
14926KSTC STC20010827155510208/27/01 15:55:31  5-MIN KSTC 272155Z AUTO 35012KT 10SM FEW080 28/09 A2990 1040 30 2800 350/12 RMK AO2
14926KSTC STC20010827160009908/27/01 16:00:31  5-MIN KSTC 272200Z AUTO 31011KT 10SM CLR 28/09 A2990 1040 30 2800 310/11 RMK AO2
14926KSTC STC20010827160509908/27/01 16:05:31  5-MIN KSTC 272205Z AUTO 32012KT 10SM CLR 28/08 A2990 1040 28 2800 320/12 RMK AO2
14926KSTC STC20010827161009908/27/01 16:10:31  5-MIN KSTC 272210Z AUTO 32012KT 10SM CLR 28/08 A2990 1040 28 2800 320/12 RMK AO2
14926KSTC STC20010827161509908/27/01 16:15:31  5-MIN KSTC 272215Z AUTO 31009KT 10SM CLR 28/08 A2990 1040 28 2900 310/09 RMK AO2
14926KSTC STC20010827162009908/27/01 16:20:31  5-MIN KSTC 272220Z AUTO 33009KT 10SM CLR 28/09 A2990 1040 29 2800 320/09 RMK AO2
14926KSTC STC20010827162510508/27/01 16:25:31  5-MIN KSTC 272225Z AUTO 33008G16KT 10SM CLR 28/08 A2990 1040 28 2800 330/08G16 RMK AO2
14926KSTC STC20010827163010508/27/01 16:30:31  5-MIN KSTC 272230Z AUTO 32009G16KT 10SM CLR 28/08 A2990 1040 28 2800 320/09G16 RMK AO2
14926KSTC STC20010827163509908/27/01 16:35:31  5-MIN KSTC 272235Z AUTO 33008KT 10SM CLR 28/09 A2990 1040 29 2800 330/08 RMK AO2
14926KSTC STC20010827164009908/27/01 16:40:31  5-MIN KSTC 272240Z AUTO 32007KT 10SM CLR 28/09 A2990 1040 30 2800 320/07 RMK AO2
14926KSTC STC20010827164509908/27/01 16:45:31  5-MIN KSTC 272245Z AUTO 33007KT 10SM CLR 28/09 A2990 1040 31 2800 330/07 RMK AO2
14926KSTC STC20010827165011608/27/01 16:50:31  5-MIN KSTC 272250Z AUTO 31009KT 10SM CLR 28/09 A2990 1040 30 2800 300/09 RMK AO2 SLP129 T02780089
14926KSTC STC20010827165509908/27/01 16:55:31  5-MIN KSTC 272255Z AUTO 32009KT 10SM CLR 28/08 A2990 1040 29 2800 320/09 RMK AO2
14926KSTC STC20010827170009908/27/01 17:00:31  5-MIN KSTC 272300Z AUTO 32010KT 10SM CLR 28/09 A2990 1040 30 2800 310/10 RMK AO2
14926KSTC STC20010827170509908/27/01 17:05:31  5-MIN KSTC 272305Z AUTO 34007KT 10SM CLR 28/09 A2990 1040 31 2800 330/07 RMK AO2
14926KSTC STC20010827171009908/27/01 17:10:31  5-MIN KSTC 272310Z AUTO 35006KT 10SM CLR 27/09 A2990 1040 32 2700 350/06 RMK AO2
14926KSTC STC20010827171509908/27/01 17:15:31  5-MIN KSTC 272315Z AUTO 34007KT 10SM CLR 27/10 A2991 1040 34 2700 340/07 RMK AO2
14926KSTC STC20010827172009908/27/01 17:20:31  5-MIN KSTC 272320Z AUTO 35007KT 10SM CLR 27/10 A2991 1040 34 2700 340/07 RMK AO2
14926KSTC STC20010827172509908/27/01 17:25:31  5-MIN KSTC 272325Z AUTO 35005KT 10SM CLR 27/10 A2991 1040 34 2700 340/05 RMK AO2
14926KSTC STC20010827173009908/27/01 17:30:31  5-MIN KSTC 272330Z AUTO 35005KT 10SM CLR 26/11 A2991 1040 37 2600 350/05 RMK AO2
14926KSTC STC20010827173509908/27/01 17:35:31  5-MIN KSTC 272335Z AUTO 35005KT 10SM CLR 26/11 A2991 1040 38 2600 340/05 RMK AO2
14926KSTC STC20010827174009908/27/01 17:40:31  5-MIN KSTC 272340Z AUTO 34005KT 10SM CLR 26/11 A2991 1040 38 2600 340/05 RMK AO2
14926KSTC STC20010827174509908/27/01 17:45:31  5-MIN KSTC 272345Z AUTO 34004KT 10SM CLR 26/11 A2991 1040 38 2600 340/04 RMK AO2
14926KSTC STC20010827175013408/27/01 17:50:31  5-MIN KSTC 272350Z AUTO 34003KT 10SM CLR 26/12 A2991 1040 41 2500 330/03 RMK AO2 SLP131 T02560117 10289 20256 58012
14926KSTC STC20010827175509908/27/01 17:55:31  5-MIN KSTC 272355Z AUTO 33003KT 10SM CLR 26/12 A2991 1040 41 2500 330/03 RMK AO2
14926KSTC STC20010827180009908/27/01 18:00:31  5-MIN KSTC 280000Z AUTO 33004KT 10SM CLR 25/12 A2991 1040 44 2500 330/04 RMK AO2
14926KSTC STC20010827180509908/27/01 18:05:31  5-MIN KSTC 280005Z AUTO 35003KT 10SM CLR 25/13 A2991 1040 48 2500 350/03 RMK AO2
14926KSTC STC20010827181009908/27/01 18:10:31  5-MIN KSTC 280010Z AUTO 35003KT 10SM CLR 24/14 A2991 1040 51 2400 350/03 RMK AO2
14926KSTC STC20010827181509908/27/01 18:15:31  5-MIN KSTC 280015Z AUTO 35004KT 10SM CLR 24/13 A2991 1040 49 2400 350/04 RMK AO2
14926KSTC STC20010827182009908/27/01 18:20:31  5-MIN KSTC 280020Z AUTO 34004KT 10SM CLR 24/13 A2991 1040 47 2400 340/04 RMK AO2
14926KSTC STC20010827182509908/27/01 18:25:31  5-MIN KSTC 280025Z AUTO 35003KT 10SM CLR 24/13 A2991 1040 49 2300 350/03 RMK AO2
14926KSTC STC20010827183009908/27/01 18:30:31  5-MIN KSTC 280030Z AUTO 35003KT 10SM CLR 23/13 A2991 1040 51 2300 340/03 RMK AO2
14926KSTC STC20010827183509908/27/01 18:35:31  5-MIN KSTC 280035Z AUTO 36003KT 10SM CLR 23/14 A2990 1040 55 2300 360/03 RMK AO2
14926KSTC STC20010827184009908/27/01 18:40:31  5-MIN KSTC 280040Z AUTO 35003KT 10SM CLR 23/14 A2991 1040 55 2300 350/03 RMK AO2
14926KSTC STC20010827184509908/27/01 18:45:31  5-MIN KSTC 280045Z AUTO 34003KT 10SM CLR 22/14 A2991 1040 61 2200 340/03 RMK AO2
14926KSTC STC20010827185011608/27/01 18:50:31  5-MIN KSTC 280050Z AUTO 00000KT 10SM CLR 22/14 A2991 1040 61 2200 000/00 RMK AO2 SLP133 T02220144
14926KSTC STC20010827185509908/27/01 18:55:31  5-MIN KSTC 280055Z AUTO 00000KT 10SM CLR 22/14 A2991 1040 59 2200 000/00 RMK AO2
14926KSTC STC20010827190009908/27/01 19:00:31  5-MIN KSTC 280100Z AUTO 27003KT 10SM CLR 22/14 A2991 1030 61 2100 270/03 RMK AO2
14926KSTC STC20010827190509908/27/01 19:05:31  5-MIN KSTC 280105Z AUTO 28004KT 10SM CLR 20/15 A2991 1030 72 1900 280/04 RMK AO2
14926KSTC STC20010827191009908/27/01 19:10:31  5-MIN KSTC 280110Z AUTO 28005KT 10SM CLR 20/14 A2991 1030 70 1900 280/05 RMK AO2
14926KSTC STC20010827191509908/27/01 19:15:31  5-MIN KSTC 280115Z AUTO 29005KT 10SM CLR 20/14 A2991 1030 67 1900 290/05 RMK AO2
14926KSTC STC20010827192009908/27/01 19:20:31  5-MIN KSTC 280120Z AUTO 31005KT 10SM CLR 20/14 A2991 1030 67 1900 310/05 RMK AO2
14926KSTC STC20010827192509908/27/01 19:25:31  5-MIN KSTC 280125Z AUTO 31005KT 10SM CLR 20/13 A2991 1030 65 1900 310/05 RMK AO2
14926KSTC STC20010827193009908/27/01 19:30:31  5-MIN KSTC 280130Z AUTO 31005KT 10SM CLR 20/13 A2992 1030 65 1900 310/05 RMK AO2
14926KSTC STC20010827193509908/27/01 19:35:31  5-MIN KSTC 280135Z AUTO 31006KT 10SM CLR 21/13 A2992 1030 60 2000 310/06 RMK AO2
14926KSTC STC20010827194009908/27/01 19:40:31  5-MIN KSTC 280140Z AUTO 31005KT 10SM CLR 21/13 A2992 1030 60 2000 300/05 RMK AO2
14926KSTC STC20010827194509908/27/01 19:45:31  5-MIN KSTC 280145Z AUTO 30004KT 10SM CLR 21/13 A2992 1030 63 2000 290/04 RMK AO2
14926KSTC STC20010827195011608/27/01 19:50:31  5-MIN KSTC 280150Z AUTO 29003KT 10SM CLR 20/13 A2992 1030 65 1900 290/03 RMK AO2 SLP137 T02000133
14926KSTC STC20010827195509908/27/01 19:55:31  5-MIN KSTC 280155Z AUTO 00000KT 10SM CLR 19/14 A2992 1020 70 1800 000/00 RMK AO2
14926KSTC STC20010827200009908/27/01 20:00:31  5-MIN KSTC 280200Z AUTO 00000KT 10SM CLR 19/14 A2993 1020 75 1800 000/00 RMK AO2
14926KSTC STC20010827200509908/27/01 20:05:31  5-MIN KSTC 280205Z AUTO 00000KT 10SM CLR 19/14 A2993 1020 72 1700 000/00 RMK AO2
14926KSTC STC20010827201009908/27/01 20:10:31  5-MIN KSTC 280210Z AUTO 00000KT 10SM CLR 18/14 A2993 1020 78 1700 000/00 RMK AO2
14926KSTC STC20010827201509908/27/01 20:15:31  5-MIN KSTC 280215Z AUTO 28003KT 10SM CLR 19/14 A2993 1020 72 1700 280/03 RMK AO2
14926KSTC STC20010827202009908/27/01 20:20:31  5-MIN KSTC 280220Z AUTO 28003KT 10SM CLR 18/14 A2993 1020 75 1700 280/03 RMK AO2
14926KSTC STC20010827202509908/27/01 20:25:31  5-MIN KSTC 280225Z AUTO 29003KT 10SM CLR 18/14 A2993 1010 75 1700 280/03 RMK AO2
14926KSTC STC20010827203009908/27/01 20:30:31  5-MIN KSTC 280230Z AUTO 30003KT 10SM CLR 18/13 A2993 1010 72 1700 290/03 RMK AO2
14926KSTC STC20010827203509908/27/01 20:35:31  5-MIN KSTC 280235Z AUTO 30003KT 10SM CLR 18/14 A2994 1010 78 1600 300/03 RMK AO2
14926KSTC STC20010827204009908/27/01 20:40:31  5-MIN KSTC 280240Z AUTO 00000KT 10SM CLR 17/14 A2994 1010 80 1500 000/00 RMK AO2
14926KSTC STC20010827204509908/27/01 20:45:31  5-MIN KSTC 280245Z AUTO 00000KT 10SM CLR 17/14 A2993 1010 80 1500 000/00 RMK AO2
14926KSTC STC20010827205012208/27/01 20:50:31  5-MIN KSTC 280250Z AUTO 00000KT 10SM CLR 17/14 A2993 1010 80 1500 000/00 RMK AO2 SLP142 T01720139 55002
14926KSTC STC20010827205509908/27/01 20:55:31  5-MIN KSTC 280255Z AUTO 32003KT 10SM CLR 17/14 A2993 1010 80 1500 310/03 RMK AO2
14926KSTC STC20010827210009908/27/01 21:00:31  5-MIN KSTC 280300Z AUTO 32003KT 10SM CLR 17/14 A2994 1010 83 1500 320/03 RMK AO2
14926KSTC STC20010827210509908/27/01 21:05:31  5-MIN KSTC 280305Z AUTO 00000KT 10SM CLR 16/14 A2994 1010 86 1400 000/00 RMK AO2
14926KSTC STC20010827211009908/27/01 21:10:31  5-MIN KSTC 280310Z AUTO 00000KT 10SM CLR 16/14 A2994 1010 86 1400 000/00 RMK AO2
14926KSTC STC20010827211509908/27/01 21:15:31  5-MIN KSTC 280315Z AUTO 00000KT 10SM CLR 17/13 A2994 1010 80 1500 000/00 RMK AO2
14926KSTC STC20010827212009908/27/01 21:20:31  5-MIN KSTC 280320Z AUTO 00000KT 10SM CLR 17/13 A2994 1010 80 1500 000/00 RMK AO2
14926KSTC STC20010827212509908/27/01 21:25:31  5-MIN KSTC 280325Z AUTO 00000KT 10SM CLR 16/14 A2994 1010 86 1400 000/00 RMK AO2
14926KSTC STC20010827213009908/27/01 21:30:31  5-MIN KSTC 280330Z AUTO 00000KT 10SM CLR 16/13 A2994 1010 83 1400 000/00 RMK AO2
14926KSTC STC20010827213509908/27/01 21:35:31  5-MIN KSTC 280335Z AUTO 00000KT 10SM CLR 16/13 A2994 1010 86 1300 000/00 RMK AO2
14926KSTC STC20010827214009908/27/01 21:40:31  5-MIN KSTC 280340Z AUTO 00000KT 10SM CLR 16/13 A2994 1010 83 1300 000/00 RMK AO2
14926KSTC STC20010827214509908/27/01 21:45:31  5-MIN KSTC 280345Z AUTO 32003KT 10SM CLR 16/13 A2994 1010 80 1400 320/03 RMK AO2
14926KSTC STC20010827215011608/27/01 21:50:31  5-MIN KSTC 280350Z AUTO 32003KT 10SM CLR 16/13 A2994 1010 83 1300 320/03 RMK AO2 SLP144 T01560128
14926KSTC STC20010827215509908/27/01 21:55:31  5-MIN KSTC 280355Z AUTO 32003KT 10SM CLR 16/13 A2994 1010 83 1300 320/03 RMK AO2
14926KSTC STC20010827220009908/27/01 22:00:31  5-MIN KSTC 280400Z AUTO 32003KT 10SM CLR 16/13 A2994 1010 83 1300 320/03 RMK AO2
14926KSTC STC20010827220509908/27/01 22:05:31  5-MIN KSTC 280405Z AUTO 33003KT 10SM CLR 16/13 A2994 1010 83 1300 320/03 RMK AO2
14926KSTC STC20010827221009908/27/01 22:10:31  5-MIN KSTC 280410Z AUTO 32003KT 10SM CLR 16/13 A2994 1010 80 1400 320/03 RMK AO2
14926KSTC STC20010827221509908/27/01 22:15:31  5-MIN KSTC 280415Z AUTO 32003KT 10SM CLR 16/13 A2994 1010 80 1400 320/03 RMK AO2
14926KSTC STC20010827222009908/27/01 22:20:31  5-MIN KSTC 280420Z AUTO 32003KT 10SM CLR 16/12 A2994 1010 77 1400 320/03 RMK AO2
14926KSTC STC20010827222509908/27/01 22:25:31  5-MIN KSTC 280425Z AUTO 00000KT 10SM CLR 16/12 A2994 1000 77 1400 000/00 RMK AO2
14926KSTC STC20010827223009908/27/01 22:30:31  5-MIN KSTC 280430Z AUTO 32003KT 10SM CLR 17/12 A2995 1000 75 1500 310/03 RMK AO2
14926KSTC STC20010827223509908/27/01 22:35:31  5-MIN KSTC 280435Z AUTO 33003KT 10SM CLR 17/12 A2994 1000 75 1500 330/03 RMK AO2
14926KSTC STC20010827224009908/27/01 22:40:31  5-MIN KSTC 280440Z AUTO 00000KT 10SM CLR 16/12 A2994 1000 80 1300 000/00 RMK AO2
14926KSTC STC20010827224509908/27/01 22:45:31  5-MIN KSTC 280445Z AUTO 33003KT 10SM CLR 16/12 A2994 1000 80 1300 330/03 RMK AO2
14926KSTC STC20010827225011608/27/01 22:50:31  5-MIN KSTC 280450Z AUTO 36003KT 10SM CLR 16/12 A2995 1000 80 1300 360/03 RMK AO2 SLP145 T01560122
14926KSTC STC20010827225509908/27/01 22:55:31  5-MIN KSTC 280455Z AUTO 34003KT 10SM CLR 16/12 A2995 1000 75 1400 340/03 RMK AO2
14926KSTC STC20010827230009908/27/01 23:00:31  5-MIN KSTC 280500Z AUTO 33003KT 10SM CLR 16/12 A2995 1000 75 1400 320/03 RMK AO2
14926KSTC STC20010827230509908/27/01 23:05:31  5-MIN KSTC 280505Z AUTO 00000KT 10SM CLR 16/12 A2995 1000 77 1300 000/00 RMK AO2
14926KSTC STC20010827231009908/27/01 23:10:31  5-MIN KSTC 280510Z AUTO 00000KT 10SM CLR 15/12 A2995 1000 83 1300 000/00 RMK AO2
14926KSTC STC20010827231509908/27/01 23:15:31  5-MIN KSTC 280515Z AUTO 00000KT 10SM CLR 15/12 A2995 1000 83 1300 000/00 RMK AO2
14926KSTC STC20010827232009908/27/01 23:20:31  5-MIN KSTC 280520Z AUTO 36003KT 10SM CLR 14/12 A2995 1000 86 1200 360/03 RMK AO2
14926KSTC STC20010827232509908/27/01 23:25:31  5-MIN KSTC 280525Z AUTO 36003KT 10SM CLR 14/12 A2995 1000 86 1200 350/03 RMK AO2
14926KSTC STC20010827233009908/27/01 23:30:31  5-MIN KSTC 280530Z AUTO 02003KT 10SM CLR 14/12 A2995 1000 86 1200 020/03 RMK AO2
14926KSTC STC20010827233509908/27/01 23:35:31  5-MIN KSTC 280535Z AUTO 34004KT 10SM CLR 14/13 A2995 1000 93 1100 340/04 RMK AO2
14926KSTC STC20010827234009908/27/01 23:40:31  5-MIN KSTC 280540Z AUTO 34004KT 10SM CLR 15/12 A2995 1000 80 1300 330/04 RMK AO2
14926KSTC STC20010827234509908/27/01 23:45:31  5-MIN KSTC 280545Z AUTO 34004KT 10SM CLR 15/12 A2995 1000 80 1300 340/04 RMK AO2
14926KSTC STC20010827235014408/27/01 23:50:31  5-MIN KSTC 280550Z AUTO 35003KT 10SM CLR 14/12 A2995 1000 83 1200 350/03 RMK AO2 SLP147 T01440117 10256 20139 402890139 53009
14926KSTC STC20010827235509908/27/01 23:55:31  5-MIN KSTC 280555Z AUTO 35004KT 10SM CLR 14/12 A2995 1000 90 1100 350/04 RMK AO2
14926KSTC STC20010828000009808/28/01 00:00:31  5-MIN KSTC 280600Z AUTO 33004KT 10SM CLR 14/12 A2995 990 90 1100 330/04 RMK AO2
14926KSTC STC20010828000509908/28/01 00:05:31  5-MIN KSTC 280605Z AUTO 33003KT 10SM CLR 14/12 A2995 1000 86 1200 320/03 RMK AO2
14926KSTC STC20010828001009908/28/01 00:10:31  5-MIN KSTC 280610Z AUTO 33004KT 10SM CLR 14/12 A2995 1000 90 1100 330/04 RMK AO2
14926KSTC STC20010828001509808/28/01 00:15:31  5-MIN KSTC 280615Z AUTO 34004KT 10SM CLR 14/12 A2995 990 83 1200 340/04 RMK AO2
14926KSTC STC20010828002009808/28/01 00:20:31  5-MIN KSTC 280620Z AUTO 34004KT 10SM CLR 14/12 A2996 990 83 1200 340/04 RMK AO2
14926KSTC STC20010828002509808/28/01 00:25:31  5-MIN KSTC 280625Z AUTO 34004KT 10SM CLR 14/12 A2996 990 83 1200 330/04 RMK AO2
14926KSTC STC20010828003009808/28/01 00:30:31  5-MIN KSTC 280630Z AUTO 33005KT 10SM CLR 14/12 A2996 990 86 1100 320/05 RMK AO2
14926KSTC STC20010828003509808/28/01 00:35:31  5-MIN KSTC 280635Z AUTO 33004KT 10SM CLR 14/11 A2996 990 80 1200 320/04 RMK AO2
14926KSTC STC20010828004009808/28/01 00:40:31  5-MIN KSTC 280640Z AUTO 33004KT 10SM CLR 14/12 A2996 990 86 1100 320/04 RMK AO2
14926KSTC STC20010828004509808/28/01 00:45:31  5-MIN KSTC 280645Z AUTO 33005KT 10SM CLR 13/11 A2996 990 86 1100 330/05 RMK AO2
14926KSTC STC20010828005011508/28/01 00:50:31  5-MIN KSTC 280650Z AUTO 33005KT 10SM CLR 14/11 A2996 990 83 1100 320/05 RMK AO2 SLP150 T01390111
14926KSTC STC20010828005509808/28/01 00:55:31  5-MIN KSTC 280655Z AUTO 33005KT 10SM CLR 14/12 A2996 990 86 1100 320/05 RMK AO2
14926KSTC STC20010828010009808/28/01 01:00:31  5-MIN KSTC 280700Z AUTO 32005KT 10SM CLR 14/12 A2997 980 83 1200 320/05 RMK AO2
14926KSTC STC20010828010509808/28/01 01:05:31  5-MIN KSTC 280705Z AUTO 33004KT 10SM CLR 14/12 A2997 980 86 1100 320/04 RMK AO2
14926KSTC STC20010828011009808/28/01 01:10:31  5-MIN KSTC 280710Z AUTO 32005KT 10SM CLR 14/12 A2997 980 86 1100 320/05 RMK AO2
14926KSTC STC20010828011509808/28/01 01:15:31  5-MIN KSTC 280715Z AUTO 32004KT 10SM CLR 14/11 A2997 980 83 1100 320/04 RMK AO2
14926KSTC STC20010828012009808/28/01 01:20:31  5-MIN KSTC 280720Z AUTO 33005KT 10SM CLR 14/11 A2997 980 83 1100 320/05 RMK AO2
14926KSTC STC20010828012509808/28/01 01:25:31  5-MIN KSTC 280725Z AUTO 33003KT 10SM CLR 14/12 A2997 980 86 1100 330/03 RMK AO2
14926KSTC STC20010828013009808/28/01 01:30:31  5-MIN KSTC 280730Z AUTO 33004KT 10SM CLR 14/12 A2997 980 86 1100 330/04 RMK AO2
14926KSTC STC20010828013509808/28/01 01:35:31  5-MIN KSTC 280735Z AUTO 33004KT 10SM CLR 14/12 A2997 980 83 1200 330/04 RMK AO2
14926KSTC STC20010828014009808/28/01 01:40:31  5-MIN KSTC 280740Z AUTO 33005KT 10SM CLR 14/12 A2997 980 86 1100 330/05 RMK AO2
14926KSTC STC20010828014509808/28/01 01:45:31  5-MIN KSTC 280745Z AUTO 34005KT 10SM CLR 14/12 A2997 980 86 1100 330/05 RMK AO2
14926KSTC STC20010828015011508/28/01 01:50:31  5-MIN KSTC 280750Z AUTO 35004KT 10SM CLR 14/12 A2997 980 86 1100 340/04 RMK AO2 SLP153 T01390117
14926KSTC STC20010828015509808/28/01 01:55:31  5-MIN KSTC 280755Z AUTO 33004KT 10SM CLR 14/12 A2997 980 86 1100 330/04 RMK AO2
14926KSTC STC20010828020009808/28/01 02:00:31  5-MIN KSTC 280800Z AUTO 33004KT 10SM CLR 13/12 A2997 980 89 1000 330/04 RMK AO2
14926KSTC STC20010828020509808/28/01 02:05:31  5-MIN KSTC 280805Z AUTO 34003KT 10SM CLR 13/12 A2997 980 89 1000 330/03 RMK AO2
14926KSTC STC20010828021009808/28/01 02:10:31  5-MIN KSTC 280810Z AUTO 34004KT 10SM CLR 13/12 A2997 980 89 1000 340/04 RMK AO2
14926KSTC STC20010828021509808/28/01 02:15:31  5-MIN KSTC 280815Z AUTO 34003KT 10SM CLR 13/12 A2998 980 89 1000 340/03 RMK AO2
14926KSTC STC20010828022009808/28/01 02:20:31  5-MIN KSTC 280820Z AUTO 33003KT 10SM CLR 13/12 A2998 970 93 1000 330/03 RMK AO2
14926KSTC STC20010828022509808/28/01 02:25:31  5-MIN KSTC 280825Z AUTO 00000KT 10SM CLR 13/12 A2998 970 93 1000 000/00 RMK AO2
14926KSTC STC20010828023009808/28/01 02:30:31  5-MIN KSTC 280830Z AUTO 00000KT 10SM CLR 13/12 A2998 970 89 1000 000/00 RMK AO2
14926KSTC STC20010828023509808/28/01 02:35:31  5-MIN KSTC 280835Z AUTO 32003KT 10SM CLR 13/11 A2998 970 86 1000 320/03 RMK AO2
14926KSTC STC20010828024009808/28/01 02:40:31  5-MIN KSTC 280840Z AUTO 34003KT 10SM CLR 13/11 A2998 970 89 1000 330/03 RMK AO2
14926KSTC STC20010828024509808/28/01 02:45:31  5-MIN KSTC 280845Z AUTO 33004KT 10SM CLR 13/12 A2998 970 89 1000 330/04 RMK AO2
14926KSTC STC20010828025012108/28/01 02:50:31  5-MIN KSTC 280850Z AUTO 32004KT 10SM CLR 13/12 A2998 970 89 1000 320/04 RMK AO2 SLP156 T01330117 52006
14926KSTC STC20010828025509808/28/01 02:55:31  5-MIN KSTC 280855Z AUTO 32004KT 10SM CLR 13/11 A2998 970 89 1000 320/04 RMK AO2
14926KSTC STC20010828030009808/28/01 03:00:31  5-MIN KSTC 280900Z AUTO 33004KT 10SM CLR 13/12 A2998 970 93 1000 330/04 RMK AO2
14926KSTC STC20010828030509808/28/01 03:05:31  5-MIN KSTC 280905Z AUTO 34003KT 10SM CLR 13/12 A2998 970 93 1000 330/03 RMK AO2
14926KSTC STC20010828031009808/28/01 03:10:31  5-MIN KSTC 280910Z AUTO 33004KT 10SM CLR 13/12 A2998 970 93 1000 330/04 RMK AO2
14926KSTC STC20010828031509808/28/01 03:15:31  5-MIN KSTC 280915Z AUTO 33004KT 10SM CLR 13/12 A2998 970 89 1000 330/04 RMK AO2
14926KSTC STC20010828032009808/28/01 03:20:31  5-MIN KSTC 280920Z AUTO 34003KT 10SM CLR 13/12 A2998 970 93 1000 340/03 RMK AO2
14926KSTC STC20010828032509808/28/01 03:25:31  5-MIN KSTC 280925Z AUTO 34003KT 10SM CLR 13/12 A2998 970 89 1000 330/03 RMK AO2
14926KSTC STC20010828033009808/28/01 03:30:31  5-MIN KSTC 280930Z AUTO 34003KT 10SM CLR 13/12 A2999 970 89 1000 330/03 RMK AO2
14926KSTC STC20010828033509808/28/01 03:35:31  5-MIN KSTC 280935Z AUTO 00000KT 10SM CLR 13/12 A2998 970 89 1000 000/00 RMK AO2
14926KSTC STC20010828034009808/28/01 03:40:31  5-MIN KSTC 280940Z AUTO 00000KT 10SM CLR 13/12 A2998 970 93 1000 000/00 RMK AO2
14926KSTC STC20010828034509808/28/01 03:45:31  5-MIN KSTC 280945Z AUTO 32003KT 10SM CLR 13/12 A2998 970 93 1000 320/03 RMK AO2
14926KSTC STC20010828035011508/28/01 03:50:31  5-MIN KSTC 280950Z AUTO 33003KT 10SM CLR 13/12 A2998 970 93 1000 330/03 RMK AO2 SLP158 T01280117
14926KSTC STC20010828035509808/28/01 03:55:31  5-MIN KSTC 280955Z AUTO VRB03KT 10SM CLR 13/12 A2998 970 89 1000 VRB/03 RMK AO2
14926KSTC STC20010828040009808/28/01 04:00:31  5-MIN KSTC 281000Z AUTO 34003KT 10SM CLR 13/12 A2998 970 93 1000 340/03 RMK AO2
14926KSTC STC20010828040509808/28/01 04:05:31  5-MIN KSTC 281005Z AUTO 34003KT 10SM CLR 13/12 A2998 970 93 1000 340/03 RMK AO2
14926KSTC STC20010828041009808/28/01 04:10:31  5-MIN KSTC 281010Z AUTO 34003KT 10SM CLR 13/11 A2998 970 89 1000 330/03 RMK AO2
14926KSTC STC20010828041509808/28/01 04:15:31  5-MIN KSTC 281015Z AUTO 33004KT 10SM CLR 13/11 A2998 970 89 1000 330/04 RMK AO2
14926KSTC STC20010828042009708/28/01 04:20:31  5-MIN KSTC 281020Z AUTO 32003KT 10SM CLR 12/11 A2998 970 93 900 320/03 RMK AO2
14926KSTC STC20010828042509708/28/01 04:25:31  5-MIN KSTC 281025Z AUTO 33004KT 10SM CLR 12/11 A2998 970 93 900 330/04 RMK AO2
14926KSTC STC20010828043009808/28/01 04:30:31  5-MIN KSTC 281030Z AUTO 34004KT 10SM CLR 13/11 A2998 970 89 1000 340/04 RMK AO2
14926KSTC STC20010828043509808/28/01 04:35:31  5-MIN KSTC 281035Z AUTO 35004KT 10SM CLR 13/11 A2998 970 89 1000 350/04 RMK AO2
14926KSTC STC20010828044009708/28/01 04:40:31  5-MIN KSTC 281040Z AUTO 35003KT 10SM CLR 12/11 A2998 970 93 900 340/03 RMK AO2
14926KSTC STC20010828044509708/28/01 04:45:31  5-MIN KSTC 281045Z AUTO 34004KT 10SM CLR 12/11 A2999 970 93 900 340/04 RMK AO2
14926KSTC STC20010828045011408/28/01 04:50:31  5-MIN KSTC 281050Z AUTO 33004KT 10SM CLR 12/11 A2999 970 93 900 330/04 RMK AO2 SLP159 T01220111
14926KSTC STC20010828045509708/28/01 04:55:31  5-MIN KSTC 281055Z AUTO 32004KT 10SM CLR 12/11 A2999 960 93 900 320/04 RMK AO2
14926KSTC STC20010828050009708/28/01 05:00:31  5-MIN KSTC 281100Z AUTO 32004KT 10SM CLR 12/11 A2999 960 93 900 320/04 RMK AO2
14926KSTC STC20010828050509708/28/01 05:05:31  5-MIN KSTC 281105Z AUTO 34003KT 10SM CLR 12/11 A2999 970 93 900 340/03 RMK AO2
14926KSTC STC20010828051009708/28/01 05:10:31  5-MIN KSTC 281110Z AUTO 34003KT 10SM CLR 12/11 A2999 970 96 800 340/03 RMK AO2
14926KSTC STC20010828051509708/28/01 05:15:31  5-MIN KSTC 281115Z AUTO 35003KT 10SM CLR 11/11 A2999 970 96 800 350/03 RMK AO2
14926KSTC STC20010828052009708/28/01 05:20:31  5-MIN KSTC 281120Z AUTO 36003KT 10SM CLR 12/11 A2999 960 93 800 360/03 RMK AO2
14926KSTC STC20010828052509808/28/01 05:25:31  5-MIN KSTC 281125Z AUTO 00000KT 10SM CLR 11/11 A2999 960 100 800 000/00 RMK AO2
14926KSTC STC20010828053009708/28/01 05:30:31  5-MIN KSTC 281130Z AUTO 35003KT 10SM CLR 12/11 A2999 960 96 800 350/03 RMK AO2
14926KSTC STC20010828053509708/28/01 05:35:31  5-MIN KSTC 281135Z AUTO 31003KT 10SM CLR 11/11 A2999 960 96 800 310/03 RMK AO2
14926KSTC STC20010828054009808/28/01 05:40:31  5-MIN KSTC 281140Z AUTO 32004KT 10SM CLR 11/11 A2999 960 100 700 310/04 RMK AO2
14926KSTC STC20010828054509808/28/01 05:45:31  5-MIN KSTC 281145Z AUTO 31003KT 10SM CLR 11/11 A3000 960 100 700 310/03 RMK AO2
14926KSTC STC20010828055013308/28/01 05:50:31  5-MIN KSTC 281150Z AUTO 31004KT 10SM CLR 11/11 A3000 960 100 800 310/04 RMK AO2 SLP163 T01110111 10144 20106 51009
14926KSTC STC20010828055509808/28/01 05:55:31  5-MIN KSTC 281155Z AUTO 31004KT 10SM CLR 11/11 A3000 960 100 800 310/04 RMK AO2
14926KSTC STC20010828060009708/28/01 06:00:31  5-MIN KSTC 281200Z AUTO 32004KT 10SM CLR 12/11 A3000 950 96 800 320/04 RMK AO2
14926KSTC STC20010828060509708/28/01 06:05:31  5-MIN KSTC 281205Z AUTO 32004KT 10SM CLR 12/11 A3000 950 96 800 320/04 RMK AO2
14926KSTC STC20010828061009708/28/01 06:10:31  5-MIN KSTC 281210Z AUTO 33004KT 10SM CLR 12/11 A3000 950 96 800 330/04 RMK AO2
14926KSTC STC20010828061509708/28/01 06:15:31  5-MIN KSTC 281215Z AUTO 33004KT 10SM CLR 12/12 A3000 950 96 900 330/04 RMK AO2
14926KSTC STC20010828062009708/28/01 06:20:31  5-MIN KSTC 281220Z AUTO 32005KT 10SM CLR 12/12 A3000 950 96 900 320/05 RMK AO2
14926KSTC STC20010828062509808/28/01 06:25:31  5-MIN KSTC 281225Z AUTO 32005KT 10SM CLR 13/12 A3000 950 93 1000 320/05 RMK AO2
14926KSTC STC20010828063009808/28/01 06:30:31  5-MIN KSTC 281230Z AUTO 32004KT 10SM CLR 13/12 A3000 950 93 1000 320/04 RMK AO2
14926KSTC STC20010828063509808/28/01 06:35:31  5-MIN KSTC 281235Z AUTO 34004KT 10SM CLR 13/12 A3000 950 93 1000 340/04 RMK AO2
14926KSTC STC20010828064009808/28/01 06:40:31  5-MIN KSTC 281240Z AUTO 34005KT 10SM CLR 13/12 A3000 950 93 1000 340/05 RMK AO2
14926KSTC STC20010828064509808/28/01 06:45:31  5-MIN KSTC 281245Z AUTO 34003KT 10SM CLR 14/12 A3000 950 90 1100 330/03 RMK AO2
14926KSTC STC20010828065011508/28/01 06:50:31  5-MIN KSTC 281250Z AUTO 34003KT 10SM CLR 14/13 A3001 950 93 1100 330/03 RMK AO2 SLP167 T01390128
14926KSTC STC20010828065509808/28/01 06:55:31  5-MIN KSTC 281255Z AUTO 00000KT 10SM CLR 14/13 A3001 950 90 1100 000/00 RMK AO2
14926KSTC STC20010828070009808/28/01 07:00:31  5-MIN KSTC 281300Z AUTO 00000KT 10SM CLR 15/13 A3001 940 86 1200 000/00 RMK AO2
14926KSTC STC20010828070509808/28/01 07:05:31  5-MIN KSTC 281305Z AUTO 32004KT 10SM CLR 15/13 A3001 940 90 1200 310/04 RMK AO2
14926KSTC STC20010828071009808/28/01 07:10:31  5-MIN KSTC 281310Z AUTO 33004KT 10SM CLR 15/13 A3001 940 86 1200 320/04 RMK AO2
14926KSTC STC20010828071509808/28/01 07:15:31  5-MIN KSTC 281315Z AUTO 32005KT 10SM CLR 16/13 A3001 940 86 1300 320/05 RMK AO2
14926KSTC STC20010828072009808/28/01 07:20:31  5-MIN KSTC 281320Z AUTO 32003KT 10SM CLR 16/13 A3001 940 86 1300 320/03 RMK AO2
14926KSTC STC20010828072509808/28/01 07:25:31  5-MIN KSTC 281325Z AUTO VRB03KT 10SM CLR 16/13 A3001 940 83 1300 VRB/03 RMK AO2
14926KSTC STC20010828073009808/28/01 07:30:31  5-MIN KSTC 281330Z AUTO 32004KT 10SM CLR 16/13 A3001 940 83 1300 320/04 RMK AO2
14926KSTC STC20010828073509808/28/01 07:35:31  5-MIN KSTC 281335Z AUTO 31004KT 10SM CLR 17/13 A3001 940 80 1400 310/04 RMK AO2
14926KSTC STC20010828074009808/28/01 07:40:31  5-MIN KSTC 281340Z AUTO 30004KT 10SM CLR 17/13 A3001 940 80 1400 300/04 RMK AO2
14926KSTC STC20010828074509808/28/01 07:45:31  5-MIN KSTC 281345Z AUTO 32003KT 10SM CLR 17/13 A3002 940 80 1400 310/03 RMK AO2
14926KSTC STC20010828075011508/28/01 07:50:31  5-MIN KSTC 281350Z AUTO 32003KT 10SM CLR 17/14 A3002 940 80 1500 310/03 RMK AO2 SLP171 T01720139
14926KSTC STC20010828075509808/28/01 07:55:31  5-MIN KSTC 281355Z AUTO 32004KT 10SM CLR 17/14 A3002 940 80 1500 310/04 RMK AO2
14926KSTC STC20010828080009808/28/01 08:00:31  5-MIN KSTC 281400Z AUTO VRB03KT 10SM CLR 18/14 A3002 940 78 1500 VRB/03 RMK AO2
14926KSTC STC20010828080509808/28/01 08:05:31  5-MIN KSTC 281405Z AUTO 33003KT 10SM CLR 18/14 A3002 930 75 1600 320/03 RMK AO2
14926KSTC STC20010828081009808/28/01 08:10:31  5-MIN KSTC 281410Z AUTO 30005KT 10SM CLR 18/14 A3002 930 75 1600 290/05 RMK AO2
14926KSTC STC20010828081509808/28/01 08:15:31  5-MIN KSTC 281415Z AUTO 32005KT 10SM CLR 18/14 A3002 930 75 1600 320/05 RMK AO2
14926KSTC STC20010828082009808/28/01 08:20:31  5-MIN KSTC 281420Z AUTO 33004KT 10SM CLR 19/14 A3002 930 75 1600 330/04 RMK AO2
14926KSTC STC20010828082509808/28/01 08:25:31  5-MIN KSTC 281425Z AUTO VRB05KT 10SM CLR 19/14 A3002 930 72 1700 VRB/05 RMK AO2
14926KSTC STC20010828083009808/28/01 08:30:31  5-MIN KSTC 281430Z AUTO 32004KT 10SM CLR 19/14 A3002 930 72 1700 320/04 RMK AO2
14926KSTC STC20010828083509808/28/01 08:35:31  5-MIN KSTC 281435Z AUTO 36005KT 10SM CLR 20/14 A3002 930 70 1800 360/05 RMK AO2
14926KSTC STC20010828084009808/28/01 08:40:31  5-MIN KSTC 281440Z AUTO 01005KT 10SM CLR 21/14 A3002 930 67 1800 360/05 RMK AO2
14926KSTC STC20010828084509808/28/01 08:45:31  5-MIN KSTC 281445Z AUTO 36004KT 10SM CLR 21/14 A3002 930 67 1800 350/04 RMK AO2
14926KSTC STC20010828085012108/28/01 08:50:31  5-MIN KSTC 281450Z AUTO 01004KT 10SM CLR 21/14 A3002 930 65 1900 010/04 RMK AO2 SLP172 T02110144 53005
14926KSTC STC20010828085509808/28/01 08:55:31  5-MIN KSTC 281455Z AUTO 01003KT 10SM CLR 21/14 A3003 930 65 1900 010/03 RMK AO2
14926KSTC STC20010828090009808/28/01 09:00:31  5-MIN KSTC 281500Z AUTO VRB03KT 10SM CLR 21/14 A3003 930 65 1900 VRB/03 RMK AO2
14926KSTC STC20010828090509808/28/01 09:05:31  5-MIN KSTC 281505Z AUTO 00000KT 10SM CLR 22/14 A3002 930 63 2000 000/00 RMK AO2
14926KSTC STC20010828091009808/28/01 09:10:31  5-MIN KSTC 281510Z AUTO VRB03KT 10SM CLR 22/14 A3003 930 61 2000 VRB/03 RMK AO2
14926KSTC STC20010828091509808/28/01 09:15:31  5-MIN KSTC 281515Z AUTO 00000KT 10SM CLR 23/14 A3003 930 59 2100 000/00 RMK AO2
14926KSTC STC20010828092009808/28/01 09:20:31  5-MIN KSTC 281520Z AUTO VRB04KT 10SM CLR 23/14 A3003 930 57 2100 VRB/04 RMK AO2
14926KSTC STC20010828144009808/28/01 14:40:31  5-MIN KSTC 282040Z AUTO 00000KT 10SM CLR 28/08 A2998 970 29 2700 000/00 RMK AO2
14926KSTC STC20010828144509808/28/01 14:45:31  5-MIN KSTC 282045Z AUTO 35006KT 10SM CLR 28/08 A2998 970 28 2800 350/06 RMK AO2
14926KSTC STC20010828145012108/28/01 14:50:31  5-MIN KSTC 282050Z AUTO VRB04KT 10SM CLR 28/08 A2998 970 28 2800 VRB/04 RMK AO2 SLP157 T02830083 58005
14926KSTC STC20010828145509808/28/01 14:55:31  5-MIN KSTC 282055Z AUTO 34003KT 10SM CLR 28/08 A2998 970 28 2800 340/03 RMK AO2
14926KSTC STC20010828150009808/28/01 15:00:31  5-MIN KSTC 282100Z AUTO 02005KT 10SM CLR 28/09 A2998 970 30 2700 020/05 RMK AO2
14926KSTC STC20010828150509808/28/01 15:05:31  5-MIN KSTC 282105Z AUTO VRB03KT 10SM CLR 28/09 A2998 980 29 2800 VRB/03 RMK AO2
14926KSTC STC20010828151009808/28/01 15:10:31  5-MIN KSTC 282110Z AUTO 02007KT 10SM CLR 28/09 A2998 980 30 2700 020/07 RMK AO2
14926KSTC STC20010828151509808/28/01 15:15:31  5-MIN KSTC 282115Z AUTO VRB04KT 10SM CLR 28/09 A2998 970 30 2700 VRB/04 RMK AO2
14926KSTC STC20010828152009808/28/01 15:20:31  5-MIN KSTC 282120Z AUTO 07005KT 10SM CLR 28/09 A2997 980 31 2700 070/05 RMK AO2
14926KSTC STC20010828152509808/28/01 15:25:31  5-MIN KSTC 282125Z AUTO VRB05KT 10SM CLR 28/09 A2997 980 30 2800 VRB/05 RMK AO2
14926KSTC STC20010828153009808/28/01 15:30:31  5-MIN KSTC 282130Z AUTO 00000KT 10SM CLR 28/09 A2997 980 30 2700 000/00 RMK AO2
14926KSTC STC20010828153509808/28/01 15:35:31  5-MIN KSTC 282135Z AUTO VRB03KT 10SM CLR 28/09 A2997 980 29 2800 VRB/03 RMK AO2
14926KSTC STC20010828154009808/28/01 15:40:31  5-MIN KSTC 282140Z AUTO 31006KT 10SM CLR 28/09 A2997 980 29 2800 310/06 RMK AO2
14926KSTC STC20010828154509808/28/01 15:45:31  5-MIN KSTC 282145Z AUTO VRB05KT 10SM CLR 28/09 A2997 980 29 2800 VRB/05 RMK AO2
14926KSTC STC20010828155011508/28/01 15:50:31  5-MIN KSTC 282150Z AUTO 36006KT 10SM CLR 28/09 A2997 980 30 2800 360/06 RMK AO2 SLP153 T02830094
14926KSTC STC20010828155509808/28/01 15:55:31  5-MIN KSTC 282155Z AUTO 01006KT 10SM CLR 28/09 A2997 980 30 2800 010/06 RMK AO2
14926KSTC STC20010828160009808/28/01 16:00:31  5-MIN KSTC 282200Z AUTO 00000KT 10SM CLR 28/09 A2997 980 30 2800 000/00 RMK AO2
14926KSTC STC20010828160509808/28/01 16:05:31  5-MIN KSTC 282205Z AUTO 00000KT 10SM CLR 28/09 A2997 980 31 2700 000/00 RMK AO2
14926KSTC STC20010828161009808/28/01 16:10:31  5-MIN KSTC 282210Z AUTO VRB04KT 10SM CLR 28/09 A2997 980 30 2800 VRB/04 RMK AO2
14926KSTC STC20010828161509808/28/01 16:15:31  5-MIN KSTC 282215Z AUTO 00000KT 10SM CLR 28/09 A2997 980 30 2800 000/00 RMK AO2
14926KSTC STC20010828162009808/28/01 16:20:31  5-MIN KSTC 282220Z AUTO VRB03KT 10SM CLR 28/09 A2997 980 31 2700 VRB/03 RMK AO2
14926KSTC STC20010828162509808/28/01 16:25:31  5-MIN KSTC 282225Z AUTO 02003KT 10SM CLR 29/09 A2997 980 29 2800 020/03 RMK AO2
14926KSTC STC20010828163009808/28/01 16:30:31  5-MIN KSTC 282230Z AUTO 02004KT 10SM CLR 28/10 A2997 980 31 2800 020/04 RMK AO2
14926KSTC STC20010828163509808/28/01 16:35:31  5-MIN KSTC 282235Z AUTO VRB04KT 10SM CLR 28/09 A2997 980 30 2800 VRB/04 RMK AO2
14926KSTC STC20010828164009808/28/01 16:40:31  5-MIN KSTC 282240Z AUTO 14006KT 10SM CLR 28/09 A2997 980 31 2700 140/06 RMK AO2
14926KSTC STC20010828164509808/28/01 16:45:31  5-MIN KSTC 282245Z AUTO 15005KT 10SM CLR 27/09 A2997 980 32 2700 150/05 RMK AO2
14926KSTC STC20010828165011508/28/01 16:50:31  5-MIN KSTC 282250Z AUTO 10005KT 10SM CLR 28/09 A2997 980 31 2700 100/05 RMK AO2 SLP152 T02780094
14926KSTC STC20010828165509808/28/01 16:55:31  5-MIN KSTC 282255Z AUTO 07006KT 10SM CLR 28/10 A2997 980 32 2700 070/06 RMK AO2
14926KSTC STC20010828170009808/28/01 17:00:31  5-MIN KSTC 282300Z AUTO 07004KT 10SM CLR 28/10 A2997 980 32 2700 070/04 RMK AO2
14926KSTC STC20010828170509808/28/01 17:05:31  5-MIN KSTC 282305Z AUTO 10004KT 10SM CLR 28/10 A2997 980 32 2700 100/04 RMK AO2
14926KSTC STC20010828171009808/28/01 17:10:31  5-MIN KSTC 282310Z AUTO 11004KT 10SM CLR 27/09 A2996 990 32 2700 110/04 RMK AO2
14926KSTC STC20010828171509808/28/01 17:15:31  5-MIN KSTC 282315Z AUTO 10004KT 10SM CLR 27/10 A2997 980 33 2700 100/04 RMK AO2
14926KSTC STC20010828172009808/28/01 17:20:31  5-MIN KSTC 282320Z AUTO VRB03KT 10SM CLR 27/10 A2997 980 33 2700 VRB/03 RMK AO2
14926KSTC STC20010828172509808/28/01 17:25:31  5-MIN KSTC 282325Z AUTO 11004KT 10SM CLR 27/10 A2997 980 33 2700 110/04 RMK AO2
14926KSTC STC20010828173009808/28/01 17:30:31  5-MIN KSTC 282330Z AUTO 11003KT 10SM CLR 27/10 A2997 980 33 2700 110/03 RMK AO2
14926KSTC STC20010828173509808/28/01 17:35:31  5-MIN KSTC 282335Z AUTO 09003KT 10SM CLR 28/10 A2997 980 32 2700 090/03 RMK AO2
14926KSTC STC20010828174009808/28/01 17:40:31  5-MIN KSTC 282340Z AUTO 08004KT 10SM CLR 27/11 A2997 980 34 2700 080/04 RMK AO2
14926KSTC STC20010828174509808/28/01 17:45:31  5-MIN KSTC 282345Z AUTO 10003KT 10SM CLR 27/11 A2996 990 36 2700 100/03 RMK AO2
14926KSTC STC20010828175013308/28/01 17:50:31  5-MIN KSTC 282350Z AUTO 13005KT 10SM CLR 27/11 A2996 990 36 2600 120/05 RMK AO2 SLP153 T02670106 10289 20261 56010
14926KSTC STC20010828175509808/28/01 17:55:31  5-MIN KSTC 282355Z AUTO 13004KT 10SM CLR 27/11 A2996 990 37 2600 120/04 RMK AO2
14926KSTC STC20010828180009808/28/01 18:00:31  5-MIN KSTC 290000Z AUTO 10003KT 10SM CLR 27/11 A2996 990 36 2600 100/03 RMK AO2
14926KSTC STC20010828180509808/28/01 18:05:31  5-MIN KSTC 290005Z AUTO 09003KT 10SM CLR 27/11 A2996 990 37 2600 080/03 RMK AO2
14926KSTC STC20010828181009708/28/01 18:10:31  5-MIN KSTC 290010Z AUTO 09004KT 7SM CLR 26/12 A2996 990 41 2500 080/04 RMK AO2
14926KSTC STC20010828181510008/28/01 18:15:31  5-MIN KSTC 290015Z AUTO 08003KT 6SM HZ CLR 26/13 A2996 990 46 2500 080/03 RMK AO2
14926KSTC STC20010828182009708/28/01 18:20:31  5-MIN KSTC 290020Z AUTO 07003KT 8SM CLR 24/14 A2996 990 53 2300 070/03 RMK AO2
14926KSTC STC20010828182509808/28/01 18:25:31  5-MIN KSTC 290025Z AUTO 07003KT 10SM CLR 24/14 A2996 990 53 2300 070/03 RMK AO2
14926KSTC STC20010828183009808/28/01 18:30:31  5-MIN KSTC 290030Z AUTO 00000KT 10SM CLR 24/14 A2996 990 53 2300 000/00 RMK AO2
14926KSTC STC20010828183509808/28/01 18:35:31  5-MIN KSTC 290035Z AUTO 00000KT 10SM CLR 24/14 A2996 990 51 2300 000/00 RMK AO2
14926KSTC STC20010828184009808/28/01 18:40:31  5-MIN KSTC 290040Z AUTO 08003KT 10SM CLR 24/15 A2996 990 57 2300 070/03 RMK AO2
14926KSTC STC20010828184509808/28/01 18:45:31  5-MIN KSTC 290045Z AUTO 09003KT 10SM CLR 23/15 A2996 990 61 2200 090/03 RMK AO2
14926KSTC STC20010828185011508/28/01 18:50:31  5-MIN KSTC 290050Z AUTO 10003KT 10SM CLR 23/14 A2996 990 57 2200 100/03 RMK AO2 SLP151 T02280139
14926KSTC STC20010828185509808/28/01 18:55:31  5-MIN KSTC 290055Z AUTO 11003KT 10SM CLR 22/16 A2996 990 68 2000 110/03 RMK AO2
14926KSTC STC20010828190009808/28/01 19:00:31  5-MIN KSTC 290100Z AUTO 00000KT 10SM CLR 21/16 A2996 990 70 2000 000/00 RMK AO2
14926KSTC STC20010828190509808/28/01 19:05:31  5-MIN KSTC 290105Z AUTO 00000KT 10SM CLR 21/16 A2996 990 73 1900 000/00 RMK AO2
14926KSTC STC20010828191009808/28/01 19:10:31  5-MIN KSTC 290110Z AUTO 00000KT 10SM CLR 21/15 A2996 990 68 2000 000/00 RMK AO2
14926KSTC STC20010828191509808/28/01 19:15:31  5-MIN KSTC 290115Z AUTO 00000KT 10SM CLR 21/16 A2996 990 73 1900 000/00 RMK AO2
14926KSTC STC20010828192009808/28/01 19:20:31  5-MIN KSTC 290120Z AUTO 10003KT 10SM CLR 19/16 A2996 990 81 1700 100/03 RMK AO2
14926KSTC STC20010828192509808/28/01 19:25:31  5-MIN KSTC 290125Z AUTO 11004KT 10SM CLR 19/15 A2996 990 75 1800 110/04 RMK AO2
14926KSTC STC20010828193009808/28/01 19:30:31  5-MIN KSTC 290130Z AUTO 11004KT 10SM CLR 19/15 A2996 990 78 1700 110/04 RMK AO2
14926KSTC STC20010828193509708/28/01 19:35:31  5-MIN KSTC 290135Z AUTO 14003KT 9SM CLR 18/15 A2996 990 81 1600 140/03 RMK AO2
14926KSTC STC20010828194009708/28/01 19:40:31  5-MIN KSTC 290140Z AUTO 15003KT 9SM CLR 19/14 A2997 980 72 1800 140/03 RMK AO2
14926KSTC STC20010828194509808/28/01 19:45:31  5-MIN KSTC 290145Z AUTO 16003KT 10SM CLR 19/15 A2997 980 78 1700 160/03 RMK AO2
14926KSTC STC20010828195011508/28/01 19:50:31  5-MIN KSTC 290150Z AUTO 16003KT 10SM CLR 19/15 A2997 980 78 1700 160/03 RMK AO2 SLP154 T01890150
14926KSTC STC20010828195509808/28/01 19:55:31  5-MIN KSTC 290155Z AUTO 15003KT 10SM CLR 19/14 A2997 980 72 1800 150/03 RMK AO2
14926KSTC STC20010828200009808/28/01 20:00:31  5-MIN KSTC 290200Z AUTO 15004KT 10SM CLR 19/14 A2997 980 75 1700 150/04 RMK AO2
14926KSTC STC20010828200509808/28/01 20:05:31  5-MIN KSTC 290205Z AUTO 15004KT 10SM CLR 19/14 A2997 980 75 1700 150/04 RMK AO2
14926KSTC STC20010828201009808/28/01 20:10:31  5-MIN KSTC 290210Z AUTO 16003KT 10SM CLR 18/15 A2997 980 81 1600 160/03 RMK AO2
14926KSTC STC20010828201509808/28/01 20:15:31  5-MIN KSTC 290215Z AUTO 17003KT 10SM CLR 18/15 A2997 980 83 1600 170/03 RMK AO2
14926KSTC STC20010828202009808/28/01 20:20:31  5-MIN KSTC 290220Z AUTO 00000KT 10SM CLR 18/15 A2997 980 81 1600 000/00 RMK AO2
14926KSTC STC20010828202509808/28/01 20:25:31  5-MIN KSTC 290225Z AUTO 00000KT 10SM CLR 18/15 A2997 980 81 1600 000/00 RMK AO2
14926KSTC STC20010828203009808/28/01 20:30:31  5-MIN KSTC 290230Z AUTO 00000KT 10SM CLR 18/15 A2997 980 81 1600 000/00 RMK AO2
14926KSTC STC20010828203509808/28/01 20:35:31  5-MIN KSTC 290235Z AUTO 00000KT 10SM CLR 18/15 A2997 980 83 1600 000/00 RMK AO2
14926KSTC STC20010828204009808/28/01 20:40:31  5-MIN KSTC 290240Z AUTO 00000KT 10SM CLR 17/15 A2997 980 87 1500 000/00 RMK AO2
14926KSTC STC20010828204509808/28/01 20:45:31  5-MIN KSTC 290245Z AUTO 00000KT 10SM CLR 17/14 A2997 980 83 1500 000/00 RMK AO2
14926KSTC STC20010828205012108/28/01 20:50:31  5-MIN KSTC 290250Z AUTO 00000KT 10SM CLR 17/14 A2997 980 83 1500 000/00 RMK AO2 SLP154 T01720144 56005
14926KSTC STC20010828205509808/28/01 20:55:31  5-MIN KSTC 290255Z AUTO 00000KT 10SM CLR 17/14 A2997 980 83 1500 000/00 RMK AO2
14926KSTC STC20010828210009808/28/01 21:00:31  5-MIN KSTC 290300Z AUTO 00000KT 10SM CLR 17/14 A2997 980 86 1400 000/00 RMK AO2
14926KSTC STC20010828210509808/28/01 21:05:31  5-MIN KSTC 290305Z AUTO 00000KT 10SM CLR 17/14 A2996 990 86 1400 000/00 RMK AO2
14926KSTC STC20010828211009808/28/01 21:10:31  5-MIN KSTC 290310Z AUTO 00000KT 10SM CLR 16/14 A2996 990 90 1400 000/00 RMK AO2
14926KSTC STC20010828211509808/28/01 21:15:31  5-MIN KSTC 290315Z AUTO 00000KT 10SM CLR 16/14 A2997 990 90 1400 000/00 RMK AO2
14926KSTC STC20010828212009808/28/01 21:20:31  5-MIN KSTC 290320Z AUTO 00000KT 10SM CLR 16/14 A2996 990 90 1400 000/00 RMK AO2
14926KSTC STC20010828212509808/28/01 21:25:31  5-MIN KSTC 290325Z AUTO 00000KT 10SM CLR 16/14 A2996 990 90 1400 000/00 RMK AO2
14926KSTC STC20010828213009808/28/01 21:30:31  5-MIN KSTC 290330Z AUTO 00000KT 10SM CLR 16/14 A2996 990 90 1400 000/00 RMK AO2
14926KSTC STC20010828213509808/28/01 21:35:31  5-MIN KSTC 290335Z AUTO 00000KT 10SM CLR 16/14 A2996 990 93 1300 000/00 RMK AO2
14926KSTC STC20010828214009808/28/01 21:40:31  5-MIN KSTC 290340Z AUTO 00000KT 10SM CLR 16/14 A2996 990 93 1300 000/00 RMK AO2
14926KSTC STC20010828214509808/28/01 21:45:31  5-MIN KSTC 290345Z AUTO 00000KT 10SM CLR 16/14 A2996 990 93 1300 000/00 RMK AO2
14926KSTC STC20010828215011508/28/01 21:50:31  5-MIN KSTC 290350Z AUTO 00000KT 10SM CLR 16/14 A2996 990 93 1300 000/00 RMK AO2 SLP151 T01560144
14926KSTC STC20010828215509808/28/01 21:55:31  5-MIN KSTC 290355Z AUTO 00000KT 10SM CLR 15/14 A2996 990 93 1300 000/00 RMK AO2
14926KSTC STC20010828220009808/28/01 22:00:31  5-MIN KSTC 290400Z AUTO 00000KT 10SM CLR 15/14 A2996 990 93 1300 000/00 RMK AO2
14926KSTC STC20010828220509808/28/01 22:05:31  5-MIN KSTC 290405Z AUTO 00000KT 10SM CLR 15/14 A2996 990 93 1300 000/00 RMK AO2
14926KSTC STC20010828221009808/28/01 22:10:31  5-MIN KSTC 290410Z AUTO 00000KT 10SM CLR 14/14 A2996 990 96 1200 000/00 RMK AO2
14926KSTC STC20010828221509808/28/01 22:15:31  5-MIN KSTC 290415Z AUTO 00000KT 10SM CLR 15/14 A2996 990 96 1300 000/00 RMK AO2
14926KSTC STC20010828222009808/28/01 22:20:31  5-MIN KSTC 290420Z AUTO 00000KT 10SM CLR 14/14 A2996 990 96 1200 000/00 RMK AO2
14926KSTC STC20010828222509808/28/01 22:25:31  5-MIN KSTC 290425Z AUTO 00000KT 10SM CLR 15/14 A2996 990 96 1300 000/00 RMK AO2
14926KSTC STC20010828223009908/28/01 22:30:31  5-MIN KSTC 290430Z AUTO 00000KT 10SM CLR 14/14 A2996 990 100 1200 000/00 RMK AO2
14926KSTC STC20010828223509908/28/01 22:35:31  5-MIN KSTC 290435Z AUTO 00000KT 10SM CLR 14/14 A2996 990 100 1100 000/00 RMK AO2
14926KSTC STC20010828224009808/28/01 22:40:31  5-MIN KSTC 290440Z AUTO 00000KT 10SM CLR 14/14 A2996 990 96 1200 000/00 RMK AO2
14926KSTC STC20010828224509808/28/01 22:45:31  5-MIN KSTC 290445Z AUTO 00000KT 10SM CLR 14/14 A2996 990 96 1200 000/00 RMK AO2
14926KSTC STC20010828225011508/28/01 22:50:31  5-MIN KSTC 290450Z AUTO 00000KT 10SM CLR 14/14 A2996 990 96 1200 000/00 RMK AO2 SLP149 T01440139
14926KSTC STC20010828225509908/28/01 22:55:31  5-MIN KSTC 290455Z AUTO 00000KT 10SM CLR 14/14 A2996 990 100 1100 000/00 RMK AO2
14926KSTC STC20010828230009908/28/01 23:00:31  5-MIN KSTC 290500Z AUTO 00000KT 10SM CLR 14/14 A2997 980 100 1100 000/00 RMK AO2
14926KSTC STC20010828230509808/28/01 23:05:31  5-MIN KSTC 290505Z AUTO 00000KT 10SM CLR 14/14 A2997 980 96 1200 000/00 RMK AO2
14926KSTC STC20010828231009908/28/01 23:10:31  5-MIN KSTC 290510Z AUTO 00000KT 10SM CLR 14/14 A2996 990 100 1100 000/00 RMK AO2
14926KSTC STC20010828231509908/28/01 23:15:31  5-MIN KSTC 290515Z AUTO 00000KT 10SM CLR 14/14 A2997 980 100 1100 000/00 RMK AO2
14926KSTC STC20010828232009808/28/01 23:20:31  5-MIN KSTC 290520Z AUTO 00000KT 10SM CLR 14/13 A2997 980 96 1100 000/00 RMK AO2
14926KSTC STC20010828232509908/28/01 23:25:31  5-MIN KSTC 290525Z AUTO 00000KT 10SM CLR 14/14 A2997 980 100 1100 000/00 RMK AO2
14926KSTC STC20010828233009808/28/01 23:30:31  5-MIN KSTC 290530Z AUTO 00000KT 10SM CLR 14/13 A2997 980 96 1100 000/00 RMK AO2
14926KSTC STC20010828233509908/28/01 23:35:31  5-MIN KSTC 290535Z AUTO 00000KT 10SM CLR 13/13 A2997 980 100 1100 000/00 RMK AO2
14926KSTC STC20010828234009808/28/01 23:40:31  5-MIN KSTC 290540Z AUTO 00000KT 10SM CLR 14/13 A2997 980 96 1100 000/00 RMK AO2
14926KSTC STC20010828234509808/28/01 23:45:31  5-MIN KSTC 290545Z AUTO 00000KT 10SM CLR 14/13 A2997 980 96 1100 000/00 RMK AO2
14926KSTC STC20010828235014408/28/01 23:50:31  5-MIN KSTC 290550Z AUTO 00000KT 10SM CLR 13/13 A2997 980 100 1100 000/00 RMK AO2 SLP154 T01330133 10267 20133 402890106 53001
14926KSTC STC20010828235509908/28/01 23:55:31  5-MIN KSTC 290555Z AUTO 00000KT 10SM CLR 13/13 A2997 980 100 1100 000/00 RMK AO2
14926KSTC STC20010829000009908/29/01 00:00:31  5-MIN KSTC 290600Z AUTO 00000KT 10SM CLR 13/13 A2997 980 100 1100 000/00 RMK AO2
14926KSTC STC20010829000509908/29/01 00:05:31  5-MIN KSTC 290605Z AUTO 00000KT 10SM CLR 13/13 A2997 980 100 1100 000/00 RMK AO2
14926KSTC STC20010829001009808/29/01 00:10:31  5-MIN KSTC 290610Z AUTO 00000KT 10SM CLR 14/13 A2997 980 96 1100 000/00 RMK AO2
14926KSTC STC20010829001509908/29/01 00:15:31  5-MIN KSTC 290615Z AUTO 00000KT 10SM CLR 13/13 A2997 980 100 1100 000/00 RMK AO2
14926KSTC STC20010829002009908/29/01 00:20:31  5-MIN KSTC 290620Z AUTO 00000KT 10SM CLR 13/13 A2996 990 100 1100 000/00 RMK AO2
14926KSTC STC20010829002509908/29/01 00:25:31  5-MIN KSTC 290625Z AUTO 00000KT 10SM CLR 13/13 A2996 990 100 1100 000/00 RMK AO2
14926KSTC STC20010829003009908/29/01 00:30:31  5-MIN KSTC 290630Z AUTO 00000KT 10SM CLR 13/13 A2996 990 100 1100 000/00 RMK AO2
14926KSTC STC20010829003509808/29/01 00:35:31  5-MIN KSTC 290635Z AUTO 00000KT 10SM CLR 13/13 A2996 990 96 1100 000/00 RMK AO2
14926KSTC STC20010829004009808/29/01 00:40:31  5-MIN KSTC 290640Z AUTO 00000KT 10SM CLR 13/13 A2996 990 96 1100 000/00 RMK AO2
14926KSTC STC20010829004509908/29/01 00:45:31  5-MIN KSTC 290645Z AUTO 00000KT 10SM CLR 13/13 A2996 990 100 1000 000/00 RMK AO2
14926KSTC STC20010829005011608/29/01 00:50:31  5-MIN KSTC 290650Z AUTO 00000KT 10SM CLR 13/13 A2996 990 100 1000 000/00 RMK AO2 SLP150 T01280128
14926KSTC STC20010829005509908/29/01 00:55:31  5-MIN KSTC 290655Z AUTO 00000KT 10SM CLR 13/13 A2996 990 100 1000 000/00 RMK AO2
14926KSTC STC20010829010009808/29/01 01:00:31  5-MIN KSTC 290700Z AUTO 00000KT 10SM CLR 12/12 A2996 990 100 900 000/00 RMK AO2
14926KSTC STC20010829010509808/29/01 01:05:31  5-MIN KSTC 290705Z AUTO 10003KT 10SM CLR 12/12 A2995 990 100 900 100/03 RMK AO2
14926KSTC STC20010829011010008/29/01 01:10:31  5-MIN KSTC 290710Z AUTO 00000KT 10SM CLR 13/13 A2995 1000 100 1000 000/00 RMK AO2
14926KSTC STC20010829011509908/29/01 01:15:31  5-MIN KSTC 290715Z AUTO 10003KT 10SM CLR 13/12 A2995 1000 96 1000 100/03 RMK AO2
14926KSTC STC20010829012009908/29/01 01:20:31  5-MIN KSTC 290720Z AUTO 11003KT 10SM CLR 12/12 A2995 1000 100 900 110/03 RMK AO2
14926KSTC STC20010829012510008/29/01 01:25:31  5-MIN KSTC 290725Z AUTO 00000KT 10SM CLR 13/13 A2995 1000 100 1000 000/00 RMK AO2
14926KSTC STC20010829013010008/29/01 01:30:31  5-MIN KSTC 290730Z AUTO 00000KT 10SM CLR 13/13 A2995 1000 100 1000 000/00 RMK AO2
14926KSTC STC20010829013510008/29/01 01:35:31  5-MIN KSTC 290735Z AUTO 00000KT 10SM CLR 13/13 A2995 1000 100 1000 000/00 RMK AO2
14926KSTC STC20010829014009908/29/01 01:40:31  5-MIN KSTC 290740Z AUTO 00000KT 10SM CLR 13/12 A2995 1000 96 1000 000/00 RMK AO2
14926KSTC STC20010829014510008/29/01 01:45:31  5-MIN KSTC 290745Z AUTO 00000KT 10SM CLR 13/13 A2995 1000 100 1000 000/00 RMK AO2
14926KSTC STC20010829015011608/29/01 01:50:31  5-MIN KSTC 290750Z AUTO 00000KT 10SM CLR 13/12 A2994 1000 96 1000 000/00 RMK AO2 SLP144 T01280122
14926KSTC STC20010829015509908/29/01 01:55:31  5-MIN KSTC 290755Z AUTO 00000KT 10SM CLR 13/12 A2994 1010 96 1000 000/00 RMK AO2
14926KSTC STC20010829020010008/29/01 02:00:31  5-MIN KSTC 290800Z AUTO 11003KT 10SM CLR 12/12 A2994 1010 100 1000 110/03 RMK AO2
14926KSTC STC20010829020510008/29/01 02:05:31  5-MIN KSTC 290805Z AUTO 00000KT 10SM CLR 12/12 A2994 1010 100 1000 000/00 RMK AO2
14926KSTC STC20010829021010008/29/01 02:10:31  5-MIN KSTC 290810Z AUTO 10003KT 10SM CLR 12/12 A2994 1010 100 1000 100/03 RMK AO2
14926KSTC STC20010829021510008/29/01 02:15:31  5-MIN KSTC 290815Z AUTO 10003KT 10SM CLR 12/12 A2994 1010 100 1000 100/03 RMK AO2
14926KSTC STC20010829022009908/29/01 02:20:31  5-MIN KSTC 290820Z AUTO 10003KT 10SM CLR 13/12 A2994 1010 96 1000 100/03 RMK AO2
14926KSTC STC20010829022509908/29/01 02:25:31  5-MIN KSTC 290825Z AUTO 11003KT 10SM CLR 13/12 A2993 1010 96 1000 100/03 RMK AO2
14926KSTC STC20010829023010008/29/01 02:30:31  5-MIN KSTC 290830Z AUTO 00000KT 10SM CLR 13/13 A2993 1010 100 1000 000/00 RMK AO2
14926KSTC STC20010829023510008/29/01 02:35:31  5-MIN KSTC 290835Z AUTO 11003KT 10SM CLR 12/12 A2993 1020 100 1000 100/03 RMK AO2
14926KSTC STC20010829024010008/29/01 02:40:31  5-MIN KSTC 290840Z AUTO 11003KT 10SM CLR 12/12 A2993 1020 100 1000 110/03 RMK AO2
14926KSTC STC20010829024510008/29/01 02:45:31  5-MIN KSTC 290845Z AUTO 00000KT 10SM CLR 12/12 A2993 1020 100 1000 000/00 RMK AO2
14926KSTC STC20010829025012208/29/01 02:50:31  5-MIN KSTC 290850Z AUTO 00000KT 10SM CLR 12/12 A2993 1020 96 1000 000/00 RMK AO2 SLP140 T01220117 53000
14926KSTC STC20010829025510008/29/01 02:55:31  5-MIN KSTC 290855Z AUTO 00000KT 10SM CLR 12/12 A2993 1010 100 1000 000/00 RMK AO2
14926KSTC STC20010829030009908/29/01 03:00:31  5-MIN KSTC 290900Z AUTO 00000KT 10SM CLR 12/12 A2993 1010 96 1000 000/00 RMK AO2
14926KSTC STC20010829030510008/29/01 03:05:31  5-MIN KSTC 290905Z AUTO 00000KT 10SM CLR 12/12 A2994 1010 100 1000 000/00 RMK AO2
14926KSTC STC20010829031010008/29/01 03:10:31  5-MIN KSTC 290910Z AUTO 00000KT 10SM CLR 12/12 A2993 1010 100 1000 000/00 RMK AO2
14926KSTC STC20010829031510008/29/01 03:15:31  5-MIN KSTC 290915Z AUTO 00000KT 10SM CLR 12/12 A2993 1020 100 1000 000/00 RMK AO2
14926KSTC STC20010829032009908/29/01 03:20:31  5-MIN KSTC 290920Z AUTO 00000KT 10SM CLR 12/12 A2993 1020 100 900 000/00 RMK AO2
14926KSTC STC20010829032509908/29/01 03:25:31  5-MIN KSTC 290925Z AUTO 00000KT 10SM CLR 12/12 A2993 1020 100 900 000/00 RMK AO2
14926KSTC STC20010829033009908/29/01 03:30:31  5-MIN KSTC 290930Z AUTO 00000KT 10SM CLR 12/12 A2993 1020 100 900 000/00 RMK AO2
14926KSTC STC20010829033509908/29/01 03:35:31  5-MIN KSTC 290935Z AUTO 00000KT 10SM CLR 12/12 A2993 1020 100 900 000/00 RMK AO2
14926KSTC STC20010829034009908/29/01 03:40:31  5-MIN KSTC 290940Z AUTO 00000KT 10SM CLR 12/12 A2993 1020 100 900 000/00 RMK AO2
14926KSTC STC20010829034510008/29/01 03:45:31  5-MIN KSTC 290945Z AUTO 00000KT 10SM CLR 12/12 A2993 1020 100 1000 000/00 RMK AO2
14926KSTC STC20010829035011708/29/01 03:50:31  5-MIN KSTC 290950Z AUTO 00000KT 10SM CLR 12/12 A2992 1020 100 1000 000/00 RMK AO2 SLP137 T01220122
14926KSTC STC20010829035509908/29/01 03:55:31  5-MIN KSTC 290955Z AUTO 00000KT 10SM CLR 12/12 A2992 1030 100 900 000/00 RMK AO2
14926KSTC STC20010829040010008/29/01 04:00:31  5-MIN KSTC 291000Z AUTO 14003KT 10SM CLR 12/12 A2992 1030 100 1000 140/03 RMK AO2
14926KSTC STC20010829040510008/29/01 04:05:31  5-MIN KSTC 291005Z AUTO 13004KT 10SM CLR 12/12 A2992 1030 100 1000 130/04 RMK AO2
14926KSTC STC20010829041010008/29/01 04:10:31  5-MIN KSTC 291010Z AUTO 14003KT 10SM CLR 12/12 A2992 1030 100 1000 130/03 RMK AO2
14926KSTC STC20010829041509908/29/01 04:15:31  5-MIN KSTC 291015Z AUTO 00000KT 10SM CLR 12/12 A2992 1030 100 900 000/00 RMK AO2
14926KSTC STC20010829042010008/29/01 04:20:31  5-MIN KSTC 291020Z AUTO 13003KT 10SM CLR 12/12 A2992 1030 100 1000 130/03 RMK AO2
14926KSTC STC20010829042510008/29/01 04:25:31  5-MIN KSTC 291025Z AUTO 00000KT 10SM CLR 12/12 A2992 1030 100 1000 000/00 RMK AO2
14926KSTC STC20010829043009908/29/01 04:30:31  5-MIN KSTC 291030Z AUTO 00000KT 10SM CLR 12/12 A2991 1030 100 900 000/00 RMK AO2
14926KSTC STC20010829043509908/29/01 04:35:31  5-MIN KSTC 291035Z AUTO 00000KT 10SM CLR 12/12 A2992 1030 100 900 000/00 RMK AO2
14926KSTC STC20010829044009908/29/01 04:40:31  5-MIN KSTC 291040Z AUTO 00000KT 10SM CLR 12/12 A2992 1030 100 900 000/00 RMK AO2
14926KSTC STC20010829044509908/29/01 04:45:31  5-MIN KSTC 291045Z AUTO 14003KT 10SM CLR 12/12 A2992 1030 96 1000 130/03 RMK AO2
14926KSTC STC20010829045011608/29/01 04:50:31  5-MIN KSTC 291050Z AUTO 14004KT 10SM CLR 12/12 A2992 1030 100 900 140/04 RMK AO2 SLP136 T01170117
14926KSTC STC20010829045510008/29/01 04:55:31  5-MIN KSTC 291055Z AUTO 14004KT 10SM CLR 12/12 A2992 1030 100 1000 140/04 RMK AO2
14926KSTC STC20010829050009908/29/01 05:00:31  5-MIN KSTC 291100Z AUTO 14004KT 10SM CLR 12/12 A2992 1030 100 900 140/04 RMK AO2
14926KSTC STC20010829050509908/29/01 05:05:31  5-MIN KSTC 291105Z AUTO 14004KT 10SM CLR 12/12 A2991 1030 100 900 130/04 RMK AO2
14926KSTC STC20010829051010008/29/01 05:10:31  5-MIN KSTC 291110Z AUTO 14005KT 10SM CLR 12/12 A2991 1030 100 1000 140/05 RMK AO2
14926KSTC STC20010829051510008/29/01 05:15:31  5-MIN KSTC 291115Z AUTO 14005KT 10SM CLR 12/12 A2991 1030 100 1000 130/05 RMK AO2
14926KSTC STC20010829052010008/29/01 05:20:31  5-MIN KSTC 291120Z AUTO 14005KT 10SM CLR 12/12 A2991 1030 100 1000 130/05 RMK AO2
14926KSTC STC20010829052510008/29/01 05:25:31  5-MIN KSTC 291125Z AUTO 14005KT 10SM CLR 13/13 A2991 1040 100 1100 140/05 RMK AO2
14926KSTC STC20010829053009908/29/01 05:30:31  5-MIN KSTC 291130Z AUTO 14006KT 10SM CLR 13/13 A2991 1040 96 1100 140/06 RMK AO2
14926KSTC STC20010829053510008/29/01 05:35:31  5-MIN KSTC 291135Z AUTO 14006KT 10SM CLR 13/13 A2990 1040 100 1100 140/06 RMK AO2
14926KSTC STC20010829054009908/29/01 05:40:31  5-MIN KSTC 291140Z AUTO 14007KT 10SM CLR 14/13 A2990 1050 96 1200 130/07 RMK AO2
14926KSTC STC20010829054509908/29/01 05:45:31  5-MIN KSTC 291145Z AUTO 14007KT 10SM CLR 15/14 A2990 1050 93 1300 130/07 RMK AO2
14926KSTC STC20010829055013408/29/01 05:50:31  5-MIN KSTC 291150Z AUTO 14007KT 10SM CLR 16/14 A2990 1050 90 1400 140/07 RMK AO2 SLP129 T01560139 10156 20117 56012
14926KSTC STC20010829055509908/29/01 05:55:31  5-MIN KSTC 291155Z AUTO 15007KT 10SM CLR 15/14 A2990 1050 93 1300 140/07 RMK AO2
14926KSTC STC20010829060009908/29/01 06:00:31  5-MIN KSTC 291200Z AUTO 14005KT 10SM CLR 15/14 A2990 1050 93 1300 140/05 RMK AO2
14926KSTC STC20010829060509908/29/01 06:05:31  5-MIN KSTC 291205Z AUTO 14006KT 10SM CLR 14/14 A2990 1050 96 1300 140/06 RMK AO2
14926KSTC STC20010829061009908/29/01 06:10:31  5-MIN KSTC 291210Z AUTO 14006KT 10SM CLR 15/14 A2989 1050 93 1300 140/06 RMK AO2
14926KSTC STC20010829061509908/29/01 06:15:31  5-MIN KSTC 291215Z AUTO 14007KT 10SM CLR 16/14 A2989 1050 93 1400 130/07 RMK AO2
14926KSTC STC20010829062009908/29/01 06:20:31  5-MIN KSTC 291220Z AUTO 14005KT 10SM CLR 16/14 A2990 1050 90 1500 140/05 RMK AO2
14926KSTC STC20010829062509908/29/01 06:25:31  5-MIN KSTC 291225Z AUTO 15005KT 10SM CLR 16/15 A2990 1040 93 1500 150/05 RMK AO2
14926KSTC STC20010829063011008/29/01 06:30:31  5-MIN KSTC 291230Z AUTO 16005KT 10SM VCTS CLR 16/15 A2991 1040 93 1400 150/05 RMK AO2 TSB27
14926KSTC STC20010829063510808/29/01 06:35:31  5-MIN KSTC 291235Z AUTO 16006KT 10SM TS CLR 16/15 A2991 1030 93 1400 150/06 RMK AO2 TSB27
14926KSTC STC20010829064011508/29/01 06:40:31  5-MIN KSTC 291240Z AUTO 16005KT 10SM TS CLR 17/15 A2992 1030 90 1500 160/05 RMK AO2 TSB27 PRESRR
14926KSTC STC20010829064511808/29/01 06:45:31  5-MIN KSTC 291245Z AUTO 17004KT 10SM TS FEW085 17/16 A2993 1020 93 1500 160/04 RMK AO2 TSB27 PRESRR
14926KSTC STC20010829065013508/29/01 06:50:31  5-MIN KSTC 291250Z AUTO 18004KT 10SM TS SCT085 17/16 A2994 1010 90 1500 170/04 RMK AO2 TSB27 PRESRR SLP143 T01720156
14926KSTC STC20010829065511208/29/01 06:55:31  5-MIN KSTC 291255Z AUTO 21005KT 10SM TS BKN085 17/16 A2995 1000 90 1500 210/05 RMK AO2 PRESRR
14926KSTC STC20010829070011108/29/01 07:00:31  5-MIN KSTC 291300Z AUTO 24005KT 10SM TS BKN085 17/16 A2997 980 90 1500 230/05 RMK AO2 PRESRR
14926KSTC STC20010829070513208/29/01 07:05:31  5-MIN KSTC 291305Z AUTO 26008KT 8SM -TSRA FEW065 BKN090 17/16 A2999 960 90 1500 250/08 RMK AO2 RAB03 PRESRR P0001
14926KSTC STC20010829071013208/29/01 07:10:31  5-MIN KSTC 291310Z AUTO 27010KT 8SM -TSRA SCT065 OVC090 17/16 A3001 950 93 1500 270/10 RMK AO2 RAB03 PRESRR P0001
14926KSTC STC20010829071512608/29/01 07:15:31  5-MIN KSTC 291315Z AUTO 26007KT 10SM -TSRA SCT065 OVC090 17/16 A3000 950 93 1500 260/07 RMK AO2 RAB03 P0002
14926KSTC STC20010829072012608/29/01 07:20:31  5-MIN KSTC 291320Z AUTO 24008KT 10SM -TSRA SCT065 OVC095 17/16 A2999 960 93 1500 230/08 RMK AO2 RAB03 P0002
14926KSTC STC20010829072512608/29/01 07:25:31  5-MIN KSTC 291325Z AUTO 23010KT 10SM -TSRA FEW065 OVC095 17/16 A2998 970 93 1500 230/10 RMK AO2 RAB03 P0002
14926KSTC STC20010829073013908/29/01 07:30:31  5-MIN KSTC 291330Z AUTO 21010KT 7SM -TSRA FEW045 SCT065 OVC095 18/16 A2997 980 90 1600 210/10 RMK AO2 RAB03 PRESFR P0003
14926KSTC STC20010829073513508/29/01 07:35:31  5-MIN KSTC 291335Z AUTO 19008KT 6SM -TSRA BR FEW045 BKN065 OVC095 17/17 A2997 980 96 1500 190/08 RMK AO2 RAB03 P0004
14926KSTC STC20010829074013208/29/01 07:40:31  5-MIN KSTC 291340Z AUTO 18009KT 9SM -TSRA FEW046 SCT065 OVC100 17/17 A2997 980 96 1500 180/09 RMK AO2 RAB03 P0004
14926KSTC STC20010829074513308/29/01 07:45:31  5-MIN KSTC 291345Z AUTO 18010KT 10SM -TSRA FEW035 SCT065 OVC100 17/17 A2996 990 96 1500 180/10 RMK AO2 RAB03 P0004
14926KSTC STC20010829075015008/29/01 07:50:31  5-MIN KSTC 291350Z AUTO 19010KT 10SM -TSRA SCT035 SCT065 OVC095 18/17 A2996 990 96 1600 180/10 RMK AO2 RAB03 SLP153 P0004 T01780172
14926KSTC STC20010829075512608/29/01 07:55:31  5-MIN KSTC 291355Z AUTO 18012KT 7SM -TSRA BKN037 BKN065 OVC100 18/17 A2997 980 96 1600 180/12 RMK AO2 P0000
14926KSTC STC20010829080012108/29/01 08:00:31  5-MIN KSTC 291400Z AUTO 18012KT 4SM TSRA BR BKN031 OVC100 18/17 A2997 980 96 1600 170/12 RMK AO2 P0002
14926KSTC STC20010829080512208/29/01 08:05:31  5-MIN KSTC 291405Z AUTO 17011KT 3SM TSRA BR BKN026 OVC100 18/18 A2996 990 100 1600 170/11 RMK AO2 P0005
14926KSTC STC20010829081012208/29/01 08:10:31  5-MIN KSTC 291410Z AUTO 17013KT 4SM TSRA BR BKN028 OVC110 18/17 A2995 1000 96 1600 160/13 RMK AO2 P0007
14926KSTC STC20010829081512308/29/01 08:15:31  5-MIN KSTC 291415Z AUTO 16014KT 4SM TSRA BR OVC026 17/17 A2994 1010 100 1500 150/14 RMK AO2 PRESFR P0009
14926KSTC STC20010829082012308/29/01 08:20:31  5-MIN KSTC 291420Z AUTO 16013KT 5SM TSRA BR OVC028 17/17 A2993 1010 100 1500 160/13 RMK AO2 PRESFR P0010
14926KSTC STC20010829082511608/29/01 08:25:31  5-MIN KSTC 291425Z AUTO 17012KT 5SM TSRA BR OVC028 17/17 A2993 1020 100 1600 160/12 RMK AO2 P0012
14926KSTC STC20010829083011708/29/01 08:30:31  5-MIN KSTC 291430Z AUTO 17012KT 6SM -TSRA BR OVC028 17/17 A2993 1020 100 1600 170/12 RMK AO2 P0014
14926KSTC STC20010829083511408/29/01 08:35:31  5-MIN KSTC 291435Z AUTO 17011KT 7SM -TSRA OVC030 17/17 A2993 1020 100 1600 170/11 RMK AO2 P0015
14926KSTC STC20010829084011308/29/01 08:40:31  5-MIN KSTC 291440Z AUTO 16012KT 8SM -TSRA OVC030 18/17 A2992 1030 96 1600 160/12 RMK AO2 P0016
14926KSTC STC20010829084511408/29/01 08:45:31  5-MIN KSTC 291445Z AUTO 17014KT 10SM -TSRA OVC028 18/17 A2992 1030 96 1600 170/14 RMK AO2 P0016
14926KSTC STC20010829085014608/29/01 08:50:31  5-MIN KSTC 291450Z AUTO 16012KT 8SM -RA OVC028 18/17 A2992 1030 96 1600 160/12 RMK AO2 TSE46 SLP137 P0017 60022 T01780172 58011
14926KSTC STC20010829085511408/29/01 08:55:31  5-MIN KSTC 291455Z AUTO 16013KT 6SM RA BR OVC028 18/18 A2991 1040 100 1600 150/13 RMK AO2 P0001
14926KSTC STC20010829090011408/29/01 09:00:31  5-MIN KSTC 291500Z AUTO 16016KT 6SM -RA BR OVC028 18/17 A2991 1040 96 1600 160/16 RMK AO2 P0002
14926KSTC STC20010829090512908/29/01 09:05:31  5-MIN KSTC 291505Z AUTO 15013KT 8SM VCTS -RA OVC028 18/17 A2989 1050 96 1700 150/13 RMK AO2 TSB05 PRESFR P0003
14926KSTC STC20010829091012208/29/01 09:10:31  5-MIN KSTC 291510Z AUTO 11006KT 9SM VCTS -RA OVC028 18/17 A2989 1060 96 1700 110/06 RMK AO2 TSB05 P0004
14926KSTC STC20010829091512108/29/01 09:15:31  5-MIN KSTC 291515Z AUTO 14009KT 10SM -TSRA OVC028 18/18 A2989 1060 100 1700 130/09 RMK AO2 TSB05 P0004
14926KSTC STC20010829092012808/29/01 09:20:31  5-MIN KSTC 291520Z AUTO 16010KT 10SM -TSRA BKN028 OVC110 18/18 A2990 1040 100 1600 150/10 RMK AO2 TSB05 P0004
14926KSTC STC20010829092512808/29/01 09:25:31  5-MIN KSTC 291525Z AUTO 15007KT 10SM -TSRA BKN029 BKN110 18/18 A2991 1040 100 1600 150/07 RMK AO2 TSB05 P0005
14926KSTC STC20010829093012808/29/01 09:30:31  5-MIN KSTC 291530Z AUTO 14006KT 10SM -TSRA BKN029 OVC110 18/18 A2990 1040 100 1600 140/06 RMK AO2 TSB05 P0005
14926KSTC STC20010829093512908/29/01 09:35:31  5-MIN KSTC 291535Z AUTO 13004KT 10SM -RA BKN025 OVC110 18/18 A2990 1040 100 1600 130/04 RMK AO2 TSB05E34 P0005
14926KSTC STC20010829094012908/29/01 09:40:31  5-MIN KSTC 291540Z AUTO 11005KT 10SM -RA SCT027 BKN110 18/18 A2990 1050 100 1700 100/05 RMK AO2 TSB05E34 P0005
14926KSTC STC20010829094512908/29/01 09:45:31  5-MIN KSTC 291545Z AUTO 10006KT 10SM -RA FEW033 BKN110 18/18 A2990 1050 100 1700 090/06 RMK AO2 TSB05E34 P0005
14926KSTC STC20010829095015308/29/01 09:50:31  5-MIN KSTC 291550Z AUTO 13010KT 10SM -RA SCT043 BKN110 18/18 A2988 1060 100 1700 130/10 RMK AO2 TSB05E34 PRESFR SLP125 P0005 T01780178
14926KSTC STC20010829095512608/29/01 09:55:31  5-MIN KSTC 291555Z AUTO 08011KT 10SM -RA SCT044 BKN110 18/18 A2985 1090 96 1800 080/11 RMK AO2 PRESFR P0000
14926KSTC STC20010829100012608/29/01 10:00:31  5-MIN KSTC 291600Z AUTO 08010KT 10SM -RA BKN044 BKN110 18/18 A2984 1100 96 1800 080/10 RMK AO2 PRESFR P0001
14926KSTC STC20010829100512608/29/01 10:05:31  5-MIN KSTC 291605Z AUTO 09012KT 10SM -RA SCT050 BKN110 18/18 A2982 1120 96 1800 090/12 RMK AO2 PRESFR P0001
14926KSTC STC20010829101012808/29/01 10:10:31  5-MIN KSTC 291610Z AUTO 10014KT 10SM SCT055 BKN110 19/18 A2980 1140 93 1900 100/14 RMK AO2 RAE07 PRESFR P0001
14926KSTC STC20010829101512108/29/01 10:15:31  5-MIN KSTC 291615Z AUTO 14015KT 10SM FEW050 SCT110 18/18 A2983 1110 96 1800 130/15 RMK AO2 RAE07 P0001
14926KSTC STC20010829102013108/29/01 10:20:31  5-MIN KSTC 291620Z AUTO 20015G25KT 10SM FEW050 18/18 A2986 1080 96 1800 190/15G25 RMK AO2 WSHFT 1604 RAE07 P0001
14926KSTC STC20010829102514708/29/01 10:25:31  5-MIN KSTC 291625Z AUTO 17020G29KT 10SM -RA FEW050 18/18 A2985 1090 96 1800 160/20G29 RMK AO2 PK WND 18029/1622 WSHFT 1610 P0001
14926KSTC STC20010829103014908/29/01 10:30:31  5-MIN KSTC 291630Z AUTO 18017G29KT 10SM FEW060 18/18 A2986 1080 96 1800 180/17G29 RMK AO2 PK WND 18029/1622 WSHFT 1610 RAE28 P0001
14926KSTC STC20010829103514608/29/01 10:35:31  5-MIN KSTC 291635Z AUTO 17017G23KT 10SM CLR 18/18 A2986 1080 96 1800 170/17G23 RMK AO2 PK WND 18029/1622 WSHFT 1610 RAE28 P0001
14926KSTC STC20010829104014008/29/01 10:40:31  5-MIN KSTC 291640Z AUTO 18014KT 10SM CLR 18/18 A2986 1080 96 1800 180/14 RMK AO2 PK WND 18029/1622 WSHFT 1610 RAE28 P0001
14926KSTC STC20010829104514608/29/01 10:45:31  5-MIN KSTC 291645Z AUTO 18012G20KT 10SM CLR 18/18 A2986 1080 96 1800 170/12G20 RMK AO2 PK WND 18029/1622 WSHFT 1610 RAE28 P0001
14926KSTC STC20010829105016308/29/01 10:50:31  5-MIN KSTC 291650Z AUTO 18014G21KT 10SM CLR 19/18 A2986 1080 93 1800 180/14G21 RMK AO2 PK WND 18029/1622 WSHFT 1610 RAE28 SLP119 P0001 T01890178
14926KSTC STC20010829105510508/29/01 10:55:31  5-MIN KSTC 291655Z AUTO 17013G21KT 10SM CLR 19/18 A2986 1080 93 1800 170/13G21 RMK AO2
14926KSTC STC20010829110009908/29/01 11:00:31  5-MIN KSTC 291700Z AUTO 18014KT 10SM CLR 19/18 A2986 1080 93 1800 180/14 RMK AO2
14926KSTC STC20010829110509908/29/01 11:05:31  5-MIN KSTC 291705Z AUTO 17015KT 10SM CLR 19/18 A2985 1090 90 1900 170/15 RMK AO2
14926KSTC STC20010829111010508/29/01 11:10:31  5-MIN KSTC 291710Z AUTO 16015G20KT 10SM CLR 20/18 A2985 1090 87 2000 160/15G20 RMK AO2
14926KSTC STC20010829111510508/29/01 11:15:31  5-MIN KSTC 291715Z AUTO 16013G20KT 10SM CLR 20/18 A2984 1100 87 2000 160/13G20 RMK AO2
14926KSTC STC20010829112010508/29/01 11:20:31  5-MIN KSTC 291720Z AUTO 17014G20KT 10SM CLR 20/18 A2984 1100 87 2000 170/14G20 RMK AO2
14926KSTC STC20010829112510508/29/01 11:25:31  5-MIN KSTC 291725Z AUTO 17014G20KT 10SM CLR 21/18 A2983 1110 84 2000 160/14G20 RMK AO2
14926KSTC STC20010829113010608/29/01 11:30:31  5-MIN KSTC 291730Z AUTO 17013KT 10SM CLR 21/18 A2983 1110 81 2100 160/13 RMK AO2 PRESFR
14926KSTC STC20010829113509908/29/01 11:35:31  5-MIN KSTC 291735Z AUTO 17012KT 10SM CLR 21/18 A2982 1120 84 2100 170/12 RMK AO2
14926KSTC STC20010829114009908/29/01 11:40:31  5-MIN KSTC 291740Z AUTO 17013KT 10SM CLR 22/18 A2982 1120 81 2200 170/13 RMK AO2
14926KSTC STC20010829114509908/29/01 11:45:31  5-MIN KSTC 291745Z AUTO 17012KT 10SM CLR 22/18 A2982 1120 81 2200 170/12 RMK AO2
14926KSTC STC20010829115014008/29/01 11:50:31  5-MIN KSTC 291750Z AUTO 17012KT 10SM CLR 22/18 A2981 1120 81 2200 170/12 RMK AO2 SLP103 60029 T02170183 10217 20144 50005
14926KSTC STC20010829115510508/29/01 11:55:31  5-MIN KSTC 291755Z AUTO 17016G21KT 10SM CLR 22/18 A2981 1130 78 2300 170/16G21 RMK AO2
14926KSTC STC20010829120010508/29/01 12:00:31  5-MIN KSTC 291800Z AUTO 18015G21KT 10SM CLR 22/18 A2981 1130 78 2300 170/15G21 RMK AO2
14926KSTC STC20010829120510508/29/01 12:05:31  5-MIN KSTC 291805Z AUTO 18015G19KT 10SM CLR 22/18 A2982 1120 78 2300 170/15G19 RMK AO2
14926KSTC STC20010829121010508/29/01 12:10:31  5-MIN KSTC 291810Z AUTO 18014G19KT 10SM CLR 22/18 A2982 1120 78 2300 180/14G19 RMK AO2
14926KSTC STC20010829121510508/29/01 12:15:31  5-MIN KSTC 291815Z AUTO 18015G22KT 10SM CLR 23/18 A2981 1120 76 2300 180/15G22 RMK AO2
14926KSTC STC20010829122010508/29/01 12:20:31  5-MIN KSTC 291820Z AUTO 19015G22KT 10SM CLR 23/19 A2981 1130 76 2400 180/15G22 RMK AO2
14926KSTC STC20010829122510508/29/01 12:25:31  5-MIN KSTC 291825Z AUTO 18017G24KT 10SM CLR 24/19 A2981 1130 73 2500 180/17G24 RMK AO2
14926KSTC STC20010829123010508/29/01 12:30:31  5-MIN KSTC 291830Z AUTO 19019G25KT 10SM CLR 24/19 A2981 1130 71 2500 180/19G25 RMK AO2
14926KSTC STC20010829123510508/29/01 12:35:31  5-MIN KSTC 291835Z AUTO 19018G25KT 10SM CLR 25/19 A2981 1130 68 2600 190/18G25 RMK AO2
14926KSTC STC20010829124010508/29/01 12:40:31  5-MIN KSTC 291840Z AUTO 18019G24KT 10SM CLR 26/19 A2981 1130 66 2600 170/19G24 RMK AO2
14926KSTC STC20010829124510508/29/01 12:45:31  5-MIN KSTC 291845Z AUTO 18020G25KT 10SM CLR 25/18 A2981 1130 66 2600 180/20G25 RMK AO2
14926KSTC STC20010829125012208/29/01 12:50:31  5-MIN KSTC 291850Z AUTO 18014G25KT 10SM CLR 25/18 A2981 1130 66 2600 180/14G25 RMK AO2 SLP100 T02500183
14926KSTC STC20010829125510508/29/01 12:55:31  5-MIN KSTC 291855Z AUTO 18017G25KT 10SM CLR 25/18 A2981 1130 66 2600 180/17G25 RMK AO2
14926KSTC STC20010829130010508/29/01 13:00:31  5-MIN KSTC 291900Z AUTO 18019G25KT 10SM CLR 25/18 A2982 1120 66 2600 180/19G25 RMK AO2
14926KSTC STC20010829130512308/29/01 13:05:31  5-MIN KSTC 291905Z AUTO 17019G26KT 10SM CLR 24/18 A2981 1120 68 2500 170/19G26 RMK AO2 PK WND 17026/1905
14926KSTC STC20010829131012308/29/01 13:10:31  5-MIN KSTC 291910Z AUTO 17020G26KT 10SM CLR 24/18 A2981 1130 68 2500 170/20G26 RMK AO2 PK WND 17026/1905
14926KSTC STC20010829131512308/29/01 13:15:31  5-MIN KSTC 291915Z AUTO 18018G24KT 10SM CLR 24/18 A2981 1130 68 2500 170/18G24 RMK AO2 PK WND 17026/1905
14926KSTC STC20010829132012308/29/01 13:20:31  5-MIN KSTC 291920Z AUTO 18016G24KT 10SM CLR 24/18 A2981 1130 68 2500 180/16G24 RMK AO2 PK WND 17026/1905
14926KSTC STC20010829132512308/29/01 13:25:31  5-MIN KSTC 291925Z AUTO 17014G20KT 10SM CLR 24/18 A2981 1130 68 2500 170/14G20 RMK AO2 PK WND 17026/1905
14926KSTC STC20010829133012308/29/01 13:30:31  5-MIN KSTC 291930Z AUTO 17016G20KT 10SM CLR 24/18 A2981 1130 68 2500 170/16G20 RMK AO2 PK WND 17026/1905
14926KSTC STC20010829133512308/29/01 13:35:31  5-MIN KSTC 291935Z AUTO 18015G23KT 10SM CLR 25/18 A2980 1140 66 2600 180/15G23 RMK AO2 PK WND 17026/1905
14926KSTC STC20010829134012308/29/01 13:40:31  5-MIN KSTC 291940Z AUTO 18014G23KT 10SM CLR 25/18 A2980 1140 66 2600 180/14G23 RMK AO2 PK WND 17026/1905
14926KSTC STC20010829134512308/29/01 13:45:31  5-MIN KSTC 291945Z AUTO 17015G21KT 10SM CLR 24/18 A2980 1140 68 2500 170/15G21 RMK AO2 PK WND 17026/1905
14926KSTC STC20010829135014008/29/01 13:50:31  5-MIN KSTC 291950Z AUTO 17014G23KT 10SM CLR 24/18 A2980 1140 68 2500 170/14G23 RMK AO2 PK WND 17026/1905 SLP096 T02440183
14926KSTC STC20010829135510508/29/01 13:55:31  5-MIN KSTC 291955Z AUTO 18016G23KT 10SM CLR 24/18 A2979 1140 68 2500 170/16G23 RMK AO2
14926KSTC STC20010829140010508/29/01 14:00:31  5-MIN KSTC 292000Z AUTO 17017G22KT 10SM CLR 25/18 A2979 1150 66 2600 170/17G22 RMK AO2
14926KSTC STC20010829140510508/29/01 14:05:31  5-MIN KSTC 292005Z AUTO 17017G23KT 10SM CLR 26/18 A2979 1150 64 2700 170/17G23 RMK AO2
14926KSTC STC20010829141010508/29/01 14:10:31  5-MIN KSTC 292010Z AUTO 17019G23KT 10SM CLR 26/18 A2978 1150 64 2700 160/19G23 RMK AO2
14926KSTC STC20010829141510508/29/01 14:15:31  5-MIN KSTC 292015Z AUTO 18016G23KT 10SM CLR 26/19 A2978 1150 66 2700 180/16G23 RMK AO2
14926KSTC STC20010829142010508/29/01 14:20:31  5-MIN KSTC 292020Z AUTO 18017G23KT 10SM CLR 26/18 A2978 1160 64 2700 180/17G23 RMK AO2
14926KSTC STC20010829142510508/29/01 14:25:31  5-MIN KSTC 292025Z AUTO 18015G23KT 10SM CLR 26/19 A2978 1150 66 2700 170/15G23 RMK AO2
14926KSTC STC20010829143010508/29/01 14:30:31  5-MIN KSTC 292030Z AUTO 17016G22KT 10SM CLR 26/19 A2978 1160 64 2700 170/16G22 RMK AO2
14926KSTC STC20010829143510508/29/01 14:35:31  5-MIN KSTC 292035Z AUTO 17018G22KT 10SM CLR 26/19 A2978 1160 64 2700 170/18G22 RMK AO2
14926KSTC STC20010829144010508/29/01 14:40:31  5-MIN KSTC 292040Z AUTO 18016G23KT 10SM CLR 26/19 A2978 1160 66 2700 170/16G23 RMK AO2
14926KSTC STC20010829144510508/29/01 14:45:31  5-MIN KSTC 292045Z AUTO 18018G23KT 10SM CLR 26/19 A2977 1160 66 2700 170/18G23 RMK AO2
14926KSTC STC20010829145012808/29/01 14:50:31  5-MIN KSTC 292050Z AUTO 18019G25KT 10SM CLR 26/19 A2977 1170 66 2700 180/19G25 RMK AO2 SLP086 T02560189 56034
14926KSTC STC20010829145510508/29/01 14:55:31  5-MIN KSTC 292055Z AUTO 16017G25KT 10SM CLR 26/19 A2977 1170 66 2700 160/17G25 RMK AO2
14926KSTC STC20010829150010508/29/01 15:00:31  5-MIN KSTC 292100Z AUTO 17016G23KT 10SM CLR 26/19 A2976 1170 66 2700 170/16G23 RMK AO2
14926KSTC STC20010829150510508/29/01 15:05:31  5-MIN KSTC 292105Z AUTO 18015G20KT 10SM CLR 26/19 A2976 1170 66 2700 170/15G20 RMK AO2
14926KSTC STC20010829151009908/29/01 15:10:31  5-MIN KSTC 292110Z AUTO 17014KT 10SM CLR 26/19 A2976 1180 66 2800 160/14 RMK AO2
14926KSTC STC20010829151509908/29/01 15:15:31  5-MIN KSTC 292115Z AUTO 16013KT 10SM CLR 26/19 A2975 1180 68 2700 160/13 RMK AO2
14926KSTC STC20010829152009908/29/01 15:20:31  5-MIN KSTC 292120Z AUTO 17016KT 10SM CLR 26/19 A2975 1180 66 2800 160/16 RMK AO2
14926KSTC STC20010829152509908/29/01 15:25:31  5-MIN KSTC 292125Z AUTO 17017KT 10SM CLR 26/19 A2975 1190 68 2700 160/17 RMK AO2
14926KSTC STC20010829153009908/29/01 15:30:31  5-MIN KSTC 292130Z AUTO 17013KT 10SM CLR 26/19 A2975 1190 68 2700 160/13 RMK AO2
14926KSTC STC20010829153510508/29/01 15:35:31  5-MIN KSTC 292135Z AUTO 17016G23KT 10SM CLR 25/19 A2975 1190 68 2700 170/16G23 RMK AO2
14926KSTC STC20010829154010508/29/01 15:40:31  5-MIN KSTC 292140Z AUTO 17015G23KT 10SM CLR 26/19 A2974 1190 66 2700 170/15G23 RMK AO2
14926KSTC STC20010829154510508/29/01 15:45:31  5-MIN KSTC 292145Z AUTO 18019G23KT 10SM CLR 26/19 A2974 1190 64 2800 170/19G23 RMK AO2
14926KSTC STC20010829155012208/29/01 15:50:31  5-MIN KSTC 292150Z AUTO 17016G23KT 10SM CLR 26/19 A2974 1190 64 2800 170/16G23 RMK AO2 SLP077 T02610189
14926KSTC STC20010829155510508/29/01 15:55:31  5-MIN KSTC 292155Z AUTO 18015G23KT 10SM CLR 26/19 A2975 1190 64 2800 170/15G23 RMK AO2
14926KSTC STC20010829160010508/29/01 16:00:31  5-MIN KSTC 292200Z AUTO 18015G20KT 10SM CLR 26/19 A2974 1190 64 2800 170/15G20 RMK AO2
14926KSTC STC20010829160509908/29/01 16:05:31  5-MIN KSTC 292205Z AUTO 17018KT 10SM CLR 26/19 A2974 1200 64 2800 170/18 RMK AO2
14926KSTC STC20010829161010508/29/01 16:10:31  5-MIN KSTC 292210Z AUTO 18015G22KT 10SM CLR 26/19 A2974 1200 64 2800 170/15G22 RMK AO2
14926KSTC STC20010829161510508/29/01 16:15:31  5-MIN KSTC 292215Z AUTO 18016G22KT 10SM CLR 26/19 A2974 1200 64 2800 180/16G22 RMK AO2
14926KSTC STC20010829162010508/29/01 16:20:31  5-MIN KSTC 292220Z AUTO 18015G22KT 10SM CLR 26/19 A2973 1200 64 2800 180/15G22 RMK AO2
14926KSTC STC20010829162510508/29/01 16:25:31  5-MIN KSTC 292225Z AUTO 17015G22KT 10SM CLR 26/19 A2973 1200 66 2800 160/15G22 RMK AO2
14926KSTC STC20010829163009908/29/01 16:30:31  5-MIN KSTC 292230Z AUTO 17015KT 10SM CLR 26/19 A2973 1200 66 2800 170/15 RMK AO2
14926KSTC STC20010829163509908/29/01 16:35:31  5-MIN KSTC 292235Z AUTO 18016KT 10SM CLR 26/19 A2973 1210 66 2800 180/16 RMK AO2
14926KSTC STC20010829164010508/29/01 16:40:31  5-MIN KSTC 292240Z AUTO 17012G18KT 10SM CLR 26/19 A2972 1210 66 2800 170/12G18 RMK AO2
14926KSTC STC20010829164510508/29/01 16:45:31  5-MIN KSTC 292245Z AUTO 17014G18KT 10SM CLR 26/19 A2972 1210 66 2800 160/14G18 RMK AO2
14926KSTC STC20010829165012208/29/01 16:50:31  5-MIN KSTC 292250Z AUTO 17011G19KT 10SM CLR 26/19 A2971 1220 66 2800 160/11G19 RMK AO2 SLP068 T02610194
14926KSTC STC20010829165509908/29/01 16:55:31  5-MIN KSTC 292255Z AUTO 17014KT 10SM CLR 26/19 A2971 1220 66 2800 170/14 RMK AO2
14926KSTC STC20010829170010508/29/01 17:00:31  5-MIN KSTC 292300Z AUTO 17016G20KT 10SM CLR 26/19 A2971 1220 68 2800 160/16G20 RMK AO2
14926KSTC STC20010829170510508/29/01 17:05:31  5-MIN KSTC 292305Z AUTO 17013G20KT 10SM CLR 26/19 A2970 1230 68 2800 160/13G20 RMK AO2
14926KSTC STC20010829171010508/29/01 17:10:31  5-MIN KSTC 292310Z AUTO 17012G18KT 10SM CLR 26/19 A2970 1230 68 2800 160/12G18 RMK AO2
14926KSTC STC20010829171510508/29/01 17:15:31  5-MIN KSTC 292315Z AUTO 17014G19KT 10SM CLR 26/19 A2969 1240 68 2800 170/14G19 RMK AO2
14926KSTC STC20010829172011208/29/01 17:20:31  5-MIN KSTC 292320Z AUTO 17014G19KT 10SM CLR 26/20 A2968 1250 71 2800 160/14G19 RMK AO2 PRESFR
14926KSTC STC20010829172510608/29/01 17:25:31  5-MIN KSTC 292325Z AUTO 16014KT 10SM CLR 26/20 A2968 1250 71 2800 160/14 RMK AO2 PRESFR
14926KSTC STC20010829173010508/29/01 17:30:31  5-MIN KSTC 292330Z AUTO 17015G21KT 10SM CLR 26/20 A2968 1250 71 2800 160/15G21 RMK AO2
14926KSTC STC20010829173510508/29/01 17:35:31  5-MIN KSTC 292335Z AUTO 17014G21KT 10SM CLR 26/20 A2967 1260 71 2800 160/14G21 RMK AO2
14926KSTC STC20010829174011208/29/01 17:40:31  5-MIN KSTC 292340Z AUTO 16015G20KT 10SM CLR 25/19 A2966 1270 71 2800 160/15G20 RMK AO2 PRESFR
14926KSTC STC20010829174510508/29/01 17:45:31  5-MIN KSTC 292345Z AUTO 16012G20KT 10SM CLR 24/20 A2966 1270 76 2700 160/12G20 RMK AO2
14926KSTC STC20010829175013408/29/01 17:50:31  5-MIN KSTC 292350Z AUTO 16012KT 10SM CLR 24/20 A2966 1260 76 2700 160/12 RMK AO2 SLP049 T02440200 10261 20222 58015
14926KSTC STC20010829175509908/29/01 17:55:31  5-MIN KSTC 292355Z AUTO 16011KT 10SM CLR 24/20 A2967 1260 76 2700 160/11 RMK AO2
14926KSTC STC20010829180009908/29/01 18:00:31  5-MIN KSTC 300000Z AUTO 16011KT 10SM CLR 24/20 A2967 1250 76 2700 160/11 RMK AO2
14926KSTC STC20010829180509908/29/01 18:05:31  5-MIN KSTC 300005Z AUTO 16011KT 10SM CLR 24/20 A2968 1250 76 2700 160/11 RMK AO2
14926KSTC STC20010829181009908/29/01 18:10:31  5-MIN KSTC 300010Z AUTO 16010KT 10SM CLR 24/20 A2967 1250 76 2700 150/10 RMK AO2
14926KSTC STC20010829181509908/29/01 18:15:31  5-MIN KSTC 300015Z AUTO 15011KT 10SM CLR 24/20 A2967 1260 76 2700 150/11 RMK AO2
14926KSTC STC20010829182009908/29/01 18:20:31  5-MIN KSTC 300020Z AUTO 15010KT 10SM CLR 24/20 A2966 1270 78 2600 140/10 RMK AO2
14926KSTC STC20010829182510608/29/01 18:25:31  5-MIN KSTC 300025Z AUTO 15010KT 10SM CLR 24/20 A2965 1270 78 2600 140/10 RMK AO2 PRESFR
14926KSTC STC20010829183010608/29/01 18:30:31  5-MIN KSTC 300030Z AUTO 15011KT 10SM CLR 24/20 A2965 1280 78 2600 140/11 RMK AO2 PRESFR
14926KSTC STC20010829183509908/29/01 18:35:31  5-MIN KSTC 300035Z AUTO 15011KT 10SM CLR 24/20 A2965 1280 78 2600 150/11 RMK AO2
14926KSTC STC20010829184009908/29/01 18:40:31  5-MIN KSTC 300040Z AUTO 15010KT 10SM CLR 24/20 A2965 1280 78 2600 150/10 RMK AO2
14926KSTC STC20010829184509908/29/01 18:45:31  5-MIN KSTC 300045Z AUTO 15011KT 10SM CLR 24/20 A2965 1280 78 2600 150/11 RMK AO2
14926KSTC STC20010829185011608/29/01 18:50:31  5-MIN KSTC 300050Z AUTO 15009KT 10SM CLR 24/21 A2965 1280 81 2600 150/09 RMK AO2 SLP044 T02390206
14926KSTC STC20010829185509908/29/01 18:55:31  5-MIN KSTC 300055Z AUTO 15009KT 10SM CLR 24/21 A2965 1280 81 2600 150/09 RMK AO2
14926KSTC STC20010829190011308/29/01 19:00:31  5-MIN KSTC 300100Z AUTO 15009KT 10SM TS FEW080 24/21 A2965 1280 81 2600 150/09 RMK AO2 TSB0056
14926KSTC STC20010829190511308/29/01 19:05:31  5-MIN KSTC 300105Z AUTO 15008KT 10SM TS SCT085 24/21 A2965 1280 81 2600 150/08 RMK AO2 TSB0056
14926KSTC STC20010829191011308/29/01 19:10:31  5-MIN KSTC 300110Z AUTO 15008KT 10SM BKN085 24/21 A2965 1280 81 2600 150/08 RMK AO2 TSB0056E10
14926KSTC STC20010829191511308/29/01 19:15:31  5-MIN KSTC 300115Z AUTO 14009KT 10SM BKN090 24/21 A2965 1280 81 2600 140/09 RMK AO2 TSB0056E10
14926KSTC STC20010829192011308/29/01 19:20:31  5-MIN KSTC 300120Z AUTO 15007KT 10SM BKN085 24/21 A2964 1280 81 2600 150/07 RMK AO2 TSB0056E10
14926KSTC STC20010829192511308/29/01 19:25:31  5-MIN KSTC 300125Z AUTO 15008KT 10SM OVC085 24/21 A2964 1290 84 2600 150/08 RMK AO2 TSB0056E10
14926KSTC STC20010829193011308/29/01 19:30:31  5-MIN KSTC 300130Z AUTO 15008KT 10SM BKN085 24/21 A2964 1290 84 2600 140/08 RMK AO2 TSB0056E10
14926KSTC STC20010829193512108/29/01 19:35:31  5-MIN KSTC 300135Z AUTO 16009KT 10SM VCTS SCT090 24/21 A2964 1280 84 2600 150/09 RMK AO2 TSB0056E10B33
14926KSTC STC20010829194012108/29/01 19:40:31  5-MIN KSTC 300140Z AUTO 15009KT 10SM VCTS SCT090 24/21 A2964 1290 84 2600 150/09 RMK AO2 TSB0056E10B33
14926KSTC STC20010829194512808/29/01 19:45:31  5-MIN KSTC 300145Z AUTO 16005KT 10SM VCTS FEW085 24/21 A2966 1270 84 2600 150/05 RMK AO2 TSB0056E10B33 PRESRR
14926KSTC STC20010829195014508/29/01 19:50:31  5-MIN KSTC 300150Z AUTO VRB03KT 10SM VCTS FEW085 24/21 A2968 1250 81 2700 VRB/03 RMK AO2 TSB0056E10B33 PRESRR SLP054 T02440211
14926KSTC STC20010829195511508/29/01 19:55:31  5-MIN KSTC 300155Z AUTO 36015G18KT 10SM FEW029 SCT080 23/21 A2968 1250 84 2500 360/15G18 RMK AO2
14926KSTC STC20010829200012208/29/01 20:00:31  5-MIN KSTC 300200Z AUTO 03011G18KT 10SM SCT021 SCT028 BKN080 20/17 A2968 1250 81 2200 030/11G18 RMK AO2
14926KSTC STC20010829200511608/29/01 20:05:31  5-MIN KSTC 300205Z AUTO 03009KT 10SM BKN019 BKN028 BKN080 19/17 A2968 1250 84 2100 020/09 RMK AO2
14926KSTC STC20010829201012908/29/01 20:10:31  5-MIN KSTC 300210Z AUTO 06011G15KT 10SM BKN019 BKN028 BKN080 19/17 A2966 1270 87 2100 060/11G15 RMK AO2 PRESFR
14926KSTC STC20010829201514508/29/01 20:15:31  5-MIN KSTC 300215Z AUTO 03013G18KT 10SM -TSRA BKN021 BKN028 OVC080 19/17 A2967 1260 90 2000 030/13G18 RMK AO2 TSB14RAB15 P0000
14926KSTC STC20010829202016108/29/01 20:20:31  5-MIN KSTC 300220Z AUTO 36009G18KT 330V040 10SM -TSRA FEW015 BKN021 OVC028 19/17 A2965 1270 90 2100 360/09G18 330V040 RMK AO2 TSB14RAB15 P0000
14926KSTC STC20010829202513808/29/01 20:25:31  5-MIN KSTC 300225Z AUTO 07011G17KT 10SM -TSRA OVC018 19/17 A2963 1300 90 2100 070/11G17 RMK AO2 TSB14RAB15 PRESFR P0000
14926KSTC STC20010829203014708/29/01 20:30:31  5-MIN KSTC 300230Z AUTO 01011G17KT 330V050 10SM -TSRA OVC018 18/17 A2967 1260 93 2000 360/11G17 330V050 RMK AO2 TSB14RAB15 P0002
14926KSTC STC20010829203513008/29/01 20:35:31  5-MIN KSTC 300235Z AUTO 36007KT 8SM TSRA FEW014 OVC020 18/17 A2966 1270 96 1900 360/07 RMK AO2 TSB14RAB15 P0003
14926KSTC STC20010829204013808/29/01 20:40:31  5-MIN KSTC 300240Z AUTO VRB06KT 9SM -TSRA FEW014 BKN020 OVC025 18/17 A2967 1260 96 1900 VRB/06 RMK AO2 TSB14RAB15 P0004
14926KSTC STC20010829204512308/29/01 20:45:31  5-MIN KSTC 300245Z AUTO VRB03KT 8SM TSRA OVC018 18/17 A2966 1270 93 2000 VRB/03 RMK AO2 TSB14RAB15 P0005
14926KSTC STC20010829205018308/29/01 20:50:31  5-MIN KSTC 300250Z AUTO 29012KT 260V340 7SM -TSRA FEW014 BKN018 OVC024 19/18 A2968 1250 93 2000 280/12 260V340 RMK AO2 TSB14RAB15 SLP056 P0007 60007 T01890178 58033
14926KSTC STC20010829205515708/29/01 20:55:31  5-MIN KSTC 300255Z AUTO 26011G17KT 210V300 2 1/2SM +TSRA BR FEW014 BKN021 OVC042 19/19 A2968 1250 100 2100 250/11G17 210V300 RMK AO2 P0007
14926KSTC STC20010829210013508/29/01 21:00:31  5-MIN KSTC 300300Z AUTO 00000KT 1 1/4SM +TSRA BR FEW005 SCT015 OVC020 19/19 A2966 1270 100 2100 000/00 RMK AO2 P0020
14926KSTC STC20010829210513408/29/01 21:05:31  5-MIN KSTC 300305Z AUTO 00000KT 1 3/4SM +TSRA BR FEW005 BKN018 OVC030 19/19 A2966 1270 97 2100 000/00 RMK AO2 P0023
14926KSTC STC20010829211013008/29/01 21:10:31  5-MIN KSTC 300310Z AUTO 20005KT 4SM -TSRA BR FEW005 BKN018 OVC055 19/19 A2966 1270 97 2100 200/05 RMK AO2 P0024
14926KSTC STC20010829211512708/29/01 21:15:31  5-MIN KSTC 300315Z AUTO 17007KT 9SM -TSRA FEW005 BKN040 OVC055 19/19 A2966 1270 97 2100 170/07 RMK AO2 P0025
14926KSTC STC20010829212012908/29/01 21:20:31  5-MIN KSTC 300320Z AUTO 15006KT 10SM -TSRA SCT010 BKN044 OVC055 19/19 A2966 1270 100 2100 140/06 RMK AO2 P0025
14926KSTC STC20010829212513208/29/01 21:25:31  5-MIN KSTC 300325Z AUTO 00000KT 10SM TS FEW008 BKN046 OVC120 19/19 A2966 1270 100 2100 000/00 RMK AO2 RAE23 P0025
14926KSTC STC20010829213013208/29/01 21:30:31  5-MIN KSTC 300330Z AUTO 11003KT 10SM TS FEW021 BKN050 OVC120 19/19 A2967 1260 100 2000 110/03 RMK AO2 RAE23 P0025
14926KSTC STC20010829213513208/29/01 21:35:31  5-MIN KSTC 300335Z AUTO 00000KT 10SM TS FEW034 BKN048 OVC120 19/19 A2968 1250 100 2000 000/00 RMK AO2 RAE23 P0025
14926KSTC STC20010829214013208/29/01 21:40:31  5-MIN KSTC 300340Z AUTO 00000KT 10SM TS FEW034 BKN050 OVC090 19/19 A2967 1260 100 2000 000/00 RMK AO2 RAE23 P0025
14926KSTC STC20010829214513408/29/01 21:45:31  5-MIN KSTC 300345Z AUTO 00000KT 10SM FEW036 BKN055 OVC090 19/19 A2967 1260 100 2000 000/00 RMK AO2 TSE44RAE23 P0025
14926KSTC STC20010829215015708/29/01 21:50:31  5-MIN KSTC 300350Z AUTO 36006KT 10SM TS SCT033 BKN044 OVC090 19/19 A2967 1260 100 2000 350/06 RMK AO2 TSE44B48RAE23 SLP054 P0025 T01890189
14926KSTC STC20010829215511908/29/01 21:55:31  5-MIN KSTC 300355Z AUTO 01003KT 10SM TS FEW026 BKN042 OVC050 19/19 A2967 1260 97 2100 010/03 RMK AO2
14926KSTC STC20010829220011908/29/01 22:00:31  5-MIN KSTC 300400Z AUTO 12005KT 10SM TS FEW026 BKN034 OVC055 19/19 A2967 1260 97 2100 120/05 RMK AO2
14926KSTC STC20010829220512308/29/01 22:05:31  5-MIN KSTC 300405Z AUTO 08004KT 10SM FEW026 BKN040 OVC050 19/19 A2967 1260 100 2100 070/04 RMK AO2 TSE02
14926KSTC STC20010829221012808/29/01 22:10:31  5-MIN KSTC 300410Z AUTO 07004KT 10SM TS FEW025 BKN030 OVC040 19/19 A2968 1250 97 2100 070/04 RMK AO2 TSE02B07
14926KSTC STC20010829221512208/29/01 22:15:31  5-MIN KSTC 300415Z AUTO 11005KT 10SM TS BKN028 OVC035 19/19 A2968 1250 100 2100 110/05 RMK AO2 TSE02B07
14926KSTC STC20010829222012208/29/01 22:20:31  5-MIN KSTC 300420Z AUTO 11006KT 10SM TS BKN026 OVC035 19/19 A2968 1250 100 2000 110/06 RMK AO2 TSE02B07
14926KSTC STC20010829222512208/29/01 22:25:31  5-MIN KSTC 300425Z AUTO 11007KT 10SM BKN026 OVC035 19/19 A2967 1260 100 2000 100/07 RMK AO2 TSE02B07E21
14926KSTC STC20010829223012908/29/01 22:30:31  5-MIN KSTC 300430Z AUTO 12006KT 10SM SCT026 BKN033 OVC047 19/19 A2968 1250 100 2000 120/06 RMK AO2 TSE02B07E21
14926KSTC STC20010829223512208/29/01 22:35:31  5-MIN KSTC 300435Z AUTO 13006KT 10SM SCT026 OVC033 19/19 A2967 1260 100 2000 130/06 RMK AO2 TSE02B07E21
14926KSTC STC20010829224012908/29/01 22:40:31  5-MIN KSTC 300440Z AUTO 13005KT 10SM SCT024 BKN033 OVC046 19/19 A2968 1250 100 2000 130/05 RMK AO2 TSE02B07E21
14926KSTC STC20010829224512908/29/01 22:45:31  5-MIN KSTC 300445Z AUTO 13005KT 10SM FEW020 BKN026 OVC046 19/19 A2968 1250 100 2000 130/05 RMK AO2 TSE02B07E21
14926KSTC STC20010829225014608/29/01 22:50:31  5-MIN KSTC 300450Z AUTO 14007KT 10SM FEW020 BKN027 OVC033 19/19 A2968 1250 100 2000 130/07 RMK AO2 TSE02B07E21 SLP054 T01890189
14926KSTC STC20010829225511708/29/01 22:55:31  5-MIN KSTC 300455Z AUTO 14006KT 10SM FEW020 BKN031 OVC090 19/19 A2968 1250 100 2000 140/06 RMK AO2
14926KSTC STC20010829230011708/29/01 23:00:31  5-MIN KSTC 300500Z AUTO 15006KT 10SM FEW020 BKN031 OVC090 19/19 A2968 1250 100 2000 150/06 RMK AO2
14926KSTC STC20010829230511708/29/01 23:05:31  5-MIN KSTC 300505Z AUTO 15006KT 10SM FEW020 BKN031 OVC095 19/19 A2967 1260 100 2000 140/06 RMK AO2
14926KSTC STC20010829231011708/29/01 23:10:31  5-MIN KSTC 300510Z AUTO 15005KT 10SM FEW020 SCT031 BKN095 19/19 A2967 1260 100 2000 150/05 RMK AO2
14926KSTC STC20010829231511008/29/01 23:15:31  5-MIN KSTC 300515Z AUTO 15006KT 10SM FEW031 SCT095 19/19 A2967 1260 100 2000 150/06 RMK AO2
14926KSTC STC20010829232011008/29/01 23:20:31  5-MIN KSTC 300520Z AUTO 16006KT 10SM FEW031 SCT095 19/19 A2967 1260 100 2000 160/06 RMK AO2
14926KSTC STC20010829232511008/29/01 23:25:31  5-MIN KSTC 300525Z AUTO 16004KT 10SM FEW031 SCT120 19/19 A2966 1260 100 2000 160/04 RMK AO2
14926KSTC STC20010829233010308/29/01 23:30:31  5-MIN KSTC 300530Z AUTO 17004KT 10SM FEW095 18/18 A2966 1260 100 2000 170/04 RMK AO2
14926KSTC STC20010829233510308/29/01 23:35:31  5-MIN KSTC 300535Z AUTO 18003KT 10SM FEW120 18/18 A2967 1260 100 2000 170/03 RMK AO2
14926KSTC STC20010829234010308/29/01 23:40:31  5-MIN KSTC 300540Z AUTO 20004KT 10SM FEW110 18/18 A2967 1260 100 2000 190/04 RMK AO2
14926KSTC STC20010829234510308/29/01 23:45:31  5-MIN KSTC 300545Z AUTO 19004KT 10SM FEW110 19/19 A2967 1260 100 2000 190/04 RMK AO2
14926KSTC STC20010829235015408/29/01 23:50:31  5-MIN KSTC 300550Z AUTO 20005KT 10SM FEW120 18/18 A2967 1260 100 2000 190/05 RMK AO2 SLP051 60041 T01830183 10244 20178 402610117 53001
14926KSTC STC20010829235510008/29/01 23:55:31  5-MIN KSTC 300555Z AUTO 20005KT 10SM CLR 19/19 A2967 1260 100 2000 200/05 RMK AO2
14926KSTC STC20010830000010008/30/01 00:00:31  5-MIN KSTC 300600Z AUTO 21006KT 10SM CLR 19/19 A2967 1250 100 2000 210/06 RMK AO2
14926KSTC STC20010830000510008/30/01 00:05:31  5-MIN KSTC 300605Z AUTO 23005KT 10SM CLR 19/19 A2967 1250 100 2000 230/05 RMK AO2
14926KSTC STC20010830001010008/30/01 00:10:31  5-MIN KSTC 300610Z AUTO 22005KT 10SM CLR 19/19 A2968 1250 100 2000 220/05 RMK AO2
14926KSTC STC20010830001510308/30/01 00:15:31  5-MIN KSTC 300615Z AUTO 23006KT 10SM FEW024 19/19 A2968 1250 100 2000 230/06 RMK AO2
14926KSTC STC20010830002010308/30/01 00:20:31  5-MIN KSTC 300620Z AUTO 24007KT 10SM SCT024 19/19 A2968 1250 100 2100 230/07 RMK AO2
14926KSTC STC20010830002510308/30/01 00:25:31  5-MIN KSTC 300625Z AUTO 24007KT 10SM SCT024 19/19 A2968 1250 100 2100 230/07 RMK AO2
14926KSTC STC20010830003011008/30/01 00:30:31  5-MIN KSTC 300630Z AUTO 24007KT 10SM SCT024 BKN029 19/19 A2968 1250 100 2100 240/07 RMK AO2
14926KSTC STC20010830003511008/30/01 00:35:31  5-MIN KSTC 300635Z AUTO 25008KT 10SM FEW024 BKN029 19/19 A2968 1250 100 2100 250/08 RMK AO2
14926KSTC STC20010830004011008/30/01 00:40:31  5-MIN KSTC 300640Z AUTO 26008KT 10SM FEW024 SCT029 19/19 A2968 1250 100 2100 260/08 RMK AO2
14926KSTC STC20010830004510908/30/01 00:45:31  5-MIN KSTC 300645Z AUTO 26009KT 10SM FEW024 SCT029 19/19 A2968 1250 97 2100 260/09 RMK AO2
14926KSTC STC20010830005011908/30/01 00:50:31  5-MIN KSTC 300650Z AUTO 27008KT 10SM FEW029 19/19 A2968 1250 97 2100 260/08 RMK AO2 SLP054 T01940189
14926KSTC STC20010830005510208/30/01 00:55:31  5-MIN KSTC 300655Z AUTO 27009KT 10SM FEW029 19/19 A2969 1240 97 2100 270/09 RMK AO2
14926KSTC STC20010830010009908/30/01 01:00:31  5-MIN KSTC 300700Z AUTO 27008KT 10SM CLR 19/18 A2969 1240 93 2100 270/08 RMK AO2
14926KSTC STC20010830010510208/30/01 01:05:31  5-MIN KSTC 300705Z AUTO 27008KT 10SM FEW120 19/18 A2969 1240 93 2100 270/08 RMK AO2
14926KSTC STC20010830011010208/30/01 01:10:31  5-MIN KSTC 300710Z AUTO 28009KT 10SM FEW120 19/18 A2969 1240 93 2100 280/09 RMK AO2
14926KSTC STC20010830011510908/30/01 01:15:31  5-MIN KSTC 300715Z AUTO 29010KT 10SM FEW030 SCT120 19/18 A2969 1240 93 2000 290/10 RMK AO2
14926KSTC STC20010830012010908/30/01 01:20:31  5-MIN KSTC 300720Z AUTO 29011KT 10SM SCT030 SCT120 19/18 A2969 1240 93 2000 290/11 RMK AO2
14926KSTC STC20010830012510908/30/01 01:25:31  5-MIN KSTC 300725Z AUTO 29010KT 10SM SCT032 SCT120 19/18 A2969 1240 93 2000 290/10 RMK AO2
14926KSTC STC20010830013010908/30/01 01:30:31  5-MIN KSTC 300730Z AUTO 29011KT 10SM SCT032 SCT120 19/17 A2969 1240 90 2000 290/11 RMK AO2
14926KSTC STC20010830013510208/30/01 01:35:31  5-MIN KSTC 300735Z AUTO 29009KT 10SM FEW032 19/17 A2969 1240 90 2000 290/09 RMK AO2
14926KSTC STC20010830014010208/30/01 01:40:31  5-MIN KSTC 300740Z AUTO 30008KT 10SM FEW032 18/17 A2969 1240 93 2000 290/08 RMK AO2
14926KSTC STC20010830014510208/30/01 01:45:31  5-MIN KSTC 300745Z AUTO 29010KT 10SM FEW032 18/17 A2969 1240 93 2000 290/10 RMK AO2
14926KSTC STC20010830015011908/30/01 01:50:31  5-MIN KSTC 300750Z AUTO 30009KT 10SM FEW034 18/17 A2969 1240 93 2000 290/09 RMK AO2 SLP057 T01830172
14926KSTC STC20010830015510208/30/01 01:55:31  5-MIN KSTC 300755Z AUTO 30010KT 10SM FEW120 18/17 A2969 1240 90 2000 300/10 RMK AO2
14926KSTC STC20010830020010208/30/01 02:00:31  5-MIN KSTC 300800Z AUTO 30011KT 10SM FEW120 18/17 A2969 1240 90 2000 300/11 RMK AO2
14926KSTC STC20010830020510208/30/01 02:05:31  5-MIN KSTC 300805Z AUTO 30011KT 10SM FEW120 18/17 A2969 1240 90 2000 300/11 RMK AO2
14926KSTC STC20010830021010208/30/01 02:10:31  5-MIN KSTC 300810Z AUTO 31010KT 10SM FEW120 18/17 A2969 1240 93 1900 300/10 RMK AO2
14926KSTC STC20010830021510208/30/01 02:15:31  5-MIN KSTC 300815Z AUTO 30010KT 10SM FEW120 18/17 A2969 1240 93 1900 300/10 RMK AO2
14926KSTC STC20010830022010208/30/01 02:20:31  5-MIN KSTC 300820Z AUTO 31009KT 10SM FEW120 18/17 A2969 1240 93 1900 300/09 RMK AO2
14926KSTC STC20010830022509908/30/01 02:25:31  5-MIN KSTC 300825Z AUTO 30010KT 10SM CLR 19/17 A2970 1230 87 2000 300/10 RMK AO2
14926KSTC STC20010830023009908/30/01 02:30:31  5-MIN KSTC 300830Z AUTO 30009KT 10SM CLR 18/16 A2970 1230 90 1900 300/09 RMK AO2
14926KSTC STC20010830023509908/30/01 02:35:31  5-MIN KSTC 300835Z AUTO 30009KT 10SM CLR 18/16 A2970 1230 90 1900 290/09 RMK AO2
14926KSTC STC20010830024009908/30/01 02:40:31  5-MIN KSTC 300840Z AUTO 30009KT 10SM CLR 18/16 A2970 1230 90 1900 290/09 RMK AO2
14926KSTC STC20010830024509908/30/01 02:45:31  5-MIN KSTC 300845Z AUTO 29009KT 10SM CLR 17/16 A2970 1230 93 1800 290/09 RMK AO2
14926KSTC STC20010830025012208/30/01 02:50:31  5-MIN KSTC 300850Z AUTO 29010KT 10SM CLR 17/16 A2970 1230 93 1800 290/10 RMK AO2 SLP061 T01720161 50000
14926KSTC STC20010830025509908/30/01 02:55:31  5-MIN KSTC 300855Z AUTO 29010KT 10SM CLR 17/16 A2970 1230 93 1800 290/10 RMK AO2
14926KSTC STC20010830030009908/30/01 03:00:31  5-MIN KSTC 300900Z AUTO 30010KT 10SM CLR 17/16 A2970 1230 90 1800 290/10 RMK AO2
14926KSTC STC20010830030509908/30/01 03:05:31  5-MIN KSTC 300905Z AUTO 29009KT 10SM CLR 17/16 A2971 1230 90 1800 290/09 RMK AO2
14926KSTC STC20010830031009908/30/01 03:10:31  5-MIN KSTC 300910Z AUTO 29008KT 10SM CLR 17/16 A2971 1220 90 1800 290/08 RMK AO2
14926KSTC STC20010830031509908/30/01 03:15:31  5-MIN KSTC 300915Z AUTO 28007KT 10SM CLR 17/16 A2971 1220 90 1800 280/07 RMK AO2
14926KSTC STC20010830032009908/30/01 03:20:31  5-MIN KSTC 300920Z AUTO 28007KT 10SM CLR 17/16 A2971 1220 90 1800 280/07 RMK AO2
14926KSTC STC20010830032509908/30/01 03:25:31  5-MIN KSTC 300925Z AUTO 28006KT 10SM CLR 17/16 A2972 1210 93 1700 270/06 RMK AO2
14926KSTC STC20010830033009908/30/01 03:30:31  5-MIN KSTC 300930Z AUTO 28007KT 10SM CLR 17/15 A2972 1210 90 1700 270/07 RMK AO2
14926KSTC STC20010830033509908/30/01 03:35:31  5-MIN KSTC 300935Z AUTO 27007KT 10SM CLR 17/15 A2972 1210 90 1700 270/07 RMK AO2
14926KSTC STC20010830034009908/30/01 03:40:31  5-MIN KSTC 300940Z AUTO 27007KT 10SM CLR 17/15 A2972 1210 90 1700 270/07 RMK AO2
14926KSTC STC20010830034509908/30/01 03:45:31  5-MIN KSTC 300945Z AUTO 28007KT 10SM CLR 17/15 A2972 1210 90 1700 280/07 RMK AO2
14926KSTC STC20010830035011608/30/01 03:50:31  5-MIN KSTC 300950Z AUTO 28007KT 10SM CLR 16/15 A2972 1210 93 1700 280/07 RMK AO2 SLP068 T01610150
14926KSTC STC20010830035509908/30/01 03:55:31  5-MIN KSTC 300955Z AUTO 28007KT 10SM CLR 16/15 A2972 1210 93 1700 280/07 RMK AO2
14926KSTC STC20010830040009908/30/01 04:00:31  5-MIN KSTC 301000Z AUTO 28007KT 10SM CLR 17/15 A2972 1210 90 1700 280/07 RMK AO2
14926KSTC STC20010830040509908/30/01 04:05:31  5-MIN KSTC 301005Z AUTO 28006KT 10SM CLR 16/15 A2972 1210 93 1700 270/06 RMK AO2
14926KSTC STC20010830041009908/30/01 04:10:31  5-MIN KSTC 301010Z AUTO 28006KT 10SM CLR 16/15 A2972 1210 93 1700 280/06 RMK AO2
14926KSTC STC20010830041509908/30/01 04:15:31  5-MIN KSTC 301015Z AUTO 28006KT 10SM CLR 16/14 A2972 1210 90 1700 280/06 RMK AO2
14926KSTC STC20010830042009908/30/01 04:20:31  5-MIN KSTC 301020Z AUTO 28006KT 10SM CLR 16/14 A2973 1210 90 1700 270/06 RMK AO2
14926KSTC STC20010830042509908/30/01 04:25:31  5-MIN KSTC 301025Z AUTO 27006KT 10SM CLR 16/14 A2973 1200 93 1600 270/06 RMK AO2
14926KSTC STC20010830043009908/30/01 04:30:31  5-MIN KSTC 301030Z AUTO 25005KT 10SM CLR 16/14 A2973 1200 93 1600 240/05 RMK AO2
14926KSTC STC20010830043509908/30/01 04:35:31  5-MIN KSTC 301035Z AUTO 24005KT 10SM CLR 16/14 A2974 1200 93 1600 240/05 RMK AO2
14926KSTC STC20010830044009908/30/01 04:40:31  5-MIN KSTC 301040Z AUTO 23004KT 10SM CLR 16/14 A2974 1190 93 1600 230/04 RMK AO2
14926KSTC STC20010830044509908/30/01 04:45:31  5-MIN KSTC 301045Z AUTO 23005KT 10SM CLR 16/14 A2974 1190 93 1600 220/05 RMK AO2
14926KSTC STC20010830045011608/30/01 04:50:31  5-MIN KSTC 301050Z AUTO 22004KT 10SM CLR 16/14 A2975 1190 93 1600 220/04 RMK AO2 SLP077 T01560144
14926KSTC STC20010830045509908/30/01 04:55:31  5-MIN KSTC 301055Z AUTO 23003KT 10SM CLR 15/14 A2975 1190 96 1500 230/03 RMK AO2
14926KSTC STC20010830050009908/30/01 05:00:31  5-MIN KSTC 301100Z AUTO 25004KT 10SM CLR 15/14 A2975 1180 93 1500 250/04 RMK AO2
14926KSTC STC20010830050509908/30/01 05:05:31  5-MIN KSTC 301105Z AUTO 26004KT 10SM CLR 15/14 A2975 1180 93 1500 260/04 RMK AO2
14926KSTC STC20010830051009908/30/01 05:10:31  5-MIN KSTC 301110Z AUTO 27004KT 10SM CLR 14/14 A2975 1180 96 1400 260/04 RMK AO2
14926KSTC STC20010830051509908/30/01 05:15:31  5-MIN KSTC 301115Z AUTO 26004KT 10SM CLR 15/14 A2976 1180 93 1500 260/04 RMK AO2
14926KSTC STC20010830052009908/30/01 05:20:31  5-MIN KSTC 301120Z AUTO 26004KT 10SM CLR 15/14 A2976 1180 93 1500 250/04 RMK AO2
14926KSTC STC20010830152511608/30/01 15:25:31  5-MIN KSTC 302125Z AUTO 33012KT 10SM FEW050 SCT060 BKN085 24/13 A2982 1120 51 2400 320/12 RMK AO2
14926KSTC STC20010830153010908/30/01 15:30:31  5-MIN KSTC 302130Z AUTO 32012KT 10SM SCT050 SCT080 23/13 A2982 1110 55 2300 320/12 RMK AO2
14926KSTC STC20010830153510908/30/01 15:35:31  5-MIN KSTC 302135Z AUTO 30011KT 10SM FEW050 SCT085 23/13 A2982 1120 53 2400 300/11 RMK AO2
14926KSTC STC20010830154010208/30/01 15:40:31  5-MIN KSTC 302140Z AUTO 30012KT 10SM FEW050 24/13 A2983 1110 49 2500 300/12 RMK AO2
14926KSTC STC20010830154510808/30/01 15:45:31  5-MIN KSTC 302145Z AUTO 32016G19KT 10SM FEW085 24/13 A2982 1120 47 2500 310/16G19 RMK AO2
14926KSTC STC20010830155012508/30/01 15:50:31  5-MIN KSTC 302150Z AUTO 30018G22KT 10SM FEW080 24/12 A2982 1120 46 2500 300/18G22 RMK AO2 SLP103 T02440122
14926KSTC STC20010830155510808/30/01 15:55:31  5-MIN KSTC 302155Z AUTO 31012G22KT 10SM FEW080 24/13 A2982 1110 47 2500 310/12G22 RMK AO2
14926KSTC STC20010830160010808/30/01 16:00:31  5-MIN KSTC 302200Z AUTO 31015G19KT 10SM FEW080 23/13 A2983 1110 51 2400 300/15G19 RMK AO2
14926KSTC STC20010830160510208/30/01 16:05:31  5-MIN KSTC 302205Z AUTO 31011KT 10SM FEW080 24/13 A2983 1110 51 2400 300/11 RMK AO2
14926KSTC STC20010830161010808/30/01 16:10:31  5-MIN KSTC 302210Z AUTO 30014G21KT 10SM FEW080 24/13 A2983 1110 47 2500 300/14G21 RMK AO2
14926KSTC STC20010830161510808/30/01 16:15:31  5-MIN KSTC 302215Z AUTO 30013G21KT 10SM FEW080 24/13 A2983 1110 47 2500 290/13G21 RMK AO2
14926KSTC STC20010830162010208/30/01 16:20:31  5-MIN KSTC 302220Z AUTO 29012KT 10SM FEW080 24/13 A2983 1110 47 2500 290/12 RMK AO2
14926KSTC STC20010830162510808/30/01 16:25:31  5-MIN KSTC 302225Z AUTO 32015G21KT 10SM FEW080 24/13 A2983 1110 47 2500 310/15G21 RMK AO2
14926KSTC STC20010830163010808/30/01 16:30:31  5-MIN KSTC 302230Z AUTO 30014G22KT 10SM FEW080 24/13 A2983 1110 49 2400 300/14G22 RMK AO2
14926KSTC STC20010830163510508/30/01 16:35:31  5-MIN KSTC 302235Z AUTO 31014G20KT 10SM CLR 24/13 A2983 1110 49 2400 310/14G20 RMK AO2
14926KSTC STC20010830164010508/30/01 16:40:31  5-MIN KSTC 302240Z AUTO 31012G20KT 10SM CLR 24/13 A2983 1110 51 2400 310/12G20 RMK AO2
14926KSTC STC20010830164509908/30/01 16:45:31  5-MIN KSTC 302245Z AUTO 31013KT 10SM CLR 24/13 A2983 1110 49 2400 300/13 RMK AO2
14926KSTC STC20010830165012208/30/01 16:50:31  5-MIN KSTC 302250Z AUTO 31013G19KT 10SM CLR 24/13 A2983 1110 51 2400 310/13G19 RMK AO2 SLP107 T02390133
14926KSTC STC20010830165510508/30/01 16:55:31  5-MIN KSTC 302255Z AUTO 30015G19KT 10SM CLR 24/13 A2983 1110 49 2400 300/15G19 RMK AO2
14926KSTC STC20010830170009908/30/01 17:00:31  5-MIN KSTC 302300Z AUTO 31013KT 10SM CLR 24/13 A2984 1110 49 2400 310/13 RMK AO2
14926KSTC STC20010830170509908/30/01 17:05:31  5-MIN KSTC 302305Z AUTO 31010KT 10SM CLR 23/13 A2983 1110 51 2400 300/10 RMK AO2
14926KSTC STC20010830171009908/30/01 17:10:31  5-MIN KSTC 302310Z AUTO 32013KT 10SM CLR 23/13 A2983 1110 51 2400 320/13 RMK AO2
14926KSTC STC20010830171509908/30/01 17:15:31  5-MIN KSTC 302315Z AUTO 32012KT 10SM CLR 23/13 A2983 1110 51 2400 320/12 RMK AO2
14926KSTC STC20010830172009908/30/01 17:20:31  5-MIN KSTC 302320Z AUTO 32012KT 10SM CLR 23/13 A2984 1100 51 2400 310/12 RMK AO2
14926KSTC STC20010830172509908/30/01 17:25:31  5-MIN KSTC 302325Z AUTO 32011KT 10SM CLR 23/13 A2984 1100 53 2300 310/11 RMK AO2
14926KSTC STC20010830173009908/30/01 17:30:31  5-MIN KSTC 302330Z AUTO 31012KT 10SM CLR 23/13 A2984 1100 53 2300 310/12 RMK AO2
14926KSTC STC20010830173510208/30/01 17:35:31  5-MIN KSTC 302335Z AUTO 32011KT 10SM FEW049 23/13 A2984 1100 53 2300 310/11 RMK AO2
14926KSTC STC20010830174010208/30/01 17:40:31  5-MIN KSTC 302340Z AUTO 34009KT 10SM FEW047 23/13 A2984 1100 55 2300 330/09 RMK AO2
14926KSTC STC20010830174510208/30/01 17:45:31  5-MIN KSTC 302345Z AUTO 34011KT 10SM SCT047 22/13 A2984 1100 56 2200 340/11 RMK AO2
14926KSTC STC20010830175014408/30/01 17:50:31  5-MIN KSTC 302350Z AUTO 34011KT 10SM FEW047 SCT085 22/13 A2984 1100 56 2200 330/11 RMK AO2 SLP112 T02220133 10256 20222 53007
14926KSTC STC20010830175511508/30/01 17:55:31  5-MIN KSTC 302355Z AUTO 33010G16KT 10SM FEW047 BKN085 22/13 A2985 1100 56 2200 330/10G16 RMK AO2
14926KSTC STC20010830180011508/30/01 18:00:31  5-MIN KSTC 310000Z AUTO 33009G16KT 10SM FEW047 BKN085 22/13 A2984 1100 58 2200 320/09G16 RMK AO2
14926KSTC STC20010830180510908/30/01 18:05:31  5-MIN KSTC 310005Z AUTO 33009KT 10SM FEW047 SCT085 22/13 A2984 1100 58 2200 330/09 RMK AO2
14926KSTC STC20010830181010208/30/01 18:10:31  5-MIN KSTC 310010Z AUTO 34009KT 10SM FEW085 21/13 A2984 1100 58 2100 330/09 RMK AO2
14926KSTC STC20010830181510208/30/01 18:15:31  5-MIN KSTC 310015Z AUTO 33009KT 10SM FEW085 21/13 A2984 1100 58 2100 330/09 RMK AO2
14926KSTC STC20010830182010208/30/01 18:20:31  5-MIN KSTC 310020Z AUTO 33010KT 10SM FEW085 21/13 A2985 1100 58 2100 330/10 RMK AO2
14926KSTC STC20010830182509908/30/01 18:25:31  5-MIN KSTC 310025Z AUTO 33009KT 10SM CLR 21/13 A2985 1100 60 2000 330/09 RMK AO2
14926KSTC STC20010830183009908/30/01 18:30:31  5-MIN KSTC 310030Z AUTO 33009KT 10SM CLR 21/12 A2985 1090 58 2000 320/09 RMK AO2
14926KSTC STC20010830183509908/30/01 18:35:31  5-MIN KSTC 310035Z AUTO 33008KT 10SM CLR 21/12 A2985 1090 58 2000 320/08 RMK AO2
14926KSTC STC20010830184009908/30/01 18:40:31  5-MIN KSTC 310040Z AUTO 32008KT 10SM CLR 20/13 A2985 1090 63 2000 320/08 RMK AO2
14926KSTC STC20010830184509908/30/01 18:45:31  5-MIN KSTC 310045Z AUTO 32008KT 10SM CLR 20/13 A2985 1090 63 2000 320/08 RMK AO2
14926KSTC STC20010830185011608/30/01 18:50:31  5-MIN KSTC 310050Z AUTO 32007KT 10SM CLR 19/13 A2985 1090 65 1900 320/07 RMK AO2 SLP116 T01940128
14926KSTC STC20010830185509908/30/01 18:55:31  5-MIN KSTC 310055Z AUTO 33006KT 10SM CLR 19/13 A2986 1090 65 1900 330/06 RMK AO2
14926KSTC STC20010830190009908/30/01 19:00:31  5-MIN KSTC 310100Z AUTO 33007KT 10SM CLR 19/13 A2986 1080 67 1800 320/07 RMK AO2
14926KSTC STC20010830190509908/30/01 19:05:31  5-MIN KSTC 310105Z AUTO 33006KT 10SM CLR 19/13 A2986 1080 67 1800 330/06 RMK AO2
14926KSTC STC20010830191009908/30/01 19:10:31  5-MIN KSTC 310110Z AUTO 34006KT 10SM CLR 18/13 A2986 1080 70 1800 330/06 RMK AO2
14926KSTC STC20010830191509908/30/01 19:15:31  5-MIN KSTC 310115Z AUTO 33006KT 10SM CLR 18/13 A2986 1080 70 1800 330/06 RMK AO2
14926KSTC STC20010830192009908/30/01 19:20:31  5-MIN KSTC 310120Z AUTO 33005KT 10SM CLR 18/13 A2987 1080 75 1700 320/05 RMK AO2
14926KSTC STC20010830192509908/30/01 19:25:31  5-MIN KSTC 310125Z AUTO 33005KT 10SM CLR 18/13 A2987 1070 75 1700 320/05 RMK AO2
14926KSTC STC20010830193009908/30/01 19:30:31  5-MIN KSTC 310130Z AUTO 33006KT 10SM CLR 18/13 A2987 1070 75 1700 320/06 RMK AO2
14926KSTC STC20010830193509908/30/01 19:35:31  5-MIN KSTC 310135Z AUTO 32007KT 10SM CLR 18/13 A2987 1070 72 1700 320/07 RMK AO2
14926KSTC STC20010830194009908/30/01 19:40:31  5-MIN KSTC 310140Z AUTO 33006KT 10SM CLR 18/13 A2988 1070 72 1700 330/06 RMK AO2
14926KSTC STC20010830194509908/30/01 19:45:31  5-MIN KSTC 310145Z AUTO 33006KT 10SM CLR 18/13 A2988 1060 72 1700 320/06 RMK AO2
14926KSTC STC20010830195011608/30/01 19:50:31  5-MIN KSTC 310150Z AUTO 33006KT 10SM CLR 18/13 A2988 1060 72 1700 330/06 RMK AO2 SLP126 T01780128
14926KSTC STC20010830195509908/30/01 19:55:31  5-MIN KSTC 310155Z AUTO 33006KT 10SM CLR 18/13 A2988 1060 72 1700 330/06 RMK AO2
14926KSTC STC20010830200009908/30/01 20:00:31  5-MIN KSTC 310200Z AUTO 33006KT 10SM CLR 17/13 A2989 1060 75 1600 330/06 RMK AO2
14926KSTC STC20010830200509908/30/01 20:05:31  5-MIN KSTC 310205Z AUTO 34006KT 10SM CLR 17/13 A2989 1050 75 1600 330/06 RMK AO2
14926KSTC STC20010830201009908/30/01 20:10:31  5-MIN KSTC 310210Z AUTO 33008KT 10SM CLR 17/13 A2989 1050 75 1600 330/08 RMK AO2
14926KSTC STC20010830201509908/30/01 20:15:31  5-MIN KSTC 310215Z AUTO 34008KT 10SM CLR 17/12 A2990 1050 72 1600 330/08 RMK AO2
14926KSTC STC20010830202009908/30/01 20:20:31  5-MIN KSTC 310220Z AUTO 34007KT 10SM CLR 17/12 A2990 1050 72 1600 340/07 RMK AO2
14926KSTC STC20010830202509908/30/01 20:25:31  5-MIN KSTC 310225Z AUTO 34007KT 10SM CLR 17/12 A2990 1050 72 1600 340/07 RMK AO2
14926KSTC STC20010830203009908/30/01 20:30:31  5-MIN KSTC 310230Z AUTO 34007KT 10SM CLR 17/12 A2990 1040 72 1600 340/07 RMK AO2
14926KSTC STC20010830203509908/30/01 20:35:31  5-MIN KSTC 310235Z AUTO 34006KT 10SM CLR 17/12 A2990 1040 75 1500 340/06 RMK AO2
14926KSTC STC20010830204009908/30/01 20:40:31  5-MIN KSTC 310240Z AUTO 34006KT 10SM CLR 17/12 A2990 1040 75 1500 330/06 RMK AO2
14926KSTC STC20010830204509908/30/01 20:45:31  5-MIN KSTC 310245Z AUTO 34006KT 10SM CLR 17/12 A2991 1040 75 1500 330/06 RMK AO2
14926KSTC STC20010830205012208/30/01 20:50:31  5-MIN KSTC 310250Z AUTO 34007KT 10SM CLR 16/12 A2991 1040 77 1400 330/07 RMK AO2 SLP134 T01610122 53008
14926KSTC STC20010830205509908/30/01 20:55:31  5-MIN KSTC 310255Z AUTO 34006KT 10SM CLR 16/12 A2991 1030 77 1400 340/06 RMK AO2
14926KSTC STC20010830210009908/30/01 21:00:31  5-MIN KSTC 310300Z AUTO 35008KT 10SM CLR 17/12 A2991 1030 75 1500 340/08 RMK AO2
14926KSTC STC20010830210509908/30/01 21:05:31  5-MIN KSTC 310305Z AUTO 34007KT 10SM CLR 17/12 A2992 1030 75 1500 340/07 RMK AO2
14926KSTC STC20010830211009908/30/01 21:10:31  5-MIN KSTC 310310Z AUTO 34010KT 10SM CLR 17/12 A2992 1030 72 1500 340/10 RMK AO2
14926KSTC STC20010830211509908/30/01 21:15:31  5-MIN KSTC 310315Z AUTO 34009KT 10SM CLR 17/12 A2992 1030 72 1500 340/09 RMK AO2
14926KSTC STC20010830212009908/30/01 21:20:31  5-MIN KSTC 310320Z AUTO 34009KT 10SM CLR 17/11 A2992 1030 69 1500 340/09 RMK AO2
14926KSTC STC20010830212509908/30/01 21:25:31  5-MIN KSTC 310325Z AUTO 34008KT 10SM CLR 16/11 A2992 1030 72 1400 340/08 RMK AO2
14926KSTC STC20010830213009908/30/01 21:30:31  5-MIN KSTC 310330Z AUTO 34008KT 10SM CLR 16/11 A2992 1020 72 1400 340/08 RMK AO2
14926KSTC STC20010830213509908/30/01 21:35:31  5-MIN KSTC 310335Z AUTO 34008KT 10SM CLR 16/11 A2993 1020 72 1400 340/08 RMK AO2
14926KSTC STC20010830214009908/30/01 21:40:31  5-MIN KSTC 310340Z AUTO 34007KT 10SM CLR 16/11 A2993 1020 72 1400 340/07 RMK AO2
14926KSTC STC20010830214509908/30/01 21:45:31  5-MIN KSTC 310345Z AUTO 35007KT 10SM CLR 16/12 A2993 1020 77 1400 340/07 RMK AO2
14926KSTC STC20010830215011608/30/01 21:50:31  5-MIN KSTC 310350Z AUTO 35005KT 10SM CLR 16/12 A2993 1020 77 1400 350/05 RMK AO2 SLP141 T01560117
14926KSTC STC20010830215509908/30/01 21:55:31  5-MIN KSTC 310355Z AUTO 36006KT 10SM CLR 15/12 A2993 1020 80 1300 350/06 RMK AO2
14926KSTC STC20010830220009908/30/01 22:00:31  5-MIN KSTC 310400Z AUTO 35005KT 10SM CLR 15/12 A2993 1010 80 1300 350/05 RMK AO2
14926KSTC STC20010830220509908/30/01 22:05:31  5-MIN KSTC 310405Z AUTO 35006KT 10SM CLR 15/12 A2994 1010 80 1300 350/06 RMK AO2
14926KSTC STC20010830221009908/30/01 22:10:31  5-MIN KSTC 310410Z AUTO 35007KT 10SM CLR 15/12 A2994 1010 80 1300 340/07 RMK AO2
14926KSTC STC20010830221509908/30/01 22:15:31  5-MIN KSTC 310415Z AUTO 35007KT 10SM CLR 15/12 A2994 1010 80 1300 350/07 RMK AO2
14926KSTC STC20010830222009908/30/01 22:20:31  5-MIN KSTC 310420Z AUTO 35006KT 10SM CLR 15/12 A2994 1010 80 1300 350/06 RMK AO2
14926KSTC STC20010830222509908/30/01 22:25:31  5-MIN KSTC 310425Z AUTO 36004KT 10SM CLR 14/12 A2994 1010 83 1200 350/04 RMK AO2
14926KSTC STC20010830223009908/30/01 22:30:31  5-MIN KSTC 310430Z AUTO 01004KT 10SM CLR 14/12 A2994 1010 83 1200 360/04 RMK AO2
14926KSTC STC20010830223509908/30/01 22:35:31  5-MIN KSTC 310435Z AUTO 02004KT 10SM CLR 14/12 A2994 1010 83 1200 020/04 RMK AO2
14926KSTC STC20010830224009908/30/01 22:40:31  5-MIN KSTC 310440Z AUTO 01004KT 10SM CLR 14/12 A2994 1010 83 1200 010/04 RMK AO2
14926KSTC STC20010830224509908/30/01 22:45:31  5-MIN KSTC 310445Z AUTO 35004KT 10SM CLR 14/12 A2994 1010 86 1200 350/04 RMK AO2
14926KSTC STC20010830225011608/30/01 22:50:31  5-MIN KSTC 310450Z AUTO 33004KT 10SM CLR 14/12 A2994 1010 86 1200 330/04 RMK AO2 SLP145 T01390117
14926KSTC STC20010830225509908/30/01 22:55:31  5-MIN KSTC 310455Z AUTO 33006KT 10SM CLR 14/12 A2994 1010 86 1100 330/06 RMK AO2
14926KSTC STC20010830230009908/30/01 23:00:31  5-MIN KSTC 310500Z AUTO 33006KT 10SM CLR 14/12 A2994 1010 86 1100 330/06 RMK AO2
14926KSTC STC20010830230509908/30/01 23:05:31  5-MIN KSTC 310505Z AUTO 33006KT 10SM CLR 14/12 A2994 1000 86 1100 330/06 RMK AO2
14926KSTC STC20010830231009908/30/01 23:10:31  5-MIN KSTC 310510Z AUTO 34005KT 10SM CLR 14/12 A2994 1000 86 1100 340/05 RMK AO2
14926KSTC STC20010830231509908/30/01 23:15:31  5-MIN KSTC 310515Z AUTO 35005KT 10SM CLR 13/12 A2995 1000 89 1100 350/05 RMK AO2
14926KSTC STC20010830232009908/30/01 23:20:31  5-MIN KSTC 310520Z AUTO 36004KT 10SM CLR 13/12 A2995 1000 89 1100 350/04 RMK AO2
14926KSTC STC20010830232509908/30/01 23:25:31  5-MIN KSTC 310525Z AUTO 35004KT 10SM CLR 13/12 A2995 1000 89 1100 350/04 RMK AO2
14926KSTC STC20010830233009908/30/01 23:30:31  5-MIN KSTC 310530Z AUTO 35004KT 10SM CLR 13/12 A2995 1000 89 1100 340/04 RMK AO2
14926KSTC STC20010830233509908/30/01 23:35:31  5-MIN KSTC 310535Z AUTO 34004KT 10SM CLR 13/12 A2995 1000 89 1100 340/04 RMK AO2
14926KSTC STC20010830234009908/30/01 23:40:31  5-MIN KSTC 310540Z AUTO 34003KT 10SM CLR 13/12 A2995 1000 89 1100 340/03 RMK AO2
14926KSTC STC20010830234509908/30/01 23:45:31  5-MIN KSTC 310545Z AUTO 34004KT 10SM CLR 13/12 A2995 1000 93 1000 330/04 RMK AO2
14926KSTC STC20010830235014408/30/01 23:50:31  5-MIN KSTC 310550Z AUTO 34004KT 10SM CLR 13/12 A2995 1000 93 1000 340/04 RMK AO2 SLP149 T01280117 10217 20128 402560128 53022
14926KSTC STC20010830235509808/30/01 23:55:31  5-MIN KSTC 310555Z AUTO 34004KT 10SM CLR 12/12 A2995 1000 96 900 340/04 RMK AO2
14926KSTC STC20010831000009808/31/01 00:00:31  5-MIN KSTC 310600Z AUTO 35003KT 10SM CLR 12/12 A2995 1000 96 900 350/03 RMK AO2
14926KSTC STC20010831000509908/31/01 00:05:31  5-MIN KSTC 310605Z AUTO 36003KT 10SM CLR 13/12 A2995 1000 93 1000 360/03 RMK AO2
14926KSTC STC20010831001009808/31/01 00:10:31  5-MIN KSTC 310610Z AUTO 35003KT 10SM CLR 13/12 A2996 990 93 1000 350/03 RMK AO2
14926KSTC STC20010831001509808/31/01 00:15:31  5-MIN KSTC 310615Z AUTO 33003KT 10SM CLR 13/12 A2996 990 93 1000 330/03 RMK AO2
14926KSTC STC20010831002009708/31/01 00:20:31  5-MIN KSTC 310620Z AUTO 33004KT 10SM CLR 12/11 A2996 990 93 900 330/04 RMK AO2
14926KSTC STC20010831002509708/31/01 00:25:31  5-MIN KSTC 310625Z AUTO 33004KT 10SM CLR 12/12 A2996 990 96 900 330/04 RMK AO2
14926KSTC STC20010831003009708/31/01 00:30:31  5-MIN KSTC 310630Z AUTO 32004KT 10SM CLR 12/12 A2996 990 96 900 320/04 RMK AO2
14926KSTC STC20010831003509708/31/01 00:35:31  5-MIN KSTC 310635Z AUTO 33003KT 10SM CLR 12/11 A2996 990 93 900 330/03 RMK AO2
14926KSTC STC20010831004009708/31/01 00:40:31  5-MIN KSTC 310640Z AUTO 33004KT 10SM CLR 12/11 A2996 990 93 900 330/04 RMK AO2
14926KSTC STC20010831004509708/31/01 00:45:31  5-MIN KSTC 310645Z AUTO 33004KT 10SM CLR 12/12 A2996 990 96 900 330/04 RMK AO2
14926KSTC STC20010831005011408/31/01 00:50:31  5-MIN KSTC 310650Z AUTO 32004KT 10SM CLR 12/12 A2996 990 96 900 320/04 RMK AO2 SLP151 T01220117
14926KSTC STC20010831005509708/31/01 00:55:31  5-MIN KSTC 310655Z AUTO 33004KT 10SM CLR 12/11 A2996 990 96 900 330/04 RMK AO2
14926KSTC STC20010831010009708/31/01 01:00:31  5-MIN KSTC 310700Z AUTO 33004KT 10SM CLR 12/11 A2996 990 96 900 320/04 RMK AO2
14926KSTC STC20010831010509708/31/01 01:05:31  5-MIN KSTC 310705Z AUTO 33003KT 10SM CLR 12/11 A2996 990 96 900 330/03 RMK AO2
14926KSTC STC20010831011009708/31/01 01:10:31  5-MIN KSTC 310710Z AUTO 33004KT 10SM CLR 12/11 A2996 990 96 900 330/04 RMK AO2
14926KSTC STC20010831011509708/31/01 01:15:31  5-MIN KSTC 310715Z AUTO 33005KT 10SM CLR 12/11 A2996 990 96 900 330/05 RMK AO2
14926KSTC STC20010831012009708/31/01 01:20:31  5-MIN KSTC 310720Z AUTO 33004KT 10SM CLR 12/11 A2996 990 96 900 330/04 RMK AO2
14926KSTC STC20010831012509708/31/01 01:25:31  5-MIN KSTC 310725Z AUTO 33004KT 10SM CLR 12/11 A2996 990 96 900 330/04 RMK AO2
14926KSTC STC20010831013009708/31/01 01:30:31  5-MIN KSTC 310730Z AUTO 33004KT 10SM CLR 12/11 A2997 980 96 900 330/04 RMK AO2
14926KSTC STC20010831013509708/31/01 01:35:31  5-MIN KSTC 310735Z AUTO 34003KT 10SM CLR 12/11 A2997 980 96 900 340/03 RMK AO2
14926KSTC STC20010831014009708/31/01 01:40:31  5-MIN KSTC 310740Z AUTO 34003KT 10SM CLR 12/11 A2997 980 96 900 340/03 RMK AO2
14926KSTC STC20010831014509708/31/01 01:45:31  5-MIN KSTC 310745Z AUTO 35003KT 10SM CLR 12/11 A2997 980 96 900 350/03 RMK AO2
14926KSTC STC20010831015011408/31/01 01:50:31  5-MIN KSTC 310750Z AUTO 00000KT 10SM CLR 12/11 A2998 970 96 800 000/00 RMK AO2 SLP158 T01170111
14926KSTC STC20010831015509708/31/01 01:55:31  5-MIN KSTC 310755Z AUTO 33003KT 10SM CLR 12/11 A2998 970 96 800 330/03 RMK AO2
14926KSTC STC20010831020009708/31/01 02:00:31  5-MIN KSTC 310800Z AUTO 33003KT 10SM CLR 12/11 A2998 970 96 800 330/03 RMK AO2
14926KSTC STC20010831020510008/31/01 02:05:31  5-MIN KSTC 310805Z AUTO 34003KT 10SM SCT022 12/11 A2998 970 96 800 340/03 RMK AO2
14926KSTC STC20010831021010008/31/01 02:10:31  5-MIN KSTC 310810Z AUTO 00000KT 10SM BKN022 12/11 A2998 970 96 800 000/00 RMK AO2
14926KSTC STC20010831021510008/31/01 02:15:31  5-MIN KSTC 310815Z AUTO 34003KT 10SM BKN022 12/11 A2998 970 96 800 340/03 RMK AO2
14926KSTC STC20010831022010008/31/01 02:20:31  5-MIN KSTC 310820Z AUTO 35003KT 10SM BKN022 12/11 A2999 970 96 800 340/03 RMK AO2
14926KSTC STC20010831022510008/31/01 02:25:31  5-MIN KSTC 310825Z AUTO 34003KT 10SM BKN022 12/11 A2999 970 96 800 340/03 RMK AO2
14926KSTC STC20010831023010008/31/01 02:30:31  5-MIN KSTC 310830Z AUTO 32003KT 10SM BKN022 12/11 A2999 970 96 800 320/03 RMK AO2
14926KSTC STC20010831023510108/31/01 02:35:31  5-MIN KSTC 310835Z AUTO 34003KT 10SM BKN022 11/11 A2999 960 100 800 330/03 RMK AO2
14926KSTC STC20010831024010108/31/01 02:40:31  5-MIN KSTC 310840Z AUTO 33004KT 10SM SCT022 11/11 A2999 960 100 800 330/04 RMK AO2
14926KSTC STC20010831024510108/31/01 02:45:31  5-MIN KSTC 310845Z AUTO 33004KT 10SM FEW022 11/11 A2999 960 100 800 320/04 RMK AO2
14926KSTC STC20010831025012408/31/01 02:50:31  5-MIN KSTC 310850Z AUTO 33004KT 10SM FEW022 11/11 A2999 960 100 800 320/04 RMK AO2 SLP163 T01110111 51014
14926KSTC STC20010831025509808/31/01 02:55:31  5-MIN KSTC 310855Z AUTO 32003KT 10SM CLR 11/11 A2999 960 100 700 310/03 RMK AO2
14926KSTC STC20010831030009808/31/01 03:00:31  5-MIN KSTC 310900Z AUTO 32004KT 10SM CLR 11/11 A3000 960 100 700 310/04 RMK AO2
14926KSTC STC20010831030509808/31/01 03:05:31  5-MIN KSTC 310905Z AUTO 32004KT 10SM CLR 11/11 A3000 950 100 700 310/04 RMK AO2
14926KSTC STC20010831031009808/31/01 03:10:31  5-MIN KSTC 310910Z AUTO 32004KT 10SM CLR 11/11 A3000 950 100 700 320/04 RMK AO2
14926KSTC STC20010831031509808/31/01 03:15:31  5-MIN KSTC 310915Z AUTO 32004KT 10SM CLR 10/10 A3000 950 100 600 320/04 RMK AO2
14926KSTC STC20010831032009808/31/01 03:20:31  5-MIN KSTC 310920Z AUTO 35004KT 10SM CLR 11/11 A3000 960 100 700 340/04 RMK AO2
14926KSTC STC20010831032509808/31/01 03:25:31  5-MIN KSTC 310925Z AUTO VRB05KT 10SM CLR 11/11 A3000 960 100 700 VRB/05 RMK AO2
14926KSTC STC20010831033009808/31/01 03:30:31  5-MIN KSTC 310930Z AUTO VRB04KT 10SM CLR 11/11 A3000 950 100 700 VRB/04 RMK AO2
14926KSTC STC20010831033509808/31/01 03:35:31  5-MIN KSTC 310935Z AUTO 34005KT 10SM CLR 11/11 A3000 950 100 700 330/05 RMK AO2
14926KSTC STC20010831034009808/31/01 03:40:31  5-MIN KSTC 310940Z AUTO 35004KT 10SM CLR 11/11 A3000 950 100 700 350/04 RMK AO2
14926KSTC STC20010831034509808/31/01 03:45:31  5-MIN KSTC 310945Z AUTO 33004KT 10SM CLR 11/11 A3000 950 100 700 330/04 RMK AO2
14926KSTC STC20010831035011508/31/01 03:50:31  5-MIN KSTC 310950Z AUTO 34003KT 10SM CLR 11/11 A3000 950 100 700 340/03 RMK AO2 SLP168 T01060106
14926KSTC STC20010831035509808/31/01 03:55:31  5-MIN KSTC 310955Z AUTO 34003KT 10SM CLR 10/10 A3001 950 100 600 330/03 RMK AO2
14926KSTC STC20010831040009808/31/01 04:00:31  5-MIN KSTC 311000Z AUTO 34003KT 10SM CLR 10/10 A3001 950 100 600 330/03 RMK AO2
14926KSTC STC20010831040509808/31/01 04:05:31  5-MIN KSTC 311005Z AUTO 33004KT 10SM CLR 10/10 A3001 950 100 600 330/04 RMK AO2
14926KSTC STC20010831041009808/31/01 04:10:31  5-MIN KSTC 311010Z AUTO 33004KT 10SM CLR 10/10 A3001 940 100 600 330/04 RMK AO2
14926KSTC STC20010831041509808/31/01 04:15:31  5-MIN KSTC 311015Z AUTO 33005KT 10SM CLR 10/10 A3001 940 100 600 320/05 RMK AO2
14926KSTC STC20010831042009808/31/01 04:20:31  5-MIN KSTC 311020Z AUTO 32004KT 10SM CLR 10/10 A3001 940 100 600 320/04 RMK AO2
14926KSTC STC20010831042509808/31/01 04:25:31  5-MIN KSTC 311025Z AUTO 32003KT 10SM CLR 10/10 A3002 940 100 600 320/03 RMK AO2
14926KSTC STC20010831043009808/31/01 04:30:31  5-MIN KSTC 311030Z AUTO 00000KT 10SM CLR 10/10 A3002 940 100 600 000/00 RMK AO2
14926KSTC STC20010831043509808/31/01 04:35:31  5-MIN KSTC 311035Z AUTO 32004KT 10SM CLR 10/10 A3002 940 100 600 320/04 RMK AO2
14926KSTC STC20010831044009808/31/01 04:40:31  5-MIN KSTC 311040Z AUTO 33004KT 10SM CLR 09/09 A3002 930 100 500 330/04 RMK AO2
14926KSTC STC20010831044509808/31/01 04:45:31  5-MIN KSTC 311045Z AUTO 33004KT 10SM CLR 09/09 A3002 930 100 500 330/04 RMK AO2
14926KSTC STC20010831045011508/31/01 04:50:31  5-MIN KSTC 311050Z AUTO 34003KT 10SM CLR 10/10 A3002 930 100 600 340/03 RMK AO2 SLP174 T01000100
14926KSTC STC20010831045509808/31/01 04:55:31  5-MIN KSTC 311055Z AUTO 34003KT 10SM CLR 10/10 A3002 930 100 600 340/03 RMK AO2
14926KSTC STC20010831050009808/31/01 05:00:31  5-MIN KSTC 311100Z AUTO 00000KT 10SM CLR 10/10 A3003 930 100 600 000/00 RMK AO2
14926KSTC STC20010831050509808/31/01 05:05:31  5-MIN KSTC 311105Z AUTO 00000KT 10SM CLR 10/10 A3003 930 100 600 000/00 RMK AO2
14926KSTC STC20010831051009808/31/01 05:10:31  5-MIN KSTC 311110Z AUTO 34003KT 10SM CLR 10/10 A3003 920 100 600 340/03 RMK AO2
14926KSTC STC20010831051509808/31/01 05:15:31  5-MIN KSTC 311115Z AUTO 34003KT 10SM CLR 10/10 A3003 920 100 600 340/03 RMK AO2
14926KSTC STC20010831052009808/31/01 05:20:31  5-MIN KSTC 311120Z AUTO 34003KT 10SM CLR 09/09 A3003 920 100 500 340/03 RMK AO2
14926KSTC STC20010831052509808/31/01 05:25:31  5-MIN KSTC 311125Z AUTO 35003KT 10SM CLR 09/09 A3003 920 100 500 350/03 RMK AO2
14926KSTC STC20010831053009808/31/01 05:30:31  5-MIN KSTC 311130Z AUTO 35004KT 10SM CLR 09/09 A3003 920 100 500 350/04 RMK AO2
14926KSTC STC20010831053509808/31/01 05:35:31  5-MIN KSTC 311135Z AUTO 00000KT 10SM CLR 09/09 A3004 920 100 500 000/00 RMK AO2
14926KSTC STC20010831054009808/31/01 05:40:31  5-MIN KSTC 311140Z AUTO 00000KT 10SM CLR 09/09 A3004 920 100 500 000/00 RMK AO2
14926KSTC STC20010831054509808/31/01 05:45:31  5-MIN KSTC 311145Z AUTO 34003KT 10SM CLR 09/09 A3004 920 100 500 340/03 RMK AO2
14926KSTC STC20010831055013308/31/01 05:50:31  5-MIN KSTC 311150Z AUTO 34003KT 10SM CLR 09/09 A3004 910 100 500 340/03 RMK AO2 SLP182 T00940094 10128 20094 53013
14926KSTC STC20010831055509808/31/01 05:55:31  5-MIN KSTC 311155Z AUTO 33004KT 10SM CLR 09/09 A3005 910 100 500 330/04 RMK AO2
14926KSTC STC20010831060009808/31/01 06:00:31  5-MIN KSTC 311200Z AUTO 34004KT 10SM CLR 09/09 A3005 910 100 500 330/04 RMK AO2
14926KSTC STC20010831060509808/31/01 06:05:31  5-MIN KSTC 311205Z AUTO 34004KT 10SM CLR 10/10 A3005 910 100 600 330/04 RMK AO2
14926KSTC STC20010831061009808/31/01 06:10:31  5-MIN KSTC 311210Z AUTO 35004KT 10SM CLR 10/10 A3005 910 100 600 340/04 RMK AO2
14926KSTC STC20010831061509808/31/01 06:15:31  5-MIN KSTC 311215Z AUTO 35005KT 10SM CLR 10/10 A3005 910 100 600 340/05 RMK AO2
14926KSTC STC20010831062009808/31/01 06:20:31  5-MIN KSTC 311220Z AUTO 35004KT 10SM CLR 10/10 A3005 910 100 600 350/04 RMK AO2
14926KSTC STC20010831062509808/31/01 06:25:31  5-MIN KSTC 311225Z AUTO 36004KT 10SM CLR 11/11 A3005 900 100 600 350/04 RMK AO2
14926KSTC STC20010831063009808/31/01 06:30:31  5-MIN KSTC 311230Z AUTO 35004KT 10SM CLR 11/11 A3006 900 100 600 350/04 RMK AO2
14926KSTC STC20010831063509808/31/01 06:35:31  5-MIN KSTC 311235Z AUTO 35004KT 10SM CLR 11/11 A3006 900 100 700 350/04 RMK AO2
14926KSTC STC20010831064009808/31/01 06:40:31  5-MIN KSTC 311240Z AUTO 34004KT 10SM CLR 11/11 A3006 900 100 700 340/04 RMK AO2
14926KSTC STC20010831064509808/31/01 06:45:31  5-MIN KSTC 311245Z AUTO 34004KT 10SM CLR 11/11 A3006 900 100 700 330/04 RMK AO2
14926KSTC STC20010831065011408/31/01 06:50:31  5-MIN KSTC 311250Z AUTO 34005KT 10SM CLR 12/11 A3006 890 96 700 340/05 RMK AO2 SLP188 T01170111
14926KSTC STC20010831065509708/31/01 06:55:31  5-MIN KSTC 311255Z AUTO 34005KT 10SM CLR 12/11 A3006 900 96 700 340/05 RMK AO2
14926KSTC STC20010831070009708/31/01 07:00:31  5-MIN KSTC 311300Z AUTO 35005KT 10SM CLR 12/11 A3006 890 96 700 350/05 RMK AO2
14926KSTC STC20010831070509708/31/01 07:05:31  5-MIN KSTC 311305Z AUTO 34005KT 10SM CLR 12/11 A3006 890 93 800 340/05 RMK AO2
14926KSTC STC20010831071009708/31/01 07:10:31  5-MIN KSTC 311310Z AUTO 34005KT 10SM CLR 12/12 A3006 890 96 800 340/05 RMK AO2
14926KSTC STC20010831071509708/31/01 07:15:31  5-MIN KSTC 311315Z AUTO 36004KT 10SM CLR 13/12 A3007 890 96 900 360/04 RMK AO2
14926KSTC STC20010831072009708/31/01 07:20:31  5-MIN KSTC 311320Z AUTO 36005KT 10SM CLR 13/12 A3007 890 93 900 360/05 RMK AO2
14926KSTC STC20010831072509708/31/01 07:25:31  5-MIN KSTC 311325Z AUTO 36006KT 10SM CLR 13/12 A3007 890 93 900 360/06 RMK AO2
14926KSTC STC20010831073009708/31/01 07:30:31  5-MIN KSTC 311330Z AUTO 36005KT 10SM CLR 13/12 A3007 890 89 900 350/05 RMK AO2
14926KSTC STC20010831073509708/31/01 07:35:31  5-MIN KSTC 311335Z AUTO 36005KT 10SM CLR 13/12 A3007 890 89 900 360/05 RMK AO2
14926KSTC STC20010831074009708/31/01 07:40:31  5-MIN KSTC 311340Z AUTO 36005KT 10SM CLR 13/12 A3007 890 89 900 360/05 RMK AO2
14926KSTC STC20010831074509808/31/01 07:45:31  5-MIN KSTC 311345Z AUTO 01004KT 10SM CLR 14/12 A3007 890 90 1000 360/04 RMK AO2
14926KSTC STC20010831075011508/31/01 07:50:31  5-MIN KSTC 311350Z AUTO 01004KT 10SM CLR 14/12 A3007 890 90 1000 360/04 RMK AO2 SLP192 T01390122
14926KSTC STC20010831075509808/31/01 07:55:31  5-MIN KSTC 311355Z AUTO 04005KT 10SM CLR 14/12 A3007 880 83 1100 040/05 RMK AO2
14926KSTC STC20010831080009808/31/01 08:00:31  5-MIN KSTC 311400Z AUTO 02004KT 10SM CLR 15/12 A3008 880 80 1100 020/04 RMK AO2
14926KSTC STC20010831080509808/31/01 08:05:31  5-MIN KSTC 311405Z AUTO 06003KT 10SM CLR 15/11 A3008 880 77 1100 060/03 RMK AO2
14926KSTC STC20010831081009808/31/01 08:10:31  5-MIN KSTC 311410Z AUTO 03005KT 10SM CLR 15/11 A3008 880 74 1100 030/05 RMK AO2
14926KSTC STC20010831081509808/31/01 08:15:31  5-MIN KSTC 311415Z AUTO 05005KT 10SM CLR 15/11 A3008 880 74 1100 050/05 RMK AO2
14926KSTC STC20010831082009808/31/01 08:20:31  5-MIN KSTC 311420Z AUTO 02005KT 10SM CLR 16/11 A3008 880 72 1200 020/05 RMK AO2
14926KSTC STC20010831082509808/31/01 08:25:31  5-MIN KSTC 311425Z AUTO 01004KT 10SM CLR 16/10 A3008 880 69 1200 360/04 RMK AO2
14926KSTC STC20010831083009808/31/01 08:30:31  5-MIN KSTC 311430Z AUTO VRB04KT 10SM CLR 16/10 A3008 880 69 1200 VRB/04 RMK AO2
14926KSTC STC20010831083509808/31/01 08:35:31  5-MIN KSTC 311435Z AUTO 04004KT 10SM CLR 16/09 A3008 880 64 1300 040/04 RMK AO2
14926KSTC STC20010831084009808/31/01 08:40:31  5-MIN KSTC 311440Z AUTO 01004KT 10SM CLR 16/10 A3008 880 67 1300 010/04 RMK AO2
14926KSTC STC20010831084509808/31/01 08:45:31  5-MIN KSTC 311445Z AUTO 06004KT 10SM CLR 16/09 A3008 880 62 1300 050/04 RMK AO2
14926KSTC STC20010831085012108/31/01 08:50:31  5-MIN KSTC 311450Z AUTO 01005KT 10SM CLR 17/08 A3009 870 57 1300 010/05 RMK AO2 SLP195 T01670083 53017
14926KSTC STC20010831085509808/31/01 08:55:31  5-MIN KSTC 311455Z AUTO 02005KT 10SM CLR 16/08 A3009 870 59 1200 020/05 RMK AO2
14926KSTC STC20010831090009808/31/01 09:00:31  5-MIN KSTC 311500Z AUTO 04005KT 10SM CLR 17/08 A3009 870 55 1300 030/05 RMK AO2
14926KSTC STC20010831090509808/31/01 09:05:31  5-MIN KSTC 311505Z AUTO VRB03KT 10SM CLR 17/08 A3009 870 57 1300 VRB/03 RMK AO2
14926KSTC STC20010831091009808/31/01 09:10:31  5-MIN KSTC 311510Z AUTO 36004KT 10SM CLR 17/09 A3009 870 60 1300 360/04 RMK AO2
14926KSTC STC20010831091509808/31/01 09:15:31  5-MIN KSTC 311515Z AUTO 00000KT 10SM CLR 17/08 A3009 870 57 1300 000/00 RMK AO2
14926KSTC STC20010831092009808/31/01 09:20:31  5-MIN KSTC 311520Z AUTO 07004KT 10SM CLR 17/09 A3009 870 57 1400 070/04 RMK AO2
14926KSTC STC20010831092509808/31/01 09:25:31  5-MIN KSTC 311525Z AUTO 09004KT 10SM CLR 17/07 A3009 870 53 1300 090/04 RMK AO2
14926KSTC STC20010831093009808/31/01 09:30:31  5-MIN KSTC 311530Z AUTO 00000KT 10SM CLR 17/08 A3009 870 55 1400 000/00 RMK AO2
14926KSTC STC20010831093509808/31/01 09:35:31  5-MIN KSTC 311535Z AUTO 35004KT 10SM CLR 18/07 A3009 870 49 1400 340/04 RMK AO2
14926KSTC STC20010831094010108/31/01 09:40:31  5-MIN KSTC 311540Z AUTO VRB04KT 10SM FEW039 18/07 A3009 870 49 1400 VRB/04 RMK AO2
14926KSTC STC20010831094510108/31/01 09:45:31  5-MIN KSTC 311545Z AUTO 05006KT 10SM FEW039 18/07 A3010 870 49 1400 050/06 RMK AO2
14926KSTC STC20010831095011508/31/01 09:50:31  5-MIN KSTC 311550Z AUTO 00000KT 10SM CLR 17/07 A3010 860 51 1400 000/00 RMK AO2 SLP199 T01720072
14926KSTC STC20010831095509808/31/01 09:55:31  5-MIN KSTC 311555Z AUTO 02005KT 10SM CLR 18/07 A3010 860 49 1400 020/05 RMK AO2
14926KSTC STC20010831100009808/31/01 10:00:31  5-MIN KSTC 311600Z AUTO 00000KT 10SM CLR 18/07 A3010 860 49 1400 000/00 RMK AO2
14926KSTC STC20010831100510108/31/01 10:05:31  5-MIN KSTC 311605Z AUTO VRB03KT 10SM FEW041 17/07 A3010 860 51 1400 VRB/03 RMK AO2
14926KSTC STC20010831101010108/31/01 10:10:31  5-MIN KSTC 311610Z AUTO 05006KT 10SM FEW043 18/08 A3010 860 50 1500 050/06 RMK AO2
14926KSTC STC20010831101510108/31/01 10:15:31  5-MIN KSTC 311615Z AUTO VRB03KT 10SM FEW043 17/07 A3010 860 49 1400 VRB/03 RMK AO2
14926KSTC STC20010831102010108/31/01 10:20:31  5-MIN KSTC 311620Z AUTO 00000KT 10SM FEW043 18/07 A3010 860 49 1400 000/00 RMK AO2
14926KSTC STC20010831102510108/31/01 10:25:31  5-MIN KSTC 311625Z AUTO 01006KT 10SM FEW045 18/07 A3010 860 48 1500 010/06 RMK AO2
14926KSTC STC20010831103010108/31/01 10:30:31  5-MIN KSTC 311630Z AUTO VRB05KT 10SM SCT045 18/07 A3010 860 48 1500 VRB/05 RMK AO2
14926KSTC STC20010831103510108/31/01 10:35:31  5-MIN KSTC 311635Z AUTO 35006KT 10SM FEW045 18/08 A3010 860 50 1500 340/06 RMK AO2
14926KSTC STC20010831104010108/31/01 10:40:31  5-MIN KSTC 311640Z AUTO 05006KT 10SM FEW045 18/07 A3010 860 48 1500 040/06 RMK AO2
14926KSTC STC20010831104510108/31/01 10:45:31  5-MIN KSTC 311645Z AUTO 35004KT 10SM FEW045 18/07 A3010 860 48 1500 350/04 RMK AO2
14926KSTC STC20010831105011808/31/01 10:50:31  5-MIN KSTC 311650Z AUTO 00000KT 10SM SCT047 18/07 A3010 860 49 1400 000/00 RMK AO2 SLP200 T01780072
14926KSTC STC20010831105510108/31/01 10:55:31  5-MIN KSTC 311655Z AUTO VRB04KT 10SM BKN047 18/07 A3009 870 48 1500 VRB/04 RMK AO2
14926KSTC STC20010831110010108/31/01 11:00:31  5-MIN KSTC 311700Z AUTO VRB04KT 10SM BKN047 18/07 A3009 870 48 1500 VRB/04 RMK AO2
14926KSTC STC20010831110510108/31/01 11:05:31  5-MIN KSTC 311705Z AUTO 06006KT 10SM BKN047 19/08 A3009 870 48 1600 060/06 RMK AO2
14926KSTC STC20010831111010108/31/01 11:10:31  5-MIN KSTC 311710Z AUTO 31006KT 10SM BKN047 19/08 A3009 870 48 1600 310/06 RMK AO2
14926KSTC STC20010831111510108/31/01 11:15:31  5-MIN KSTC 311715Z AUTO VRB05KT 10SM BKN047 19/08 A3009 870 48 1600 VRB/05 RMK AO2
14926KSTC STC20010831112010108/31/01 11:20:31  5-MIN KSTC 311720Z AUTO 31004KT 10SM SCT047 18/08 A3009 870 50 1500 300/04 RMK AO2
14926KSTC STC20010831112510108/31/01 11:25:31  5-MIN KSTC 311725Z AUTO VRB05KT 10SM FEW047 18/08 A3009 870 50 1500 VRB/05 RMK AO2
14926KSTC STC20010831113010108/31/01 11:30:31  5-MIN KSTC 311730Z AUTO 31006KT 10SM FEW047 19/08 A3009 870 48 1600 310/06 RMK AO2
14926KSTC STC20010831113510108/31/01 11:35:31  5-MIN KSTC 311735Z AUTO 01005KT 10SM FEW047 19/08 A3009 870 48 1600 010/05 RMK AO2
14926KSTC STC20010831114009808/31/01 11:40:31  5-MIN KSTC 311740Z AUTO VRB04KT 10SM CLR 18/07 A3008 870 48 1500 VRB/04 RMK AO2
14926KSTC STC20010831114510108/31/01 11:45:31  5-MIN KSTC 311745Z AUTO VRB05KT 10SM FEW047 19/08 A3008 870 48 1600 VRB/05 RMK AO2
14926KSTC STC20010831115013608/31/01 11:50:31  5-MIN KSTC 311750Z AUTO VRB05KT 10SM FEW047 19/08 A3008 880 46 1600 VRB/05 RMK AO2 SLP195 T01940078 10194 20094 51014
14926KSTC STC20010831115510108/31/01 11:55:31  5-MIN KSTC 311755Z AUTO 00000KT 10SM FEW048 19/07 A3008 880 46 1600 000/00 RMK AO2
14926KSTC STC20010831120010108/31/01 12:00:31  5-MIN KSTC 311800Z AUTO VRB06KT 10SM FEW048 19/08 A3008 880 46 1600 VRB/06 RMK AO2
14926KSTC STC20010831120510108/31/01 12:05:31  5-MIN KSTC 311805Z AUTO VRB05KT 10SM FEW048 19/08 A3008 880 46 1600 VRB/05 RMK AO2
14926KSTC STC20010831121010108/31/01 12:10:31  5-MIN KSTC 311810Z AUTO VRB04KT 10SM FEW048 19/08 A3008 880 46 1600 VRB/04 RMK AO2
14926KSTC STC20010831121509808/31/01 12:15:31  5-MIN KSTC 311815Z AUTO VRB05KT 10SM CLR 19/08 A3008 880 46 1600 VRB/05 RMK AO2
14926KSTC STC20010831122009808/31/01 12:20:31  5-MIN KSTC 311820Z AUTO VRB04KT 10SM CLR 20/08 A3008 880 45 1700 VRB/04 RMK AO2
14926KSTC STC20010831122509808/31/01 12:25:31  5-MIN KSTC 311825Z AUTO VRB04KT 10SM CLR 20/08 A3008 880 45 1700 VRB/04 RMK AO2
14926KSTC STC20010831123009808/31/01 12:30:31  5-MIN KSTC 311830Z AUTO VRB03KT 10SM CLR 19/08 A3008 880 46 1600 VRB/03 RMK AO2
14926KSTC STC20010831123509808/31/01 12:35:31  5-MIN KSTC 311835Z AUTO VRB05KT 10SM CLR 19/08 A3007 880 46 1600 VRB/05 RMK AO2
14926KSTC STC20010831124009808/31/01 12:40:31  5-MIN KSTC 311840Z AUTO VRB06KT 10SM CLR 20/08 A3007 880 45 1700 VRB/06 RMK AO2
14926KSTC STC20010831124509808/31/01 12:45:31  5-MIN KSTC 311845Z AUTO 00000KT 10SM CLR 19/08 A3007 890 46 1600 000/00 RMK AO2
14926KSTC STC20010831125011508/31/01 12:50:31  5-MIN KSTC 311850Z AUTO 29006KT 10SM CLR 19/07 A3007 890 44 1600 280/06 RMK AO2 SLP192 T01940072
14926KSTC STC20010831125509808/31/01 12:55:31  5-MIN KSTC 311855Z AUTO VRB05KT 10SM CLR 20/08 A3007 890 45 1700 VRB/05 RMK AO2
14926KSTC STC20010831130009808/31/01 13:00:31  5-MIN KSTC 311900Z AUTO 00000KT 10SM CLR 19/07 A3007 890 44 1700 000/00 RMK AO2
14926KSTC STC20010831130509808/31/01 13:05:31  5-MIN KSTC 311905Z AUTO VRB04KT 10SM CLR 20/08 A3007 890 46 1700 VRB/04 RMK AO2
14926KSTC STC20010831131010108/31/01 13:10:31  5-MIN KSTC 311910Z AUTO 02006KT 10SM FEW048 21/09 A3007 890 46 1800 020/06 RMK AO2
14926KSTC STC20010831131510108/31/01 13:15:31  5-MIN KSTC 311915Z AUTO 34006KT 10SM FEW048 19/08 A3007 890 48 1700 340/06 RMK AO2
14926KSTC STC20010831132010108/31/01 13:20:31  5-MIN KSTC 311920Z AUTO 32009KT 10SM FEW048 20/08 A3006 890 46 1700 310/09 RMK AO2
14926KSTC STC20010831132509808/31/01 13:25:31  5-MIN KSTC 311925Z AUTO VRB03KT 10SM CLR 21/08 A3006 890 45 1800 VRB/03 RMK AO2
14926KSTC STC20010831133009808/31/01 13:30:31  5-MIN KSTC 311930Z AUTO VRB03KT 10SM CLR 21/08 A3006 890 45 1800 VRB/03 RMK AO2
14926KSTC STC20010831133509808/31/01 13:35:31  5-MIN KSTC 311935Z AUTO VRB03KT 10SM CLR 20/07 A3006 890 43 1700 VRB/03 RMK AO2
14926KSTC STC20010831134011408/31/01 13:40:31  5-MIN KSTC 311940Z AUTO 33007KT 290V360 10SM CLR 21/08 A3006 890 43 1800 330/07 290V360 RMK AO2
14926KSTC STC20010831134509808/31/01 13:45:31  5-MIN KSTC 311945Z AUTO 33007KT 10SM CLR 21/07 A3006 890 41 1800 320/07 RMK AO2
14926KSTC STC20010831135011508/31/01 13:50:31  5-MIN KSTC 311950Z AUTO 33003KT 10SM CLR 20/07 A3006 890 43 1700 330/03 RMK AO2 SLP188 T02000072
14926KSTC STC20010831135509808/31/01 13:55:31  5-MIN KSTC 311955Z AUTO 00000KT 10SM CLR 20/07 A3006 900 43 1700 000/00 RMK AO2
14926KSTC STC20010831140009808/31/01 14:00:31  5-MIN KSTC 312000Z AUTO 00000KT 10SM CLR 21/08 A3006 900 43 1800 000/00 RMK AO2
14926KSTC STC20010831140509808/31/01 14:05:31  5-MIN KSTC 312005Z AUTO VRB05KT 10SM CLR 20/08 A3006 900 45 1700 VRB/05 RMK AO2
14926KSTC STC20010831141009808/31/01 14:10:31  5-MIN KSTC 312010Z AUTO 00000KT 10SM CLR 21/08 A3006 900 43 1800 000/00 RMK AO2
14926KSTC STC20010831141509808/31/01 14:15:31  5-MIN KSTC 312015Z AUTO 00000KT 10SM CLR 20/07 A3006 900 43 1700 000/00 RMK AO2
14926KSTC STC20010831142009808/31/01 14:20:31  5-MIN KSTC 312020Z AUTO VRB04KT 10SM CLR 21/08 A3006 900 43 1800 VRB/04 RMK AO2
14926KSTC STC20010831142509808/31/01 14:25:31  5-MIN KSTC 312025Z AUTO VRB04KT 10SM CLR 21/07 A3006 900 41 1800 VRB/04 RMK AO2
14926KSTC STC20010831143009808/31/01 14:30:31  5-MIN KSTC 312030Z AUTO 27005KT 10SM CLR 21/08 A3006 900 43 1800 270/05 RMK AO2
14926KSTC STC20010831143509808/31/01 14:35:31  5-MIN KSTC 312035Z AUTO 33006KT 10SM CLR 21/08 A3006 900 43 1900 320/06 RMK AO2
14926KSTC STC20010831144009808/31/01 14:40:31  5-MIN KSTC 312040Z AUTO 00000KT 10SM CLR 20/08 A3006 900 45 1700 000/00 RMK AO2
14926KSTC STC20010831144509808/31/01 14:45:31  5-MIN KSTC 312045Z AUTO VRB03KT 10SM CLR 21/07 A3006 900 41 1800 VRB/03 RMK AO2
14926KSTC STC20010831145012108/31/01 14:50:31  5-MIN KSTC 312050Z AUTO VRB05KT 10SM CLR 21/08 A3005 900 43 1800 VRB/05 RMK AO2 SLP185 T02060078 58001
14926KSTC STC20010831145509808/31/01 14:55:31  5-MIN KSTC 312055Z AUTO VRB05KT 10SM CLR 21/08 A3005 910 43 1800 VRB/05 RMK AO2
14926KSTC STC20010831185011508/31/01 18:50:31  5-MIN KSTC 010050Z AUTO 11005KT 10SM CLR 17/11 A3003 930 67 1400 110/05 RMK AO2 SLP177 T01670106
14926KSTC STC20010831185509808/31/01 18:55:31  5-MIN KSTC 010055Z AUTO 11005KT 10SM CLR 17/11 A3003 930 67 1400 110/05 RMK AO2
14926KSTC STC20010831190009808/31/01 19:00:31  5-MIN KSTC 010100Z AUTO 11005KT 10SM CLR 17/11 A3003 930 67 1400 100/05 RMK AO2
14926KSTC STC20010831190509808/31/01 19:05:31  5-MIN KSTC 010105Z AUTO 10004KT 10SM CLR 16/11 A3003 930 69 1300 100/04 RMK AO2
14926KSTC STC20010831191009808/31/01 19:10:31  5-MIN KSTC 010110Z AUTO 10005KT 10SM CLR 16/11 A3003 930 69 1300 100/05 RMK AO2
14926KSTC STC20010831191509808/31/01 19:15:31  5-MIN KSTC 010115Z AUTO 11005KT 10SM CLR 16/11 A3003 920 69 1300 110/05 RMK AO2
14926KSTC STC20010831192009808/31/01 19:20:31  5-MIN KSTC 010120Z AUTO 11005KT 10SM CLR 16/10 A3003 930 67 1300 110/05 RMK AO2
14926KSTC STC20010831192509808/31/01 19:25:31  5-MIN KSTC 010125Z AUTO 11005KT 10SM CLR 16/10 A3003 930 67 1300 100/05 RMK AO2
14926KSTC STC20010831193009808/31/01 19:30:31  5-MIN KSTC 010130Z AUTO 11006KT 10SM CLR 16/11 A3003 930 72 1200 100/06 RMK AO2
14926KSTC STC20010831193509808/31/01 19:35:31  5-MIN KSTC 010135Z AUTO 11006KT 10SM CLR 16/11 A3003 930 72 1200 100/06 RMK AO2
14926KSTC STC20010831194009808/31/01 19:40:31  5-MIN KSTC 010140Z AUTO 10006KT 10SM CLR 15/11 A3003 930 74 1200 090/06 RMK AO2
14926KSTC STC20010831194509808/31/01 19:45:31  5-MIN KSTC 010145Z AUTO 10006KT 10SM CLR 14/11 A3003 930 80 1100 090/06 RMK AO2
14926KSTC STC20010831195011508/31/01 19:50:31  5-MIN KSTC 010150Z AUTO 10006KT 10SM CLR 15/11 A3003 930 74 1200 100/06 RMK AO2 SLP178 T01500106
14926KSTC STC20010831195509808/31/01 19:55:31  5-MIN KSTC 010155Z AUTO 10006KT 10SM CLR 15/11 A3003 930 74 1200 100/06 RMK AO2
14926KSTC STC20010831200009808/31/01 20:00:31  5-MIN KSTC 010200Z AUTO 10005KT 10SM CLR 15/11 A3003 930 74 1200 100/05 RMK AO2
14926KSTC STC20010831200509808/31/01 20:05:31  5-MIN KSTC 010205Z AUTO 11005KT 10SM CLR 14/11 A3003 920 77 1100 100/05 RMK AO2
14926KSTC STC20010831201009808/31/01 20:10:31  5-MIN KSTC 010210Z AUTO 13003KT 10SM CLR 14/11 A3003 920 77 1100 130/03 RMK AO2
14926KSTC STC20010831201509808/31/01 20:15:31  5-MIN KSTC 010215Z AUTO 12004KT 10SM CLR 13/11 A3003 920 83 1000 120/04 RMK AO2
14926KSTC STC20010831202009808/31/01 20:20:31  5-MIN KSTC 010220Z AUTO 13003KT 10SM CLR 13/11 A3004 920 83 1000 130/03 RMK AO2
14926KSTC STC20010831202509808/31/01 20:25:31  5-MIN KSTC 010225Z AUTO 12003KT 10SM CLR 13/11 A3004 920 83 1000 120/03 RMK AO2
14926KSTC STC20010831203009808/31/01 20:30:31  5-MIN KSTC 010230Z AUTO 12003KT 10SM CLR 13/11 A3004 910 83 1000 120/03 RMK AO2
14926KSTC STC20010831203509808/31/01 20:35:31  5-MIN KSTC 010235Z AUTO 12004KT 10SM CLR 13/11 A3004 910 83 1000 120/04 RMK AO2
14926KSTC STC20010831204009808/31/01 20:40:31  5-MIN KSTC 010240Z AUTO 13005KT 10SM CLR 13/11 A3004 910 83 1000 130/05 RMK AO2
14926KSTC STC20010831204509808/31/01 20:45:31  5-MIN KSTC 010245Z AUTO 12005KT 10SM CLR 14/10 A3004 910 77 1000 120/05 RMK AO2
14926KSTC STC20010831205012108/31/01 20:50:31  5-MIN KSTC 010250Z AUTO 12004KT 10SM CLR 13/10 A3004 910 80 1000 110/04 RMK AO2 SLP182 T01330100 56006
14926KSTC STC20010831205509708/31/01 20:55:31  5-MIN KSTC 010255Z AUTO 12005KT 10SM CLR 13/11 A3004 920 86 900 120/05 RMK AO2
14926KSTC STC20010831210009708/31/01 21:00:31  5-MIN KSTC 010300Z AUTO 13005KT 10SM CLR 13/10 A3004 920 83 900 130/05 RMK AO2
14926KSTC STC20010831210509808/31/01 21:05:31  5-MIN KSTC 010305Z AUTO 13006KT 10SM CLR 13/10 A3004 920 80 1000 120/06 RMK AO2
14926KSTC STC20010831211009708/31/01 21:10:31  5-MIN KSTC 010310Z AUTO 14005KT 10SM CLR 13/10 A3004 920 83 900 140/05 RMK AO2
14926KSTC STC20010831211509708/31/01 21:15:31  5-MIN KSTC 010315Z AUTO 14004KT 10SM CLR 11/11 A3004 920 96 700 140/04 RMK AO2
14926KSTC STC20010831212009708/31/01 21:20:31  5-MIN KSTC 010320Z AUTO 14004KT 10SM CLR 12/10 A3004 910 89 800 140/04 RMK AO2
14926KSTC STC20010831212509708/31/01 21:25:31  5-MIN KSTC 010325Z AUTO 13004KT 10SM CLR 12/10 A3004 920 89 800 130/04 RMK AO2
14926KSTC STC20010831213009708/31/01 21:30:31  5-MIN KSTC 010330Z AUTO 13004KT 10SM CLR 12/10 A3004 910 86 800 130/04 RMK AO2
14926KSTC STC20010831213509708/31/01 21:35:31  5-MIN KSTC 010335Z AUTO 14005KT 10SM CLR 12/10 A3004 910 86 800 140/05 RMK AO2
14926KSTC STC20010831214009708/31/01 21:40:31  5-MIN KSTC 010340Z AUTO 14005KT 10SM CLR 12/10 A3004 910 89 800 130/05 RMK AO2
14926KSTC STC20010831214509708/31/01 21:45:31  5-MIN KSTC 010345Z AUTO 14005KT 10SM CLR 12/10 A3004 910 86 800 130/05 RMK AO2
14926KSTC STC20010831215011408/31/01 21:50:31  5-MIN KSTC 010350Z AUTO 13005KT 10SM CLR 13/10 A3004 910 83 900 130/05 RMK AO2 SLP183 T01280100
14926KSTC STC20010831215509708/31/01 21:55:31  5-MIN KSTC 010355Z AUTO 13005KT 10SM CLR 13/10 A3004 920 83 900 130/05 RMK AO2
14926KSTC STC20010831220009708/31/01 22:00:31  5-MIN KSTC 010400Z AUTO 13005KT 10SM CLR 13/10 A3004 910 83 900 130/05 RMK AO2
14926KSTC STC20010831220509708/31/01 22:05:31  5-MIN KSTC 010405Z AUTO 13003KT 10SM CLR 13/10 A3005 910 83 900 130/03 RMK AO2
14926KSTC STC20010831221009708/31/01 22:10:31  5-MIN KSTC 010410Z AUTO 00000KT 10SM CLR 12/10 A3005 900 86 800 000/00 RMK AO2
14926KSTC STC20010831221509708/31/01 22:15:31  5-MIN KSTC 010415Z AUTO 00000KT 10SM CLR 12/10 A3005 900 86 800 000/00 RMK AO2
14926KSTC STC20010831222009708/31/01 22:20:31  5-MIN KSTC 010420Z AUTO 00000KT 10SM CLR 12/10 A3005 900 89 800 000/00 RMK AO2
14926KSTC STC20010831222509708/31/01 22:25:31  5-MIN KSTC 010425Z AUTO 00000KT 10SM CLR 12/10 A3005 900 89 800 000/00 RMK AO2
14926KSTC STC20010831223009708/31/01 22:30:31  5-MIN KSTC 010430Z AUTO 12003KT 10SM CLR 11/10 A3005 910 93 700 120/03 RMK AO2
14926KSTC STC20010831223509708/31/01 22:35:31  5-MIN KSTC 010435Z AUTO 13004KT 10SM CLR 11/09 A3005 910 93 600 130/04 RMK AO2
14926KSTC STC20010831224009708/31/01 22:40:31  5-MIN KSTC 010440Z AUTO 14006KT 10SM CLR 11/09 A3005 910 89 700 130/06 RMK AO2
14926KSTC STC20010831224509708/31/01 22:45:31  5-MIN KSTC 010445Z AUTO 14005KT 10SM CLR 12/10 A3005 910 89 800 130/05 RMK AO2
14926KSTC STC20010831225011408/31/01 22:50:31  5-MIN KSTC 010450Z AUTO 13005KT 10SM CLR 12/10 A3004 910 89 800 130/05 RMK AO2 SLP183 T01170100
14926KSTC STC20010831225509708/31/01 22:55:31  5-MIN KSTC 010455Z AUTO 13005KT 10SM CLR 12/10 A3004 910 89 800 130/05 RMK AO2
14926KSTC STC20010831230009708/31/01 23:00:31  5-MIN KSTC 010500Z AUTO 13004KT 10SM CLR 12/09 A3004 910 86 800 130/04 RMK AO2
14926KSTC STC20010831230509708/31/01 23:05:31  5-MIN KSTC 010505Z AUTO 14003KT 10SM CLR 11/09 A3005 910 89 700 130/03 RMK AO2
14926KSTC STC20010831231009708/31/01 23:10:31  5-MIN KSTC 010510Z AUTO 13003KT 10SM CLR 10/09 A3005 910 96 600 130/03 RMK AO2
14926KSTC STC20010831231509708/31/01 23:15:31  5-MIN KSTC 010515Z AUTO 12004KT 10SM CLR 10/09 A3004 910 96 600 120/04 RMK AO2
14926KSTC STC20010831232009708/31/01 23:20:31  5-MIN KSTC 010520Z AUTO 13004KT 10SM CLR 11/09 A3004 910 89 700 130/04 RMK AO2
14926KSTC STC20010831232509708/31/01 23:25:31  5-MIN KSTC 010525Z AUTO 13005KT 10SM CLR 12/09 A3004 910 86 800 130/05 RMK AO2
14926KSTC STC20010831233009708/31/01 23:30:31  5-MIN KSTC 010530Z AUTO 13004KT 10SM CLR 11/09 A3004 910 89 700 130/04 RMK AO2
14926KSTC STC20010831233509708/31/01 23:35:31  5-MIN KSTC 010535Z AUTO 13005KT 10SM CLR 11/09 A3004 910 89 700 130/05 RMK AO2
14926KSTC STC20010831234009708/31/01 23:40:31  5-MIN KSTC 010540Z AUTO 13004KT 10SM CLR 11/09 A3004 910 89 700 130/04 RMK AO2
14926KSTC STC20010831234509708/31/01 23:45:31  5-MIN KSTC 010545Z AUTO 14004KT 10SM CLR 11/09 A3004 910 89 700 140/04 RMK AO2
14926KSTC STC20010831235014208/31/01 23:50:31  5-MIN KSTC 010550Z AUTO 15003KT 10SM CLR 10/09 A3004 910 93 600 140/03 RMK AO2 SLP182 T01000089 10200 20100 402110094 53002
14926KSTC STC20010831235509708/31/01 23:55:31  5-MIN KSTC 010555Z AUTO 00000KT 10SM CLR 10/09 A3004 920 96 600 000/00 RMK AO2
