14926KSTC STC20030701000009807/01/03 00:00:32  5-MIN KSTC 010600Z AUTO 15004KT 10SM CLR 17/15 A3008 870 90 1300 140/04 RMK AO2
14926KSTC STC20030701000509807/01/03 00:05:31  5-MIN KSTC 010605Z AUTO 15004KT 10SM CLR 17/15 A3008 880 90 1300 140/04 RMK AO2
14926KSTC STC20030701001009807/01/03 00:10:31  5-MIN KSTC 010610Z AUTO 15004KT 10SM CLR 17/15 A3008 880 87 1400 150/04 RMK AO2
14926KSTC STC20030701001509807/01/03 00:15:31  5-MIN KSTC 010615Z AUTO 15004KT 10SM CLR 17/15 A3008 880 87 1400 150/04 RMK AO2
14926KSTC STC20030701002009807/01/03 00:20:31  5-MIN KSTC 010620Z AUTO 15004KT 10SM CLR 17/15 A3008 880 87 1400 140/04 RMK AO2
14926KSTC STC20030701002509807/01/03 00:25:31  5-MIN KSTC 010625Z AUTO 14004KT 10SM CLR 18/15 A3008 880 83 1500 140/04 RMK AO2
14926KSTC STC20030701003009807/01/03 00:30:31  5-MIN KSTC 010630Z AUTO 15003KT 10SM CLR 18/15 A3008 880 83 1500 140/03 RMK AO2
14926KSTC STC20030701003509807/01/03 00:35:31  5-MIN KSTC 010635Z AUTO 00000KT 10SM CLR 18/15 A3008 880 83 1500 000/00 RMK AO2
14926KSTC STC20030701004009807/01/03 00:40:31  5-MIN KSTC 010640Z AUTO 00000KT 10SM CLR 17/15 A3007 890 87 1400 000/00 RMK AO2
14926KSTC STC20030701004509807/01/03 00:45:31  5-MIN KSTC 010645Z AUTO 00000KT 10SM CLR 17/14 A3007 880 86 1300 000/00 RMK AO2
14926KSTC STC20030701005011507/01/03 00:50:31  5-MIN KSTC 010650Z AUTO 00000KT 10SM CLR 16/15 A3007 890 93 1300 000/00 RMK AO2 SLP188 T01610150
14926KSTC STC20030701005509807/01/03 00:55:31  5-MIN KSTC 010655Z AUTO 00000KT 10SM CLR 17/15 A3007 890 90 1300 000/00 RMK AO2
14926KSTC STC20030701010009807/01/03 01:00:31  5-MIN KSTC 010700Z AUTO 00000KT 10SM CLR 17/14 A3007 890 86 1300 000/00 RMK AO2
14926KSTC STC20030701010509807/01/03 01:05:31  5-MIN KSTC 010705Z AUTO 00000KT 10SM CLR 16/15 A3007 890 93 1300 000/00 RMK AO2
14926KSTC STC20030701011009807/01/03 01:10:31  5-MIN KSTC 010710Z AUTO 00000KT 10SM CLR 16/15 A3007 890 93 1300 000/00 RMK AO2
14926KSTC STC20030701011509807/01/03 01:15:31  5-MIN KSTC 010715Z AUTO 00000KT 10SM CLR 16/15 A3007 890 93 1300 000/00 RMK AO2
14926KSTC STC20030701012009807/01/03 01:20:31  5-MIN KSTC 010720Z AUTO 00000KT 10SM CLR 16/14 A3007 890 93 1200 000/00 RMK AO2
14926KSTC STC20030701012509807/01/03 01:25:31  5-MIN KSTC 010725Z AUTO 00000KT 10SM CLR 16/14 A3007 890 90 1300 000/00 RMK AO2
14926KSTC STC20030701013009807/01/03 01:30:31  5-MIN KSTC 010730Z AUTO 00000KT 10SM CLR 16/14 A3007 890 93 1200 000/00 RMK AO2
14926KSTC STC20030701013509807/01/03 01:35:31  5-MIN KSTC 010735Z AUTO 00000KT 10SM CLR 16/14 A3007 890 93 1200 000/00 RMK AO2
14926KSTC STC20030701014009807/01/03 01:40:31  5-MIN KSTC 010740Z AUTO 00000KT 10SM CLR 16/14 A3007 890 93 1200 000/00 RMK AO2
14926KSTC STC20030701014509807/01/03 01:45:31  5-MIN KSTC 010745Z AUTO 00000KT 10SM CLR 16/14 A3006 890 93 1200 000/00 RMK AO2
14926KSTC STC20030701015011507/01/03 01:50:31  5-MIN KSTC 010750Z AUTO 00000KT 10SM CLR 16/14 A3006 890 93 1200 000/00 RMK AO2 SLP185 T01560144
14926KSTC STC20030701015509807/01/03 01:55:31  5-MIN KSTC 010755Z AUTO 00000KT 10SM CLR 16/14 A3007 890 93 1200 000/00 RMK AO2
14926KSTC STC20030701020009807/01/03 02:00:31  5-MIN KSTC 010800Z AUTO 00000KT 10SM CLR 16/14 A3007 890 93 1200 000/00 RMK AO2
14926KSTC STC20030701020509807/01/03 02:05:31  5-MIN KSTC 010805Z AUTO 00000KT 10SM CLR 16/14 A3007 890 93 1200 000/00 RMK AO2
14926KSTC STC20030701021009807/01/03 02:10:31  5-MIN KSTC 010810Z AUTO 00000KT 10SM CLR 16/14 A3006 890 93 1200 000/00 RMK AO2
14926KSTC STC20030701021509807/01/03 02:15:31  5-MIN KSTC 010815Z AUTO 00000KT 10SM CLR 16/14 A3006 890 93 1200 000/00 RMK AO2
14926KSTC STC20030701022009807/01/03 02:20:31  5-MIN KSTC 010820Z AUTO 00000KT 10SM CLR 15/14 A3006 890 96 1100 000/00 RMK AO2
14926KSTC STC20030701022509807/01/03 02:25:31  5-MIN KSTC 010825Z AUTO 00000KT 10SM CLR 15/14 A3006 890 93 1100 000/00 RMK AO2
14926KSTC STC20030701023009807/01/03 02:30:31  5-MIN KSTC 010830Z AUTO 00000KT 10SM CLR 15/14 A3006 900 93 1100 000/00 RMK AO2
14926KSTC STC20030701023509807/01/03 02:35:31  5-MIN KSTC 010835Z AUTO 00000KT 10SM CLR 14/14 A3006 900 96 1100 000/00 RMK AO2
14926KSTC STC20030701024009807/01/03 02:40:31  5-MIN KSTC 010840Z AUTO 00000KT 10SM CLR 15/14 A3006 900 93 1100 000/00 RMK AO2
14926KSTC STC20030701024509807/01/03 02:45:31  5-MIN KSTC 010845Z AUTO 00000KT 10SM CLR 14/14 A3006 890 96 1100 000/00 RMK AO2
14926KSTC STC20030701025012107/01/03 02:50:31  5-MIN KSTC 010850Z AUTO 00000KT 10SM CLR 14/14 A3006 890 96 1100 000/00 RMK AO2 SLP185 T01440139 51001
14926KSTC STC20030701025509807/01/03 02:55:31  5-MIN KSTC 010855Z AUTO 00000KT 10SM CLR 14/14 A3006 890 96 1100 000/00 RMK AO2
14926KSTC STC20030701030009807/01/03 03:00:31  5-MIN KSTC 010900Z AUTO 00000KT 10SM CLR 14/14 A3006 900 96 1100 000/00 RMK AO2
14926KSTC STC20030701030509907/01/03 03:05:31  5-MIN KSTC 010905Z AUTO 00000KT 10SM CLR 14/14 A3006 900 100 1000 000/00 RMK AO2
14926KSTC STC20030701031009807/01/03 03:10:31  5-MIN KSTC 010910Z AUTO 10003KT 10SM CLR 14/13 A3006 900 96 1000 100/03 RMK AO2
14926KSTC STC20030701031509807/01/03 03:15:31  5-MIN KSTC 010915Z AUTO 10003KT 10SM CLR 14/14 A3006 900 96 1100 100/03 RMK AO2
14926KSTC STC20030701032009807/01/03 03:20:31  5-MIN KSTC 010920Z AUTO 11003KT 10SM CLR 14/14 A3006 900 96 1100 110/03 RMK AO2
14926KSTC STC20030701032509807/01/03 03:25:31  5-MIN KSTC 010925Z AUTO 00000KT 10SM CLR 14/14 A3006 890 96 1100 000/00 RMK AO2
14926KSTC STC20030701033009807/01/03 03:30:31  5-MIN KSTC 010930Z AUTO 00000KT 10SM CLR 14/14 A3006 890 96 1100 000/00 RMK AO2
14926KSTC STC20030701033509807/01/03 03:35:31  5-MIN KSTC 010935Z AUTO 00000KT 10SM CLR 14/13 A3006 890 96 1000 000/00 RMK AO2
14926KSTC STC20030701034009907/01/03 03:40:31  5-MIN KSTC 010940Z AUTO 00000KT 10SM CLR 14/14 A3006 890 100 1000 000/00 RMK AO2
14926KSTC STC20030701034509807/01/03 03:45:31  5-MIN KSTC 010945Z AUTO 00000KT 10SM CLR 14/13 A3006 890 96 1000 000/00 RMK AO2
14926KSTC STC20030701035011607/01/03 03:50:31  5-MIN KSTC 010950Z AUTO 10003KT 10SM CLR 14/14 A3006 900 100 1000 090/03 RMK AO2 SLP184 T01390139
14926KSTC STC20030701035509807/01/03 03:55:31  5-MIN KSTC 010955Z AUTO 11004KT 10SM CLR 14/13 A3006 900 96 1000 110/04 RMK AO2
14926KSTC STC20030701040009807/01/03 04:00:31  5-MIN KSTC 011000Z AUTO 11003KT 10SM CLR 14/14 A3006 900 96 1100 110/03 RMK AO2
14926KSTC STC20030701040509807/01/03 04:05:31  5-MIN KSTC 011005Z AUTO 11003KT 10SM CLR 14/13 A3006 900 96 1000 100/03 RMK AO2
14926KSTC STC20030701041009807/01/03 04:10:31  5-MIN KSTC 011010Z AUTO 11003KT 10SM CLR 14/13 A3006 890 96 1000 100/03 RMK AO2
14926KSTC STC20030701041509807/01/03 04:15:31  5-MIN KSTC 011015Z AUTO 00000KT 10SM CLR 14/13 A3006 890 96 1000 000/00 RMK AO2
14926KSTC STC20030701042009807/01/03 04:20:31  5-MIN KSTC 011020Z AUTO 00000KT 10SM CLR 14/13 A3007 890 96 1000 000/00 RMK AO2
14926KSTC STC20030701042509707/01/03 04:25:31  5-MIN KSTC 011025Z AUTO 00000KT 10SM CLR 13/13 A3007 890 96 900 000/00 RMK AO2
14926KSTC STC20030701043009807/01/03 04:30:31  5-MIN KSTC 011030Z AUTO 00000KT 10SM CLR 14/13 A3007 890 96 1000 000/00 RMK AO2
14926KSTC STC20030701043509807/01/03 04:35:31  5-MIN KSTC 011035Z AUTO 00000KT 10SM CLR 14/13 A3007 890 96 1000 000/00 RMK AO2
14926KSTC STC20030701044009807/01/03 04:40:31  5-MIN KSTC 011040Z AUTO 00000KT 10SM CLR 14/13 A3007 890 96 1000 000/00 RMK AO2
14926KSTC STC20030701044509807/01/03 04:45:31  5-MIN KSTC 011045Z AUTO 00000KT 10SM CLR 14/13 A3007 890 96 1000 000/00 RMK AO2
14926KSTC STC20030701045011407/01/03 04:50:31  5-MIN KSTC 011050Z AUTO 00000KT 10SM CLR 13/13 A3007 890 96 900 000/00 RMK AO2 SLP188 T01330128
14926KSTC STC20030701045509807/01/03 04:55:31  5-MIN KSTC 011055Z AUTO 00000KT 10SM CLR 13/13 A3007 890 100 900 000/00 RMK AO2
14926KSTC STC20030701050009707/01/03 05:00:31  5-MIN KSTC 011100Z AUTO 00000KT 10SM CLR 13/13 A3007 890 96 900 000/00 RMK AO2
14926KSTC STC20030701050509807/01/03 05:05:31  5-MIN KSTC 011105Z AUTO 00000KT 10SM CLR 13/13 A3007 890 100 900 000/00 RMK AO2
14926KSTC STC20030701051009707/01/03 05:10:31  5-MIN KSTC 011110Z AUTO 00000KT 10SM CLR 13/13 A3007 890 96 900 000/00 RMK AO2
14926KSTC STC20030701051509707/01/03 05:15:31  5-MIN KSTC 011115Z AUTO 00000KT 10SM CLR 13/13 A3007 890 96 900 000/00 RMK AO2
14926KSTC STC20030701052009807/01/03 05:20:31  5-MIN KSTC 011120Z AUTO 00000KT 10SM CLR 14/13 A3006 890 96 1000 000/00 RMK AO2
14926KSTC STC20030701052509807/01/03 05:25:31  5-MIN KSTC 011125Z AUTO 13003KT 10SM CLR 14/14 A3006 900 96 1100 120/03 RMK AO2
14926KSTC STC20030701053009807/01/03 05:30:31  5-MIN KSTC 011130Z AUTO 00000KT 10SM CLR 14/14 A3006 900 96 1100 000/00 RMK AO2
14926KSTC STC20030701053509807/01/03 05:35:31  5-MIN KSTC 011135Z AUTO 00000KT 10SM CLR 15/14 A3006 900 93 1100 000/00 RMK AO2
14926KSTC STC20030701054009807/01/03 05:40:31  5-MIN KSTC 011140Z AUTO 00000KT 10SM CLR 16/14 A3006 900 93 1200 000/00 RMK AO2
14926KSTC STC20030701054509807/01/03 05:45:31  5-MIN KSTC 011145Z AUTO 13003KT 10SM CLR 16/15 A3006 900 96 1200 130/03 RMK AO2
14926KSTC STC20030701055013307/01/03 05:50:31  5-MIN KSTC 011150Z AUTO 13004KT 10SM CLR 16/15 A3006 900 93 1300 130/04 RMK AO2 SLP183 T01610150 10178 20133 56007
14926KSTC STC20030701055509807/01/03 05:55:31  5-MIN KSTC 011155Z AUTO 00000KT 10SM CLR 16/15 A3006 900 93 1300 000/00 RMK AO2
14926KSTC STC20030701060009807/01/03 06:00:31  5-MIN KSTC 011200Z AUTO 14004KT 10SM CLR 16/15 A3006 900 93 1300 130/04 RMK AO2
14926KSTC STC20030701060509807/01/03 06:05:31  5-MIN KSTC 011205Z AUTO 15003KT 10SM CLR 16/16 A3005 900 96 1300 150/03 RMK AO2
14926KSTC STC20030701061009807/01/03 06:10:31  5-MIN KSTC 011210Z AUTO 14004KT 10SM CLR 17/16 A3006 900 93 1300 140/04 RMK AO2
14926KSTC STC20030701061509807/01/03 06:15:31  5-MIN KSTC 011215Z AUTO 14003KT 10SM CLR 17/16 A3005 900 90 1400 140/03 RMK AO2
14926KSTC STC20030701062009807/01/03 06:20:31  5-MIN KSTC 011220Z AUTO 15004KT 10SM CLR 17/16 A3005 900 90 1400 140/04 RMK AO2
14926KSTC STC20030701062509807/01/03 06:25:31  5-MIN KSTC 011225Z AUTO 14004KT 10SM CLR 18/16 A3006 900 87 1500 140/04 RMK AO2
14926KSTC STC20030701063009807/01/03 06:30:31  5-MIN KSTC 011230Z AUTO 14004KT 10SM CLR 18/16 A3005 900 87 1500 130/04 RMK AO2
14926KSTC STC20030701063509807/01/03 06:35:31  5-MIN KSTC 011235Z AUTO 13003KT 10SM CLR 18/16 A3005 910 84 1500 130/03 RMK AO2
14926KSTC STC20030701064009807/01/03 06:40:31  5-MIN KSTC 011240Z AUTO 13003KT 10SM CLR 18/16 A3005 900 84 1500 130/03 RMK AO2
14926KSTC STC20030701064509807/01/03 06:45:31  5-MIN KSTC 011245Z AUTO 00000KT 10SM CLR 19/16 A3006 900 81 1600 000/00 RMK AO2
14926KSTC STC20030701065011507/01/03 06:50:31  5-MIN KSTC 011250Z AUTO 14003KT 10SM CLR 19/16 A3006 900 81 1600 130/03 RMK AO2 SLP181 T01890156
14926KSTC STC20030701065509807/01/03 06:55:31  5-MIN KSTC 011255Z AUTO 00000KT 10SM CLR 19/16 A3006 900 78 1700 000/00 RMK AO2
14926KSTC STC20030701070009807/01/03 07:00:31  5-MIN KSTC 011300Z AUTO 00000KT 10SM CLR 20/16 A3006 900 78 1700 000/00 RMK AO2
14926KSTC STC20030701070509807/01/03 07:05:31  5-MIN KSTC 011305Z AUTO 20004KT 10SM CLR 20/16 A3006 900 78 1700 200/04 RMK AO2
14926KSTC STC20030701071009807/01/03 07:10:31  5-MIN KSTC 011310Z AUTO 21004KT 10SM CLR 21/16 A3006 900 73 1800 210/04 RMK AO2
14926KSTC STC20030701071509807/01/03 07:15:31  5-MIN KSTC 011315Z AUTO VRB03KT 10SM CLR 21/16 A3006 890 75 1800 VRB/03 RMK AO2
14926KSTC STC20030701072009807/01/03 07:20:31  5-MIN KSTC 011320Z AUTO VRB03KT 10SM CLR 21/16 A3007 890 73 1800 VRB/03 RMK AO2
14926KSTC STC20030701072509807/01/03 07:25:31  5-MIN KSTC 011325Z AUTO 22003KT 10SM CLR 21/16 A3006 900 73 1900 220/03 RMK AO2
14926KSTC STC20030701073009807/01/03 07:30:31  5-MIN KSTC 011330Z AUTO 20004KT 10SM CLR 22/16 A3006 900 70 1900 200/04 RMK AO2
14926KSTC STC20030701073509807/01/03 07:35:31  5-MIN KSTC 011335Z AUTO 20004KT 10SM CLR 22/16 A3006 900 68 1900 200/04 RMK AO2
14926KSTC STC20030701074009807/01/03 07:40:31  5-MIN KSTC 011340Z AUTO VRB04KT 10SM CLR 22/16 A3006 900 68 2000 VRB/04 RMK AO2
14926KSTC STC20030701074509807/01/03 07:45:31  5-MIN KSTC 011345Z AUTO 19005KT 10SM CLR 23/16 A3006 900 65 2000 190/05 RMK AO2
14926KSTC STC20030701075011507/01/03 07:50:31  5-MIN KSTC 011350Z AUTO 19005KT 10SM CLR 23/16 A3006 900 65 2000 190/05 RMK AO2 SLP182 T02280161
14926KSTC STC20030701075509807/01/03 07:55:31  5-MIN KSTC 011355Z AUTO 20006KT 10SM CLR 23/16 A3006 900 65 2000 200/06 RMK AO2
14926KSTC STC20030701080009807/01/03 08:00:31  5-MIN KSTC 011400Z AUTO 20005KT 10SM CLR 23/16 A3006 900 61 2100 200/05 RMK AO2
14926KSTC STC20030701080509807/01/03 08:05:31  5-MIN KSTC 011405Z AUTO 18005KT 10SM CLR 23/16 A3006 900 61 2100 180/05 RMK AO2
14926KSTC STC20030701081009807/01/03 08:10:31  5-MIN KSTC 011410Z AUTO 18006KT 10SM CLR 23/16 A3006 900 61 2100 180/06 RMK AO2
14926KSTC STC20030701081509807/01/03 08:15:31  5-MIN KSTC 011415Z AUTO 19006KT 10SM CLR 24/16 A3006 900 59 2200 190/06 RMK AO2
14926KSTC STC20030701082009807/01/03 08:20:31  5-MIN KSTC 011420Z AUTO 20006KT 10SM CLR 24/16 A3006 900 59 2200 200/06 RMK AO2
14926KSTC STC20030701082509807/01/03 08:25:31  5-MIN KSTC 011425Z AUTO 20007KT 10SM CLR 24/16 A3005 900 57 2200 200/07 RMK AO2
14926KSTC STC20030701083009807/01/03 08:30:31  5-MIN KSTC 011430Z AUTO 20007KT 10SM CLR 25/16 A3005 900 55 2300 200/07 RMK AO2
14926KSTC STC20030701083509807/01/03 08:35:31  5-MIN KSTC 011435Z AUTO 19007KT 10SM CLR 25/16 A3005 910 55 2300 190/07 RMK AO2
14926KSTC STC20030701084009807/01/03 08:40:31  5-MIN KSTC 011440Z AUTO 19007KT 10SM CLR 25/15 A3005 910 53 2300 190/07 RMK AO2
14926KSTC STC20030701084509807/01/03 08:45:31  5-MIN KSTC 011445Z AUTO 20006KT 10SM CLR 25/15 A3005 910 53 2300 200/06 RMK AO2
14926KSTC STC20030701085012107/01/03 08:50:31  5-MIN KSTC 011450Z AUTO 20008KT 10SM CLR 26/16 A3005 910 53 2400 200/08 RMK AO2 SLP178 T02560156 58001
14926KSTC STC20030701085509807/01/03 08:55:31  5-MIN KSTC 011455Z AUTO 21009KT 10SM CLR 26/15 A3005 910 51 2400 200/09 RMK AO2
14926KSTC STC20030701090009807/01/03 09:00:31  5-MIN KSTC 011500Z AUTO 20008KT 10SM CLR 26/15 A3005 910 51 2400 190/08 RMK AO2
14926KSTC STC20030701090509807/01/03 09:05:31  5-MIN KSTC 011505Z AUTO 19010KT 10SM CLR 26/14 A3005 910 48 2400 190/10 RMK AO2
14926KSTC STC20030701091009807/01/03 09:10:31  5-MIN KSTC 011510Z AUTO 21010KT 10SM CLR 26/14 A3005 910 48 2400 210/10 RMK AO2
14926KSTC STC20030701091509807/01/03 09:15:31  5-MIN KSTC 011515Z AUTO 21009KT 10SM CLR 26/14 A3005 910 48 2400 200/09 RMK AO2
14926KSTC STC20030701092009807/01/03 09:20:31  5-MIN KSTC 011520Z AUTO 21007KT 10SM CLR 26/15 A3005 910 50 2400 200/07 RMK AO2
14926KSTC STC20030701092509807/01/03 09:25:31  5-MIN KSTC 011525Z AUTO 20007KT 10SM CLR 26/15 A3005 910 50 2400 200/07 RMK AO2
14926KSTC STC20030701093009807/01/03 09:30:31  5-MIN KSTC 011530Z AUTO 21009KT 10SM CLR 27/15 A3004 910 48 2500 210/09 RMK AO2
14926KSTC STC20030701093509807/01/03 09:35:31  5-MIN KSTC 011535Z AUTO 21010KT 10SM CLR 27/15 A3004 910 48 2500 200/10 RMK AO2
14926KSTC STC20030701094009807/01/03 09:40:31  5-MIN KSTC 011540Z AUTO 20009KT 10SM CLR 27/15 A3004 910 46 2600 200/09 RMK AO2
14926KSTC STC20030701094509807/01/03 09:45:31  5-MIN KSTC 011545Z AUTO 21011KT 10SM CLR 27/14 A3004 920 46 2500 210/11 RMK AO2
14926KSTC STC20030701095011507/01/03 09:50:31  5-MIN KSTC 011550Z AUTO 22011KT 10SM CLR 27/14 A3004 920 46 2500 220/11 RMK AO2 SLP175 T02670144
14926KSTC STC20030701095509807/01/03 09:55:31  5-MIN KSTC 011555Z AUTO 21009KT 10SM CLR 27/14 A3004 920 45 2600 200/09 RMK AO2
14926KSTC STC20030701100009807/01/03 10:00:31  5-MIN KSTC 011600Z AUTO 21010KT 10SM CLR 27/14 A3004 920 45 2600 210/10 RMK AO2
14926KSTC STC20030701100509807/01/03 10:05:31  5-MIN KSTC 011605Z AUTO 21012KT 10SM CLR 27/14 A3004 920 45 2600 210/12 RMK AO2
14926KSTC STC20030701101009807/01/03 10:10:31  5-MIN KSTC 011610Z AUTO 21012KT 10SM CLR 27/14 A3004 920 43 2600 210/12 RMK AO2
14926KSTC STC20030701101509807/01/03 10:15:31  5-MIN KSTC 011615Z AUTO 20012KT 10SM CLR 27/14 A3003 920 43 2600 200/12 RMK AO2
14926KSTC STC20030701102009807/01/03 10:20:31  5-MIN KSTC 011620Z AUTO 19011KT 10SM CLR 27/14 A3003 920 45 2600 190/11 RMK AO2
14926KSTC STC20030701102509807/01/03 10:25:31  5-MIN KSTC 011625Z AUTO 19010KT 10SM CLR 27/14 A3003 930 43 2600 190/10 RMK AO2
14926KSTC STC20030701103009807/01/03 10:30:31  5-MIN KSTC 011630Z AUTO 20011KT 10SM CLR 28/15 A3003 930 45 2600 190/11 RMK AO2
14926KSTC STC20030701103509807/01/03 10:35:31  5-MIN KSTC 011635Z AUTO 18010KT 10SM CLR 28/14 A3003 930 43 2600 170/10 RMK AO2
14926KSTC STC20030701104010407/01/03 10:40:31  5-MIN KSTC 011640Z AUTO 18012G18KT 10SM CLR 28/14 A3002 930 43 2600 180/12G18 RMK AO2
14926KSTC STC20030701104510407/01/03 10:45:31  5-MIN KSTC 011645Z AUTO 21013G18KT 10SM CLR 28/14 A3002 930 42 2600 200/13G18 RMK AO2
14926KSTC STC20030701105011507/01/03 10:50:31  5-MIN KSTC 011650Z AUTO 21011KT 10SM CLR 27/13 A3002 930 42 2600 210/11 RMK AO2 SLP169 T02720133
14926KSTC STC20030701105509807/01/03 10:55:31  5-MIN KSTC 011655Z AUTO 18010KT 10SM CLR 28/15 A3002 930 45 2700 180/10 RMK AO2
14926KSTC STC20030701110009807/01/03 11:00:31  5-MIN KSTC 011700Z AUTO 20010KT 10SM CLR 28/15 A3002 930 45 2700 200/10 RMK AO2
14926KSTC STC20030701110509807/01/03 11:05:31  5-MIN KSTC 011705Z AUTO 18011KT 10SM CLR 28/14 A3002 930 43 2700 180/11 RMK AO2
14926KSTC STC20030701111009807/01/03 11:10:31  5-MIN KSTC 011710Z AUTO 18013KT 10SM CLR 28/14 A3002 940 42 2700 170/13 RMK AO2
14926KSTC STC20030701111509807/01/03 11:15:31  5-MIN KSTC 011715Z AUTO 20013KT 10SM CLR 28/14 A3002 940 40 2700 200/13 RMK AO2
14926KSTC STC20030701112009807/01/03 11:20:31  5-MIN KSTC 011720Z AUTO 20011KT 10SM CLR 28/14 A3001 940 42 2700 200/11 RMK AO2
14926KSTC STC20030701112509807/01/03 11:25:31  5-MIN KSTC 011725Z AUTO 19014KT 10SM CLR 28/14 A3001 940 42 2700 190/14 RMK AO2
14926KSTC STC20030701113009807/01/03 11:30:31  5-MIN KSTC 011730Z AUTO 20011KT 10SM CLR 28/14 A3001 940 42 2700 190/11 RMK AO2
14926KSTC STC20030701113510407/01/03 11:35:31  5-MIN KSTC 011735Z AUTO 20015G19KT 10SM CLR 28/14 A3001 940 42 2700 200/15G19 RMK AO2
14926KSTC STC20030701114010407/01/03 11:40:31  5-MIN KSTC 011740Z AUTO 20015G19KT 10SM CLR 28/14 A3001 940 42 2700 190/15G19 RMK AO2
14926KSTC STC20030701114509807/01/03 11:45:31  5-MIN KSTC 011745Z AUTO 19013KT 10SM CLR 28/14 A3001 950 40 2700 190/13 RMK AO2
14926KSTC STC20030701115013307/01/03 11:50:31  5-MIN KSTC 011750Z AUTO 18013KT 10SM CLR 28/14 A3001 950 42 2700 180/13 RMK AO2 SLP164 T02830144 10283 20161 58003
14926KSTC STC20030701115509807/01/03 11:55:31  5-MIN KSTC 011755Z AUTO 20012KT 10SM CLR 28/14 A3001 950 40 2700 190/12 RMK AO2
14926KSTC STC20030701120010707/01/03 12:00:31  5-MIN KSTC 011800Z AUTO 19015G20KT 10SM FEW065 29/14 A3000 950 40 2800 190/15G20 RMK AO2
14926KSTC STC20030701120510407/01/03 12:05:31  5-MIN KSTC 011805Z AUTO 21015G20KT 10SM CLR 28/14 A3000 950 40 2700 200/15G20 RMK AO2
14926KSTC STC20030701121009807/01/03 12:10:31  5-MIN KSTC 011810Z AUTO 21014KT 10SM CLR 28/14 A3000 950 40 2700 200/14 RMK AO2
14926KSTC STC20030701121510107/01/03 12:15:31  5-MIN KSTC 011815Z AUTO 21016KT 10SM FEW060 28/14 A3000 950 42 2700 200/16 RMK AO2
14926KSTC STC20030701122010107/01/03 12:20:31  5-MIN KSTC 011820Z AUTO 19014KT 10SM FEW060 29/14 A3000 950 39 2800 190/14 RMK AO2
14926KSTC STC20030701122510107/01/03 12:25:31  5-MIN KSTC 011825Z AUTO 18011KT 10SM FEW060 28/13 A3000 960 39 2700 180/11 RMK AO2
14926KSTC STC20030701123010107/01/03 12:30:31  5-MIN KSTC 011830Z AUTO 19010KT 10SM FEW060 28/14 A3000 960 40 2700 190/10 RMK AO2
14926KSTC STC20030701123510107/01/03 12:35:31  5-MIN KSTC 011835Z AUTO 20014KT 10SM SCT060 28/13 A2999 960 39 2700 190/14 RMK AO2
14926KSTC STC20030701124010107/01/03 12:40:31  5-MIN KSTC 011840Z AUTO 18015KT 10SM FEW060 28/13 A2999 960 39 2700 180/15 RMK AO2
14926KSTC STC20030701124510107/01/03 12:45:31  5-MIN KSTC 011845Z AUTO 19010KT 10SM FEW060 28/13 A2999 960 39 2700 180/10 RMK AO2
14926KSTC STC20030701125011807/01/03 12:50:31  5-MIN KSTC 011850Z AUTO 17014KT 10SM FEW060 29/14 A2999 960 39 2800 170/14 RMK AO2 SLP159 T02890139
14926KSTC STC20030701125510107/01/03 12:55:31  5-MIN KSTC 011855Z AUTO 21014KT 10SM FEW060 29/14 A2999 960 39 2800 200/14 RMK AO2
14926KSTC STC20030701130010707/01/03 13:00:31  5-MIN KSTC 011900Z AUTO 19014G20KT 10SM FEW060 29/14 A2999 960 39 2800 190/14G20 RMK AO2
14926KSTC STC20030701130510107/01/03 13:05:31  5-MIN KSTC 011905Z AUTO 21015KT 10SM FEW060 29/14 A2998 970 39 2800 200/15 RMK AO2
14926KSTC STC20030701131010107/01/03 13:10:31  5-MIN KSTC 011910Z AUTO 18015KT 10SM FEW060 29/14 A2999 960 39 2800 180/15 RMK AO2
14926KSTC STC20030701131510407/01/03 13:15:31  5-MIN KSTC 011915Z AUTO 19015G19KT 10SM CLR 29/14 A2999 960 39 2800 180/15G19 RMK AO2
14926KSTC STC20030701132010407/01/03 13:20:31  5-MIN KSTC 011920Z AUTO 19012G19KT 10SM CLR 29/13 A2998 970 38 2800 190/12G19 RMK AO2
14926KSTC STC20030701132509807/01/03 13:25:31  5-MIN KSTC 011925Z AUTO 18012KT 10SM CLR 29/13 A2998 970 38 2800 180/12 RMK AO2
14926KSTC STC20030701133009807/01/03 13:30:31  5-MIN KSTC 011930Z AUTO 18014KT 10SM CLR 29/14 A2998 970 39 2800 180/14 RMK AO2
14926KSTC STC20030701133509807/01/03 13:35:31  5-MIN KSTC 011935Z AUTO 17012KT 10SM CLR 29/13 A2998 970 38 2800 170/12 RMK AO2
14926KSTC STC20030701134009807/01/03 13:40:31  5-MIN KSTC 011940Z AUTO 19012KT 10SM CLR 29/13 A2997 980 38 2800 190/12 RMK AO2
14926KSTC STC20030701134510407/01/03 13:45:31  5-MIN KSTC 011945Z AUTO 20012G17KT 10SM CLR 29/14 A2997 980 39 2800 190/12G17 RMK AO2
14926KSTC STC20030701135011507/01/03 13:50:31  5-MIN KSTC 011950Z AUTO 18012KT 10SM CLR 29/13 A2997 980 38 2800 180/12 RMK AO2 SLP152 T02890133
14926KSTC STC20030701135509807/01/03 13:55:31  5-MIN KSTC 011955Z AUTO 20011KT 10SM CLR 29/14 A2997 980 39 2800 200/11 RMK AO2
14926KSTC STC20030701140009807/01/03 14:00:31  5-MIN KSTC 012000Z AUTO 19011KT 10SM CLR 29/14 A2997 980 39 2900 190/11 RMK AO2
14926KSTC STC20030701140510407/01/03 14:05:31  5-MIN KSTC 012005Z AUTO 19013G19KT 10SM CLR 29/14 A2997 990 39 2900 190/13G19 RMK AO2
14926KSTC STC20030701141010407/01/03 14:10:31  5-MIN KSTC 012010Z AUTO 17010G19KT 10SM CLR 29/14 A2996 990 39 2900 160/10G19 RMK AO2
14926KSTC STC20030701141509807/01/03 14:15:31  5-MIN KSTC 012015Z AUTO 20012KT 10SM CLR 29/14 A2996 990 40 2800 190/12 RMK AO2
14926KSTC STC20030701142009807/01/03 14:20:31  5-MIN KSTC 012020Z AUTO 19012KT 10SM CLR 29/15 A2996 990 41 2900 180/12 RMK AO2
14926KSTC STC20030701142510407/01/03 14:25:31  5-MIN KSTC 012025Z AUTO 18011G18KT 10SM CLR 29/14 A2996 990 39 2900 180/11G18 RMK AO2
14926KSTC STC20030701143009807/01/03 14:30:31  5-MIN KSTC 012030Z AUTO 18013KT 10SM CLR 29/14 A2996 990 39 2800 180/13 RMK AO2
14926KSTC STC20030701143510407/01/03 14:35:31  5-MIN KSTC 012035Z AUTO 18012G19KT 10SM CLR 29/14 A2996 990 39 2900 180/12G19 RMK AO2
14926KSTC STC20030701144009807/01/03 14:40:31  5-MIN KSTC 012040Z AUTO 18010KT 10SM CLR 29/14 A2996 990 39 2800 170/10 RMK AO2
14926KSTC STC20030701144510407/01/03 14:45:31  5-MIN KSTC 012045Z AUTO 17011G17KT 10SM CLR 29/14 A2996 990 39 2900 170/11G17 RMK AO2
14926KSTC STC20030701145012707/01/03 14:50:31  5-MIN KSTC 012050Z AUTO 18012G17KT 10SM CLR 29/14 A2996 990 39 2800 170/12G17 RMK AO2 SLP149 T02890139 58014
14926KSTC STC20030701145509807/01/03 14:55:31  5-MIN KSTC 012055Z AUTO 17012KT 10SM CLR 29/14 A2996 990 40 2800 170/12 RMK AO2
14926KSTC STC20030701150009807/01/03 15:00:31  5-MIN KSTC 012100Z AUTO 18011KT 10SM CLR 29/14 A2995 990 40 2900 170/11 RMK AO2
14926KSTC STC20030701150509907/01/03 15:05:31  5-MIN KSTC 012105Z AUTO 18012KT 10SM CLR 29/14 A2995 1000 40 2900 180/12 RMK AO2
14926KSTC STC20030701151009907/01/03 15:10:31  5-MIN KSTC 012110Z AUTO 19012KT 10SM CLR 29/15 A2995 1000 41 2900 180/12 RMK AO2
14926KSTC STC20030701151509907/01/03 15:15:31  5-MIN KSTC 012115Z AUTO 18013KT 10SM CLR 29/14 A2994 1000 40 2900 180/13 RMK AO2
14926KSTC STC20030701152009907/01/03 15:20:31  5-MIN KSTC 012120Z AUTO 18013KT 10SM CLR 29/14 A2994 1010 40 2900 170/13 RMK AO2
14926KSTC STC20030701152510507/01/03 15:25:31  5-MIN KSTC 012125Z AUTO 16013G19KT 10SM CLR 29/15 A2994 1010 41 2900 150/13G19 RMK AO2
14926KSTC STC20030701153010507/01/03 15:30:31  5-MIN KSTC 012130Z AUTO 17011G19KT 10SM CLR 29/14 A2994 1010 39 2900 170/11G19 RMK AO2
14926KSTC STC20030701153509907/01/03 15:35:31  5-MIN KSTC 012135Z AUTO 18013KT 10SM CLR 29/14 A2994 1010 40 2900 180/13 RMK AO2
14926KSTC STC20030701154009907/01/03 15:40:31  5-MIN KSTC 012140Z AUTO 17011KT 10SM CLR 29/14 A2994 1010 40 2900 160/11 RMK AO2
14926KSTC STC20030701154509907/01/03 15:45:31  5-MIN KSTC 012145Z AUTO 19011KT 10SM CLR 29/14 A2993 1010 40 2900 180/11 RMK AO2
14926KSTC STC20030701155011607/01/03 15:50:31  5-MIN KSTC 012150Z AUTO 17013KT 10SM CLR 29/15 A2994 1010 42 2900 160/13 RMK AO2 SLP141 T02890150
14926KSTC STC20030701155509907/01/03 15:55:31  5-MIN KSTC 012155Z AUTO 16010KT 10SM CLR 29/14 A2994 1010 40 2900 150/10 RMK AO2
14926KSTC STC20030701160009907/01/03 16:00:31  5-MIN KSTC 012200Z AUTO 17014KT 10SM CLR 29/15 A2993 1010 42 2900 170/14 RMK AO2
14926KSTC STC20030701160509907/01/03 16:05:31  5-MIN KSTC 012205Z AUTO 18013KT 10SM CLR 29/15 A2993 1020 42 2900 180/13 RMK AO2
14926KSTC STC20030701161009907/01/03 16:10:31  5-MIN KSTC 012210Z AUTO 17012KT 10SM CLR 29/15 A2993 1020 42 2900 170/12 RMK AO2
14926KSTC STC20030701161509907/01/03 16:15:31  5-MIN KSTC 012215Z AUTO 18012KT 10SM CLR 29/14 A2993 1020 40 2900 170/12 RMK AO2
14926KSTC STC20030701162009907/01/03 16:20:31  5-MIN KSTC 012220Z AUTO 17011KT 10SM CLR 29/15 A2993 1020 42 2900 170/11 RMK AO2
14926KSTC STC20030701162509907/01/03 16:25:31  5-MIN KSTC 012225Z AUTO 17013KT 10SM CLR 29/15 A2993 1020 42 2900 170/13 RMK AO2
14926KSTC STC20030701163009907/01/03 16:30:31  5-MIN KSTC 012230Z AUTO 17009KT 10SM CLR 29/15 A2992 1020 42 2900 170/09 RMK AO2
14926KSTC STC20030701163509907/01/03 16:35:31  5-MIN KSTC 012235Z AUTO 17011KT 10SM CLR 29/15 A2992 1020 42 2900 170/11 RMK AO2
14926KSTC STC20030701164009907/01/03 16:40:31  5-MIN KSTC 012240Z AUTO 17012KT 10SM CLR 29/15 A2992 1030 42 2900 170/12 RMK AO2
14926KSTC STC20030701164509907/01/03 16:45:31  5-MIN KSTC 012245Z AUTO 18011KT 10SM CLR 28/15 A2992 1030 43 2800 180/11 RMK AO2
14926KSTC STC20030701165011607/01/03 16:50:31  5-MIN KSTC 012250Z AUTO 17011KT 10SM CLR 29/15 A2992 1030 42 2900 170/11 RMK AO2 SLP135 T02890150
14926KSTC STC20030701165509907/01/03 16:55:31  5-MIN KSTC 012255Z AUTO 16012KT 10SM CLR 29/16 A2992 1030 44 2900 160/12 RMK AO2
14926KSTC STC20030701170009907/01/03 17:00:31  5-MIN KSTC 012300Z AUTO 16012KT 10SM CLR 28/15 A2992 1030 43 2800 160/12 RMK AO2
14926KSTC STC20030701170509907/01/03 17:05:31  5-MIN KSTC 012305Z AUTO 16008KT 10SM CLR 29/16 A2992 1030 44 2900 160/08 RMK AO2
14926KSTC STC20030701171009907/01/03 17:10:31  5-MIN KSTC 012310Z AUTO 18010KT 10SM CLR 28/15 A2992 1030 43 2800 180/10 RMK AO2
14926KSTC STC20030701171509907/01/03 17:15:31  5-MIN KSTC 012315Z AUTO 17013KT 10SM CLR 28/15 A2991 1030 43 2800 170/13 RMK AO2
14926KSTC STC20030701172009907/01/03 17:20:31  5-MIN KSTC 012320Z AUTO 18009KT 10SM CLR 28/15 A2992 1030 43 2800 180/09 RMK AO2
14926KSTC STC20030701172509907/01/03 17:25:31  5-MIN KSTC 012325Z AUTO 18009KT 10SM CLR 28/15 A2992 1030 43 2800 180/09 RMK AO2
14926KSTC STC20030701173009907/01/03 17:30:31  5-MIN KSTC 012330Z AUTO 18007KT 10SM CLR 28/16 A2992 1030 45 2800 180/07 RMK AO2
14926KSTC STC20030701173509907/01/03 17:35:31  5-MIN KSTC 012335Z AUTO 17007KT 10SM CLR 28/16 A2991 1030 45 2800 170/07 RMK AO2
14926KSTC STC20030701174009907/01/03 17:40:31  5-MIN KSTC 012340Z AUTO 18011KT 10SM CLR 28/16 A2991 1030 45 2800 170/11 RMK AO2
14926KSTC STC20030701174509907/01/03 17:45:31  5-MIN KSTC 012345Z AUTO 17008KT 10SM CLR 28/16 A2991 1040 45 2800 170/08 RMK AO2
14926KSTC STC20030701175013407/01/03 17:50:31  5-MIN KSTC 012350Z AUTO 17009KT 10SM CLR 28/16 A2991 1040 45 2800 170/09 RMK AO2 SLP131 T02830156 10294 20278 56016
14926KSTC STC20030701175509907/01/03 17:55:31  5-MIN KSTC 012355Z AUTO 18008KT 10SM CLR 28/16 A2991 1040 45 2800 180/08 RMK AO2
14926KSTC STC20030701180009907/01/03 18:00:31  5-MIN KSTC 020000Z AUTO 16008KT 10SM CLR 28/16 A2991 1030 47 2800 160/08 RMK AO2
14926KSTC STC20030701180509907/01/03 18:05:31  5-MIN KSTC 020005Z AUTO 18007KT 10SM CLR 28/16 A2991 1040 48 2800 180/07 RMK AO2
14926KSTC STC20030701181009907/01/03 18:10:31  5-MIN KSTC 020010Z AUTO 17007KT 10SM CLR 28/16 A2991 1040 48 2800 160/07 RMK AO2
14926KSTC STC20030701181509907/01/03 18:15:31  5-MIN KSTC 020015Z AUTO 17008KT 10SM CLR 28/17 A2990 1040 50 2800 170/08 RMK AO2
14926KSTC STC20030701182009907/01/03 18:20:31  5-MIN KSTC 020020Z AUTO 16009KT 10SM CLR 28/16 A2990 1040 48 2800 160/09 RMK AO2
14926KSTC STC20030701182509907/01/03 18:25:31  5-MIN KSTC 020025Z AUTO 16010KT 10SM CLR 27/16 A2990 1050 50 2700 150/10 RMK AO2
14926KSTC STC20030701183009907/01/03 18:30:31  5-MIN KSTC 020030Z AUTO 16009KT 10SM CLR 27/16 A2990 1040 50 2700 150/09 RMK AO2
14926KSTC STC20030701183509907/01/03 18:35:31  5-MIN KSTC 020035Z AUTO 16008KT 10SM CLR 27/17 A2990 1050 52 2700 160/08 RMK AO2
14926KSTC STC20030701184009907/01/03 18:40:31  5-MIN KSTC 020040Z AUTO 16008KT 10SM CLR 27/17 A2990 1050 52 2700 160/08 RMK AO2
14926KSTC STC20030701184509907/01/03 18:45:31  5-MIN KSTC 020045Z AUTO 16008KT 10SM CLR 27/17 A2989 1050 52 2700 160/08 RMK AO2
14926KSTC STC20030701185011607/01/03 18:50:31  5-MIN KSTC 020050Z AUTO 16008KT 10SM CLR 27/17 A2989 1050 53 2700 160/08 RMK AO2 SLP126 T02670167
14926KSTC STC20030701185509907/01/03 18:55:31  5-MIN KSTC 020055Z AUTO 16008KT 10SM CLR 27/17 A2989 1050 53 2700 160/08 RMK AO2
14926KSTC STC20030701190009907/01/03 19:00:31  5-MIN KSTC 020100Z AUTO 16007KT 10SM CLR 27/17 A2989 1050 53 2700 160/07 RMK AO2
14926KSTC STC20030701190509907/01/03 19:05:31  5-MIN KSTC 020105Z AUTO 16008KT 10SM CLR 26/17 A2989 1050 55 2600 160/08 RMK AO2
14926KSTC STC20030701191009907/01/03 19:10:31  5-MIN KSTC 020110Z AUTO 15007KT 10SM CLR 26/17 A2989 1050 55 2600 150/07 RMK AO2
14926KSTC STC20030701191509907/01/03 19:15:31  5-MIN KSTC 020115Z AUTO 15005KT 10SM CLR 26/17 A2989 1060 59 2600 150/05 RMK AO2
14926KSTC STC20030701192009907/01/03 19:20:31  5-MIN KSTC 020120Z AUTO 15006KT 10SM CLR 25/18 A2989 1060 64 2500 150/06 RMK AO2
14926KSTC STC20030701192509907/01/03 19:25:31  5-MIN KSTC 020125Z AUTO 15006KT 10SM CLR 25/18 A2989 1060 64 2500 150/06 RMK AO2
14926KSTC STC20030701193009907/01/03 19:30:31  5-MIN KSTC 020130Z AUTO 15006KT 10SM CLR 24/18 A2989 1060 66 2400 150/06 RMK AO2
14926KSTC STC20030701193509907/01/03 19:35:31  5-MIN KSTC 020135Z AUTO 14006KT 10SM CLR 24/18 A2989 1060 66 2400 140/06 RMK AO2
14926KSTC STC20030701194009907/01/03 19:40:31  5-MIN KSTC 020140Z AUTO 14006KT 10SM CLR 24/18 A2989 1060 66 2400 140/06 RMK AO2
14926KSTC STC20030701194509907/01/03 19:45:31  5-MIN KSTC 020145Z AUTO 14006KT 10SM CLR 24/18 A2989 1060 66 2400 140/06 RMK AO2
14926KSTC STC20030701195011607/01/03 19:50:31  5-MIN KSTC 020150Z AUTO 15006KT 10SM CLR 24/18 A2989 1060 68 2400 140/06 RMK AO2 SLP124 T02390178
14926KSTC STC20030701195509907/01/03 19:55:31  5-MIN KSTC 020155Z AUTO 14005KT 10SM CLR 24/18 A2989 1060 68 2400 140/05 RMK AO2
14926KSTC STC20030701200009907/01/03 20:00:31  5-MIN KSTC 020200Z AUTO 14006KT 10SM CLR 24/18 A2989 1060 68 2400 140/06 RMK AO2
14926KSTC STC20030701200509907/01/03 20:05:31  5-MIN KSTC 020205Z AUTO 14006KT 10SM CLR 24/17 A2989 1060 66 2400 140/06 RMK AO2
14926KSTC STC20030701201009907/01/03 20:10:31  5-MIN KSTC 020210Z AUTO 14006KT 10SM CLR 24/17 A2989 1060 66 2400 140/06 RMK AO2
14926KSTC STC20030701201509907/01/03 20:15:31  5-MIN KSTC 020215Z AUTO 14006KT 10SM CLR 23/17 A2989 1060 68 2300 140/06 RMK AO2
14926KSTC STC20030701202009907/01/03 20:20:31  5-MIN KSTC 020220Z AUTO 14007KT 10SM CLR 23/17 A2988 1060 68 2300 140/07 RMK AO2
14926KSTC STC20030701202509907/01/03 20:25:31  5-MIN KSTC 020225Z AUTO 14007KT 10SM CLR 23/17 A2988 1060 68 2300 140/07 RMK AO2
14926KSTC STC20030701203009907/01/03 20:30:31  5-MIN KSTC 020230Z AUTO 14007KT 10SM CLR 23/17 A2988 1060 68 2300 140/07 RMK AO2
14926KSTC STC20030701203509907/01/03 20:35:31  5-MIN KSTC 020235Z AUTO 14006KT 10SM CLR 23/17 A2988 1060 70 2200 140/06 RMK AO2
14926KSTC STC20030701204009907/01/03 20:40:31  5-MIN KSTC 020240Z AUTO 14006KT 10SM CLR 23/17 A2988 1060 70 2200 140/06 RMK AO2
14926KSTC STC20030701204509907/01/03 20:45:31  5-MIN KSTC 020245Z AUTO 14007KT 10SM CLR 23/17 A2988 1060 70 2200 140/07 RMK AO2
14926KSTC STC20030701205012207/01/03 20:50:31  5-MIN KSTC 020250Z AUTO 14007KT 10SM CLR 23/17 A2988 1060 70 2200 140/07 RMK AO2 SLP122 T02280172 56015
14926KSTC STC20030701205509907/01/03 20:55:31  5-MIN KSTC 020255Z AUTO 14007KT 10SM CLR 22/17 A2988 1060 73 2200 140/07 RMK AO2
14926KSTC STC20030701210009907/01/03 21:00:31  5-MIN KSTC 020300Z AUTO 15007KT 10SM CLR 22/17 A2988 1060 73 2200 140/07 RMK AO2
14926KSTC STC20030701210509907/01/03 21:05:31  5-MIN KSTC 020305Z AUTO 14007KT 10SM CLR 22/17 A2988 1060 73 2200 140/07 RMK AO2
14926KSTC STC20030701211009907/01/03 21:10:31  5-MIN KSTC 020310Z AUTO 14007KT 10SM CLR 23/17 A2988 1060 70 2200 140/07 RMK AO2
14926KSTC STC20030701211509907/01/03 21:15:31  5-MIN KSTC 020315Z AUTO 14007KT 10SM CLR 23/17 A2988 1060 70 2200 140/07 RMK AO2
14926KSTC STC20030701212009907/01/03 21:20:31  5-MIN KSTC 020320Z AUTO 14006KT 10SM CLR 23/17 A2988 1060 70 2200 140/06 RMK AO2
14926KSTC STC20030701212509907/01/03 21:25:31  5-MIN KSTC 020325Z AUTO 14007KT 10SM CLR 23/17 A2988 1060 70 2200 140/07 RMK AO2
14926KSTC STC20030701213009907/01/03 21:30:31  5-MIN KSTC 020330Z AUTO 14007KT 10SM CLR 22/17 A2988 1060 73 2200 140/07 RMK AO2
14926KSTC STC20030701213509907/01/03 21:35:31  5-MIN KSTC 020335Z AUTO 15007KT 10SM CLR 22/17 A2988 1060 73 2200 140/07 RMK AO2
14926KSTC STC20030701214009907/01/03 21:40:31  5-MIN KSTC 020340Z AUTO 15007KT 10SM CLR 22/17 A2988 1070 73 2200 150/07 RMK AO2
14926KSTC STC20030701214509907/01/03 21:45:31  5-MIN KSTC 020345Z AUTO 15007KT 10SM CLR 22/17 A2988 1060 73 2200 150/07 RMK AO2
14926KSTC STC20030701215011607/01/03 21:50:31  5-MIN KSTC 020350Z AUTO 15007KT 10SM CLR 22/17 A2988 1070 73 2200 150/07 RMK AO2 SLP120 T02220172
14926KSTC STC20030701215509907/01/03 21:55:31  5-MIN KSTC 020355Z AUTO 15007KT 10SM CLR 22/17 A2988 1060 73 2200 140/07 RMK AO2
14926KSTC STC20030701220009907/01/03 22:00:31  5-MIN KSTC 020400Z AUTO 15006KT 10SM CLR 22/17 A2988 1060 73 2200 140/06 RMK AO2
14926KSTC STC20030701220509907/01/03 22:05:31  5-MIN KSTC 020405Z AUTO 14007KT 10SM CLR 22/17 A2988 1060 73 2200 140/07 RMK AO2
14926KSTC STC20030701221009907/01/03 22:10:31  5-MIN KSTC 020410Z AUTO 15006KT 10SM CLR 22/17 A2988 1060 73 2200 150/06 RMK AO2
14926KSTC STC20030701221509907/01/03 22:15:31  5-MIN KSTC 020415Z AUTO 16007KT 10SM CLR 22/17 A2988 1060 75 2100 150/07 RMK AO2
14926KSTC STC20030701222009907/01/03 22:20:31  5-MIN KSTC 020420Z AUTO 16006KT 10SM CLR 21/17 A2988 1060 78 2100 160/06 RMK AO2
14926KSTC STC20030701222509907/01/03 22:25:31  5-MIN KSTC 020425Z AUTO 16007KT 10SM CLR 21/17 A2988 1060 78 2100 150/07 RMK AO2
14926KSTC STC20030701223009907/01/03 22:30:31  5-MIN KSTC 020430Z AUTO 15007KT 10SM CLR 21/17 A2988 1060 78 2100 150/07 RMK AO2
14926KSTC STC20030701223509907/01/03 22:35:31  5-MIN KSTC 020435Z AUTO 15006KT 10SM CLR 21/17 A2988 1060 78 2100 150/06 RMK AO2
14926KSTC STC20030701224009907/01/03 22:40:31  5-MIN KSTC 020440Z AUTO 15007KT 10SM CLR 21/17 A2988 1060 78 2100 150/07 RMK AO2
14926KSTC STC20030701224509907/01/03 22:45:31  5-MIN KSTC 020445Z AUTO 16006KT 10SM CLR 21/17 A2988 1070 81 2000 150/06 RMK AO2
14926KSTC STC20030701225011607/01/03 22:50:31  5-MIN KSTC 020450Z AUTO 16006KT 10SM CLR 21/17 A2988 1070 81 2000 160/06 RMK AO2 SLP119 T02060172
14926KSTC STC20030701225509907/01/03 22:55:31  5-MIN KSTC 020455Z AUTO 16006KT 10SM CLR 21/17 A2988 1070 81 2000 160/06 RMK AO2
14926KSTC STC20030701230009907/01/03 23:00:31  5-MIN KSTC 020500Z AUTO 16006KT 10SM CLR 21/17 A2988 1070 78 2100 160/06 RMK AO2
14926KSTC STC20030701230509907/01/03 23:05:31  5-MIN KSTC 020505Z AUTO 16007KT 10SM CLR 21/17 A2988 1070 81 2000 160/07 RMK AO2
14926KSTC STC20030701231009907/01/03 23:10:31  5-MIN KSTC 020510Z AUTO 15007KT 10SM CLR 21/17 A2987 1070 81 2000 150/07 RMK AO2
14926KSTC STC20030701231509907/01/03 23:15:31  5-MIN KSTC 020515Z AUTO 16007KT 10SM CLR 21/17 A2987 1070 81 2000 150/07 RMK AO2
14926KSTC STC20030701232009907/01/03 23:20:31  5-MIN KSTC 020520Z AUTO 15007KT 10SM CLR 21/17 A2987 1070 81 2000 150/07 RMK AO2
14926KSTC STC20030701232509907/01/03 23:25:31  5-MIN KSTC 020525Z AUTO 15006KT 10SM CLR 21/17 A2987 1070 81 2000 150/06 RMK AO2
14926KSTC STC20030701233009907/01/03 23:30:31  5-MIN KSTC 020530Z AUTO 15006KT 10SM CLR 21/17 A2987 1070 81 2000 150/06 RMK AO2
14926KSTC STC20030701233509907/01/03 23:35:31  5-MIN KSTC 020535Z AUTO 16006KT 10SM CLR 21/17 A2987 1070 81 2000 150/06 RMK AO2
14926KSTC STC20030701234009907/01/03 23:40:31  5-MIN KSTC 020540Z AUTO 16005KT 10SM CLR 21/17 A2987 1070 81 2000 150/05 RMK AO2
14926KSTC STC20030701234509907/01/03 23:45:31  5-MIN KSTC 020545Z AUTO 15005KT 10SM CLR 21/17 A2987 1070 81 2000 150/05 RMK AO2
14926KSTC STC20030701235014407/01/03 23:50:31  5-MIN KSTC 020550Z AUTO 15005KT 10SM CLR 21/17 A2987 1070 81 2000 150/05 RMK AO2 SLP118 T02060172 10283 20206 402940133 56008
14926KSTC STC20030701235509907/01/03 23:55:31  5-MIN KSTC 020555Z AUTO 15005KT 10SM CLR 21/17 A2987 1070 81 2000 150/05 RMK AO2
14926KSTC STC20030702000009907/02/03 00:00:31  5-MIN KSTC 020600Z AUTO 15005KT 10SM CLR 20/17 A2987 1070 84 1900 150/05 RMK AO2
14926KSTC STC20030702000509907/02/03 00:05:31  5-MIN KSTC 020605Z AUTO 15005KT 10SM CLR 20/17 A2987 1070 84 1900 140/05 RMK AO2
14926KSTC STC20030702001009907/02/03 00:10:31  5-MIN KSTC 020610Z AUTO 14004KT 10SM CLR 21/17 A2987 1070 81 2000 140/04 RMK AO2
14926KSTC STC20030702001509907/02/03 00:15:31  5-MIN KSTC 020615Z AUTO 14004KT 10SM CLR 21/17 A2987 1070 81 2000 140/04 RMK AO2
14926KSTC STC20030702002009907/02/03 00:20:31  5-MIN KSTC 020620Z AUTO 15003KT 10SM CLR 21/17 A2987 1070 81 2000 140/03 RMK AO2
14926KSTC STC20030702002509907/02/03 00:25:31  5-MIN KSTC 020625Z AUTO 14003KT 10SM CLR 20/17 A2987 1080 84 1900 140/03 RMK AO2
14926KSTC STC20030702003009907/02/03 00:30:31  5-MIN KSTC 020630Z AUTO 15004KT 10SM CLR 20/17 A2987 1080 84 1900 140/04 RMK AO2
14926KSTC STC20030702003509907/02/03 00:35:31  5-MIN KSTC 020635Z AUTO 15004KT 10SM CLR 19/17 A2986 1080 87 1900 140/04 RMK AO2
14926KSTC STC20030702004009907/02/03 00:40:31  5-MIN KSTC 020640Z AUTO 15004KT 10SM CLR 19/17 A2986 1080 87 1900 140/04 RMK AO2
14926KSTC STC20030702004509907/02/03 00:45:31  5-MIN KSTC 020645Z AUTO 14004KT 10SM CLR 19/17 A2986 1080 90 1800 140/04 RMK AO2
14926KSTC STC20030702005011607/02/03 00:50:31  5-MIN KSTC 020650Z AUTO 15004KT 10SM CLR 19/17 A2986 1080 90 1800 140/04 RMK AO2 SLP113 T01890172
14926KSTC STC20030702005509907/02/03 00:55:31  5-MIN KSTC 020655Z AUTO 15005KT 10SM CLR 20/17 A2986 1080 84 2000 150/05 RMK AO2
14926KSTC STC20030702010009907/02/03 01:00:31  5-MIN KSTC 020700Z AUTO 16004KT 10SM CLR 19/17 A2986 1090 90 1800 160/04 RMK AO2
14926KSTC STC20030702010509907/02/03 01:05:31  5-MIN KSTC 020705Z AUTO 16004KT 10SM CLR 19/17 A2985 1090 90 1800 160/04 RMK AO2
14926KSTC STC20030702011009907/02/03 01:10:31  5-MIN KSTC 020710Z AUTO 16005KT 10SM CLR 19/17 A2985 1090 90 1800 160/05 RMK AO2
14926KSTC STC20030702011509907/02/03 01:15:31  5-MIN KSTC 020715Z AUTO 16005KT 10SM CLR 19/17 A2985 1090 90 1800 150/05 RMK AO2
14926KSTC STC20030702012009907/02/03 01:20:31  5-MIN KSTC 020720Z AUTO 16005KT 10SM CLR 19/17 A2985 1090 90 1800 150/05 RMK AO2
14926KSTC STC20030702012509907/02/03 01:25:31  5-MIN KSTC 020725Z AUTO 16005KT 10SM CLR 19/17 A2985 1090 90 1800 160/05 RMK AO2
14926KSTC STC20030702013009907/02/03 01:30:31  5-MIN KSTC 020730Z AUTO 16005KT 10SM CLR 19/17 A2985 1090 87 1900 160/05 RMK AO2
14926KSTC STC20030702013509907/02/03 01:35:31  5-MIN KSTC 020735Z AUTO 17005KT 10SM CLR 19/17 A2985 1090 87 1900 170/05 RMK AO2
14926KSTC STC20030702014009907/02/03 01:40:31  5-MIN KSTC 020740Z AUTO 17005KT 10SM CLR 19/17 A2985 1090 90 1800 170/05 RMK AO2
14926KSTC STC20030702014509907/02/03 01:45:31  5-MIN KSTC 020745Z AUTO 17006KT 10SM CLR 19/17 A2985 1090 87 1900 170/06 RMK AO2
14926KSTC STC20030702015011607/02/03 01:50:31  5-MIN KSTC 020750Z AUTO 17006KT 10SM CLR 19/17 A2984 1100 90 1800 170/06 RMK AO2 SLP108 T01890172
14926KSTC STC20030702015509907/02/03 01:55:31  5-MIN KSTC 020755Z AUTO 17006KT 10SM CLR 19/17 A2984 1100 87 1900 170/06 RMK AO2
14926KSTC STC20030702020009907/02/03 02:00:31  5-MIN KSTC 020800Z AUTO 18006KT 10SM CLR 20/18 A2984 1100 87 2000 170/06 RMK AO2
14926KSTC STC20030702020509907/02/03 02:05:31  5-MIN KSTC 020805Z AUTO 17006KT 10SM CLR 20/18 A2984 1100 87 2000 170/06 RMK AO2
14926KSTC STC20030702021009907/02/03 02:10:31  5-MIN KSTC 020810Z AUTO 18006KT 10SM CLR 20/18 A2984 1100 87 2000 170/06 RMK AO2
14926KSTC STC20030702021509907/02/03 02:15:31  5-MIN KSTC 020815Z AUTO 17006KT 10SM CLR 20/18 A2984 1100 87 2000 170/06 RMK AO2
14926KSTC STC20030702022009907/02/03 02:20:31  5-MIN KSTC 020820Z AUTO 17006KT 10SM CLR 20/18 A2984 1110 87 2000 170/06 RMK AO2
14926KSTC STC20030702022509907/02/03 02:25:31  5-MIN KSTC 020825Z AUTO 18006KT 10SM CLR 20/18 A2983 1110 87 2000 170/06 RMK AO2
14926KSTC STC20030702023009907/02/03 02:30:31  5-MIN KSTC 020830Z AUTO 18006KT 10SM CLR 20/18 A2983 1110 87 2000 180/06 RMK AO2
14926KSTC STC20030702023509907/02/03 02:35:31  5-MIN KSTC 020835Z AUTO 18006KT 10SM CLR 20/18 A2983 1110 87 2000 180/06 RMK AO2
14926KSTC STC20030702024009907/02/03 02:40:31  5-MIN KSTC 020840Z AUTO 19006KT 10SM CLR 20/18 A2983 1110 87 2000 180/06 RMK AO2
14926KSTC STC20030702024509907/02/03 02:45:31  5-MIN KSTC 020845Z AUTO 19006KT 10SM CLR 20/18 A2983 1110 87 2000 180/06 RMK AO2
14926KSTC STC20030702025012207/02/03 02:50:31  5-MIN KSTC 020850Z AUTO 19006KT 10SM CLR 21/18 A2983 1110 84 2100 180/06 RMK AO2 SLP102 T02060178 56004
14926KSTC STC20030702025509907/02/03 02:55:31  5-MIN KSTC 020855Z AUTO 19007KT 10SM CLR 21/18 A2983 1110 84 2100 190/07 RMK AO2
14926KSTC STC20030702030009907/02/03 03:00:31  5-MIN KSTC 020900Z AUTO 19007KT 10SM CLR 21/18 A2983 1110 84 2100 190/07 RMK AO2
14926KSTC STC20030702030509907/02/03 03:05:31  5-MIN KSTC 020905Z AUTO 19006KT 10SM CLR 21/18 A2983 1110 84 2100 180/06 RMK AO2
14926KSTC STC20030702031009907/02/03 03:10:31  5-MIN KSTC 020910Z AUTO 18006KT 10SM CLR 21/18 A2983 1110 84 2100 180/06 RMK AO2
14926KSTC STC20030702031509907/02/03 03:15:31  5-MIN KSTC 020915Z AUTO 18007KT 10SM CLR 21/18 A2983 1110 84 2100 180/07 RMK AO2
14926KSTC STC20030702032009907/02/03 03:20:31  5-MIN KSTC 020920Z AUTO 18006KT 10SM CLR 21/18 A2983 1110 84 2100 180/06 RMK AO2
14926KSTC STC20030702032509907/02/03 03:25:31  5-MIN KSTC 020925Z AUTO 19006KT 10SM CLR 21/18 A2982 1120 84 2100 180/06 RMK AO2
14926KSTC STC20030702033009907/02/03 03:30:31  5-MIN KSTC 020930Z AUTO 19006KT 10SM CLR 21/18 A2982 1120 84 2100 180/06 RMK AO2
14926KSTC STC20030702033509907/02/03 03:35:31  5-MIN KSTC 020935Z AUTO 18006KT 10SM CLR 21/18 A2982 1120 84 2100 180/06 RMK AO2
14926KSTC STC20030702034009907/02/03 03:40:31  5-MIN KSTC 020940Z AUTO 18006KT 10SM CLR 21/18 A2982 1120 84 2100 180/06 RMK AO2
14926KSTC STC20030702034509907/02/03 03:45:31  5-MIN KSTC 020945Z AUTO 18006KT 10SM CLR 21/18 A2982 1120 84 2100 180/06 RMK AO2
14926KSTC STC20030702035011607/02/03 03:50:31  5-MIN KSTC 020950Z AUTO 18006KT 10SM CLR 21/18 A2982 1120 87 2100 180/06 RMK AO2 SLP098 T02060183
14926KSTC STC20030702035509907/02/03 03:55:31  5-MIN KSTC 020955Z AUTO 18006KT 10SM CLR 21/18 A2982 1120 87 2100 170/06 RMK AO2
14926KSTC STC20030702040009907/02/03 04:00:31  5-MIN KSTC 021000Z AUTO 17006KT 10SM CLR 20/18 A2982 1120 90 2000 170/06 RMK AO2
14926KSTC STC20030702040509907/02/03 04:05:31  5-MIN KSTC 021005Z AUTO 17006KT 10SM CLR 20/18 A2982 1120 87 2000 170/06 RMK AO2
14926KSTC STC20030702041009907/02/03 04:10:31  5-MIN KSTC 021010Z AUTO 17006KT 10SM CLR 19/18 A2982 1120 90 1900 160/06 RMK AO2
14926KSTC STC20030702041509907/02/03 04:15:31  5-MIN KSTC 021015Z AUTO 17006KT 10SM CLR 19/18 A2981 1120 90 1900 170/06 RMK AO2
14926KSTC STC20030702042009907/02/03 04:20:31  5-MIN KSTC 021020Z AUTO 18006KT 10SM CLR 19/18 A2981 1120 90 1900 170/06 RMK AO2
14926KSTC STC20030702042509907/02/03 04:25:31  5-MIN KSTC 021025Z AUTO 18006KT 10SM CLR 19/18 A2981 1130 93 1900 170/06 RMK AO2
14926KSTC STC20030702043009907/02/03 04:30:31  5-MIN KSTC 021030Z AUTO 17007KT 10SM CLR 20/18 A2981 1130 90 2000 170/07 RMK AO2
14926KSTC STC20030702043509907/02/03 04:35:31  5-MIN KSTC 021035Z AUTO 17005KT 10SM CLR 19/18 A2981 1120 93 1900 170/05 RMK AO2
14926KSTC STC20030702044009907/02/03 04:40:31  5-MIN KSTC 021040Z AUTO 17005KT 10SM CLR 19/18 A2982 1120 93 1900 170/05 RMK AO2
14926KSTC STC20030702044509907/02/03 04:45:31  5-MIN KSTC 021045Z AUTO 16005KT 10SM CLR 19/18 A2982 1120 93 1900 160/05 RMK AO2
14926KSTC STC20030702045011607/02/03 04:50:31  5-MIN KSTC 021050Z AUTO 17005KT 10SM CLR 19/18 A2982 1120 93 1900 170/05 RMK AO2 SLP099 T01890178
14926KSTC STC20030702045509907/02/03 04:55:31  5-MIN KSTC 021055Z AUTO 16005KT 10SM CLR 19/18 A2982 1120 93 1900 160/05 RMK AO2
14926KSTC STC20030702050009907/02/03 05:00:31  5-MIN KSTC 021100Z AUTO 17005KT 10SM CLR 19/18 A2982 1120 93 1900 160/05 RMK AO2
14926KSTC STC20030702050509907/02/03 05:05:31  5-MIN KSTC 021105Z AUTO 16005KT 10SM CLR 19/18 A2982 1120 93 1900 160/05 RMK AO2
14926KSTC STC20030702051009907/02/03 05:10:31  5-MIN KSTC 021110Z AUTO 17005KT 10SM CLR 19/18 A2982 1120 93 1900 160/05 RMK AO2
14926KSTC STC20030702051509907/02/03 05:15:31  5-MIN KSTC 021115Z AUTO 17004KT 10SM CLR 19/18 A2982 1120 93 1900 170/04 RMK AO2
14926KSTC STC20030702052009907/02/03 05:20:31  5-MIN KSTC 021120Z AUTO 17004KT 10SM CLR 19/18 A2982 1120 93 1900 160/04 RMK AO2
14926KSTC STC20030702052509907/02/03 05:25:31  5-MIN KSTC 021125Z AUTO 16005KT 10SM CLR 19/18 A2982 1120 93 1900 160/05 RMK AO2
14926KSTC STC20030702053009907/02/03 05:30:31  5-MIN KSTC 021130Z AUTO 16004KT 10SM CLR 20/18 A2982 1120 90 2000 160/04 RMK AO2
14926KSTC STC20030702053509907/02/03 05:35:31  5-MIN KSTC 021135Z AUTO 18005KT 10SM CLR 20/19 A2982 1120 93 2000 170/05 RMK AO2
14926KSTC STC20030702054009907/02/03 05:40:31  5-MIN KSTC 021140Z AUTO 18005KT 10SM CLR 21/19 A2981 1130 90 2100 170/05 RMK AO2
14926KSTC STC20030702054509907/02/03 05:45:31  5-MIN KSTC 021145Z AUTO 17005KT 10SM CLR 21/19 A2981 1120 90 2100 170/05 RMK AO2
14926KSTC STC20030702055013407/02/03 05:50:31  5-MIN KSTC 021150Z AUTO 18005KT 10SM CLR 21/19 A2982 1120 87 2100 170/05 RMK AO2 SLP098 T02110189 10211 20189 57014
14926KSTC STC20030702055509907/02/03 05:55:31  5-MIN KSTC 021155Z AUTO 18005KT 10SM CLR 21/19 A2982 1120 87 2100 180/05 RMK AO2
14926KSTC STC20030702060009907/02/03 06:00:31  5-MIN KSTC 021200Z AUTO 17005KT 10SM CLR 21/19 A2982 1120 87 2100 170/05 RMK AO2
14926KSTC STC20030702060509907/02/03 06:05:31  5-MIN KSTC 021205Z AUTO 18006KT 10SM CLR 21/19 A2982 1120 87 2100 170/06 RMK AO2
14926KSTC STC20030702061009907/02/03 06:10:31  5-MIN KSTC 021210Z AUTO 18006KT 10SM CLR 22/19 A2982 1120 84 2200 180/06 RMK AO2
14926KSTC STC20030702061509907/02/03 06:15:31  5-MIN KSTC 021215Z AUTO 18007KT 10SM CLR 22/19 A2982 1120 84 2200 180/07 RMK AO2
14926KSTC STC20030702062009907/02/03 06:20:31  5-MIN KSTC 021220Z AUTO 19006KT 10SM CLR 22/19 A2982 1120 81 2300 190/06 RMK AO2
14926KSTC STC20030702062509907/02/03 06:25:31  5-MIN KSTC 021225Z AUTO 19007KT 10SM CLR 22/19 A2982 1120 84 2300 180/07 RMK AO2
14926KSTC STC20030702063009907/02/03 06:30:31  5-MIN KSTC 021230Z AUTO 20007KT 10SM CLR 22/19 A2981 1120 84 2300 190/07 RMK AO2
14926KSTC STC20030702063509907/02/03 06:35:31  5-MIN KSTC 021235Z AUTO 19009KT 10SM CLR 22/19 A2981 1130 81 2300 190/09 RMK AO2
14926KSTC STC20030702064009907/02/03 06:40:31  5-MIN KSTC 021240Z AUTO 18008KT 10SM CLR 23/19 A2981 1130 81 2300 180/08 RMK AO2
14926KSTC STC20030702064509907/02/03 06:45:31  5-MIN KSTC 021245Z AUTO 19011KT 10SM CLR 23/19 A2981 1130 81 2300 190/11 RMK AO2
14926KSTC STC20030702065011607/02/03 06:50:31  5-MIN KSTC 021250Z AUTO 19008KT 10SM CLR 23/19 A2981 1130 78 2300 180/08 RMK AO2 SLP094 T02280189
14926KSTC STC20030702065509907/02/03 06:55:31  5-MIN KSTC 021255Z AUTO 19008KT 10SM CLR 23/19 A2981 1130 78 2400 190/08 RMK AO2
14926KSTC STC20030702070009907/02/03 07:00:31  5-MIN KSTC 021300Z AUTO 19008KT 10SM CLR 23/19 A2981 1130 78 2400 190/08 RMK AO2
14926KSTC STC20030702070509907/02/03 07:05:31  5-MIN KSTC 021305Z AUTO 19009KT 10SM CLR 23/19 A2981 1130 78 2400 190/09 RMK AO2
14926KSTC STC20030702071009907/02/03 07:10:31  5-MIN KSTC 021310Z AUTO 20007KT 10SM CLR 23/19 A2980 1130 78 2400 190/07 RMK AO2
14926KSTC STC20030702071509907/02/03 07:15:31  5-MIN KSTC 021315Z AUTO 20010KT 10SM CLR 24/19 A2981 1130 76 2500 190/10 RMK AO2
14926KSTC STC20030702072009907/02/03 07:20:31  5-MIN KSTC 021320Z AUTO 20009KT 10SM CLR 24/19 A2981 1130 76 2500 190/09 RMK AO2
14926KSTC STC20030702072509907/02/03 07:25:31  5-MIN KSTC 021325Z AUTO 19009KT 10SM CLR 24/19 A2981 1130 73 2500 190/09 RMK AO2
14926KSTC STC20030702073009907/02/03 07:30:31  5-MIN KSTC 021330Z AUTO 19010KT 10SM CLR 24/19 A2981 1130 76 2500 180/10 RMK AO2
14926KSTC STC20030702073509907/02/03 07:35:31  5-MIN KSTC 021335Z AUTO 18007KT 10SM CLR 24/19 A2981 1130 73 2500 180/07 RMK AO2
14926KSTC STC20030702074009907/02/03 07:40:31  5-MIN KSTC 021340Z AUTO 19009KT 10SM CLR 24/20 A2981 1130 76 2500 190/09 RMK AO2
14926KSTC STC20030702074509907/02/03 07:45:31  5-MIN KSTC 021345Z AUTO 18008KT 10SM CLR 25/20 A2981 1130 73 2600 180/08 RMK AO2
14926KSTC STC20030702075011607/02/03 07:50:31  5-MIN KSTC 021350Z AUTO 21008KT 10SM CLR 25/20 A2981 1130 73 2600 200/08 RMK AO2 SLP096 T02500200
14926KSTC STC20030702075509907/02/03 07:55:31  5-MIN KSTC 021355Z AUTO 21010KT 10SM CLR 25/20 A2981 1130 73 2600 210/10 RMK AO2
14926KSTC STC20030702080009907/02/03 08:00:31  5-MIN KSTC 021400Z AUTO 20009KT 10SM CLR 26/20 A2981 1130 71 2600 200/09 RMK AO2
14926KSTC STC20030702080509907/02/03 08:05:31  5-MIN KSTC 021405Z AUTO 20009KT 10SM CLR 26/20 A2981 1130 71 2600 190/09 RMK AO2
14926KSTC STC20030702081009907/02/03 08:10:31  5-MIN KSTC 021410Z AUTO 21011KT 10SM CLR 26/20 A2981 1130 71 2600 210/11 RMK AO2
14926KSTC STC20030702081509907/02/03 08:15:31  5-MIN KSTC 021415Z AUTO 20009KT 10SM CLR 26/20 A2981 1130 71 2600 200/09 RMK AO2
14926KSTC STC20030702082009907/02/03 08:20:31  5-MIN KSTC 021420Z AUTO 21011KT 10SM CLR 26/20 A2981 1130 68 2700 200/11 RMK AO2
14926KSTC STC20030702082509907/02/03 08:25:31  5-MIN KSTC 021425Z AUTO 21010KT 10SM CLR 26/20 A2980 1140 68 2700 200/10 RMK AO2
14926KSTC STC20030702083009907/02/03 08:30:31  5-MIN KSTC 021430Z AUTO 20012KT 10SM CLR 27/20 A2980 1140 66 2800 200/12 RMK AO2
14926KSTC STC20030702083509907/02/03 08:35:31  5-MIN KSTC 021435Z AUTO 20011KT 10SM CLR 27/20 A2980 1140 66 2800 190/11 RMK AO2
14926KSTC STC20030702084009907/02/03 08:40:31  5-MIN KSTC 021440Z AUTO 20013KT 10SM CLR 27/20 A2980 1140 66 2800 200/13 RMK AO2
14926KSTC STC20030702084509907/02/03 08:45:31  5-MIN KSTC 021445Z AUTO 20012KT 10SM CLR 27/20 A2980 1140 66 2800 200/12 RMK AO2
14926KSTC STC20030702085012207/02/03 08:50:31  5-MIN KSTC 021450Z AUTO 21010KT 10SM CLR 27/20 A2980 1140 64 2800 210/10 RMK AO2 SLP092 T02720200 56004
14926KSTC STC20030702085509907/02/03 08:55:31  5-MIN KSTC 021455Z AUTO 21011KT 10SM CLR 27/21 A2980 1140 66 2800 210/11 RMK AO2
14926KSTC STC20030702090009907/02/03 09:00:31  5-MIN KSTC 021500Z AUTO 21009KT 10SM CLR 28/21 A2980 1140 64 2900 200/09 RMK AO2
14926KSTC STC20030702090509907/02/03 09:05:31  5-MIN KSTC 021505Z AUTO 20012KT 10SM CLR 27/20 A2980 1140 64 2800 200/12 RMK AO2
14926KSTC STC20030702091009907/02/03 09:10:31  5-MIN KSTC 021510Z AUTO 20012KT 10SM CLR 28/20 A2980 1140 62 2900 200/12 RMK AO2
14926KSTC STC20030702091509907/02/03 09:15:31  5-MIN KSTC 021515Z AUTO 20013KT 10SM CLR 28/20 A2980 1140 62 2900 200/13 RMK AO2
14926KSTC STC20030702092009907/02/03 09:20:31  5-MIN KSTC 021520Z AUTO 20012KT 10SM CLR 28/20 A2980 1140 62 2900 200/12 RMK AO2
14926KSTC STC20030702092509907/02/03 09:25:31  5-MIN KSTC 021525Z AUTO 20011KT 10SM CLR 28/20 A2980 1140 62 2900 200/11 RMK AO2
14926KSTC STC20030702093009907/02/03 09:30:31  5-MIN KSTC 021530Z AUTO 19012KT 10SM CLR 28/20 A2980 1140 60 3000 190/12 RMK AO2
14926KSTC STC20030702093509907/02/03 09:35:31  5-MIN KSTC 021535Z AUTO 21014KT 10SM CLR 28/20 A2980 1140 60 3000 210/14 RMK AO2
14926KSTC STC20030702094009907/02/03 09:40:31  5-MIN KSTC 021540Z AUTO 20012KT 10SM CLR 28/20 A2980 1140 60 3000 200/12 RMK AO2
14926KSTC STC20030702094509907/02/03 09:45:31  5-MIN KSTC 021545Z AUTO 19012KT 10SM CLR 28/20 A2980 1140 60 3000 190/12 RMK AO2
14926KSTC STC20030702095011607/02/03 09:50:31  5-MIN KSTC 021550Z AUTO 19012KT 10SM CLR 29/20 A2980 1140 58 3000 190/12 RMK AO2 SLP091 T02890200
14926KSTC STC20030702095509907/02/03 09:55:31  5-MIN KSTC 021555Z AUTO 20012KT 10SM CLR 29/20 A2980 1140 58 3000 190/12 RMK AO2
14926KSTC STC20030702100009907/02/03 10:00:31  5-MIN KSTC 021600Z AUTO 21009KT 10SM CLR 29/20 A2979 1140 58 3000 200/09 RMK AO2
14926KSTC STC20030702100509907/02/03 10:05:31  5-MIN KSTC 021605Z AUTO 19010KT 10SM CLR 29/21 A2980 1140 60 3000 190/10 RMK AO2
14926KSTC STC20030702101009907/02/03 10:10:31  5-MIN KSTC 021610Z AUTO 19013KT 10SM CLR 29/21 A2979 1140 60 3000 180/13 RMK AO2
14926KSTC STC20030702101509907/02/03 10:15:31  5-MIN KSTC 021615Z AUTO 18012KT 10SM CLR 29/20 A2979 1140 58 3000 180/12 RMK AO2
14926KSTC STC20030702102009907/02/03 10:20:31  5-MIN KSTC 021620Z AUTO 19014KT 10SM CLR 29/20 A2979 1140 58 3000 190/14 RMK AO2
14926KSTC STC20030702102509907/02/03 10:25:31  5-MIN KSTC 021625Z AUTO 19014KT 10SM CLR 29/21 A2979 1150 58 3100 190/14 RMK AO2
14926KSTC STC20030702103009907/02/03 10:30:31  5-MIN KSTC 021630Z AUTO 19011KT 10SM CLR 29/20 A2979 1150 58 3000 180/11 RMK AO2
14926KSTC STC20030702103510507/02/03 10:35:31  5-MIN KSTC 021635Z AUTO 18015G19KT 10SM CLR 29/21 A2979 1150 58 3100 170/15G19 RMK AO2
14926KSTC STC20030702104010507/02/03 10:40:31  5-MIN KSTC 021640Z AUTO 18013G19KT 10SM CLR 29/20 A2979 1140 56 3100 180/13G19 RMK AO2
14926KSTC STC20030702104509907/02/03 10:45:31  5-MIN KSTC 021645Z AUTO 18012KT 10SM CLR 29/20 A2979 1150 56 3100 170/12 RMK AO2
14926KSTC STC20030702105011607/02/03 10:50:31  5-MIN KSTC 021650Z AUTO 17014KT 10SM CLR 29/20 A2979 1150 56 3100 170/14 RMK AO2 SLP089 T02940200
14926KSTC STC20030702105509907/02/03 10:55:31  5-MIN KSTC 021655Z AUTO 19014KT 10SM CLR 30/20 A2979 1150 54 3200 190/14 RMK AO2
14926KSTC STC20030702110009907/02/03 11:00:31  5-MIN KSTC 021700Z AUTO 18010KT 10SM CLR 30/21 A2979 1150 56 3200 180/10 RMK AO2
14926KSTC STC20030702110509907/02/03 11:05:31  5-MIN KSTC 021705Z AUTO 18011KT 10SM CLR 30/21 A2979 1150 56 3200 180/11 RMK AO2
14926KSTC STC20030702111009907/02/03 11:10:31  5-MIN KSTC 021710Z AUTO 18011KT 10SM CLR 30/20 A2979 1150 54 3200 170/11 RMK AO2
14926KSTC STC20030702111509907/02/03 11:15:31  5-MIN KSTC 021715Z AUTO 17014KT 10SM CLR 30/20 A2979 1150 54 3200 170/14 RMK AO2
14926KSTC STC20030702112009907/02/03 11:20:31  5-MIN KSTC 021720Z AUTO 16014KT 10SM CLR 30/20 A2979 1150 54 3200 160/14 RMK AO2
14926KSTC STC20030702112509907/02/03 11:25:31  5-MIN KSTC 021725Z AUTO 18014KT 10SM CLR 30/20 A2978 1150 54 3200 180/14 RMK AO2
14926KSTC STC20030702113009907/02/03 11:30:31  5-MIN KSTC 021730Z AUTO 18013KT 10SM CLR 31/20 A2978 1150 52 3200 180/13 RMK AO2
14926KSTC STC20030702113510507/02/03 11:35:31  5-MIN KSTC 021735Z AUTO 16016G21KT 10SM CLR 31/21 A2978 1150 54 3200 150/16G21 RMK AO2
14926KSTC STC20030702114010507/02/03 11:40:31  5-MIN KSTC 021740Z AUTO 17014G21KT 10SM CLR 31/21 A2978 1150 54 3200 160/14G21 RMK AO2
14926KSTC STC20030702114510207/02/03 11:45:31  5-MIN KSTC 021745Z AUTO 18012KT 10SM FEW095 31/21 A2978 1160 54 3200 180/12 RMK AO2
14926KSTC STC20030702115013407/02/03 11:50:31  5-MIN KSTC 021750Z AUTO 18014KT 10SM CLR 31/21 A2978 1160 53 3300 180/14 RMK AO2 SLP084 T03110206 10311 20211 56005
14926KSTC STC20030702115509907/02/03 11:55:31  5-MIN KSTC 021755Z AUTO 17016KT 10SM CLR 31/21 A2978 1160 53 3300 170/16 RMK AO2
14926KSTC STC20030702120009907/02/03 12:00:31  5-MIN KSTC 021800Z AUTO 18012KT 10SM CLR 31/21 A2977 1160 54 3200 180/12 RMK AO2
14926KSTC STC20030702120509907/02/03 12:05:31  5-MIN KSTC 021805Z AUTO 17013KT 10SM CLR 31/21 A2977 1160 53 3300 170/13 RMK AO2
14926KSTC STC20030702121009907/02/03 12:10:31  5-MIN KSTC 021810Z AUTO 17014KT 10SM CLR 32/21 A2977 1160 53 3400 160/14 RMK AO2
14926KSTC STC20030702121509907/02/03 12:15:31  5-MIN KSTC 021815Z AUTO 16015KT 10SM CLR 31/21 A2977 1160 53 3300 160/15 RMK AO2
14926KSTC STC20030702122009907/02/03 12:20:31  5-MIN KSTC 021820Z AUTO 17014KT 10SM CLR 31/21 A2977 1160 53 3300 160/14 RMK AO2
14926KSTC STC20030702122510507/02/03 12:25:31  5-MIN KSTC 021825Z AUTO 17014G20KT 10SM CLR 31/21 A2977 1160 53 3300 170/14G20 RMK AO2
14926KSTC STC20030702123010507/02/03 12:30:31  5-MIN KSTC 021830Z AUTO 15014G20KT 10SM CLR 31/21 A2977 1160 53 3300 150/14G20 RMK AO2
14926KSTC STC20030702123509907/02/03 12:35:31  5-MIN KSTC 021835Z AUTO 16017KT 10SM CLR 32/21 A2977 1160 51 3400 160/17 RMK AO2
14926KSTC STC20030702124009907/02/03 12:40:31  5-MIN KSTC 021840Z AUTO 16016KT 10SM CLR 32/21 A2977 1160 51 3400 150/16 RMK AO2
14926KSTC STC20030702124509907/02/03 12:45:31  5-MIN KSTC 021845Z AUTO 17014KT 10SM CLR 31/21 A2977 1170 53 3300 160/14 RMK AO2
14926KSTC STC20030702125011607/02/03 12:50:31  5-MIN KSTC 021850Z AUTO 17015KT 10SM CLR 32/21 A2977 1170 51 3400 170/15 RMK AO2 SLP081 T03170206
14926KSTC STC20030702125509907/02/03 12:55:31  5-MIN KSTC 021855Z AUTO 17018KT 10SM CLR 31/21 A2977 1170 53 3300 170/18 RMK AO2
14926KSTC STC20030702130010507/02/03 13:00:31  5-MIN KSTC 021900Z AUTO 17012G21KT 10SM CLR 32/21 A2976 1170 51 3400 170/12G21 RMK AO2
14926KSTC STC20030702130509907/02/03 13:05:31  5-MIN KSTC 021905Z AUTO 17016KT 10SM CLR 32/21 A2976 1170 53 3400 170/16 RMK AO2
14926KSTC STC20030702131009907/02/03 13:10:31  5-MIN KSTC 021910Z AUTO 15015KT 10SM CLR 32/21 A2976 1170 53 3400 150/15 RMK AO2
14926KSTC STC20030702131509907/02/03 13:15:31  5-MIN KSTC 021915Z AUTO 16016KT 10SM CLR 32/21 A2976 1180 53 3400 160/16 RMK AO2
14926KSTC STC20030702132009907/02/03 13:20:31  5-MIN KSTC 021920Z AUTO 16015KT 10SM CLR 32/21 A2975 1180 53 3400 160/15 RMK AO2
14926KSTC STC20030702132510507/02/03 13:25:31  5-MIN KSTC 021925Z AUTO 15016G21KT 10SM CLR 32/21 A2975 1180 53 3400 150/16G21 RMK AO2
14926KSTC STC20030702133010507/02/03 13:30:31  5-MIN KSTC 021930Z AUTO 16018G22KT 10SM CLR 32/21 A2975 1190 53 3400 160/18G22 RMK AO2
14926KSTC STC20030702133509907/02/03 13:35:31  5-MIN KSTC 021935Z AUTO 15016KT 10SM CLR 32/21 A2974 1190 51 3400 150/16 RMK AO2
14926KSTC STC20030702134010507/02/03 13:40:31  5-MIN KSTC 021940Z AUTO 15019G23KT 10SM CLR 32/21 A2974 1190 51 3400 150/19G23 RMK AO2
14926KSTC STC20030702134510507/02/03 13:45:31  5-MIN KSTC 021945Z AUTO 16018G23KT 10SM CLR 32/21 A2974 1190 51 3400 150/18G23 RMK AO2
14926KSTC STC20030702135012207/02/03 13:50:31  5-MIN KSTC 021950Z AUTO 16020G24KT 10SM CLR 32/21 A2974 1190 51 3400 160/20G24 RMK AO2 SLP071 T03170206
14926KSTC STC20030702135510507/02/03 13:55:31  5-MIN KSTC 021955Z AUTO 16017G24KT 10SM CLR 32/21 A2974 1200 51 3400 160/17G24 RMK AO2
14926KSTC STC20030702140010507/02/03 14:00:31  5-MIN KSTC 022000Z AUTO 16018G24KT 10SM CLR 32/21 A2973 1200 51 3400 150/18G24 RMK AO2
14926KSTC STC20030702140510507/02/03 14:05:31  5-MIN KSTC 022005Z AUTO 16017G24KT 10SM CLR 32/21 A2973 1200 51 3400 150/17G24 RMK AO2
14926KSTC STC20030702141010507/02/03 14:10:31  5-MIN KSTC 022010Z AUTO 16017G22KT 10SM CLR 32/20 A2973 1210 49 3400 160/17G22 RMK AO2
14926KSTC STC20030702141510507/02/03 14:15:31  5-MIN KSTC 022015Z AUTO 15019G24KT 10SM CLR 32/20 A2972 1210 49 3400 150/19G24 RMK AO2
14926KSTC STC20030702142010507/02/03 14:20:31  5-MIN KSTC 022020Z AUTO 16020G24KT 10SM CLR 32/20 A2972 1210 49 3400 160/20G24 RMK AO2
14926KSTC STC20030702142510507/02/03 14:25:31  5-MIN KSTC 022025Z AUTO 16017G23KT 10SM CLR 31/20 A2972 1220 51 3400 150/17G23 RMK AO2
14926KSTC STC20030702143009907/02/03 14:30:31  5-MIN KSTC 022030Z AUTO 17016KT 10SM CLR 32/21 A2971 1220 51 3400 170/16 RMK AO2
14926KSTC STC20030702143510507/02/03 14:35:31  5-MIN KSTC 022035Z AUTO 16019G24KT 10SM CLR 32/21 A2971 1220 51 3400 160/19G24 RMK AO2
14926KSTC STC20030702144010507/02/03 14:40:31  5-MIN KSTC 022040Z AUTO 18021G25KT 10SM CLR 32/20 A2971 1220 49 3400 180/21G25 RMK AO2
14926KSTC STC20030702144510507/02/03 14:45:31  5-MIN KSTC 022045Z AUTO 17015G25KT 10SM CLR 32/20 A2971 1220 49 3400 170/15G25 RMK AO2
14926KSTC STC20030702145012807/02/03 14:50:31  5-MIN KSTC 022050Z AUTO 16018G22KT 10SM CLR 32/20 A2971 1220 49 3400 160/18G22 RMK AO2 SLP061 T03170200 58008
14926KSTC STC20030702145510507/02/03 14:55:31  5-MIN KSTC 022055Z AUTO 17017G23KT 10SM CLR 32/20 A2971 1220 49 3400 170/17G23 RMK AO2
14926KSTC STC20030702150010507/02/03 15:00:31  5-MIN KSTC 022100Z AUTO 17018G24KT 10SM CLR 32/20 A2971 1220 49 3400 160/18G24 RMK AO2
14926KSTC STC20030702150510507/02/03 15:05:31  5-MIN KSTC 022105Z AUTO 18016G24KT 10SM CLR 32/20 A2970 1230 49 3400 170/16G24 RMK AO2
14926KSTC STC20030702151009907/02/03 15:10:31  5-MIN KSTC 022110Z AUTO 16015KT 10SM CLR 32/21 A2970 1230 51 3400 160/15 RMK AO2
14926KSTC STC20030702151510507/02/03 15:15:31  5-MIN KSTC 022115Z AUTO 17020G25KT 10SM CLR 32/21 A2970 1230 51 3400 170/20G25 RMK AO2
14926KSTC STC20030702152010507/02/03 15:20:31  5-MIN KSTC 022120Z AUTO 17015G25KT 10SM CLR 32/21 A2970 1240 51 3400 160/15G25 RMK AO2
14926KSTC STC20030702152512307/02/03 15:25:31  5-MIN KSTC 022125Z AUTO 16022G27KT 10SM CLR 32/20 A2969 1240 49 3500 160/22G27 RMK AO2 PK WND 18027/2125
14926KSTC STC20030702153012307/02/03 15:30:31  5-MIN KSTC 022130Z AUTO 16015G27KT 10SM CLR 32/21 A2969 1240 51 3500 160/15G27 RMK AO2 PK WND 18027/2125
14926KSTC STC20030702153512307/02/03 15:35:31  5-MIN KSTC 022135Z AUTO 18018G23KT 10SM CLR 32/21 A2969 1240 51 3500 170/18G23 RMK AO2 PK WND 18027/2125
14926KSTC STC20030702154012307/02/03 15:40:31  5-MIN KSTC 022140Z AUTO 16018G23KT 10SM CLR 32/21 A2969 1240 51 3500 160/18G23 RMK AO2 PK WND 18027/2125
14926KSTC STC20030702154512307/02/03 15:45:31  5-MIN KSTC 022145Z AUTO 17017G25KT 10SM CLR 32/21 A2969 1240 51 3500 170/17G25 RMK AO2 PK WND 18027/2125
14926KSTC STC20030702155014007/02/03 15:50:31  5-MIN KSTC 022150Z AUTO 17019G25KT 10SM CLR 32/21 A2969 1240 51 3500 170/19G25 RMK AO2 PK WND 18027/2125 SLP054 T03170206
14926KSTC STC20030702155510507/02/03 15:55:31  5-MIN KSTC 022155Z AUTO 17018G25KT 10SM CLR 32/20 A2968 1250 49 3500 170/18G25 RMK AO2
14926KSTC STC20030702160010507/02/03 16:00:31  5-MIN KSTC 022200Z AUTO 17018G25KT 10SM CLR 32/20 A2970 1230 49 3400 170/18G25 RMK AO2
14926KSTC STC20030702160510507/02/03 16:05:31  5-MIN KSTC 022205Z AUTO 18017G25KT 10SM CLR 31/20 A2969 1240 51 3400 170/17G25 RMK AO2
14926KSTC STC20030702161010507/02/03 16:10:31  5-MIN KSTC 022210Z AUTO 18013G22KT 10SM CLR 32/21 A2969 1240 51 3500 180/13G22 RMK AO2
14926KSTC STC20030702161510507/02/03 16:15:31  5-MIN KSTC 022215Z AUTO 19014G22KT 10SM CLR 32/21 A2970 1230 51 3400 180/14G22 RMK AO2
14926KSTC STC20030702162010507/02/03 16:20:31  5-MIN KSTC 022220Z AUTO 19018G22KT 10SM CLR 32/20 A2970 1230 49 3400 180/18G22 RMK AO2
14926KSTC STC20030702162509907/02/03 16:25:31  5-MIN KSTC 022225Z AUTO 18017KT 10SM CLR 32/20 A2970 1230 49 3400 180/17 RMK AO2
14926KSTC STC20030702163010507/02/03 16:30:31  5-MIN KSTC 022230Z AUTO 18018G24KT 10SM CLR 32/20 A2971 1220 49 3400 170/18G24 RMK AO2
14926KSTC STC20030702163510507/02/03 16:35:31  5-MIN KSTC 022235Z AUTO 18015G24KT 10SM CLR 32/20 A2971 1220 49 3400 180/15G24 RMK AO2
14926KSTC STC20030702164010507/02/03 16:40:31  5-MIN KSTC 022240Z AUTO 18018G22KT 10SM CLR 31/20 A2971 1230 51 3400 180/18G22 RMK AO2
14926KSTC STC20030702164510507/02/03 16:45:31  5-MIN KSTC 022245Z AUTO 17016G21KT 10SM CLR 32/21 A2971 1230 51 3400 170/16G21 RMK AO2
14926KSTC STC20030702165012507/02/03 16:50:31  5-MIN KSTC 022250Z AUTO 17016G21KT 10SM FEW050 32/21 A2970 1230 51 3400 170/16G21 RMK AO2 SLP059 T03170206
14926KSTC STC20030702165510507/02/03 16:55:31  5-MIN KSTC 022255Z AUTO 18015G21KT 10SM CLR 32/20 A2970 1230 49 3400 180/15G21 RMK AO2
14926KSTC STC20030702170010507/02/03 17:00:31  5-MIN KSTC 022300Z AUTO 18017G22KT 10SM CLR 31/20 A2970 1230 51 3400 180/17G22 RMK AO2
14926KSTC STC20030702170510507/02/03 17:05:31  5-MIN KSTC 022305Z AUTO 17015G22KT 10SM CLR 31/21 A2970 1230 53 3400 170/15G22 RMK AO2
14926KSTC STC20030702171009907/02/03 17:10:31  5-MIN KSTC 022310Z AUTO 17012KT 10SM CLR 31/20 A2969 1240 51 3400 160/12 RMK AO2
14926KSTC STC20030702171510507/02/03 17:15:31  5-MIN KSTC 022315Z AUTO 17013G19KT 10SM CLR 31/21 A2969 1240 53 3400 170/13G19 RMK AO2
14926KSTC STC20030702172010507/02/03 17:20:31  5-MIN KSTC 022320Z AUTO 17016G19KT 10SM CLR 31/21 A2969 1240 53 3400 170/16G19 RMK AO2
14926KSTC STC20030702172510507/02/03 17:25:31  5-MIN KSTC 022325Z AUTO 17017G23KT 10SM CLR 31/20 A2969 1240 51 3400 170/17G23 RMK AO2
14926KSTC STC20030702173010507/02/03 17:30:31  5-MIN KSTC 022330Z AUTO 17014G23KT 10SM CLR 31/20 A2969 1240 51 3400 170/14G23 RMK AO2
14926KSTC STC20030702173511007/02/03 17:35:31  5-MIN KSTC 022335Z AUTO 17014KT 10SM VCTS CLR 31/20 A2970 1230 51 3400 170/14 RMK AO2 TSB33
14926KSTC STC20030702174011007/02/03 17:40:31  5-MIN KSTC 022340Z AUTO 17012KT 10SM VCTS CLR 31/20 A2970 1230 52 3300 170/12 RMK AO2 TSB33
14926KSTC STC20030702174511007/02/03 17:45:31  5-MIN KSTC 022345Z AUTO 17013KT 10SM VCTS CLR 30/20 A2970 1230 54 3300 170/13 RMK AO2 TSB33
14926KSTC STC20030702175014307/02/03 17:50:31  5-MIN KSTC 022350Z AUTO 17010KT 10SM CLR 30/20 A2970 1230 54 3300 170/10 RMK AO2 TSB33E47 SLP058 T03000200 10322 20300 58022
14926KSTC STC20030702175509907/02/03 17:55:31  5-MIN KSTC 022355Z AUTO 17010KT 10SM CLR 30/20 A2970 1230 54 3300 170/10 RMK AO2
14926KSTC STC20030702180009907/02/03 18:00:31  5-MIN KSTC 030000Z AUTO 17010KT 10SM CLR 30/20 A2970 1230 54 3300 160/10 RMK AO2
14926KSTC STC20030702180509907/02/03 18:05:31  5-MIN KSTC 030005Z AUTO 18009KT 10SM CLR 30/20 A2970 1230 54 3300 170/09 RMK AO2
14926KSTC STC20030702181009907/02/03 18:10:31  5-MIN KSTC 030010Z AUTO 16010KT 10SM CLR 30/21 A2969 1240 56 3300 160/10 RMK AO2
14926KSTC STC20030702181509907/02/03 18:15:31  5-MIN KSTC 030015Z AUTO 15010KT 10SM CLR 30/21 A2969 1240 56 3300 150/10 RMK AO2
14926KSTC STC20030702182009907/02/03 18:20:31  5-MIN KSTC 030020Z AUTO 17008KT 10SM CLR 30/21 A2968 1250 56 3300 170/08 RMK AO2
14926KSTC STC20030702182509907/02/03 18:25:31  5-MIN KSTC 030025Z AUTO 16009KT 10SM CLR 30/21 A2968 1250 56 3300 150/09 RMK AO2
14926KSTC STC20030702183009907/02/03 18:30:31  5-MIN KSTC 030030Z AUTO 15008KT 10SM CLR 29/21 A2967 1260 58 3200 150/08 RMK AO2
14926KSTC STC20030702183509907/02/03 18:35:31  5-MIN KSTC 030035Z AUTO 15010KT 10SM CLR 29/21 A2967 1260 58 3200 150/10 RMK AO2
14926KSTC STC20030702184009907/02/03 18:40:31  5-MIN KSTC 030040Z AUTO 16009KT 10SM CLR 29/21 A2967 1250 58 3200 150/09 RMK AO2
14926KSTC STC20030702184509907/02/03 18:45:31  5-MIN KSTC 030045Z AUTO 16009KT 10SM CLR 29/21 A2968 1250 58 3200 160/09 RMK AO2
14926KSTC STC20030702185011607/02/03 18:50:31  5-MIN KSTC 030050Z AUTO 16010KT 10SM CLR 29/21 A2967 1260 58 3200 160/10 RMK AO2 SLP049 T02940206
14926KSTC STC20030702185509907/02/03 18:55:31  5-MIN KSTC 030055Z AUTO 16009KT 10SM CLR 29/20 A2968 1250 58 3200 160/09 RMK AO2
14926KSTC STC20030702190009907/02/03 19:00:31  5-MIN KSTC 030100Z AUTO 16009KT 10SM CLR 29/20 A2968 1250 58 3200 160/09 RMK AO2
14926KSTC STC20030702190509907/02/03 19:05:31  5-MIN KSTC 030105Z AUTO 16008KT 10SM CLR 29/20 A2968 1250 58 3200 150/08 RMK AO2
14926KSTC STC20030702191009907/02/03 19:10:31  5-MIN KSTC 030110Z AUTO 16008KT 10SM CLR 28/21 A2968 1250 62 3100 160/08 RMK AO2
14926KSTC STC20030702191509907/02/03 19:15:31  5-MIN KSTC 030115Z AUTO 16008KT 10SM CLR 28/20 A2968 1250 60 3100 150/08 RMK AO2
14926KSTC STC20030702192009907/02/03 19:20:31  5-MIN KSTC 030120Z AUTO 15007KT 10SM CLR 28/21 A2967 1260 62 3100 150/07 RMK AO2
14926KSTC STC20030702192509907/02/03 19:25:31  5-MIN KSTC 030125Z AUTO 15009KT 10SM CLR 28/21 A2967 1260 64 3100 150/09 RMK AO2
14926KSTC STC20030702193009907/02/03 19:30:31  5-MIN KSTC 030130Z AUTO 15009KT 10SM CLR 28/21 A2966 1270 64 3100 150/09 RMK AO2
14926KSTC STC20030702193509907/02/03 19:35:31  5-MIN KSTC 030135Z AUTO 15009KT 10SM CLR 28/21 A2966 1270 64 3100 140/09 RMK AO2
14926KSTC STC20030702194009907/02/03 19:40:31  5-MIN KSTC 030140Z AUTO 15008KT 10SM CLR 27/21 A2966 1270 66 3000 150/08 RMK AO2
14926KSTC STC20030702194509907/02/03 19:45:31  5-MIN KSTC 030145Z AUTO 15008KT 10SM CLR 27/21 A2965 1270 66 3000 140/08 RMK AO2
14926KSTC STC20030702195011907/02/03 19:50:31  5-MIN KSTC 030150Z AUTO 15009KT 10SM FEW065 27/21 A2965 1280 69 3000 150/09 RMK AO2 SLP040 T02720211
14926KSTC STC20030702195511807/02/03 19:55:31  5-MIN KSTC 030155Z AUTO 16010KT 10SM -RA SCT049 27/21 A2965 1280 71 3000 160/10 RMK AO2 RAB55 P0000
14926KSTC STC20030702200012007/02/03 20:00:31  5-MIN KSTC 030200Z AUTO 16011KT 10SM -RA SCT047 27/21 A2965 1280 69 3000 160/11 RMK AO2 RAB0155 P0000
14926KSTC STC20030702200512007/02/03 20:05:31  5-MIN KSTC 030205Z AUTO 16010KT 10SM -RA FEW049 27/21 A2965 1280 66 3000 160/10 RMK AO2 RAB0155 P0000
14926KSTC STC20030702201011907/02/03 20:10:31  5-MIN KSTC 030210Z AUTO 17009KT 10SM FEW049 27/21 A2966 1270 66 3000 170/09 RMK AO2 RAB0155E06 P0000
14926KSTC STC20030702201511907/02/03 20:15:31  5-MIN KSTC 030215Z AUTO 16010KT 10SM FEW049 27/21 A2966 1270 69 2900 160/10 RMK AO2 RAB0155E06 P0000
14926KSTC STC20030702202011907/02/03 20:20:31  5-MIN KSTC 030220Z AUTO 16008KT 10SM FEW042 27/21 A2966 1270 69 2900 160/08 RMK AO2 RAB0155E06 P0000
14926KSTC STC20030702202511607/02/03 20:25:31  5-MIN KSTC 030225Z AUTO 16008KT 10SM CLR 27/21 A2967 1260 69 2900 160/08 RMK AO2 RAB0155E06 P0000
14926KSTC STC20030702203011607/02/03 20:30:31  5-MIN KSTC 030230Z AUTO 16008KT 10SM CLR 26/21 A2967 1260 71 2900 160/08 RMK AO2 RAB0155E06 P0000
14926KSTC STC20030702203511607/02/03 20:35:31  5-MIN KSTC 030235Z AUTO 16007KT 10SM CLR 26/21 A2967 1260 71 2900 160/07 RMK AO2 RAB0155E06 P0000
14926KSTC STC20030702204012407/02/03 20:40:31  5-MIN KSTC 030240Z AUTO 16007KT 10SM TS CLR 26/21 A2968 1250 71 2900 160/07 RMK AO2 TSB39RAB0155E06 P0000
14926KSTC STC20030702204512407/02/03 20:45:31  5-MIN KSTC 030245Z AUTO 16007KT 10SM TS CLR 26/21 A2967 1260 71 2900 160/07 RMK AO2 TSB39RAB0155E06 P0000
14926KSTC STC20030702205015307/02/03 20:50:31  5-MIN KSTC 030250Z AUTO 15008KT 10SM TS CLR 26/21 A2967 1260 71 2900 150/08 RMK AO2 TSB39RAB0155E06 SLP046 P0000 60000 T02610206 56003
14926KSTC STC20030702205510507/02/03 20:55:31  5-MIN KSTC 030255Z AUTO 15008KT 10SM TS FEW080 26/21 A2967 1260 71 2900 150/08 RMK AO2
14926KSTC STC20030702210010507/02/03 21:00:31  5-MIN KSTC 030300Z AUTO 15008KT 10SM TS SCT075 26/21 A2967 1260 71 2900 150/08 RMK AO2
14926KSTC STC20030702210511507/02/03 21:05:31  5-MIN KSTC 030305Z AUTO 15009KT 10SM SCT070 SCT080 26/21 A2966 1270 71 2900 150/09 RMK AO2 TSE03
14926KSTC STC20030702211012107/02/03 21:10:31  5-MIN KSTC 030310Z AUTO 15008KT 10SM TS BKN070 BKN080 26/20 A2965 1270 68 2900 150/08 RMK AO2 TSE03B10
14926KSTC STC20030702211512807/02/03 21:15:31  5-MIN KSTC 030315Z AUTO 16009KT 10SM TS BKN070 BKN080 26/20 A2965 1280 68 2900 150/09 RMK AO2 TSE03B10 PRESFR
14926KSTC STC20030702212012107/02/03 21:20:31  5-MIN KSTC 030320Z AUTO 16010KT 10SM TS BKN070 26/20 A2964 1290 68 2900 150/10 RMK AO2 TSE03B10 PRESFR
14926KSTC STC20030702212512107/02/03 21:25:31  5-MIN KSTC 030325Z AUTO 16010KT 10SM BKN070 27/20 A2963 1290 66 3000 150/10 RMK AO2 TSE03B10E25 PRESFR
14926KSTC STC20030702213012107/02/03 21:30:31  5-MIN KSTC 030330Z AUTO 16010KT 10SM SCT070 27/20 A2962 1300 66 3000 150/10 RMK AO2 TSE03B10E25 PRESFR
14926KSTC STC20030702213511407/02/03 21:35:31  5-MIN KSTC 030335Z AUTO 15011KT 10SM SCT070 27/20 A2962 1300 66 3000 150/11 RMK AO2 TSE03B10E25
14926KSTC STC20030702214011407/02/03 21:40:31  5-MIN KSTC 030340Z AUTO 15010KT 10SM FEW070 26/20 A2963 1300 68 2900 150/10 RMK AO2 TSE03B10E25
14926KSTC STC20030702214511107/02/03 21:45:31  5-MIN KSTC 030345Z AUTO 15009KT 10SM CLR 27/20 A2963 1300 66 3000 150/09 RMK AO2 TSE03B10E25
14926KSTC STC20030702215012807/02/03 21:50:31  5-MIN KSTC 030350Z AUTO 15009KT 10SM CLR 26/20 A2963 1300 68 2900 150/09 RMK AO2 TSE03B10E25 SLP032 T02610200
14926KSTC STC20030702215510207/02/03 21:55:31  5-MIN KSTC 030355Z AUTO 15009KT 10SM FEW080 26/20 A2963 1300 68 2900 140/09 RMK AO2
14926KSTC STC20030702220010207/02/03 22:00:31  5-MIN KSTC 030400Z AUTO 15009KT 10SM SCT075 26/19 A2963 1290 66 2900 150/09 RMK AO2
14926KSTC STC20030702220510207/02/03 22:05:31  5-MIN KSTC 030405Z AUTO 15008KT 10SM BKN075 26/19 A2963 1300 66 2900 150/08 RMK AO2
14926KSTC STC20030702221011107/02/03 22:10:31  5-MIN KSTC 030410Z AUTO 15008KT 10SM TS BKN075 27/19 A2963 1300 64 3000 150/08 RMK AO2 TSB06
14926KSTC STC20030702221511107/02/03 22:15:31  5-MIN KSTC 030415Z AUTO 15010KT 10SM TS BKN080 27/19 A2962 1300 64 3000 150/10 RMK AO2 TSB06
14926KSTC STC20030702222011807/02/03 22:20:31  5-MIN KSTC 030420Z AUTO 15010KT 10SM TS BKN075 OVC090 27/19 A2961 1310 64 3000 150/10 RMK AO2 TSB06
14926KSTC STC20030702222511807/02/03 22:25:31  5-MIN KSTC 030425Z AUTO 16012KT 10SM BKN075 BKN090 27/19 A2961 1310 64 3000 150/12 RMK AO2 TSB06E21
14926KSTC STC20030702223011107/02/03 22:30:31  5-MIN KSTC 030430Z AUTO 16010KT 10SM BKN080 27/19 A2962 1310 64 3000 150/10 RMK AO2 TSB06E21
14926KSTC STC20030702223511107/02/03 22:35:31  5-MIN KSTC 030435Z AUTO 16009KT 10SM BKN080 27/19 A2962 1310 64 3000 160/09 RMK AO2 TSB06E21
14926KSTC STC20030702224012607/02/03 22:40:31  5-MIN KSTC 030440Z AUTO 16009KT 10SM VCTS SCT075 BKN090 27/19 A2962 1300 64 3000 160/09 RMK AO2 TSB06E21B36
14926KSTC STC20030702224511907/02/03 22:45:31  5-MIN KSTC 030445Z AUTO 17012KT 10SM VCTS BKN075 27/19 A2962 1300 64 3000 170/12 RMK AO2 TSB06E21B36
14926KSTC STC20030702225013607/02/03 22:50:31  5-MIN KSTC 030450Z AUTO 18010KT 10SM VCTS BKN075 27/19 A2964 1290 64 3000 180/10 RMK AO2 TSB06E21B36 SLP035 T02670194
14926KSTC STC20030702225515007/02/03 22:55:31  5-MIN KSTC 030455Z AUTO 30031G38KT 10SM SQ FEW036 BKN075 BKN085 26/19 A2970 1230 64 2800 300/31G38 RMK AO2 PK WND 33038/0455 PRESRR
14926KSTC STC20030702230016107/02/03 23:00:31  5-MIN KSTC 030500Z AUTO 34026G43KT 10SM -RA SQ FEW036 SCT050 BKN075 22/18 A2969 1240 78 2300 340/26G43 RMK AO2 PK WND 32043/0459 RAB0459 P0001
14926KSTC STC20030702230516307/02/03 23:05:31  5-MIN KSTC 030505Z AUTO 35021G43KT 9SM TSRA FEW017 BKN060 OVC075 19/18 A2968 1250 93 2100 350/21G43 RMK AO2 PK WND 32043/0459 TSB01RAB0459 P0004
14926KSTC STC20030702231017507/02/03 23:10:31  5-MIN KSTC 030510Z AUTO 35018G34KT 8SM +TSRA FEW017 BKN055 OVC075 19/18 A2971 1220 93 2100 350/18G34 RMK AO2 PK WND 32043/0459 WSHFT 0452 TSB01RAB0459 P0008
14926KSTC STC20030702231517807/02/03 23:15:31  5-MIN KSTC 030515Z AUTO 34019G28KT 6SM +TSRA BR SCT011 BKN055 OVC080 19/18 A2971 1220 93 2100 340/19G28 RMK AO2 PK WND 32043/0459 WSHFT 0452 TSB01RAB0459 P0016
14926KSTC STC20030702232017507/02/03 23:20:31  5-MIN KSTC 030520Z AUTO 32018G26KT 7SM +TSRA SCT011 BKN055 OVC070 19/18 A2976 1180 97 1900 310/18G26 RMK AO2 PK WND 32043/0459 WSHFT 0452 TSB01RAB0459 P0019
14926KSTC STC20030702232517207/02/03 23:25:31  5-MIN KSTC 030525Z AUTO 33015KT 5SM +TSRA BR SCT011 BKN031 OVC055 19/18 A2974 1190 97 2000 330/15 RMK AO2 PK WND 32043/0459 WSHFT 0452 TSB01RAB0459 P0038
14926KSTC STC20030702233018107/02/03 23:30:31  5-MIN KSTC 030530Z AUTO 35015G22KT 3SM +TSRA BR BKN009 BKN019 OVC055 18/18 A2972 1210 100 1900 350/15G22 RMK AO2 PK WND 32043/0459 WSHFT 0452 TSB01RAB0459 P0055 $
14926KSTC STC20030702233518007/02/03 23:35:31  5-MIN KSTC 030535Z AUTO 34015G23KT 3SM +TSRA BR BKN009 BKN031 OVC055 18/18 A2974 1200 96 1900 340/15G23 RMK AO2 PK WND 32043/0459 WSHFT 0452 TSB01RAB0459 P0061 $
14926KSTC STC20030702234017607/02/03 23:40:31  5-MIN KSTC 030540Z AUTO 34013G23KT 7SM TSRA FEW009 BKN017 OVC048 19/18 A2974 1200 93 2000 340/13G23 RMK AO2 PK WND 32043/0459 WSHFT 0452 TSB01RAB0459 P0064 $
14926KSTC STC20030702234517707/02/03 23:45:31  5-MIN KSTC 030545Z AUTO 34014G20KT 9SM +TSRA FEW009 BKN019 OVC070 19/18 A2972 1210 93 2000 340/14G20 RMK AO2 PK WND 32043/0459 WSHFT 0452 TSB01RAB0459 P0070 $
14926KSTC STC20030702235021507/02/03 23:50:31  5-MIN KSTC 030550Z AUTO 36010KT 8SM +TSRA FEW009 OVC017 19/18 A2971 1220 93 2000 360/10 RMK AO2 PK WND 32043/0459 WSHFT 0452 TSB01RAB0459 SLP062 P0075 60075 T01890178 10300 20183 403220183 55010 $
14926KSTC STC20030702235512807/02/03 23:55:31  5-MIN KSTC 030555Z AUTO 03009G16KT 9SM -TSRA OVC021 19/18 A2971 1230 93 2000 030/09G16 RMK AO2 PRESFR P0000 $
14926KSTC STC20030703000012107/03/03 00:00:31  5-MIN KSTC 030600Z AUTO 01007G16KT 10SM TSRA OVC023 19/18 A2973 1200 93 2000 010/07G16 RMK AO2 P0003 $
14926KSTC STC20030703000512207/03/03 00:05:31  5-MIN KSTC 030605Z AUTO 01007KT 10SM TSRA OVC025 19/18 A2975 1190 93 2000 360/07 RMK AO2 PRESRR P0005 $
14926KSTC STC20030703001011507/03/03 00:10:31  5-MIN KSTC 030610Z AUTO 04009KT 10SM TSRA OVC025 19/18 A2973 1200 93 2000 040/09 RMK AO2 P0008 $
14926KSTC STC20030703001511407/03/03 00:15:31  5-MIN KSTC 030615Z AUTO 06009KT 9SM TSRA OVC023 19/18 A2970 1230 97 2000 060/09 RMK AO2 P0011 $
14926KSTC STC20030703002011507/03/03 00:20:31  5-MIN KSTC 030620Z AUTO 09005KT 10SM TSRA OVC025 19/18 A2971 1220 97 2000 090/05 RMK AO2 P0012 $
14926KSTC STC20030703002511507/03/03 00:25:31  5-MIN KSTC 030625Z AUTO 13008KT 10SM TSRA OVC025 19/18 A2970 1230 97 2000 130/08 RMK AO2 P0014 $
14926KSTC STC20030703003012207/03/03 00:30:31  5-MIN KSTC 030630Z AUTO 14011KT 10SM TSRA OVC025 19/18 A2968 1250 97 2000 130/11 RMK AO2 PRESFR P0017 $
14926KSTC STC20030703003511607/03/03 00:35:31  5-MIN KSTC 030635Z AUTO 12007KT 10SM -TSRA OVC032 19/19 A2968 1250 97 2100 120/07 RMK AO2 P0018 $
14926KSTC STC20030703004011607/03/03 00:40:31  5-MIN KSTC 030640Z AUTO 13009KT 10SM -TSRA OVC042 20/19 A2968 1250 93 2200 120/09 RMK AO2 P0018 $
14926KSTC STC20030703004511607/03/03 00:45:31  5-MIN KSTC 030645Z AUTO 15010KT 10SM -TSRA OVC049 19/19 A2968 1250 97 2100 140/10 RMK AO2 P0018 $
14926KSTC STC20030703005013307/03/03 00:50:31  5-MIN KSTC 030650Z AUTO 12008KT 10SM -TSRA OVC055 19/19 A2968 1250 97 2100 120/08 RMK AO2 SLP052 P0018 T01940189 $
14926KSTC STC20030703005511607/03/03 00:55:31  5-MIN KSTC 030655Z AUTO 11009KT 10SM -TSRA OVC055 20/19 A2967 1260 93 2200 110/09 RMK AO2 P0000 $
14926KSTC STC20030703010013007/03/03 01:00:31  5-MIN KSTC 030700Z AUTO 14009KT 10SM -TSRA BKN055 OVC070 19/19 A2971 1230 97 2100 140/09 RMK AO2 PRESRR P0000 $
14926KSTC STC20030703010512307/03/03 01:05:31  5-MIN KSTC 030705Z AUTO 14013KT 10SM -TSRA BKN060 OVC070 20/19 A2968 1250 93 2200 140/13 RMK AO2 P0000 $
14926KSTC STC20030703011013007/03/03 01:10:31  5-MIN KSTC 030710Z AUTO 12009KT 10SM -TSRA FEW049 BKN060 BKN090 20/19 A2967 1260 93 2200 110/09 RMK AO2 P0000 $
14926KSTC STC20030703011513007/03/03 01:15:31  5-MIN KSTC 030715Z AUTO 11008KT 10SM -TSRA SCT055 BKN075 BKN095 19/19 A2968 1250 97 2100 110/08 RMK AO2 P0000 $
14926KSTC STC20030703012012607/03/03 01:20:31  5-MIN KSTC 030720Z AUTO 11011KT 10SM TS SCT050 19/19 A2966 1270 97 2100 100/11 RMK AO2 RAE18 PRESFR P0000 $
14926KSTC STC20030703012512607/03/03 01:25:31  5-MIN KSTC 030725Z AUTO 10009KT 10SM TS FEW050 19/19 A2965 1280 97 2100 090/09 RMK AO2 RAE18 PRESFR P0000 $
14926KSTC STC20030703013011907/03/03 01:30:31  5-MIN KSTC 030730Z AUTO 10010KT 10SM TS FEW065 19/19 A2965 1280 97 2100 100/10 RMK AO2 RAE18 P0000 $
14926KSTC STC20030703013511607/03/03 01:35:31  5-MIN KSTC 030735Z AUTO 10010KT 10SM TS CLR 19/19 A2965 1280 97 2100 100/10 RMK AO2 RAE18 P0000 $
14926KSTC STC20030703014011607/03/03 01:40:31  5-MIN KSTC 030740Z AUTO 10011KT 10SM TS CLR 19/19 A2965 1270 97 2100 100/11 RMK AO2 RAE18 P0000 $
14926KSTC STC20030703014511607/03/03 01:45:31  5-MIN KSTC 030745Z AUTO 10009KT 10SM TS CLR 19/18 A2965 1270 93 2100 100/09 RMK AO2 RAE18 P0000 $
14926KSTC STC20030703015013307/03/03 01:50:31  5-MIN KSTC 030750Z AUTO 11008KT 10SM TS CLR 19/18 A2966 1270 93 2100 110/08 RMK AO2 RAE18 SLP043 P0000 T01940183 $
14926KSTC STC20030703015510407/03/03 01:55:31  5-MIN KSTC 030755Z AUTO 15009KT 10SM TS CLR 19/18 A2966 1270 93 2100 150/09 RMK AO2 $
14926KSTC STC20030703020010407/03/03 02:00:31  5-MIN KSTC 030800Z AUTO 16009KT 10SM TS CLR 19/18 A2966 1270 93 2100 150/09 RMK AO2 $
14926KSTC STC20030703020510407/03/03 02:05:31  5-MIN KSTC 030805Z AUTO 15009KT 10SM TS CLR 19/18 A2966 1270 93 2100 140/09 RMK AO2 $
14926KSTC STC20030703021010407/03/03 02:10:31  5-MIN KSTC 030810Z AUTO 14007KT 10SM TS CLR 19/18 A2966 1270 97 2100 140/07 RMK AO2 $
14926KSTC STC20030703021510407/03/03 02:15:31  5-MIN KSTC 030815Z AUTO 13007KT 10SM TS CLR 19/18 A2965 1270 97 2100 130/07 RMK AO2 $
14926KSTC STC20030703022010407/03/03 02:20:31  5-MIN KSTC 030820Z AUTO 13007KT 10SM TS CLR 19/18 A2965 1280 97 2100 130/07 RMK AO2 $
14926KSTC STC20030703022510407/03/03 02:25:31  5-MIN KSTC 030825Z AUTO 12006KT 10SM TS CLR 19/18 A2965 1270 97 2100 120/06 RMK AO2 $
14926KSTC STC20030703023010407/03/03 02:30:31  5-MIN KSTC 030830Z AUTO 13007KT 10SM TS CLR 19/18 A2966 1270 97 2100 130/07 RMK AO2 $
14926KSTC STC20030703023511007/03/03 02:35:31  5-MIN KSTC 030835Z AUTO 14007KT 10SM FEW050 19/18 A2966 1270 97 2100 140/07 RMK AO2 TSE33 $
14926KSTC STC20030703024011007/03/03 02:40:31  5-MIN KSTC 030840Z AUTO 10007KT 10SM SCT050 19/18 A2966 1270 97 2100 100/07 RMK AO2 TSE33 $
14926KSTC STC20030703024511007/03/03 02:45:31  5-MIN KSTC 030845Z AUTO 11006KT 10SM SCT050 19/18 A2966 1270 97 2100 110/06 RMK AO2 TSE33 $
14926KSTC STC20030703025013907/03/03 02:50:31  5-MIN KSTC 030850Z AUTO 11007KT 10SM SCT050 19/18 A2966 1270 97 2100 110/07 RMK AO2 TSE33 SLP045 60019 T01890183 53013 $
14926KSTC STC20030703025510407/03/03 02:55:31  5-MIN KSTC 030855Z AUTO 12005KT 10SM BKN050 19/18 A2966 1260 97 2000 110/05 RMK AO2 $
14926KSTC STC20030703030010407/03/03 03:00:31  5-MIN KSTC 030900Z AUTO 12006KT 10SM BKN048 19/18 A2967 1260 97 2000 120/06 RMK AO2 $
14926KSTC STC20030703030510407/03/03 03:05:31  5-MIN KSTC 030905Z AUTO 12006KT 10SM OVC048 19/18 A2967 1260 97 2000 120/06 RMK AO2 $
14926KSTC STC20030703031010407/03/03 03:10:31  5-MIN KSTC 030910Z AUTO 12005KT 10SM OVC048 19/18 A2967 1260 97 2000 120/05 RMK AO2 $
14926KSTC STC20030703031510407/03/03 03:15:31  5-MIN KSTC 030915Z AUTO 13007KT 10SM OVC048 19/18 A2967 1260 93 2000 120/07 RMK AO2 $
14926KSTC STC20030703032011807/03/03 03:20:31  5-MIN KSTC 030920Z AUTO 13006KT 10SM BKN045 BKN050 OVC065 19/18 A2967 1260 93 2000 130/06 RMK AO2 $
14926KSTC STC20030703032511107/03/03 03:25:31  5-MIN KSTC 030925Z AUTO 13006KT 10SM BKN047 BKN065 19/18 A2967 1260 93 2000 120/06 RMK AO2 $
14926KSTC STC20030703033011807/03/03 03:30:31  5-MIN KSTC 030930Z AUTO 11005KT 10SM SCT043 BKN050 BKN065 19/18 A2967 1260 93 2000 110/05 RMK AO2 $
14926KSTC STC20030703033511107/03/03 03:35:31  5-MIN KSTC 030935Z AUTO 13005KT 10SM BKN043 BKN065 19/18 A2967 1260 93 2000 120/05 RMK AO2 $
14926KSTC STC20030703034011107/03/03 03:40:31  5-MIN KSTC 030940Z AUTO 12004KT 10SM BKN043 BKN065 19/18 A2967 1260 93 2000 120/04 RMK AO2 $
14926KSTC STC20030703034511107/03/03 03:45:31  5-MIN KSTC 030945Z AUTO 00000KT 10SM BKN043 BKN065 19/18 A2967 1250 93 2000 000/00 RMK AO2 $
14926KSTC STC20030703035012807/03/03 03:50:31  5-MIN KSTC 030950Z AUTO 00000KT 10SM BKN041 BKN065 19/18 A2968 1250 97 2000 000/00 RMK AO2 SLP050 T01890183 $
14926KSTC STC20030703035511107/03/03 03:55:31  5-MIN KSTC 030955Z AUTO 13004KT 10SM BKN039 OVC047 19/18 A2968 1250 97 2000 130/04 RMK AO2 $
14926KSTC STC20030703040010407/03/03 04:00:31  5-MIN KSTC 031000Z AUTO 14005KT 10SM OVC041 19/18 A2968 1250 97 2000 130/05 RMK AO2 $
14926KSTC STC20030703040511107/03/03 04:05:31  5-MIN KSTC 031005Z AUTO 16004KT 10SM BKN041 OVC055 19/18 A2968 1250 97 2000 150/04 RMK AO2 $
14926KSTC STC20030703041011107/03/03 04:10:31  5-MIN KSTC 031010Z AUTO 15004KT 10SM BKN039 OVC055 19/18 A2968 1250 97 2000 150/04 RMK AO2 $
14926KSTC STC20030703041511807/03/03 04:15:31  5-MIN KSTC 031015Z AUTO 18003KT 10SM BKN039 BKN049 OVC060 19/18 A2968 1250 97 2000 170/03 RMK AO2 $
14926KSTC STC20030703042011107/03/03 04:20:31  5-MIN KSTC 031020Z AUTO 16004KT 10SM BKN039 OVC060 19/18 A2968 1250 93 2100 160/04 RMK AO2 $
14926KSTC STC20030703042511807/03/03 04:25:31  5-MIN KSTC 031025Z AUTO 16005KT 10SM BKN039 BKN047 OVC060 19/18 A2968 1250 97 2000 160/05 RMK AO2 $
14926KSTC STC20030703043011807/03/03 04:30:31  5-MIN KSTC 031030Z AUTO 16005KT 10SM SCT039 SCT048 BKN060 19/18 A2968 1250 97 2000 160/05 RMK AO2 $
14926KSTC STC20030703043511107/03/03 04:35:31  5-MIN KSTC 031035Z AUTO 14004KT 10SM FEW037 BKN060 19/18 A2968 1250 97 2000 130/04 RMK AO2 $
14926KSTC STC20030703044011107/03/03 04:40:31  5-MIN KSTC 031040Z AUTO 14004KT 10SM FEW034 SCT060 19/18 A2968 1250 97 2000 140/04 RMK AO2 $
14926KSTC STC20030703044510407/03/03 04:45:31  5-MIN KSTC 031045Z AUTO 13003KT 10SM FEW040 19/18 A2968 1250 97 2000 130/03 RMK AO2 $
14926KSTC STC20030703045011807/03/03 04:50:31  5-MIN KSTC 031050Z AUTO 14003KT 10SM CLR 19/18 A2968 1250 97 2000 140/03 RMK AO2 SLP050 T01890183 $
14926KSTC STC20030703045510107/03/03 04:55:31  5-MIN KSTC 031055Z AUTO 16003KT 10SM CLR 19/18 A2968 1250 97 2000 150/03 RMK AO2 $
14926KSTC STC20030703050010107/03/03 05:00:31  5-MIN KSTC 031100Z AUTO 00000KT 10SM CLR 19/18 A2968 1250 97 2000 000/00 RMK AO2 $
14926KSTC STC20030703050510107/03/03 05:05:31  5-MIN KSTC 031105Z AUTO 00000KT 10SM CLR 19/18 A2968 1250 97 2000 000/00 RMK AO2 $
14926KSTC STC20030703051010107/03/03 05:10:31  5-MIN KSTC 031110Z AUTO 00000KT 10SM CLR 19/18 A2968 1250 97 2000 000/00 RMK AO2 $
14926KSTC STC20030703051510107/03/03 05:15:31  5-MIN KSTC 031115Z AUTO 00000KT 10SM CLR 19/18 A2968 1250 97 2000 000/00 RMK AO2 $
14926KSTC STC20030703052010107/03/03 05:20:31  5-MIN KSTC 031120Z AUTO 00000KT 10SM CLR 19/18 A2968 1250 97 2000 000/00 RMK AO2 $
14926KSTC STC20030703052510107/03/03 05:25:31  5-MIN KSTC 031125Z AUTO 15003KT 10SM CLR 19/18 A2968 1250 97 2000 150/03 RMK AO2 $
14926KSTC STC20030703053010107/03/03 05:30:31  5-MIN KSTC 031130Z AUTO 00000KT 10SM CLR 19/18 A2968 1250 97 2000 000/00 RMK AO2 $
14926KSTC STC20030703053510107/03/03 05:35:31  5-MIN KSTC 031135Z AUTO 00000KT 10SM CLR 19/19 A2969 1240 97 2100 000/00 RMK AO2 $
14926KSTC STC20030703054010107/03/03 05:40:31  5-MIN KSTC 031140Z AUTO 17003KT 10SM CLR 19/18 A2969 1240 93 2100 170/03 RMK AO2 $
14926KSTC STC20030703054510107/03/03 05:45:31  5-MIN KSTC 031145Z AUTO 18003KT 10SM CLR 19/18 A2969 1240 93 2100 170/03 RMK AO2 $
14926KSTC STC20030703055014807/03/03 05:50:31  5-MIN KSTC 031150Z AUTO 18003KT 10SM CLR 19/18 A2969 1240 93 2100 180/03 RMK AO2 SLP053 60019 70095 T01940183 10200 20189 55015 $
14926KSTC STC20030703055510107/03/03 05:55:31  5-MIN KSTC 031155Z AUTO 16004KT 10SM CLR 19/18 A2968 1250 93 2100 160/04 RMK AO2 $
14926KSTC STC20030703060010107/03/03 06:00:31  5-MIN KSTC 031200Z AUTO 17005KT 10SM CLR 19/18 A2968 1250 93 2100 170/05 RMK AO2 $
14926KSTC STC20030703060510107/03/03 06:05:31  5-MIN KSTC 031205Z AUTO 18005KT 10SM CLR 20/19 A2968 1250 93 2200 180/05 RMK AO2 $
14926KSTC STC20030703061010107/03/03 06:10:31  5-MIN KSTC 031210Z AUTO 17005KT 10SM CLR 20/19 A2968 1250 93 2200 170/05 RMK AO2 $
14926KSTC STC20030703061510107/03/03 06:15:31  5-MIN KSTC 031215Z AUTO 18006KT 10SM CLR 20/19 A2968 1250 93 2200 170/06 RMK AO2 $
14926KSTC STC20030703062010107/03/03 06:20:31  5-MIN KSTC 031220Z AUTO 17006KT 10SM CLR 20/19 A2968 1250 93 2200 170/06 RMK AO2 $
14926KSTC STC20030703062510107/03/03 06:25:31  5-MIN KSTC 031225Z AUTO 17006KT 10SM CLR 21/19 A2968 1250 90 2200 170/06 RMK AO2 $
14926KSTC STC20030703063010107/03/03 06:30:31  5-MIN KSTC 031230Z AUTO 18006KT 10SM CLR 21/19 A2968 1250 90 2200 170/06 RMK AO2 $
14926KSTC STC20030703063510107/03/03 06:35:31  5-MIN KSTC 031235Z AUTO 17006KT 10SM CLR 21/19 A2969 1240 90 2200 170/06 RMK AO2 $
14926KSTC STC20030703064010107/03/03 06:40:31  5-MIN KSTC 031240Z AUTO 18004KT 10SM CLR 21/19 A2969 1240 90 2200 180/04 RMK AO2 $
14926KSTC STC20030703064510107/03/03 06:45:31  5-MIN KSTC 031245Z AUTO VRB04KT 10SM CLR 21/19 A2969 1240 87 2300 VRB/04 RMK AO2 $
14926KSTC STC20030703065011807/03/03 06:50:31  5-MIN KSTC 031250Z AUTO 17005KT 10SM CLR 21/19 A2969 1240 87 2300 170/05 RMK AO2 SLP055 T02110189 $
14926KSTC STC20030703065510107/03/03 06:55:31  5-MIN KSTC 031255Z AUTO 17006KT 10SM CLR 21/19 A2970 1230 87 2300 170/06 RMK AO2 $
14926KSTC STC20030703070010107/03/03 07:00:31  5-MIN KSTC 031300Z AUTO 17006KT 10SM CLR 22/19 A2970 1230 84 2300 170/06 RMK AO2 $
14926KSTC STC20030703070510107/03/03 07:05:31  5-MIN KSTC 031305Z AUTO 17005KT 10SM CLR 22/19 A2970 1230 84 2300 170/05 RMK AO2 $
14926KSTC STC20030703071010107/03/03 07:10:31  5-MIN KSTC 031310Z AUTO 17006KT 10SM CLR 22/19 A2971 1220 84 2300 170/06 RMK AO2 $
14926KSTC STC20030703071510807/03/03 07:15:31  5-MIN KSTC 031315Z AUTO 18006KT 10SM CLR 22/19 A2972 1220 81 2400 180/06 RMK AO2 PRESRR $
14926KSTC STC20030703072010107/03/03 07:20:31  5-MIN KSTC 031320Z AUTO 19006KT 10SM CLR 22/19 A2972 1210 81 2400 190/06 RMK AO2 $
14926KSTC STC20030703072510107/03/03 07:25:31  5-MIN KSTC 031325Z AUTO 19006KT 10SM CLR 22/19 A2973 1210 81 2400 190/06 RMK AO2 $
14926KSTC STC20030703073010807/03/03 07:30:31  5-MIN KSTC 031330Z AUTO 20005KT 10SM CLR 23/19 A2973 1200 81 2400 200/05 RMK AO2 PRESRR $
14926KSTC STC20030703073510807/03/03 07:35:31  5-MIN KSTC 031335Z AUTO 22003KT 10SM CLR 22/19 A2974 1190 84 2300 220/03 RMK AO2 PRESRR $
14926KSTC STC20030703074010607/03/03 07:40:31  5-MIN KSTC 031340Z AUTO 23006KT 10SM CLR 23/19 A2975 1190 81 2400 220/06 RMK AO2 PRESRR
14926KSTC STC20030703074509907/03/03 07:45:31  5-MIN KSTC 031345Z AUTO 25005KT 10SM CLR 23/19 A2975 1180 81 2400 240/05 RMK AO2
14926KSTC STC20030703075011607/03/03 07:50:31  5-MIN KSTC 031350Z AUTO 23006KT 10SM CLR 23/19 A2975 1190 81 2400 230/06 RMK AO2 SLP073 T02280194
14926KSTC STC20030703075510207/03/03 07:55:31  5-MIN KSTC 031355Z AUTO 23006KT 10SM FEW030 23/20 A2975 1190 81 2500 220/06 RMK AO2
14926KSTC STC20030703080010207/03/03 08:00:31  5-MIN KSTC 031400Z AUTO VRB05KT 10SM SCT028 23/20 A2974 1190 81 2500 VRB/05 RMK AO2
14926KSTC STC20030703080510207/03/03 08:05:31  5-MIN KSTC 031405Z AUTO 21004KT 10SM SCT028 23/19 A2974 1190 78 2500 210/04 RMK AO2
14926KSTC STC20030703081010207/03/03 08:10:31  5-MIN KSTC 031410Z AUTO 21004KT 10SM FEW028 23/20 A2974 1190 81 2500 210/04 RMK AO2
14926KSTC STC20030703081510207/03/03 08:15:31  5-MIN KSTC 031415Z AUTO 23005KT 10SM FEW028 23/20 A2975 1190 81 2500 230/05 RMK AO2
14926KSTC STC20030703082010207/03/03 08:20:31  5-MIN KSTC 031420Z AUTO 24006KT 10SM FEW028 24/20 A2975 1190 78 2500 240/06 RMK AO2
14926KSTC STC20030703082510207/03/03 08:25:31  5-MIN KSTC 031425Z AUTO 24005KT 10SM FEW028 23/20 A2975 1190 81 2500 240/05 RMK AO2
14926KSTC STC20030703083009907/03/03 08:30:31  5-MIN KSTC 031430Z AUTO 26005KT 10SM CLR 24/20 A2975 1190 78 2500 260/05 RMK AO2
14926KSTC STC20030703083509907/03/03 08:35:31  5-MIN KSTC 031435Z AUTO 26007KT 10SM CLR 24/20 A2974 1190 78 2500 260/07 RMK AO2
14926KSTC STC20030703084009907/03/03 08:40:31  5-MIN KSTC 031440Z AUTO 26005KT 10SM CLR 24/20 A2975 1190 78 2500 260/05 RMK AO2
14926KSTC STC20030703084509907/03/03 08:45:31  5-MIN KSTC 031445Z AUTO 25006KT 10SM CLR 24/21 A2975 1190 78 2600 250/06 RMK AO2
14926KSTC STC20030703085012207/03/03 08:50:31  5-MIN KSTC 031450Z AUTO 25005KT 10SM CLR 24/21 A2974 1190 78 2600 240/05 RMK AO2 SLP072 T02440206 51007
14926KSTC STC20030703085510207/03/03 08:55:31  5-MIN KSTC 031455Z AUTO 27007KT 10SM FEW030 24/21 A2975 1190 78 2600 270/07 RMK AO2
14926KSTC STC20030703090010207/03/03 09:00:31  5-MIN KSTC 031500Z AUTO 25007KT 10SM SCT030 24/21 A2975 1190 78 2600 250/07 RMK AO2
14926KSTC STC20030703090510207/03/03 09:05:31  5-MIN KSTC 031505Z AUTO 25005KT 10SM BKN030 24/21 A2975 1190 78 2600 250/05 RMK AO2
14926KSTC STC20030703091010207/03/03 09:10:31  5-MIN KSTC 031510Z AUTO 25005KT 10SM BKN030 24/21 A2975 1190 78 2600 250/05 RMK AO2
14926KSTC STC20030703091510207/03/03 09:15:31  5-MIN KSTC 031515Z AUTO 30005KT 10SM BKN030 24/21 A2975 1180 78 2600 300/05 RMK AO2
14926KSTC STC20030703092010207/03/03 09:20:31  5-MIN KSTC 031520Z AUTO 27006KT 10SM BKN030 25/21 A2975 1180 79 2600 260/06 RMK AO2
14926KSTC STC20030703092510207/03/03 09:25:31  5-MIN KSTC 031525Z AUTO 27005KT 10SM BKN030 25/21 A2975 1180 76 2600 270/05 RMK AO2
14926KSTC STC20030703093010207/03/03 09:30:31  5-MIN KSTC 031530Z AUTO 28006KT 10SM BKN030 26/21 A2976 1180 76 2700 270/06 RMK AO2
14926KSTC STC20030703093510907/03/03 09:35:31  5-MIN KSTC 031535Z AUTO VRB06KT 10SM FEW019 BKN030 26/22 A2975 1180 79 2700 VRB/06 RMK AO2
14926KSTC STC20030703094010907/03/03 09:40:31  5-MIN KSTC 031540Z AUTO 31008KT 10SM FEW019 BKN028 26/21 A2976 1180 76 2700 310/08 RMK AO2
14926KSTC STC20030703094511607/03/03 09:45:31  5-MIN KSTC 031545Z AUTO 31008KT 10SM SCT021 BKN026 BKN031 26/21 A2976 1180 76 2700 300/08 RMK AO2
14926KSTC STC20030703095012607/03/03 09:50:31  5-MIN KSTC 031550Z AUTO 28009KT 10SM BKN023 BKN031 26/22 A2976 1180 79 2700 280/09 RMK AO2 SLP077 T02560217
14926KSTC STC20030703095510907/03/03 09:55:31  5-MIN KSTC 031555Z AUTO 31008KT 10SM BKN023 BKN029 26/21 A2976 1180 76 2700 300/08 RMK AO2
14926KSTC STC20030703100010907/03/03 10:00:31  5-MIN KSTC 031600Z AUTO 30009KT 10SM BKN023 OVC029 26/21 A2976 1180 76 2700 300/09 RMK AO2
14926KSTC STC20030703100510907/03/03 10:05:31  5-MIN KSTC 031605Z AUTO 30006KT 10SM BKN023 BKN029 26/22 A2975 1180 76 2800 300/06 RMK AO2
14926KSTC STC20030703101010907/03/03 10:10:31  5-MIN KSTC 031610Z AUTO 31009KT 10SM BKN023 BKN029 26/22 A2976 1180 76 2800 310/09 RMK AO2
14926KSTC STC20030703111509907/03/03 11:15:31  5-MIN KSTC 031715Z AUTO 33008KT 10SM CLR 28/22 A2976 1170 71 2900 330/08 RMK AO2
14926KSTC STC20030703112009907/03/03 11:20:31  5-MIN KSTC 031720Z AUTO 33009KT 10SM CLR 28/22 A2976 1170 71 2900 330/09 RMK AO2
14926KSTC STC20030703112510207/03/03 11:25:31  5-MIN KSTC 031725Z AUTO 32011KT 10SM FEW027 28/22 A2976 1170 69 3000 320/11 RMK AO2
14926KSTC STC20030703113010207/03/03 11:30:31  5-MIN KSTC 031730Z AUTO 33009KT 10SM FEW027 28/22 A2976 1170 71 2900 330/09 RMK AO2
14926KSTC STC20030703113510207/03/03 11:35:31  5-MIN KSTC 031735Z AUTO 32010KT 10SM FEW027 28/22 A2977 1170 69 3000 320/10 RMK AO2
14926KSTC STC20030703114010207/03/03 11:40:31  5-MIN KSTC 031740Z AUTO 32011KT 10SM FEW027 28/21 A2976 1170 64 3000 320/11 RMK AO2
14926KSTC STC20030703114510207/03/03 11:45:31  5-MIN KSTC 031745Z AUTO 33011KT 10SM FEW027 28/21 A2976 1170 64 3000 320/11 RMK AO2
14926KSTC STC20030703115013707/03/03 11:50:31  5-MIN KSTC 031750Z AUTO 35008KT 10SM FEW027 28/21 A2976 1170 64 3000 350/08 RMK AO2 SLP080 T02830211 10283 20194 50019
14926KSTC STC20030703115509907/03/03 11:55:31  5-MIN KSTC 031755Z AUTO 34008KT 10SM CLR 28/22 A2976 1170 66 3000 330/08 RMK AO2
14926KSTC STC20030703120009907/03/03 12:00:31  5-MIN KSTC 031800Z AUTO 35008KT 10SM CLR 28/21 A2976 1170 64 3000 350/08 RMK AO2
14926KSTC STC20030703120509907/03/03 12:05:31  5-MIN KSTC 031805Z AUTO 36007KT 10SM CLR 29/21 A2976 1170 62 3100 360/07 RMK AO2
14926KSTC STC20030703121011507/03/03 12:10:31  5-MIN KSTC 031810Z AUTO 33007KT 300V360 10SM CLR 29/22 A2976 1170 64 3100 330/07 300V360 RMK AO2
14926KSTC STC20030703121509907/03/03 12:15:31  5-MIN KSTC 031815Z AUTO 34009KT 10SM CLR 29/21 A2976 1170 62 3100 340/09 RMK AO2
14926KSTC STC20030703122009907/03/03 12:20:31  5-MIN KSTC 031820Z AUTO 34007KT 10SM CLR 28/21 A2976 1170 62 3000 330/07 RMK AO2
14926KSTC STC20030703122509907/03/03 12:25:31  5-MIN KSTC 031825Z AUTO 36007KT 10SM CLR 29/22 A2976 1170 64 3100 360/07 RMK AO2
14926KSTC STC20030703123009907/03/03 12:30:31  5-MIN KSTC 031830Z AUTO 34009KT 10SM CLR 29/21 A2976 1180 62 3100 340/09 RMK AO2
14926KSTC STC20030703123509907/03/03 12:35:31  5-MIN KSTC 031835Z AUTO 34007KT 10SM CLR 29/21 A2976 1170 62 3100 340/07 RMK AO2
14926KSTC STC20030703124009907/03/03 12:40:31  5-MIN KSTC 031840Z AUTO VRB06KT 10SM CLR 29/21 A2976 1170 62 3100 VRB/06 RMK AO2
14926KSTC STC20030703124509907/03/03 12:45:31  5-MIN KSTC 031845Z AUTO 36007KT 10SM CLR 29/21 A2976 1170 62 3100 360/07 RMK AO2
14926KSTC STC20030703125011607/03/03 12:50:31  5-MIN KSTC 031850Z AUTO 01008KT 10SM CLR 29/20 A2976 1180 58 3100 010/08 RMK AO2 SLP079 T02890200
14926KSTC STC20030703125509907/03/03 12:55:31  5-MIN KSTC 031855Z AUTO 01006KT 10SM CLR 29/21 A2976 1180 60 3100 360/06 RMK AO2
14926KSTC STC20030703130009907/03/03 13:00:31  5-MIN KSTC 031900Z AUTO 36006KT 10SM CLR 29/21 A2975 1180 60 3100 360/06 RMK AO2
14926KSTC STC20030703130509907/03/03 13:05:31  5-MIN KSTC 031905Z AUTO 02005KT 10SM CLR 29/21 A2975 1180 58 3100 020/05 RMK AO2
14926KSTC STC20030703131009907/03/03 13:10:31  5-MIN KSTC 031910Z AUTO 03004KT 10SM CLR 29/21 A2975 1180 60 3100 020/04 RMK AO2
14926KSTC STC20030703131509907/03/03 13:15:31  5-MIN KSTC 031915Z AUTO VRB03KT 10SM CLR 29/21 A2976 1180 58 3100 VRB/03 RMK AO2
14926KSTC STC20030703132009907/03/03 13:20:31  5-MIN KSTC 031920Z AUTO VRB04KT 10SM CLR 29/21 A2976 1180 58 3100 VRB/04 RMK AO2
14926KSTC STC20030703132509907/03/03 13:25:31  5-MIN KSTC 031925Z AUTO 04006KT 10SM CLR 30/21 A2975 1180 56 3200 040/06 RMK AO2
14926KSTC STC20030703133009907/03/03 13:30:31  5-MIN KSTC 031930Z AUTO 00000KT 10SM CLR 29/19 A2975 1180 54 3100 000/00 RMK AO2
14926KSTC STC20030703133509907/03/03 13:35:31  5-MIN KSTC 031935Z AUTO 00000KT 10SM CLR 29/20 A2975 1180 56 3100 000/00 RMK AO2
14926KSTC STC20030703134009907/03/03 13:40:31  5-MIN KSTC 031940Z AUTO 34004KT 10SM CLR 30/21 A2975 1180 56 3200 330/04 RMK AO2
14926KSTC STC20030703134509907/03/03 13:45:31  5-MIN KSTC 031945Z AUTO 32004KT 10SM CLR 29/20 A2975 1180 56 3100 320/04 RMK AO2
14926KSTC STC20030703135011607/03/03 13:50:31  5-MIN KSTC 031950Z AUTO 33004KT 10SM CLR 29/21 A2975 1180 58 3100 330/04 RMK AO2 SLP077 T02940206
14926KSTC STC20030703135509907/03/03 13:55:31  5-MIN KSTC 031955Z AUTO 29003KT 10SM CLR 29/20 A2975 1180 56 3100 290/03 RMK AO2
14926KSTC STC20030703140009907/03/03 14:00:31  5-MIN KSTC 032000Z AUTO 00000KT 10SM CLR 30/21 A2975 1180 56 3200 000/00 RMK AO2
14926KSTC STC20030703140509907/03/03 14:05:31  5-MIN KSTC 032005Z AUTO VRB03KT 10SM CLR 30/20 A2975 1190 54 3200 VRB/03 RMK AO2
14926KSTC STC20030703141009907/03/03 14:10:31  5-MIN KSTC 032010Z AUTO VRB04KT 10SM CLR 30/21 A2974 1190 56 3200 VRB/04 RMK AO2
14926KSTC STC20030703141509907/03/03 14:15:31  5-MIN KSTC 032015Z AUTO 02004KT 10SM CLR 31/21 A2974 1190 54 3300 010/04 RMK AO2
14926KSTC STC20030703142009907/03/03 14:20:31  5-MIN KSTC 032020Z AUTO 00000KT 10SM CLR 31/21 A2974 1190 54 3300 000/00 RMK AO2
14926KSTC STC20030703142509907/03/03 14:25:31  5-MIN KSTC 032025Z AUTO 33003KT 10SM CLR 31/19 A2974 1190 51 3300 330/03 RMK AO2
14926KSTC STC20030703143009907/03/03 14:30:31  5-MIN KSTC 032030Z AUTO 01005KT 10SM CLR 31/19 A2974 1190 49 3300 360/05 RMK AO2
14926KSTC STC20030703143509907/03/03 14:35:31  5-MIN KSTC 032035Z AUTO 04005KT 10SM CLR 31/19 A2974 1190 47 3300 030/05 RMK AO2
14926KSTC STC20030703144009907/03/03 14:40:31  5-MIN KSTC 032040Z AUTO 07004KT 10SM CLR 31/19 A2974 1190 51 3300 070/04 RMK AO2
14926KSTC STC20030703144509907/03/03 14:45:31  5-MIN KSTC 032045Z AUTO 00000KT 10SM CLR 31/19 A2974 1190 49 3300 000/00 RMK AO2
14926KSTC STC20030703145012207/03/03 14:50:31  5-MIN KSTC 032050Z AUTO 03006KT 10SM CLR 31/19 A2974 1190 51 3300 030/06 RMK AO2 SLP073 T03060194 51007
14926KSTC STC20030703145509907/03/03 14:55:31  5-MIN KSTC 032055Z AUTO 00000KT 10SM CLR 31/19 A2974 1190 51 3300 000/00 RMK AO2
14926KSTC STC20030703150009907/03/03 15:00:31  5-MIN KSTC 032100Z AUTO 00000KT 10SM CLR 31/19 A2974 1190 51 3300 000/00 RMK AO2
14926KSTC STC20030703150509907/03/03 15:05:31  5-MIN KSTC 032105Z AUTO 04003KT 10SM CLR 31/21 A2974 1190 53 3300 040/03 RMK AO2
14926KSTC STC20030703151009907/03/03 15:10:31  5-MIN KSTC 032110Z AUTO 00000KT 10SM CLR 31/20 A2974 1190 51 3300 000/00 RMK AO2
14926KSTC STC20030703151509907/03/03 15:15:31  5-MIN KSTC 032115Z AUTO 00000KT 10SM CLR 31/20 A2974 1190 51 3300 000/00 RMK AO2
14926KSTC STC20030703152009907/03/03 15:20:31  5-MIN KSTC 032120Z AUTO 00000KT 10SM CLR 31/19 A2974 1190 49 3300 000/00 RMK AO2
14926KSTC STC20030703152509907/03/03 15:25:31  5-MIN KSTC 032125Z AUTO 00000KT 10SM CLR 31/20 A2974 1190 52 3300 000/00 RMK AO2
14926KSTC STC20030703153009907/03/03 15:30:31  5-MIN KSTC 032130Z AUTO VRB03KT 10SM CLR 31/19 A2974 1190 51 3300 VRB/03 RMK AO2
14926KSTC STC20030703153509907/03/03 15:35:31  5-MIN KSTC 032135Z AUTO 36003KT 10SM CLR 32/19 A2974 1190 46 3400 350/03 RMK AO2
14926KSTC STC20030703154009907/03/03 15:40:31  5-MIN KSTC 032140Z AUTO 35003KT 10SM CLR 32/19 A2974 1190 46 3400 350/03 RMK AO2
14926KSTC STC20030703154509907/03/03 15:45:31  5-MIN KSTC 032145Z AUTO 00000KT 10SM CLR 32/18 A2974 1190 44 3400 000/00 RMK AO2
14926KSTC STC20030703155011607/03/03 15:50:31  5-MIN KSTC 032150Z AUTO 00000KT 10SM CLR 32/18 A2974 1190 44 3400 000/00 RMK AO2 SLP072 T03170183
14926KSTC STC20030703155509907/03/03 15:55:31  5-MIN KSTC 032155Z AUTO VRB03KT 10SM CLR 31/19 A2974 1190 47 3300 VRB/03 RMK AO2
14926KSTC STC20030703160009907/03/03 16:00:31  5-MIN KSTC 032200Z AUTO VRB04KT 10SM CLR 31/18 A2974 1190 46 3300 VRB/04 RMK AO2
14926KSTC STC20030703160509907/03/03 16:05:31  5-MIN KSTC 032205Z AUTO VRB03KT 10SM CLR 32/19 A2975 1190 46 3400 VRB/03 RMK AO2
14926KSTC STC20030703161009907/03/03 16:10:31  5-MIN KSTC 032210Z AUTO 30004KT 10SM CLR 31/19 A2975 1190 47 3300 300/04 RMK AO2
14926KSTC STC20030703161509907/03/03 16:15:31  5-MIN KSTC 032215Z AUTO VRB03KT 10SM CLR 31/18 A2975 1190 46 3300 VRB/03 RMK AO2
14926KSTC STC20030703162009907/03/03 16:20:31  5-MIN KSTC 032220Z AUTO 33004KT 10SM CLR 31/20 A2975 1190 51 3300 330/04 RMK AO2
14926KSTC STC20030703162509907/03/03 16:25:31  5-MIN KSTC 032225Z AUTO 35003KT 10SM CLR 32/19 A2975 1190 47 3400 350/03 RMK AO2
14926KSTC STC20030703163009907/03/03 16:30:31  5-MIN KSTC 032230Z AUTO VRB03KT 10SM CLR 31/19 A2975 1190 47 3300 VRB/03 RMK AO2
14926KSTC STC20030703163509907/03/03 16:35:31  5-MIN KSTC 032235Z AUTO 34004KT 10SM CLR 31/19 A2975 1190 47 3300 330/04 RMK AO2
14926KSTC STC20030703164009907/03/03 16:40:31  5-MIN KSTC 032240Z AUTO 33004KT 10SM CLR 31/19 A2975 1190 47 3300 330/04 RMK AO2
14926KSTC STC20030703164509907/03/03 16:45:31  5-MIN KSTC 032245Z AUTO 32005KT 10SM CLR 31/18 A2975 1190 44 3300 310/05 RMK AO2
14926KSTC STC20030703165011607/03/03 16:50:31  5-MIN KSTC 032250Z AUTO 34005KT 10SM CLR 31/18 A2975 1180 46 3300 330/05 RMK AO2 SLP075 T03110183
14926KSTC STC20030703165509907/03/03 16:55:31  5-MIN KSTC 032255Z AUTO 36005KT 10SM CLR 31/19 A2975 1180 47 3300 360/05 RMK AO2
14926KSTC STC20030703170009907/03/03 17:00:31  5-MIN KSTC 032300Z AUTO 35003KT 10SM CLR 31/19 A2975 1180 47 3300 350/03 RMK AO2
14926KSTC STC20030703170509907/03/03 17:05:31  5-MIN KSTC 032305Z AUTO VRB03KT 10SM CLR 32/19 A2975 1180 46 3400 VRB/03 RMK AO2
14926KSTC STC20030703171009907/03/03 17:10:31  5-MIN KSTC 032310Z AUTO 36003KT 10SM CLR 32/19 A2975 1180 46 3400 360/03 RMK AO2
14926KSTC STC20030703171509907/03/03 17:15:31  5-MIN KSTC 032315Z AUTO 35006KT 10SM CLR 31/19 A2975 1180 49 3300 350/06 RMK AO2
14926KSTC STC20030703172009907/03/03 17:20:31  5-MIN KSTC 032320Z AUTO 33005KT 10SM CLR 31/19 A2975 1180 47 3300 330/05 RMK AO2
14926KSTC STC20030703172509907/03/03 17:25:31  5-MIN KSTC 032325Z AUTO 36005KT 10SM CLR 31/19 A2976 1180 47 3300 360/05 RMK AO2
14926KSTC STC20030703173009907/03/03 17:30:31  5-MIN KSTC 032330Z AUTO 01004KT 10SM CLR 31/18 A2976 1180 44 3300 360/04 RMK AO2
14926KSTC STC20030703173509907/03/03 17:35:31  5-MIN KSTC 032335Z AUTO 36005KT 10SM CLR 31/18 A2976 1180 44 3300 360/05 RMK AO2
14926KSTC STC20030703174009907/03/03 17:40:31  5-MIN KSTC 032340Z AUTO 36003KT 10SM CLR 31/19 A2975 1180 47 3300 360/03 RMK AO2
14926KSTC STC20030703174509907/03/03 17:45:31  5-MIN KSTC 032345Z AUTO 01004KT 10SM CLR 31/18 A2975 1180 46 3300 010/04 RMK AO2
14926KSTC STC20030703175013407/03/03 17:50:31  5-MIN KSTC 032350Z AUTO 35003KT 10SM CLR 31/18 A2976 1180 46 3300 350/03 RMK AO2 SLP077 T03110183 10317 20283 58006
14926KSTC STC20030703175509907/03/03 17:55:31  5-MIN KSTC 032355Z AUTO 00000KT 10SM CLR 31/19 A2976 1180 47 3300 000/00 RMK AO2
14926KSTC STC20030703180009907/03/03 18:00:31  5-MIN KSTC 040000Z AUTO 02003KT 10SM CLR 31/19 A2976 1180 51 3300 010/03 RMK AO2
14926KSTC STC20030703180509907/03/03 18:05:31  5-MIN KSTC 040005Z AUTO 02004KT 10SM CLR 31/19 A2976 1180 49 3300 010/04 RMK AO2
14926KSTC STC20030703181009907/03/03 18:10:31  5-MIN KSTC 040010Z AUTO 02003KT 10SM CLR 31/19 A2976 1180 51 3300 020/03 RMK AO2
14926KSTC STC20030703181509907/03/03 18:15:31  5-MIN KSTC 040015Z AUTO 02003KT 10SM CLR 31/20 A2976 1180 52 3300 020/03 RMK AO2
14926KSTC STC20030703182009907/03/03 18:20:31  5-MIN KSTC 040020Z AUTO 00000KT 10SM CLR 31/19 A2976 1180 51 3300 000/00 RMK AO2
14926KSTC STC20030703182509907/03/03 18:25:31  5-MIN KSTC 040025Z AUTO 02003KT 10SM CLR 31/19 A2976 1180 51 3300 020/03 RMK AO2
14926KSTC STC20030703183009907/03/03 18:30:31  5-MIN KSTC 040030Z AUTO 00000KT 10SM CLR 30/20 A2976 1180 54 3200 000/00 RMK AO2
14926KSTC STC20030703183509907/03/03 18:35:31  5-MIN KSTC 040035Z AUTO 04003KT 10SM CLR 30/21 A2976 1180 56 3200 030/03 RMK AO2
14926KSTC STC20030703184009907/03/03 18:40:31  5-MIN KSTC 040040Z AUTO 03003KT 10SM CLR 30/19 A2976 1180 52 3200 030/03 RMK AO2
14926KSTC STC20030703184509907/03/03 18:45:31  5-MIN KSTC 040045Z AUTO 03003KT 10SM CLR 29/19 A2976 1180 54 3100 020/03 RMK AO2
14926KSTC STC20030703185011607/03/03 18:50:31  5-MIN KSTC 040050Z AUTO 00000KT 10SM CLR 29/20 A2976 1180 56 3100 000/00 RMK AO2 SLP078 T02940200
14926KSTC STC20030703185509907/03/03 18:55:31  5-MIN KSTC 040055Z AUTO 00000KT 10SM CLR 29/20 A2976 1180 56 3100 000/00 RMK AO2
14926KSTC STC20030703190009907/03/03 19:00:31  5-MIN KSTC 040100Z AUTO 00000KT 10SM CLR 29/21 A2976 1180 60 3100 000/00 RMK AO2
14926KSTC STC20030703190509907/03/03 19:05:31  5-MIN KSTC 040105Z AUTO 00000KT 10SM CLR 29/21 A2976 1180 62 3100 000/00 RMK AO2
14926KSTC STC20030703191009907/03/03 19:10:31  5-MIN KSTC 040110Z AUTO 36003KT 10SM CLR 29/22 A2975 1180 64 3100 360/03 RMK AO2
14926KSTC STC20030703191509907/03/03 19:15:31  5-MIN KSTC 040115Z AUTO 01003KT 10SM CLR 29/22 A2975 1180 64 3100 010/03 RMK AO2
14926KSTC STC20030703192009907/03/03 19:20:31  5-MIN KSTC 040120Z AUTO 03003KT 10SM CLR 28/22 A2975 1190 66 3000 030/03 RMK AO2
14926KSTC STC20030703192509907/03/03 19:25:31  5-MIN KSTC 040125Z AUTO 05003KT 10SM CLR 28/21 A2975 1190 66 3000 050/03 RMK AO2
14926KSTC STC20030703193009907/03/03 19:30:31  5-MIN KSTC 040130Z AUTO 00000KT 10SM CLR 27/22 A2975 1180 74 2900 000/00 RMK AO2
14926KSTC STC20030703193509907/03/03 19:35:31  5-MIN KSTC 040135Z AUTO 00000KT 10SM CLR 27/23 A2975 1190 79 2800 000/00 RMK AO2
14926KSTC STC20030703194009907/03/03 19:40:31  5-MIN KSTC 040140Z AUTO 00000KT 10SM CLR 27/22 A2975 1190 76 2800 000/00 RMK AO2
14926KSTC STC20030703194509907/03/03 19:45:31  5-MIN KSTC 040145Z AUTO 00000KT 10SM CLR 26/23 A2975 1190 81 2800 000/00 RMK AO2
14926KSTC STC20030703195011607/03/03 19:50:31  5-MIN KSTC 040150Z AUTO 00000KT 10SM CLR 26/22 A2975 1190 81 2700 000/00 RMK AO2 SLP075 T02560222
14926KSTC STC20030703195509907/03/03 19:55:31  5-MIN KSTC 040155Z AUTO 00000KT 10SM CLR 26/22 A2975 1180 81 2700 000/00 RMK AO2
14926KSTC STC20030703200009907/03/03 20:00:31  5-MIN KSTC 040200Z AUTO 00000KT 10SM CLR 26/22 A2975 1180 79 2800 000/00 RMK AO2
14926KSTC STC20030703200509907/03/03 20:05:31  5-MIN KSTC 040205Z AUTO 00000KT 10SM CLR 25/23 A2975 1180 90 2600 000/00 RMK AO2
14926KSTC STC20030703201009907/03/03 20:10:31  5-MIN KSTC 040210Z AUTO 00000KT 10SM CLR 25/22 A2975 1190 84 2700 000/00 RMK AO2
14926KSTC STC20030703201509907/03/03 20:15:31  5-MIN KSTC 040215Z AUTO 00000KT 10SM CLR 24/22 A2975 1190 87 2600 000/00 RMK AO2
14926KSTC STC20030703202009907/03/03 20:20:31  5-MIN KSTC 040220Z AUTO 00000KT 10SM CLR 24/22 A2974 1190 87 2600 000/00 RMK AO2
14926KSTC STC20030703202509907/03/03 20:25:31  5-MIN KSTC 040225Z AUTO 00000KT 10SM CLR 24/21 A2975 1190 81 2600 000/00 RMK AO2
14926KSTC STC20030703203009907/03/03 20:30:31  5-MIN KSTC 040230Z AUTO 00000KT 10SM CLR 24/22 A2975 1190 87 2500 000/00 RMK AO2
14926KSTC STC20030703203509907/03/03 20:35:31  5-MIN KSTC 040235Z AUTO 00000KT 10SM CLR 24/22 A2975 1190 87 2500 000/00 RMK AO2
14926KSTC STC20030703204009907/03/03 20:40:31  5-MIN KSTC 040240Z AUTO 00000KT 10SM CLR 23/21 A2975 1180 87 2500 000/00 RMK AO2
14926KSTC STC20030703204509907/03/03 20:45:31  5-MIN KSTC 040245Z AUTO 17004KT 10SM CLR 23/22 A2975 1180 93 2400 160/04 RMK AO2
14926KSTC STC20030703205012207/03/03 20:50:31  5-MIN KSTC 040250Z AUTO 17003KT 10SM CLR 23/21 A2975 1180 90 2400 170/03 RMK AO2 SLP076 T02280211 53004
14926KSTC STC20030703205509907/03/03 20:55:31  5-MIN KSTC 040255Z AUTO 15003KT 10SM CLR 23/21 A2975 1180 90 2400 140/03 RMK AO2
14926KSTC STC20030703210009907/03/03 21:00:31  5-MIN KSTC 040300Z AUTO 00000KT 10SM CLR 23/21 A2975 1180 90 2400 000/00 RMK AO2
14926KSTC STC20030703210509907/03/03 21:05:31  5-MIN KSTC 040305Z AUTO 00000KT 10SM CLR 23/21 A2975 1180 90 2400 000/00 RMK AO2
14926KSTC STC20030703211009907/03/03 21:10:31  5-MIN KSTC 040310Z AUTO 00000KT 10SM CLR 22/21 A2975 1180 93 2300 000/00 RMK AO2
14926KSTC STC20030703211509907/03/03 21:15:31  5-MIN KSTC 040315Z AUTO 00000KT 10SM CLR 22/21 A2975 1180 93 2300 000/00 RMK AO2
14926KSTC STC20030703212009907/03/03 21:20:31  5-MIN KSTC 040320Z AUTO 00000KT 10SM CLR 23/21 A2976 1180 90 2400 000/00 RMK AO2
14926KSTC STC20030703212509907/03/03 21:25:31  5-MIN KSTC 040325Z AUTO 00000KT 10SM CLR 23/21 A2975 1180 90 2400 000/00 RMK AO2
14926KSTC STC20030703213009907/03/03 21:30:31  5-MIN KSTC 040330Z AUTO 00000KT 10SM CLR 23/21 A2975 1180 90 2400 000/00 RMK AO2
14926KSTC STC20030703213509907/03/03 21:35:31  5-MIN KSTC 040335Z AUTO 00000KT 10SM CLR 23/21 A2975 1180 90 2400 000/00 RMK AO2
14926KSTC STC20030703214009907/03/03 21:40:31  5-MIN KSTC 040340Z AUTO 00000KT 10SM CLR 22/21 A2975 1180 93 2300 000/00 RMK AO2
14926KSTC STC20030703214509907/03/03 21:45:31  5-MIN KSTC 040345Z AUTO 00000KT 10SM CLR 22/21 A2975 1180 90 2300 000/00 RMK AO2
14926KSTC STC20030703215011607/03/03 21:50:31  5-MIN KSTC 040350Z AUTO 00000KT 10SM CLR 22/21 A2975 1180 93 2300 000/00 RMK AO2 SLP077 T02170206
14926KSTC STC20030703215509907/03/03 21:55:31  5-MIN KSTC 040355Z AUTO 00000KT 10SM CLR 22/21 A2976 1180 93 2300 000/00 RMK AO2
14926KSTC STC20030703220009907/03/03 22:00:31  5-MIN KSTC 040400Z AUTO 00000KT 10SM CLR 22/21 A2976 1180 90 2300 000/00 RMK AO2
14926KSTC STC20030703220509907/03/03 22:05:31  5-MIN KSTC 040405Z AUTO 00000KT 10SM CLR 23/21 A2976 1180 90 2400 000/00 RMK AO2
14926KSTC STC20030703221009907/03/03 22:10:31  5-MIN KSTC 040410Z AUTO 00000KT 10SM CLR 22/21 A2976 1180 93 2300 000/00 RMK AO2
14926KSTC STC20030703221509907/03/03 22:15:31  5-MIN KSTC 040415Z AUTO 00000KT 10SM CLR 22/21 A2976 1170 93 2300 000/00 RMK AO2
14926KSTC STC20030703222009907/03/03 22:20:31  5-MIN KSTC 040420Z AUTO 00000KT 10SM CLR 22/21 A2977 1170 93 2300 000/00 RMK AO2
14926KSTC STC20030703222509907/03/03 22:25:31  5-MIN KSTC 040425Z AUTO 00000KT 10SM CLR 21/21 A2977 1170 97 2200 000/00 RMK AO2
14926KSTC STC20030703223009907/03/03 22:30:31  5-MIN KSTC 040430Z AUTO 33003KT 10SM CLR 21/21 A2977 1160 97 2200 320/03 RMK AO2
14926KSTC STC20030703223510607/03/03 22:35:31  5-MIN KSTC 040435Z AUTO 34004KT 10SM CLR 21/21 A2978 1150 97 2200 340/04 RMK AO2 PRESRR
14926KSTC STC20030703224009907/03/03 22:40:31  5-MIN KSTC 040440Z AUTO 35004KT 10SM CLR 21/21 A2978 1150 97 2200 350/04 RMK AO2
14926KSTC STC20030703224509907/03/03 22:45:31  5-MIN KSTC 040445Z AUTO 36003KT 10SM CLR 22/21 A2978 1150 93 2200 360/03 RMK AO2
14926KSTC STC20030703225011607/03/03 22:50:31  5-MIN KSTC 040450Z AUTO 00000KT 10SM CLR 22/21 A2978 1160 93 2300 000/00 RMK AO2 SLP086 T02220211
14926KSTC STC20030703225509907/03/03 22:55:31  5-MIN KSTC 040455Z AUTO 01003KT 10SM CLR 22/21 A2977 1160 93 2300 010/03 RMK AO2
14926KSTC STC20030703230009907/03/03 23:00:31  5-MIN KSTC 040500Z AUTO 00000KT 10SM CLR 21/21 A2977 1170 97 2200 000/00 RMK AO2
14926KSTC STC20030703230509907/03/03 23:05:31  5-MIN KSTC 040505Z AUTO 00000KT 10SM CLR 21/21 A2977 1160 97 2200 000/00 RMK AO2
14926KSTC STC20030703231009907/03/03 23:10:31  5-MIN KSTC 040510Z AUTO 00000KT 10SM CLR 21/21 A2978 1160 97 2200 000/00 RMK AO2
14926KSTC STC20030709041509807/09/03 04:15:31  5-MIN KSTC 091015Z AUTO 10004KT 10SM CLR 15/11 A2997 980 77 1200 100/04 RMK AO2
14926KSTC STC20030709042009807/09/03 04:20:31  5-MIN KSTC 091020Z AUTO 09005KT 10SM CLR 15/11 A2997 980 77 1200 090/05 RMK AO2
14926KSTC STC20030709042509807/09/03 04:25:31  5-MIN KSTC 091025Z AUTO 10005KT 10SM CLR 15/11 A2997 980 77 1200 100/05 RMK AO2
14926KSTC STC20030709043009807/09/03 04:30:31  5-MIN KSTC 091030Z AUTO 11004KT 10SM CLR 15/11 A2998 970 77 1200 110/04 RMK AO2
14926KSTC STC20030709043509807/09/03 04:35:31  5-MIN KSTC 091035Z AUTO 12004KT 10SM CLR 14/11 A2999 960 80 1200 120/04 RMK AO2
14926KSTC STC20030709044010507/09/03 04:40:31  5-MIN KSTC 091040Z AUTO 11004KT 10SM CLR 14/11 A3000 950 80 1100 110/04 RMK AO2 PRESRR
14926KSTC STC20030709044509807/09/03 04:45:31  5-MIN KSTC 091045Z AUTO 00000KT 10SM CLR 15/12 A3000 950 80 1200 000/00 RMK AO2
14926KSTC STC20030709045011507/09/03 04:50:31  5-MIN KSTC 091050Z AUTO 00000KT 10SM CLR 15/12 A3000 950 80 1200 000/00 RMK AO2 SLP165 T01500117
14926KSTC STC20030709045509807/09/03 04:55:31  5-MIN KSTC 091055Z AUTO 00000KT 10SM CLR 15/12 A3001 950 80 1200 000/00 RMK AO2
14926KSTC STC20030709050010107/09/03 05:00:31  5-MIN KSTC 091100Z AUTO 00000KT 10SM FEW120 15/12 A3002 940 80 1200 000/00 RMK AO2
14926KSTC STC20030709050510807/09/03 05:05:31  5-MIN KSTC 091105Z AUTO 00000KT 10SM FEW090 SCT110 15/12 A3002 940 80 1200 000/00 RMK AO2
14926KSTC STC20030709051010807/09/03 05:10:31  5-MIN KSTC 091110Z AUTO 00000KT 10SM SCT090 BKN110 15/12 A3001 940 80 1200 000/00 RMK AO2
14926KSTC STC20030709051510107/09/03 05:15:31  5-MIN KSTC 091115Z AUTO 00000KT 10SM BKN095 15/12 A3001 940 80 1200 000/00 RMK AO2
14926KSTC STC20030709052010107/09/03 05:20:31  5-MIN KSTC 091120Z AUTO 00000KT 10SM BKN095 14/12 A3001 940 86 1100 000/00 RMK AO2
14926KSTC STC20030709052510807/09/03 05:25:31  5-MIN KSTC 091125Z AUTO 00000KT 10SM FEW055 BKN095 14/12 A3001 950 86 1100 000/00 RMK AO2
14926KSTC STC20030709053010807/09/03 05:30:31  5-MIN KSTC 091130Z AUTO 04003KT 10SM SCT055 OVC095 14/12 A3000 950 86 1100 040/03 RMK AO2
14926KSTC STC20030709053510807/09/03 05:35:31  5-MIN KSTC 091135Z AUTO 06004KT 10SM FEW055 BKN095 14/12 A3000 960 86 1200 060/04 RMK AO2
14926KSTC STC20030709054010807/09/03 05:40:31  5-MIN KSTC 091140Z AUTO 07005KT 10SM FEW036 BKN095 15/12 A3000 960 83 1200 070/05 RMK AO2
14926KSTC STC20030709054511507/09/03 05:45:31  5-MIN KSTC 091145Z AUTO 08005KT 10SM FEW036 SCT055 BKN095 15/12 A2999 960 80 1200 080/05 RMK AO2
14926KSTC STC20030709055015007/09/03 05:50:31  5-MIN KSTC 091150Z AUTO 07005KT 10SM SCT036 BKN055 BKN095 15/12 A2999 960 80 1200 070/05 RMK AO2 SLP161 T01500117 10167 20144 56019
14926KSTC STC20030709055511507/09/03 05:55:31  5-MIN KSTC 091155Z AUTO 08005KT 10SM SCT036 BKN050 OVC095 15/12 A2999 960 80 1200 080/05 RMK AO2
14926KSTC STC20030709060011507/09/03 06:00:31  5-MIN KSTC 091200Z AUTO 07005KT 10SM FEW035 BKN050 BKN095 14/12 A2999 960 83 1200 070/05 RMK AO2
14926KSTC STC20030709060511507/09/03 06:05:31  5-MIN KSTC 091205Z AUTO 07007KT 10SM FEW035 BKN050 OVC090 14/12 A2999 960 83 1200 070/07 RMK AO2
14926KSTC STC20030709061011507/09/03 06:10:31  5-MIN KSTC 091210Z AUTO 08006KT 10SM FEW035 BKN050 OVC090 14/12 A2999 960 83 1200 080/06 RMK AO2
14926KSTC STC20030709061510807/09/03 06:15:31  5-MIN KSTC 091215Z AUTO 08007KT 10SM FEW035 OVC048 14/12 A2998 970 83 1200 080/07 RMK AO2
14926KSTC STC20030709062010807/09/03 06:20:31  5-MIN KSTC 091220Z AUTO 09009KT 10SM BKN048 OVC090 14/12 A2998 970 83 1200 080/09 RMK AO2
14926KSTC STC20030709062510107/09/03 06:25:31  5-MIN KSTC 091225Z AUTO 09009KT 10SM OVC048 14/12 A2998 980 83 1200 090/09 RMK AO2
14926KSTC STC20030709063010807/09/03 06:30:31  5-MIN KSTC 091230Z AUTO 09008KT 10SM BKN046 OVC090 14/12 A2997 980 83 1200 090/08 RMK AO2
14926KSTC STC20030709063510107/09/03 06:35:31  5-MIN KSTC 091235Z AUTO 09010KT 10SM OVC046 14/12 A2996 990 83 1200 090/10 RMK AO2
14926KSTC STC20030709064010807/09/03 06:40:31  5-MIN KSTC 091240Z AUTO 09009KT 10SM OVC044 15/12 A2996 990 80 1300 090/09 RMK AO2 PRESFR
14926KSTC STC20030709064510907/09/03 06:45:31  5-MIN KSTC 091245Z AUTO 09009KT 10SM OVC042 14/12 A2995 1000 83 1200 090/09 RMK AO2 PRESFR
14926KSTC STC20030709065014207/09/03 06:50:31  5-MIN KSTC 091250Z AUTO 09010KT 10SM -RA FEW019 OVC042 14/12 A2995 1000 83 1200 090/10 RMK AO2 RAB50 SLP148 P0000 T01440117
14926KSTC STC20030709065511907/09/03 06:55:31  5-MIN KSTC 091255Z AUTO 09009KT 10SM -RA FEW021 BKN040 14/12 A2994 1010 86 1200 090/09 RMK AO2 P0000
14926KSTC STC20030709070013207/09/03 07:00:31  5-MIN KSTC 091300Z AUTO 08010G16KT 10SM -RA FEW024 BKN040 14/12 A2993 1010 86 1200 080/10G16 RMK AO2 PRESFR P0000
14926KSTC STC20030709070512807/09/03 07:05:31  5-MIN KSTC 091305Z AUTO 09011KT 10SM FEW021 SCT040 14/12 A2993 1020 86 1200 090/11 RMK AO2 RAE04 PRESFR P0000
14926KSTC STC20030709071012107/09/03 07:10:31  5-MIN KSTC 091310Z AUTO 09011KT 10SM FEW021 14/12 A2992 1030 86 1200 080/11 RMK AO2 RAE04 PRESFR P0000
14926KSTC STC20030709071511407/09/03 07:15:31  5-MIN KSTC 091315Z AUTO 09011KT 10SM FEW060 14/12 A2991 1030 86 1200 080/11 RMK AO2 RAE04 P0000
14926KSTC STC20030709072012007/09/03 07:20:31  5-MIN KSTC 091320Z AUTO 09012G20KT 10SM FEW110 15/12 A2991 1030 83 1300 090/12G20 RMK AO2 RAE04 P0000
14926KSTC STC20030709072512007/09/03 07:25:31  5-MIN KSTC 091325Z AUTO 09011G20KT 10SM FEW120 15/12 A2992 1030 80 1300 090/11G20 RMK AO2 RAE04 P0000
14926KSTC STC20030709073012707/09/03 07:30:31  5-MIN KSTC 091330Z AUTO 10010G16KT 10SM -RA FEW120 15/12 A2992 1020 83 1300 100/10G16 RMK AO2 RAE04B30 P0000
14926KSTC STC20030709073512107/09/03 07:35:31  5-MIN KSTC 091335Z AUTO 10010KT 10SM -RA FEW120 15/12 A2992 1030 83 1300 090/10 RMK AO2 RAE04B30 P0000
14926KSTC STC20030709074012107/09/03 07:40:31  5-MIN KSTC 091340Z AUTO 10011KT 10SM -RA FEW100 15/12 A2991 1040 83 1300 090/11 RMK AO2 RAE04B30 P0000
14926KSTC STC20030709074512107/09/03 07:45:31  5-MIN KSTC 091345Z AUTO 10008KT 10SM -RA FEW050 15/12 A2992 1030 83 1300 100/08 RMK AO2 RAE04B30 P0000
14926KSTC STC20030709075014507/09/03 07:50:31  5-MIN KSTC 091350Z AUTO 10007KT 10SM -RA SCT038 SCT049 15/12 A2992 1030 83 1300 100/07 RMK AO2 RAE04B30 SLP138 P0000 T01500122
14926KSTC STC20030709075511207/09/03 07:55:31  5-MIN KSTC 091355Z AUTO 10009KT 10SM -RA BKN031 15/12 A2992 1030 83 1300 090/09 RMK AO2 P0000
14926KSTC STC20030709080011207/09/03 08:00:31  5-MIN KSTC 091400Z AUTO 10006KT 10SM -RA SCT041 15/13 A2992 1020 86 1300 100/06 RMK AO2 P0000
14926KSTC STC20030709080512807/09/03 08:05:31  5-MIN KSTC 091405Z AUTO 09006KT 10SM SCT050 SCT100 BKN120 15/13 A2992 1030 86 1300 090/06 RMK AO2 RAE05 P0000
14926KSTC STC20030709081012107/09/03 08:10:31  5-MIN KSTC 091410Z AUTO 10009KT 10SM SCT048 BKN095 15/13 A2992 1030 86 1300 100/09 RMK AO2 RAE05 P0000
14926KSTC STC20030709081511407/09/03 08:15:31  5-MIN KSTC 091415Z AUTO 11007KT 10SM SCT048 15/13 A2992 1020 86 1300 100/07 RMK AO2 RAE05 P0000
14926KSTC STC20030709082011407/09/03 08:20:31  5-MIN KSTC 091420Z AUTO 11006KT 10SM FEW055 15/13 A2993 1020 86 1300 100/06 RMK AO2 RAE05 P0000
14926KSTC STC20030709082511407/09/03 08:25:31  5-MIN KSTC 091425Z AUTO 10006KT 10SM FEW100 15/13 A2993 1020 86 1300 100/06 RMK AO2 RAE05 P0000
14926KSTC STC20030709083012107/09/03 08:30:31  5-MIN KSTC 091430Z AUTO 10006KT 10SM SCT029 SCT090 16/13 A2993 1010 83 1400 090/06 RMK AO2 RAE05 P0000
14926KSTC STC20030709083511407/09/03 08:35:31  5-MIN KSTC 091435Z AUTO 11005KT 10SM BKN029 16/13 A2994 1010 83 1300 110/05 RMK AO2 RAE05 P0000
14926KSTC STC20030709084011407/09/03 08:40:31  5-MIN KSTC 091440Z AUTO 10005KT 10SM BKN029 16/13 A2994 1010 86 1400 090/05 RMK AO2 RAE05 P0000
14926KSTC STC20030709084511407/09/03 08:45:31  5-MIN KSTC 091445Z AUTO 10006KT 10SM SCT029 16/13 A2993 1020 86 1400 090/06 RMK AO2 RAE05 P0000
14926KSTC STC20030709085014307/09/03 08:50:31  5-MIN KSTC 091450Z AUTO 10007KT 10SM SCT029 16/13 A2993 1020 86 1400 100/07 RMK AO2 RAE05 SLP142 P0000 60001 T01560133 50015
14926KSTC STC20030709085510207/09/03 08:55:31  5-MIN KSTC 091455Z AUTO 10007KT 10SM SCT029 16/13 A2993 1020 86 1400 090/07 RMK AO2
14926KSTC STC20030709090010907/09/03 09:00:31  5-MIN KSTC 091500Z AUTO 10008KT 10SM FEW029 SCT120 16/13 A2993 1020 83 1400 100/08 RMK AO2
14926KSTC STC20030709090511607/09/03 09:05:31  5-MIN KSTC 091505Z AUTO 10007KT 10SM FEW029 SCT075 BKN120 16/13 A2993 1020 83 1400 100/07 RMK AO2
14926KSTC STC20030709091010907/09/03 09:10:31  5-MIN KSTC 091510Z AUTO 09008KT 10SM BKN075 BKN120 16/13 A2993 1020 83 1400 090/08 RMK AO2
14926KSTC STC20030709091511607/09/03 09:15:31  5-MIN KSTC 091515Z AUTO 10007KT 10SM FEW050 BKN070 BKN120 16/13 A2993 1010 83 1400 100/07 RMK AO2
14926KSTC STC20030709092011607/09/03 09:20:31  5-MIN KSTC 091520Z AUTO 10006KT 10SM SCT050 BKN070 BKN120 17/13 A2993 1010 80 1500 100/06 RMK AO2
14926KSTC STC20030709092511607/09/03 09:25:31  5-MIN KSTC 091525Z AUTO 09008KT 10SM SCT043 BKN050 OVC070 17/13 A2993 1020 80 1500 090/08 RMK AO2
14926KSTC STC20030709093011607/09/03 09:30:31  5-MIN KSTC 091530Z AUTO 10009KT 10SM SCT040 BKN050 OVC070 17/13 A2993 1020 80 1500 090/09 RMK AO2
14926KSTC STC20030709093511607/09/03 09:35:31  5-MIN KSTC 091535Z AUTO 10008KT 10SM BKN040 BKN050 OVC070 17/13 A2993 1020 80 1500 090/08 RMK AO2
14926KSTC STC20030709094010907/09/03 09:40:31  5-MIN KSTC 091540Z AUTO 10008KT 10SM BKN038 OVC050 17/13 A2993 1020 80 1500 100/08 RMK AO2
14926KSTC STC20030709094510907/09/03 09:45:31  5-MIN KSTC 091545Z AUTO 10009KT 10SM BKN038 OVC050 17/13 A2993 1020 80 1500 100/09 RMK AO2
14926KSTC STC20030709095011907/09/03 09:50:31  5-MIN KSTC 091550Z AUTO 09008KT 10SM OVC036 17/13 A2993 1020 80 1500 090/08 RMK AO2 SLP141 T01670133
14926KSTC STC20030709095510207/09/03 09:55:31  5-MIN KSTC 091555Z AUTO 09009KT 10SM OVC034 17/13 A2992 1020 80 1500 090/09 RMK AO2
14926KSTC STC20030709100010907/09/03 10:00:31  5-MIN KSTC 091600Z AUTO 10008KT 10SM BKN030 OVC036 17/14 A2992 1030 83 1500 090/08 RMK AO2
14926KSTC STC20030709100510907/09/03 10:05:31  5-MIN KSTC 091605Z AUTO 10009KT 10SM BKN030 OVC036 17/14 A2992 1030 83 1500 090/09 RMK AO2
14926KSTC STC20030709101010907/09/03 10:10:31  5-MIN KSTC 091610Z AUTO 09008KT 10SM BKN028 OVC034 17/14 A2991 1030 80 1600 090/08 RMK AO2
14926KSTC STC20030709101510907/09/03 10:15:31  5-MIN KSTC 091615Z AUTO 09008KT 10SM BKN028 OVC034 17/14 A2991 1040 80 1600 090/08 RMK AO2
14926KSTC STC20030709102010207/09/03 10:20:31  5-MIN KSTC 091620Z AUTO 09010KT 10SM OVC028 18/14 A2991 1040 78 1600 090/10 RMK AO2
14926KSTC STC20030709102510207/09/03 10:25:31  5-MIN KSTC 091625Z AUTO 09010KT 10SM OVC028 18/14 A2990 1040 81 1600 090/10 RMK AO2
14926KSTC STC20030709103010207/09/03 10:30:31  5-MIN KSTC 091630Z AUTO 10011KT 10SM OVC028 18/14 A2991 1040 78 1700 090/11 RMK AO2
14926KSTC STC20030709103510207/09/03 10:35:31  5-MIN KSTC 091635Z AUTO 09012KT 10SM OVC026 19/14 A2990 1040 75 1800 090/12 RMK AO2
14926KSTC STC20030709104011807/09/03 10:40:31  5-MIN KSTC 091640Z AUTO 09009KT 060V120 10SM OVC026 19/14 A2990 1040 75 1800 090/09 060V120 RMK AO2
14926KSTC STC20030709104510207/09/03 10:45:31  5-MIN KSTC 091645Z AUTO 09011KT 10SM OVC026 19/15 A2990 1040 75 1800 090/11 RMK AO2
14926KSTC STC20030709105012607/09/03 10:50:31  5-MIN KSTC 091650Z AUTO 09012KT 10SM BKN024 OVC029 19/15 A2991 1040 75 1800 090/12 RMK AO2 SLP133 T01940150
14926KSTC STC20030709105511507/09/03 10:55:31  5-MIN KSTC 091655Z AUTO 11011G16KT 10SM SCT020 OVC026 19/15 A2991 1040 75 1800 110/11G16 RMK AO2
14926KSTC STC20030709110011507/09/03 11:00:31  5-MIN KSTC 091700Z AUTO 11010G16KT 10SM BKN019 OVC024 18/14 A2990 1040 78 1700 110/10G16 RMK AO2
14926KSTC STC20030709110510907/09/03 11:05:31  5-MIN KSTC 091705Z AUTO 11009KT 10SM BKN019 OVC024 18/14 A2990 1040 78 1700 110/09 RMK AO2
14926KSTC STC20030709111010907/09/03 11:10:31  5-MIN KSTC 091710Z AUTO 11010KT 10SM BKN017 OVC024 18/15 A2990 1040 81 1700 110/10 RMK AO2
14926KSTC STC20030709111510207/09/03 11:15:31  5-MIN KSTC 091715Z AUTO 12009KT 10SM OVC017 19/15 A2990 1040 78 1800 120/09 RMK AO2
14926KSTC STC20030709112010207/09/03 11:20:31  5-MIN KSTC 091720Z AUTO 12010KT 10SM OVC017 18/15 A2990 1050 81 1700 110/10 RMK AO2
14926KSTC STC20030709112510207/09/03 11:25:31  5-MIN KSTC 091725Z AUTO 13009KT 10SM OVC017 19/15 A2990 1050 78 1800 120/09 RMK AO2
14926KSTC STC20030709113010207/09/03 11:30:31  5-MIN KSTC 091730Z AUTO 12011KT 10SM OVC017 19/16 A2989 1050 78 1900 120/11 RMK AO2
14926KSTC STC20030709113510207/09/03 11:35:31  5-MIN KSTC 091735Z AUTO 11007KT 10SM OVC017 19/16 A2990 1050 78 1800 110/07 RMK AO2
14926KSTC STC20030709114010207/09/03 11:40:31  5-MIN KSTC 091740Z AUTO 11006KT 10SM OVC017 19/16 A2990 1050 78 1800 110/06 RMK AO2
14926KSTC STC20030709114510207/09/03 11:45:31  5-MIN KSTC 091745Z AUTO 10006KT 10SM OVC017 19/16 A2990 1050 78 1800 100/06 RMK AO2
14926KSTC STC20030709115014307/09/03 11:50:31  5-MIN KSTC 091750Z AUTO 11009KT 10SM OVC017 19/16 A2989 1050 78 1900 110/09 RMK AO2 SLP128 60001 T01940156 10194 20144 55020
14926KSTC STC20030709115510207/09/03 11:55:31  5-MIN KSTC 091755Z AUTO 12011KT 10SM OVC017 19/16 A2989 1050 78 1900 120/11 RMK AO2
14926KSTC STC20030709120011807/09/03 12:00:31  5-MIN KSTC 091800Z AUTO 11007KT 070V130 10SM OVC017 20/16 A2989 1050 75 1900 100/07 070V130 RMK AO2
14926KSTC STC20030709120510207/09/03 12:05:31  5-MIN KSTC 091805Z AUTO 13008KT 10SM OVC017 20/16 A2989 1050 78 1900 120/08 RMK AO2
14926KSTC STC20030709121010207/09/03 12:10:31  5-MIN KSTC 091810Z AUTO 14009KT 10SM OVC017 20/16 A2989 1050 78 1900 140/09 RMK AO2
14926KSTC STC20030709121510207/09/03 12:15:31  5-MIN KSTC 091815Z AUTO 14009KT 10SM OVC019 20/16 A2989 1050 75 1900 130/09 RMK AO2
14926KSTC STC20030709122010207/09/03 12:20:31  5-MIN KSTC 091820Z AUTO 12008KT 10SM OVC019 20/16 A2989 1050 78 1900 120/08 RMK AO2
14926KSTC STC20030709122510207/09/03 12:25:31  5-MIN KSTC 091825Z AUTO 12009KT 10SM OVC019 20/16 A2989 1050 78 1900 110/09 RMK AO2
14926KSTC STC20030709123010207/09/03 12:30:31  5-MIN KSTC 091830Z AUTO 14010KT 10SM OVC019 20/16 A2989 1050 75 1900 140/10 RMK AO2
14926KSTC STC20030709123510207/09/03 12:35:31  5-MIN KSTC 091835Z AUTO 13011KT 10SM OVC019 19/16 A2990 1050 78 1900 130/11 RMK AO2
14926KSTC STC20030709124010207/09/03 12:40:31  5-MIN KSTC 091840Z AUTO 12008KT 10SM OVC019 19/16 A2990 1050 81 1800 120/08 RMK AO2
14926KSTC STC20030709124510207/09/03 12:45:31  5-MIN KSTC 091845Z AUTO 13010KT 10SM OVC019 19/16 A2990 1050 78 1800 130/10 RMK AO2
14926KSTC STC20030709125011907/09/03 12:50:31  5-MIN KSTC 091850Z AUTO 12008KT 10SM OVC019 19/16 A2990 1050 78 1900 120/08 RMK AO2 SLP130 T01940156
14926KSTC STC20030709125510207/09/03 12:55:31  5-MIN KSTC 091855Z AUTO 12007KT 10SM OVC017 19/16 A2989 1050 78 1900 120/07 RMK AO2
14926KSTC STC20030709130010207/09/03 13:00:31  5-MIN KSTC 091900Z AUTO 13010KT 10SM OVC017 19/16 A2989 1060 78 1900 130/10 RMK AO2
14926KSTC STC20030709130510207/09/03 13:05:31  5-MIN KSTC 091905Z AUTO 12010KT 10SM OVC017 19/16 A2988 1060 78 1900 120/10 RMK AO2
14926KSTC STC20030709131010207/09/03 13:10:31  5-MIN KSTC 091910Z AUTO 12010KT 10SM OVC017 19/16 A2988 1060 81 1900 110/10 RMK AO2
14926KSTC STC20030709131510207/09/03 13:15:31  5-MIN KSTC 091915Z AUTO 12007KT 10SM OVC017 19/16 A2988 1070 81 1900 120/07 RMK AO2
14926KSTC STC20030709132010207/09/03 13:20:31  5-MIN KSTC 091920Z AUTO 12008KT 10SM OVC017 20/16 A2988 1060 78 1900 110/08 RMK AO2
14926KSTC STC20030709132510207/09/03 13:25:31  5-MIN KSTC 091925Z AUTO 12008KT 10SM OVC017 19/16 A2988 1070 81 1900 110/08 RMK AO2
14926KSTC STC20030709133010207/09/03 13:30:31  5-MIN KSTC 091930Z AUTO 12008KT 10SM OVC017 19/16 A2988 1070 81 1900 120/08 RMK AO2
14926KSTC STC20030709133510207/09/03 13:35:31  5-MIN KSTC 091935Z AUTO 12010KT 10SM OVC017 20/16 A2987 1070 78 1900 120/10 RMK AO2
14926KSTC STC20030709134010207/09/03 13:40:31  5-MIN KSTC 091940Z AUTO 12010KT 10SM OVC017 20/16 A2988 1070 78 1900 120/10 RMK AO2
14926KSTC STC20030709134510207/09/03 13:45:31  5-MIN KSTC 091945Z AUTO 12007KT 10SM OVC017 19/16 A2987 1070 81 1900 120/07 RMK AO2
14926KSTC STC20030709135011907/09/03 13:50:31  5-MIN KSTC 091950Z AUTO 12009KT 10SM OVC017 19/16 A2987 1070 81 1900 120/09 RMK AO2 SLP122 T01940161
14926KSTC STC20030709135510207/09/03 13:55:31  5-MIN KSTC 091955Z AUTO 12011KT 10SM OVC017 19/16 A2987 1070 81 1900 120/11 RMK AO2
14926KSTC STC20030709140010207/09/03 14:00:31  5-MIN KSTC 092000Z AUTO 13010KT 10SM OVC017 19/16 A2987 1080 81 1900 130/10 RMK AO2
14926KSTC STC20030709140512407/09/03 14:05:31  5-MIN KSTC 092005Z AUTO 12008G16KT 10SM -RA OVC017 19/17 A2986 1080 84 1900 110/08G16 RMK AO2 RAB01 P0000
14926KSTC STC20030709141011807/09/03 14:10:31  5-MIN KSTC 092010Z AUTO 12009KT 10SM -RA OVC017 19/17 A2986 1080 84 1900 120/09 RMK AO2 RAB01 P0001
14926KSTC STC20030709141511807/09/03 14:15:31  5-MIN KSTC 092015Z AUTO 12007KT 10SM -RA OVC017 19/17 A2986 1080 90 1800 110/07 RMK AO2 RAB01 P0001
14926KSTC STC20030709142012807/09/03 14:20:31  5-MIN KSTC 092020Z AUTO 12008KT 10SM VCTS -RA OVC017 19/17 A2986 1080 90 1800 120/08 RMK AO2 TSB16RAB01 P0001
14926KSTC STC20030709142512707/09/03 14:25:31  5-MIN KSTC 092025Z AUTO 11007KT 10SM VCTS OVC017 19/17 A2986 1080 90 1800 110/07 RMK AO2 TSB16RAB01E21 P0001
14926KSTC STC20030709143012707/09/03 14:30:31  5-MIN KSTC 092030Z AUTO 13007KT 10SM VCTS OVC017 19/17 A2986 1080 90 1800 120/07 RMK AO2 TSB16RAB01E21 P0001
14926KSTC STC20030709143512507/09/03 14:35:31  5-MIN KSTC 092035Z AUTO 12007KT 10SM OVC017 19/17 A2986 1080 90 1800 120/07 RMK AO2 TSB16E31RAB01E21 P0001
14926KSTC STC20030709144012507/09/03 14:40:31  5-MIN KSTC 092040Z AUTO 12006KT 10SM OVC017 19/17 A2986 1080 90 1800 120/06 RMK AO2 TSB16E31RAB01E21 P0001
14926KSTC STC20030709144512507/09/03 14:45:31  5-MIN KSTC 092045Z AUTO 14005KT 10SM OVC017 19/17 A2986 1080 90 1800 140/05 RMK AO2 TSB16E31RAB01E21 P0001
14926KSTC STC20030709145015407/09/03 14:50:31  5-MIN KSTC 092050Z AUTO 14007KT 10SM OVC017 19/17 A2986 1080 90 1800 130/07 RMK AO2 TSB16E31RAB01E21 SLP118 P0001 60001 T01890172 58013
14926KSTC STC20030709145510207/09/03 14:55:31  5-MIN KSTC 092055Z AUTO 13008KT 10SM OVC017 19/18 A2985 1090 93 1800 120/08 RMK AO2
14926KSTC STC20030709150012707/09/03 15:00:31  5-MIN KSTC 092100Z AUTO 13006KT 10SM -RA BKN017 OVC026 19/18 A2985 1090 93 1800 130/06 RMK AO2 RAB2056 P0000
14926KSTC STC20030709150512607/09/03 15:05:31  5-MIN KSTC 092105Z AUTO 13005KT 10SM BKN017 OVC026 19/18 A2985 1090 93 1800 120/05 RMK AO2 RAB2056E05 P0000
14926KSTC STC20030709151012607/09/03 15:10:31  5-MIN KSTC 092110Z AUTO 12007KT 10SM BKN017 OVC024 19/18 A2985 1090 93 1800 120/07 RMK AO2 RAB2056E05 P0000
14926KSTC STC20030709151512607/09/03 15:15:31  5-MIN KSTC 092115Z AUTO 12007KT 10SM BKN017 OVC024 19/18 A2985 1090 90 1900 120/07 RMK AO2 RAB2056E05 P0000
14926KSTC STC20030709152012607/09/03 15:20:31  5-MIN KSTC 092120Z AUTO 12006KT 10SM BKN017 OVC024 19/18 A2985 1090 90 1900 120/06 RMK AO2 RAB2056E05 P0000
14926KSTC STC20030709152512607/09/03 15:25:31  5-MIN KSTC 092125Z AUTO 12005KT 10SM BKN017 OVC024 19/18 A2984 1100 90 1900 110/05 RMK AO2 RAB2056E05 P0000
14926KSTC STC20030709153011907/09/03 15:30:31  5-MIN KSTC 092130Z AUTO 13008KT 10SM OVC017 19/18 A2984 1100 90 1900 120/08 RMK AO2 RAB2056E05 P0000
14926KSTC STC20030709153511907/09/03 15:35:31  5-MIN KSTC 092135Z AUTO 12006KT 10SM OVC017 19/18 A2984 1100 90 1900 120/06 RMK AO2 RAB2056E05 P0000
14926KSTC STC20030709154012607/09/03 15:40:31  5-MIN KSTC 092140Z AUTO 13007KT 10SM FEW011 OVC017 19/18 A2983 1110 90 1900 130/07 RMK AO2 RAB2056E05 P0000
14926KSTC STC20030709154512607/09/03 15:45:31  5-MIN KSTC 092145Z AUTO 13006KT 10SM FEW011 OVC017 19/18 A2983 1110 90 1900 120/06 RMK AO2 RAB2056E05 P0000
14926KSTC STC20030709155014307/09/03 15:50:31  5-MIN KSTC 092150Z AUTO 12009KT 10SM FEW011 OVC015 19/18 A2983 1110 90 1900 120/09 RMK AO2 RAB2056E05 SLP109 P0000 T01940178
14926KSTC STC20030709155511607/09/03 15:55:31  5-MIN KSTC 092155Z AUTO 11009KT 10SM FEW011 BKN017 OVC029 19/18 A2983 1110 90 1900 110/09 RMK AO2
14926KSTC STC20030709160011607/09/03 16:00:31  5-MIN KSTC 092200Z AUTO 12008KT 10SM FEW011 BKN017 OVC029 19/18 A2983 1110 90 1900 120/08 RMK AO2
14926KSTC STC20030709160511607/09/03 16:05:31  5-MIN KSTC 092205Z AUTO 12008KT 10SM FEW011 BKN017 OVC033 19/18 A2982 1110 90 1900 120/08 RMK AO2
14926KSTC STC20030709161011607/09/03 16:10:31  5-MIN KSTC 092210Z AUTO 12008KT 10SM FEW011 BKN017 OVC030 20/18 A2982 1120 87 2000 110/08 RMK AO2
14926KSTC STC20030709161510907/09/03 16:15:31  5-MIN KSTC 092215Z AUTO 11008KT 10SM SCT017 OVC030 19/18 A2982 1120 90 1900 110/08 RMK AO2
14926KSTC STC20030709162010907/09/03 16:20:31  5-MIN KSTC 092220Z AUTO 13008KT 10SM SCT017 OVC030 19/18 A2982 1120 90 1900 120/08 RMK AO2
14926KSTC STC20030709162511607/09/03 16:25:31  5-MIN KSTC 092225Z AUTO 12008KT 10SM FEW011 BKN017 OVC030 19/18 A2981 1130 90 1900 110/08 RMK AO2
14926KSTC STC20030709163011607/09/03 16:30:31  5-MIN KSTC 092230Z AUTO 11009KT 10SM FEW011 BKN017 OVC030 19/18 A2980 1130 90 2000 110/09 RMK AO2
14926KSTC STC20030709163511607/09/03 16:35:31  5-MIN KSTC 092235Z AUTO 12008KT 10SM FEW011 BKN017 OVC030 20/18 A2980 1140 87 2000 110/08 RMK AO2
14926KSTC STC20030709164011607/09/03 16:40:31  5-MIN KSTC 092240Z AUTO 11009KT 10SM FEW011 BKN017 OVC030 20/18 A2980 1140 87 2000 110/09 RMK AO2
14926KSTC STC20030709164510907/09/03 16:45:31  5-MIN KSTC 092245Z AUTO 12007KT 10SM FEW011 OVC017 19/18 A2980 1140 90 2000 120/07 RMK AO2
14926KSTC STC20030709165012607/09/03 16:50:31  5-MIN KSTC 092250Z AUTO 10007KT 10SM SCT011 OVC017 19/18 A2979 1150 90 2000 100/07 RMK AO2 SLP095 T01940178
14926KSTC STC20030709165510907/09/03 16:55:31  5-MIN KSTC 092255Z AUTO 10008KT 10SM BKN011 OVC017 19/18 A2980 1140 90 2000 100/08 RMK AO2
14926KSTC STC20030709170010907/09/03 17:00:31  5-MIN KSTC 092300Z AUTO 10005KT 10SM BKN011 OVC017 19/18 A2980 1140 90 2000 100/05 RMK AO2
14926KSTC STC20030709170510907/09/03 17:05:31  5-MIN KSTC 092305Z AUTO 11005KT 10SM BKN011 OVC017 19/18 A2980 1140 90 2000 100/05 RMK AO2
14926KSTC STC20030709171010207/09/03 17:10:31  5-MIN KSTC 092310Z AUTO 13005KT 10SM OVC011 19/18 A2981 1130 93 2000 130/05 RMK AO2
14926KSTC STC20030709171510207/09/03 17:15:31  5-MIN KSTC 092315Z AUTO 11007KT 10SM OVC011 19/18 A2981 1130 90 1900 110/07 RMK AO2
14926KSTC STC20030709172010207/09/03 17:20:31  5-MIN KSTC 092320Z AUTO 11006KT 10SM OVC011 19/18 A2981 1130 90 2000 110/06 RMK AO2
14926KSTC STC20030709172511807/09/03 17:25:31  5-MIN KSTC 092325Z AUTO 10007KT 10SM -RA OVC011 19/18 A2980 1140 93 2000 100/07 RMK AO2 RAB25 P0000
14926KSTC STC20030709173011807/09/03 17:30:31  5-MIN KSTC 092330Z AUTO 10007KT 10SM -RA OVC011 19/18 A2980 1140 93 2000 100/07 RMK AO2 RAB25 P0000
14926KSTC STC20030709173511807/09/03 17:35:31  5-MIN KSTC 092335Z AUTO 12008KT 10SM -RA OVC011 19/18 A2980 1140 93 2000 110/08 RMK AO2 RAB25 P0000
14926KSTC STC20030709174011807/09/03 17:40:31  5-MIN KSTC 092340Z AUTO 12007KT 10SM -RA OVC011 19/18 A2981 1130 97 1900 110/07 RMK AO2 RAB25 P0000
14926KSTC STC20030709174511807/09/03 17:45:31  5-MIN KSTC 092345Z AUTO 13008KT 10SM -RA OVC013 19/18 A2981 1130 93 1900 130/08 RMK AO2 RAB25 P0000
14926KSTC STC20030709175015907/09/03 17:50:31  5-MIN KSTC 092350Z AUTO 13007KT 10SM -RA OVC013 19/18 A2981 1130 93 1900 130/07 RMK AO2 RAB25 SLP102 P0001 60002 T01890178 10200 20189 58012
14926KSTC STC20030709175511207/09/03 17:55:31  5-MIN KSTC 092355Z AUTO 13008KT 10SM -RA OVC013 19/18 A2981 1130 93 1900 130/08 RMK AO2 P0001
14926KSTC STC20030709180011007/09/03 18:00:31  5-MIN KSTC 100000Z AUTO 13009KT 9SM RA OVC013 19/18 A2979 1140 93 1900 120/09 RMK AO2 P0002
14926KSTC STC20030709180511807/09/03 18:05:31  5-MIN KSTC 100005Z AUTO 13010KT 8SM -RA OVC013 19/18 A2978 1150 93 1900 130/10 RMK AO2 PRESFR P0004
14926KSTC STC20030709181011807/09/03 18:10:31  5-MIN KSTC 100010Z AUTO 13010KT 8SM -RA BKN013 OVC019 19/18 A2978 1160 93 1900 130/10 RMK AO2 P0004
14926KSTC STC20030709181511807/09/03 18:15:31  5-MIN KSTC 100015Z AUTO 13008KT 8SM -RA BKN013 OVC021 18/18 A2978 1160 96 1900 130/08 RMK AO2 P0006
14926KSTC STC20030709182011807/09/03 18:20:31  5-MIN KSTC 100020Z AUTO 12009KT 7SM -RA SCT013 OVC019 18/18 A2978 1160 96 1900 120/09 RMK AO2 P0007
14926KSTC STC20030709182511107/09/03 18:25:31  5-MIN KSTC 100025Z AUTO 13010KT 8SM -RA OVC017 18/18 A2977 1160 96 1900 120/10 RMK AO2 P0008
14926KSTC STC20030709183011107/09/03 18:30:31  5-MIN KSTC 100030Z AUTO 13008KT 8SM -RA OVC017 18/18 A2978 1160 96 1900 130/08 RMK AO2 P0009
14926KSTC STC20030709183511107/09/03 18:35:31  5-MIN KSTC 100035Z AUTO 13010KT 8SM -RA OVC017 18/18 A2978 1160 96 1900 130/10 RMK AO2 P0011
14926KSTC STC20030709184011907/09/03 18:40:31  5-MIN KSTC 100040Z AUTO 12009KT 8SM -TSRA OVC019 18/18 A2977 1160 96 1900 120/09 RMK AO2 TSB37 P0012
14926KSTC STC20030709184511907/09/03 18:45:31  5-MIN KSTC 100045Z AUTO 13006KT 8SM -TSRA BKN017 18/18 A2978 1160 96 1900 130/06 RMK AO2 TSB37 P0012
14926KSTC STC20030709185013707/09/03 18:50:31  5-MIN KSTC 100050Z AUTO 13006KT 10SM -TSRA BKN017 18/18 A2978 1150 96 1800 130/06 RMK AO2 TSB37 SLP093 P0012 T01830178
14926KSTC STC20030709185511207/09/03 18:55:31  5-MIN KSTC 100055Z AUTO 12005KT 10SM -RA BKN017 18/18 A2979 1150 96 1800 120/05 RMK AO2 P0000
14926KSTC STC20030709190012307/09/03 19:00:31  5-MIN KSTC 100100Z AUTO 12005KT 10SM BKN017 BKN024 18/18 A2978 1150 96 1900 120/05 RMK AO2 RAE0058 P0000
14926KSTC STC20030709190512307/09/03 19:05:31  5-MIN KSTC 100105Z AUTO 12005KT 10SM FEW017 BKN026 18/18 A2978 1160 96 1900 120/05 RMK AO2 RAE0058 P0000
14926KSTC STC20030709191013007/09/03 19:10:31  5-MIN KSTC 100110Z AUTO 12006KT 10SM FEW011 SCT022 BKN030 18/18 A2978 1160 96 1900 120/06 RMK AO2 RAE0058 P0000
14926KSTC STC20030709191513007/09/03 19:15:31  5-MIN KSTC 100115Z AUTO 13004KT 10SM FEW016 SCT022 BKN030 18/18 A2978 1160 96 1900 130/04 RMK AO2 RAE0058 P0000
14926KSTC STC20030709192013007/09/03 19:20:31  5-MIN KSTC 100120Z AUTO 13005KT 10SM BKN019 BKN024 OVC034 18/18 A2978 1160 96 1900 130/05 RMK AO2 RAE0058 P0000
14926KSTC STC20030709192513007/09/03 19:25:31  5-MIN KSTC 100125Z AUTO 13005KT 10SM BKN019 BKN028 OVC034 18/18 A2978 1160 96 1900 120/05 RMK AO2 RAE0058 P0000
14926KSTC STC20030709193013007/09/03 19:30:31  5-MIN KSTC 100130Z AUTO 13006KT 10SM SCT017 BKN021 OVC028 18/18 A2978 1160 96 1900 130/06 RMK AO2 RAE0058 P0000
14926KSTC STC20030709193512307/09/03 19:35:31  5-MIN KSTC 100135Z AUTO 13006KT 10SM SCT017 OVC021 18/18 A2977 1160 96 1900 130/06 RMK AO2 RAE0058 P0000
14926KSTC STC20030709194011607/09/03 19:40:31  5-MIN KSTC 100140Z AUTO 13006KT 10SM OVC019 18/18 A2977 1160 96 1900 130/06 RMK AO2 RAE0058 P0000
14926KSTC STC20030709194511607/09/03 19:45:31  5-MIN KSTC 100145Z AUTO 13006KT 10SM OVC019 18/18 A2977 1160 96 1900 120/06 RMK AO2 RAE0058 P0000
14926KSTC STC20030709195014007/09/03 19:50:31  5-MIN KSTC 100150Z AUTO 12004KT 10SM SCT016 OVC021 18/18 A2977 1160 96 1900 120/04 RMK AO2 RAE0058 SLP089 P0000 T01830178
14926KSTC STC20030709195510207/09/03 19:55:31  5-MIN KSTC 100155Z AUTO 13006KT 10SM OVC021 18/18 A2978 1160 96 1900 130/06 RMK AO2
14926KSTC STC20030709200010207/09/03 20:00:31  5-MIN KSTC 100200Z AUTO 13005KT 10SM OVC021 18/18 A2977 1160 96 1900 120/05 RMK AO2
14926KSTC STC20030709200510207/09/03 20:05:31  5-MIN KSTC 100205Z AUTO 12005KT 10SM OVC021 18/18 A2977 1160 96 1900 120/05 RMK AO2
14926KSTC STC20030709201010207/09/03 20:10:31  5-MIN KSTC 100210Z AUTO 11005KT 10SM OVC019 18/18 A2977 1170 96 1900 110/05 RMK AO2
14926KSTC STC20030709201511607/09/03 20:15:31  5-MIN KSTC 100215Z AUTO 10005KT 10SM BKN019 BKN027 OVC036 18/18 A2977 1160 96 1900 100/05 RMK AO2
14926KSTC STC20030709202011607/09/03 20:20:31  5-MIN KSTC 100220Z AUTO 11003KT 10SM BKN019 BKN027 OVC036 18/18 A2977 1160 96 1900 110/03 RMK AO2
14926KSTC STC20030709202510907/09/03 20:25:31  5-MIN KSTC 100225Z AUTO 12004KT 10SM BKN019 OVC027 18/18 A2977 1160 96 1900 120/04 RMK AO2
14926KSTC STC20030709203010907/09/03 20:30:31  5-MIN KSTC 100230Z AUTO 12005KT 10SM BKN017 OVC027 18/18 A2977 1170 96 1900 120/05 RMK AO2
14926KSTC STC20030709203510207/09/03 20:35:31  5-MIN KSTC 100235Z AUTO 12006KT 10SM OVC017 18/18 A2977 1160 96 1900 120/06 RMK AO2
14926KSTC STC20030709204010207/09/03 20:40:31  5-MIN KSTC 100240Z AUTO 12006KT 10SM OVC017 18/18 A2977 1170 96 1900 120/06 RMK AO2
14926KSTC STC20030709204510207/09/03 20:45:31  5-MIN KSTC 100245Z AUTO 11005KT 10SM OVC017 18/18 A2977 1160 96 1900 110/05 RMK AO2
14926KSTC STC20030709205013107/09/03 20:50:31  5-MIN KSTC 100250Z AUTO 11004KT 10SM OVC015 18/18 A2977 1160 96 1900 100/04 RMK AO2 SLP088 60013 T01830178 55015
14926KSTC STC20030709205510207/09/03 20:55:31  5-MIN KSTC 100255Z AUTO 11006KT 10SM OVC015 18/18 A2977 1160 96 1900 110/06 RMK AO2
14926KSTC STC20030709210010207/09/03 21:00:31  5-MIN KSTC 100300Z AUTO 10005KT 10SM OVC015 18/18 A2978 1160 96 1900 100/05 RMK AO2
14926KSTC STC20030709210510207/09/03 21:05:31  5-MIN KSTC 100305Z AUTO 10005KT 10SM OVC015 18/18 A2978 1160 96 1900 090/05 RMK AO2
14926KSTC STC20030709211010207/09/03 21:10:31  5-MIN KSTC 100310Z AUTO 10004KT 10SM OVC015 18/18 A2978 1160 96 1900 100/04 RMK AO2
14926KSTC STC20030709211511707/09/03 21:15:31  5-MIN KSTC 100315Z AUTO 11004KT 9SM -RA OVC015 18/18 A2977 1160 96 1900 110/04 RMK AO2 RAB14 P0000
14926KSTC STC20030709212011707/09/03 21:20:31  5-MIN KSTC 100320Z AUTO 11005KT 9SM -RA OVC015 18/18 A2977 1160 96 1900 100/05 RMK AO2 RAB14 P0000
14926KSTC STC20030709212511707/09/03 21:25:31  5-MIN KSTC 100325Z AUTO 11005KT 9SM -RA OVC015 18/18 A2977 1170 96 1900 110/05 RMK AO2 RAB14 P0001
14926KSTC STC20030709213011907/09/03 21:30:31  5-MIN KSTC 100330Z AUTO 12006KT 10SM -RA OVC013 18/18 A2977 1170 100 1800 110/06 RMK AO2 RAB14 P0001
14926KSTC STC20030709213511807/09/03 21:35:31  5-MIN KSTC 100335Z AUTO 12006KT 10SM OVC013 18/18 A2977 1170 100 1800 120/06 RMK AO2 RAB14E33 P0001
14926KSTC STC20030709214012607/09/03 21:40:31  5-MIN KSTC 100340Z AUTO 12007KT 10SM -RA BKN013 OVC018 18/18 A2977 1170 100 1800 110/07 RMK AO2 RAB14 P0001
14926KSTC STC20030709214513307/09/03 21:45:31  5-MIN KSTC 100345Z AUTO 13004KT 10SM -RA FEW005 SCT008 OVC013 18/18 A2976 1170 100 1800 130/04 RMK AO2 RAB14 P0001
14926KSTC STC20030709215014307/09/03 21:50:31  5-MIN KSTC 100350Z AUTO 12005KT 10SM -RA SCT005 OVC013 18/18 A2976 1180 100 1800 120/05 RMK AO2 RAB14 SLP084 P0001 T01780178
14926KSTC STC20030709215513907/09/03 21:55:31  5-MIN KSTC 100355Z AUTO 10006KT 10SM -RA BKN005 BKN011 OVC016 18/18 A2976 1180 100 1800 100/06 RMK AO2 CIG 003V008 P0000
14926KSTC STC20030709220013207/09/03 22:00:31  5-MIN KSTC 100400Z AUTO 11006KT 10SM -RA BKN005 OVC016 18/18 A2976 1180 100 1800 110/06 RMK AO2 CIG 003V011 P0001
14926KSTC STC20030709220513907/09/03 22:05:31  5-MIN KSTC 100405Z AUTO 11006KT 10SM -RA SCT005 BKN009 OVC014 18/18 A2976 1180 100 1800 110/06 RMK AO2 CIG 007V011 P0001
14926KSTC STC20030709221013407/09/03 22:10:31  5-MIN KSTC 100410Z AUTO 10005KT 10SM BKN005 OVC011 18/18 A2975 1180 100 1800 100/05 RMK AO2 RAE09 CIG 003V009 P0001
14926KSTC STC20030709221512707/09/03 22:15:31  5-MIN KSTC 100415Z AUTO 11006KT 10SM OVC007 18/18 A2975 1180 100 1800 110/06 RMK AO2 RAE09 CIG 003V011 P0001
14926KSTC STC20030709222012707/09/03 22:20:31  5-MIN KSTC 100420Z AUTO 11006KT 10SM OVC007 18/18 A2975 1180 100 1800 110/06 RMK AO2 RAE09 CIG 004V012 P0001
14926KSTC STC20030709222512707/09/03 22:25:31  5-MIN KSTC 100425Z AUTO 11006KT 10SM OVC007 18/18 A2975 1180 100 1800 110/06 RMK AO2 RAE09 CIG 004V011 P0001
14926KSTC STC20030709223012607/09/03 22:30:31  5-MIN KSTC 100430Z AUTO 00000KT 9SM OVC007 18/18 A2975 1180 100 1800 000/00 RMK AO2 RAE09 CIG 004V011 P0001
14926KSTC STC20030709223512707/09/03 22:35:31  5-MIN KSTC 100435Z AUTO 12003KT 10SM OVC007 18/18 A2975 1180 100 1800 120/03 RMK AO2 RAE09 CIG 003V010 P0001
14926KSTC STC20030709224012707/09/03 22:40:31  5-MIN KSTC 100440Z AUTO 10004KT 10SM OVC007 18/18 A2975 1180 100 1800 100/04 RMK AO2 RAE09 CIG 003V010 P0001
14926KSTC STC20030709224512607/09/03 22:45:31  5-MIN KSTC 100445Z AUTO 00000KT 9SM OVC007 18/18 A2976 1180 100 1800 000/00 RMK AO2 RAE09 CIG 003V010 P0001
14926KSTC STC20030709225014207/09/03 22:50:31  5-MIN KSTC 100450Z AUTO 00000KT 9SM OVC007 18/18 A2975 1180 96 1900 000/00 RMK AO2 RAE09 CIG 003V010 SLP081 P0001 T01830178
14926KSTC STC20030709225510807/09/03 22:55:31  5-MIN KSTC 100455Z AUTO 00000KT 9SM BKN003 OVC007 18/18 A2975 1180 96 1900 000/00 RMK AO2
14926KSTC STC20030709230013107/09/03 23:00:31  5-MIN KSTC 100500Z AUTO 14003KT 9SM -RA OVC005 18/18 A2975 1180 96 1900 140/03 RMK AO2 RAB0458 CIG 003V008 P0000
14926KSTC STC20030709230513807/09/03 23:05:31  5-MIN KSTC 100505Z AUTO 21005KT 9SM -RA BKN005 OVC014 18/18 A2976 1180 96 1900 210/05 RMK AO2 RAB0458 CIG 003V010 P0000
14926KSTC STC20030709231013807/09/03 23:10:31  5-MIN KSTC 100510Z AUTO 21004KT 10SM BKN005 OVC016 18/17 A2975 1180 96 1800 210/04 RMK AO2 RAB0458E09 CIG 003V010 P0000
14926KSTC STC20030709231514607/09/03 23:15:31  5-MIN KSTC 100515Z AUTO 23003KT 10SM -RA BKN005 BKN014 OVC048 18/17 A2975 1180 96 1800 230/03 RMK AO2 RAB0458 CIG 003V010 P0000
14926KSTC STC20030709232013407/09/03 23:20:31  5-MIN KSTC 100520Z AUTO 23003KT 10SM -RA FEW003 BKN014 OVC048 18/17 A2975 1180 96 1800 220/03 RMK AO2 RAB0458 P0000
14926KSTC STC20030709232513407/09/03 23:25:31  5-MIN KSTC 100525Z AUTO 00000KT 10SM -RA FEW004 BKN017 OVC048 18/17 A2975 1180 96 1800 000/00 RMK AO2 RAB0458 P0000
14926KSTC STC20030709233013407/09/03 23:30:31  5-MIN KSTC 100530Z AUTO 00000KT 10SM -RA FEW007 SCT017 OVC048 18/17 A2975 1190 96 1800 000/00 RMK AO2 RAB0458 P0000
14926KSTC STC20030709233512607/09/03 23:35:31  5-MIN KSTC 100535Z AUTO 00000KT 10SM FEW007 OVC048 18/17 A2975 1190 96 1800 000/00 RMK AO2 RAB0458E31 P0000
14926KSTC STC20030709234011907/09/03 23:40:31  5-MIN KSTC 100540Z AUTO 00000KT 10SM OVC050 18/17 A2975 1190 96 1800 000/00 RMK AO2 RAB0458E31 P0000
14926KSTC STC20030709234513307/09/03 23:45:31  5-MIN KSTC 100545Z AUTO 00000KT 10SM FEW007 BKN050 OVC065 18/17 A2974 1190 96 1800 000/00 RMK AO2 RAB0458E31 P0000
14926KSTC STC20030709235018407/09/03 23:50:31  5-MIN KSTC 100550Z AUTO 00000KT 10SM FEW007 BKN050 OVC065 18/17 A2974 1190 96 1800 000/00 RMK AO2 RAB0458E31 SLP077 P0000 60015 T01780172 10189 20178 402000144 56013
14926KSTC STC20030709235511607/09/03 23:55:31  5-MIN KSTC 100555Z AUTO 00000KT 10SM FEW007 BKN013 OVC050 18/17 A2975 1190 96 1800 000/00 RMK AO2
14926KSTC STC20030710000011707/10/03 00:00:31  5-MIN KSTC 100600Z AUTO 14003KT 10SM SCT007 BKN013 OVC050 17/17 A2975 1190 100 1800 140/03 RMK AO2
14926KSTC STC20030710000512907/10/03 00:05:31  5-MIN KSTC 100605Z AUTO 00000KT 10SM BKN007 BKN013 OVC050 17/17 A2974 1190 100 1800 000/00 RMK AO2 CIG 005V009
14926KSTC STC20030710001012107/10/03 00:10:31  5-MIN KSTC 100610Z AUTO 00000KT 10SM BKN007 OVC013 18/17 A2974 1190 96 1800 000/00 RMK AO2 CIG 005V009
14926KSTC STC20030710001512107/10/03 00:15:31  5-MIN KSTC 100615Z AUTO 00000KT 10SM BKN007 OVC013 18/17 A2974 1190 96 1800 000/00 RMK AO2 CIG 005V009
14926KSTC STC20030710002011407/10/03 00:20:31  5-MIN KSTC 100620Z AUTO 00000KT 10SM OVC005 18/17 A2974 1190 96 1800 000/00 RMK AO2 CIG 004V009
14926KSTC STC20030710002511507/10/03 00:25:31  5-MIN KSTC 100625Z AUTO 11003KT 10SM OVC005 17/17 A2974 1190 100 1800 110/03 RMK AO2 CIG 003V007
14926KSTC STC20030710003010307/10/03 00:30:31  5-MIN KSTC 100630Z AUTO 10003KT 10SM OVC005 17/17 A2974 1190 100 1800 100/03 RMK AO2
14926KSTC STC20030710003510307/10/03 00:35:31  5-MIN KSTC 100635Z AUTO 11003KT 10SM OVC005 17/17 A2974 1190 100 1800 100/03 RMK AO2
14926KSTC STC20030710004011007/10/03 00:40:31  5-MIN KSTC 100640Z AUTO 10003KT 10SM BKN005 OVC023 17/17 A2974 1190 100 1800 100/03 RMK AO2
14926KSTC STC20030710004510907/10/03 00:45:31  5-MIN KSTC 100645Z AUTO 10003KT 10SM BKN005 OVC023 17/17 A2974 1190 96 1800 100/03 RMK AO2
14926KSTC STC20030710005012607/10/03 00:50:31  5-MIN KSTC 100650Z AUTO 00000KT 10SM SCT005 OVC023 17/17 A2974 1190 96 1800 000/00 RMK AO2 SLP077 T01720167
14926KSTC STC20030710005511007/10/03 00:55:31  5-MIN KSTC 100655Z AUTO 11003KT 10SM FEW005 OVC023 17/17 A2974 1190 100 1700 100/03 RMK AO2
14926KSTC STC20030710010011007/10/03 01:00:31  5-MIN KSTC 100700Z AUTO 00000KT 10SM SCT005 OVC023 17/17 A2974 1190 100 1700 000/00 RMK AO2
14926KSTC STC20030710010510907/10/03 01:05:31  5-MIN KSTC 100705Z AUTO 00000KT 10SM SCT003 OVC023 17/17 A2975 1190 96 1800 000/00 RMK AO2
14926KSTC STC20030710011011007/10/03 01:10:31  5-MIN KSTC 100710Z AUTO 07003KT 10SM BKN003 OVC023 17/17 A2974 1190 100 1800 070/03 RMK AO2
14926KSTC STC20030710011511007/10/03 01:15:31  5-MIN KSTC 100715Z AUTO 06005KT 10SM BKN003 OVC023 17/17 A2974 1190 100 1800 060/05 RMK AO2
14926KSTC STC20030710012010907/10/03 01:20:31  5-MIN KSTC 100720Z AUTO 06005KT 9SM BKN003 OVC021 17/17 A2974 1190 100 1800 060/05 RMK AO2
14926KSTC STC20030710012510207/10/03 01:25:31  5-MIN KSTC 100725Z AUTO 08003KT 9SM OVC003 17/17 A2974 1190 100 1800 070/03 RMK AO2
14926KSTC STC20030710013010207/10/03 01:30:31  5-MIN KSTC 100730Z AUTO 09006KT 9SM OVC003 17/17 A2975 1190 100 1800 080/06 RMK AO2
14926KSTC STC20030710013511007/10/03 01:35:31  5-MIN KSTC 100735Z AUTO 07004KT 10SM BKN003 OVC018 17/17 A2975 1190 100 1800 070/04 RMK AO2
14926KSTC STC20030710014011507/10/03 01:40:31  5-MIN KSTC 100740Z AUTO 07005KT 10SM OVC003 17/17 A2974 1190 100 1800 070/05 RMK AO2 CIG 002V007
14926KSTC STC20030710014512207/10/03 01:45:31  5-MIN KSTC 100745Z AUTO 08005KT 10SM BKN003 OVC013 17/17 A2974 1190 100 1800 070/05 RMK AO2 CIG 002V007
14926KSTC STC20030710015013407/10/03 01:50:31  5-MIN KSTC 100750Z AUTO 08004KT 10SM BKN003 BKN007 OVC013 17/17 A2974 1190 100 1800 070/04 RMK AO2 SLP077 T01720172
14926KSTC STC20030710015511007/10/03 01:55:31  5-MIN KSTC 100755Z AUTO 05004KT 10SM BKN003 OVC018 17/17 A2974 1190 100 1800 050/04 RMK AO2
14926KSTC STC20030710020010307/10/03 02:00:31  5-MIN KSTC 100800Z AUTO 05004KT 10SM OVC003 17/17 A2974 1190 100 1800 050/04 RMK AO2
14926KSTC STC20030710020511507/10/03 02:05:31  5-MIN KSTC 100805Z AUTO 06003KT 10SM OVC003 17/17 A2975 1190 100 1800 060/03 RMK AO2 CIG 002V008
14926KSTC STC20030710021011407/10/03 02:10:31  5-MIN KSTC 100810Z AUTO 06004KT 10SM OVC003 17/17 A2975 1190 96 1800 060/04 RMK AO2 CIG 002V008
14926KSTC STC20030710021510307/10/03 02:15:31  5-MIN KSTC 100815Z AUTO 06003KT 10SM OVC003 17/17 A2975 1190 100 1800 050/03 RMK AO2
14926KSTC STC20030710022010207/10/03 02:20:31  5-MIN KSTC 100820Z AUTO 04004KT 10SM OVC003 17/17 A2975 1190 96 1800 040/04 RMK AO2
14926KSTC STC20030710022510207/10/03 02:25:31  5-MIN KSTC 100825Z AUTO 04004KT 10SM OVC003 17/17 A2975 1190 96 1800 030/04 RMK AO2
14926KSTC STC20030710023010207/10/03 02:30:31  5-MIN KSTC 100830Z AUTO 03004KT 10SM OVC003 17/17 A2975 1190 96 1800 030/04 RMK AO2
14926KSTC STC20030710023510207/10/03 02:35:31  5-MIN KSTC 100835Z AUTO 03003KT 10SM OVC003 17/17 A2975 1190 96 1800 030/03 RMK AO2
14926KSTC STC20030710024010207/10/03 02:40:31  5-MIN KSTC 100840Z AUTO 03004KT 10SM OVC003 17/17 A2975 1180 96 1800 030/04 RMK AO2
14926KSTC STC20030710024510207/10/03 02:45:31  5-MIN KSTC 100845Z AUTO 03003KT 10SM OVC003 17/17 A2975 1190 96 1800 030/03 RMK AO2
14926KSTC STC20030710025012507/10/03 02:50:31  5-MIN KSTC 100850Z AUTO 03003KT 10SM OVC003 17/17 A2975 1190 96 1800 030/03 RMK AO2 SLP079 T01720167 56009
14926KSTC STC20030710025510107/10/03 02:55:31  5-MIN KSTC 100855Z AUTO VRB04KT 9SM OVC003 17/17 A2975 1190 96 1800 VRB/04 RMK AO2
14926KSTC STC20030710030010207/10/03 03:00:31  5-MIN KSTC 100900Z AUTO 05005KT 9SM OVC003 17/17 A2975 1180 100 1700 050/05 RMK AO2
14926KSTC STC20030710030510307/10/03 03:05:31  5-MIN KSTC 100905Z AUTO 05006KT 10SM OVC003 17/17 A2975 1180 100 1700 050/06 RMK AO2
14926KSTC STC20030710031010207/10/03 03:10:31  5-MIN KSTC 100910Z AUTO 05006KT 9SM OVC003 17/17 A2975 1180 100 1700 040/06 RMK AO2
14926KSTC STC20030710031510207/10/03 03:15:31  5-MIN KSTC 100915Z AUTO 05005KT 9SM OVC003 17/17 A2975 1190 100 1700 050/05 RMK AO2
14926KSTC STC20030710032010207/10/03 03:20:31  5-MIN KSTC 100920Z AUTO 05005KT 8SM OVC003 17/17 A2975 1190 100 1700 050/05 RMK AO2
14926KSTC STC20030710032510207/10/03 03:25:31  5-MIN KSTC 100925Z AUTO 06004KT 7SM OVC003 17/17 A2974 1190 100 1700 060/04 RMK AO2
14926KSTC STC20030710033010207/10/03 03:30:31  5-MIN KSTC 100930Z AUTO 04004KT 7SM OVC003 17/17 A2975 1190 100 1700 040/04 RMK AO2
14926KSTC STC20030710033510207/10/03 03:35:31  5-MIN KSTC 100935Z AUTO 04003KT 7SM OVC003 17/17 A2975 1180 100 1700 030/03 RMK AO2
14926KSTC STC20030710034010207/10/03 03:40:31  5-MIN KSTC 100940Z AUTO 03004KT 7SM OVC003 17/17 A2975 1180 100 1700 020/04 RMK AO2
14926KSTC STC20030710034510207/10/03 03:45:31  5-MIN KSTC 100945Z AUTO 02003KT 8SM OVC003 17/17 A2975 1180 100 1700 020/03 RMK AO2
14926KSTC STC20030710035011907/10/03 03:50:31  5-MIN KSTC 100950Z AUTO 01003KT 8SM OVC003 17/17 A2975 1180 100 1700 360/03 RMK AO2 SLP080 T01670167
14926KSTC STC20030710035510207/10/03 03:55:31  5-MIN KSTC 100955Z AUTO 02003KT 8SM OVC003 17/17 A2975 1180 100 1700 020/03 RMK AO2
14926KSTC STC20030710040010207/10/03 04:00:31  5-MIN KSTC 101000Z AUTO 35004KT 8SM OVC003 17/17 A2975 1180 100 1700 350/04 RMK AO2
14926KSTC STC20030710040510207/10/03 04:05:31  5-MIN KSTC 101005Z AUTO 33005KT 7SM OVC003 17/17 A2975 1180 100 1700 330/05 RMK AO2
14926KSTC STC20030710041012107/10/03 04:10:31  5-MIN KSTC 101010Z AUTO 35006KT 6SM -RA BR OVC003 17/17 A2975 1180 100 1700 340/06 RMK AO2 RAB07 P0001
14926KSTC STC20030710041512107/10/03 04:15:31  5-MIN KSTC 101015Z AUTO 34004KT 6SM -RA BR OVC003 17/17 A2975 1180 100 1700 340/04 RMK AO2 RAB07 P0001
14926KSTC STC20030710042011707/10/03 04:20:31  5-MIN KSTC 101020Z AUTO 33005KT 7SM OVC003 17/17 A2976 1180 100 1700 330/05 RMK AO2 RAB07E19 P0001
14926KSTC STC20030710042511707/10/03 04:25:31  5-MIN KSTC 101025Z AUTO 34005KT 7SM OVC003 17/17 A2976 1180 100 1700 330/05 RMK AO2 RAB07E19 P0001
14926KSTC STC20030710043012907/10/03 04:30:31  5-MIN KSTC 101030Z AUTO 32010KT 7SM OVC003 17/17 A2976 1170 100 1700 320/10 RMK AO2 RAB07E19 CIG 002V007 P0001
14926KSTC STC20030710043512907/10/03 04:35:31  5-MIN KSTC 101035Z AUTO 32011KT 7SM OVC003 16/16 A2976 1170 100 1500 320/11 RMK AO2 RAB07E19 CIG 002V007 P0001
14926KSTC STC20030710044012807/10/03 04:40:31  5-MIN KSTC 101040Z AUTO 32011KT 9SM OVC003 16/15 A2977 1170 96 1500 320/11 RMK AO2 RAB07E19 CIG 002V007 P0001
14926KSTC STC20030710044511807/10/03 04:45:31  5-MIN KSTC 101045Z AUTO 32012KT 10SM OVC003 15/15 A2977 1160 100 1500 320/12 RMK AO2 RAB07E19 P0002
14926KSTC STC20030710045013507/10/03 04:50:31  5-MIN KSTC 101050Z AUTO 32010KT 10SM OVC003 15/15 A2977 1160 100 1500 320/10 RMK AO2 RAB07E19 SLP089 P0002 T01500150
14926KSTC STC20030710045510207/10/03 04:55:31  5-MIN KSTC 101055Z AUTO 33010KT 10SM OVC003 15/14 A2977 1170 96 1500 330/10 RMK AO2
14926KSTC STC20030710050010207/10/03 05:00:31  5-MIN KSTC 101100Z AUTO 33012KT 10SM OVC003 15/14 A2977 1160 96 1500 330/12 RMK AO2
14926KSTC STC20030710050510207/10/03 05:05:31  5-MIN KSTC 101105Z AUTO 34010KT 10SM OVC003 15/14 A2977 1160 96 1500 330/10 RMK AO2
14926KSTC STC20030710051010307/10/03 05:10:31  5-MIN KSTC 101110Z AUTO 34008KT 10SM OVC003 14/14 A2978 1160 100 1400 340/08 RMK AO2
14926KSTC STC20030710051510307/10/03 05:15:31  5-MIN KSTC 101115Z AUTO 34012KT 10SM OVC003 14/14 A2978 1160 100 1400 330/12 RMK AO2
14926KSTC STC20030710052011007/10/03 05:20:31  5-MIN KSTC 101120Z AUTO 34012KT 10SM BKN003 OVC009 14/14 A2978 1160 100 1400 330/12 RMK AO2
14926KSTC STC20030710052512107/10/03 05:25:31  5-MIN KSTC 101125Z AUTO 34011KT 10SM BKN003 OVC011 14/14 A2978 1150 96 1400 330/11 RMK AO2 CIG 003V006
14926KSTC STC20030710053012107/10/03 05:30:31  5-MIN KSTC 101130Z AUTO 34010KT 10SM BKN003 OVC011 14/14 A2979 1150 96 1400 340/10 RMK AO2 CIG 003V006
14926KSTC STC20030710053512107/10/03 05:35:31  5-MIN KSTC 101135Z AUTO 34011KT 10SM BKN003 OVC011 14/14 A2979 1150 96 1400 340/11 RMK AO2 CIG 003V006
14926KSTC STC20030710054010907/10/03 05:40:31  5-MIN KSTC 101140Z AUTO 34010KT 10SM BKN005 OVC011 14/14 A2979 1150 96 1400 340/10 RMK AO2
14926KSTC STC20030710054512107/10/03 05:45:31  5-MIN KSTC 101145Z AUTO 34011KT 10SM BKN005 OVC011 14/14 A2979 1150 96 1400 340/11 RMK AO2 CIG 004V009
14926KSTC STC20030710055016807/10/03 05:50:31  5-MIN KSTC 101150Z AUTO 34010KT 10SM BKN005 OVC011 14/14 A2979 1150 96 1400 340/10 RMK AO2 CIG 004V009 SLP094 60002 70020 T01440139 10178 20144 53001
14926KSTC STC20030710055512107/10/03 05:55:31  5-MIN KSTC 101155Z AUTO 34010KT 10SM BKN005 OVC011 14/14 A2979 1150 96 1400 330/10 RMK AO2 CIG 004V009
14926KSTC STC20030710060012607/10/03 06:00:31  5-MIN KSTC 101200Z AUTO 34009G15KT 9SM BKN005 OVC011 14/14 A2979 1140 96 1400 330/09G15 RMK AO2 CIG 003V008
14926KSTC STC20030710060512007/10/03 06:05:31  5-MIN KSTC 101205Z AUTO 34010KT 9SM BKN005 OVC011 14/14 A2980 1140 96 1400 340/10 RMK AO2 CIG 003V008
14926KSTC STC20030710061011407/10/03 06:10:31  5-MIN KSTC 101210Z AUTO 34008KT 10SM OVC005 14/14 A2980 1140 96 1400 340/08 RMK AO2 CIG 003V008
14926KSTC STC20030710061511407/10/03 06:15:31  5-MIN KSTC 101215Z AUTO 34011KT 10SM OVC005 14/14 A2980 1140 96 1400 330/11 RMK AO2 CIG 003V008
14926KSTC STC20030710062011407/10/03 06:20:31  5-MIN KSTC 101220Z AUTO 33012KT 10SM OVC005 14/14 A2980 1130 96 1400 330/12 RMK AO2 CIG 003V008
14926KSTC STC20030710062512107/10/03 06:25:31  5-MIN KSTC 101225Z AUTO 34010KT 10SM BKN005 OVC014 14/14 A2981 1130 96 1400 330/10 RMK AO2 CIG 003V010
14926KSTC STC20030710063012107/10/03 06:30:31  5-MIN KSTC 101230Z AUTO 34009KT 10SM BKN005 OVC014 14/14 A2981 1130 96 1400 340/09 RMK AO2 CIG 003V010
14926KSTC STC20030710063512107/10/03 06:35:31  5-MIN KSTC 101235Z AUTO 34010KT 10SM BKN005 OVC011 14/14 A2981 1130 96 1400 330/10 RMK AO2 CIG 003V009
14926KSTC STC20030710064012007/10/03 06:40:31  5-MIN KSTC 101240Z AUTO 34009G16KT 10SM OVC007 14/14 A2981 1130 96 1400 330/09G16 RMK AO2 CIG 005V010
14926KSTC STC20030710064512007/10/03 06:45:31  5-MIN KSTC 101245Z AUTO 33011G16KT 10SM OVC007 14/14 A2981 1130 96 1400 330/11G16 RMK AO2 CIG 005V010
14926KSTC STC20030710065013107/10/03 06:50:31  5-MIN KSTC 101250Z AUTO 33009KT 10SM OVC007 14/14 A2981 1130 96 1400 330/09 RMK AO2 CIG 005V012 SLP101 T01440139
14926KSTC STC20030710065511407/10/03 06:55:31  5-MIN KSTC 101255Z AUTO 34010KT 10SM OVC009 14/14 A2981 1130 96 1400 340/10 RMK AO2 CIG 005V013
14926KSTC STC20030710070011407/10/03 07:00:31  5-MIN KSTC 101300Z AUTO 34011KT 10SM OVC009 14/14 A2981 1130 96 1400 340/11 RMK AO2 CIG 005V013
14926KSTC STC20030710070511407/10/03 07:05:31  5-MIN KSTC 101305Z AUTO 34011KT 10SM OVC009 14/14 A2981 1130 96 1400 340/11 RMK AO2 CIG 005V011
14926KSTC STC20030710071011407/10/03 07:10:31  5-MIN KSTC 101310Z AUTO 34010KT 10SM OVC009 14/14 A2982 1120 96 1400 340/10 RMK AO2 CIG 006V011
14926KSTC STC20030710071511407/10/03 07:15:31  5-MIN KSTC 101315Z AUTO 32013KT 10SM OVC009 14/14 A2982 1120 96 1400 320/13 RMK AO2 CIG 005V013
14926KSTC STC20030710072011407/10/03 07:20:31  5-MIN KSTC 101320Z AUTO 33012KT 10SM OVC009 14/14 A2982 1120 96 1400 320/12 RMK AO2 CIG 005V011
14926KSTC STC20030710072511407/10/03 07:25:31  5-MIN KSTC 101325Z AUTO 34009KT 10SM OVC006 14/14 A2982 1120 96 1400 340/09 RMK AO2 CIG 005V011
14926KSTC STC20030710073011407/10/03 07:30:31  5-MIN KSTC 101330Z AUTO 33011KT 10SM OVC008 14/14 A2982 1120 96 1400 330/11 RMK AO2 CIG 005V013
14926KSTC STC20030710073511407/10/03 07:35:31  5-MIN KSTC 101335Z AUTO 33008KT 10SM OVC008 14/14 A2982 1120 96 1400 330/08 RMK AO2 CIG 005V011
14926KSTC STC20030710074011407/10/03 07:40:31  5-MIN KSTC 101340Z AUTO 34011KT 10SM OVC008 14/13 A2982 1120 93 1400 330/11 RMK AO2 CIG 005V011
14926KSTC STC20030710074511407/10/03 07:45:31  5-MIN KSTC 101345Z AUTO 33009KT 10SM OVC008 14/13 A2982 1120 93 1400 330/09 RMK AO2 CIG 005V011
14926KSTC STC20030710075013707/10/03 07:50:31  5-MIN KSTC 101350Z AUTO 33011G17KT 10SM OVC008 14/13 A2982 1120 93 1300 330/11G17 RMK AO2 CIG 006V011 SLP106 T01440133
14926KSTC STC20030710075512007/10/03 07:55:31  5-MIN KSTC 101355Z AUTO 33012G17KT 10SM OVC008 14/13 A2983 1110 93 1300 330/12G17 RMK AO2 CIG 007V011
14926KSTC STC20030710080010807/10/03 08:00:31  5-MIN KSTC 101400Z AUTO 33013G18KT 10SM OVC010 14/13 A2983 1110 93 1300 330/13G18 RMK AO2
14926KSTC STC20030710080510807/10/03 08:05:31  5-MIN KSTC 101405Z AUTO 33013G18KT 10SM OVC010 14/13 A2983 1110 93 1300 330/13G18 RMK AO2
14926KSTC STC20030710081010807/10/03 08:10:31  5-MIN KSTC 101410Z AUTO 33011G17KT 10SM OVC010 14/13 A2983 1110 93 1300 330/11G17 RMK AO2
14926KSTC STC20030710081510807/10/03 08:15:31  5-MIN KSTC 101415Z AUTO 34009G17KT 10SM OVC012 14/13 A2983 1110 93 1300 330/09G17 RMK AO2
14926KSTC STC20030710082011507/10/03 08:20:31  5-MIN KSTC 101420Z AUTO 33012G16KT 10SM BKN012 OVC019 15/13 A2983 1110 90 1400 330/12G16 RMK AO2
14926KSTC STC20030710082511507/10/03 08:25:31  5-MIN KSTC 101425Z AUTO 32012G16KT 10SM BKN012 OVC019 15/13 A2983 1110 90 1400 320/12G16 RMK AO2
14926KSTC STC20030710083011507/10/03 08:30:31  5-MIN KSTC 101430Z AUTO 33012G16KT 10SM BKN012 OVC019 15/13 A2984 1110 90 1400 330/12G16 RMK AO2
14926KSTC STC20030710083511507/10/03 08:35:31  5-MIN KSTC 101435Z AUTO 32014G18KT 10SM BKN012 OVC020 14/13 A2983 1110 93 1300 320/14G18 RMK AO2
14926KSTC STC20030710084010807/10/03 08:40:31  5-MIN KSTC 101440Z AUTO 33014G18KT 10SM OVC014 15/13 A2984 1100 90 1400 320/14G18 RMK AO2
14926KSTC STC20030710084510207/10/03 08:45:31  5-MIN KSTC 101445Z AUTO 33012KT 10SM OVC014 15/13 A2984 1100 90 1400 320/12 RMK AO2
14926KSTC STC20030710085013107/10/03 08:50:31  5-MIN KSTC 101450Z AUTO 33012G18KT 10SM OVC016 15/13 A2984 1100 90 1400 330/12G18 RMK AO2 SLP111 T01500133 53015
14926KSTC STC20030710085510807/10/03 08:55:31  5-MIN KSTC 101455Z AUTO 32010G18KT 10SM OVC016 15/13 A2984 1100 90 1400 320/10G18 RMK AO2
14926KSTC STC20030710090010207/10/03 09:00:31  5-MIN KSTC 101500Z AUTO 32013KT 10SM OVC016 15/13 A2984 1100 90 1400 320/13 RMK AO2
14926KSTC STC20030710090510207/10/03 09:05:31  5-MIN KSTC 101505Z AUTO 33009KT 10SM OVC015 15/13 A2984 1100 90 1400 330/09 RMK AO2
14926KSTC STC20030710091011507/10/03 09:10:31  5-MIN KSTC 101510Z AUTO 33011G17KT 10SM BKN013 OVC018 15/13 A2984 1100 90 1400 330/11G17 RMK AO2
14926KSTC STC20030710091511507/10/03 09:15:31  5-MIN KSTC 101515Z AUTO 33014G18KT 10SM BKN015 OVC019 15/13 A2984 1100 90 1400 330/14G18 RMK AO2
14926KSTC STC20030710092010807/10/03 09:20:31  5-MIN KSTC 101520Z AUTO 33013G19KT 10SM OVC015 16/13 A2984 1100 86 1500 330/13G19 RMK AO2
14926KSTC STC20030710092510807/10/03 09:25:31  5-MIN KSTC 101525Z AUTO 33014G19KT 10SM OVC015 16/13 A2984 1100 86 1500 330/14G19 RMK AO2
14926KSTC STC20030710093010807/10/03 09:30:31  5-MIN KSTC 101530Z AUTO 34011G19KT 10SM OVC015 16/13 A2984 1100 83 1500 330/11G19 RMK AO2
14926KSTC STC20030710093510807/10/03 09:35:31  5-MIN KSTC 101535Z AUTO 33013G19KT 10SM OVC017 16/13 A2984 1100 83 1500 330/13G19 RMK AO2
14926KSTC STC20030710094010807/10/03 09:40:31  5-MIN KSTC 101540Z AUTO 34010G17KT 10SM OVC017 16/13 A2984 1100 83 1500 340/10G17 RMK AO2
14926KSTC STC20030710094510807/10/03 09:45:31  5-MIN KSTC 101545Z AUTO 32011G19KT 10SM OVC017 16/13 A2984 1100 83 1500 320/11G19 RMK AO2
14926KSTC STC20030710095012507/10/03 09:50:31  5-MIN KSTC 101550Z AUTO 32017G21KT 10SM OVC019 16/13 A2984 1100 80 1500 320/17G21 RMK AO2 SLP112 T01610128
14926KSTC STC20030710095510807/10/03 09:55:31  5-MIN KSTC 101555Z AUTO 33012G21KT 10SM OVC019 16/13 A2984 1100 80 1500 330/12G21 RMK AO2
14926KSTC STC20030710100010807/10/03 10:00:31  5-MIN KSTC 101600Z AUTO 33013G20KT 10SM OVC019 16/13 A2985 1090 83 1500 330/13G20 RMK AO2
14926KSTC STC20030710100510807/10/03 10:05:31  5-MIN KSTC 101605Z AUTO 33013G20KT 10SM OVC019 16/13 A2985 1100 80 1500 330/13G20 RMK AO2
14926KSTC STC20030710101010207/10/03 10:10:31  5-MIN KSTC 101610Z AUTO 34010KT 10SM OVC021 17/13 A2984 1100 80 1600 330/10 RMK AO2
14926KSTC STC20030710101511507/10/03 10:15:31  5-MIN KSTC 101615Z AUTO 32013G18KT 10SM BKN020 OVC024 17/13 A2985 1090 80 1600 320/13G18 RMK AO2
14926KSTC STC20030710102010807/10/03 10:20:31  5-MIN KSTC 101620Z AUTO 32012G18KT 10SM OVC020 16/13 A2985 1090 80 1500 310/12G18 RMK AO2
14926KSTC STC20030710102510207/10/03 10:25:31  5-MIN KSTC 101625Z AUTO 32013KT 10SM OVC020 16/13 A2986 1090 83 1500 310/13 RMK AO2
14926KSTC STC20030710103010207/10/03 10:30:31  5-MIN KSTC 101630Z AUTO 32013KT 10SM OVC020 16/13 A2986 1090 83 1500 310/13 RMK AO2
14926KSTC STC20030710103510807/10/03 10:35:31  5-MIN KSTC 101635Z AUTO 33011G18KT 10SM OVC020 16/13 A2985 1090 83 1500 330/11G18 RMK AO2
14926KSTC STC20030710104010807/10/03 10:40:31  5-MIN KSTC 101640Z AUTO 32012G20KT 10SM OVC020 16/13 A2985 1090 83 1500 320/12G20 RMK AO2
14926KSTC STC20030710104511507/10/03 10:45:31  5-MIN KSTC 101645Z AUTO 32010G20KT 10SM BKN020 OVC026 17/13 A2985 1090 80 1600 320/10G20 RMK AO2
14926KSTC STC20030710105012607/10/03 10:50:31  5-MIN KSTC 101650Z AUTO 33013KT 10SM BKN020 OVC028 17/13 A2986 1090 80 1600 330/13 RMK AO2 SLP117 T01670133
14926KSTC STC20030710105510907/10/03 10:55:31  5-MIN KSTC 101655Z AUTO 33012KT 10SM BKN020 OVC028 17/13 A2985 1090 77 1600 330/12 RMK AO2
14926KSTC STC20030710110011507/10/03 11:00:31  5-MIN KSTC 101700Z AUTO 33015G19KT 10SM BKN020 OVC028 17/13 A2985 1090 80 1600 320/15G19 RMK AO2
14926KSTC STC20030710110511507/10/03 11:05:31  5-MIN KSTC 101705Z AUTO 33016G21KT 10SM BKN020 OVC028 17/13 A2985 1090 75 1600 330/16G21 RMK AO2
14926KSTC STC20030710111011507/10/03 11:10:31  5-MIN KSTC 101710Z AUTO 35016G21KT 10SM SCT020 OVC028 18/13 A2985 1090 75 1700 340/16G21 RMK AO2
14926KSTC STC20030710111511507/10/03 11:15:31  5-MIN KSTC 101715Z AUTO 32014G19KT 10SM SCT020 OVC028 18/13 A2985 1090 75 1700 320/14G19 RMK AO2
14926KSTC STC20030710112011507/10/03 11:20:31  5-MIN KSTC 101720Z AUTO 32016G20KT 10SM BKN020 OVC030 17/13 A2985 1090 78 1600 310/16G20 RMK AO2
14926KSTC STC20030710112511507/10/03 11:25:31  5-MIN KSTC 101725Z AUTO 33013G21KT 10SM BKN022 OVC030 18/13 A2985 1090 75 1700 320/13G21 RMK AO2
14926KSTC STC20030710113011507/10/03 11:30:31  5-MIN KSTC 101730Z AUTO 33018G24KT 10SM SCT022 OVC030 18/13 A2985 1090 75 1700 330/18G24 RMK AO2
14926KSTC STC20030710113511507/10/03 11:35:31  5-MIN KSTC 101735Z AUTO 33014G24KT 10SM SCT022 OVC030 18/13 A2986 1080 75 1700 320/14G24 RMK AO2
14926KSTC STC20030710114011507/10/03 11:40:31  5-MIN KSTC 101740Z AUTO 34013G19KT 10SM SCT022 OVC032 18/13 A2986 1080 72 1800 340/13G19 RMK AO2
14926KSTC STC20030710114512207/10/03 11:45:31  5-MIN KSTC 101745Z AUTO 32015G21KT 10SM SCT022 BKN027 OVC032 18/13 A2986 1080 75 1700 320/15G21 RMK AO2
14926KSTC STC20030710115015007/10/03 11:50:31  5-MIN KSTC 101750Z AUTO 32013G22KT 10SM BKN025 OVC032 18/13 A2987 1080 72 1800 320/13G22 RMK AO2 SLP119 T01830133 10183 20144 51016
14926KSTC STC20030710115511507/10/03 11:55:31  5-MIN KSTC 101755Z AUTO 31017G22KT 10SM SCT025 OVC032 18/14 A2987 1080 78 1700 310/17G22 RMK AO2
14926KSTC STC20030710120011507/10/03 12:00:31  5-MIN KSTC 101800Z AUTO 32015G23KT 10SM SCT025 OVC032 18/13 A2986 1080 75 1700 320/15G23 RMK AO2
14926KSTC STC20030710120511507/10/03 12:05:31  5-MIN KSTC 101805Z AUTO 34014G23KT 10SM SCT025 OVC032 18/13 A2986 1080 72 1800 330/14G23 RMK AO2
14926KSTC STC20030710121011507/10/03 12:10:31  5-MIN KSTC 101810Z AUTO 34010G17KT 10SM SCT025 OVC034 18/13 A2986 1080 72 1800 330/10G17 RMK AO2
14926KSTC STC20030710121510907/10/03 12:15:31  5-MIN KSTC 101815Z AUTO 32012KT 10SM FEW025 BKN034 19/14 A2985 1090 72 1800 320/12 RMK AO2
14926KSTC STC20030710122011507/10/03 12:20:31  5-MIN KSTC 101820Z AUTO 34009G18KT 10SM SCT029 BKN038 19/14 A2985 1090 70 1900 330/09G18 RMK AO2
14926KSTC STC20030710122511507/10/03 12:25:31  5-MIN KSTC 101825Z AUTO 34014G18KT 10SM SCT029 BKN038 19/14 A2985 1090 70 1900 340/14G18 RMK AO2
14926KSTC STC20030710123011507/10/03 12:30:31  5-MIN KSTC 101830Z AUTO 33015G20KT 10SM FEW029 BKN038 19/13 A2985 1090 67 1900 330/15G20 RMK AO2
14926KSTC STC20030710123511507/10/03 12:35:31  5-MIN KSTC 101835Z AUTO 32015G20KT 10SM FEW029 SCT038 19/13 A2985 1100 67 1900 320/15G20 RMK AO2
14926KSTC STC20030710124010907/10/03 12:40:31  5-MIN KSTC 101840Z AUTO 34013KT 10SM FEW029 SCT038 19/13 A2984 1100 67 1900 330/13 RMK AO2
14926KSTC STC20030710124511507/10/03 12:45:31  5-MIN KSTC 101845Z AUTO 32017G22KT 10SM SCT031 SCT040 20/13 A2984 1100 65 2000 310/17G22 RMK AO2
14926KSTC STC20030710125012507/10/03 12:50:31  5-MIN KSTC 101850Z AUTO 32011G22KT 10SM SCT031 21/14 A2984 1100 65 2000 320/11G22 RMK AO2 SLP110 T02060139
14926KSTC STC20030710125511507/10/03 12:55:31  5-MIN KSTC 101855Z AUTO 34010G18KT 10SM SCT031 SCT039 21/14 A2984 1100 65 2000 340/10G18 RMK AO2
14926KSTC STC20030710130010807/10/03 13:00:31  5-MIN KSTC 101900Z AUTO 33013G17KT 10SM SCT034 20/13 A2984 1100 65 2000 330/13G17 RMK AO2
14926KSTC STC20030710130510807/10/03 13:05:31  5-MIN KSTC 101905Z AUTO 34010G17KT 10SM SCT034 21/13 A2984 1100 63 2000 330/10G17 RMK AO2
14926KSTC STC20030710131010807/10/03 13:10:31  5-MIN KSTC 101910Z AUTO 34011G17KT 10SM SCT034 21/13 A2984 1100 63 2000 340/11G17 RMK AO2
14926KSTC STC20030710131510807/10/03 13:15:31  5-MIN KSTC 101915Z AUTO 34009G17KT 10SM SCT036 21/13 A2984 1100 63 2000 340/09G17 RMK AO2
14926KSTC STC20030710132010807/10/03 13:20:31  5-MIN KSTC 101920Z AUTO 33012G16KT 10SM SCT036 21/13 A2984 1100 60 2000 330/12G16 RMK AO2
14926KSTC STC20030710132510207/10/03 13:25:31  5-MIN KSTC 101925Z AUTO 33013KT 10SM SCT036 20/13 A2985 1100 63 2000 330/13 RMK AO2
14926KSTC STC20030710133010907/10/03 13:30:31  5-MIN KSTC 101930Z AUTO 33013KT 10SM FEW036 SCT045 20/13 A2985 1090 63 2000 330/13 RMK AO2
14926KSTC STC20030710133511607/10/03 13:35:31  5-MIN KSTC 101935Z AUTO 34011KT 10SM FEW036 SCT049 BKN055 20/13 A2985 1090 63 2000 340/11 RMK AO2
14926KSTC STC20030710134010907/10/03 13:40:31  5-MIN KSTC 101940Z AUTO 33010KT 10SM SCT042 BKN049 19/13 A2985 1090 65 1900 330/10 RMK AO2
14926KSTC STC20030710134511607/10/03 13:45:31  5-MIN KSTC 101945Z AUTO 34010KT 10SM SCT042 BKN049 BKN055 19/13 A2985 1090 67 1900 330/10 RMK AO2
14926KSTC STC20030710135013307/10/03 13:50:31  5-MIN KSTC 101950Z AUTO 33009KT 10SM SCT042 BKN049 BKN060 20/13 A2985 1090 65 2000 320/09 RMK AO2 SLP113 T02000133
14926KSTC STC20030710135510907/10/03 13:55:31  5-MIN KSTC 101955Z AUTO 33010KT 10SM SCT044 OVC060 21/13 A2984 1100 63 2000 330/10 RMK AO2
14926KSTC STC20030710140012207/10/03 14:00:31  5-MIN KSTC 102000Z AUTO 32011G17KT 10SM FEW041 SCT050 BKN060 21/13 A2985 1100 63 2000 320/11G17 RMK AO2
14926KSTC STC20030710140512207/10/03 14:05:31  5-MIN KSTC 102005Z AUTO 32016G22KT 10SM FEW041 SCT048 BKN060 22/13 A2984 1100 56 2200 320/16G22 RMK AO2
14926KSTC STC20030710141011507/10/03 14:10:31  5-MIN KSTC 102010Z AUTO 33014G22KT 10SM FEW043 BKN060 21/13 A2984 1100 60 2000 330/14G22 RMK AO2
14926KSTC STC20030710141510207/10/03 14:15:31  5-MIN KSTC 102015Z AUTO 30015KT 10SM SCT060 21/13 A2985 1090 61 2100 300/15 RMK AO2
14926KSTC STC20030710142010907/10/03 14:20:31  5-MIN KSTC 102020Z AUTO 32014KT 10SM FEW060 SCT100 21/13 A2984 1100 61 2100 320/14 RMK AO2
14926KSTC STC20030710142510207/10/03 14:25:31  5-MIN KSTC 102025Z AUTO 33012KT 10SM FEW065 21/13 A2984 1100 60 2000 320/12 RMK AO2
14926KSTC STC20030710143010907/10/03 14:30:31  5-MIN KSTC 102030Z AUTO 33009KT 10SM SCT065 SCT100 20/13 A2984 1100 63 2000 330/09 RMK AO2
14926KSTC STC20030710143510907/10/03 14:35:31  5-MIN KSTC 102035Z AUTO 32012KT 10SM SCT065 BKN100 20/13 A2984 1100 65 2000 320/12 RMK AO2
14926KSTC STC20030710144010207/10/03 14:40:31  5-MIN KSTC 102040Z AUTO 31013KT 10SM BKN065 20/13 A2984 1100 65 2000 310/13 RMK AO2
14926KSTC STC20030710144513107/10/03 14:45:31  5-MIN KSTC 102045Z AUTO 31015G20KT 10SM -RA FEW029 BKN065 19/14 A2984 1100 70 1900 300/15G20 RMK AO2 RAB43 P0000
14926KSTC STC20030710145016707/10/03 14:50:31  5-MIN KSTC 102050Z AUTO 30014G20KT 10SM -RA FEW035 BKN065 BKN090 19/14 A2985 1090 72 1800 300/14G20 RMK AO2 RAB43 SLP113 P0000 60000 T01890139 53009
14926KSTC STC20030710145512607/10/03 14:55:31  5-MIN KSTC 102055Z AUTO 31013KT 10SM -RA FEW047 BKN065 BKN090 19/14 A2985 1090 75 1800 310/13 RMK AO2 P0000
14926KSTC STC20030710150013007/10/03 15:00:31  5-MIN KSTC 102100Z AUTO 31015KT 10SM FEW038 SCT065 BKN090 19/14 A2985 1090 72 1800 310/15 RMK AO2 RAE2057 P0000
14926KSTC STC20030710150512607/10/03 15:05:31  5-MIN KSTC 102105Z AUTO 32015KT 10SM -RA SCT034 SCT044 BKN060 18/14 A2985 1090 75 1800 320/15 RMK AO2 P0000
14926KSTC STC20030710151013207/10/03 15:10:31  5-MIN KSTC 102110Z AUTO 32014G22KT 10SM -RA SCT033 BKN044 BKN090 18/14 A2986 1090 81 1700 320/14G22 RMK AO2 P0000
14926KSTC STC20030710151513207/10/03 15:15:31  5-MIN KSTC 102115Z AUTO 32016G22KT 10SM -RA FEW029 BKN044 OVC090 18/14 A2986 1080 81 1700 320/16G22 RMK AO2 P0000
14926KSTC STC20030710152013207/10/03 15:20:31  5-MIN KSTC 102120Z AUTO 32013G21KT 10SM -RA SCT031 BKN042 OVC090 17/14 A2986 1080 83 1600 320/13G21 RMK AO2 P0001
14926KSTC STC20030710152512607/10/03 15:25:31  5-MIN KSTC 102125Z AUTO 32013KT 10SM -RA FEW031 BKN042 OVC050 18/15 A2986 1080 83 1700 320/13 RMK AO2 P0001
14926KSTC STC20030710153012607/10/03 15:30:31  5-MIN KSTC 102130Z AUTO 32014KT 10SM -RA FEW031 BKN047 OVC055 18/14 A2986 1080 81 1700 320/14 RMK AO2 P0001
14926KSTC STC20030710153512807/10/03 15:35:31  5-MIN KSTC 102135Z AUTO 32011KT 10SM FEW028 BKN048 OVC060 18/15 A2986 1080 83 1700 320/11 RMK AO2 RAE34 P0001
14926KSTC STC20030710154012807/10/03 15:40:31  5-MIN KSTC 102140Z AUTO 33012KT 10SM FEW028 BKN060 OVC080 18/15 A2986 1080 81 1800 330/12 RMK AO2 RAE34 P0001
14926KSTC STC20030710154513407/10/03 15:45:31  5-MIN KSTC 102145Z AUTO 32016G20KT 10SM SCT049 BKN060 OVC085 19/15 A2986 1080 78 1800 310/16G20 RMK AO2 RAE34 P0001
14926KSTC STC20030710155015107/10/03 15:50:31  5-MIN KSTC 102150Z AUTO 32015G20KT 10SM FEW049 SCT060 BKN080 19/14 A2986 1080 75 1800 320/15G20 RMK AO2 RAE34 SLP118 P0001 T01890144
14926KSTC STC20030710155511507/10/03 15:55:31  5-MIN KSTC 102155Z AUTO 32016G20KT 10SM FEW060 BKN080 19/14 A2986 1080 72 1900 320/16G20 RMK AO2
14926KSTC STC20030710160012207/10/03 16:00:31  5-MIN KSTC 102200Z AUTO 32014G20KT 10SM FEW026 SCT060 BKN080 20/14 A2986 1080 70 2000 320/14G20 RMK AO2
14926KSTC STC20030710160512207/10/03 16:05:31  5-MIN KSTC 102205Z AUTO 32012G18KT 10SM FEW026 SCT060 BKN080 20/14 A2986 1080 70 2000 320/12G18 RMK AO2
14926KSTC STC20030710161011507/10/03 16:10:31  5-MIN KSTC 102210Z AUTO 33012G18KT 10SM FEW026 BKN080 20/14 A2986 1080 67 2000 330/12G18 RMK AO2
14926KSTC STC20030710161510907/10/03 16:15:31  5-MIN KSTC 102215Z AUTO 32015KT 10SM SCT026 BKN080 20/14 A2986 1080 70 2000 320/15 RMK AO2
14926KSTC STC20030710162011507/10/03 16:20:31  5-MIN KSTC 102220Z AUTO 33013G17KT 10SM BKN026 BKN090 20/14 A2986 1080 67 2000 330/13G17 RMK AO2
14926KSTC STC20030710162511507/10/03 16:25:31  5-MIN KSTC 102225Z AUTO 33013G18KT 10SM SCT026 BKN095 19/14 A2986 1080 72 1800 330/13G18 RMK AO2
14926KSTC STC20030710163010907/10/03 16:30:31  5-MIN KSTC 102230Z AUTO 33013KT 10SM SCT026 BKN080 19/13 A2986 1080 70 1800 330/13 RMK AO2
14926KSTC STC20030710163511507/10/03 16:35:31  5-MIN KSTC 102235Z AUTO 33012G18KT 10SM SCT026 BKN080 19/13 A2986 1080 70 1800 330/12G18 RMK AO2
14926KSTC STC20030710164011507/10/03 16:40:31  5-MIN KSTC 102240Z AUTO 34011G17KT 10SM FEW026 BKN080 19/13 A2986 1080 70 1800 340/11G17 RMK AO2
14926KSTC STC20030710164511507/10/03 16:45:31  5-MIN KSTC 102245Z AUTO 34011G17KT 10SM FEW026 BKN080 19/14 A2986 1080 72 1800 340/11G17 RMK AO2
14926KSTC STC20030710165011907/10/03 16:50:31  5-MIN KSTC 102250Z AUTO 34013KT 10SM OVC075 19/14 A2986 1080 72 1800 340/13 RMK AO2 SLP119 T01890139
14926KSTC STC20030710165510207/10/03 16:55:31  5-MIN KSTC 102255Z AUTO 33011KT 10SM OVC075 19/13 A2986 1080 70 1800 330/11 RMK AO2
14926KSTC STC20030710170010907/10/03 17:00:31  5-MIN KSTC 102300Z AUTO 34010KT 10SM BKN070 OVC080 18/14 A2987 1080 75 1800 340/10 RMK AO2
14926KSTC STC20030710170510907/10/03 17:05:31  5-MIN KSTC 102305Z AUTO 34012KT 10SM BKN065 OVC080 18/13 A2987 1080 72 1800 340/12 RMK AO2
14926KSTC STC20030710171010207/10/03 17:10:31  5-MIN KSTC 102310Z AUTO 35008KT 10SM OVC065 18/13 A2986 1080 72 1800 350/08 RMK AO2
14926KSTC STC20030710171510207/10/03 17:15:31  5-MIN KSTC 102315Z AUTO 34008KT 10SM OVC065 18/14 A2986 1080 75 1800 340/08 RMK AO2
14926KSTC STC20030710172010207/10/03 17:20:31  5-MIN KSTC 102320Z AUTO 32009KT 10SM OVC060 19/14 A2986 1080 72 1800 320/09 RMK AO2
14926KSTC STC20030710172510207/10/03 17:25:31  5-MIN KSTC 102325Z AUTO 32009KT 10SM OVC060 19/14 A2986 1080 75 1800 320/09 RMK AO2
14926KSTC STC20030710173010207/10/03 17:30:31  5-MIN KSTC 102330Z AUTO 34010KT 10SM OVC060 18/14 A2986 1080 75 1800 330/10 RMK AO2
14926KSTC STC20030710173510907/10/03 17:35:31  5-MIN KSTC 102335Z AUTO 33011KT 10SM BKN060 BKN095 19/14 A2986 1080 72 1800 330/11 RMK AO2
14926KSTC STC20030710174010907/10/03 17:40:31  5-MIN KSTC 102340Z AUTO 32011KT 10SM BKN055 BKN095 19/14 A2986 1080 70 1900 320/11 RMK AO2
14926KSTC STC20030710174510207/10/03 17:45:31  5-MIN KSTC 102345Z AUTO 33007KT 10SM SCT055 19/14 A2986 1080 72 1800 330/07 RMK AO2
14926KSTC STC20030710175014307/10/03 17:50:31  5-MIN KSTC 102350Z AUTO 33010KT 10SM FEW055 18/14 A2986 1080 75 1800 320/10 RMK AO2 SLP118 60001 T01830139 10217 20172 55007
14926KSTC STC20030710175510207/10/03 17:55:31  5-MIN KSTC 102355Z AUTO 32010KT 10SM FEW055 19/14 A2986 1080 72 1800 320/10 RMK AO2
14926KSTC STC20030710180010807/10/03 18:00:31  5-MIN KSTC 110000Z AUTO 32013G17KT 10SM FEW070 19/14 A2986 1090 70 1900 320/13G17 RMK AO2
14926KSTC STC20030710180510807/10/03 18:05:31  5-MIN KSTC 110005Z AUTO 32011G17KT 10SM FEW070 20/14 A2986 1080 67 2000 320/11G17 RMK AO2
14926KSTC STC20030710181011507/10/03 18:10:31  5-MIN KSTC 110010Z AUTO 31015G21KT 10SM FEW038 SCT070 20/13 A2986 1090 65 2000 310/15G21 RMK AO2
14926KSTC STC20030710181511507/10/03 18:15:31  5-MIN KSTC 110015Z AUTO 32012G21KT 10SM SCT036 BKN070 20/13 A2986 1090 65 2000 320/12G21 RMK AO2
14926KSTC STC20030710182010907/10/03 18:20:31  5-MIN KSTC 110020Z AUTO 32012KT 10SM SCT036 BKN070 19/13 A2986 1090 67 1900 310/12 RMK AO2
14926KSTC STC20030710182510907/10/03 18:25:31  5-MIN KSTC 110025Z AUTO 33012KT 10SM SCT036 BKN070 19/13 A2986 1080 65 1900 320/12 RMK AO2
14926KSTC STC20030710183010907/10/03 18:30:31  5-MIN KSTC 110030Z AUTO 33010KT 10SM SCT036 BKN070 19/13 A2986 1080 67 1800 330/10 RMK AO2
14926KSTC STC20030710183510907/10/03 18:35:31  5-MIN KSTC 110035Z AUTO 33010KT 10SM SCT034 OVC070 19/13 A2986 1080 70 1800 330/10 RMK AO2
14926KSTC STC20030710184010907/10/03 18:40:31  5-MIN KSTC 110040Z AUTO 32011KT 10SM FEW034 OVC070 19/13 A2986 1080 70 1800 320/11 RMK AO2
14926KSTC STC20030710184510907/10/03 18:45:31  5-MIN KSTC 110045Z AUTO 33010KT 10SM FEW034 OVC070 19/13 A2986 1080 67 1800 320/10 RMK AO2
14926KSTC STC20030710185012607/10/03 18:50:31  5-MIN KSTC 110050Z AUTO 33012KT 10SM FEW034 OVC070 19/13 A2986 1080 67 1800 330/12 RMK AO2 SLP119 T01890128
14926KSTC STC20030710185510907/10/03 18:55:31  5-MIN KSTC 110055Z AUTO 32009KT 10SM FEW034 OVC070 19/13 A2986 1080 70 1800 320/09 RMK AO2
14926KSTC STC20030710190010907/10/03 19:00:31  5-MIN KSTC 110100Z AUTO 32011KT 10SM FEW050 OVC070 19/13 A2986 1080 70 1800 310/11 RMK AO2
14926KSTC STC20030710190510907/10/03 19:05:31  5-MIN KSTC 110105Z AUTO 32013KT 10SM FEW046 BKN070 19/13 A2987 1080 70 1800 320/13 RMK AO2
14926KSTC STC20030710191010907/10/03 19:10:31  5-MIN KSTC 110110Z AUTO 33010KT 10SM FEW046 BKN070 19/13 A2986 1080 67 1800 320/10 RMK AO2
14926KSTC STC20030710191510907/10/03 19:15:31  5-MIN KSTC 110115Z AUTO 32009KT 10SM FEW046 SCT065 18/13 A2987 1080 70 1800 320/09 RMK AO2
14926KSTC STC20030710192010207/10/03 19:20:31  5-MIN KSTC 110120Z AUTO 32010KT 10SM FEW065 18/13 A2987 1080 70 1800 320/10 RMK AO2
14926KSTC STC20030710192510907/10/03 19:25:31  5-MIN KSTC 110125Z AUTO 33010KT 10SM FEW041 SCT065 18/13 A2987 1070 70 1800 320/10 RMK AO2
14926KSTC STC20030710193010907/10/03 19:30:31  5-MIN KSTC 110130Z AUTO 32009KT 10SM FEW041 SCT060 18/13 A2987 1070 70 1800 320/09 RMK AO2
14926KSTC STC20030710193510907/10/03 19:35:31  5-MIN KSTC 110135Z AUTO 32010KT 10SM FEW039 SCT060 18/13 A2987 1070 75 1700 320/10 RMK AO2
14926KSTC STC20030710194010907/10/03 19:40:31  5-MIN KSTC 110140Z AUTO 32010KT 10SM FEW035 SCT060 18/13 A2987 1070 75 1700 310/10 RMK AO2
14926KSTC STC20030710194511607/10/03 19:45:31  5-MIN KSTC 110145Z AUTO 32010KT 10SM FEW035 SCT041 SCT060 18/13 A2987 1070 75 1700 310/10 RMK AO2
14926KSTC STC20030710195013307/10/03 19:50:31  5-MIN KSTC 110150Z AUTO 33008KT 10SM FEW035 SCT041 SCT060 18/13 A2987 1070 75 1700 320/08 RMK AO2 SLP124 T01780133
14926KSTC STC20030710195510907/10/03 19:55:31  5-MIN KSTC 110155Z AUTO 32008KT 10SM FEW035 SCT060 17/13 A2987 1070 78 1600 320/08 RMK AO2
14926KSTC STC20030710200010907/10/03 20:00:31  5-MIN KSTC 110200Z AUTO 32007KT 10SM FEW035 SCT060 17/13 A2988 1070 78 1600 320/07 RMK AO2
14926KSTC STC20030710200510207/10/03 20:05:31  5-MIN KSTC 110205Z AUTO 33006KT 10SM FEW035 17/13 A2988 1070 78 1600 330/06 RMK AO2
14926KSTC STC20030710201010207/10/03 20:10:31  5-MIN KSTC 110210Z AUTO 32007KT 10SM FEW035 17/13 A2988 1060 78 1600 320/07 RMK AO2
14926KSTC STC20030710201509907/10/03 20:15:31  5-MIN KSTC 110215Z AUTO 32007KT 10SM CLR 17/13 A2988 1060 80 1500 320/07 RMK AO2
14926KSTC STC20030710202009907/10/03 20:20:31  5-MIN KSTC 110220Z AUTO 32007KT 10SM CLR 17/13 A2988 1060 80 1500 320/07 RMK AO2
14926KSTC STC20030710202509907/10/03 20:25:31  5-MIN KSTC 110225Z AUTO 32007KT 10SM CLR 17/13 A2988 1060 80 1500 320/07 RMK AO2
14926KSTC STC20030710203009907/10/03 20:30:31  5-MIN KSTC 110230Z AUTO 32006KT 10SM CLR 16/13 A2989 1060 83 1500 310/06 RMK AO2
14926KSTC STC20030710203509907/10/03 20:35:31  5-MIN KSTC 110235Z AUTO 31006KT 10SM CLR 15/13 A2989 1060 90 1300 310/06 RMK AO2
14926KSTC STC20030710204009907/10/03 20:40:31  5-MIN KSTC 110240Z AUTO 32006KT 10SM CLR 15/13 A2989 1060 90 1300 310/06 RMK AO2
14926KSTC STC20030710204509907/10/03 20:45:31  5-MIN KSTC 110245Z AUTO 32006KT 10SM CLR 16/13 A2989 1060 86 1400 310/06 RMK AO2
14926KSTC STC20030710205012207/10/03 20:50:31  5-MIN KSTC 110250Z AUTO 32007KT 10SM CLR 15/13 A2989 1050 86 1300 310/07 RMK AO2 SLP130 T01500128 50004
14926KSTC STC20030710205509907/10/03 20:55:31  5-MIN KSTC 110255Z AUTO 31007KT 10SM CLR 15/13 A2989 1050 86 1300 310/07 RMK AO2
14926KSTC STC20030710210009907/10/03 21:00:31  5-MIN KSTC 110300Z AUTO 30006KT 10SM CLR 14/13 A2989 1050 93 1300 300/06 RMK AO2
14926KSTC STC20030710210509907/10/03 21:05:31  5-MIN KSTC 110305Z AUTO 30006KT 10SM CLR 14/13 A2989 1050 90 1300 300/06 RMK AO2
14926KSTC STC20030710211009907/10/03 21:10:31  5-MIN KSTC 110310Z AUTO 30006KT 10SM CLR 14/13 A2989 1050 90 1300 300/06 RMK AO2
14926KSTC STC20030710211509907/10/03 21:15:31  5-MIN KSTC 110315Z AUTO 30005KT 10SM CLR 14/13 A2989 1050 90 1300 300/05 RMK AO2
14926KSTC STC20030710212009907/10/03 21:20:31  5-MIN KSTC 110320Z AUTO 29006KT 10SM CLR 14/13 A2989 1050 90 1300 290/06 RMK AO2
14926KSTC STC20030710212509907/10/03 21:25:31  5-MIN KSTC 110325Z AUTO 29005KT 10SM CLR 14/13 A2989 1050 93 1200 290/05 RMK AO2
14926KSTC STC20030710213009907/10/03 21:30:31  5-MIN KSTC 110330Z AUTO 29005KT 10SM CLR 14/13 A2989 1050 90 1300 280/05 RMK AO2
14926KSTC STC20030710213509907/10/03 21:35:31  5-MIN KSTC 110335Z AUTO 29005KT 10SM CLR 15/13 A2989 1050 86 1300 280/05 RMK AO2
14926KSTC STC20030710214009907/10/03 21:40:31  5-MIN KSTC 110340Z AUTO 29007KT 10SM CLR 15/13 A2989 1050 86 1300 280/07 RMK AO2
14926KSTC STC20030710214509907/10/03 21:45:31  5-MIN KSTC 110345Z AUTO 28006KT 10SM CLR 15/13 A2989 1050 90 1300 280/06 RMK AO2
14926KSTC STC20030710215011607/10/03 21:50:31  5-MIN KSTC 110350Z AUTO 28006KT 10SM CLR 15/13 A2989 1050 86 1300 280/06 RMK AO2 SLP129 T01500128
14926KSTC STC20030710215509907/10/03 21:55:31  5-MIN KSTC 110355Z AUTO 28006KT 10SM CLR 15/13 A2989 1060 86 1300 280/06 RMK AO2
14926KSTC STC20030710220009907/10/03 22:00:31  5-MIN KSTC 110400Z AUTO 29006KT 10SM CLR 15/13 A2989 1060 86 1300 290/06 RMK AO2
14926KSTC STC20030710220509907/10/03 22:05:31  5-MIN KSTC 110405Z AUTO 28006KT 10SM CLR 15/13 A2989 1060 90 1300 280/06 RMK AO2
14926KSTC STC20030710221009907/10/03 22:10:31  5-MIN KSTC 110410Z AUTO 29005KT 10SM CLR 15/13 A2988 1060 90 1300 290/05 RMK AO2
14926KSTC STC20030710221509907/10/03 22:15:31  5-MIN KSTC 110415Z AUTO 30004KT 10SM CLR 14/13 A2988 1060 90 1300 290/04 RMK AO2
14926KSTC STC20030710222009907/10/03 22:20:31  5-MIN KSTC 110420Z AUTO 29004KT 10SM CLR 14/13 A2988 1060 90 1300 290/04 RMK AO2
14926KSTC STC20030710222509907/10/03 22:25:31  5-MIN KSTC 110425Z AUTO 30004KT 10SM CLR 14/13 A2988 1060 93 1200 300/04 RMK AO2
14926KSTC STC20030710223009907/10/03 22:30:31  5-MIN KSTC 110430Z AUTO 29004KT 10SM CLR 14/13 A2988 1060 93 1200 290/04 RMK AO2
14926KSTC STC20030710223509907/10/03 22:35:31  5-MIN KSTC 110435Z AUTO 28004KT 10SM CLR 14/13 A2988 1060 93 1200 280/04 RMK AO2
14926KSTC STC20030710224009907/10/03 22:40:31  5-MIN KSTC 110440Z AUTO 27004KT 10SM CLR 14/13 A2988 1060 90 1300 270/04 RMK AO2
14926KSTC STC20030710224509907/10/03 22:45:31  5-MIN KSTC 110445Z AUTO 27004KT 10SM CLR 14/13 A2988 1060 93 1200 270/04 RMK AO2
14926KSTC STC20030710225011607/10/03 22:50:31  5-MIN KSTC 110450Z AUTO 28004KT 10SM CLR 14/13 A2988 1070 93 1200 280/04 RMK AO2 SLP125 T01390128
14926KSTC STC20030710225509907/10/03 22:55:31  5-MIN KSTC 110455Z AUTO 28003KT 10SM CLR 14/13 A2987 1070 93 1200 280/03 RMK AO2
14926KSTC STC20030710230009907/10/03 23:00:31  5-MIN KSTC 110500Z AUTO 00000KT 10SM CLR 14/13 A2987 1070 93 1200 000/00 RMK AO2
14926KSTC STC20030710230509907/10/03 23:05:31  5-MIN KSTC 110505Z AUTO 27003KT 10SM CLR 14/13 A2987 1070 90 1300 270/03 RMK AO2
14926KSTC STC20030710231009907/10/03 23:10:31  5-MIN KSTC 110510Z AUTO 27003KT 10SM CLR 14/13 A2987 1070 93 1200 260/03 RMK AO2
14926KSTC STC20030710231509907/10/03 23:15:31  5-MIN KSTC 110515Z AUTO 27003KT 10SM CLR 14/13 A2987 1070 93 1200 270/03 RMK AO2
14926KSTC STC20030710232009907/10/03 23:20:31  5-MIN KSTC 110520Z AUTO 27003KT 10SM CLR 14/13 A2987 1070 93 1200 260/03 RMK AO2
14926KSTC STC20030710232509907/10/03 23:25:31  5-MIN KSTC 110525Z AUTO 26005KT 10SM CLR 14/13 A2987 1070 93 1200 260/05 RMK AO2
14926KSTC STC20030710233009907/10/03 23:30:31  5-MIN KSTC 110530Z AUTO 26004KT 10SM CLR 14/13 A2987 1070 93 1200 260/04 RMK AO2
14926KSTC STC20030710233509907/10/03 23:35:31  5-MIN KSTC 110535Z AUTO 27003KT 10SM CLR 13/13 A2987 1070 96 1200 270/03 RMK AO2
14926KSTC STC20030710234009907/10/03 23:40:31  5-MIN KSTC 110540Z AUTO 28004KT 10SM CLR 13/13 A2987 1070 96 1200 280/04 RMK AO2
14926KSTC STC20030710234509907/10/03 23:45:31  5-MIN KSTC 110545Z AUTO 28006KT 10SM CLR 14/13 A2987 1080 93 1200 280/06 RMK AO2
14926KSTC STC20030710235014407/10/03 23:50:31  5-MIN KSTC 110550Z AUTO 27005KT 10SM CLR 14/13 A2987 1080 93 1300 270/05 RMK AO2 SLP120 T01440133 10200 20133 402170133 53011
14926KSTC STC20030710235509907/10/03 23:55:31  5-MIN KSTC 110555Z AUTO 28005KT 10SM CLR 14/13 A2986 1080 93 1300 270/05 RMK AO2
14926KSTC STC20030711000009907/11/03 00:00:31  5-MIN KSTC 110600Z AUTO 27004KT 10SM CLR 14/13 A2986 1080 96 1200 270/04 RMK AO2
14926KSTC STC20030711000509907/11/03 00:05:31  5-MIN KSTC 110605Z AUTO 27005KT 10SM CLR 14/13 A2986 1080 93 1200 270/05 RMK AO2
14926KSTC STC20030711001009907/11/03 00:10:31  5-MIN KSTC 110610Z AUTO 28004KT 10SM CLR 14/13 A2986 1080 93 1200 270/04 RMK AO2
14926KSTC STC20030711001509907/11/03 00:15:31  5-MIN KSTC 110615Z AUTO 27003KT 10SM CLR 14/13 A2986 1080 93 1200 270/03 RMK AO2
14926KSTC STC20030711002009907/11/03 00:20:31  5-MIN KSTC 110620Z AUTO 00000KT 10SM CLR 14/13 A2986 1080 93 1200 000/00 RMK AO2
14926KSTC STC20030711002509907/11/03 00:25:31  5-MIN KSTC 110625Z AUTO 00000KT 10SM CLR 14/13 A2986 1080 93 1200 000/00 RMK AO2
14926KSTC STC20030711003009907/11/03 00:30:31  5-MIN KSTC 110630Z AUTO 00000KT 10SM CLR 14/13 A2986 1080 93 1200 000/00 RMK AO2
14926KSTC STC20030711003509907/11/03 00:35:31  5-MIN KSTC 110635Z AUTO 00000KT 10SM CLR 14/13 A2986 1080 93 1300 000/00 RMK AO2
14926KSTC STC20030711004009907/11/03 00:40:31  5-MIN KSTC 110640Z AUTO 26003KT 10SM CLR 14/13 A2986 1080 93 1300 260/03 RMK AO2
14926KSTC STC20030711004509907/11/03 00:45:31  5-MIN KSTC 110645Z AUTO 00000KT 10SM CLR 14/13 A2986 1080 93 1300 000/00 RMK AO2
14926KSTC STC20030711005011607/11/03 00:50:31  5-MIN KSTC 110650Z AUTO 24003KT 10SM CLR 14/13 A2986 1090 96 1200 240/03 RMK AO2 SLP117 T01390133
14926KSTC STC20030711005510007/11/03 00:55:31  5-MIN KSTC 110655Z AUTO 00000KT 10SM CLR 13/13 A2986 1090 100 1200 000/00 RMK AO2
14926KSTC STC20030711010009907/11/03 01:00:31  5-MIN KSTC 110700Z AUTO 00000KT 10SM CLR 14/13 A2986 1090 93 1200 000/00 RMK AO2
14926KSTC STC20030711010509907/11/03 01:05:31  5-MIN KSTC 110705Z AUTO 26003KT 10SM CLR 14/13 A2986 1080 93 1200 260/03 RMK AO2
14926KSTC STC20030711011009907/11/03 01:10:31  5-MIN KSTC 110710Z AUTO 27004KT 10SM CLR 13/13 A2986 1080 96 1200 260/04 RMK AO2
14926KSTC STC20030711011510207/11/03 01:15:31  5-MIN KSTC 110715Z AUTO 26004KT 10SM FEW120 13/13 A2986 1080 96 1200 260/04 RMK AO2
14926KSTC STC20030711012010207/11/03 01:20:31  5-MIN KSTC 110720Z AUTO 25006KT 10SM SCT120 13/13 A2986 1090 96 1200 250/06 RMK AO2
14926KSTC STC20030711012510207/11/03 01:25:31  5-MIN KSTC 110725Z AUTO 25006KT 10SM BKN120 14/13 A2986 1080 96 1200 250/06 RMK AO2
14926KSTC STC20030711013010207/11/03 01:30:31  5-MIN KSTC 110730Z AUTO 26006KT 10SM SCT120 14/13 A2986 1090 96 1200 250/06 RMK AO2
14926KSTC STC20030711013510207/11/03 01:35:31  5-MIN KSTC 110735Z AUTO 26005KT 10SM SCT120 14/13 A2986 1090 96 1200 260/05 RMK AO2
14926KSTC STC20030711014010207/11/03 01:40:31  5-MIN KSTC 110740Z AUTO 26005KT 10SM SCT120 14/13 A2985 1090 96 1300 260/05 RMK AO2
14926KSTC STC20030711014510207/11/03 01:45:31  5-MIN KSTC 110745Z AUTO 27004KT 10SM FEW120 14/13 A2985 1090 96 1300 260/04 RMK AO2
14926KSTC STC20030711015011907/11/03 01:50:31  5-MIN KSTC 110750Z AUTO 27005KT 10SM FEW120 14/13 A2985 1090 96 1300 260/05 RMK AO2 SLP115 T01390133
14926KSTC STC20030711015510207/11/03 01:55:31  5-MIN KSTC 110755Z AUTO 27005KT 10SM FEW110 14/13 A2985 1090 96 1300 260/05 RMK AO2
14926KSTC STC20030711020010207/11/03 02:00:31  5-MIN KSTC 110800Z AUTO 27005KT 10SM FEW110 14/13 A2984 1100 96 1300 260/05 RMK AO2
14926KSTC STC20030711020510207/11/03 02:05:31  5-MIN KSTC 110805Z AUTO 27004KT 10SM FEW110 14/13 A2984 1100 96 1300 270/04 RMK AO2
14926KSTC STC20030711021010207/11/03 02:10:31  5-MIN KSTC 110810Z AUTO 27004KT 10SM FEW110 14/13 A2984 1100 96 1300 260/04 RMK AO2
14926KSTC STC20030711021510207/11/03 02:15:31  5-MIN KSTC 110815Z AUTO 27005KT 10SM FEW110 14/13 A2984 1100 96 1300 270/05 RMK AO2
14926KSTC STC20030711022010207/11/03 02:20:31  5-MIN KSTC 110820Z AUTO 28006KT 10SM FEW110 14/14 A2984 1100 96 1300 280/06 RMK AO2
14926KSTC STC20030711022509907/11/03 02:25:31  5-MIN KSTC 110825Z AUTO 29007KT 10SM CLR 14/14 A2984 1100 96 1300 280/07 RMK AO2
14926KSTC STC20030711023009907/11/03 02:30:31  5-MIN KSTC 110830Z AUTO 28007KT 10SM CLR 15/14 A2984 1100 93 1400 280/07 RMK AO2
14926KSTC STC20030711023509907/11/03 02:35:31  5-MIN KSTC 110835Z AUTO 29008KT 10SM CLR 15/14 A2984 1100 93 1400 280/08 RMK AO2
14926KSTC STC20030711024009907/11/03 02:40:31  5-MIN KSTC 110840Z AUTO 29007KT 10SM CLR 15/14 A2984 1100 93 1400 290/07 RMK AO2
14926KSTC STC20030711024509907/11/03 02:45:31  5-MIN KSTC 110845Z AUTO 29007KT 10SM CLR 15/14 A2984 1100 93 1400 290/07 RMK AO2
14926KSTC STC20030711025012207/11/03 02:50:31  5-MIN KSTC 110850Z AUTO 30007KT 10SM CLR 15/14 A2984 1100 93 1400 290/07 RMK AO2 SLP112 T01500139 58009
14926KSTC STC20030711025509907/11/03 02:55:31  5-MIN KSTC 110855Z AUTO 30007KT 10SM CLR 15/14 A2984 1100 93 1400 300/07 RMK AO2
14926KSTC STC20030711030009907/11/03 03:00:31  5-MIN KSTC 110900Z AUTO 30006KT 10SM CLR 15/14 A2984 1100 93 1400 300/06 RMK AO2
14926KSTC STC20030711030509907/11/03 03:05:31  5-MIN KSTC 110905Z AUTO 31005KT 10SM CLR 15/14 A2984 1100 93 1400 300/05 RMK AO2
14926KSTC STC20030711031009907/11/03 03:10:31  5-MIN KSTC 110910Z AUTO 31004KT 10SM CLR 14/13 A2984 1100 93 1300 310/04 RMK AO2
14926KSTC STC20030711031509907/11/03 03:15:31  5-MIN KSTC 110915Z AUTO 30005KT 10SM CLR 14/13 A2984 1100 96 1300 300/05 RMK AO2
14926KSTC STC20030711032009907/11/03 03:20:31  5-MIN KSTC 110920Z AUTO 31005KT 10SM CLR 14/13 A2984 1100 96 1300 300/05 RMK AO2
14926KSTC STC20030711032509907/11/03 03:25:31  5-MIN KSTC 110925Z AUTO 30005KT 10SM CLR 14/13 A2984 1100 96 1300 300/05 RMK AO2
14926KSTC STC20030711033009907/11/03 03:30:31  5-MIN KSTC 110930Z AUTO 30006KT 10SM CLR 14/13 A2984 1100 96 1300 300/06 RMK AO2
14926KSTC STC20030711033510007/11/03 03:35:31  5-MIN KSTC 110935Z AUTO 30005KT 10SM CLR 13/13 A2984 1100 100 1200 300/05 RMK AO2
14926KSTC STC20030711034010007/11/03 03:40:31  5-MIN KSTC 110940Z AUTO 30006KT 10SM CLR 13/13 A2984 1100 100 1200 290/06 RMK AO2
14926KSTC STC20030711034509907/11/03 03:45:31  5-MIN KSTC 110945Z AUTO 30005KT 10SM CLR 14/13 A2984 1100 96 1300 300/05 RMK AO2
14926KSTC STC20030711035011607/11/03 03:50:31  5-MIN KSTC 110950Z AUTO 30005KT 10SM CLR 14/13 A2984 1100 96 1300 300/05 RMK AO2 SLP112 T01390133
14926KSTC STC20030711035509907/11/03 03:55:31  5-MIN KSTC 110955Z AUTO 31005KT 10SM CLR 14/13 A2984 1100 96 1300 300/05 RMK AO2
14926KSTC STC20030711040009907/11/03 04:00:31  5-MIN KSTC 111000Z AUTO 32004KT 10SM CLR 14/13 A2984 1100 96 1300 320/04 RMK AO2
14926KSTC STC20030711040509907/11/03 04:05:31  5-MIN KSTC 111005Z AUTO 32005KT 10SM CLR 14/14 A2984 1100 96 1300 320/05 RMK AO2
14926KSTC STC20030711041009907/11/03 04:10:31  5-MIN KSTC 111010Z AUTO 33004KT 10SM CLR 14/13 A2984 1100 93 1300 330/04 RMK AO2
14926KSTC STC20030711041509907/11/03 04:15:31  5-MIN KSTC 111015Z AUTO 32003KT 10SM CLR 14/13 A2984 1100 96 1300 320/03 RMK AO2
14926KSTC STC20030711042009907/11/03 04:20:31  5-MIN KSTC 111020Z AUTO 32004KT 10SM CLR 14/13 A2985 1100 96 1300 320/04 RMK AO2
14926KSTC STC20030711042509907/11/03 04:25:31  5-MIN KSTC 111025Z AUTO 31004KT 10SM CLR 14/13 A2985 1090 96 1300 300/04 RMK AO2
14926KSTC STC20030711043009907/11/03 04:30:31  5-MIN KSTC 111030Z AUTO 29005KT 10SM CLR 13/13 A2985 1090 96 1200 290/05 RMK AO2
14926KSTC STC20030711043509907/11/03 04:35:31  5-MIN KSTC 111035Z AUTO 30005KT 10SM CLR 13/13 A2985 1090 96 1200 300/05 RMK AO2
14926KSTC STC20030711044010007/11/03 04:40:31  5-MIN KSTC 111040Z AUTO 30005KT 10SM CLR 13/13 A2985 1090 100 1200 290/05 RMK AO2
14926KSTC STC20030711044510007/11/03 04:45:31  5-MIN KSTC 111045Z AUTO 30005KT 10SM CLR 13/13 A2985 1090 100 1200 290/05 RMK AO2
14926KSTC STC20030711045011607/11/03 04:50:31  5-MIN KSTC 111050Z AUTO 30004KT 10SM CLR 13/13 A2986 1090 96 1200 290/04 RMK AO2 SLP118 T01330128
14926KSTC STC20030711045510007/11/03 04:55:31  5-MIN KSTC 111055Z AUTO 30004KT 10SM CLR 13/13 A2986 1080 100 1200 290/04 RMK AO2
14926KSTC STC20030711050010307/11/03 05:00:31  5-MIN KSTC 111100Z AUTO 29004KT 10SM FEW060 13/13 A2986 1080 100 1200 290/04 RMK AO2
14926KSTC STC20030711050511007/11/03 05:05:31  5-MIN KSTC 111105Z AUTO 30003KT 10SM FEW060 SCT075 13/13 A2986 1080 100 1200 290/03 RMK AO2
14926KSTC STC20030711051011607/11/03 05:10:31  5-MIN KSTC 111110Z AUTO 30004KT 10SM FEW060 SCT070 BKN120 14/13 A2986 1080 96 1200 300/04 RMK AO2
14926KSTC STC20030711051510907/11/03 05:15:31  5-MIN KSTC 111115Z AUTO 30005KT 10SM BKN070 BKN120 14/13 A2986 1080 96 1200 300/05 RMK AO2
14926KSTC STC20030711052010907/11/03 05:20:31  5-MIN KSTC 111120Z AUTO 30005KT 10SM BKN070 BKN110 14/14 A2986 1080 96 1300 300/05 RMK AO2
14926KSTC STC20030711052510907/11/03 05:25:31  5-MIN KSTC 111125Z AUTO 30005KT 10SM BKN070 OVC110 15/14 A2986 1080 93 1400 290/05 RMK AO2
14926KSTC STC20030711053010907/11/03 05:30:31  5-MIN KSTC 111130Z AUTO 30006KT 10SM BKN070 OVC110 15/14 A2986 1080 96 1400 290/06 RMK AO2
14926KSTC STC20030711053510907/11/03 05:35:31  5-MIN KSTC 111135Z AUTO 31006KT 10SM BKN070 OVC120 16/14 A2986 1080 90 1400 300/06 RMK AO2
14926KSTC STC20030711054010907/11/03 05:40:31  5-MIN KSTC 111140Z AUTO 30006KT 10SM BKN070 OVC120 16/14 A2986 1080 90 1400 300/06 RMK AO2
14926KSTC STC20030711054511607/11/03 05:45:31  5-MIN KSTC 111145Z AUTO 29007KT 10SM SCT070 BKN080 OVC120 16/14 A2986 1080 93 1400 290/07 RMK AO2
14926KSTC STC20030711055015707/11/03 05:50:31  5-MIN KSTC 111150Z AUTO 30006KT 10SM SCT070 BKN080 OVC120 16/14 A2986 1080 90 1400 300/06 RMK AO2 SLP118 70001 T01560139 10156 20133 58007
14926KSTC STC20030711055510907/11/03 05:55:31  5-MIN KSTC 111155Z AUTO 30006KT 10SM BKN075 OVC120 16/14 A2986 1080 93 1400 300/06 RMK AO2
14926KSTC STC20030711060010907/11/03 06:00:31  5-MIN KSTC 111200Z AUTO 30007KT 10SM BKN075 OVC120 16/14 A2986 1080 90 1400 290/07 RMK AO2
14926KSTC STC20030711060511607/11/03 06:05:31  5-MIN KSTC 111205Z AUTO 30006KT 10SM FEW046 BKN080 OVC120 16/14 A2987 1080 93 1400 300/06 RMK AO2
14926KSTC STC20030711061011607/11/03 06:10:31  5-MIN KSTC 111210Z AUTO 30006KT 10SM FEW046 BKN080 OVC120 16/14 A2987 1080 93 1400 290/06 RMK AO2
14926KSTC STC20030711061511607/11/03 06:15:31  5-MIN KSTC 111215Z AUTO 29006KT 10SM FEW048 BKN080 OVC120 16/14 A2986 1080 93 1400 290/06 RMK AO2
14926KSTC STC20030711062011607/11/03 06:20:31  5-MIN KSTC 111220Z AUTO 29005KT 10SM FEW048 BKN075 OVC120 16/14 A2987 1080 90 1500 290/05 RMK AO2
14926KSTC STC20030711062511607/11/03 06:25:31  5-MIN KSTC 111225Z AUTO 29005KT 10SM FEW060 BKN075 BKN120 16/14 A2987 1080 90 1500 290/05 RMK AO2
14926KSTC STC20030711063011607/11/03 06:30:31  5-MIN KSTC 111230Z AUTO 30006KT 10SM FEW060 BKN080 BKN120 17/14 A2987 1080 86 1600 290/06 RMK AO2
14926KSTC STC20030711063511607/11/03 06:35:31  5-MIN KSTC 111235Z AUTO 30006KT 10SM FEW060 BKN080 BKN120 17/14 A2987 1080 86 1600 300/06 RMK AO2
14926KSTC STC20030711064011607/11/03 06:40:31  5-MIN KSTC 111240Z AUTO 29006KT 10SM FEW060 BKN080 BKN120 16/14 A2987 1080 90 1500 290/06 RMK AO2
14926KSTC STC20030711064510907/11/03 06:45:31  5-MIN KSTC 111245Z AUTO 29006KT 10SM SCT080 SCT120 17/14 A2987 1070 86 1600 290/06 RMK AO2
14926KSTC STC20030711065011907/11/03 06:50:31  5-MIN KSTC 111250Z AUTO 28006KT 10SM FEW080 17/14 A2987 1070 83 1600 280/06 RMK AO2 SLP120 T01720144
14926KSTC STC20030711065510207/11/03 06:55:31  5-MIN KSTC 111255Z AUTO 29007KT 10SM FEW080 17/14 A2987 1070 83 1600 290/07 RMK AO2
14926KSTC STC20030711070010207/11/03 07:00:31  5-MIN KSTC 111300Z AUTO 27005KT 10SM FEW080 17/14 A2987 1070 83 1600 270/05 RMK AO2
14926KSTC STC20030711070509907/11/03 07:05:31  5-MIN KSTC 111305Z AUTO 29005KT 10SM CLR 17/14 A2987 1070 83 1600 280/05 RMK AO2
14926KSTC STC20030711071009907/11/03 07:10:31  5-MIN KSTC 111310Z AUTO 29005KT 10SM CLR 18/15 A2987 1070 83 1700 290/05 RMK AO2
14926KSTC STC20030711071509907/11/03 07:15:31  5-MIN KSTC 111315Z AUTO 29005KT 10SM CLR 18/15 A2987 1070 81 1800 290/05 RMK AO2
14926KSTC STC20030711072009907/11/03 07:20:31  5-MIN KSTC 111320Z AUTO 29007KT 10SM CLR 18/15 A2987 1070 81 1800 280/07 RMK AO2
14926KSTC STC20030711072509907/11/03 07:25:31  5-MIN KSTC 111325Z AUTO 30008KT 10SM CLR 18/15 A2987 1070 81 1800 290/08 RMK AO2
14926KSTC STC20030711073009907/11/03 07:30:31  5-MIN KSTC 111330Z AUTO 29008KT 10SM CLR 18/15 A2987 1070 81 1800 280/08 RMK AO2
14926KSTC STC20030711073509907/11/03 07:35:31  5-MIN KSTC 111335Z AUTO 30007KT 10SM CLR 19/15 A2987 1070 78 1800 300/07 RMK AO2
14926KSTC STC20030711074009907/11/03 07:40:31  5-MIN KSTC 111340Z AUTO 30008KT 10SM CLR 19/15 A2987 1070 78 1800 290/08 RMK AO2
14926KSTC STC20030711074509907/11/03 07:45:31  5-MIN KSTC 111345Z AUTO 31011KT 10SM CLR 19/15 A2987 1070 78 1800 310/11 RMK AO2
14926KSTC STC20030711075011607/11/03 07:50:31  5-MIN KSTC 111350Z AUTO 32007KT 10SM CLR 19/15 A2987 1070 78 1800 320/07 RMK AO2 SLP121 T01890150
14926KSTC STC20030711075509907/11/03 07:55:31  5-MIN KSTC 111355Z AUTO 32011KT 10SM CLR 19/15 A2987 1070 75 1900 310/11 RMK AO2
14926KSTC STC20030711080009907/11/03 08:00:31  5-MIN KSTC 111400Z AUTO 32010KT 10SM CLR 19/15 A2987 1070 75 1900 310/10 RMK AO2
14926KSTC STC20030711080509907/11/03 08:05:31  5-MIN KSTC 111405Z AUTO 30011KT 10SM CLR 19/15 A2987 1070 75 1900 300/11 RMK AO2
14926KSTC STC20030711081009907/11/03 08:10:31  5-MIN KSTC 111410Z AUTO 32011KT 10SM CLR 20/16 A2987 1070 75 1900 320/11 RMK AO2
14926KSTC STC20030711081509907/11/03 08:15:31  5-MIN KSTC 111415Z AUTO 31010KT 10SM CLR 20/16 A2987 1070 75 1900 310/10 RMK AO2
14926KSTC STC20030711082011507/11/03 08:20:31  5-MIN KSTC 111420Z AUTO 32007KT 290V350 10SM CLR 20/15 A2987 1070 72 1900 310/07 290V350 RMK AO2
14926KSTC STC20030711082509907/11/03 08:25:31  5-MIN KSTC 111425Z AUTO 33009KT 10SM CLR 20/16 A2987 1070 75 1900 320/09 RMK AO2
14926KSTC STC20030711083009907/11/03 08:30:31  5-MIN KSTC 111430Z AUTO 33009KT 10SM CLR 20/16 A2987 1070 75 1900 330/09 RMK AO2
14926KSTC STC20030711083509907/11/03 08:35:31  5-MIN KSTC 111435Z AUTO 33008KT 10SM CLR 20/15 A2987 1070 72 1900 330/08 RMK AO2
14926KSTC STC20030711084009907/11/03 08:40:31  5-MIN KSTC 111440Z AUTO 33007KT 10SM CLR 20/16 A2987 1070 75 1900 330/07 RMK AO2
14926KSTC STC20030711084509907/11/03 08:45:31  5-MIN KSTC 111445Z AUTO 31008KT 10SM CLR 21/16 A2987 1070 73 2000 310/08 RMK AO2
14926KSTC STC20030711085012207/11/03 08:50:31  5-MIN KSTC 111450Z AUTO 31008KT 10SM CLR 21/16 A2987 1070 73 2000 310/08 RMK AO2 SLP123 T02060156 53006
14926KSTC STC20030711085509907/11/03 08:55:31  5-MIN KSTC 111455Z AUTO 32008KT 10SM CLR 21/16 A2987 1070 73 2000 320/08 RMK AO2
14926KSTC STC20030711090009907/11/03 09:00:31  5-MIN KSTC 111500Z AUTO 29010KT 10SM CLR 21/16 A2987 1070 70 2100 290/10 RMK AO2
14926KSTC STC20030711090510207/11/03 09:05:31  5-MIN KSTC 111505Z AUTO 31008KT 10SM FEW023 21/16 A2987 1070 73 2100 310/08 RMK AO2
14926KSTC STC20030711091010207/11/03 09:10:31  5-MIN KSTC 111510Z AUTO 30008KT 10SM FEW023 21/16 A2987 1070 70 2100 300/08 RMK AO2
14926KSTC STC20030711091510907/11/03 09:15:31  5-MIN KSTC 111515Z AUTO 32008KT 10SM FEW023 SCT060 21/16 A2987 1070 70 2100 310/08 RMK AO2
14926KSTC STC20030711092011507/11/03 09:20:31  5-MIN KSTC 111520Z AUTO 30009G14KT 10SM FEW023 SCT065 22/16 A2987 1070 68 2100 300/09G14 RMK AO2
14926KSTC STC20030711092510907/11/03 09:25:31  5-MIN KSTC 111525Z AUTO 30010KT 10SM FEW023 SCT065 22/16 A2987 1070 68 2100 290/10 RMK AO2
14926KSTC STC20030711093010907/11/03 09:30:31  5-MIN KSTC 111530Z AUTO 31008KT 10SM FEW023 SCT060 22/16 A2987 1070 68 2100 310/08 RMK AO2
14926KSTC STC20030711093510907/11/03 09:35:31  5-MIN KSTC 111535Z AUTO 31009KT 10SM FEW023 SCT065 21/16 A2987 1070 70 2100 310/09 RMK AO2
14926KSTC STC20030711094010907/11/03 09:40:31  5-MIN KSTC 111540Z AUTO 31009KT 10SM FEW027 BKN060 21/15 A2988 1070 68 2100 310/09 RMK AO2
14926KSTC STC20030711094510907/11/03 09:45:31  5-MIN KSTC 111545Z AUTO 30010KT 10SM FEW024 BKN065 22/15 A2988 1070 65 2100 300/10 RMK AO2
14926KSTC STC20030711095012607/11/03 09:50:31  5-MIN KSTC 111550Z AUTO 33009KT 10SM FEW028 BKN065 22/15 A2987 1070 65 2100 320/09 RMK AO2 SLP122 T02170150
14926KSTC STC20030711095510207/11/03 09:55:31  5-MIN KSTC 111555Z AUTO 30012KT 10SM BKN065 22/16 A2987 1070 68 2100 300/12 RMK AO2
14926KSTC STC20030711100010207/11/03 10:00:31  5-MIN KSTC 111600Z AUTO 32009KT 10SM BKN070 22/15 A2988 1070 65 2100 320/09 RMK AO2
14926KSTC STC20030711100510207/11/03 10:05:31  5-MIN KSTC 111605Z AUTO 33009KT 10SM OVC070 22/15 A2988 1070 63 2200 320/09 RMK AO2
14926KSTC STC20030711101010207/11/03 10:10:31  5-MIN KSTC 111610Z AUTO 33010KT 10SM OVC070 22/16 A2988 1070 68 2100 330/10 RMK AO2
14926KSTC STC20030711101510207/11/03 10:15:31  5-MIN KSTC 111615Z AUTO 33009KT 10SM BKN070 21/15 A2988 1070 68 2100 330/09 RMK AO2
14926KSTC STC20030711102010207/11/03 10:20:31  5-MIN KSTC 111620Z AUTO 34008KT 10SM BKN070 22/15 A2988 1070 63 2200 340/08 RMK AO2
14926KSTC STC20030711102510207/11/03 10:25:31  5-MIN KSTC 111625Z AUTO 35008KT 10SM BKN070 22/16 A2988 1070 65 2200 350/08 RMK AO2
14926KSTC STC20030711103010207/11/03 10:30:31  5-MIN KSTC 111630Z AUTO 31009KT 10SM SCT070 23/16 A2988 1070 63 2300 310/09 RMK AO2
14926KSTC STC20030711103510907/11/03 10:35:31  5-MIN KSTC 111635Z AUTO 31012KT 10SM FEW030 SCT070 23/16 A2988 1060 63 2300 310/12 RMK AO2
14926KSTC STC20030711104010907/11/03 10:40:31  5-MIN KSTC 111640Z AUTO 34009KT 10SM FEW030 SCT070 23/16 A2988 1060 65 2200 330/09 RMK AO2
14926KSTC STC20030711104510207/11/03 10:45:31  5-MIN KSTC 111645Z AUTO 32008KT 10SM FEW030 23/16 A2988 1070 63 2300 320/08 RMK AO2
14926KSTC STC20030711105012507/11/03 10:50:31  5-MIN KSTC 111650Z AUTO 32011G17KT 10SM FEW030 23/15 A2988 1070 61 2300 320/11G17 RMK AO2 SLP123 T02280150
14926KSTC STC20030711105510807/11/03 10:55:31  5-MIN KSTC 111655Z AUTO 32013G17KT 10SM FEW030 23/15 A2988 1070 61 2300 310/13G17 RMK AO2
14926KSTC STC20030711110010207/11/03 11:00:31  5-MIN KSTC 111700Z AUTO 34012KT 10SM FEW030 23/14 A2987 1070 57 2300 340/12 RMK AO2
14926KSTC STC20030711110510207/11/03 11:05:31  5-MIN KSTC 111705Z AUTO 36010KT 10SM FEW033 23/14 A2987 1070 57 2300 360/10 RMK AO2
14926KSTC STC20030711111010207/11/03 11:10:31  5-MIN KSTC 111710Z AUTO 33009KT 10SM FEW038 23/15 A2987 1070 59 2300 330/09 RMK AO2
14926KSTC STC20030711111510207/11/03 11:15:31  5-MIN KSTC 111715Z AUTO 30010KT 10SM SCT034 23/15 A2987 1070 61 2300 300/10 RMK AO2
14926KSTC STC20030711112010907/11/03 11:20:31  5-MIN KSTC 111720Z AUTO VRB06KT 10SM SCT034 SCT042 22/15 A2987 1070 63 2200 VRB/06 RMK AO2
14926KSTC STC20030711112511607/11/03 11:25:31  5-MIN KSTC 111725Z AUTO 33010KT 10SM SCT036 BKN043 BKN050 22/15 A2987 1070 63 2200 320/10 RMK AO2
14926KSTC STC20030711113012207/11/03 11:30:31  5-MIN KSTC 111730Z AUTO 32012G16KT 10SM SCT036 SCT042 SCT050 22/14 A2987 1070 61 2200 320/12G16 RMK AO2
14926KSTC STC20030711113510907/11/03 11:35:31  5-MIN KSTC 111735Z AUTO 32010KT 10SM SCT036 SCT110 22/14 A2987 1070 61 2200 310/10 RMK AO2
14926KSTC STC20030711114010907/11/03 11:40:31  5-MIN KSTC 111740Z AUTO 33010KT 10SM SCT036 BKN110 23/15 A2987 1070 61 2300 320/10 RMK AO2
14926KSTC STC20030711114510907/11/03 11:45:31  5-MIN KSTC 111745Z AUTO 31011KT 10SM SCT038 SCT110 22/14 A2987 1070 61 2200 310/11 RMK AO2
14926KSTC STC20030711115014407/11/03 11:50:31  5-MIN KSTC 111750Z AUTO 30011KT 10SM FEW038 SCT110 22/14 A2987 1070 61 2200 290/11 RMK AO2 SLP121 T02220144 10233 20156 51004
14926KSTC STC20030711115510907/11/03 11:55:31  5-MIN KSTC 111755Z AUTO 30010KT 10SM FEW040 SCT100 23/15 A2987 1070 61 2300 290/10 RMK AO2
14926KSTC STC20030711120011607/11/03 12:00:31  5-MIN KSTC 111800Z AUTO 29010KT 10SM FEW042 SCT060 BKN100 23/15 A2987 1070 61 2300 280/10 RMK AO2
14926KSTC STC20030711120511607/11/03 12:05:31  5-MIN KSTC 111805Z AUTO 31012KT 10SM SCT042 SCT060 BKN100 22/15 A2987 1070 63 2200 310/12 RMK AO2
14926KSTC STC20030711121013207/11/03 12:10:31  5-MIN KSTC 111810Z AUTO 32011KT 10SM -RA SCT042 BKN060 BKN100 22/15 A2987 1070 65 2100 310/11 RMK AO2 RAB09 P0000
14926KSTC STC20030711121512507/11/03 12:15:31  5-MIN KSTC 111815Z AUTO 31012KT 10SM -RA BKN042 BKN060 22/15 A2987 1070 65 2100 310/12 RMK AO2 RAB09 P0000
14926KSTC STC20030711122013107/11/03 12:20:31  5-MIN KSTC 111820Z AUTO 31014KT 10SM SCT039 BKN060 BKN110 22/15 A2987 1070 63 2200 300/14 RMK AO2 RAB09E19 P0000
14926KSTC STC20030711122513107/11/03 12:25:31  5-MIN KSTC 111825Z AUTO 31011KT 10SM FEW037 SCT046 BKN060 22/14 A2987 1070 61 2200 310/11 RMK AO2 RAB09E19 P0000
14926KSTC STC20030711123013907/11/03 12:30:31  5-MIN KSTC 111830Z AUTO 32012KT 10SM TS FEW039 SCT046 BKN100 22/15 A2988 1070 63 2200 320/12 RMK AO2 TSB26RAB09E19 P0000
14926KSTC STC20030711123513907/11/03 12:35:31  5-MIN KSTC 111835Z AUTO 34013KT 10SM TS FEW039 BKN046 BKN100 22/14 A2988 1060 61 2100 330/13 RMK AO2 TSB26RAB09E19 P0000
14926KSTC STC20030711124014507/11/03 12:40:31  5-MIN KSTC 111840Z AUTO 01013KT 10SM -TSRA BKN043 BKN095 19/13 A2990 1050 65 1900 360/13 RMK AO2 TSB26RAB09E19B40 PRESRR P0002
14926KSTC STC20030711124516807/11/03 12:45:31  5-MIN KSTC 111845Z AUTO 36012G20KT 6SM +TSRA FEW032 BKN041 BKN100 17/13 A2990 1040 77 1500 360/12G20 RMK AO2 WSHFT 1829 TSB26RAB09E19B40 PRESRR P0010
14926KSTC STC20030711125017807/11/03 12:50:31  5-MIN KSTC 111850Z AUTO 35012G20KT 7SM RA SCT021 BKN043 OVC100 16/13 A2991 1040 83 1500 350/12G20 RMK AO2 WSHFT 1829 TSB26E46RAB09E19B40 SLP136 P0012 T01610133
14926KSTC STC20030711125512607/11/03 12:55:31  5-MIN KSTC 111855Z AUTO 01008KT 10SM -RA SCT030 BKN039 OVC060 16/13 A2990 1040 83 1500 360/08 RMK AO2 P0000
14926KSTC STC20030711130012607/11/03 13:00:31  5-MIN KSTC 111900Z AUTO 36007KT 10SM -RA BKN032 BKN039 OVC046 16/13 A2990 1050 83 1500 350/07 RMK AO2 P0000
14926KSTC STC20030711130512707/11/03 13:05:31  5-MIN KSTC 111905Z AUTO 36008KT 10SM -TSRA BKN028 OVC041 16/14 A2989 1050 86 1500 360/08 RMK AO2 TSB05 P0000
14926KSTC STC20030711131012707/11/03 13:10:31  5-MIN KSTC 111910Z AUTO 35007KT 10SM -TSRA BKN024 OVC045 17/14 A2989 1050 83 1500 350/07 RMK AO2 TSB05 P0001
14926KSTC STC20030711131512707/11/03 13:15:31  5-MIN KSTC 111915Z AUTO 35006KT 10SM -TSRA BKN024 OVC047 17/14 A2989 1050 83 1600 340/06 RMK AO2 TSB05 P0001
14926KSTC STC20030711132013407/11/03 13:20:31  5-MIN KSTC 111920Z AUTO 34006KT 10SM -TSRA BKN026 BKN049 BKN080 17/14 A2989 1050 83 1600 340/06 RMK AO2 TSB05 P0001
14926KSTC STC20030711132512707/11/03 13:25:31  5-MIN KSTC 111925Z AUTO 33005KT 10SM -TSRA SCT024 BKN085 17/14 A2989 1060 83 1600 330/05 RMK AO2 TSB05 P0001
14926KSTC STC20030711133012907/11/03 13:30:31  5-MIN KSTC 111930Z AUTO 33006KT 10SM TS SCT024 BKN090 18/16 A2989 1060 84 1700 320/06 RMK AO2 TSB05RAE27 P0001
14926KSTC STC20030711133512907/11/03 13:35:31  5-MIN KSTC 111935Z AUTO 33007KT 10SM TS FEW026 SCT085 19/16 A2989 1060 81 1900 330/07 RMK AO2 TSB05RAE27 P0001
14926KSTC STC20030711134012907/11/03 13:40:31  5-MIN KSTC 111940Z AUTO 32006KT 10SM TS FEW043 BKN090 19/16 A2989 1050 81 1800 310/06 RMK AO2 TSB05RAE27 P0001
14926KSTC STC20030711134512207/11/03 13:45:31  5-MIN KSTC 111945Z AUTO 33007KT 10SM BKN090 19/15 A2989 1050 78 1800 330/07 RMK AO2 TSB05E41RAE27 P0001
14926KSTC STC20030711135013907/11/03 13:50:31  5-MIN KSTC 111950Z AUTO 32008KT 10SM BKN090 19/15 A2989 1050 78 1800 320/08 RMK AO2 TSB05E41RAE27 SLP130 P0001 T01890150
14926KSTC STC20030711135510207/11/03 13:55:31  5-MIN KSTC 111955Z AUTO 31006KT 10SM BKN090 19/15 A2989 1050 78 1800 310/06 RMK AO2
14926KSTC STC20030711140010207/11/03 14:00:31  5-MIN KSTC 112000Z AUTO 31009KT 10SM BKN090 19/16 A2989 1050 78 1900 300/09 RMK AO2
14926KSTC STC20030711140510207/11/03 14:05:31  5-MIN KSTC 112005Z AUTO 31009KT 10SM BKN090 19/15 A2990 1050 78 1800 310/09 RMK AO2
14926KSTC STC20030711141010207/11/03 14:10:31  5-MIN KSTC 112010Z AUTO 31009KT 10SM SCT095 19/15 A2990 1050 78 1800 300/09 RMK AO2
14926KSTC STC20030711141510207/11/03 14:15:31  5-MIN KSTC 112015Z AUTO 29008KT 10SM SCT100 19/16 A2990 1040 78 1800 290/08 RMK AO2
14926KSTC STC20030711142010207/11/03 14:20:31  5-MIN KSTC 112020Z AUTO 29009KT 10SM BKN100 19/16 A2990 1040 81 1800 280/09 RMK AO2
14926KSTC STC20030711142510207/11/03 14:25:31  5-MIN KSTC 112025Z AUTO 28007KT 10SM SCT100 19/16 A2990 1050 84 1800 280/07 RMK AO2
14926KSTC STC20030711143010207/11/03 14:30:31  5-MIN KSTC 112030Z AUTO 29009KT 10SM FEW100 19/16 A2990 1050 81 1800 290/09 RMK AO2
14926KSTC STC20030711143510207/11/03 14:35:31  5-MIN KSTC 112035Z AUTO 29008KT 10SM FEW100 19/16 A2990 1050 81 1800 280/08 RMK AO2
14926KSTC STC20030711144010207/11/03 14:40:31  5-MIN KSTC 112040Z AUTO 29008KT 10SM FEW100 19/16 A2990 1050 81 1800 290/08 RMK AO2
14926KSTC STC20030711144510207/11/03 14:45:31  5-MIN KSTC 112045Z AUTO 29009KT 10SM FEW100 19/16 A2990 1050 81 1800 290/09 RMK AO2
14926KSTC STC20030711145012807/11/03 14:50:31  5-MIN KSTC 112050Z AUTO 30009KT 10SM CLR 19/16 A2990 1050 81 1900 290/09 RMK AO2 SLP130 60013 T01940161 58001
14926KSTC STC20030711145509907/11/03 14:55:31  5-MIN KSTC 112055Z AUTO 29008KT 10SM CLR 20/16 A2989 1050 78 1900 290/08 RMK AO2
14926KSTC STC20030711150009907/11/03 15:00:31  5-MIN KSTC 112100Z AUTO 29008KT 10SM CLR 20/17 A2989 1050 81 1900 290/08 RMK AO2
14926KSTC STC20030711150509907/11/03 15:05:31  5-MIN KSTC 112105Z AUTO 31007KT 10SM CLR 20/17 A2990 1050 81 1900 300/07 RMK AO2
14926KSTC STC20030711151009907/11/03 15:10:31  5-MIN KSTC 112110Z AUTO 30009KT 10SM CLR 20/16 A2990 1050 78 1900 290/09 RMK AO2
14926KSTC STC20030711151509907/11/03 15:15:31  5-MIN KSTC 112115Z AUTO 30009KT 10SM CLR 21/17 A2990 1050 78 2000 290/09 RMK AO2
14926KSTC STC20030711152009907/11/03 15:20:31  5-MIN KSTC 112120Z AUTO 30008KT 10SM CLR 21/17 A2990 1050 75 2000 290/08 RMK AO2
14926KSTC STC20030711152509907/11/03 15:25:31  5-MIN KSTC 112125Z AUTO 29012KT 10SM CLR 22/17 A2990 1050 73 2100 290/12 RMK AO2
14926KSTC STC20030711153009907/11/03 15:30:31  5-MIN KSTC 112130Z AUTO 30011KT 10SM CLR 21/16 A2990 1050 73 2000 300/11 RMK AO2
14926KSTC STC20030711153510207/11/03 15:35:31  5-MIN KSTC 112135Z AUTO 29012KT 10SM FEW100 21/17 A2990 1050 75 2000 290/12 RMK AO2
14926KSTC STC20030711154010207/11/03 15:40:31  5-MIN KSTC 112140Z AUTO 30009KT 10SM FEW100 21/16 A2990 1050 73 2000 290/09 RMK AO2
14926KSTC STC20030711154510207/11/03 15:45:31  5-MIN KSTC 112145Z AUTO 30011KT 10SM FEW100 22/17 A2990 1050 73 2100 300/11 RMK AO2
14926KSTC STC20030711155011907/11/03 15:50:31  5-MIN KSTC 112150Z AUTO 30011KT 10SM FEW100 22/17 A2990 1050 73 2100 300/11 RMK AO2 SLP131 T02170167
14926KSTC STC20030711155510207/11/03 15:55:31  5-MIN KSTC 112155Z AUTO 30010KT 10SM FEW100 22/17 A2990 1050 73 2100 300/10 RMK AO2
14926KSTC STC20030711160010207/11/03 16:00:31  5-MIN KSTC 112200Z AUTO 31009KT 10SM FEW100 22/17 A2990 1050 75 2100 300/09 RMK AO2
14926KSTC STC20030711160509907/11/03 16:05:31  5-MIN KSTC 112205Z AUTO 30011KT 10SM CLR 22/17 A2990 1050 75 2100 290/11 RMK AO2
14926KSTC STC20030711161010207/11/03 16:10:31  5-MIN KSTC 112210Z AUTO 29008KT 10SM FEW110 22/17 A2990 1050 73 2200 290/08 RMK AO2
14926KSTC STC20030711161510207/11/03 16:15:31  5-MIN KSTC 112215Z AUTO 30011KT 10SM FEW110 22/17 A2990 1050 73 2200 300/11 RMK AO2
14926KSTC STC20030711162010207/11/03 16:20:31  5-MIN KSTC 112220Z AUTO 33009KT 10SM FEW110 22/17 A2990 1040 73 2200 320/09 RMK AO2
14926KSTC STC20030711162510207/11/03 16:25:31  5-MIN KSTC 112225Z AUTO 31011KT 10SM FEW110 22/17 A2990 1040 73 2100 310/11 RMK AO2
14926KSTC STC20030711163010907/11/03 16:30:31  5-MIN KSTC 112230Z AUTO 33009KT 10SM FEW028 SCT100 22/16 A2990 1040 70 2100 320/09 RMK AO2
14926KSTC STC20030711163510907/11/03 16:35:31  5-MIN KSTC 112235Z AUTO 32007KT 10SM FEW028 SCT100 21/16 A2990 1040 70 2000 320/07 RMK AO2
14926KSTC STC20030711164010207/11/03 16:40:31  5-MIN KSTC 112240Z AUTO 32007KT 10SM FEW100 22/17 A2990 1040 73 2100 320/07 RMK AO2
14926KSTC STC20030711164510207/11/03 16:45:31  5-MIN KSTC 112245Z AUTO 32008KT 10SM FEW100 22/16 A2990 1040 70 2100 320/08 RMK AO2
14926KSTC STC20030711165011907/11/03 16:50:31  5-MIN KSTC 112250Z AUTO 33008KT 10SM FEW095 22/16 A2991 1040 70 2100 320/08 RMK AO2 SLP134 T02170161
14926KSTC STC20030711165510207/11/03 16:55:31  5-MIN KSTC 112255Z AUTO 32008KT 10SM FEW095 21/16 A2991 1040 73 2000 310/08 RMK AO2
14926KSTC STC20030711170009907/11/03 17:00:31  5-MIN KSTC 112300Z AUTO 31007KT 10SM CLR 22/17 A2991 1040 73 2100 310/07 RMK AO2
14926KSTC STC20030711170509907/11/03 17:05:31  5-MIN KSTC 112305Z AUTO 30007KT 10SM CLR 21/17 A2990 1040 75 2000 300/07 RMK AO2
14926KSTC STC20030711171009907/11/03 17:10:31  5-MIN KSTC 112310Z AUTO 31007KT 10SM CLR 21/17 A2991 1040 75 2000 310/07 RMK AO2
14926KSTC STC20030711171510207/11/03 17:15:31  5-MIN KSTC 112315Z AUTO 31008KT 10SM FEW024 21/17 A2991 1040 78 2000 310/08 RMK AO2
14926KSTC STC20030711172010207/11/03 17:20:31  5-MIN KSTC 112320Z AUTO 32008KT 10SM FEW024 21/17 A2991 1040 75 2000 320/08 RMK AO2
14926KSTC STC20030711172510207/11/03 17:25:31  5-MIN KSTC 112325Z AUTO 31009KT 10SM FEW024 21/17 A2991 1040 75 2000 310/09 RMK AO2
14926KSTC STC20030711173010207/11/03 17:30:31  5-MIN KSTC 112330Z AUTO 29009KT 10SM SCT024 21/17 A2991 1040 75 2000 290/09 RMK AO2
14926KSTC STC20030711173510207/11/03 17:35:31  5-MIN KSTC 112335Z AUTO 32008KT 10SM FEW024 21/17 A2991 1040 75 2000 310/08 RMK AO2
14926KSTC STC20030711174010207/11/03 17:40:31  5-MIN KSTC 112340Z AUTO 31010KT 10SM FEW024 21/16 A2991 1030 73 2000 310/10 RMK AO2
14926KSTC STC20030711174510907/11/03 17:45:31  5-MIN KSTC 112345Z AUTO 32010KT 10SM FEW024 SCT110 21/15 A2991 1030 70 2000 320/10 RMK AO2
14926KSTC STC20030711175015007/11/03 17:50:31  5-MIN KSTC 112350Z AUTO 32008KT 10SM FEW024 BKN110 21/14 A2991 1030 67 2000 320/08 RMK AO2 SLP136 60013 T02060144 10228 20161 50008
14926KSTC STC20030711175510207/11/03 17:55:31  5-MIN KSTC 112355Z AUTO 32009KT 10SM BKN110 21/14 A2992 1030 67 2000 320/09 RMK AO2
14926KSTC STC20030711180010207/11/03 18:00:31  5-MIN KSTC 120000Z AUTO 32008KT 10SM BKN110 21/14 A2992 1030 67 2000 320/08 RMK AO2
14926KSTC STC20030711180510207/11/03 18:05:31  5-MIN KSTC 120005Z AUTO 32008KT 10SM BKN110 21/16 A2992 1030 73 1900 320/08 RMK AO2
14926KSTC STC20030711181010207/11/03 18:10:31  5-MIN KSTC 120010Z AUTO 31009KT 10SM OVC110 21/16 A2993 1020 73 1900 310/09 RMK AO2
14926KSTC STC20030711181510207/11/03 18:15:31  5-MIN KSTC 120015Z AUTO 31011KT 10SM BKN110 21/15 A2992 1020 70 1900 310/11 RMK AO2
14926KSTC STC20030711182010207/11/03 18:20:31  5-MIN KSTC 120020Z AUTO 32011KT 10SM BKN110 21/14 A2993 1020 67 1900 310/11 RMK AO2
14926KSTC STC20030711182510207/11/03 18:25:31  5-MIN KSTC 120025Z AUTO 32012KT 10SM OVC110 21/14 A2993 1020 67 1900 320/12 RMK AO2
14926KSTC STC20030711183010207/11/03 18:30:31  5-MIN KSTC 120030Z AUTO 32012KT 10SM OVC110 21/14 A2993 1020 65 1900 320/12 RMK AO2
14926KSTC STC20030711183510207/11/03 18:35:31  5-MIN KSTC 120035Z AUTO 32008KT 10SM BKN100 21/14 A2993 1020 67 1900 320/08 RMK AO2
14926KSTC STC20030711184010207/11/03 18:40:31  5-MIN KSTC 120040Z AUTO 32008KT 10SM BKN100 21/14 A2993 1010 67 1900 320/08 RMK AO2
14926KSTC STC20030711184510207/11/03 18:45:31  5-MIN KSTC 120045Z AUTO 32010KT 10SM SCT100 21/14 A2994 1010 67 1900 310/10 RMK AO2
14926KSTC STC20030711185011907/11/03 18:50:31  5-MIN KSTC 120050Z AUTO 31012KT 10SM SCT100 21/14 A2994 1010 67 1900 310/12 RMK AO2 SLP144 T02060144
14926KSTC STC20030711185510207/11/03 18:55:31  5-MIN KSTC 120055Z AUTO 31011KT 10SM BKN110 20/14 A2994 1010 67 1900 310/11 RMK AO2
14926KSTC STC20030711190010207/11/03 19:00:31  5-MIN KSTC 120100Z AUTO 32009KT 10SM SCT110 20/14 A2994 1010 67 1900 320/09 RMK AO2
14926KSTC STC20030711190510207/11/03 19:05:31  5-MIN KSTC 120105Z AUTO 32008KT 10SM FEW110 20/13 A2993 1010 65 1900 320/08 RMK AO2
14926KSTC STC20030711191010207/11/03 19:10:31  5-MIN KSTC 120110Z AUTO 32007KT 10SM FEW110 20/14 A2993 1010 67 1900 320/07 RMK AO2
14926KSTC STC20030711191510207/11/03 19:15:31  5-MIN KSTC 120115Z AUTO 32007KT 10SM FEW110 19/14 A2993 1010 70 1800 320/07 RMK AO2
14926KSTC STC20030711192010207/11/03 19:20:31  5-MIN KSTC 120120Z AUTO 32009KT 10SM FEW110 19/14 A2994 1010 70 1800 320/09 RMK AO2
14926KSTC STC20030711192509907/11/03 19:25:31  5-MIN KSTC 120125Z AUTO 32007KT 10SM CLR 19/14 A2994 1010 72 1700 320/07 RMK AO2
14926KSTC STC20030711193009907/11/03 19:30:31  5-MIN KSTC 120130Z AUTO 32008KT 10SM CLR 19/14 A2994 1010 72 1700 320/08 RMK AO2
14926KSTC STC20030711193509907/11/03 19:35:31  5-MIN KSTC 120135Z AUTO 32007KT 10SM CLR 19/14 A2994 1010 72 1700 310/07 RMK AO2
14926KSTC STC20030711194009907/11/03 19:40:31  5-MIN KSTC 120140Z AUTO 32007KT 10SM CLR 18/14 A2994 1010 75 1700 320/07 RMK AO2
14926KSTC STC20030711194509907/11/03 19:45:31  5-MIN KSTC 120145Z AUTO 32006KT 10SM CLR 18/14 A2994 1010 75 1700 320/06 RMK AO2
14926KSTC STC20030711195011607/11/03 19:50:31  5-MIN KSTC 120150Z AUTO 33006KT 10SM CLR 18/14 A2994 1010 75 1700 330/06 RMK AO2 SLP145 T01830139
14926KSTC STC20030711195509907/11/03 19:55:31  5-MIN KSTC 120155Z AUTO 32006KT 10SM CLR 18/14 A2994 1000 75 1700 320/06 RMK AO2
14926KSTC STC20030711200009907/11/03 20:00:31  5-MIN KSTC 120200Z AUTO 31005KT 10SM CLR 17/14 A2995 1000 80 1500 310/05 RMK AO2
14926KSTC STC20030711200509907/11/03 20:05:31  5-MIN KSTC 120205Z AUTO 31006KT 10SM CLR 17/14 A2995 1000 86 1500 310/06 RMK AO2
14926KSTC STC20030711201009907/11/03 20:10:31  5-MIN KSTC 120210Z AUTO 32005KT 10SM CLR 17/14 A2995 1000 80 1500 320/05 RMK AO2
14926KSTC STC20030711201510207/11/03 20:15:31  5-MIN KSTC 120215Z AUTO 32005KT 10SM FEW100 17/14 A2995 1000 80 1500 320/05 RMK AO2
14926KSTC STC20030711202010107/11/03 20:20:31  5-MIN KSTC 120220Z AUTO 33005KT 10SM SCT100 17/14 A2996 990 80 1500 320/05 RMK AO2
14926KSTC STC20030711202510107/11/03 20:25:31  5-MIN KSTC 120225Z AUTO 32005KT 10SM SCT100 17/14 A2996 990 80 1500 320/05 RMK AO2
14926KSTC STC20030711203010107/11/03 20:30:31  5-MIN KSTC 120230Z AUTO 32005KT 10SM FEW100 17/14 A2996 990 83 1500 320/05 RMK AO2
14926KSTC STC20030711203510107/11/03 20:35:31  5-MIN KSTC 120235Z AUTO 33004KT 10SM FEW100 17/14 A2996 990 80 1500 330/04 RMK AO2
14926KSTC STC20030711204010107/11/03 20:40:31  5-MIN KSTC 120240Z AUTO 32004KT 10SM FEW100 17/14 A2996 990 83 1500 320/04 RMK AO2
14926KSTC STC20030711204510107/11/03 20:45:31  5-MIN KSTC 120245Z AUTO 31005KT 10SM FEW100 16/14 A2996 990 86 1400 310/05 RMK AO2
14926KSTC STC20030711205012107/11/03 20:50:31  5-MIN KSTC 120250Z AUTO 32004KT 10SM CLR 17/14 A2996 990 83 1500 320/04 RMK AO2 SLP151 T01670139 53007
14926KSTC STC20030711205509807/11/03 20:55:31  5-MIN KSTC 120255Z AUTO 32003KT 10SM CLR 16/14 A2996 990 86 1400 320/03 RMK AO2
14926KSTC STC20030711210009807/11/03 21:00:31  5-MIN KSTC 120300Z AUTO 32004KT 10SM CLR 16/14 A2997 980 86 1400 320/04 RMK AO2
14926KSTC STC20030711210509807/11/03 21:05:31  5-MIN KSTC 120305Z AUTO 36003KT 10SM CLR 16/14 A2997 980 86 1400 350/03 RMK AO2
14926KSTC STC20030711211009807/11/03 21:10:31  5-MIN KSTC 120310Z AUTO 34004KT 10SM CLR 16/14 A2997 980 86 1400 330/04 RMK AO2
14926KSTC STC20030711211510107/11/03 21:15:31  5-MIN KSTC 120315Z AUTO 32005KT 10SM FEW095 16/14 A2997 980 86 1400 320/05 RMK AO2
14926KSTC STC20030711212010107/11/03 21:20:31  5-MIN KSTC 120320Z AUTO 32005KT 10SM FEW095 16/14 A2998 970 90 1300 310/05 RMK AO2
14926KSTC STC20030711212510107/11/03 21:25:31  5-MIN KSTC 120325Z AUTO 31006KT 10SM FEW095 15/14 A2998 980 93 1200 300/06 RMK AO2
14926KSTC STC20030711213010107/11/03 21:30:31  5-MIN KSTC 120330Z AUTO 30006KT 10SM FEW095 15/14 A2998 980 93 1200 290/06 RMK AO2
14926KSTC STC20030711213510107/11/03 21:35:31  5-MIN KSTC 120335Z AUTO 30007KT 10SM FEW095 15/14 A2998 970 93 1200 290/07 RMK AO2
14926KSTC STC20030711214010107/11/03 21:40:31  5-MIN KSTC 120340Z AUTO 30008KT 10SM FEW095 16/14 A2998 970 90 1400 300/08 RMK AO2
14926KSTC STC20030711214509807/11/03 21:45:31  5-MIN KSTC 120345Z AUTO 30008KT 10SM CLR 16/14 A2998 970 90 1400 300/08 RMK AO2
14926KSTC STC20030711215011507/11/03 21:50:31  5-MIN KSTC 120350Z AUTO 30007KT 10SM CLR 16/14 A2998 970 90 1400 300/07 RMK AO2 SLP157 T01610144
14926KSTC STC20030711215509807/11/03 21:55:31  5-MIN KSTC 120355Z AUTO 31007KT 10SM CLR 16/14 A2998 970 93 1300 310/07 RMK AO2
14926KSTC STC20030711222509807/11/03 22:25:31  5-MIN KSTC 120425Z AUTO 32004KT 10SM CLR 15/14 A2998 970 93 1200 320/04 RMK AO2
14926KSTC STC20030711223009807/11/03 22:30:31  5-MIN KSTC 120430Z AUTO 32004KT 10SM CLR 15/14 A2998 970 93 1200 320/04 RMK AO2
14926KSTC STC20030711223509807/11/03 22:35:31  5-MIN KSTC 120435Z AUTO 32005KT 10SM CLR 15/14 A2998 970 93 1200 320/05 RMK AO2
14926KSTC STC20030711224009807/11/03 22:40:31  5-MIN KSTC 120440Z AUTO 33004KT 10SM CLR 15/14 A2998 970 93 1200 320/04 RMK AO2
14926KSTC STC20030711224509807/11/03 22:45:31  5-MIN KSTC 120445Z AUTO 32004KT 10SM CLR 15/14 A2998 970 93 1200 320/04 RMK AO2
14926KSTC STC20030711225011507/11/03 22:50:31  5-MIN KSTC 120450Z AUTO 31006KT 10SM CLR 14/14 A2998 970 96 1200 310/06 RMK AO2 SLP159 T01440139
14926KSTC STC20030711225509807/11/03 22:55:31  5-MIN KSTC 120455Z AUTO 32006KT 10SM CLR 14/14 A2998 970 96 1200 310/06 RMK AO2
14926KSTC STC20030711230009807/11/03 23:00:31  5-MIN KSTC 120500Z AUTO 33004KT 10SM CLR 15/14 A2998 970 93 1200 320/04 RMK AO2
14926KSTC STC20030711230509807/11/03 23:05:31  5-MIN KSTC 120505Z AUTO 32005KT 10SM CLR 15/14 A2999 970 93 1200 320/05 RMK AO2
14926KSTC STC20030711231009807/11/03 23:10:31  5-MIN KSTC 120510Z AUTO 34003KT 10SM CLR 15/14 A2999 970 93 1200 330/03 RMK AO2
14926KSTC STC20030711231509807/11/03 23:15:31  5-MIN KSTC 120515Z AUTO 33004KT 10SM CLR 15/14 A2999 960 93 1200 330/04 RMK AO2
14926KSTC STC20030711232009807/11/03 23:20:31  5-MIN KSTC 120520Z AUTO 32004KT 10SM CLR 15/14 A2999 960 93 1200 320/04 RMK AO2
14926KSTC STC20030711232509807/11/03 23:25:31  5-MIN KSTC 120525Z AUTO 32004KT 10SM CLR 15/14 A2999 960 93 1200 320/04 RMK AO2
14926KSTC STC20030711233009807/11/03 23:30:31  5-MIN KSTC 120530Z AUTO 32005KT 10SM CLR 15/14 A2999 960 93 1200 320/05 RMK AO2
14926KSTC STC20030711233509807/11/03 23:35:31  5-MIN KSTC 120535Z AUTO 31005KT 10SM CLR 14/14 A2999 960 96 1200 310/05 RMK AO2
14926KSTC STC20030711234009907/11/03 23:40:31  5-MIN KSTC 120540Z AUTO 32006KT 10SM CLR 14/14 A2999 960 100 1100 310/06 RMK AO2
14926KSTC STC20030711234509907/11/03 23:45:31  5-MIN KSTC 120545Z AUTO 31006KT 10SM CLR 14/14 A2999 960 100 1100 300/06 RMK AO2
14926KSTC STC20030711235014307/11/03 23:50:31  5-MIN KSTC 120550Z AUTO 31006KT 10SM CLR 14/13 A2999 960 96 1100 300/06 RMK AO2 SLP163 T01390133 10206 20139 402330133 51015
14926KSTC STC20030711235509807/11/03 23:55:31  5-MIN KSTC 120555Z AUTO 31006KT 10SM CLR 14/14 A2999 960 96 1200 310/06 RMK AO2
14926KSTC STC20030712000009807/12/03 00:00:31  5-MIN KSTC 120600Z AUTO 33006KT 10SM CLR 14/14 A2999 960 96 1200 320/06 RMK AO2
14926KSTC STC20030712000509807/12/03 00:05:31  5-MIN KSTC 120605Z AUTO 32006KT 10SM CLR 15/14 A2999 960 96 1200 310/06 RMK AO2
14926KSTC STC20030712001009807/12/03 00:10:31  5-MIN KSTC 120610Z AUTO 32006KT 10SM CLR 14/14 A3000 960 96 1200 320/06 RMK AO2
14926KSTC STC20030712001509807/12/03 00:15:31  5-MIN KSTC 120615Z AUTO 32006KT 10SM CLR 14/14 A3000 960 96 1200 320/06 RMK AO2
14926KSTC STC20030712002009807/12/03 00:20:31  5-MIN KSTC 120620Z AUTO 31006KT 10SM CLR 14/14 A3000 950 96 1100 310/06 RMK AO2
14926KSTC STC20030712002509807/12/03 00:25:31  5-MIN KSTC 120625Z AUTO 31006KT 10SM CLR 14/14 A3000 950 96 1100 310/06 RMK AO2
14926KSTC STC20030712003009807/12/03 00:30:31  5-MIN KSTC 120630Z AUTO 31006KT 10SM CLR 14/14 A3000 950 96 1100 310/06 RMK AO2
14926KSTC STC20030712003509807/12/03 00:35:31  5-MIN KSTC 120635Z AUTO 31006KT 10SM CLR 14/14 A3000 950 96 1200 310/06 RMK AO2
14926KSTC STC20030712004009807/12/03 00:40:31  5-MIN KSTC 120640Z AUTO 33005KT 10SM CLR 14/14 A3000 950 96 1200 320/05 RMK AO2
14926KSTC STC20030712004509807/12/03 00:45:31  5-MIN KSTC 120645Z AUTO 32005KT 10SM CLR 15/14 A3000 960 96 1200 320/05 RMK AO2
14926KSTC STC20030712005011607/12/03 00:50:31  5-MIN KSTC 120650Z AUTO 32005KT 10SM CLR 14/14 A3000 960 100 1200 320/05 RMK AO2 SLP166 T01440144
14926KSTC STC20030712005509907/12/03 00:55:31  5-MIN KSTC 120655Z AUTO 32004KT 10SM CLR 14/14 A3000 960 100 1200 320/04 RMK AO2
14926KSTC STC20030712010009807/12/03 01:00:31  5-MIN KSTC 120700Z AUTO 32004KT 10SM CLR 14/14 A3000 960 96 1200 320/04 RMK AO2
14926KSTC STC20030712010509807/12/03 01:05:31  5-MIN KSTC 120705Z AUTO 33004KT 10SM CLR 14/14 A3000 950 96 1200 320/04 RMK AO2
14926KSTC STC20030712011009807/12/03 01:10:31  5-MIN KSTC 120710Z AUTO 33004KT 10SM CLR 14/14 A3000 950 96 1200 330/04 RMK AO2
14926KSTC STC20030712011509807/12/03 01:15:31  5-MIN KSTC 120715Z AUTO 32005KT 10SM CLR 14/14 A3000 950 96 1100 320/05 RMK AO2
14926KSTC STC20030712012009807/12/03 01:20:31  5-MIN KSTC 120720Z AUTO 32006KT 10SM CLR 14/14 A3000 950 96 1100 310/06 RMK AO2
14926KSTC STC20030712012510507/12/03 01:25:31  5-MIN KSTC 120725Z AUTO 31006KT 10SM CLR 14/14 A3000 950 100 1100 310/06 RMK AO2 P0001
14926KSTC STC20030712013010407/12/03 01:30:31  5-MIN KSTC 120730Z AUTO 31005KT 10SM CLR 14/13 A3000 950 96 1100 310/05 RMK AO2 P0001
14926KSTC STC20030712013510407/12/03 01:35:31  5-MIN KSTC 120735Z AUTO 34003KT 10SM CLR 14/14 A3000 950 96 1100 340/03 RMK AO2 P0001
14926KSTC STC20030712014010407/12/03 01:40:31  5-MIN KSTC 120740Z AUTO 35003KT 10SM CLR 14/14 A3000 950 96 1100 340/03 RMK AO2 P0001
14926KSTC STC20030712014510407/12/03 01:45:31  5-MIN KSTC 120745Z AUTO 00000KT 10SM CLR 14/14 A3000 950 96 1100 000/00 RMK AO2 P0001
14926KSTC STC20030712015012107/12/03 01:50:31  5-MIN KSTC 120750Z AUTO 32003KT 10SM CLR 14/14 A3000 950 96 1100 310/03 RMK AO2 SLP167 P0001 T01440139
14926KSTC STC20030712015509907/12/03 01:55:31  5-MIN KSTC 120755Z AUTO 30003KT 10SM CLR 14/14 A3000 950 100 1100 300/03 RMK AO2
14926KSTC STC20030712020009907/12/03 02:00:31  5-MIN KSTC 120800Z AUTO 30004KT 10SM CLR 13/13 A3000 950 100 1000 300/04 RMK AO2
14926KSTC STC20030712020509907/12/03 02:05:31  5-MIN KSTC 120805Z AUTO 31004KT 10SM CLR 13/13 A3000 950 100 1000 300/04 RMK AO2
14926KSTC STC20030712021009807/12/03 02:10:31  5-MIN KSTC 120810Z AUTO 30004KT 10SM CLR 14/13 A3000 950 96 1100 300/04 RMK AO2
14926KSTC STC20030712021509907/12/03 02:15:31  5-MIN KSTC 120815Z AUTO 30005KT 10SM CLR 13/13 A3000 950 100 1000 300/05 RMK AO2
14926KSTC STC20030712022009907/12/03 02:20:31  5-MIN KSTC 120820Z AUTO 30004KT 10SM CLR 13/13 A3000 950 100 1000 300/04 RMK AO2
14926KSTC STC20030712022509907/12/03 02:25:31  5-MIN KSTC 120825Z AUTO 31004KT 10SM CLR 13/13 A3000 950 100 1000 310/04 RMK AO2
14926KSTC STC20030712023009907/12/03 02:30:31  5-MIN KSTC 120830Z AUTO 33004KT 10SM CLR 13/13 A3000 950 100 1000 320/04 RMK AO2
14926KSTC STC20030712023509807/12/03 02:35:31  5-MIN KSTC 120835Z AUTO 32004KT 10SM CLR 14/13 A3000 950 96 1100 320/04 RMK AO2
14926KSTC STC20030712024009807/12/03 02:40:31  5-MIN KSTC 120840Z AUTO 32004KT 10SM CLR 14/13 A3001 950 96 1100 320/04 RMK AO2
14926KSTC STC20030712024509907/12/03 02:45:31  5-MIN KSTC 120845Z AUTO 32004KT 10SM CLR 13/13 A3001 950 100 1000 310/04 RMK AO2
14926KSTC STC20030712025012807/12/03 02:50:31  5-MIN KSTC 120850Z AUTO 33003KT 10SM CLR 13/13 A3001 950 100 1000 320/03 RMK AO2 SLP168 60001 T01330133 51010
14926KSTC STC20030712025509807/12/03 02:55:31  5-MIN KSTC 120855Z AUTO 32004KT 10SM CLR 14/13 A3001 950 96 1100 320/04 RMK AO2
14926KSTC STC20030712030009807/12/03 03:00:31  5-MIN KSTC 120900Z AUTO 33003KT 10SM CLR 14/13 A3000 950 96 1100 330/03 RMK AO2
14926KSTC STC20030712030509807/12/03 03:05:31  5-MIN KSTC 120905Z AUTO 32003KT 10SM CLR 14/13 A3001 950 96 1100 320/03 RMK AO2
14926KSTC STC20030712031009907/12/03 03:10:31  5-MIN KSTC 120910Z AUTO 30003KT 10SM CLR 13/13 A3001 950 100 1000 300/03 RMK AO2
14926KSTC STC20030712031509907/12/03 03:15:31  5-MIN KSTC 120915Z AUTO 30004KT 10SM CLR 13/13 A3001 940 100 1000 300/04 RMK AO2
14926KSTC STC20030712032009907/12/03 03:20:31  5-MIN KSTC 120920Z AUTO 30005KT 10SM CLR 13/13 A3001 940 100 1000 290/05 RMK AO2
14926KSTC STC20030712032509807/12/03 03:25:31  5-MIN KSTC 120925Z AUTO 28004KT 10SM CLR 13/13 A3001 940 100 900 280/04 RMK AO2
14926KSTC STC20030712033009807/12/03 03:30:31  5-MIN KSTC 120930Z AUTO 00000KT 10SM CLR 13/13 A3001 940 96 1000 000/00 RMK AO2
14926KSTC STC20030712033509907/12/03 03:35:31  5-MIN KSTC 120935Z AUTO 00000KT 10SM CLR 13/13 A3001 940 100 1000 000/00 RMK AO2
14926KSTC STC20030712034009907/12/03 03:40:31  5-MIN KSTC 120940Z AUTO 30003KT 10SM CLR 13/13 A3001 940 100 1000 300/03 RMK AO2
14926KSTC STC20030712034509907/12/03 03:45:31  5-MIN KSTC 120945Z AUTO 31003KT 10SM CLR 13/13 A3001 940 100 1000 310/03 RMK AO2
14926KSTC STC20030712035011607/12/03 03:50:31  5-MIN KSTC 120950Z AUTO 33003KT 10SM CLR 13/13 A3001 940 100 1000 330/03 RMK AO2 SLP170 T01330133
14926KSTC STC20030712035509907/12/03 03:55:31  5-MIN KSTC 120955Z AUTO 33003KT 10SM CLR 13/13 A3001 940 100 1000 330/03 RMK AO2
14926KSTC STC20030712040009907/12/03 04:00:31  5-MIN KSTC 121000Z AUTO 31004KT 10SM CLR 13/13 A3001 940 100 1000 310/04 RMK AO2
14926KSTC STC20030712040509807/12/03 04:05:31  5-MIN KSTC 121005Z AUTO 31004KT 10SM CLR 13/13 A3001 940 100 900 300/04 RMK AO2
14926KSTC STC20030712041009807/12/03 04:10:31  5-MIN KSTC 121010Z AUTO 31004KT 10SM CLR 13/13 A3001 940 100 900 300/04 RMK AO2
14926KSTC STC20030712041509807/12/03 04:15:31  5-MIN KSTC 121015Z AUTO 32004KT 10SM CLR 13/13 A3001 940 100 900 320/04 RMK AO2
14926KSTC STC20030712042009807/12/03 04:20:31  5-MIN KSTC 121020Z AUTO 32004KT 10SM CLR 13/13 A3002 940 100 900 320/04 RMK AO2
14926KSTC STC20030712042509907/12/03 04:25:31  5-MIN KSTC 121025Z AUTO 32004KT 10SM CLR 13/13 A3002 940 100 1000 320/04 RMK AO2
14926KSTC STC20030712043009907/12/03 04:30:31  5-MIN KSTC 121030Z AUTO 32004KT 10SM CLR 13/13 A3002 940 100 1000 320/04 RMK AO2
14926KSTC STC20030712043509907/12/03 04:35:31  5-MIN KSTC 121035Z AUTO 32005KT 10SM CLR 13/13 A3002 940 100 1000 320/05 RMK AO2
14926KSTC STC20030712044009907/12/03 04:40:31  5-MIN KSTC 121040Z AUTO 32004KT 10SM CLR 13/13 A3002 940 100 1000 320/04 RMK AO2
14926KSTC STC20030712044509907/12/03 04:45:31  5-MIN KSTC 121045Z AUTO 32004KT 10SM CLR 13/13 A3002 940 100 1000 310/04 RMK AO2
14926KSTC STC20030712045011507/12/03 04:50:31  5-MIN KSTC 121050Z AUTO 31004KT 10SM CLR 13/13 A3002 930 100 900 310/04 RMK AO2 SLP173 T01280128
14926KSTC STC20030712045509807/12/03 04:55:31  5-MIN KSTC 121055Z AUTO 31004KT 10SM CLR 13/13 A3002 930 100 900 300/04 RMK AO2
14926KSTC STC20030712050009807/12/03 05:00:31  5-MIN KSTC 121100Z AUTO 32004KT 10SM CLR 13/13 A3002 930 100 900 310/04 RMK AO2
14926KSTC STC20030712050509807/12/03 05:05:31  5-MIN KSTC 121105Z AUTO 32004KT 10SM CLR 13/13 A3002 930 100 900 320/04 RMK AO2
14926KSTC STC20030712051009807/12/03 05:10:31  5-MIN KSTC 121110Z AUTO 32004KT 10SM CLR 13/13 A3002 930 100 900 320/04 RMK AO2
14926KSTC STC20030712051509907/12/03 05:15:31  5-MIN KSTC 121115Z AUTO 00000KT 10SM CLR 13/13 A3002 930 100 1000 000/00 RMK AO2
14926KSTC STC20030712052009907/12/03 05:20:31  5-MIN KSTC 121120Z AUTO 34003KT 10SM CLR 13/13 A3002 930 100 1000 330/03 RMK AO2
14926KSTC STC20030712052509807/12/03 05:25:31  5-MIN KSTC 121125Z AUTO 00000KT 10SM CLR 14/13 A3002 930 96 1100 000/00 RMK AO2
14926KSTC STC20030712053009807/12/03 05:30:31  5-MIN KSTC 121130Z AUTO 00000KT 10SM CLR 14/13 A3003 930 96 1100 000/00 RMK AO2
14926KSTC STC20030712053509907/12/03 05:35:31  5-MIN KSTC 121135Z AUTO 31003KT 10SM CLR 14/14 A3003 930 100 1100 310/03 RMK AO2
14926KSTC STC20030712054009907/12/03 05:40:31  5-MIN KSTC 121140Z AUTO 31004KT 10SM CLR 14/14 A3003 920 100 1000 310/04 RMK AO2
14926KSTC STC20030712054509907/12/03 05:45:31  5-MIN KSTC 121145Z AUTO 32004KT 10SM CLR 14/14 A3003 920 100 1000 320/04 RMK AO2
14926KSTC STC20030712055014507/12/03 05:50:31  5-MIN KSTC 121150Z AUTO 32004KT 10SM CLR 14/14 A3003 920 96 1100 320/04 RMK AO2 SLP178 60001 70014 T01440139 10150 20128 52004
14926KSTC STC20030712055509907/12/03 05:55:31  5-MIN KSTC 121155Z AUTO 31004KT 10SM CLR 14/14 A3004 920 100 1100 310/04 RMK AO2
14926KSTC STC20030712060009907/12/03 06:00:31  5-MIN KSTC 121200Z AUTO 32004KT 10SM CLR 14/14 A3004 920 100 1100 320/04 RMK AO2
14926KSTC STC20030712060509807/12/03 06:05:31  5-MIN KSTC 121205Z AUTO 32004KT 10SM CLR 15/14 A3004 920 96 1200 310/04 RMK AO2
14926KSTC STC20030712061009907/12/03 06:10:31  5-MIN KSTC 121210Z AUTO 32005KT 10SM CLR 15/15 A3004 920 100 1200 320/05 RMK AO2
14926KSTC STC20030712061509807/12/03 06:15:31  5-MIN KSTC 121215Z AUTO 31006KT 10SM CLR 16/15 A3004 910 96 1200 310/06 RMK AO2
14926KSTC STC20030712062009807/12/03 06:20:31  5-MIN KSTC 121220Z AUTO 31005KT 10SM CLR 16/15 A3005 910 96 1200 310/05 RMK AO2
14926KSTC STC20030712062509807/12/03 06:25:31  5-MIN KSTC 121225Z AUTO 31006KT 10SM CLR 16/15 A3005 910 96 1200 310/06 RMK AO2
14926KSTC STC20030712063009807/12/03 06:30:31  5-MIN KSTC 121230Z AUTO 32006KT 10SM CLR 16/15 A3005 910 93 1300 310/06 RMK AO2
14926KSTC STC20030712063509807/12/03 06:35:31  5-MIN KSTC 121235Z AUTO 32005KT 10SM CLR 16/16 A3005 910 96 1300 310/05 RMK AO2
14926KSTC STC20030712064009807/12/03 06:40:31  5-MIN KSTC 121240Z AUTO 32007KT 10SM CLR 16/16 A3005 910 96 1300 320/07 RMK AO2
14926KSTC STC20030712064509807/12/03 06:45:31  5-MIN KSTC 121245Z AUTO 33005KT 10SM CLR 17/15 A3005 910 90 1400 320/05 RMK AO2
14926KSTC STC20030712065011507/12/03 06:50:31  5-MIN KSTC 121250Z AUTO 32006KT 10SM CLR 17/16 A3005 910 93 1400 310/06 RMK AO2 SLP183 T01670156
14926KSTC STC20030712065509807/12/03 06:55:31  5-MIN KSTC 121255Z AUTO 33007KT 10SM CLR 17/16 A3005 900 93 1400 330/07 RMK AO2
14926KSTC STC20030712070009807/12/03 07:00:31  5-MIN KSTC 121300Z AUTO 32006KT 10SM CLR 17/16 A3005 910 90 1400 320/06 RMK AO2
14926KSTC STC20030712070509807/12/03 07:05:31  5-MIN KSTC 121305Z AUTO 34005KT 10SM CLR 17/16 A3005 900 90 1400 340/05 RMK AO2
14926KSTC STC20030712071009807/12/03 07:10:31  5-MIN KSTC 121310Z AUTO 32006KT 10SM CLR 17/16 A3005 900 90 1400 310/06 RMK AO2
14926KSTC STC20030712071509807/12/03 07:15:31  5-MIN KSTC 121315Z AUTO 32006KT 10SM CLR 17/16 A3006 900 90 1400 320/06 RMK AO2
14926KSTC STC20030712072009807/12/03 07:20:31  5-MIN KSTC 121320Z AUTO 33006KT 10SM CLR 18/16 A3006 900 90 1500 320/06 RMK AO2
14926KSTC STC20030712072509807/12/03 07:25:31  5-MIN KSTC 121325Z AUTO 33006KT 10SM CLR 18/16 A3006 900 87 1500 330/06 RMK AO2
14926KSTC STC20030712073009807/12/03 07:30:31  5-MIN KSTC 121330Z AUTO 34006KT 10SM CLR 18/16 A3006 900 90 1500 340/06 RMK AO2
14926KSTC STC20030712073509807/12/03 07:35:31  5-MIN KSTC 121335Z AUTO 35005KT 10SM CLR 18/16 A3006 900 87 1500 350/05 RMK AO2
14926KSTC STC20030712074009807/12/03 07:40:31  5-MIN KSTC 121340Z AUTO 32006KT 10SM CLR 18/16 A3006 900 87 1500 320/06 RMK AO2
14926KSTC STC20030712074509807/12/03 07:45:31  5-MIN KSTC 121345Z AUTO 32005KT 10SM CLR 18/16 A3006 900 87 1500 320/05 RMK AO2
14926KSTC STC20030712075011507/12/03 07:50:31  5-MIN KSTC 121350Z AUTO VRB05KT 10SM CLR 19/16 A3006 890 84 1600 VRB/05 RMK AO2 SLP187 T01890161
14926KSTC STC20030712075509807/12/03 07:55:31  5-MIN KSTC 121355Z AUTO 34004KT 10SM CLR 19/16 A3006 890 84 1600 330/04 RMK AO2
14926KSTC STC20030712080009807/12/03 08:00:31  5-MIN KSTC 121400Z AUTO 31005KT 10SM CLR 19/16 A3006 890 84 1600 310/05 RMK AO2
14926KSTC STC20030712080509807/12/03 08:05:31  5-MIN KSTC 121405Z AUTO 32005KT 10SM CLR 19/16 A3006 890 81 1700 320/05 RMK AO2
14926KSTC STC20030712081009807/12/03 08:10:31  5-MIN KSTC 121410Z AUTO 02005KT 10SM CLR 19/16 A3007 890 81 1700 010/05 RMK AO2
14926KSTC STC20030712081509807/12/03 08:15:31  5-MIN KSTC 121415Z AUTO 00000KT 10SM CLR 20/16 A3007 890 75 1700 000/00 RMK AO2
14926KSTC STC20030712082009807/12/03 08:20:31  5-MIN KSTC 121420Z AUTO 35004KT 10SM CLR 20/16 A3007 890 78 1700 350/04 RMK AO2
14926KSTC STC20030712082509807/12/03 08:25:31  5-MIN KSTC 121425Z AUTO 32005KT 10SM CLR 20/16 A3007 890 78 1700 320/05 RMK AO2
14926KSTC STC20030712083009807/12/03 08:30:31  5-MIN KSTC 121430Z AUTO VRB04KT 10SM CLR 20/16 A3007 890 78 1700 VRB/04 RMK AO2
14926KSTC STC20030712083509807/12/03 08:35:31  5-MIN KSTC 121435Z AUTO 31006KT 10SM CLR 20/16 A3007 890 78 1700 310/06 RMK AO2
14926KSTC STC20030712084009807/12/03 08:40:31  5-MIN KSTC 121440Z AUTO 33005KT 10SM CLR 20/16 A3007 890 75 1700 320/05 RMK AO2
14926KSTC STC20030712084509807/12/03 08:45:31  5-MIN KSTC 121445Z AUTO VRB04KT 10SM CLR 21/16 A3007 890 75 1800 VRB/04 RMK AO2
14926KSTC STC20030712085012107/12/03 08:50:31  5-MIN KSTC 121450Z AUTO 29003KT 10SM CLR 21/17 A3007 890 78 1800 290/03 RMK AO2 SLP189 T02060167 53009
14926KSTC STC20030712085509807/12/03 08:55:31  5-MIN KSTC 121455Z AUTO 32005KT 10SM CLR 21/16 A3007 890 73 1800 320/05 RMK AO2
14926KSTC STC20030712090009807/12/03 09:00:31  5-MIN KSTC 121500Z AUTO VRB04KT 10SM CLR 21/16 A3007 890 70 1800 VRB/04 RMK AO2
14926KSTC STC20030712090509807/12/03 09:05:31  5-MIN KSTC 121505Z AUTO 36004KT 10SM CLR 22/16 A3007 890 68 1900 360/04 RMK AO2
14926KSTC STC20030712091009807/12/03 09:10:31  5-MIN KSTC 121510Z AUTO 00000KT 10SM CLR 22/16 A3007 890 70 1900 000/00 RMK AO2
14926KSTC STC20030712091509807/12/03 09:15:31  5-MIN KSTC 121515Z AUTO 00000KT 10SM CLR 22/16 A3007 890 70 1900 000/00 RMK AO2
14926KSTC STC20030712092009807/12/03 09:20:31  5-MIN KSTC 121520Z AUTO 00000KT 10SM CLR 22/16 A3007 890 70 1900 000/00 RMK AO2
14926KSTC STC20030712092509807/12/03 09:25:31  5-MIN KSTC 121525Z AUTO 33004KT 10SM CLR 22/16 A3007 890 65 2000 330/04 RMK AO2
14926KSTC STC20030712093009807/12/03 09:30:31  5-MIN KSTC 121530Z AUTO 26003KT 10SM CLR 22/15 A3007 890 65 1900 250/03 RMK AO2
14926KSTC STC20030712093509807/12/03 09:35:31  5-MIN KSTC 121535Z AUTO VRB04KT 10SM CLR 22/15 A3007 890 65 1900 VRB/04 RMK AO2
14926KSTC STC20030712094009807/12/03 09:40:31  5-MIN KSTC 121540Z AUTO 00000KT 10SM CLR 22/15 A3007 890 63 2000 000/00 RMK AO2
14926KSTC STC20030712094509807/12/03 09:45:31  5-MIN KSTC 121545Z AUTO VRB03KT 10SM CLR 22/14 A3007 890 61 2000 VRB/03 RMK AO2
14926KSTC STC20030712095011507/12/03 09:50:31  5-MIN KSTC 121550Z AUTO 32005KT 10SM CLR 23/15 A3007 890 61 2000 320/05 RMK AO2 SLP189 T02280150
14926KSTC STC20030712095509807/12/03 09:55:31  5-MIN KSTC 121555Z AUTO VRB03KT 10SM CLR 23/15 A3007 880 61 2000 VRB/03 RMK AO2
14926KSTC STC20030712100009807/12/03 10:00:31  5-MIN KSTC 121600Z AUTO 00000KT 10SM CLR 22/14 A3007 890 61 2000 000/00 RMK AO2
14926KSTC STC20030712100509807/12/03 10:05:31  5-MIN KSTC 121605Z AUTO 00000KT 10SM CLR 23/14 A3007 890 59 2000 000/00 RMK AO2
14926KSTC STC20030712101009807/12/03 10:10:31  5-MIN KSTC 121610Z AUTO 31006KT 10SM CLR 23/15 A3008 880 61 2000 300/06 RMK AO2
14926KSTC STC20030712101509807/12/03 10:15:31  5-MIN KSTC 121615Z AUTO 00000KT 10SM CLR 23/14 A3007 880 57 2000 000/00 RMK AO2
14926KSTC STC20030712102009807/12/03 10:20:31  5-MIN KSTC 121620Z AUTO 30005KT 10SM CLR 23/14 A3007 880 55 2100 300/05 RMK AO2
14926KSTC STC20030712102509807/12/03 10:25:31  5-MIN KSTC 121625Z AUTO VRB04KT 10SM CLR 23/14 A3007 890 59 2000 VRB/04 RMK AO2
14926KSTC STC20030712103009807/12/03 10:30:31  5-MIN KSTC 121630Z AUTO VRB03KT 10SM CLR 23/14 A3007 890 57 2100 VRB/03 RMK AO2
14926KSTC STC20030712103509807/12/03 10:35:31  5-MIN KSTC 121635Z AUTO 35005KT 10SM CLR 23/14 A3007 890 55 2100 350/05 RMK AO2
14926KSTC STC20030712104009807/12/03 10:40:31  5-MIN KSTC 121640Z AUTO VRB04KT 10SM CLR 23/14 A3007 890 55 2100 VRB/04 RMK AO2
14926KSTC STC20030712104509807/12/03 10:45:31  5-MIN KSTC 121645Z AUTO 30006KT 10SM CLR 23/14 A3007 890 57 2100 300/06 RMK AO2
14926KSTC STC20030712105011507/12/03 10:50:31  5-MIN KSTC 121650Z AUTO VRB04KT 10SM CLR 23/14 A3007 890 55 2100 VRB/04 RMK AO2 SLP190 T02330139
14926KSTC STC20030712105509807/12/03 10:55:31  5-MIN KSTC 121655Z AUTO VRB05KT 10SM CLR 24/13 A3007 880 51 2200 VRB/05 RMK AO2
14926KSTC STC20030712110009807/12/03 11:00:31  5-MIN KSTC 121700Z AUTO VRB04KT 10SM CLR 24/14 A3007 890 53 2200 VRB/04 RMK AO2
14926KSTC STC20030712110509807/12/03 11:05:31  5-MIN KSTC 121705Z AUTO 33003KT 10SM CLR 23/14 A3007 890 55 2100 330/03 RMK AO2
14926KSTC STC20030712111009807/12/03 11:10:31  5-MIN KSTC 121710Z AUTO VRB04KT 10SM CLR 24/13 A3007 890 51 2200 VRB/04 RMK AO2
14926KSTC STC20030712111509807/12/03 11:15:31  5-MIN KSTC 121715Z AUTO VRB05KT 10SM CLR 24/13 A3007 890 51 2200 VRB/05 RMK AO2
14926KSTC STC20030712112010107/12/03 11:20:31  5-MIN KSTC 121720Z AUTO 34006KT 10SM FEW043 24/13 A3007 890 51 2200 340/06 RMK AO2
14926KSTC STC20030712112510107/12/03 11:25:31  5-MIN KSTC 121725Z AUTO 32005KT 10SM FEW043 24/13 A3007 890 49 2200 320/05 RMK AO2
14926KSTC STC20030712113010107/12/03 11:30:31  5-MIN KSTC 121730Z AUTO 32005KT 10SM FEW043 24/14 A3007 890 55 2200 320/05 RMK AO2
14926KSTC STC20030712113509807/12/03 11:35:31  5-MIN KSTC 121735Z AUTO VRB05KT 10SM CLR 24/13 A3007 890 49 2200 VRB/05 RMK AO2
14926KSTC STC20030712114010107/12/03 11:40:31  5-MIN KSTC 121740Z AUTO 32007KT 10SM FEW043 24/14 A3007 890 51 2200 320/07 RMK AO2
14926KSTC STC20030712114510107/12/03 11:45:31  5-MIN KSTC 121745Z AUTO 00000KT 10SM FEW043 24/13 A3007 890 49 2200 000/00 RMK AO2
14926KSTC STC20030712115013307/12/03 11:50:31  5-MIN KSTC 121750Z AUTO VRB04KT 10SM CLR 24/13 A3007 890 47 2200 VRB/04 RMK AO2 SLP188 T02440128 10250 20144 51012
14926KSTC STC20030712115509807/12/03 11:55:31  5-MIN KSTC 121755Z AUTO VRB05KT 10SM CLR 24/13 A3007 890 47 2200 VRB/05 RMK AO2
14926KSTC STC20030712120009807/12/03 12:00:31  5-MIN KSTC 121800Z AUTO 35008KT 10SM CLR 24/14 A3007 890 51 2200 350/08 RMK AO2
14926KSTC STC20030712120509807/12/03 12:05:31  5-MIN KSTC 121805Z AUTO 36005KT 10SM CLR 24/14 A3007 890 51 2200 360/05 RMK AO2
14926KSTC STC20030712121009807/12/03 12:10:31  5-MIN KSTC 121810Z AUTO 31005KT 10SM CLR 24/13 A3007 890 47 2200 310/05 RMK AO2
14926KSTC STC20030712121509807/12/03 12:15:31  5-MIN KSTC 121815Z AUTO 00000KT 10SM CLR 24/13 A3007 890 47 2200 000/00 RMK AO2
14926KSTC STC20030712122009807/12/03 12:20:31  5-MIN KSTC 121820Z AUTO 36006KT 10SM CLR 25/13 A3007 890 46 2300 360/06 RMK AO2
14926KSTC STC20030712122509807/12/03 12:25:31  5-MIN KSTC 121825Z AUTO 01005KT 10SM CLR 25/13 A3007 890 46 2300 010/05 RMK AO2
14926KSTC STC20030712123009807/12/03 12:30:31  5-MIN KSTC 121830Z AUTO 00000KT 10SM CLR 25/13 A3007 890 46 2300 000/00 RMK AO2
14926KSTC STC20030712123511407/12/03 12:35:31  5-MIN KSTC 121835Z AUTO 32007KT 290V360 10SM CLR 25/13 A3007 890 46 2300 310/07 290V360 RMK AO2
14926KSTC STC20030712124010107/12/03 12:40:31  5-MIN KSTC 121840Z AUTO VRB04KT 10SM FEW050 25/13 A3006 890 46 2300 VRB/04 RMK AO2
14926KSTC STC20030712124510107/12/03 12:45:31  5-MIN KSTC 121845Z AUTO 36006KT 10SM FEW050 26/13 A3006 890 44 2400 360/06 RMK AO2
14926KSTC STC20030712125011807/12/03 12:50:31  5-MIN KSTC 121850Z AUTO VRB03KT 10SM FEW050 25/13 A3006 890 46 2300 VRB/03 RMK AO2 SLP186 T02500128
14926KSTC STC20030712125510107/12/03 12:55:31  5-MIN KSTC 121855Z AUTO VRB03KT 10SM FEW050 26/13 A3006 890 44 2400 VRB/03 RMK AO2
14926KSTC STC20030712130010107/12/03 13:00:31  5-MIN KSTC 121900Z AUTO 04004KT 10SM FEW050 26/12 A3006 900 43 2400 040/04 RMK AO2
14926KSTC STC20030712130511707/12/03 13:05:31  5-MIN KSTC 121905Z AUTO 01007KT 280V070 10SM FEW050 26/13 A3006 900 46 2400 010/07 280V070 RMK AO2
14926KSTC STC20030712131010107/12/03 13:10:31  5-MIN KSTC 121910Z AUTO VRB05KT 10SM FEW055 24/13 A3006 900 51 2200 VRB/05 RMK AO2
14926KSTC STC20030712131510107/12/03 13:15:31  5-MIN KSTC 121915Z AUTO 36006KT 10SM FEW055 24/13 A3006 900 49 2200 360/06 RMK AO2
14926KSTC STC20030712132010107/12/03 13:20:31  5-MIN KSTC 121920Z AUTO 03005KT 10SM FEW055 26/13 A3006 900 44 2400 030/05 RMK AO2
14926KSTC STC20030712132510107/12/03 13:25:31  5-MIN KSTC 121925Z AUTO 05003KT 10SM FEW060 26/13 A3006 900 44 2400 040/03 RMK AO2
14926KSTC STC20030712133010107/12/03 13:30:31  5-MIN KSTC 121930Z AUTO VRB05KT 10SM SCT055 25/12 A3006 900 44 2300 VRB/05 RMK AO2
14926KSTC STC20030712133510107/12/03 13:35:31  5-MIN KSTC 121935Z AUTO 03003KT 10SM BKN055 25/12 A3006 900 44 2300 020/03 RMK AO2
14926KSTC STC20030712134010107/12/03 13:40:31  5-MIN KSTC 121940Z AUTO 00000KT 10SM SCT055 26/12 A3006 900 43 2400 000/00 RMK AO2
14926KSTC STC20030712134510107/12/03 13:45:31  5-MIN KSTC 121945Z AUTO 00000KT 10SM FEW060 26/12 A3005 900 41 2400 000/00 RMK AO2
14926KSTC STC20030712135011807/12/03 13:50:31  5-MIN KSTC 121950Z AUTO VRB03KT 10SM FEW060 26/12 A3005 900 43 2400 VRB/03 RMK AO2 SLP183 T02560122
14926KSTC STC20030712135510107/12/03 13:55:31  5-MIN KSTC 121955Z AUTO 35005KT 10SM SCT055 26/13 A3005 900 46 2400 350/05 RMK AO2
14926KSTC STC20030712140010107/12/03 14:00:31  5-MIN KSTC 122000Z AUTO 35003KT 10SM SCT055 24/13 A3005 900 49 2200 350/03 RMK AO2
14926KSTC STC20030712140510107/12/03 14:05:31  5-MIN KSTC 122005Z AUTO 03004KT 10SM BKN055 25/13 A3005 900 48 2300 020/04 RMK AO2
14926KSTC STC20030712141010107/12/03 14:10:31  5-MIN KSTC 122010Z AUTO 07003KT 10SM BKN060 24/13 A3005 900 49 2200 070/03 RMK AO2
14926KSTC STC20030712141510107/12/03 14:15:31  5-MIN KSTC 122015Z AUTO 06003KT 10SM SCT060 25/12 A3005 900 44 2300 060/03 RMK AO2
14926KSTC STC20030712142010107/12/03 14:20:31  5-MIN KSTC 122020Z AUTO 00000KT 10SM SCT060 25/12 A3005 900 44 2300 000/00 RMK AO2
14926KSTC STC20030712142510107/12/03 14:25:31  5-MIN KSTC 122025Z AUTO 00000KT 10SM SCT060 26/13 A3005 910 44 2400 000/00 RMK AO2
14926KSTC STC20030712143010107/12/03 14:30:31  5-MIN KSTC 122030Z AUTO VRB03KT 10SM SCT060 26/13 A3005 910 44 2400 VRB/03 RMK AO2
14926KSTC STC20030712143510107/12/03 14:35:31  5-MIN KSTC 122035Z AUTO 00000KT 10SM FEW055 26/12 A3005 910 43 2400 000/00 RMK AO2
14926KSTC STC20030712144010107/12/03 14:40:31  5-MIN KSTC 122040Z AUTO VRB04KT 10SM SCT055 26/13 A3005 910 44 2400 VRB/04 RMK AO2
14926KSTC STC20030712144510107/12/03 14:45:31  5-MIN KSTC 122045Z AUTO 30006KT 10SM SCT055 26/13 A3005 910 46 2400 290/06 RMK AO2
14926KSTC STC20030712145012407/12/03 14:50:31  5-MIN KSTC 122050Z AUTO 33005KT 10SM SCT055 24/13 A3005 910 47 2200 320/05 RMK AO2 SLP181 T02440128 58001
14926KSTC STC20030712145510107/12/03 14:55:31  5-MIN KSTC 122055Z AUTO 29005KT 10SM BKN055 24/13 A3005 910 47 2200 290/05 RMK AO2
14926KSTC STC20030712150010107/12/03 15:00:31  5-MIN KSTC 122100Z AUTO 28004KT 10SM SCT055 26/13 A3005 910 44 2400 280/04 RMK AO2
14926KSTC STC20030712150510107/12/03 15:05:31  5-MIN KSTC 122105Z AUTO 00000KT 10SM SCT055 26/13 A3005 910 44 2400 000/00 RMK AO2
14926KSTC STC20030712151010107/12/03 15:10:31  5-MIN KSTC 122110Z AUTO 36004KT 10SM FEW055 26/13 A3005 910 43 2400 350/04 RMK AO2
14926KSTC STC20030712151510107/12/03 15:15:31  5-MIN KSTC 122115Z AUTO 27005KT 10SM FEW055 26/13 A3005 910 44 2400 270/05 RMK AO2
14926KSTC STC20030712152010107/12/03 15:20:31  5-MIN KSTC 122120Z AUTO 26004KT 10SM FEW055 24/12 A3005 910 46 2300 260/04 RMK AO2
14926KSTC STC20030712152509807/12/03 15:25:31  5-MIN KSTC 122125Z AUTO 00000KT 10SM CLR 24/12 A3004 910 46 2300 000/00 RMK AO2
14926KSTC STC20030712153010107/12/03 15:30:31  5-MIN KSTC 122130Z AUTO 29004KT 10SM FEW080 24/13 A3004 910 47 2300 280/04 RMK AO2
14926KSTC STC20030712153510807/12/03 15:35:31  5-MIN KSTC 122135Z AUTO 00000KT 10SM FEW055 SCT080 24/13 A3004 920 47 2300 000/00 RMK AO2
14926KSTC STC20030712154010807/12/03 15:40:31  5-MIN KSTC 122140Z AUTO 00000KT 10SM SCT060 BKN080 24/12 A3004 920 46 2300 000/00 RMK AO2
14926KSTC STC20030712154510807/12/03 15:45:31  5-MIN KSTC 122145Z AUTO 27006KT 10SM SCT060 BKN080 26/13 A3004 920 44 2400 270/06 RMK AO2
14926KSTC STC20030712155012507/12/03 15:50:31  5-MIN KSTC 122150Z AUTO 27006KT 10SM SCT060 SCT080 24/13 A3004 920 49 2300 270/06 RMK AO2 SLP178 T02440133
14926KSTC STC20030712155510807/12/03 15:55:31  5-MIN KSTC 122155Z AUTO 26005KT 10SM SCT060 SCT080 24/13 A3003 920 49 2300 260/05 RMK AO2
14926KSTC STC20030712160010107/12/03 16:00:31  5-MIN KSTC 122200Z AUTO 26003KT 10SM FEW060 24/13 A3003 920 49 2300 260/03 RMK AO2
14926KSTC STC20030712160510107/12/03 16:05:31  5-MIN KSTC 122205Z AUTO 25003KT 10SM FEW060 24/13 A3003 920 49 2300 250/03 RMK AO2
14926KSTC STC20030712161009807/12/03 16:10:31  5-MIN KSTC 122210Z AUTO 00000KT 10SM CLR 26/13 A3003 920 44 2400 000/00 RMK AO2
14926KSTC STC20030712161510107/12/03 16:15:31  5-MIN KSTC 122215Z AUTO VRB03KT 10SM FEW065 26/13 A3003 930 44 2400 VRB/03 RMK AO2
14926KSTC STC20030712162010107/12/03 16:20:31  5-MIN KSTC 122220Z AUTO 26005KT 10SM SCT060 26/13 A3003 930 44 2400 260/05 RMK AO2
14926KSTC STC20030712162510807/12/03 16:25:31  5-MIN KSTC 122225Z AUTO 00000KT 10SM SCT060 BKN070 26/12 A3003 930 43 2400 000/00 RMK AO2
14926KSTC STC20030712163010107/12/03 16:30:31  5-MIN KSTC 122230Z AUTO 26006KT 10SM BKN060 26/13 A3003 930 43 2500 260/06 RMK AO2
14926KSTC STC20030712163510807/12/03 16:35:31  5-MIN KSTC 122235Z AUTO 28005KT 10SM SCT060 SCT070 26/13 A3003 930 43 2500 280/05 RMK AO2
14926KSTC STC20030712164010107/12/03 16:40:31  5-MIN KSTC 122240Z AUTO 28004KT 10SM SCT060 25/13 A3002 930 46 2300 280/04 RMK AO2
14926KSTC STC20030712164510107/12/03 16:45:31  5-MIN KSTC 122245Z AUTO 31004KT 10SM FEW060 25/12 A3002 930 44 2300 310/04 RMK AO2
14926KSTC STC20030712165011807/12/03 16:50:31  5-MIN KSTC 122250Z AUTO VRB03KT 10SM SCT060 26/13 A3002 930 44 2400 VRB/03 RMK AO2 SLP172 T02560128
14926KSTC STC20030712165510107/12/03 16:55:31  5-MIN KSTC 122255Z AUTO 00000KT 10SM SCT060 26/13 A3002 930 44 2400 000/00 RMK AO2
14926KSTC STC20030712170010107/12/03 17:00:31  5-MIN KSTC 122300Z AUTO 25005KT 10SM SCT060 26/13 A3002 930 43 2500 250/05 RMK AO2
14926KSTC STC20030712170510107/12/03 17:05:31  5-MIN KSTC 122305Z AUTO VRB03KT 10SM BKN060 26/12 A3002 930 41 2500 VRB/03 RMK AO2
14926KSTC STC20030712171010107/12/03 17:10:31  5-MIN KSTC 122310Z AUTO 27006KT 10SM SCT060 26/13 A3002 930 43 2500 260/06 RMK AO2
14926KSTC STC20030712171510107/12/03 17:15:31  5-MIN KSTC 122315Z AUTO 25007KT 10SM SCT060 26/12 A3002 930 41 2500 250/07 RMK AO2
14926KSTC STC20030712172010107/12/03 17:20:31  5-MIN KSTC 122320Z AUTO 23007KT 10SM FEW060 25/12 A3002 930 44 2300 220/07 RMK AO2
14926KSTC STC20030712172510107/12/03 17:25:31  5-MIN KSTC 122325Z AUTO 23005KT 10SM FEW060 26/12 A3002 940 41 2500 230/05 RMK AO2
14926KSTC STC20030712173010107/12/03 17:30:31  5-MIN KSTC 122330Z AUTO 24007KT 10SM FEW060 26/13 A3002 930 44 2400 240/07 RMK AO2
14926KSTC STC20030712173509807/12/03 17:35:31  5-MIN KSTC 122335Z AUTO 30007KT 10SM CLR 26/12 A3002 930 43 2400 290/07 RMK AO2
14926KSTC STC20030712174009807/12/03 17:40:31  5-MIN KSTC 122340Z AUTO 30006KT 10SM CLR 26/12 A3002 930 41 2500 300/06 RMK AO2
14926KSTC STC20030712174509807/12/03 17:45:31  5-MIN KSTC 122345Z AUTO 28007KT 10SM CLR 26/12 A3002 930 43 2400 280/07 RMK AO2
14926KSTC STC20030712175013307/12/03 17:50:31  5-MIN KSTC 122350Z AUTO 26005KT 10SM CLR 26/12 A3002 930 41 2400 260/05 RMK AO2 SLP171 T02560117 10261 20239 58006
14926KSTC STC20030712175509807/12/03 17:55:31  5-MIN KSTC 122355Z AUTO 27006KT 10SM CLR 26/12 A3002 930 41 2400 260/06 RMK AO2
14926KSTC STC20030712180009807/12/03 18:00:31  5-MIN KSTC 130000Z AUTO 26005KT 10SM CLR 26/12 A3002 940 43 2400 260/05 RMK AO2
14926KSTC STC20030712180509807/12/03 18:05:31  5-MIN KSTC 130005Z AUTO 28005KT 10SM CLR 25/12 A3002 940 44 2300 280/05 RMK AO2
14926KSTC STC20030712181009807/12/03 18:10:31  5-MIN KSTC 130010Z AUTO 26005KT 10SM CLR 25/12 A3002 940 44 2300 260/05 RMK AO2
14926KSTC STC20030712181509807/12/03 18:15:31  5-MIN KSTC 130015Z AUTO 25004KT 10SM CLR 25/12 A3002 940 44 2300 250/04 RMK AO2
14926KSTC STC20030712182009807/12/03 18:20:31  5-MIN KSTC 130020Z AUTO 26004KT 10SM CLR 25/12 A3002 940 44 2300 260/04 RMK AO2
14926KSTC STC20030712182509807/12/03 18:25:31  5-MIN KSTC 130025Z AUTO 26006KT 10SM CLR 25/13 A3002 940 46 2300 250/06 RMK AO2
14926KSTC STC20030712183009807/12/03 18:30:31  5-MIN KSTC 130030Z AUTO 28005KT 10SM CLR 25/13 A3002 940 48 2300 280/05 RMK AO2
14926KSTC STC20030712183509807/12/03 18:35:31  5-MIN KSTC 130035Z AUTO 28003KT 10SM CLR 25/13 A3002 940 48 2300 280/03 RMK AO2
14926KSTC STC20030712184009807/12/03 18:40:31  5-MIN KSTC 130040Z AUTO 26007KT 10SM CLR 24/14 A3002 940 51 2300 250/07 RMK AO2
14926KSTC STC20030712184509807/12/03 18:45:31  5-MIN KSTC 130045Z AUTO 26005KT 10SM CLR 24/14 A3002 940 51 2300 260/05 RMK AO2
14926KSTC STC20030712185011507/12/03 18:50:31  5-MIN KSTC 130050Z AUTO 25004KT 10SM CLR 24/14 A3002 940 51 2300 250/04 RMK AO2 SLP169 T02440139
14926KSTC STC20030712185509807/12/03 18:55:31  5-MIN KSTC 130055Z AUTO 26005KT 10SM CLR 24/14 A3002 940 53 2200 250/05 RMK AO2
14926KSTC STC20030712190009807/12/03 19:00:31  5-MIN KSTC 130100Z AUTO 27004KT 10SM CLR 24/14 A3002 940 53 2200 270/04 RMK AO2
14926KSTC STC20030712190509807/12/03 19:05:31  5-MIN KSTC 130105Z AUTO 29004KT 10SM CLR 24/14 A3002 940 53 2200 290/04 RMK AO2
14926KSTC STC20030712191009807/12/03 19:10:31  5-MIN KSTC 130110Z AUTO 28003KT 10SM CLR 24/14 A3002 940 53 2200 280/03 RMK AO2
14926KSTC STC20030712191509807/12/03 19:15:31  5-MIN KSTC 130115Z AUTO 29005KT 10SM CLR 23/14 A3002 940 55 2200 290/05 RMK AO2
14926KSTC STC20030712192009807/12/03 19:20:31  5-MIN KSTC 130120Z AUTO 27004KT 10SM CLR 23/14 A3002 940 55 2200 270/04 RMK AO2
14926KSTC STC20030712192509807/12/03 19:25:31  5-MIN KSTC 130125Z AUTO 29004KT 10SM CLR 23/14 A3002 940 59 2100 280/04 RMK AO2
14926KSTC STC20030712193009807/12/03 19:30:31  5-MIN KSTC 130130Z AUTO 26004KT 10SM CLR 23/14 A3002 940 59 2100 260/04 RMK AO2
14926KSTC STC20030712195509807/12/03 19:55:31  5-MIN KSTC 130155Z AUTO 00000KT 10SM CLR 21/16 A3002 930 73 1900 000/00 RMK AO2
14926KSTC STC20030712200009807/12/03 20:00:31  5-MIN KSTC 130200Z AUTO 00000KT 10SM CLR 20/16 A3002 930 78 1800 000/00 RMK AO2
14926KSTC STC20030712200509807/12/03 20:05:31  5-MIN KSTC 130205Z AUTO 00000KT 10SM CLR 20/16 A3002 930 78 1800 000/00 RMK AO2
14926KSTC STC20030712201009807/12/03 20:10:31  5-MIN KSTC 130210Z AUTO 00000KT 10SM CLR 19/17 A3002 930 84 1700 000/00 RMK AO2
14926KSTC STC20030712201509807/12/03 20:15:31  5-MIN KSTC 130215Z AUTO 00000KT 10SM CLR 19/16 A3003 930 81 1700 000/00 RMK AO2
14926KSTC STC20030712202009807/12/03 20:20:31  5-MIN KSTC 130220Z AUTO 00000KT 10SM CLR 19/16 A3003 930 81 1600 000/00 RMK AO2
14926KSTC STC20030712202509807/12/03 20:25:31  5-MIN KSTC 130225Z AUTO 00000KT 10SM CLR 19/16 A3003 930 81 1600 000/00 RMK AO2
14926KSTC STC20030712203009807/12/03 20:30:31  5-MIN KSTC 130230Z AUTO 00000KT 10SM CLR 18/16 A3003 930 84 1600 000/00 RMK AO2
14926KSTC STC20030712203509807/12/03 20:35:31  5-MIN KSTC 130235Z AUTO 00000KT 10SM CLR 19/16 A3003 920 81 1600 000/00 RMK AO2
14926KSTC STC20030712204009807/12/03 20:40:31  5-MIN KSTC 130240Z AUTO 00000KT 10SM CLR 18/16 A3003 920 84 1600 000/00 RMK AO2
14926KSTC STC20030712204509807/12/03 20:45:31  5-MIN KSTC 130245Z AUTO 00000KT 10SM CLR 18/16 A3003 920 84 1600 000/00 RMK AO2
14926KSTC STC20030712205012107/12/03 20:50:31  5-MIN KSTC 130250Z AUTO 00000KT 10SM CLR 18/16 A3004 920 84 1600 000/00 RMK AO2 SLP176 T01830156 56009
14926KSTC STC20030712205509807/12/03 20:55:31  5-MIN KSTC 130255Z AUTO 00000KT 10SM CLR 18/16 A3004 920 87 1500 000/00 RMK AO2
14926KSTC STC20030712210009807/12/03 21:00:31  5-MIN KSTC 130300Z AUTO 00000KT 10SM CLR 18/16 A3004 920 87 1500 000/00 RMK AO2
14926KSTC STC20030712210509807/12/03 21:05:31  5-MIN KSTC 130305Z AUTO 00000KT 10SM CLR 18/16 A3004 920 87 1500 000/00 RMK AO2
14926KSTC STC20030712211009807/12/03 21:10:31  5-MIN KSTC 130310Z AUTO 00000KT 10SM CLR 18/16 A3004 920 87 1500 000/00 RMK AO2
14926KSTC STC20030712211509807/12/03 21:15:31  5-MIN KSTC 130315Z AUTO 00000KT 10SM CLR 17/16 A3004 920 90 1400 000/00 RMK AO2
14926KSTC STC20030712212009807/12/03 21:20:31  5-MIN KSTC 130320Z AUTO 00000KT 10SM CLR 17/16 A3004 920 90 1400 000/00 RMK AO2
14926KSTC STC20030712212509807/12/03 21:25:31  5-MIN KSTC 130325Z AUTO 00000KT 10SM CLR 17/16 A3004 920 90 1400 000/00 RMK AO2
14926KSTC STC20030712213009807/12/03 21:30:31  5-MIN KSTC 130330Z AUTO 00000KT 10SM CLR 17/16 A3004 920 93 1400 000/00 RMK AO2
14926KSTC STC20030712213509807/12/03 21:35:31  5-MIN KSTC 130335Z AUTO 00000KT 10SM CLR 17/16 A3004 920 93 1400 000/00 RMK AO2
14926KSTC STC20030712214009807/12/03 21:40:31  5-MIN KSTC 130340Z AUTO 00000KT 10SM CLR 16/15 A3004 920 93 1300 000/00 RMK AO2
14926KSTC STC20030712214509807/12/03 21:45:31  5-MIN KSTC 130345Z AUTO 00000KT 10SM CLR 16/15 A3004 920 93 1300 000/00 RMK AO2
14926KSTC STC20030712215011507/12/03 21:50:31  5-MIN KSTC 130350Z AUTO 00000KT 10SM CLR 17/16 A3004 920 93 1400 000/00 RMK AO2 SLP178 T01670156
14926KSTC STC20030712215509807/12/03 21:55:31  5-MIN KSTC 130355Z AUTO 00000KT 10SM CLR 17/16 A3004 920 93 1400 000/00 RMK AO2
14926KSTC STC20030712220009807/12/03 22:00:31  5-MIN KSTC 130400Z AUTO 00000KT 10SM CLR 17/16 A3004 910 93 1400 000/00 RMK AO2
14926KSTC STC20030712220509807/12/03 22:05:31  5-MIN KSTC 130405Z AUTO 00000KT 10SM CLR 17/15 A3004 910 90 1400 000/00 RMK AO2
14926KSTC STC20030712221009807/12/03 22:10:31  5-MIN KSTC 130410Z AUTO 00000KT 10SM CLR 16/15 A3004 910 93 1300 000/00 RMK AO2
14926KSTC STC20030712221509807/12/03 22:15:31  5-MIN KSTC 130415Z AUTO 00000KT 10SM CLR 16/15 A3004 910 93 1300 000/00 RMK AO2
14926KSTC STC20030712222009807/12/03 22:20:31  5-MIN KSTC 130420Z AUTO 00000KT 10SM CLR 16/16 A3004 910 96 1300 000/00 RMK AO2
14926KSTC STC20030712222509807/12/03 22:25:31  5-MIN KSTC 130425Z AUTO 00000KT 10SM CLR 16/15 A3005 910 93 1300 000/00 RMK AO2
14926KSTC STC20030712223009807/12/03 22:30:31  5-MIN KSTC 130430Z AUTO 00000KT 10SM CLR 16/15 A3004 910 93 1300 000/00 RMK AO2
14926KSTC STC20030712223509807/12/03 22:35:31  5-MIN KSTC 130435Z AUTO 00000KT 10SM CLR 16/15 A3004 910 96 1200 000/00 RMK AO2
14926KSTC STC20030712224009807/12/03 22:40:31  5-MIN KSTC 130440Z AUTO 00000KT 10SM CLR 16/15 A3004 910 96 1200 000/00 RMK AO2
14926KSTC STC20030712224509807/12/03 22:45:31  5-MIN KSTC 130445Z AUTO 00000KT 10SM CLR 16/15 A3004 910 93 1300 000/00 RMK AO2
14926KSTC STC20030712225011507/12/03 22:50:31  5-MIN KSTC 130450Z AUTO 00000KT 10SM CLR 16/15 A3004 910 96 1200 000/00 RMK AO2 SLP179 T01560150
14926KSTC STC20030712225509807/12/03 22:55:31  5-MIN KSTC 130455Z AUTO 00000KT 10SM CLR 16/15 A3004 910 96 1200 000/00 RMK AO2
14926KSTC STC20030712230009807/12/03 23:00:31  5-MIN KSTC 130500Z AUTO 00000KT 10SM CLR 16/15 A3004 910 96 1200 000/00 RMK AO2
14926KSTC STC20030712230509807/12/03 23:05:31  5-MIN KSTC 130505Z AUTO 00000KT 10SM CLR 16/15 A3004 910 96 1200 000/00 RMK AO2
14926KSTC STC20030712231009807/12/03 23:10:31  5-MIN KSTC 130510Z AUTO 00000KT 10SM CLR 16/15 A3004 910 96 1200 000/00 RMK AO2
14926KSTC STC20030712231509807/12/03 23:15:31  5-MIN KSTC 130515Z AUTO 00000KT 10SM CLR 16/15 A3004 910 96 1200 000/00 RMK AO2
14926KSTC STC20030712232009907/12/03 23:20:31  5-MIN KSTC 130520Z AUTO 00000KT 10SM CLR 15/15 A3004 910 100 1200 000/00 RMK AO2
14926KSTC STC20030712232509807/12/03 23:25:31  5-MIN KSTC 130525Z AUTO 00000KT 10SM CLR 15/14 A3004 910 96 1200 000/00 RMK AO2
14926KSTC STC20030712233009807/12/03 23:30:31  5-MIN KSTC 130530Z AUTO 00000KT 10SM CLR 15/14 A3004 910 96 1200 000/00 RMK AO2
14926KSTC STC20030712233509807/12/03 23:35:31  5-MIN KSTC 130535Z AUTO 00000KT 10SM CLR 15/14 A3004 920 96 1200 000/00 RMK AO2
14926KSTC STC20030712234009807/12/03 23:40:31  5-MIN KSTC 130540Z AUTO 00000KT 10SM CLR 15/14 A3004 920 96 1200 000/00 RMK AO2
14926KSTC STC20030712234509807/12/03 23:45:31  5-MIN KSTC 130545Z AUTO 00000KT 10SM CLR 15/14 A3004 920 96 1200 000/00 RMK AO2
14926KSTC STC20030712235014307/12/03 23:50:31  5-MIN KSTC 130550Z AUTO 00000KT 10SM CLR 15/14 A3004 920 96 1200 000/00 RMK AO2 SLP177 T01500144 10256 20150 402610128 53005
14926KSTC STC20030712235509807/12/03 23:55:31  5-MIN KSTC 130555Z AUTO 00000KT 10SM CLR 15/14 A3004 920 96 1200 000/00 RMK AO2
14926KSTC STC20030713000009807/13/03 00:00:31  5-MIN KSTC 130600Z AUTO 00000KT 10SM CLR 15/14 A3004 920 96 1200 000/00 RMK AO2
14926KSTC STC20030713000509807/13/03 00:05:31  5-MIN KSTC 130605Z AUTO 00000KT 10SM CLR 14/14 A3004 920 96 1100 000/00 RMK AO2
14926KSTC STC20030713001009907/13/03 00:10:31  5-MIN KSTC 130610Z AUTO 00000KT 10SM CLR 14/14 A3004 920 100 1100 000/00 RMK AO2
14926KSTC STC20030713001509807/13/03 00:15:31  5-MIN KSTC 130615Z AUTO 00000KT 10SM CLR 15/14 A3004 920 96 1200 000/00 RMK AO2
14926KSTC STC20030713002009807/13/03 00:20:31  5-MIN KSTC 130620Z AUTO 00000KT 10SM CLR 15/14 A3004 920 96 1200 000/00 RMK AO2
14926KSTC STC20030713002509807/13/03 00:25:31  5-MIN KSTC 130625Z AUTO 00000KT 10SM CLR 15/14 A3004 920 96 1200 000/00 RMK AO2
14926KSTC STC20030713003009807/13/03 00:30:31  5-MIN KSTC 130630Z AUTO 00000KT 10SM CLR 14/14 A3004 920 96 1100 000/00 RMK AO2
14926KSTC STC20030713003509907/13/03 00:35:31  5-MIN KSTC 130635Z AUTO 00000KT 10SM CLR 14/14 A3003 920 100 1000 000/00 RMK AO2
14926KSTC STC20030713004009807/13/03 00:40:31  5-MIN KSTC 130640Z AUTO 00000KT 10SM CLR 14/14 A3004 920 96 1100 000/00 RMK AO2
14926KSTC STC20030713004509807/13/03 00:45:31  5-MIN KSTC 130645Z AUTO 00000KT 10SM CLR 14/13 A3004 920 96 1000 000/00 RMK AO2
14926KSTC STC20030713005011607/13/03 00:50:31  5-MIN KSTC 130650Z AUTO 00000KT 10SM CLR 14/14 A3004 920 100 1000 000/00 RMK AO2 SLP176 T01390139
14926KSTC STC20030713005509807/13/03 00:55:31  5-MIN KSTC 130655Z AUTO 00000KT 10SM CLR 14/14 A3004 920 96 1100 000/00 RMK AO2
14926KSTC STC20030713010009807/13/03 01:00:31  5-MIN KSTC 130700Z AUTO 00000KT 10SM CLR 14/14 A3004 920 96 1100 000/00 RMK AO2
14926KSTC STC20030713010509807/13/03 01:05:31  5-MIN KSTC 130705Z AUTO 00000KT 10SM CLR 14/14 A3004 920 96 1100 000/00 RMK AO2
14926KSTC STC20030713011009807/13/03 01:10:31  5-MIN KSTC 130710Z AUTO 00000KT 10SM CLR 14/14 A3004 920 96 1100 000/00 RMK AO2
14926KSTC STC20030713011509907/13/03 01:15:31  5-MIN KSTC 130715Z AUTO 00000KT 10SM CLR 14/14 A3004 920 100 1000 000/00 RMK AO2
14926KSTC STC20030713012009907/13/03 01:20:31  5-MIN KSTC 130720Z AUTO 00000KT 10SM CLR 14/14 A3004 920 100 1000 000/00 RMK AO2
14926KSTC STC20030713012509807/13/03 01:25:31  5-MIN KSTC 130725Z AUTO 00000KT 10SM CLR 14/13 A3004 920 96 1000 000/00 RMK AO2
14926KSTC STC20030713013009907/13/03 01:30:31  5-MIN KSTC 130730Z AUTO 00000KT 10SM CLR 14/14 A3004 920 100 1000 000/00 RMK AO2
14926KSTC STC20030713013509907/13/03 01:35:31  5-MIN KSTC 130735Z AUTO 00000KT 10SM CLR 14/14 A3004 920 100 1000 000/00 RMK AO2
14926KSTC STC20030713014009907/13/03 01:40:31  5-MIN KSTC 130740Z AUTO 00000KT 10SM CLR 14/14 A3004 920 100 1000 000/00 RMK AO2
14926KSTC STC20030713014509907/13/03 01:45:31  5-MIN KSTC 130745Z AUTO 00000KT 10SM CLR 14/14 A3004 920 100 1000 000/00 RMK AO2
14926KSTC STC20030713015011607/13/03 01:50:31  5-MIN KSTC 130750Z AUTO 00000KT 10SM CLR 14/14 A3004 920 100 1000 000/00 RMK AO2 SLP176 T01390139
14926KSTC STC20030713015509907/13/03 01:55:31  5-MIN KSTC 130755Z AUTO 15004KT 10SM CLR 13/13 A3004 920 100 1000 150/04 RMK AO2
14926KSTC STC20030713020009907/13/03 02:00:31  5-MIN KSTC 130800Z AUTO 14003KT 10SM CLR 13/13 A3004 920 100 1000 140/03 RMK AO2
14926KSTC STC20030713020509907/13/03 02:05:31  5-MIN KSTC 130805Z AUTO 00000KT 10SM CLR 13/13 A3004 920 100 1000 000/00 RMK AO2
14926KSTC STC20030713021009807/13/03 02:10:31  5-MIN KSTC 130810Z AUTO 00000KT 10SM CLR 13/13 A3003 920 96 1000 000/00 RMK AO2
14926KSTC STC20030713021509907/13/03 02:15:31  5-MIN KSTC 130815Z AUTO 00000KT 10SM CLR 13/13 A3003 920 100 1000 000/00 RMK AO2
14926KSTC STC20030713022009907/13/03 02:20:31  5-MIN KSTC 130820Z AUTO 00000KT 10SM CLR 13/13 A3003 920 100 1000 000/00 RMK AO2
14926KSTC STC20030713022509807/13/03 02:25:31  5-MIN KSTC 130825Z AUTO 00000KT 10SM CLR 13/13 A3003 920 96 1000 000/00 RMK AO2
14926KSTC STC20030713023009907/13/03 02:30:31  5-MIN KSTC 130830Z AUTO 00000KT 10SM CLR 13/13 A3003 930 100 1000 000/00 RMK AO2
14926KSTC STC20030713023509807/13/03 02:35:31  5-MIN KSTC 130835Z AUTO 00000KT 10SM CLR 13/13 A3003 930 96 1000 000/00 RMK AO2
14926KSTC STC20030713024009807/13/03 02:40:31  5-MIN KSTC 130840Z AUTO 00000KT 10SM CLR 13/13 A3003 930 100 900 000/00 RMK AO2
14926KSTC STC20030713024509907/13/03 02:45:31  5-MIN KSTC 130845Z AUTO 00000KT 10SM CLR 13/13 A3003 930 100 1000 000/00 RMK AO2
14926KSTC STC20030713025012207/13/03 02:50:31  5-MIN KSTC 130850Z AUTO 00000KT 10SM CLR 13/13 A3003 930 100 1000 000/00 RMK AO2 SLP174 T01330133 50001
14926KSTC STC20030713025509807/13/03 02:55:31  5-MIN KSTC 130855Z AUTO 00000KT 10SM CLR 13/13 A3003 930 96 1000 000/00 RMK AO2
14926KSTC STC20030713030009807/13/03 03:00:31  5-MIN KSTC 130900Z AUTO 00000KT 10SM CLR 13/13 A3003 930 100 900 000/00 RMK AO2
14926KSTC STC20030713030509807/13/03 03:05:31  5-MIN KSTC 130905Z AUTO 00000KT 10SM CLR 13/13 A3002 930 100 900 000/00 RMK AO2
14926KSTC STC20030713031009807/13/03 03:10:31  5-MIN KSTC 130910Z AUTO 00000KT 10SM CLR 13/13 A3003 930 96 1000 000/00 RMK AO2
14926KSTC STC20030713031509907/13/03 03:15:31  5-MIN KSTC 130915Z AUTO 00000KT 10SM CLR 13/13 A3003 930 100 1000 000/00 RMK AO2
14926KSTC STC20030713032009907/13/03 03:20:31  5-MIN KSTC 130920Z AUTO 00000KT 10SM CLR 13/13 A3003 930 100 1000 000/00 RMK AO2
14926KSTC STC20030713032509607/13/03 03:25:31  5-MIN KSTC 130925Z AUTO 00000KT 8SM CLR 13/12 A3002 930 96 900 000/00 RMK AO2
14926KSTC STC20030713033009707/13/03 03:30:31  5-MIN KSTC 130930Z AUTO 00000KT 8SM CLR 12/12 A3003 930 100 900 000/00 RMK AO2
14926KSTC STC20030713033509807/13/03 03:35:31  5-MIN KSTC 130935Z AUTO 00000KT 10SM CLR 12/12 A3003 930 100 900 000/00 RMK AO2
14926KSTC STC20030713034009707/13/03 03:40:31  5-MIN KSTC 130940Z AUTO 00000KT 10SM CLR 13/12 A3003 930 96 900 000/00 RMK AO2
14926KSTC STC20030713034509707/13/03 03:45:31  5-MIN KSTC 130945Z AUTO 00000KT 8SM CLR 13/13 A3003 930 100 900 000/00 RMK AO2
14926KSTC STC20030713035011707/13/03 03:50:31  5-MIN KSTC 130950Z AUTO 00000KT 4SM BR CLR 13/13 A3003 930 100 900 000/00 RMK AO2 SLP174 T01280128
14926KSTC STC20030713035510007/13/03 03:55:31  5-MIN KSTC 130955Z AUTO 00000KT 4SM BR CLR 13/13 A3003 930 100 900 000/00 RMK AO2
14926KSTC STC20030713040009607/13/03 04:00:31  5-MIN KSTC 131000Z AUTO 00000KT 7SM CLR 12/12 A3003 930 96 900 000/00 RMK AO2
14926KSTC STC20030713040509707/13/03 04:05:31  5-MIN KSTC 131005Z AUTO 00000KT 9SM CLR 12/12 A3003 930 100 900 000/00 RMK AO2
14926KSTC STC20030713041010007/13/03 04:10:31  5-MIN KSTC 131010Z AUTO 00000KT 6SM BR CLR 13/13 A3003 930 100 900 000/00 RMK AO2
14926KSTC STC20030713041510007/13/03 04:15:31  5-MIN KSTC 131015Z AUTO 00000KT 6SM BR CLR 13/13 A3003 920 100 900 000/00 RMK AO2
14926KSTC STC20030713042009707/13/03 04:20:31  5-MIN KSTC 131020Z AUTO 00000KT 8SM CLR 13/13 A3003 930 100 900 000/00 RMK AO2
14926KSTC STC20030713042509707/13/03 04:25:31  5-MIN KSTC 131025Z AUTO 00000KT 9SM CLR 12/12 A3003 930 100 900 000/00 RMK AO2
14926KSTC STC20030713043009807/13/03 04:30:31  5-MIN KSTC 131030Z AUTO 00000KT 10SM CLR 12/12 A3003 930 100 900 000/00 RMK AO2
14926KSTC STC20030713043509707/13/03 04:35:31  5-MIN KSTC 131035Z AUTO 00000KT 10SM CLR 13/12 A3003 920 96 900 000/00 RMK AO2
14926KSTC STC20030713044009807/13/03 04:40:31  5-MIN KSTC 131040Z AUTO 00000KT 10SM CLR 12/12 A3003 930 100 900 000/00 RMK AO2
14926KSTC STC20030713044509707/13/03 04:45:31  5-MIN KSTC 131045Z AUTO 00000KT 10SM CLR 12/12 A3003 930 96 900 000/00 RMK AO2
14926KSTC STC20030713045011507/13/03 04:50:31  5-MIN KSTC 131050Z AUTO 00000KT 10SM CLR 12/12 A3003 930 100 900 000/00 RMK AO2 SLP175 T01220122
14926KSTC STC20030713045509707/13/03 04:55:31  5-MIN KSTC 131055Z AUTO 00000KT 10SM CLR 13/12 A3003 930 96 900 000/00 RMK AO2
14926KSTC STC20030713050009807/13/03 05:00:31  5-MIN KSTC 131100Z AUTO 00000KT 10SM CLR 12/12 A3003 920 100 900 000/00 RMK AO2
14926KSTC STC20030713050509707/13/03 05:05:31  5-MIN KSTC 131105Z AUTO 00000KT 10SM CLR 13/12 A3003 920 96 900 000/00 RMK AO2
14926KSTC STC20030713051009707/13/03 05:10:31  5-MIN KSTC 131110Z AUTO 00000KT 10SM CLR 13/12 A3003 920 96 900 000/00 RMK AO2
14926KSTC STC20030713051509707/13/03 05:15:31  5-MIN KSTC 131115Z AUTO 00000KT 10SM CLR 13/12 A3003 920 96 900 000/00 RMK AO2
14926KSTC STC20030713052009807/13/03 05:20:31  5-MIN KSTC 131120Z AUTO 00000KT 10SM CLR 13/13 A3003 920 96 1000 000/00 RMK AO2
14926KSTC STC20030713052509807/13/03 05:25:31  5-MIN KSTC 131125Z AUTO 00000KT 10SM CLR 13/13 A3003 920 96 1000 000/00 RMK AO2
14926KSTC STC20030713053009807/13/03 05:30:31  5-MIN KSTC 131130Z AUTO 00000KT 10SM CLR 13/13 A3003 920 96 1000 000/00 RMK AO2
14926KSTC STC20030713053509807/13/03 05:35:31  5-MIN KSTC 131135Z AUTO 00000KT 10SM CLR 13/13 A3003 920 96 1000 000/00 RMK AO2
14926KSTC STC20030713054009807/13/03 05:40:31  5-MIN KSTC 131140Z AUTO 00000KT 10SM CLR 14/13 A3003 920 96 1000 000/00 RMK AO2
14926KSTC STC20030713054509807/13/03 05:45:31  5-MIN KSTC 131145Z AUTO 16003KT 10SM CLR 14/14 A3003 920 96 1100 160/03 RMK AO2
14926KSTC STC20030713055013407/13/03 05:50:31  5-MIN KSTC 131150Z AUTO 14003KT 10SM CLR 14/14 A3003 920 100 1100 140/03 RMK AO2 SLP175 T01440144 10150 20122 58004
14926KSTC STC20030713055509807/13/03 05:55:31  5-MIN KSTC 131155Z AUTO 14004KT 10SM CLR 15/14 A3003 920 96 1200 130/04 RMK AO2
14926KSTC STC20030713060009807/13/03 06:00:31  5-MIN KSTC 131200Z AUTO 14003KT 10SM CLR 16/15 A3003 920 96 1200 140/03 RMK AO2
14926KSTC STC20030713060509807/13/03 06:05:31  5-MIN KSTC 131205Z AUTO 15003KT 10SM CLR 16/15 A3003 920 96 1200 140/03 RMK AO2
14926KSTC STC20030713061009907/13/03 06:10:31  5-MIN KSTC 131210Z AUTO 00000KT 10SM CLR 16/16 A3003 920 100 1200 000/00 RMK AO2
14926KSTC STC20030713061509807/13/03 06:15:31  5-MIN KSTC 131215Z AUTO 00000KT 10SM CLR 16/16 A3003 920 96 1300 000/00 RMK AO2
14926KSTC STC20030713062009807/13/03 06:20:31  5-MIN KSTC 131220Z AUTO 00000KT 10SM CLR 17/16 A3003 920 93 1400 000/00 RMK AO2
14926KSTC STC20030713062509807/13/03 06:25:31  5-MIN KSTC 131225Z AUTO 00000KT 10SM CLR 17/16 A3003 920 96 1400 000/00 RMK AO2
14926KSTC STC20030713063009807/13/03 06:30:31  5-MIN KSTC 131230Z AUTO 00000KT 10SM CLR 17/16 A3003 920 96 1400 000/00 RMK AO2
14926KSTC STC20030713063509807/13/03 06:35:31  5-MIN KSTC 131235Z AUTO 14003KT 10SM CLR 17/16 A3003 920 93 1400 140/03 RMK AO2
14926KSTC STC20030713064009807/13/03 06:40:31  5-MIN KSTC 131240Z AUTO 14003KT 10SM CLR 17/17 A3003 920 96 1400 140/03 RMK AO2
14926KSTC STC20030713064509807/13/03 06:45:31  5-MIN KSTC 131245Z AUTO 14003KT 10SM CLR 18/17 A3003 920 93 1500 140/03 RMK AO2
14926KSTC STC20030713065011507/13/03 06:50:31  5-MIN KSTC 131250Z AUTO 15003KT 10SM CLR 18/17 A3003 920 93 1500 140/03 RMK AO2 SLP175 T01780167
14926KSTC STC20030713065509807/13/03 06:55:31  5-MIN KSTC 131255Z AUTO 16003KT 10SM CLR 18/17 A3004 920 93 1600 160/03 RMK AO2
14926KSTC STC20030713070009807/13/03 07:00:31  5-MIN KSTC 131300Z AUTO 00000KT 10SM CLR 18/17 A3004 920 93 1600 000/00 RMK AO2
14926KSTC STC20030713070509807/13/03 07:05:31  5-MIN KSTC 131305Z AUTO VRB03KT 10SM CLR 19/17 A3004 910 90 1600 VRB/03 RMK AO2
14926KSTC STC20030713071009807/13/03 07:10:31  5-MIN KSTC 131310Z AUTO 19004KT 10SM CLR 19/17 A3004 920 87 1700 190/04 RMK AO2
14926KSTC STC20030713071509807/13/03 07:15:31  5-MIN KSTC 131315Z AUTO 19004KT 10SM CLR 19/17 A3004 920 87 1700 190/04 RMK AO2
14926KSTC STC20030713072009807/13/03 07:20:31  5-MIN KSTC 131320Z AUTO 18005KT 10SM CLR 20/17 A3004 920 84 1800 180/05 RMK AO2
14926KSTC STC20030713072509807/13/03 07:25:31  5-MIN KSTC 131325Z AUTO 17005KT 10SM CLR 21/17 A3004 920 81 1800 160/05 RMK AO2
14926KSTC STC20030713073009807/13/03 07:30:31  5-MIN KSTC 131330Z AUTO 19005KT 10SM CLR 21/17 A3004 920 81 1800 190/05 RMK AO2
14926KSTC STC20030713073509807/13/03 07:35:31  5-MIN KSTC 131335Z AUTO 19006KT 10SM CLR 21/17 A3004 920 78 1900 180/06 RMK AO2
14926KSTC STC20030713074009807/13/03 07:40:31  5-MIN KSTC 131340Z AUTO 18005KT 10SM CLR 21/17 A3004 920 78 1900 180/05 RMK AO2
14926KSTC STC20030713074509807/13/03 07:45:31  5-MIN KSTC 131345Z AUTO 18005KT 10SM CLR 21/17 A3004 920 78 1900 180/05 RMK AO2
14926KSTC STC20030713075011507/13/03 07:50:31  5-MIN KSTC 131350Z AUTO 19006KT 10SM CLR 22/17 A3004 920 75 1900 190/06 RMK AO2 SLP176 T02170172
14926KSTC STC20030713083009807/13/03 08:30:31  5-MIN KSTC 131430Z AUTO 18006KT 10SM CLR 23/17 A3004 920 68 2100 180/06 RMK AO2
14926KSTC STC20030713083509807/13/03 08:35:31  5-MIN KSTC 131435Z AUTO 19007KT 10SM CLR 23/17 A3003 920 66 2100 180/07 RMK AO2
14926KSTC STC20030713084009807/13/03 08:40:31  5-MIN KSTC 131440Z AUTO 20007KT 10SM CLR 24/17 A3004 920 66 2200 190/07 RMK AO2
14926KSTC STC20030713084509807/13/03 08:45:31  5-MIN KSTC 131445Z AUTO 19007KT 10SM CLR 24/17 A3004 920 63 2200 190/07 RMK AO2
14926KSTC STC20030713085012107/13/03 08:50:31  5-MIN KSTC 131450Z AUTO 17007KT 10SM CLR 24/16 A3003 920 61 2200 170/07 RMK AO2 SLP174 T02390161 53002
14926KSTC STC20030713085509807/13/03 08:55:31  5-MIN KSTC 131455Z AUTO 18007KT 10SM CLR 24/16 A3003 920 61 2200 180/07 RMK AO2
14926KSTC STC20030713090009807/13/03 09:00:31  5-MIN KSTC 131500Z AUTO 17008KT 10SM CLR 24/16 A3003 920 61 2200 170/08 RMK AO2
14926KSTC STC20030713090509807/13/03 09:05:31  5-MIN KSTC 131505Z AUTO 19008KT 10SM CLR 24/16 A3003 920 59 2300 190/08 RMK AO2
14926KSTC STC20030713091009807/13/03 09:10:31  5-MIN KSTC 131510Z AUTO 18009KT 10SM CLR 24/16 A3003 930 59 2300 170/09 RMK AO2
14926KSTC STC20030713091509807/13/03 09:15:31  5-MIN KSTC 131515Z AUTO 17009KT 10SM CLR 24/16 A3003 930 59 2300 170/09 RMK AO2
14926KSTC STC20030713092009807/13/03 09:20:31  5-MIN KSTC 131520Z AUTO 17008KT 10SM CLR 24/16 A3003 930 57 2300 170/08 RMK AO2
14926KSTC STC20030713092509807/13/03 09:25:31  5-MIN KSTC 131525Z AUTO 17007KT 10SM CLR 24/16 A3003 930 59 2300 170/07 RMK AO2
14926KSTC STC20030713093009807/13/03 09:30:31  5-MIN KSTC 131530Z AUTO 19007KT 10SM CLR 25/16 A3002 930 57 2300 180/07 RMK AO2
14926KSTC STC20030713093509807/13/03 09:35:31  5-MIN KSTC 131535Z AUTO 16011KT 10SM CLR 25/17 A3002 930 59 2300 160/11 RMK AO2
14926KSTC STC20030713094009807/13/03 09:40:31  5-MIN KSTC 131540Z AUTO 17009KT 10SM CLR 25/16 A3002 930 57 2300 170/09 RMK AO2
14926KSTC STC20030713094509807/13/03 09:45:31  5-MIN KSTC 131545Z AUTO 17009KT 10SM CLR 25/16 A3002 930 57 2300 160/09 RMK AO2
14926KSTC STC20030713095011507/13/03 09:50:31  5-MIN KSTC 131550Z AUTO 18009KT 10SM CLR 25/16 A3002 930 55 2300 180/09 RMK AO2 SLP171 T02500156
14926KSTC STC20030713095509807/13/03 09:55:31  5-MIN KSTC 131555Z AUTO 19008KT 10SM CLR 25/16 A3002 930 57 2300 190/08 RMK AO2
14926KSTC STC20030713100009807/13/03 10:00:31  5-MIN KSTC 131600Z AUTO 18008KT 10SM CLR 26/16 A3002 930 55 2400 180/08 RMK AO2
14926KSTC STC20030713100509807/13/03 10:05:31  5-MIN KSTC 131605Z AUTO 18009KT 10SM CLR 26/17 A3002 930 55 2500 170/09 RMK AO2
14926KSTC STC20030713101010407/13/03 10:10:31  5-MIN KSTC 131610Z AUTO 18011G16KT 10SM CLR 26/16 A3002 930 55 2400 170/11G16 RMK AO2
14926KSTC STC20030713101509807/13/03 10:15:31  5-MIN KSTC 131615Z AUTO 17011KT 10SM CLR 26/16 A3002 930 55 2400 170/11 RMK AO2
14926KSTC STC20030713102009807/13/03 10:20:31  5-MIN KSTC 131620Z AUTO 18011KT 10SM CLR 26/16 A3002 940 53 2500 180/11 RMK AO2
14926KSTC STC20030713102509807/13/03 10:25:31  5-MIN KSTC 131625Z AUTO 17010KT 10SM CLR 26/16 A3002 940 53 2500 170/10 RMK AO2
14926KSTC STC20030713103009807/13/03 10:30:31  5-MIN KSTC 131630Z AUTO 19009KT 10SM CLR 26/16 A3002 940 55 2400 180/09 RMK AO2
14926KSTC STC20030713103509807/13/03 10:35:31  5-MIN KSTC 131635Z AUTO 18011KT 10SM CLR 26/16 A3002 940 53 2500 180/11 RMK AO2
14926KSTC STC20030713104009807/13/03 10:40:31  5-MIN KSTC 131640Z AUTO 19007KT 10SM CLR 26/16 A3002 940 55 2400 190/07 RMK AO2
14926KSTC STC20030713104509807/13/03 10:45:31  5-MIN KSTC 131645Z AUTO 18009KT 10SM CLR 26/17 A3002 940 55 2500 180/09 RMK AO2
14926KSTC STC20030713105011507/13/03 10:50:31  5-MIN KSTC 131650Z AUTO 17007KT 10SM CLR 26/17 A3001 940 55 2500 160/07 RMK AO2 SLP168 T02610167
14926KSTC STC20030713105509807/13/03 10:55:31  5-MIN KSTC 131655Z AUTO 19009KT 10SM CLR 27/17 A3001 940 53 2500 190/09 RMK AO2
14926KSTC STC20030713110009807/13/03 11:00:31  5-MIN KSTC 131700Z AUTO 21009KT 10SM CLR 27/17 A3001 940 53 2500 210/09 RMK AO2
14926KSTC STC20030713110509807/13/03 11:05:31  5-MIN KSTC 131705Z AUTO 18009KT 10SM CLR 27/17 A3001 940 53 2500 180/09 RMK AO2
14926KSTC STC20030713111009807/13/03 11:10:31  5-MIN KSTC 131710Z AUTO 19012KT 10SM CLR 27/17 A3001 940 53 2500 190/12 RMK AO2
14926KSTC STC20030713111509807/13/03 11:15:31  5-MIN KSTC 131715Z AUTO 20010KT 10SM CLR 27/17 A3001 940 52 2600 200/10 RMK AO2
14926KSTC STC20030713112009807/13/03 11:20:31  5-MIN KSTC 131720Z AUTO 18007KT 10SM CLR 27/17 A3001 940 53 2500 180/07 RMK AO2
14926KSTC STC20030713112510707/13/03 11:25:31  5-MIN KSTC 131725Z AUTO 19010G15KT 10SM FEW050 27/17 A3001 950 54 2600 190/10G15 RMK AO2
14926KSTC STC20030713113010107/13/03 11:30:31  5-MIN KSTC 131730Z AUTO 21009KT 10SM FEW050 27/17 A3001 950 53 2500 210/09 RMK AO2
14926KSTC STC20030713113509807/13/03 11:35:31  5-MIN KSTC 131735Z AUTO 20009KT 10SM CLR 27/17 A3000 950 53 2500 200/09 RMK AO2
14926KSTC STC20030713114010107/13/03 11:40:31  5-MIN KSTC 131740Z AUTO 19008KT 10SM FEW050 27/17 A3000 950 53 2500 190/08 RMK AO2
14926KSTC STC20030713114509807/13/03 11:45:31  5-MIN KSTC 131745Z AUTO 18012KT 10SM CLR 27/17 A3000 950 52 2600 180/12 RMK AO2
14926KSTC STC20030713115013307/13/03 11:50:31  5-MIN KSTC 131750Z AUTO 19009KT 10SM CLR 27/17 A3000 950 52 2600 190/09 RMK AO2 SLP164 T02720167 10272 20150 50001
14926KSTC STC20030713115510707/13/03 11:55:31  5-MIN KSTC 131755Z AUTO 21012G17KT 10SM FEW045 27/17 A3000 950 52 2600 200/12G17 RMK AO2
14926KSTC STC20030713120011407/13/03 12:00:31  5-MIN KSTC 131800Z AUTO 19010G17KT 10SM FEW045 SCT055 27/16 A3000 950 50 2600 190/10G17 RMK AO2
14926KSTC STC20030713120510107/13/03 12:05:31  5-MIN KSTC 131805Z AUTO 20009KT 10SM FEW045 27/16 A3000 950 50 2600 200/09 RMK AO2
14926KSTC STC20030713121010107/13/03 12:10:31  5-MIN KSTC 131810Z AUTO 18011KT 10SM FEW045 28/16 A3000 950 48 2700 180/11 RMK AO2
14926KSTC STC20030713121510107/13/03 12:15:31  5-MIN KSTC 131815Z AUTO 22009KT 10SM FEW045 28/16 A3000 950 48 2700 210/09 RMK AO2
14926KSTC STC20030713122010107/13/03 12:20:31  5-MIN KSTC 131820Z AUTO 21010KT 10SM FEW045 28/16 A3000 950 48 2700 210/10 RMK AO2
14926KSTC STC20030713122510807/13/03 12:25:31  5-MIN KSTC 131825Z AUTO 19009KT 10SM FEW047 SCT055 27/16 A3000 950 50 2600 190/09 RMK AO2
14926KSTC STC20030713123010807/13/03 12:30:31  5-MIN KSTC 131830Z AUTO 22010KT 10SM FEW047 SCT055 28/16 A3000 950 48 2700 210/10 RMK AO2
14926KSTC STC20030713123510107/13/03 12:35:31  5-MIN KSTC 131835Z AUTO 20009KT 10SM FEW047 28/16 A3000 950 48 2700 190/09 RMK AO2
14926KSTC STC20030713124010107/13/03 12:40:31  5-MIN KSTC 131840Z AUTO 20009KT 10SM FEW047 28/16 A3000 960 48 2700 200/09 RMK AO2
14926KSTC STC20030713124510107/13/03 12:45:31  5-MIN KSTC 131845Z AUTO 22009KT 10SM FEW047 28/17 A3000 960 50 2700 210/09 RMK AO2
14926KSTC STC20030713125011807/13/03 12:50:31  5-MIN KSTC 131850Z AUTO 21009KT 10SM FEW047 28/16 A2999 960 48 2700 210/09 RMK AO2 SLP161 T02780161
14926KSTC STC20030713125509807/13/03 12:55:31  5-MIN KSTC 131855Z AUTO 19009KT 10SM CLR 27/16 A2999 960 50 2600 180/09 RMK AO2
14926KSTC STC20030713130009807/13/03 13:00:31  5-MIN KSTC 131900Z AUTO 20008KT 10SM CLR 27/16 A2999 960 50 2600 200/08 RMK AO2
14926KSTC STC20030713130509807/13/03 13:05:31  5-MIN KSTC 131905Z AUTO 19008KT 10SM CLR 28/16 A2999 960 48 2700 180/08 RMK AO2
14926KSTC STC20030713131010107/13/03 13:10:31  5-MIN KSTC 131910Z AUTO 19010KT 10SM SCT050 27/16 A2999 970 52 2600 190/10 RMK AO2
14926KSTC STC20030713131510107/13/03 13:15:31  5-MIN KSTC 131915Z AUTO 20010KT 10SM SCT050 28/16 A2998 970 48 2700 200/10 RMK AO2
14926KSTC STC20030713132010107/13/03 13:20:31  5-MIN KSTC 131920Z AUTO 20008KT 10SM FEW050 27/16 A2998 970 48 2600 200/08 RMK AO2
14926KSTC STC20030713132510107/13/03 13:25:31  5-MIN KSTC 131925Z AUTO 21010KT 10SM FEW050 28/16 A2999 970 48 2700 210/10 RMK AO2
14926KSTC STC20030713133010107/13/03 13:30:31  5-MIN KSTC 131930Z AUTO 21012KT 10SM SCT050 28/16 A2998 970 48 2700 200/12 RMK AO2
14926KSTC STC20030713133510107/13/03 13:35:31  5-MIN KSTC 131935Z AUTO 20010KT 10SM SCT050 28/16 A2998 970 47 2800 200/10 RMK AO2
14926KSTC STC20030713134010107/13/03 13:40:31  5-MIN KSTC 131940Z AUTO 21011KT 10SM FEW050 28/16 A2998 970 47 2800 210/11 RMK AO2
14926KSTC STC20030713134510107/13/03 13:45:31  5-MIN KSTC 131945Z AUTO 21008KT 10SM FEW050 28/16 A2998 970 47 2800 210/08 RMK AO2
14926KSTC STC20030713135011807/13/03 13:50:31  5-MIN KSTC 131950Z AUTO 19011KT 10SM FEW050 29/17 A2998 970 47 2800 190/11 RMK AO2 SLP156 T02890167
14926KSTC STC20030713135510107/13/03 13:55:31  5-MIN KSTC 131955Z AUTO 21010KT 10SM FEW050 28/16 A2997 980 47 2800 210/10 RMK AO2
14926KSTC STC20030713140009807/13/03 14:00:31  5-MIN KSTC 132000Z AUTO 19009KT 10SM CLR 28/16 A2997 980 47 2800 190/09 RMK AO2
14926KSTC STC20030713140509807/13/03 14:05:31  5-MIN KSTC 132005Z AUTO 21010KT 10SM CLR 28/16 A2997 980 47 2800 210/10 RMK AO2
14926KSTC STC20030713141009807/13/03 14:10:31  5-MIN KSTC 132010Z AUTO 19010KT 10SM CLR 28/16 A2997 980 48 2700 190/10 RMK AO2
14926KSTC STC20030713141510107/13/03 14:15:31  5-MIN KSTC 132015Z AUTO 18010KT 10SM FEW050 27/16 A2997 980 48 2600 170/10 RMK AO2
14926KSTC STC20030713142010107/13/03 14:20:31  5-MIN KSTC 132020Z AUTO 20009KT 10SM FEW050 28/17 A2997 980 48 2800 200/09 RMK AO2
14926KSTC STC20030713142510107/13/03 14:25:31  5-MIN KSTC 132025Z AUTO 20013KT 10SM FEW050 29/16 A2997 980 45 2800 200/13 RMK AO2
14926KSTC STC20030713143011707/13/03 14:30:31  5-MIN KSTC 132030Z AUTO 19008KT 160V220 10SM FEW050 28/16 A2997 980 47 2800 180/08 160V220 RMK AO2
14926KSTC STC20030713143510107/13/03 14:35:31  5-MIN KSTC 132035Z AUTO 20012KT 10SM FEW050 28/16 A2997 980 47 2800 190/12 RMK AO2
14926KSTC STC20030713144010107/13/03 14:40:31  5-MIN KSTC 132040Z AUTO 20011KT 10SM FEW055 29/17 A2997 980 47 2800 200/11 RMK AO2
14926KSTC STC20030713144510107/13/03 14:45:31  5-MIN KSTC 132045Z AUTO 18011KT 10SM FEW055 29/17 A2997 980 47 2800 180/11 RMK AO2
14926KSTC STC20030713145012107/13/03 14:50:31  5-MIN KSTC 132050Z AUTO 20010KT 10SM CLR 29/16 A2997 980 45 2800 200/10 RMK AO2 SLP152 T02890161 57010
14926KSTC STC20030713145509807/13/03 14:55:31  5-MIN KSTC 132055Z AUTO 21010KT 10SM CLR 28/16 A2997 980 47 2800 200/10 RMK AO2
14926KSTC STC20030713150009807/13/03 15:00:31  5-MIN KSTC 132100Z AUTO 20010KT 10SM CLR 28/16 A2996 990 47 2800 190/10 RMK AO2
14926KSTC STC20030713150509807/13/03 15:05:31  5-MIN KSTC 132105Z AUTO 18012KT 10SM CLR 28/17 A2996 990 48 2800 180/12 RMK AO2
14926KSTC STC20030713151009807/13/03 15:10:31  5-MIN KSTC 132110Z AUTO 18009KT 10SM CLR 28/16 A2997 980 47 2800 180/09 RMK AO2
14926KSTC STC20030713151509807/13/03 15:15:31  5-MIN KSTC 132115Z AUTO 17011KT 10SM CLR 28/16 A2996 990 47 2800 170/11 RMK AO2
14926KSTC STC20030713152009807/13/03 15:20:31  5-MIN KSTC 132120Z AUTO 19013KT 10SM CLR 28/17 A2996 990 48 2800 180/13 RMK AO2
14926KSTC STC20030713152509807/13/03 15:25:31  5-MIN KSTC 132125Z AUTO 20010KT 10SM CLR 29/17 A2997 980 48 2800 190/10 RMK AO2
14926KSTC STC20030713153009807/13/03 15:30:31  5-MIN KSTC 132130Z AUTO 19011KT 10SM CLR 29/17 A2997 980 47 2800 190/11 RMK AO2
14926KSTC STC20030713153509807/13/03 15:35:31  5-MIN KSTC 132135Z AUTO 21011KT 10SM CLR 29/17 A2997 980 47 2800 200/11 RMK AO2
14926KSTC STC20030713154009807/13/03 15:40:31  5-MIN KSTC 132140Z AUTO 21011KT 10SM CLR 28/17 A2996 990 48 2800 210/11 RMK AO2
14926KSTC STC20030713154509807/13/03 15:45:31  5-MIN KSTC 132145Z AUTO 18013KT 10SM CLR 29/17 A2996 990 47 2800 180/13 RMK AO2
14926KSTC STC20030713155011507/13/03 15:50:31  5-MIN KSTC 132150Z AUTO 20012KT 10SM CLR 29/16 A2996 990 45 2800 200/12 RMK AO2 SLP148 T02890161
14926KSTC STC20030713155509907/13/03 15:55:31  5-MIN KSTC 132155Z AUTO 20013KT 10SM CLR 28/17 A2995 1000 48 2800 200/13 RMK AO2
14926KSTC STC20030713160009907/13/03 16:00:31  5-MIN KSTC 132200Z AUTO 20012KT 10SM CLR 28/17 A2995 1000 48 2800 190/12 RMK AO2
14926KSTC STC20030713160509907/13/03 16:05:31  5-MIN KSTC 132205Z AUTO 20009KT 10SM CLR 28/17 A2995 1000 48 2800 200/09 RMK AO2
14926KSTC STC20030713161009907/13/03 16:10:31  5-MIN KSTC 132210Z AUTO 17010KT 10SM CLR 28/17 A2995 1000 48 2800 170/10 RMK AO2
14926KSTC STC20030713161509907/13/03 16:15:31  5-MIN KSTC 132215Z AUTO 19011KT 10SM CLR 28/17 A2995 1000 48 2800 180/11 RMK AO2
14926KSTC STC20030713162009907/13/03 16:20:31  5-MIN KSTC 132220Z AUTO 18012KT 10SM CLR 28/17 A2994 1000 48 2800 180/12 RMK AO2
14926KSTC STC20030713162509907/13/03 16:25:31  5-MIN KSTC 132225Z AUTO 18011KT 10SM CLR 28/17 A2995 1000 50 2700 180/11 RMK AO2
14926KSTC STC20030713163009907/13/03 16:30:31  5-MIN KSTC 132230Z AUTO 18011KT 10SM CLR 28/17 A2994 1000 48 2800 180/11 RMK AO2
14926KSTC STC20030713163509907/13/03 16:35:31  5-MIN KSTC 132235Z AUTO 20010KT 10SM CLR 28/17 A2994 1000 48 2800 190/10 RMK AO2
14926KSTC STC20030713164009907/13/03 16:40:31  5-MIN KSTC 132240Z AUTO 20013KT 10SM CLR 28/17 A2994 1000 50 2800 200/13 RMK AO2
14926KSTC STC20030713164509907/13/03 16:45:31  5-MIN KSTC 132245Z AUTO 18013KT 10SM CLR 28/17 A2994 1010 48 2800 180/13 RMK AO2
14926KSTC STC20030713165011607/13/03 16:50:31  5-MIN KSTC 132250Z AUTO 18012KT 10SM CLR 28/17 A2994 1010 48 2800 180/12 RMK AO2 SLP143 T02830167
14926KSTC STC20030713165509907/13/03 16:55:31  5-MIN KSTC 132255Z AUTO 19011KT 10SM CLR 28/17 A2994 1010 50 2700 180/11 RMK AO2
14926KSTC STC20030713170009907/13/03 17:00:31  5-MIN KSTC 132300Z AUTO 20012KT 10SM CLR 28/17 A2994 1010 50 2700 200/12 RMK AO2
14926KSTC STC20030713170509907/13/03 17:05:31  5-MIN KSTC 132305Z AUTO 20016KT 10SM CLR 28/17 A2994 1010 52 2700 200/16 RMK AO2
14926KSTC STC20030713171009907/13/03 17:10:31  5-MIN KSTC 132310Z AUTO 20012KT 10SM CLR 28/17 A2994 1010 50 2700 200/12 RMK AO2
14926KSTC STC20030713171509907/13/03 17:15:31  5-MIN KSTC 132315Z AUTO 20012KT 10SM CLR 28/17 A2993 1010 52 2800 190/12 RMK AO2
14926KSTC STC20030713172010207/13/03 17:20:31  5-MIN KSTC 132320Z AUTO 20012KT 10SM FEW048 28/17 A2993 1010 52 2800 190/12 RMK AO2
14926KSTC STC20030713172510207/13/03 17:25:31  5-MIN KSTC 132325Z AUTO 19012KT 10SM FEW048 28/17 A2993 1010 52 2800 180/12 RMK AO2
14926KSTC STC20030713173009907/13/03 17:30:31  5-MIN KSTC 132330Z AUTO 18014KT 10SM CLR 27/17 A2993 1020 52 2700 180/14 RMK AO2
14926KSTC STC20030713173509907/13/03 17:35:31  5-MIN KSTC 132335Z AUTO 19013KT 10SM CLR 27/17 A2993 1020 53 2600 180/13 RMK AO2
14926KSTC STC20030713174009907/13/03 17:40:31  5-MIN KSTC 132340Z AUTO 19012KT 10SM CLR 27/17 A2993 1020 53 2600 190/12 RMK AO2
14926KSTC STC20030713174509907/13/03 17:45:31  5-MIN KSTC 132345Z AUTO 18011KT 10SM CLR 27/17 A2993 1020 53 2600 180/11 RMK AO2
14926KSTC STC20030713175013407/13/03 17:50:31  5-MIN KSTC 132350Z AUTO 18012KT 10SM CLR 27/17 A2993 1020 53 2600 180/12 RMK AO2 SLP140 T02670167 10289 20267 56012
14926KSTC STC20030713175509907/13/03 17:55:31  5-MIN KSTC 132355Z AUTO 18010KT 10SM CLR 27/17 A2993 1010 54 2700 170/10 RMK AO2
14926KSTC STC20030713180009907/13/03 18:00:31  5-MIN KSTC 140000Z AUTO 19009KT 10SM CLR 27/17 A2993 1020 55 2600 180/09 RMK AO2
14926KSTC STC20030713180510507/13/03 18:05:31  5-MIN KSTC 140005Z AUTO 19012G17KT 10SM CLR 27/17 A2993 1020 55 2600 190/12G17 RMK AO2
14926KSTC STC20030713181010507/13/03 18:10:31  5-MIN KSTC 140010Z AUTO 18010G17KT 10SM CLR 27/17 A2993 1020 55 2600 180/10G17 RMK AO2
14926KSTC STC20030713181509907/13/03 18:15:31  5-MIN KSTC 140015Z AUTO 18009KT 10SM CLR 26/17 A2992 1020 57 2600 180/09 RMK AO2
14926KSTC STC20030713182009907/13/03 18:20:31  5-MIN KSTC 140020Z AUTO 18009KT 10SM CLR 26/17 A2992 1020 57 2600 170/09 RMK AO2
14926KSTC STC20030713182509907/13/03 18:25:31  5-MIN KSTC 140025Z AUTO 17008KT 10SM CLR 26/17 A2992 1030 57 2600 170/08 RMK AO2
14926KSTC STC20030713183009907/13/03 18:30:31  5-MIN KSTC 140030Z AUTO 17012KT 10SM CLR 26/17 A2992 1030 57 2600 170/12 RMK AO2
14926KSTC STC20030713183509907/13/03 18:35:31  5-MIN KSTC 140035Z AUTO 17008KT 10SM CLR 26/17 A2992 1030 57 2600 170/08 RMK AO2
14926KSTC STC20030713184009907/13/03 18:40:31  5-MIN KSTC 140040Z AUTO 17010KT 10SM CLR 26/17 A2991 1030 57 2600 170/10 RMK AO2
14926KSTC STC20030713184509907/13/03 18:45:31  5-MIN KSTC 140045Z AUTO 17009KT 10SM CLR 26/17 A2992 1030 57 2600 170/09 RMK AO2
14926KSTC STC20030713185011607/13/03 18:50:31  5-MIN KSTC 140050Z AUTO 17010KT 10SM CLR 26/17 A2992 1030 59 2500 160/10 RMK AO2 SLP134 T02560172
14926KSTC STC20030713185509907/13/03 18:55:31  5-MIN KSTC 140055Z AUTO 17010KT 10SM CLR 26/17 A2992 1030 59 2500 170/10 RMK AO2
14926KSTC STC20030713190009907/13/03 19:00:31  5-MIN KSTC 140100Z AUTO 17009KT 10SM CLR 26/17 A2992 1030 59 2500 170/09 RMK AO2
14926KSTC STC20030713190509907/13/03 19:05:31  5-MIN KSTC 140105Z AUTO 18010KT 10SM CLR 25/17 A2992 1030 61 2500 170/10 RMK AO2
14926KSTC STC20030713191009907/13/03 19:10:31  5-MIN KSTC 140110Z AUTO 17009KT 10SM CLR 25/17 A2991 1030 61 2500 160/09 RMK AO2
14926KSTC STC20030713191509907/13/03 19:15:31  5-MIN KSTC 140115Z AUTO 17009KT 10SM CLR 25/17 A2991 1040 61 2500 160/09 RMK AO2
14926KSTC STC20030713192009907/13/03 19:20:31  5-MIN KSTC 140120Z AUTO 16009KT 10SM CLR 25/17 A2991 1040 61 2500 160/09 RMK AO2
14926KSTC STC20030713192509907/13/03 19:25:31  5-MIN KSTC 140125Z AUTO 16008KT 10SM CLR 24/17 A2991 1040 63 2400 150/08 RMK AO2
14926KSTC STC20030713193009907/13/03 19:30:31  5-MIN KSTC 140130Z AUTO 16008KT 10SM CLR 24/17 A2991 1040 66 2300 160/08 RMK AO2
14926KSTC STC20030713193509907/13/03 19:35:31  5-MIN KSTC 140135Z AUTO 17008KT 10SM CLR 24/17 A2991 1040 66 2300 160/08 RMK AO2
14926KSTC STC20030713194009907/13/03 19:40:31  5-MIN KSTC 140140Z AUTO 17008KT 10SM CLR 24/17 A2991 1040 66 2300 170/08 RMK AO2
14926KSTC STC20030713194509907/13/03 19:45:31  5-MIN KSTC 140145Z AUTO 16008KT 10SM CLR 23/17 A2991 1040 68 2300 160/08 RMK AO2
14926KSTC STC20030713195011607/13/03 19:50:31  5-MIN KSTC 140150Z AUTO 16007KT 10SM CLR 23/17 A2990 1040 70 2200 150/07 RMK AO2 SLP129 T02280172
14926KSTC STC20030713195509907/13/03 19:55:31  5-MIN KSTC 140155Z AUTO 15007KT 10SM CLR 22/18 A2990 1040 75 2200 150/07 RMK AO2
14926KSTC STC20030713200009907/13/03 20:00:31  5-MIN KSTC 140200Z AUTO 15006KT 10SM CLR 22/18 A2990 1040 78 2100 150/06 RMK AO2
14926KSTC STC20030713200509907/13/03 20:05:31  5-MIN KSTC 140205Z AUTO 14007KT 10SM CLR 22/18 A2991 1040 78 2100 140/07 RMK AO2
14926KSTC STC20030713201009907/13/03 20:10:31  5-MIN KSTC 140210Z AUTO 14007KT 10SM CLR 22/17 A2991 1040 73 2200 140/07 RMK AO2
14926KSTC STC20030713201509907/13/03 20:15:31  5-MIN KSTC 140215Z AUTO 15007KT 10SM CLR 22/18 A2991 1040 78 2100 150/07 RMK AO2
14926KSTC STC20030713202009907/13/03 20:20:31  5-MIN KSTC 140220Z AUTO 15006KT 10SM CLR 21/18 A2992 1030 81 2000 150/06 RMK AO2
14926KSTC STC20030713202509907/13/03 20:25:31  5-MIN KSTC 140225Z AUTO 16006KT 10SM CLR 21/18 A2992 1030 81 2000 160/06 RMK AO2
14926KSTC STC20030713203009907/13/03 20:30:31  5-MIN KSTC 140230Z AUTO 17005KT 10SM CLR 21/18 A2992 1030 81 2000 170/05 RMK AO2
14926KSTC STC20030713203509907/13/03 20:35:31  5-MIN KSTC 140235Z AUTO 16006KT 10SM CLR 21/18 A2992 1030 84 1900 160/06 RMK AO2
14926KSTC STC20030713204009907/13/03 20:40:31  5-MIN KSTC 140240Z AUTO 16006KT 10SM CLR 21/17 A2993 1020 81 1900 160/06 RMK AO2
14926KSTC STC20030713204509907/13/03 20:45:31  5-MIN KSTC 140245Z AUTO 16006KT 10SM CLR 21/17 A2993 1020 81 1900 150/06 RMK AO2
14926KSTC STC20030713205012207/13/03 20:50:31  5-MIN KSTC 140250Z AUTO 16006KT 10SM CLR 21/18 A2992 1020 84 1900 150/06 RMK AO2 SLP136 T02060178 56012
14926KSTC STC20030713205509907/13/03 20:55:31  5-MIN KSTC 140255Z AUTO 15007KT 10SM CLR 21/17 A2992 1020 81 1900 150/07 RMK AO2
14926KSTC STC20030713210009907/13/03 21:00:31  5-MIN KSTC 140300Z AUTO 16006KT 10SM CLR 21/17 A2992 1020 81 1900 160/06 RMK AO2
14926KSTC STC20030713210509907/13/03 21:05:31  5-MIN KSTC 140305Z AUTO 17005KT 10SM CLR 20/17 A2992 1020 84 1900 170/05 RMK AO2
14926KSTC STC20030713211009907/13/03 21:10:31  5-MIN KSTC 140310Z AUTO 17005KT 10SM CLR 19/17 A2992 1020 87 1800 170/05 RMK AO2
14926KSTC STC20030713211509907/13/03 21:15:31  5-MIN KSTC 140315Z AUTO 18005KT 10SM CLR 20/17 A2992 1020 84 1900 180/05 RMK AO2
14926KSTC STC20030713212009907/13/03 21:20:31  5-MIN KSTC 140320Z AUTO 18006KT 10SM CLR 21/17 A2992 1020 81 1900 180/06 RMK AO2
14926KSTC STC20030713212509907/13/03 21:25:31  5-MIN KSTC 140325Z AUTO 19005KT 10SM CLR 21/17 A2993 1020 78 2000 190/05 RMK AO2
14926KSTC STC20030713213009907/13/03 21:30:31  5-MIN KSTC 140330Z AUTO 19006KT 10SM CLR 21/17 A2992 1030 81 1900 180/06 RMK AO2
14926KSTC STC20030713213509907/13/03 21:35:31  5-MIN KSTC 140335Z AUTO 19006KT 10SM CLR 21/17 A2992 1030 81 1900 180/06 RMK AO2
14926KSTC STC20030713214009907/13/03 21:40:31  5-MIN KSTC 140340Z AUTO 19006KT 10SM CLR 21/17 A2992 1020 81 1900 180/06 RMK AO2
14926KSTC STC20030713214509907/13/03 21:45:31  5-MIN KSTC 140345Z AUTO 18006KT 10SM CLR 21/17 A2992 1030 81 2000 170/06 RMK AO2
14926KSTC STC20030713215011607/13/03 21:50:31  5-MIN KSTC 140350Z AUTO 17006KT 10SM CLR 20/17 A2991 1030 84 1900 160/06 RMK AO2 SLP132 T02000172
14926KSTC STC20030713215509907/13/03 21:55:31  5-MIN KSTC 140355Z AUTO 17006KT 10SM CLR 20/17 A2991 1030 84 1900 170/06 RMK AO2
14926KSTC STC20030713220009907/13/03 22:00:31  5-MIN KSTC 140400Z AUTO 18008KT 10SM CLR 21/17 A2991 1030 78 2000 170/08 RMK AO2
14926KSTC STC20030713220509907/13/03 22:05:31  5-MIN KSTC 140405Z AUTO 17008KT 10SM CLR 21/17 A2991 1040 78 2000 170/08 RMK AO2
14926KSTC STC20030713221009907/13/03 22:10:31  5-MIN KSTC 140410Z AUTO 17009KT 10SM CLR 21/17 A2991 1040 78 2000 170/09 RMK AO2
14926KSTC STC20030713221509907/13/03 22:15:31  5-MIN KSTC 140415Z AUTO 18008KT 10SM CLR 21/17 A2991 1030 78 2000 180/08 RMK AO2
14926KSTC STC20030713222009907/13/03 22:20:31  5-MIN KSTC 140420Z AUTO 18009KT 10SM CLR 21/17 A2991 1040 78 2000 180/09 RMK AO2
14926KSTC STC20030713222509907/13/03 22:25:31  5-MIN KSTC 140425Z AUTO 18009KT 10SM CLR 22/17 A2991 1040 75 2100 180/09 RMK AO2
14926KSTC STC20030713223009907/13/03 22:30:31  5-MIN KSTC 140430Z AUTO 18009KT 10SM CLR 21/17 A2990 1040 78 2000 180/09 RMK AO2
14926KSTC STC20030713223509907/13/03 22:35:31  5-MIN KSTC 140435Z AUTO 19009KT 10SM CLR 22/17 A2990 1040 75 2100 180/09 RMK AO2
14926KSTC STC20030713224009907/13/03 22:40:31  5-MIN KSTC 140440Z AUTO 19008KT 10SM CLR 22/17 A2990 1040 75 2100 180/08 RMK AO2
14926KSTC STC20030713224509907/13/03 22:45:31  5-MIN KSTC 140445Z AUTO 18010KT 10SM CLR 22/17 A2990 1040 73 2100 180/10 RMK AO2
14926KSTC STC20030713225011607/13/03 22:50:31  5-MIN KSTC 140450Z AUTO 19008KT 10SM CLR 22/17 A2990 1040 73 2100 180/08 RMK AO2 SLP127 T02170167
14926KSTC STC20030713225509907/13/03 22:55:31  5-MIN KSTC 140455Z AUTO 19010KT 10SM CLR 22/17 A2990 1040 70 2200 180/10 RMK AO2
14926KSTC STC20030713230009907/13/03 23:00:31  5-MIN KSTC 140500Z AUTO 19010KT 10SM CLR 22/17 A2991 1040 73 2100 190/10 RMK AO2
14926KSTC STC20030713230509907/13/03 23:05:31  5-MIN KSTC 140505Z AUTO 19009KT 10SM CLR 22/17 A2991 1040 70 2200 190/09 RMK AO2
14926KSTC STC20030713231009907/13/03 23:10:31  5-MIN KSTC 140510Z AUTO 20009KT 10SM CLR 22/17 A2991 1040 70 2200 190/09 RMK AO2
14926KSTC STC20030713231509907/13/03 23:15:31  5-MIN KSTC 140515Z AUTO 20009KT 10SM CLR 22/17 A2991 1040 70 2200 200/09 RMK AO2
14926KSTC STC20030713232009907/13/03 23:20:31  5-MIN KSTC 140520Z AUTO 20010KT 10SM CLR 22/17 A2990 1040 73 2100 190/10 RMK AO2
14926KSTC STC20030713232509907/13/03 23:25:31  5-MIN KSTC 140525Z AUTO 20010KT 10SM CLR 22/17 A2991 1040 73 2100 190/10 RMK AO2
14926KSTC STC20030713233009907/13/03 23:30:31  5-MIN KSTC 140530Z AUTO 20010KT 10SM CLR 22/17 A2990 1040 73 2100 190/10 RMK AO2
14926KSTC STC20030713233509907/13/03 23:35:31  5-MIN KSTC 140535Z AUTO 20011KT 10SM CLR 22/17 A2991 1040 73 2100 190/11 RMK AO2
14926KSTC STC20030713234009907/13/03 23:40:31  5-MIN KSTC 140540Z AUTO 20011KT 10SM CLR 22/17 A2990 1040 73 2100 200/11 RMK AO2
14926KSTC STC20030713234509907/13/03 23:45:31  5-MIN KSTC 140545Z AUTO 20011KT 10SM CLR 22/17 A2991 1040 73 2100 200/11 RMK AO2
14926KSTC STC20030713235014407/13/03 23:50:31  5-MIN KSTC 140550Z AUTO 20010KT 10SM CLR 22/17 A2991 1040 73 2100 200/10 RMK AO2 SLP129 T02170167 10272 20194 402890122 55003
14926KSTC STC20030713235509907/13/03 23:55:31  5-MIN KSTC 140555Z AUTO 20009KT 10SM CLR 22/17 A2990 1040 75 2100 190/09 RMK AO2
14926KSTC STC20030714000009907/14/03 00:00:31  5-MIN KSTC 140600Z AUTO 19008KT 10SM CLR 22/17 A2990 1040 73 2100 190/08 RMK AO2
14926KSTC STC20030714000509907/14/03 00:05:31  5-MIN KSTC 140605Z AUTO 20009KT 10SM CLR 22/17 A2990 1050 73 2100 190/09 RMK AO2
14926KSTC STC20030714001009907/14/03 00:10:31  5-MIN KSTC 140610Z AUTO 19009KT 10SM CLR 21/17 A2990 1040 75 2000 190/09 RMK AO2
14926KSTC STC20030714001509907/14/03 00:15:31  5-MIN KSTC 140615Z AUTO 19008KT 10SM CLR 22/17 A2990 1040 73 2100 190/08 RMK AO2
14926KSTC STC20030714002009907/14/03 00:20:31  5-MIN KSTC 140620Z AUTO 19009KT 10SM CLR 22/17 A2990 1040 73 2100 190/09 RMK AO2
14926KSTC STC20030714002509907/14/03 00:25:31  5-MIN KSTC 140625Z AUTO 19009KT 10SM CLR 22/17 A2990 1040 73 2100 180/09 RMK AO2
14926KSTC STC20030714003009907/14/03 00:30:31  5-MIN KSTC 140630Z AUTO 19009KT 10SM CLR 22/17 A2990 1040 73 2100 180/09 RMK AO2
14926KSTC STC20030714003509907/14/03 00:35:31  5-MIN KSTC 140635Z AUTO 18010KT 10SM CLR 22/17 A2990 1040 73 2100 180/10 RMK AO2
14926KSTC STC20030714004009907/14/03 00:40:31  5-MIN KSTC 140640Z AUTO 18009KT 10SM CLR 22/17 A2990 1040 73 2100 180/09 RMK AO2
14926KSTC STC20030714004509907/14/03 00:45:31  5-MIN KSTC 140645Z AUTO 19008KT 10SM CLR 22/17 A2990 1040 75 2100 190/08 RMK AO2
14926KSTC STC20030714005011607/14/03 00:50:31  5-MIN KSTC 140650Z AUTO 19006KT 10SM CLR 22/17 A2991 1040 75 2100 190/06 RMK AO2 SLP128 T02170172
14926KSTC STC20030714005509907/14/03 00:55:31  5-MIN KSTC 140655Z AUTO 19007KT 10SM CLR 22/17 A2990 1040 75 2100 190/07 RMK AO2
14926KSTC STC20030714010009907/14/03 01:00:31  5-MIN KSTC 140700Z AUTO 18008KT 10SM CLR 22/17 A2990 1040 75 2100 180/08 RMK AO2
14926KSTC STC20030714010509907/14/03 01:05:31  5-MIN KSTC 140705Z AUTO 18006KT 10SM CLR 22/17 A2990 1040 75 2100 170/06 RMK AO2
14926KSTC STC20030714011009907/14/03 01:10:31  5-MIN KSTC 140710Z AUTO 17005KT 10SM CLR 21/17 A2990 1040 78 2000 170/05 RMK AO2
14926KSTC STC20030714011509907/14/03 01:15:31  5-MIN KSTC 140715Z AUTO 16004KT 10SM CLR 21/17 A2991 1040 78 2000 160/04 RMK AO2
14926KSTC STC20030714012009907/14/03 01:20:31  5-MIN KSTC 140720Z AUTO 17004KT 10SM CLR 21/17 A2991 1040 78 2000 170/04 RMK AO2
14926KSTC STC20030714012509907/14/03 01:25:31  5-MIN KSTC 140725Z AUTO 17005KT 10SM CLR 21/17 A2991 1040 78 2000 170/05 RMK AO2
14926KSTC STC20030714013009907/14/03 01:30:31  5-MIN KSTC 140730Z AUTO 18005KT 10SM CLR 21/17 A2991 1040 78 2000 180/05 RMK AO2
14926KSTC STC20030714013509907/14/03 01:35:31  5-MIN KSTC 140735Z AUTO 18004KT 10SM CLR 21/17 A2991 1040 78 2000 170/04 RMK AO2
14926KSTC STC20030714014009907/14/03 01:40:31  5-MIN KSTC 140740Z AUTO 16003KT 10SM CLR 21/17 A2991 1030 81 2000 160/03 RMK AO2
14926KSTC STC20030714014509907/14/03 01:45:31  5-MIN KSTC 140745Z AUTO 15004KT 10SM CLR 20/17 A2991 1040 84 1900 140/04 RMK AO2
14926KSTC STC20030714015011607/14/03 01:50:31  5-MIN KSTC 140750Z AUTO 11003KT 10SM CLR 21/17 A2991 1030 81 2000 110/03 RMK AO2 SLP130 T02060172
14926KSTC STC20030714015509907/14/03 01:55:31  5-MIN KSTC 140755Z AUTO 06003KT 10SM CLR 20/17 A2992 1030 84 1900 060/03 RMK AO2
14926KSTC STC20030714020009907/14/03 02:00:31  5-MIN KSTC 140800Z AUTO 09004KT 10SM CLR 20/17 A2991 1030 84 1900 080/04 RMK AO2
14926KSTC STC20030714020509907/14/03 02:05:31  5-MIN KSTC 140805Z AUTO 10005KT 10SM CLR 20/17 A2991 1040 84 1900 090/05 RMK AO2
14926KSTC STC20030714021009907/14/03 02:10:31  5-MIN KSTC 140810Z AUTO 13005KT 10SM CLR 20/17 A2990 1040 84 1900 120/05 RMK AO2
14926KSTC STC20030714021509907/14/03 02:15:31  5-MIN KSTC 140815Z AUTO 15007KT 10SM CLR 20/17 A2990 1050 84 1900 140/07 RMK AO2
14926KSTC STC20030714022010607/14/03 02:20:31  5-MIN KSTC 140820Z AUTO 14009KT 10SM CLR 19/17 A2989 1060 87 1900 140/09 RMK AO2 PRESFR
14926KSTC STC20030714022510607/14/03 02:25:31  5-MIN KSTC 140825Z AUTO 15010KT 10SM CLR 19/17 A2988 1060 87 1900 150/10 RMK AO2 PRESFR
14926KSTC STC20030714023009907/14/03 02:30:31  5-MIN KSTC 140830Z AUTO 15010KT 10SM CLR 19/17 A2988 1070 90 1800 150/10 RMK AO2
14926KSTC STC20030714023509907/14/03 02:35:31  5-MIN KSTC 140835Z AUTO 15009KT 10SM CLR 19/17 A2988 1070 87 1900 140/09 RMK AO2
14926KSTC STC20030714024009907/14/03 02:40:31  5-MIN KSTC 140840Z AUTO 15009KT 10SM CLR 19/17 A2988 1070 87 1900 140/09 RMK AO2
14926KSTC STC20030714024509907/14/03 02:45:31  5-MIN KSTC 140845Z AUTO 14009KT 10SM CLR 19/17 A2987 1070 87 1900 140/09 RMK AO2
14926KSTC STC20030714025012207/14/03 02:50:31  5-MIN KSTC 140850Z AUTO 14009KT 10SM CLR 19/17 A2987 1080 87 1900 140/09 RMK AO2 SLP116 T01940172 55005
14926KSTC STC20030714025509907/14/03 02:55:31  5-MIN KSTC 140855Z AUTO 14010KT 10SM CLR 19/17 A2986 1080 87 1900 140/10 RMK AO2
14926KSTC STC20030714030010607/14/03 03:00:31  5-MIN KSTC 140900Z AUTO 14011KT 10SM CLR 20/17 A2985 1090 84 2000 140/11 RMK AO2 PRESFR
14926KSTC STC20030714030510607/14/03 03:05:31  5-MIN KSTC 140905Z AUTO 14010KT 10SM CLR 20/17 A2985 1090 84 2000 140/10 RMK AO2 PRESFR
14926KSTC STC20030714031009907/14/03 03:10:31  5-MIN KSTC 140910Z AUTO 15010KT 10SM CLR 19/17 A2985 1090 87 1900 150/10 RMK AO2
14926KSTC STC20030714031509907/14/03 03:15:31  5-MIN KSTC 140915Z AUTO 15012KT 10SM CLR 19/17 A2984 1100 87 1900 140/12 RMK AO2
14926KSTC STC20030714032009907/14/03 03:20:31  5-MIN KSTC 140920Z AUTO 15012KT 10SM CLR 20/17 A2984 1100 81 2000 150/12 RMK AO2
14926KSTC STC20030714032509907/14/03 03:25:31  5-MIN KSTC 140925Z AUTO 15013KT 10SM CLR 20/17 A2983 1110 81 2000 150/13 RMK AO2
14926KSTC STC20030714033010607/14/03 03:30:31  5-MIN KSTC 140930Z AUTO 15012KT 10SM CLR 20/17 A2982 1120 81 2000 150/12 RMK AO2 PRESFR
14926KSTC STC20030714033510607/14/03 03:35:31  5-MIN KSTC 140935Z AUTO 15012KT 10SM CLR 20/17 A2981 1130 81 2000 150/12 RMK AO2 PRESFR
14926KSTC STC20030714034010607/14/03 03:40:31  5-MIN KSTC 140940Z AUTO 15014KT 10SM CLR 20/17 A2980 1130 84 2000 150/14 RMK AO2 PRESFR
14926KSTC STC20030714034509907/14/03 03:45:31  5-MIN KSTC 140945Z AUTO 15013KT 10SM CLR 20/17 A2980 1140 84 2000 150/13 RMK AO2
14926KSTC STC20030714035011607/14/03 03:50:31  5-MIN KSTC 140950Z AUTO 16013KT 10SM CLR 20/17 A2980 1140 84 2000 150/13 RMK AO2 SLP092 T02000172
14926KSTC STC20030714035509907/14/03 03:55:31  5-MIN KSTC 140955Z AUTO 16015KT 10SM CLR 21/17 A2979 1150 78 2100 150/15 RMK AO2
14926KSTC STC20030714040010607/14/03 04:00:31  5-MIN KSTC 141000Z AUTO 16014KT 10SM CLR 21/17 A2978 1160 78 2100 150/14 RMK AO2 PRESFR
14926KSTC STC20030714040510607/14/03 04:05:31  5-MIN KSTC 141005Z AUTO 15016KT 10SM CLR 21/17 A2977 1170 78 2100 150/16 RMK AO2 PRESFR
14926KSTC STC20030714041010607/14/03 04:10:31  5-MIN KSTC 141010Z AUTO 15018KT 10SM CLR 21/17 A2974 1190 78 2200 140/18 RMK AO2 PRESFR
14926KSTC STC20030714041511207/14/03 04:15:31  5-MIN KSTC 141015Z AUTO 16021G24KT 10SM CLR 21/17 A2974 1200 78 2200 150/21G24 RMK AO2 PRESFR
14926KSTC STC20030714042012307/14/03 04:20:31  5-MIN KSTC 141020Z AUTO 15017G27KT 10SM CLR 21/17 A2974 1190 78 2200 150/17G27 RMK AO2 PK WND 15027/1016
14926KSTC STC20030714042512307/14/03 04:25:31  5-MIN KSTC 141025Z AUTO 14014G27KT 10SM CLR 21/17 A2976 1170 78 2100 140/14G27 RMK AO2 PK WND 15027/1016
14926KSTC STC20030714043013007/14/03 04:30:31  5-MIN KSTC 141030Z AUTO 17010G22KT 10SM CLR 21/17 A2981 1130 75 2100 170/10G22 RMK AO2 PK WND 15027/1016 PRESRR
14926KSTC STC20030714043512407/14/03 04:35:31  5-MIN KSTC 141035Z AUTO 18009KT 10SM CLR 21/17 A2983 1110 75 2100 170/09 RMK AO2 PK WND 15027/1016 PRESRR
14926KSTC STC20030714044012407/14/03 04:40:31  5-MIN KSTC 141040Z AUTO 21010KT 10SM CLR 21/17 A2985 1090 75 2100 210/10 RMK AO2 PK WND 15027/1016 PRESRR
14926KSTC STC20030714044511707/14/03 04:45:31  5-MIN KSTC 141045Z AUTO 20012KT 10SM CLR 21/17 A2986 1080 78 2100 200/12 RMK AO2 PK WND 15027/1016
14926KSTC STC20030714045013407/14/03 04:50:31  5-MIN KSTC 141050Z AUTO 21009KT 10SM CLR 21/17 A2986 1080 81 2000 210/09 RMK AO2 PK WND 15027/1016 SLP115 T02060172
14926KSTC STC20030714045509907/14/03 04:55:31  5-MIN KSTC 141055Z AUTO 19008KT 10SM CLR 21/17 A2986 1080 81 2000 190/08 RMK AO2
14926KSTC STC20030714050009907/14/03 05:00:31  5-MIN KSTC 141100Z AUTO 19008KT 10SM CLR 21/17 A2985 1090 81 2000 190/08 RMK AO2
14926KSTC STC20030714050509907/14/03 05:05:31  5-MIN KSTC 141105Z AUTO 17007KT 10SM CLR 21/17 A2985 1090 81 2000 160/07 RMK AO2
14926KSTC STC20030714051009907/14/03 05:10:31  5-MIN KSTC 141110Z AUTO 18011KT 10SM CLR 21/17 A2985 1090 81 2000 180/11 RMK AO2
14926KSTC STC20030714051509907/14/03 05:15:31  5-MIN KSTC 141115Z AUTO 19008KT 10SM CLR 21/17 A2985 1090 81 2000 190/08 RMK AO2
14926KSTC STC20030714052009907/14/03 05:20:31  5-MIN KSTC 141120Z AUTO 18008KT 10SM CLR 21/17 A2985 1090 81 2000 180/08 RMK AO2
14926KSTC STC20030714052509907/14/03 05:25:31  5-MIN KSTC 141125Z AUTO 17008KT 10SM CLR 21/17 A2985 1090 81 2000 170/08 RMK AO2
14926KSTC STC20030714053009907/14/03 05:30:31  5-MIN KSTC 141130Z AUTO 17008KT 10SM CLR 21/17 A2985 1090 78 2100 170/08 RMK AO2
14926KSTC STC20030714053509907/14/03 05:35:31  5-MIN KSTC 141135Z AUTO 17009KT 10SM CLR 21/17 A2985 1090 78 2100 160/09 RMK AO2
14926KSTC STC20030714054009907/14/03 05:40:31  5-MIN KSTC 141140Z AUTO 16009KT 10SM CLR 21/17 A2985 1090 78 2100 160/09 RMK AO2
14926KSTC STC20030714054509907/14/03 05:45:31  5-MIN KSTC 141145Z AUTO 17010KT 10SM CLR 21/17 A2985 1090 81 2000 160/10 RMK AO2
14926KSTC STC20030714055013407/14/03 05:50:31  5-MIN KSTC 141150Z AUTO 17009KT 10SM CLR 21/17 A2985 1090 81 2000 170/09 RMK AO2 SLP110 T02060172 10217 20189 58013
14926KSTC STC20030714055509907/14/03 05:55:31  5-MIN KSTC 141155Z AUTO 18009KT 10SM CLR 21/17 A2986 1080 81 2000 170/09 RMK AO2
14926KSTC STC20030714060009907/14/03 06:00:31  5-MIN KSTC 141200Z AUTO 17007KT 10SM CLR 21/17 A2986 1080 81 2000 170/07 RMK AO2
14926KSTC STC20030714060509907/14/03 06:05:31  5-MIN KSTC 141205Z AUTO 17009KT 10SM CLR 21/17 A2986 1080 81 2000 160/09 RMK AO2
14926KSTC STC20030714061009907/14/03 06:10:31  5-MIN KSTC 141210Z AUTO 16009KT 10SM CLR 21/17 A2985 1090 81 2000 160/09 RMK AO2
14926KSTC STC20030714061509907/14/03 06:15:31  5-MIN KSTC 141215Z AUTO 16010KT 10SM CLR 21/17 A2984 1100 81 2000 160/10 RMK AO2
14926KSTC STC20030714062009907/14/03 06:20:31  5-MIN KSTC 141220Z AUTO 16009KT 10SM CLR 21/17 A2984 1100 81 2000 160/09 RMK AO2
14926KSTC STC20030714062509907/14/03 06:25:31  5-MIN KSTC 141225Z AUTO 16008KT 10SM CLR 21/17 A2984 1100 81 2000 160/08 RMK AO2
14926KSTC STC20030714063009907/14/03 06:30:31  5-MIN KSTC 141230Z AUTO 16009KT 10SM CLR 21/17 A2984 1100 78 2100 150/09 RMK AO2
14926KSTC STC20030714063509907/14/03 06:35:31  5-MIN KSTC 141235Z AUTO 16010KT 10SM CLR 21/17 A2984 1100 78 2100 160/10 RMK AO2
14926KSTC STC20030714064009907/14/03 06:40:31  5-MIN KSTC 141240Z AUTO 16011KT 10SM CLR 22/17 A2984 1100 75 2200 160/11 RMK AO2
14926KSTC STC20030714064509907/14/03 06:45:31  5-MIN KSTC 141245Z AUTO 17011KT 10SM CLR 22/18 A2983 1110 78 2200 160/11 RMK AO2
14926KSTC STC20030714065011607/14/03 06:50:31  5-MIN KSTC 141250Z AUTO 17013KT 10SM CLR 22/17 A2984 1100 73 2200 170/13 RMK AO2 SLP105 T02220172
14926KSTC STC20030714065509907/14/03 06:55:31  5-MIN KSTC 141255Z AUTO 17013KT 10SM CLR 22/17 A2984 1100 75 2200 170/13 RMK AO2
14926KSTC STC20030714070009907/14/03 07:00:31  5-MIN KSTC 141300Z AUTO 17013KT 10SM CLR 22/17 A2984 1100 75 2200 170/13 RMK AO2
14926KSTC STC20030714070509907/14/03 07:05:31  5-MIN KSTC 141305Z AUTO 17014KT 10SM CLR 22/17 A2983 1110 75 2200 170/14 RMK AO2
14926KSTC STC20030714071010507/14/03 07:10:31  5-MIN KSTC 141310Z AUTO 17016G19KT 10SM CLR 22/17 A2983 1110 75 2200 170/16G19 RMK AO2
14926KSTC STC20030714071510507/14/03 07:15:31  5-MIN KSTC 141315Z AUTO 17012G19KT 10SM CLR 22/17 A2983 1110 75 2200 170/12G19 RMK AO2
14926KSTC STC20030714072009907/14/03 07:20:31  5-MIN KSTC 141320Z AUTO 17013KT 10SM CLR 22/17 A2983 1110 75 2200 170/13 RMK AO2
14926KSTC STC20030714072509907/14/03 07:25:31  5-MIN KSTC 141325Z AUTO 17011KT 10SM CLR 22/17 A2984 1110 75 2200 170/11 RMK AO2
14926KSTC STC20030714073009907/14/03 07:30:31  5-MIN KSTC 141330Z AUTO 18013KT 10SM CLR 22/17 A2984 1100 75 2200 170/13 RMK AO2
14926KSTC STC20030714073509907/14/03 07:35:31  5-MIN KSTC 141335Z AUTO 18013KT 10SM CLR 22/17 A2985 1090 75 2200 170/13 RMK AO2
14926KSTC STC20030714074010607/14/03 07:40:31  5-MIN KSTC 141340Z AUTO 18012KT 10SM CLR 22/17 A2986 1080 75 2100 180/12 RMK AO2 PRESRR
14926KSTC STC20030714074510607/14/03 07:45:31  5-MIN KSTC 141345Z AUTO 19011KT 10SM CLR 22/17 A2988 1070 75 2100 190/11 RMK AO2 PRESRR
14926KSTC STC20030714075012307/14/03 07:50:31  5-MIN KSTC 141350Z AUTO 20012KT 10SM CLR 22/17 A2988 1060 75 2100 190/12 RMK AO2 PRESRR SLP122 T02170172
14926KSTC STC20030714075509907/14/03 07:55:31  5-MIN KSTC 141355Z AUTO 19011KT 10SM CLR 22/17 A2988 1060 75 2100 180/11 RMK AO2
14926KSTC STC20030714080009907/14/03 08:00:31  5-MIN KSTC 141400Z AUTO 19010KT 10SM CLR 22/18 A2989 1060 78 2100 190/10 RMK AO2
14926KSTC STC20030714080509907/14/03 08:05:31  5-MIN KSTC 141405Z AUTO 20010KT 10SM CLR 22/18 A2990 1050 78 2100 200/10 RMK AO2
14926KSTC STC20030714081010207/14/03 08:10:31  5-MIN KSTC 141410Z AUTO 20010KT 10SM FEW036 22/18 A2990 1050 78 2100 200/10 RMK AO2
14926KSTC STC20030714081510907/14/03 08:15:31  5-MIN KSTC 141415Z AUTO 19010KT 10SM FEW038 SCT070 22/18 A2989 1050 78 2100 190/10 RMK AO2
14926KSTC STC20030714082010907/14/03 08:20:31  5-MIN KSTC 141420Z AUTO 19011KT 10SM FEW038 SCT070 22/18 A2989 1050 78 2100 190/11 RMK AO2
14926KSTC STC20030714082510907/14/03 08:25:31  5-MIN KSTC 141425Z AUTO 18012KT 10SM FEW038 22/18 A2987 1070 78 2100 170/12 RMK AO2 PRESFR
14926KSTC STC20030714083011807/14/03 08:30:31  5-MIN KSTC 141430Z AUTO 16015KT 10SM TS FEW038 22/18 A2985 1100 78 2200 160/15 RMK AO2 TSB26 PRESFR
14926KSTC STC20030714083512507/14/03 08:35:31  5-MIN KSTC 141435Z AUTO 16013KT 10SM TS FEW038 SCT070 22/18 A2984 1110 78 2200 160/13 RMK AO2 TSB26 PRESFR
14926KSTC STC20030714084011807/14/03 08:40:31  5-MIN KSTC 141440Z AUTO 16011KT 10SM TS SCT070 SCT090 22/18 A2985 1090 78 2200 160/11 RMK AO2 TSB26
14926KSTC STC20030714084513807/14/03 08:45:31  5-MIN KSTC 141445Z AUTO 24006G18KT 10SM -TSRA FEW043 BKN070 22/18 A2987 1070 78 2100 240/06G18 RMK AO2 TSB26RAB44 P0000
14926KSTC STC20030714085017407/14/03 08:50:31  5-MIN KSTC 141450Z AUTO 28009KT 7SM -TSRA FEW028 SCT041 BKN070 21/18 A2988 1070 84 2100 270/09 RMK AO2 TSB26RAB44 PRESRR SLP121 P0008 60008 T02110183 56003
14926KSTC STC20030714085513007/14/03 08:55:31  5-MIN KSTC 141455Z AUTO 14011KT 2SM +TSRA BR SCT012 SCT033 BKN042 20/18 A2986 1080 90 2000 140/11 RMK AO2 P0005
14926KSTC STC20030714090008507/14/03 09:00:31  5-MIN KSTC 141500Z AUTO TS M M M M /M RMK AO2 TSB00 P0009 FZRANO $
14926KSTC STC20030714090511507/14/03 09:05:31  5-MIN KSTC 141505Z AUTO VRB04KT -TSRA 19/19 A2989 1060 97 1900 VRB/04 RMK AO2 TSB00RAB01 P0010 $
14926KSTC STC20030714091012007/14/03 09:10:31  5-MIN KSTC 141510Z AUTO 19007KT 10SM -TSRA 20/19 A2989 1060 93 1900 180/07 RMK AO2 TSB00RAB01 P0012 $
14926KSTC STC20030714091511907/14/03 09:15:31  5-MIN KSTC 141515Z AUTO VRB05KT 10SM TSRA 21/18 A2989 1050 87 2000 VRB/05 RMK AO2 TSB00RAB01 P0014 $
14926KSTC STC20030714092012007/14/03 09:20:31  5-MIN KSTC 141520Z AUTO 16010KT 10SM -TSRA 20/19 A2991 1040 93 1900 160/10 RMK AO2 TSB00RAB01 P0014 $
14926KSTC STC20030714092512007/14/03 09:25:31  5-MIN KSTC 141525Z AUTO 21008KT 10SM -TSRA 20/19 A2990 1050 93 1900 200/08 RMK AO2 TSB00RAB01 P0015 $
14926KSTC STC20030714093014107/14/03 09:30:31  5-MIN KSTC 141530Z AUTO 18011KT 10SM -TSRA FEW011 BKN018 OVC030 19/19 A2990 1040 97 1800 180/11 RMK AO2 TSB00RAB01 P0015 $
14926KSTC STC20030714093514107/14/03 09:35:31  5-MIN KSTC 141535Z AUTO 17011KT 10SM -TSRA FEW011 BKN018 OVC027 19/19 A2991 1040 97 1800 170/11 RMK AO2 TSB00RAB01 P0016 $
14926KSTC STC20030714094014107/14/03 09:40:31  5-MIN KSTC 141540Z AUTO 16009KT 10SM -TSRA BKN014 BKN020 OVC026 19/19 A2989 1060 97 1900 160/09 RMK AO2 TSB00RAB01 P0017 $
14926KSTC STC20030714094514007/14/03 09:45:31  5-MIN KSTC 141545Z AUTO 14011KT 10SM TSRA BKN014 OVC024 19/19 A2986 1090 97 1900 140/11 RMK AO2 TSB00RAB01 PRESFR P0019 $
14926KSTC STC20030714095017107/14/03 09:50:31  5-MIN KSTC 141550Z AUTO 13015G20KT 10SM -TSRA BKN014 BKN019 OVC024 19/19 A2981 1130 97 2000 130/15G20 RMK AO2 TSB00RAB01 PRESFR SLP098 P0019 T01940189 $
14926KSTC STC20030714095514307/14/03 09:55:31  5-MIN KSTC 141555Z AUTO 14019G23KT 10SM -TSRA BKN012 BKN019 OVC024 19/19 A2979 1150 97 2000 130/19G23 RMK AO2 PRESFR P0000 $
14926KSTC STC20030714100012907/14/03 10:00:31  5-MIN KSTC 141600Z AUTO 16012G23KT 10SM -TSRA BKN012 BKN024 19/19 A2981 1130 97 1900 150/12G23 RMK AO2 P0000 $
14926KSTC STC20030714100513207/14/03 10:05:31  5-MIN KSTC 141605Z AUTO 15011G20KT 10SM TS BKN012 BKN024 19/19 A2983 1110 97 1900 140/11G20 RMK AO2 RAE03 P0000 $
14926KSTC STC20030714101013307/14/03 10:10:31  5-MIN KSTC 141610Z AUTO 15013KT 10SM TS SCT009 BKN012 BKN024 19/19 A2983 1110 97 1900 150/13 RMK AO2 RAE03 P0000 $
14926KSTC STC20030714101512607/14/03 10:15:31  5-MIN KSTC 141615Z AUTO 14013KT 10SM TS FEW006 BKN012 19/19 A2982 1120 97 1900 130/13 RMK AO2 RAE03 P0000 $
14926KSTC STC20030714102012607/14/03 10:20:31  5-MIN KSTC 141620Z AUTO 12011KT 10SM TS FEW006 SCT012 19/19 A2982 1120 97 1900 120/11 RMK AO2 RAE03 P0000 $
14926KSTC STC20030714102511907/14/03 10:25:31  5-MIN KSTC 141625Z AUTO 13009KT 10SM TS FEW006 19/19 A2983 1110 97 1900 120/09 RMK AO2 RAE03 P0000 $
14926KSTC STC20030714103011907/14/03 10:30:31  5-MIN KSTC 141630Z AUTO 14008KT 10SM TS FEW006 19/19 A2984 1110 97 1900 140/08 RMK AO2 RAE03 P0000 $
14926KSTC STC20030714103511907/14/03 10:35:31  5-MIN KSTC 141635Z AUTO 15011KT 10SM TS FEW006 19/19 A2983 1110 97 1900 150/11 RMK AO2 RAE03 P0000 $
14926KSTC STC20030714104011607/14/03 10:40:31  5-MIN KSTC 141640Z AUTO 16010KT 10SM TS CLR 19/19 A2983 1110 97 1900 160/10 RMK AO2 RAE03 P0000 $
14926KSTC STC20030714104511607/14/03 10:45:31  5-MIN KSTC 141645Z AUTO 16012KT 10SM TS CLR 19/19 A2984 1100 97 1900 160/12 RMK AO2 RAE03 P0000 $
14926KSTC STC20030714105013607/14/03 10:50:31  5-MIN KSTC 141650Z AUTO 15013KT 10SM TS FEW009 19/19 A2986 1080 97 1900 150/13 RMK AO2 RAE03 SLP115 P0000 T01940189 $
14926KSTC STC20030714105511407/14/03 10:55:31  5-MIN KSTC 141655Z AUTO 17007KT 10SM TS FEW009 19/19 A2989 1050 97 1900 170/07 RMK AO2 PRESRR $
14926KSTC STC20030714110011407/14/03 11:00:31  5-MIN KSTC 141700Z AUTO 29006KT 10SM TS FEW009 20/19 A2992 1030 93 1900 280/06 RMK AO2 PRESRR $
14926KSTC STC20030714110510707/14/03 11:05:31  5-MIN KSTC 141705Z AUTO 27008KT 10SM TS SCT009 20/19 A2991 1030 93 1900 270/08 RMK AO2 $
14926KSTC STC20030714111011907/14/03 11:10:31  5-MIN KSTC 141710Z AUTO 30010KT 10SM TS BKN009 20/19 A2992 1020 97 1900 300/10 RMK AO2 CIG 008V012 $
14926KSTC STC20030714111511907/14/03 11:15:31  5-MIN KSTC 141715Z AUTO 33005KT 10SM TS BKN009 20/19 A2990 1040 97 1900 320/05 RMK AO2 CIG 007V012 $
14926KSTC STC20030714112011907/14/03 11:20:31  5-MIN KSTC 141720Z AUTO VRB05KT 10SM TS BKN009 20/19 A2989 1050 97 1900 VRB/05 RMK AO2 CIG 007V012 $
14926KSTC STC20030714112512207/14/03 11:25:31  5-MIN KSTC 141725Z AUTO VRB05KT 10SM BKN009 20/19 A2988 1060 97 1900 VRB/05 RMK AO2 TSE24 CIG 007V012 $
14926KSTC STC20030714113012207/14/03 11:30:31  5-MIN KSTC 141730Z AUTO 33007KT 10SM BKN009 20/19 A2989 1050 97 1900 330/07 RMK AO2 TSE24 CIG 007V012 $
14926KSTC STC20030714113511007/14/03 11:35:31  5-MIN KSTC 141735Z AUTO 35009KT 10SM SCT009 20/19 A2988 1060 97 1900 350/09 RMK AO2 TSE24 $
14926KSTC STC20030714114011007/14/03 11:40:31  5-MIN KSTC 141740Z AUTO 35006KT 10SM SCT009 20/19 A2987 1070 97 1900 350/06 RMK AO2 TSE24 $
14926KSTC STC20030714114511007/14/03 11:45:31  5-MIN KSTC 141745Z AUTO VRB05KT 10SM FEW009 21/19 A2986 1080 93 2000 VRB/05 RMK AO2 TSE24 $
14926KSTC STC20030714115014507/14/03 11:50:31  5-MIN KSTC 141750Z AUTO 07004KT 10SM FEW011 21/19 A2986 1080 93 2000 070/04 RMK AO2 TSE24 SLP115 60050 T02060194 10222 20194 $
14926KSTC STC20030714115510407/14/03 11:55:31  5-MIN KSTC 141755Z AUTO 09005KT 10SM FEW011 21/19 A2986 1080 93 2000 090/05 RMK AO2 $
14926KSTC STC20030714120010107/14/03 12:00:31  5-MIN KSTC 141800Z AUTO 10004KT 10SM CLR 21/19 A2985 1090 93 2000 090/04 RMK AO2 $
14926KSTC STC20030714120510107/14/03 12:05:31  5-MIN KSTC 141805Z AUTO 15006KT 10SM CLR 21/19 A2986 1090 93 2000 150/06 RMK AO2 $
14926KSTC STC20030714121010107/14/03 12:10:31  5-MIN KSTC 141810Z AUTO 15004KT 10SM CLR 21/19 A2987 1070 93 2000 150/04 RMK AO2 $
14926KSTC STC20030714121510407/14/03 12:15:31  5-MIN KSTC 141815Z AUTO 22003KT 10SM FEW110 21/19 A2988 1070 93 2000 220/03 RMK AO2 $
14926KSTC STC20030714122012007/14/03 12:20:31  5-MIN KSTC 141820Z AUTO 22006KT 10SM TS FEW110 21/19 A2989 1050 93 2000 220/06 RMK AO2 TSB16 PRESRR $
14926KSTC STC20030714122512707/14/03 12:25:31  5-MIN KSTC 141825Z AUTO 22009KT 10SM TS FEW095 SCT110 21/19 A2991 1040 93 2000 220/09 RMK AO2 TSB16 PRESRR $
14926KSTC STC20030714123013407/14/03 12:30:31  5-MIN KSTC 141830Z AUTO 21006KT 10SM -TSRA SCT065 BKN100 21/19 A2989 1050 93 2000 210/06 RMK AO2 TSB16RAB29 P0001 $
14926KSTC STC20030714123514107/14/03 12:35:31  5-MIN KSTC 141835Z AUTO 21007KT 10SM -TSRA SCT050 BKN065 BKN100 21/19 A2988 1060 93 2000 200/07 RMK AO2 TSB16RAB29 P0002 $
14926KSTC STC20030714124013907/14/03 12:40:31  5-MIN KSTC 141840Z AUTO 14006KT 9SM TSRA BKN037 BKN100 20/19 A2986 1080 97 2000 140/06 RMK AO2 TSB16RAB29 PRESFR P0004 $
14926KSTC STC20030714124513407/14/03 12:45:31  5-MIN KSTC 141845Z AUTO 16003KT 10SM -TSRA BKN027 BKN100 21/20 A2985 1090 97 2000 150/03 RMK AO2 TSB16RAB29 P0004 $
14926KSTC STC20030714125015107/14/03 12:50:31  5-MIN KSTC 141850Z AUTO 20009KT 10SM -TSRA BKN025 OVC065 21/20 A2988 1060 97 2000 200/09 RMK AO2 TSB16RAB29 SLP122 P0005 T02060200 $
14926KSTC STC20030714125512307/14/03 12:55:31  5-MIN KSTC 141855Z AUTO 22011KT 10SM -TSRA BKN025 OVC085 21/20 A2990 1050 97 2000 220/11 RMK AO2 P0000 $
14926KSTC STC20030714130012307/14/03 13:00:31  5-MIN KSTC 141900Z AUTO 20008KT 10SM -TSRA BKN025 OVC085 21/20 A2989 1060 97 2000 200/08 RMK AO2 P0000 $
14926KSTC STC20030714130512107/14/03 13:05:31  5-MIN KSTC 141905Z AUTO 20009KT 8SM TSRA BKN023 OVC085 21/20 A2989 1050 97 2000 200/09 RMK AO2 P0006 $
14926KSTC STC20030714131010307/14/03 13:10:31  5-MIN KSTC 141910Z AUTO 17014KT -TSRA M M M 170/14 RMK AO2 TSB09RAB10 P0006 FZRANO $
14926KSTC STC20030714131511507/14/03 13:15:31  5-MIN KSTC 141915Z AUTO 15015KT -TSRA 21/20 A2982 1120 97 2100 150/15 RMK AO2 TSB09RAB10 P0008 $
14926KSTC STC20030714132012107/14/03 13:20:31  5-MIN KSTC 141920Z AUTO 15014KT 10SM -TSRA 21/21 A2982 1120 100 2100 150/14 RMK AO2 TSB09RAB10 P0009 $
14926KSTC STC20030714132512107/14/03 13:25:31  5-MIN KSTC 141925Z AUTO 18016KT 10SM -TSRA 21/21 A2985 1090 100 2000 170/16 RMK AO2 TSB09RAB10 P0009 $
14926KSTC STC20030714133012007/14/03 13:30:31  5-MIN KSTC 141930Z AUTO 18013KT 10SM -TSRA 21/20 A2984 1100 97 2000 170/13 RMK AO2 TSB09RAB10 P0009 $
14926KSTC STC20030714133512007/14/03 13:35:31  5-MIN KSTC 141935Z AUTO 17014KT 10SM TS 21/20 A2983 1110 97 2000 170/14 RMK AO2 TSB09RAB10E31 P0009 $
14926KSTC STC20030714134012707/14/03 13:40:31  5-MIN KSTC 141940Z AUTO 17014KT 10SM TS FEW016 21/20 A2983 1110 93 2100 170/14 RMK AO2 TSB09RAB10E31 P0009 $
14926KSTC STC20030714134512707/14/03 13:45:31  5-MIN KSTC 141945Z AUTO 16014KT 10SM TS FEW014 21/20 A2983 1110 97 2100 160/14 RMK AO2 TSB09RAB10E31 P0009 $
14926KSTC STC20030714135014107/14/03 13:50:31  5-MIN KSTC 141950Z AUTO 15013KT 10SM TS CLR 21/20 A2982 1120 97 2100 150/13 RMK AO2 TSB09RAB10E31 SLP103 P0009 T02060200 $
14926KSTC STC20030714135512207/14/03 13:55:31  5-MIN KSTC 141955Z AUTO 16013KT 10SM -TSRA FEW025 21/20 A2982 1120 97 2100 160/13 RMK AO2 RAB54 P0000 $
14926KSTC STC20030714140012407/14/03 14:00:31  5-MIN KSTC 142000Z AUTO 16012KT 10SM -TSRA SCT033 21/20 A2981 1120 97 2100 150/12 RMK AO2 RAB1954 P0000 $
14926KSTC STC20030714140513407/14/03 14:05:31  5-MIN KSTC 142005Z AUTO 15009KT 10SM -RA SCT034 SCT065 21/20 A2982 1120 97 2100 150/09 RMK AO2 TSE03RAB1954 P0000 $
14926KSTC STC20030714141013407/14/03 14:10:31  5-MIN KSTC 142010Z AUTO 17010KT 10SM -RA BKN034 BKN060 21/20 A2982 1120 97 2100 160/10 RMK AO2 TSE03RAB1954 P0000 $
14926KSTC STC20030714141512707/14/03 14:15:31  5-MIN KSTC 142015Z AUTO 16010KT 10SM -RA SCT034 21/20 A2982 1120 97 2100 160/10 RMK AO2 TSE03RAB1954 P0000 $
14926KSTC STC20030714142012707/14/03 14:20:31  5-MIN KSTC 142020Z AUTO 16009KT 10SM -RA SCT034 21/20 A2982 1120 93 2100 150/09 RMK AO2 TSE03RAB1954 P0000 $
14926KSTC STC20030714142512607/14/03 14:25:31  5-MIN KSTC 142025Z AUTO 16010KT 10SM FEW036 21/20 A2983 1110 93 2100 160/10 RMK AO2 TSE03RAB1954E25 P0000 $
14926KSTC STC20030714143013407/14/03 14:30:31  5-MIN KSTC 142030Z AUTO 16011KT 10SM VCTS FEW034 21/20 A2983 1110 93 2100 160/11 RMK AO2 TSE03B28RAB1954E25 P0000 $
14926KSTC STC20030714143513407/14/03 14:35:31  5-MIN KSTC 142035Z AUTO 16011KT 10SM VCTS FEW038 21/20 A2982 1120 93 2100 160/11 RMK AO2 TSE03B28RAB1954E25 P0000 $
14926KSTC STC20030714144013407/14/03 14:40:31  5-MIN KSTC 142040Z AUTO 16011KT 10SM VCTS FEW075 22/21 A2981 1130 93 2200 160/11 RMK AO2 TSE03B28RAB1954E25 P0000 $
14926KSTC STC20030714144513907/14/03 14:45:31  5-MIN KSTC 142045Z AUTO 16012KT 10SM FEW090 22/21 A2980 1140 90 2300 160/12 RMK AO2 TSE03B28E43RAB1954E25 PRESFR P0000 $
14926KSTC STC20030714145015507/14/03 14:50:31  5-MIN KSTC 142050Z AUTO 16013KT 10SM SCT090 22/21 A2980 1140 90 2300 160/13 RMK AO2 TSE03B28E43RAB1954E25 SLP094 P0000 60014 T02220206 $
14926KSTC STC20030714145511007/14/03 14:55:31  5-MIN KSTC 142055Z AUTO 16017G22KT 10SM FEW090 23/21 A2979 1150 90 2300 160/17G22 RMK AO2 $
14926KSTC STC20030714150011007/14/03 15:00:31  5-MIN KSTC 142100Z AUTO 15018G22KT 10SM FEW090 23/21 A2979 1150 87 2400 150/18G22 RMK AO2 $
14926KSTC STC20030714150510407/14/03 15:05:31  5-MIN KSTC 142105Z AUTO 16013KT 10SM FEW090 23/21 A2978 1150 87 2400 150/13 RMK AO2 $
14926KSTC STC20030714151010407/14/03 15:10:31  5-MIN KSTC 142110Z AUTO 16016KT 10SM FEW090 23/21 A2978 1160 87 2400 160/16 RMK AO2 $
14926KSTC STC20030714151511707/14/03 15:15:31  5-MIN KSTC 142115Z AUTO 16015G22KT 10SM FEW090 23/20 A2977 1170 84 2400 150/15G22 RMK AO2 PRESFR $
14926KSTC STC20030714152012607/14/03 15:20:31  5-MIN KSTC 142120Z AUTO 15018G22KT 10SM TS FEW070 22/20 A2976 1170 87 2300 150/18G22 RMK AO2 TSB16 PRESFR $
14926KSTC STC20030714152513307/14/03 15:25:31  5-MIN KSTC 142125Z AUTO 17017G23KT 10SM TS FEW070 SCT120 22/20 A2976 1180 87 2300 160/17G23 RMK AO2 TSB16 PRESFR $
14926KSTC STC20030714153012607/14/03 15:30:31  5-MIN KSTC 142130Z AUTO 16017G23KT 10SM TS SCT075 SCT110 22/20 A2976 1170 87 2300 160/17G23 RMK AO2 TSB16 $
14926KSTC STC20030714153512607/14/03 15:35:31  5-MIN KSTC 142135Z AUTO 16017G23KT 10SM TS BKN075 BKN110 22/20 A2977 1170 87 2300 160/17G23 RMK AO2 TSB16 $
14926KSTC STC20030714154012607/14/03 15:40:31  5-MIN KSTC 142140Z AUTO 17014G23KT 10SM TS BKN075 22/20 A2978 1150 87 2300 160/14G23 RMK AO2 TSB16 PRESRR $
14926KSTC STC20030714154514207/14/03 15:45:31  5-MIN KSTC 142145Z AUTO 21007G22KT 160V250 10SM TS BKN075 22/20 A2981 1120 87 2300 210/07G22 160V250 RMK AO2 TSB16 PRESRR $
14926KSTC STC20030714155016407/14/03 15:50:31  5-MIN KSTC 142150Z AUTO 32011G15KT 10SM -TSRA FEW019 BKN070 BKN085 22/20 A2982 1120 90 2200 320/11G15 RMK AO2 TSB16RAB49 SLP101 P0001 T02170200 $
14926KSTC STC20030714155513707/14/03 15:55:31  5-MIN KSTC 142155Z AUTO 32013KT 10SM -TSRA SCT014 BKN070 OVC085 22/20 A2983 1110 90 2200 320/13 RMK AO2 PRESRR P0001 $
14926KSTC STC20030714160014207/14/03 16:00:31  5-MIN KSTC 142200Z AUTO 29010G16KT 10SM TSRA BKN014 BKN018 OVC080 22/20 A2985 1090 90 2200 280/10G16 RMK AO2 PRESRR P0006 $
14926KSTC STC20030714160513107/14/03 16:05:31  5-MIN KSTC 142205Z AUTO 25007G16KT 3SM +TSRA BR BKN014 OVC070 21/20 A2981 1130 93 2100 240/07G16 RMK AO2 P0031 $
14926KSTC STC20030714161013707/14/03 16:10:31  5-MIN KSTC 142210Z AUTO 20005KT 1 1/2SM +TSRA BR SCT004 BKN014 OVC070 21/21 A2982 1120 100 2100 200/05 RMK AO2 P0042 $
14926KSTC STC20030714161513707/14/03 16:15:31  5-MIN KSTC 142215Z AUTO 19006KT 2 1/2SM -TSRA BR SCT007 BKN014 OVC065 21/21 A2981 1130 100 2100 190/06 RMK AO2 P0044 $
14926KSTC STC20030714162012807/14/03 16:20:31  5-MIN KSTC 142220Z AUTO 18009KT 8SM TSRA SCT007 BKN014 OVC038 21/21 A2981 1130 97 2100 180/09 RMK AO2 P0046 $
14926KSTC STC20030714162512907/14/03 16:25:31  5-MIN KSTC 142225Z AUTO 18006KT 9SM +TSRA BKN007 BKN015 OVC034 21/21 A2982 1120 97 2100 180/06 RMK AO2 P0051 $
14926KSTC STC20030714163012907/14/03 16:30:31  5-MIN KSTC 142230Z AUTO 17005KT 9SM -TSRA BKN007 BKN015 OVC031 21/20 A2981 1120 93 2100 160/05 RMK AO2 P0054 $
14926KSTC STC20030714163513307/14/03 16:35:31  5-MIN KSTC 142235Z AUTO 00000KT 5SM +TSRA BR BKN007 BKN020 OVC029 21/21 A2981 1130 100 2100 000/00 RMK AO2 P0062 $
14926KSTC STC20030714164013607/14/03 16:40:31  5-MIN KSTC 142240Z AUTO 25003KT 5SM -RA BR SCT009 BKN022 OVC029 21/21 A2980 1130 97 2100 250/03 RMK AO2 TSE36 P0062 $
14926KSTC STC20030714164513407/14/03 16:45:31  5-MIN KSTC 142245Z AUTO 24005KT 10SM -RA FEW007 SCT022 OVC029 21/21 A2981 1130 97 2100 240/05 RMK AO2 TSE36 P0062 $
14926KSTC STC20030714165015207/14/03 16:50:31  5-MIN KSTC 142250Z AUTO 24005KT 10SM FEW007 BKN025 OVC029 21/21 A2981 1130 97 2100 230/05 RMK AO2 TSE36RAE47 SLP097 P0062 T02110206 $
14926KSTC STC20030714165511807/14/03 16:55:31  5-MIN KSTC 142255Z AUTO 23006KT 10SM FEW007 BKN022 OVC029 21/21 A2981 1130 97 2100 230/06 RMK AO2 $
14926KSTC STC20030714170011107/14/03 17:00:31  5-MIN KSTC 142300Z AUTO 24006KT 10SM BKN022 OVC029 22/21 A2981 1130 93 2200 230/06 RMK AO2 $
14926KSTC STC20030714170511107/14/03 17:05:31  5-MIN KSTC 142305Z AUTO 24005KT 10SM BKN022 OVC029 22/21 A2981 1130 93 2200 230/05 RMK AO2 $
14926KSTC STC20030714171010407/14/03 17:10:31  5-MIN KSTC 142310Z AUTO 23004KT 10SM OVC022 22/21 A2981 1130 93 2200 220/04 RMK AO2 $
14926KSTC STC20030714171510407/14/03 17:15:31  5-MIN KSTC 142315Z AUTO 26003KT 10SM OVC020 22/21 A2980 1130 93 2200 260/03 RMK AO2 $
14926KSTC STC20030714172010507/14/03 17:20:31  5-MIN KSTC 142320Z AUTO 30004KT 10SM OVC020 21/21 A2980 1130 100 2100 300/04 RMK AO2 $
14926KSTC STC20030714172510407/14/03 17:25:31  5-MIN KSTC 142325Z AUTO 27003KT 10SM OVC020 21/21 A2980 1130 97 2100 270/03 RMK AO2 $
14926KSTC STC20030714173010407/14/03 17:30:31  5-MIN KSTC 142330Z AUTO 28003KT 10SM OVC020 22/21 A2981 1130 93 2200 280/03 RMK AO2 $
14926KSTC STC20030714173510407/14/03 17:35:31  5-MIN KSTC 142335Z AUTO 29003KT 10SM OVC020 22/21 A2981 1130 97 2200 290/03 RMK AO2 $
14926KSTC STC20030714174010407/14/03 17:40:31  5-MIN KSTC 142340Z AUTO 28003KT 10SM OVC020 22/21 A2980 1130 97 2200 270/03 RMK AO2 $
14926KSTC STC20030714174510407/14/03 17:45:31  5-MIN KSTC 142345Z AUTO 00000KT 10SM BKN022 22/21 A2979 1140 97 2200 000/00 RMK AO2 $
14926KSTC STC20030714175013907/14/03 17:50:31  5-MIN KSTC 142350Z AUTO 00000KT 10SM BKN022 22/21 A2980 1140 93 2300 000/00 RMK AO2 SLP094 60078 T02220211 10233 20200 $
14926KSTC STC20030714175511107/14/03 17:55:31  5-MIN KSTC 142355Z AUTO 00000KT 10SM SCT020 SCT025 22/21 A2980 1140 93 2300 000/00 RMK AO2 $
14926KSTC STC20030714180011807/14/03 18:00:31  5-MIN KSTC 150000Z AUTO 30004KT 10SM FEW020 SCT025 SCT110 22/21 A2980 1140 93 2300 300/04 RMK AO2 $
14926KSTC STC20030714180510407/14/03 18:05:31  5-MIN KSTC 150005Z AUTO 31003KT 10SM FEW022 22/21 A2980 1140 93 2300 310/03 RMK AO2 $
14926KSTC STC20030714181010407/14/03 18:10:31  5-MIN KSTC 150010Z AUTO 00000KT 10SM SCT110 22/21 A2980 1140 93 2300 000/00 RMK AO2 $
14926KSTC STC20030714181510407/14/03 18:15:31  5-MIN KSTC 150015Z AUTO 00000KT 10SM BKN110 23/21 A2979 1140 90 2300 000/00 RMK AO2 $
14926KSTC STC20030714182010407/14/03 18:20:31  5-MIN KSTC 150020Z AUTO 00000KT 10SM BKN110 23/21 A2979 1140 90 2300 000/00 RMK AO2 $
14926KSTC STC20030714182510407/14/03 18:25:31  5-MIN KSTC 150025Z AUTO 31003KT 10SM BKN110 23/22 A2979 1150 93 2300 310/03 RMK AO2 $
14926KSTC STC20030714183010407/14/03 18:30:31  5-MIN KSTC 150030Z AUTO 30003KT 10SM BKN110 23/22 A2979 1150 93 2400 300/03 RMK AO2 $
14926KSTC STC20030714183510407/14/03 18:35:31  5-MIN KSTC 150035Z AUTO 30005KT 10SM SCT110 23/22 A2979 1150 93 2400 300/05 RMK AO2 $
14926KSTC STC20030714184010407/14/03 18:40:31  5-MIN KSTC 150040Z AUTO 30005KT 10SM SCT110 23/22 A2979 1150 93 2400 300/05 RMK AO2 $
14926KSTC STC20030714184510407/14/03 18:45:31  5-MIN KSTC 150045Z AUTO 30005KT 10SM FEW110 23/22 A2978 1150 93 2400 300/05 RMK AO2 $
14926KSTC STC20030714185012107/14/03 18:50:31  5-MIN KSTC 150050Z AUTO 30005KT 10SM FEW110 23/22 A2978 1150 93 2400 300/05 RMK AO2 SLP089 T02280217 $
14926KSTC STC20030714185510107/14/03 18:55:31  5-MIN KSTC 150055Z AUTO 31005KT 10SM CLR 23/22 A2978 1150 93 2400 300/05 RMK AO2 $
14926KSTC STC20030714190010107/14/03 19:00:31  5-MIN KSTC 150100Z AUTO 30005KT 10SM CLR 23/22 A2978 1150 93 2400 300/05 RMK AO2 $
14926KSTC STC20030714190510107/14/03 19:05:31  5-MIN KSTC 150105Z AUTO 32004KT 10SM CLR 23/22 A2978 1150 93 2400 320/04 RMK AO2 $
14926KSTC STC20030714191010107/14/03 19:10:31  5-MIN KSTC 150110Z AUTO 31004KT 10SM CLR 23/22 A2978 1160 93 2400 310/04 RMK AO2 $
14926KSTC STC20030714191510107/14/03 19:15:31  5-MIN KSTC 150115Z AUTO 31004KT 10SM CLR 22/22 A2978 1160 97 2300 310/04 RMK AO2 $
14926KSTC STC20030714192010107/14/03 19:20:31  5-MIN KSTC 150120Z AUTO 30003KT 10SM CLR 22/22 A2978 1160 97 2300 290/03 RMK AO2 $
14926KSTC STC20030714192510107/14/03 19:25:31  5-MIN KSTC 150125Z AUTO 29004KT 10SM CLR 22/22 A2977 1160 97 2300 290/04 RMK AO2 $
14926KSTC STC20030714193010107/14/03 19:30:31  5-MIN KSTC 150130Z AUTO 29005KT 10SM CLR 22/22 A2977 1160 97 2300 290/05 RMK AO2 $
14926KSTC STC20030714193510107/14/03 19:35:31  5-MIN KSTC 150135Z AUTO 29005KT 10SM CLR 22/22 A2977 1160 97 2300 280/05 RMK AO2 $
14926KSTC STC20030714194010107/14/03 19:40:31  5-MIN KSTC 150140Z AUTO 28005KT 10SM CLR 22/22 A2977 1160 97 2300 280/05 RMK AO2 $
14926KSTC STC20030714194510107/14/03 19:45:31  5-MIN KSTC 150145Z AUTO 29006KT 10SM CLR 22/22 A2977 1160 97 2300 280/06 RMK AO2 $
14926KSTC STC20030714195011807/14/03 19:50:31  5-MIN KSTC 150150Z AUTO 28005KT 10SM CLR 22/22 A2977 1160 97 2300 270/05 RMK AO2 SLP084 T02220217 $
14926KSTC STC20030714195510107/14/03 19:55:31  5-MIN KSTC 150155Z AUTO 28005KT 10SM CLR 22/22 A2977 1160 97 2300 280/05 RMK AO2 $
14926KSTC STC20030714200010107/14/03 20:00:31  5-MIN KSTC 150200Z AUTO 27004KT 10SM CLR 22/21 A2978 1160 97 2200 260/04 RMK AO2 $
14926KSTC STC20030714200510107/14/03 20:05:31  5-MIN KSTC 150205Z AUTO 26004KT 10SM CLR 22/21 A2978 1160 97 2200 260/04 RMK AO2 $
14926KSTC STC20030714201010107/14/03 20:10:31  5-MIN KSTC 150210Z AUTO 24003KT 10SM CLR 22/21 A2978 1160 97 2200 240/03 RMK AO2 $
14926KSTC STC20030714201510207/14/03 20:15:31  5-MIN KSTC 150215Z AUTO 22003KT 10SM CLR 21/21 A2978 1160 100 2200 220/03 RMK AO2 $
14926KSTC STC20030714202010207/14/03 20:20:31  5-MIN KSTC 150220Z AUTO 21003KT 10SM CLR 21/21 A2978 1150 100 2100 210/03 RMK AO2 $
14926KSTC STC20030714202510107/14/03 20:25:31  5-MIN KSTC 150225Z AUTO 21004KT 10SM CLR 21/20 A2979 1150 97 2100 210/04 RMK AO2 $
14926KSTC STC20030714203010107/14/03 20:30:31  5-MIN KSTC 150230Z AUTO 20005KT 10SM CLR 21/20 A2979 1150 97 2100 200/05 RMK AO2 $
14926KSTC STC20030714203510207/14/03 20:35:31  5-MIN KSTC 150235Z AUTO 20005KT 10SM CLR 21/21 A2979 1150 100 2100 190/05 RMK AO2 $
14926KSTC STC20030714204010107/14/03 20:40:31  5-MIN KSTC 150240Z AUTO 19004KT 8SM CLR 20/20 A2979 1140 100 2000 190/04 RMK AO2 $
14926KSTC STC20030714204510007/14/03 20:45:31  5-MIN KSTC 150245Z AUTO 19004KT 8SM CLR 20/19 A2980 1140 97 2000 190/04 RMK AO2 $
14926KSTC STC20030714205012407/14/03 20:50:31  5-MIN KSTC 150250Z AUTO 19004KT 7SM CLR 20/20 A2980 1140 100 2000 190/04 RMK AO2 SLP095 T02000200 50002 $
14926KSTC STC20030714205510407/14/03 20:55:31  5-MIN KSTC 150255Z AUTO 19004KT 6SM BR CLR 20/20 A2980 1140 100 2000 180/04 RMK AO2 $
14926KSTC STC20030714210010407/14/03 21:00:31  5-MIN KSTC 150300Z AUTO 18003KT 6SM BR CLR 20/20 A2980 1140 100 2000 170/03 RMK AO2 $
14926KSTC STC20030714210510407/14/03 21:05:31  5-MIN KSTC 150305Z AUTO 15003KT 6SM BR CLR 20/20 A2980 1140 100 2000 150/03 RMK AO2 $
14926KSTC STC20030714211010407/14/03 21:10:31  5-MIN KSTC 150310Z AUTO 16004KT 6SM BR CLR 20/20 A2980 1130 100 2000 160/04 RMK AO2 $
14926KSTC STC20030714211510107/14/03 21:15:31  5-MIN KSTC 150315Z AUTO 16005KT 7SM CLR 20/20 A2981 1130 100 2000 160/05 RMK AO2 $
14926KSTC STC20030714212010407/14/03 21:20:31  5-MIN KSTC 150320Z AUTO 16005KT 6SM BR CLR 20/20 A2981 1130 100 2000 150/05 RMK AO2 $
14926KSTC STC20030714212510407/14/03 21:25:31  5-MIN KSTC 150325Z AUTO 15005KT 5SM BR CLR 20/20 A2981 1130 100 2000 150/05 RMK AO2 $
14926KSTC STC20030714213010807/14/03 21:30:31  5-MIN KSTC 150330Z AUTO 15005KT 2 1/2SM BR CLR 19/19 A2981 1130 100 1900 150/05 RMK AO2 $
14926KSTC STC20030714213510407/14/03 21:35:31  5-MIN KSTC 150335Z AUTO 16004KT 2SM BR CLR 19/19 A2981 1130 100 1900 160/04 RMK AO2 $
14926KSTC STC20030714214010407/14/03 21:40:31  5-MIN KSTC 150340Z AUTO 18004KT 4SM BR CLR 19/19 A2981 1130 100 1900 170/04 RMK AO2 $
14926KSTC STC20030714214510407/14/03 21:45:31  5-MIN KSTC 150345Z AUTO 17004KT 4SM BR CLR 19/19 A2981 1130 100 1900 170/04 RMK AO2 $
14926KSTC STC20030714215012107/14/03 21:50:31  5-MIN KSTC 150350Z AUTO 17004KT 4SM BR CLR 19/19 A2981 1130 100 1900 170/04 RMK AO2 SLP100 T01940194 $
14926KSTC STC20030714215510407/14/03 21:55:31  5-MIN KSTC 150355Z AUTO 18004KT 4SM BR CLR 19/19 A2982 1120 100 1900 180/04 RMK AO2 $
14926KSTC STC20030714220010407/14/03 22:00:31  5-MIN KSTC 150400Z AUTO 00000KT 5SM BR CLR 19/19 A2982 1120 100 1900 000/00 RMK AO2 $
14926KSTC STC20030714220510407/14/03 22:05:31  5-MIN KSTC 150405Z AUTO 21003KT 3SM BR CLR 19/19 A2982 1120 100 1900 210/03 RMK AO2 $
14926KSTC STC20030714221010407/14/03 22:10:31  5-MIN KSTC 150410Z AUTO 22003KT 2SM BR CLR 19/19 A2982 1120 100 1900 220/03 RMK AO2 $
14926KSTC STC20030714221511107/14/03 22:15:31  5-MIN KSTC 150415Z AUTO 23003KT 1 1/2SM BR FEW001 19/19 A2982 1120 100 1900 230/03 RMK AO2 $
14926KSTC STC20030714222010707/14/03 22:20:31  5-MIN KSTC 150420Z AUTO 24003KT 2SM BR FEW001 19/19 A2982 1120 100 1900 240/03 RMK AO2 $
14926KSTC STC20030714222510807/14/03 22:25:31  5-MIN KSTC 150425Z AUTO 23003KT 1 1/2SM BR CLR 19/19 A2982 1120 100 1900 230/03 RMK AO2 $
14926KSTC STC20030714223010407/14/03 22:30:31  5-MIN KSTC 150430Z AUTO 00000KT 1SM BR CLR 19/19 A2982 1120 100 1900 000/00 RMK AO2 $
14926KSTC STC20030714223510407/14/03 22:35:31  5-MIN KSTC 150435Z AUTO 00000KT 1SM BR CLR 19/19 A2982 1120 100 1900 000/00 RMK AO2 $
14926KSTC STC20030714224010807/14/03 22:40:31  5-MIN KSTC 150440Z AUTO 23003KT 1 1/2SM BR CLR 19/19 A2982 1120 100 1900 230/03 RMK AO2 $
14926KSTC STC20030714224510407/14/03 22:45:31  5-MIN KSTC 150445Z AUTO 25003KT 4SM BR CLR 19/19 A2982 1120 100 1900 250/03 RMK AO2 $
14926KSTC STC20030714225011807/14/03 22:50:31  5-MIN KSTC 150450Z AUTO 27004KT 8SM CLR 19/19 A2983 1110 100 1900 270/04 RMK AO2 SLP104 T01940194 $
14926KSTC STC20030714225510207/14/03 22:55:31  5-MIN KSTC 150455Z AUTO 28004KT 10SM CLR 19/19 A2983 1110 100 1900 280/04 RMK AO2 $
14926KSTC STC20030714230010207/14/03 23:00:31  5-MIN KSTC 150500Z AUTO 30005KT 10SM CLR 19/19 A2983 1110 100 1900 290/05 RMK AO2 $
14926KSTC STC20030714230510107/14/03 23:05:31  5-MIN KSTC 150505Z AUTO 29006KT 10SM CLR 19/19 A2983 1110 97 1900 290/06 RMK AO2 $
14926KSTC STC20030714231010107/14/03 23:10:31  5-MIN KSTC 150510Z AUTO 29007KT 10SM CLR 20/19 A2983 1110 97 2000 290/07 RMK AO2 $
14926KSTC STC20030714231510107/14/03 23:15:31  5-MIN KSTC 150515Z AUTO 29008KT 10SM CLR 21/19 A2983 1110 93 2100 290/08 RMK AO2 $
14926KSTC STC20030714232010107/14/03 23:20:31  5-MIN KSTC 150520Z AUTO 30009KT 10SM CLR 21/19 A2983 1110 90 2100 300/09 RMK AO2 $
14926KSTC STC20030714232510107/14/03 23:25:31  5-MIN KSTC 150525Z AUTO 30009KT 10SM CLR 21/19 A2983 1110 90 2000 300/09 RMK AO2 $
14926KSTC STC20030714233010107/14/03 23:30:31  5-MIN KSTC 150530Z AUTO 30009KT 10SM CLR 21/18 A2983 1110 87 2100 300/09 RMK AO2 $
14926KSTC STC20030714233510107/14/03 23:35:31  5-MIN KSTC 150535Z AUTO 30009KT 10SM CLR 21/18 A2984 1110 87 2000 300/09 RMK AO2 $
14926KSTC STC20030714234010107/14/03 23:40:31  5-MIN KSTC 150540Z AUTO 30008KT 10SM CLR 20/18 A2984 1100 90 2000 300/08 RMK AO2 $
14926KSTC STC20030714234510107/14/03 23:45:31  5-MIN KSTC 150545Z AUTO 31008KT 10SM CLR 20/18 A2984 1100 90 2000 300/08 RMK AO2 $
14926KSTC STC20030714235014607/14/03 23:50:31  5-MIN KSTC 150550Z AUTO 30009KT 10SM CLR 20/18 A2984 1100 90 2000 300/09 RMK AO2 SLP110 T02000183 10228 20189 402330189 55000 $
14926KSTC STC20030714235510107/14/03 23:55:31  5-MIN KSTC 150555Z AUTO 30009KT 10SM CLR 20/18 A2985 1090 90 2000 300/09 RMK AO2 $
14926KSTC STC20030715000010107/15/03 00:00:31  5-MIN KSTC 150600Z AUTO 30009KT 10SM CLR 20/18 A2985 1090 90 2000 290/09 RMK AO2 $
14926KSTC STC20030715000510107/15/03 00:05:31  5-MIN KSTC 150605Z AUTO 30009KT 10SM CLR 20/18 A2985 1090 87 2000 300/09 RMK AO2 $
14926KSTC STC20030715001010107/15/03 00:10:31  5-MIN KSTC 150610Z AUTO 30008KT 10SM CLR 19/18 A2985 1090 90 1900 300/08 RMK AO2 $
14926KSTC STC20030715001510107/15/03 00:15:31  5-MIN KSTC 150615Z AUTO 31007KT 10SM CLR 19/18 A2985 1090 90 1900 310/07 RMK AO2 $
14926KSTC STC20030715002010107/15/03 00:20:31  5-MIN KSTC 150620Z AUTO 31006KT 10SM CLR 19/18 A2985 1090 93 1800 310/06 RMK AO2 $
14926KSTC STC20030715002510107/15/03 00:25:31  5-MIN KSTC 150625Z AUTO 31005KT 10SM CLR 18/17 A2985 1090 93 1800 300/05 RMK AO2 $
14926KSTC STC20030715003010107/15/03 00:30:31  5-MIN KSTC 150630Z AUTO 30005KT 10SM CLR 18/17 A2985 1090 93 1800 300/05 RMK AO2 $
14926KSTC STC20030715003510107/15/03 00:35:31  5-MIN KSTC 150635Z AUTO 30005KT 10SM CLR 18/17 A2985 1090 96 1700 300/05 RMK AO2 $
14926KSTC STC20030715004010107/15/03 00:40:31  5-MIN KSTC 150640Z AUTO 30006KT 10SM CLR 18/17 A2985 1090 96 1700 300/06 RMK AO2 $
14926KSTC STC20030715004510107/15/03 00:45:31  5-MIN KSTC 150645Z AUTO 30005KT 10SM CLR 18/17 A2985 1090 93 1700 290/05 RMK AO2 $
14926KSTC STC20030715005011807/15/03 00:50:31  5-MIN KSTC 150650Z AUTO 30005KT 10SM CLR 18/17 A2985 1090 96 1700 290/05 RMK AO2 SLP113 T01780172 $
14926KSTC STC20030715005510107/15/03 00:55:31  5-MIN KSTC 150655Z AUTO 28005KT 10SM CLR 18/17 A2985 1100 96 1700 280/05 RMK AO2 $
14926KSTC STC20030715010010107/15/03 01:00:31  5-MIN KSTC 150700Z AUTO 27005KT 10SM CLR 18/17 A2985 1090 93 1700 270/05 RMK AO2 $
14926KSTC STC20030715010510107/15/03 01:05:31  5-MIN KSTC 150705Z AUTO 28006KT 10SM CLR 18/17 A2985 1090 93 1700 280/06 RMK AO2 $
14926KSTC STC20030715011010107/15/03 01:10:31  5-MIN KSTC 150710Z AUTO 28005KT 10SM CLR 18/17 A2986 1090 93 1700 280/05 RMK AO2 $
14926KSTC STC20030715011510107/15/03 01:15:31  5-MIN KSTC 150715Z AUTO 30006KT 10SM CLR 17/17 A2986 1080 96 1600 290/06 RMK AO2 $
14926KSTC STC20030715012010107/15/03 01:20:31  5-MIN KSTC 150720Z AUTO 30007KT 10SM CLR 18/17 A2986 1080 93 1700 290/07 RMK AO2 $
14926KSTC STC20030715012510107/15/03 01:25:31  5-MIN KSTC 150725Z AUTO 29008KT 10SM CLR 18/17 A2986 1080 90 1800 290/08 RMK AO2 $
14926KSTC STC20030715013010107/15/03 01:30:31  5-MIN KSTC 150730Z AUTO 29008KT 10SM CLR 18/17 A2986 1080 90 1800 290/08 RMK AO2 $
14926KSTC STC20030715013510107/15/03 01:35:31  5-MIN KSTC 150735Z AUTO 30009KT 10SM CLR 19/17 A2986 1080 87 1800 290/09 RMK AO2 $
14926KSTC STC20030715014010107/15/03 01:40:31  5-MIN KSTC 150740Z AUTO 30007KT 10SM CLR 18/17 A2986 1080 90 1800 290/07 RMK AO2 $
14926KSTC STC20030715014510107/15/03 01:45:31  5-MIN KSTC 150745Z AUTO 30007KT 10SM CLR 18/17 A2986 1080 90 1800 290/07 RMK AO2 $
14926KSTC STC20030715015011807/15/03 01:50:31  5-MIN KSTC 150750Z AUTO 29007KT 10SM CLR 18/16 A2986 1080 90 1700 290/07 RMK AO2 SLP118 T01780161 $
14926KSTC STC20030715015510107/15/03 01:55:31  5-MIN KSTC 150755Z AUTO 30007KT 10SM CLR 18/16 A2987 1070 90 1700 290/07 RMK AO2 $
14926KSTC STC20030715020010107/15/03 02:00:31  5-MIN KSTC 150800Z AUTO 29005KT 10SM CLR 18/16 A2987 1070 90 1700 290/05 RMK AO2 $
14926KSTC STC20030715020510107/15/03 02:05:31  5-MIN KSTC 150805Z AUTO 28005KT 10SM CLR 17/16 A2987 1070 93 1600 280/05 RMK AO2 $
14926KSTC STC20030715021010107/15/03 02:10:31  5-MIN KSTC 150810Z AUTO 28004KT 10SM CLR 17/16 A2987 1070 96 1600 280/04 RMK AO2 $
14926KSTC STC20030715021510107/15/03 02:15:31  5-MIN KSTC 150815Z AUTO 28004KT 10SM CLR 17/16 A2987 1070 93 1600 280/04 RMK AO2 $
14926KSTC STC20030715024510107/15/03 02:45:31  5-MIN KSTC 150845Z AUTO 29005KT 10SM CLR 16/16 A2987 1070 96 1500 290/05 RMK AO2 $
14926KSTC STC20030715025012407/15/03 02:50:31  5-MIN KSTC 150850Z AUTO 28005KT 10SM CLR 17/16 A2987 1070 96 1600 280/05 RMK AO2 SLP121 T01670161 51010 $
14926KSTC STC20030715025510107/15/03 02:55:31  5-MIN KSTC 150855Z AUTO 28005KT 10SM CLR 17/16 A2987 1070 96 1600 280/05 RMK AO2 $
14926KSTC STC20030715030010107/15/03 03:00:31  5-MIN KSTC 150900Z AUTO 29005KT 10SM CLR 17/16 A2987 1070 96 1600 280/05 RMK AO2 $
14926KSTC STC20030715030510107/15/03 03:05:31  5-MIN KSTC 150905Z AUTO 29005KT 10SM CLR 17/16 A2987 1070 93 1600 290/05 RMK AO2 $
14926KSTC STC20030715031010107/15/03 03:10:31  5-MIN KSTC 150910Z AUTO 29004KT 10SM CLR 17/16 A2987 1070 93 1600 290/04 RMK AO2 $
14926KSTC STC20030715031510107/15/03 03:15:31  5-MIN KSTC 150915Z AUTO 30005KT 10SM CLR 17/16 A2987 1070 93 1600 300/05 RMK AO2 $
14926KSTC STC20030715032010107/15/03 03:20:31  5-MIN KSTC 150920Z AUTO 30006KT 10SM CLR 17/16 A2987 1070 93 1600 300/06 RMK AO2 $
14926KSTC STC20030715032510107/15/03 03:25:31  5-MIN KSTC 150925Z AUTO 30005KT 10SM CLR 17/16 A2988 1070 93 1600 300/05 RMK AO2 $
14926KSTC STC20030715033010107/15/03 03:30:31  5-MIN KSTC 150930Z AUTO 29005KT 10SM CLR 17/16 A2988 1070 93 1600 290/05 RMK AO2 $
14926KSTC STC20030715033510107/15/03 03:35:31  5-MIN KSTC 150935Z AUTO 30007KT 10SM CLR 17/16 A2987 1070 90 1600 300/07 RMK AO2 $
14926KSTC STC20030715034010107/15/03 03:40:31  5-MIN KSTC 150940Z AUTO 30006KT 10SM CLR 17/16 A2988 1070 90 1600 300/06 RMK AO2 $
14926KSTC STC20030715034510107/15/03 03:45:31  5-MIN KSTC 150945Z AUTO 30007KT 10SM CLR 17/16 A2988 1070 90 1600 290/07 RMK AO2 $
14926KSTC STC20030715035011807/15/03 03:50:31  5-MIN KSTC 150950Z AUTO 29008KT 10SM CLR 17/16 A2988 1070 90 1600 290/08 RMK AO2 SLP122 T01720156 $
14926KSTC STC20030715035510107/15/03 03:55:31  5-MIN KSTC 150955Z AUTO 29007KT 10SM CLR 17/16 A2988 1060 90 1600 290/07 RMK AO2 $
14926KSTC STC20030715040010107/15/03 04:00:31  5-MIN KSTC 151000Z AUTO 29007KT 10SM CLR 17/16 A2988 1060 90 1600 290/07 RMK AO2 $
14926KSTC STC20030715040510107/15/03 04:05:31  5-MIN KSTC 151005Z AUTO 30007KT 10SM CLR 17/16 A2988 1060 90 1600 300/07 RMK AO2 $
14926KSTC STC20030715041010107/15/03 04:10:31  5-MIN KSTC 151010Z AUTO 31006KT 10SM CLR 17/16 A2989 1060 90 1600 300/06 RMK AO2 $
14926KSTC STC20030715041510107/15/03 04:15:31  5-MIN KSTC 151015Z AUTO 32006KT 10SM CLR 17/16 A2989 1060 93 1500 310/06 RMK AO2 $
14926KSTC STC20030715042010107/15/03 04:20:31  5-MIN KSTC 151020Z AUTO 31007KT 10SM CLR 17/16 A2989 1060 93 1500 310/07 RMK AO2 $
14926KSTC STC20030715042510107/15/03 04:25:31  5-MIN KSTC 151025Z AUTO 31007KT 10SM CLR 16/16 A2989 1050 96 1500 300/07 RMK AO2 $
14926KSTC STC20030715043010107/15/03 04:30:31  5-MIN KSTC 151030Z AUTO 30007KT 10SM CLR 17/16 A2989 1050 93 1500 300/07 RMK AO2 $
14926KSTC STC20030715043510107/15/03 04:35:31  5-MIN KSTC 151035Z AUTO 29007KT 10SM CLR 17/16 A2990 1050 93 1500 280/07 RMK AO2 $
14926KSTC STC20030715044010107/15/03 04:40:31  5-MIN KSTC 151040Z AUTO 28008KT 10SM CLR 17/16 A2990 1050 93 1500 280/08 RMK AO2 $
14926KSTC STC20030715044510107/15/03 04:45:31  5-MIN KSTC 151045Z AUTO 29007KT 10SM CLR 17/16 A2990 1050 93 1500 290/07 RMK AO2 $
14926KSTC STC20030715045011807/15/03 04:50:31  5-MIN KSTC 151050Z AUTO 30007KT 10SM CLR 17/16 A2990 1040 93 1500 300/07 RMK AO2 SLP132 T01670156 $
14926KSTC STC20030715045510107/15/03 04:55:31  5-MIN KSTC 151055Z AUTO 30007KT 10SM CLR 17/16 A2991 1040 93 1500 290/07 RMK AO2 $
14926KSTC STC20030715050010107/15/03 05:00:31  5-MIN KSTC 151100Z AUTO 29006KT 10SM CLR 17/16 A2991 1040 93 1500 290/06 RMK AO2 $
14926KSTC STC20030715050510107/15/03 05:05:31  5-MIN KSTC 151105Z AUTO 29007KT 10SM CLR 17/16 A2991 1030 93 1500 290/07 RMK AO2 $
14926KSTC STC20030715051010707/15/03 05:10:31  5-MIN KSTC 151110Z AUTO 29006KT 10SM CLR 17/16 A2991 1030 93 1500 290/06 RMK AO2 P0001 $
14926KSTC STC20030715051510507/15/03 05:15:31  5-MIN KSTC 151115Z AUTO 28006KT 10SM CLR 17/16 A2991 1030 96 1500 280/06 RMK AO2 P0001
14926KSTC STC20030715052010507/15/03 05:20:31  5-MIN KSTC 151120Z AUTO 28006KT 10SM CLR 17/16 A2991 1030 93 1600 280/06 RMK AO2 P0001
14926KSTC STC20030715052510507/15/03 05:25:31  5-MIN KSTC 151125Z AUTO 29007KT 10SM CLR 17/16 A2991 1030 93 1600 290/07 RMK AO2 P0001
14926KSTC STC20030715053010507/15/03 05:30:31  5-MIN KSTC 151130Z AUTO 30007KT 10SM CLR 17/16 A2992 1030 93 1600 290/07 RMK AO2 P0001
14926KSTC STC20030715053510507/15/03 05:35:31  5-MIN KSTC 151135Z AUTO 30008KT 10SM CLR 17/16 A2992 1030 93 1600 290/08 RMK AO2 P0001
14926KSTC STC20030715054010507/15/03 05:40:31  5-MIN KSTC 151140Z AUTO 30009KT 10SM CLR 17/16 A2992 1030 93 1600 290/09 RMK AO2 P0001
14926KSTC STC20030715054510507/15/03 05:45:31  5-MIN KSTC 151145Z AUTO 29009KT 10SM CLR 17/16 A2992 1030 93 1600 290/09 RMK AO2 P0001
14926KSTC STC20030715055015207/15/03 05:50:31  5-MIN KSTC 151150Z AUTO 30008KT 10SM CLR 17/16 A2992 1030 90 1600 300/08 RMK AO2 SLP137 P0001 60001 70129 T01720156 10200 20161 53009
14926KSTC STC20030715055509907/15/03 05:55:31  5-MIN KSTC 151155Z AUTO 30008KT 10SM CLR 18/16 A2992 1030 90 1600 290/08 RMK AO2
14926KSTC STC20030715060009907/15/03 06:00:31  5-MIN KSTC 151200Z AUTO 30008KT 10SM CLR 18/16 A2992 1020 90 1600 290/08 RMK AO2
14926KSTC STC20030715060509907/15/03 06:05:31  5-MIN KSTCTO 2805Z AUTO 30009KT 10SM CLR 18/16 A2992 1020 90 1600 300/09 RMK AO2
14926KSTC STC20030715061009907/15/03 06:10:31  5-MIN KSTC 151210Z AUTO 30008KT 10SM CLR 18/16 A2993 1020 90 1600 300/08 RMK AO2
14926KSTC STC20030715061509907/15/03 06:15:31  5-MIN KSTC 151215Z AUTO 30011KT 10SM CLR 18/16 A2993 1020 90 1600 300/11 RMK AO2
14926KSTC STC20030715062009907/15/03 06:20:31  5-MIN KSTC 151220Z AUTO 31011KT 10SM CLR 18/16 A2993 1010 90 1600 300/11 RMK AO2
14926KSTC STC20030715062509907/15/03 06:25:31  5-MIN KSTC 151225Z AUTO 31009KT 10SM CLR 18/16 A2993 1010 87 1700 310/09 RMK AO2
14926KSTC STC20030715063009907/15/03 06:30:31  5-MIN KSTC 151230Z AUTO 30009KT 10SM CLR 18/16 A2993 1010 87 1700 300/09 RMK AO2
14926KSTC STC20030715063509907/15/03 06:35:31  5-MIN KSTC 151235Z AUTO 32009KT 10SM CLR 18/16 A2994 1010 87 1700 310/09 RMK AO2
14926KSTC STC20030715064009907/15/03 06:40:31  5-MIN KSTC 151240Z AUTO 31012KT 10SM CLR 18/16 A2994 1010 87 1700 310/12 RMK AO2
14926KSTC STC20030715064509907/15/03 06:45:31  5-MIN KSTC 151245Z AUTO 32013KT 10SM CLR 18/16 A2995 1000 87 1700 320/13 RMK AO2
14926KSTC STC20030715065011607/15/03 06:50:31  5-MIN KSTC 151250Z AUTO 32009KT 10SM CLR 18/16 A2994 1000 87 1700 310/09 RMK AO2 SLP144 T01830161
14926KSTC STC20030715065509907/15/03 06:55:31  5-MIN KSTC 151255Z AUTO 32011KT 10SM CLR 18/16 A2995 1000 87 1700 310/11 RMK AO2
14926KSTC STC20030715070009907/15/03 07:00:31  5-MIN KSTC 151300Z AUTO 31012KT 10SM CLR 18/16 A2995 1000 87 1700 310/12 RMK AO2
14926KSTC STC20030715070509907/15/03 07:05:31  5-MIN KSTC 151305Z AUTO 31013KT 10SM CLR 19/16 A2995 1000 84 1700 310/13 RMK AO2
14926KSTC STC20030715071009907/15/03 07:10:31  5-MIN KSTC 151310Z AUTO 32011KT 10SM CLR 19/16 A2995 1000 84 1700 320/11 RMK AO2
14926KSTC STC20030715071509907/15/03 07:15:31  5-MIN KSTC 151315Z AUTO 32011KT 10SM CLR 19/16 A2995 1000 84 1700 310/11 RMK AO2
14926KSTC STC20030715072009807/15/03 07:20:31  5-MIN KSTC 151320Z AUTO 31011KT 10SM CLR 19/17 A2996 990 87 1700 310/11 RMK AO2
14926KSTC STC20030715072509807/15/03 07:25:31  5-MIN KSTC 151325Z AUTO 32011KT 10SM CLR 19/16 A2996 990 84 1700 320/11 RMK AO2
14926KSTC STC20030715073010107/15/03 07:30:31  5-MIN KSTC 151330Z AUTO 32012KT 10SM FEW016 19/16 A2996 990 84 1700 320/12 RMK AO2
14926KSTC STC20030715073510107/15/03 07:35:31  5-MIN KSTC 151335Z AUTO 33011KT 10SM FEW016 19/16 A2996 990 84 1700 320/11 RMK AO2
14926KSTC STC20030715074010107/15/03 07:40:31  5-MIN KSTC 151340Z AUTO 32012KT 10SM FEW019 19/16 A2997 980 81 1800 310/12 RMK AO2
14926KSTC STC20030715074510107/15/03 07:45:31  5-MIN KSTC 151345Z AUTO 32010KT 10SM SCT019 19/16 A2997 980 81 1800 320/10 RMK AO2
14926KSTC STC20030715075011807/15/03 07:50:31  5-MIN KSTC 151350Z AUTO 34010KT 10SM SCT019 19/16 A2997 980 81 1800 340/10 RMK AO2 SLP153 T01940161
14926KSTC STC20030715075510707/15/03 07:55:31  5-MIN KSTC 151355Z AUTO 34012G17KT 10SM SCT019 19/16 A2997 980 81 1800 330/12G17 RMK AO2
14926KSTC STC20030715080010707/15/03 08:00:31  5-MIN KSTC 151400Z AUTO 34012G17KT 10SM SCT019 19/16 A2998 980 78 1800 340/12G17 RMK AO2
14926KSTC STC20030715080510707/15/03 08:05:31  5-MIN KSTC 151405Z AUTO 33014G17KT 10SM SCT019 20/16 A2998 970 78 1800 320/14G17 RMK AO2
14926KSTC STC20030715081010107/15/03 08:10:31  5-MIN KSTC 151410Z AUTO 32013KT 10SM BKN019 20/16 A2998 970 75 1800 320/13 RMK AO2
14926KSTC STC20030715081510107/15/03 08:15:31  5-MIN KSTC 151415Z AUTO 33011KT 10SM BKN019 20/16 A2998 970 75 1800 330/11 RMK AO2
14926KSTC STC20030715082010107/15/03 08:20:31  5-MIN KSTC 151420Z AUTO 34011KT 10SM SCT021 20/16 A2998 970 75 1800 330/11 RMK AO2
14926KSTC STC20030715082510707/15/03 08:25:31  5-MIN KSTC 151425Z AUTO 34009G17KT 10SM SCT021 20/16 A2998 970 75 1800 330/09G17 RMK AO2
14926KSTC STC20030715083010707/15/03 08:30:31  5-MIN KSTC 151430Z AUTO 34011G17KT 10SM FEW021 20/16 A2998 970 75 1800 340/11G17 RMK AO2
14926KSTC STC20030715083510707/15/03 08:35:31  5-MIN KSTC 151435Z AUTO 34009G17KT 10SM FEW021 20/16 A2999 970 75 1800 330/09G17 RMK AO2
14926KSTC STC20030715084009807/15/03 08:40:31  5-MIN KSTC 151440Z AUTO 33009KT 10SM CLR 20/16 A2999 960 75 1800 330/09 RMK AO2
14926KSTC STC20030715084510107/15/03 08:45:31  5-MIN KSTC 151445Z AUTO 36010KT 10SM FEW024 21/16 A2999 960 73 1900 360/10 RMK AO2
14926KSTC STC20030715085013007/15/03 08:50:31  5-MIN KSTC 151450Z AUTO 35012G17KT 10SM FEW027 21/15 A2999 960 70 1900 350/12G17 RMK AO2 SLP161 T02060150 53016
14926KSTC STC20030715085510707/15/03 08:55:31  5-MIN KSTC 151455Z AUTO 35012G17KT 10SM FEW029 20/14 A3000 960 70 1800 350/12G17 RMK AO2
14926KSTC STC20030715090010107/15/03 09:00:31  5-MIN KSTC 151500Z AUTO 36010KT 10SM FEW029 21/15 A2999 960 70 1900 360/10 RMK AO2
14926KSTC STC20030715090510107/15/03 09:05:31  5-MIN KSTC 151505Z AUTO 35010KT 10SM FEW029 21/16 A3000 960 70 1900 350/10 RMK AO2
14926KSTC STC20030715091010707/15/03 09:10:31  5-MIN KSTC 151510Z AUTO 36011G17KT 10SM FEW029 21/15 A3000 960 68 1900 360/11G17 RMK AO2
14926KSTC STC20030715091510707/15/03 09:15:31  5-MIN KSTC 151515Z AUTO 35009G17KT 10SM FEW029 22/16 A3000 960 68 2000 340/09G17 RMK AO2
14926KSTC STC20030715092010707/15/03 09:20:31  5-MIN KSTC 151520Z AUTO 34013G16KT 10SM FEW029 21/15 A3000 950 70 1900 340/13G16 RMK AO2
14926KSTC STC20030715092510107/15/03 09:25:31  5-MIN KSTC 151525Z AUTO 34010KT 10SM FEW029 21/15 A3000 960 68 1900 340/10 RMK AO2
14926KSTC STC20030715093010707/15/03 09:30:31  5-MIN KSTC 151530Z AUTO 34013G16KT 10SM FEW029 21/15 A3000 950 68 1900 330/13G16 RMK AO2
14926KSTC STC20030715093510707/15/03 09:35:31  5-MIN KSTC 151535Z AUTO 34011G16KT 10SM FEW029 21/15 A3000 950 70 1900 330/11G16 RMK AO2
14926KSTC STC20030715094010807/15/03 09:40:31  5-MIN KSTC 151540Z AUTO 34013KT 10SM FEW029 SCT036 21/14 A3000 950 65 1900 330/13 RMK AO2
14926KSTC STC20030715094510107/15/03 09:45:31  5-MIN KSTC 151545Z AUTO 34013KT 10SM FEW030 21/14 A3000 950 65 1900 330/13 RMK AO2
14926KSTC STC20030715095012407/15/03 09:50:31  5-MIN KSTC 151550Z AUTO 35010G17KT 10SM FEW030 22/14 A3000 950 63 2000 350/10G17 RMK AO2 SLP164 T02170144
14926KSTC STC20030715095510107/15/03 09:55:31  5-MIN KSTC 151555Z AUTO 36012KT 10SM FEW032 22/14 A3000 950 61 2000 360/12 RMK AO2
14926KSTC STC20030715100010107/15/03 10:00:31  5-MIN KSTC 151600Z AUTO 36009KT 10SM FEW033 22/14 A3001 950 63 2000 360/09 RMK AO2
14926KSTC STC20030715100509807/15/03 10:05:31  5-MIN KSTC 151605Z AUTO 36009KT 10SM CLR 22/15 A3001 950 63 2000 360/09 RMK AO2
14926KSTC STC20030715101009807/15/03 10:10:31  5-MIN KSTC 151610Z AUTO 34011KT 10SM CLR 22/15 A3001 950 63 2000 340/11 RMK AO2
14926KSTC STC20030715101509807/15/03 10:15:31  5-MIN KSTC 151615Z AUTO 35012KT 10SM CLR 22/14 A3001 940 59 2000 350/12 RMK AO2
14926KSTC STC20030715102010407/15/03 10:20:31  5-MIN KSTC 151620Z AUTO 36010G17KT 10SM CLR 22/14 A3001 940 61 2000 360/10G17 RMK AO2
14926KSTC STC20030715102510107/15/03 10:25:31  5-MIN KSTC 151625Z AUTO 36010KT 10SM FEW036 23/15 A3001 940 61 2100 360/10 RMK AO2
14926KSTC STC20030715103009807/15/03 10:30:31  5-MIN KSTC 151630Z AUTO 01009KT 10SM CLR 23/14 A3001 940 59 2100 010/09 RMK AO2
14926KSTC STC20030715103510107/15/03 10:35:31  5-MIN KSTC 151635Z AUTO 36011KT 10SM FEW036 23/14 A3002 940 59 2100 360/11 RMK AO2
14926KSTC STC20030715104010107/15/03 10:40:31  5-MIN KSTC 151640Z AUTO 35010KT 10SM SCT036 22/14 A3002 940 61 2000 350/10 RMK AO2
14926KSTC STC20030715104512307/15/03 10:45:31  5-MIN KSTC 151645Z AUTO 36010G16KT 320V030 10SM SCT036 22/15 A3002 930 63 2000 350/10G16 320V030 RMK AO2
14926KSTC STC20030715105012407/15/03 10:50:31  5-MIN KSTC 151650Z AUTO 35010G16KT 10SM FEW036 23/14 A3002 930 59 2100 340/10G16 RMK AO2 SLP170 T02280144
14926KSTC STC20030715105510707/15/03 10:55:31  5-MIN KSTC 151655Z AUTO 01010G16KT 10SM FEW036 23/14 A3002 930 59 2100 010/10G16 RMK AO2
14926KSTC STC20030715110010707/15/03 11:00:31  5-MIN KSTC 151700Z AUTO 33011G16KT 10SM FEW036 23/15 A3002 930 61 2100 330/11G16 RMK AO2
14926KSTC STC20030715110510107/15/03 11:05:31  5-MIN KSTC 151705Z AUTO 34011KT 10SM FEW036 23/15 A3002 930 61 2100 340/11 RMK AO2
14926KSTC STC20030715111010107/15/03 11:10:31  5-MIN KSTC 151710Z AUTO 33011KT 10SM FEW038 23/15 A3003 930 61 2100 330/11 RMK AO2
14926KSTC STC20030715111511707/15/03 11:15:31  5-MIN KSTC 151715Z AUTO 33009KT 300V360 10SM FEW038 23/15 A3003 930 61 2100 330/09 300V360 RMK AO2
14926KSTC STC20030715112010107/15/03 11:20:31  5-MIN KSTC 151720Z AUTO 34012KT 10SM FEW038 23/14 A3003 930 59 2100 340/12 RMK AO2
14926KSTC STC20030715112510107/15/03 11:25:31  5-MIN KSTC 151725Z AUTO 36010KT 10SM FEW038 23/14 A3003 920 57 2100 350/10 RMK AO2
14926KSTC STC20030715113010707/15/03 11:30:31  5-MIN KSTC 151730Z AUTO 36012G17KT 10SM FEW040 23/15 A3003 930 59 2100 360/12G17 RMK AO2
14926KSTC STC20030715113512307/15/03 11:35:31  5-MIN KSTC 151735Z AUTO 34008G17KT 300V010 10SM FEW040 23/15 A3003 930 59 2100 340/08G17 300V010 RMK AO2
14926KSTC STC20030715114010707/15/03 11:40:31  5-MIN KSTC 151740Z AUTO 32011G15KT 10SM SCT040 23/16 A3003 930 61 2100 320/11G15 RMK AO2
14926KSTC STC20030715114510707/15/03 11:45:31  5-MIN KSTC 151745Z AUTO 34008G15KT 10SM SCT040 23/15 A3002 930 61 2100 330/08G15 RMK AO2
14926KSTC STC20030715115013607/15/03 11:50:31  5-MIN KSTC 151750Z AUTO 35008KT 10SM SCT040 23/15 A3003 930 59 2100 350/08 RMK AO2 SLP172 T02330150 10239 20178 51024
14926KSTC STC20030715115510107/15/03 11:55:31  5-MIN KSTC 151755Z AUTO 35010KT 10SM FEW040 23/14 A3003 930 57 2100 350/10 RMK AO2
14926KSTC STC20030715120010107/15/03 12:00:31  5-MIN KSTC 151800Z AUTO 34010KT 10SM SCT040 23/15 A3003 930 59 2100 340/10 RMK AO2
14926KSTC STC20030715120510107/15/03 12:05:31  5-MIN KSTC 151805Z AUTO 33009KT 10SM SCT040 23/15 A3003 930 61 2100 320/09 RMK AO2
14926KSTC STC20030715121010107/15/03 12:10:31  5-MIN KSTC 151810Z AUTO 33010KT 10SM FEW040 23/14 A3003 930 57 2100 320/10 RMK AO2
14926KSTC STC20030715121510107/15/03 12:15:31  5-MIN KSTC 151815Z AUTO 33010KT 10SM FEW040 24/14 A3003 930 55 2200 330/10 RMK AO2
14926KSTC STC20030715122012307/15/03 12:20:31  5-MIN KSTC 151820Z AUTO 34010G15KT 310V010 10SM FEW040 24/15 A3003 930 57 2200 340/10G15 310V010 RMK AO2
14926KSTC STC20030715122510707/15/03 12:25:31  5-MIN KSTC 151825Z AUTO 34010G15KT 10SM FEW040 24/14 A3003 930 55 2200 340/10G15 RMK AO2
14926KSTC STC20030715123010107/15/03 12:30:31  5-MIN KSTC 151830Z AUTO 35010KT 10SM FEW042 24/14 A3003 930 55 2200 340/10 RMK AO2
14926KSTC STC20030715123509807/15/03 12:35:31  5-MIN KSTC 151835Z AUTO 35008KT 10SM CLR 24/14 A3003 930 55 2200 350/08 RMK AO2
14926KSTC STC20030715124009807/15/03 12:40:31  5-MIN KSTC 151840Z AUTO 33008KT 10SM CLR 24/14 A3003 930 55 2200 320/08 RMK AO2
14926KSTC STC20030715124509807/15/03 12:45:31  5-MIN KSTC 151845Z AUTO 32010KT 10SM CLR 24/15 A3003 930 55 2300 320/10 RMK AO2
14926KSTC STC20030715125011507/15/03 12:50:31  5-MIN KSTC 151850Z AUTO 33011KT 10SM CLR 24/14 A3003 920 55 2200 330/11 RMK AO2 SLP174 T02390144
14926KSTC STC20030715125509807/15/03 12:55:31  5-MIN KSTC 151855Z AUTO 36008KT 10SM CLR 24/14 A3003 920 53 2300 350/08 RMK AO2
14926KSTC STC20030715130009807/15/03 13:00:31  5-MIN KSTC 151900Z AUTO 32011KT 10SM CLR 24/14 A3003 920 53 2300 320/11 RMK AO2
14926KSTC STC20030715130509807/15/03 13:05:31  5-MIN KSTC 151905Z AUTO 33011KT 10SM CLR 24/14 A3003 920 53 2200 330/11 RMK AO2
14926KSTC STC20030715131009807/15/03 13:10:31  5-MIN KSTC 151910Z AUTO VRB06KT 10SM CLR 24/14 A3003 920 51 2300 VRB/06 RMK AO2
14926KSTC STC20030715131510107/15/03 13:15:31  5-MIN KSTC 151915Z AUTO 33010KT 10SM FEW047 24/14 A3003 920 51 2300 320/10 RMK AO2
14926KSTC STC20030715132010107/15/03 13:20:31  5-MIN KSTC 151920Z AUTO 35009KT 10SM FEW047 24/14 A3003 920 51 2300 350/09 RMK AO2
14926KSTC STC20030715132510107/15/03 13:25:31  5-MIN KSTC 151925Z AUTO 32008KT 10SM FEW047 24/14 A3003 920 51 2300 320/08 RMK AO2
14926KSTC STC20030715133011707/15/03 13:30:31  5-MIN KSTC 151930Z AUTO 33008KT 300V010 10SM FEW047 24/13 A3003 920 47 2300 330/08 300V010 RMK AO2
14926KSTC STC20030715133510107/15/03 13:35:31  5-MIN KSTC 151935Z AUTO 33010KT 10SM FEW047 24/13 A3003 920 49 2300 330/10 RMK AO2
14926KSTC STC20030715134010107/15/03 13:40:31  5-MIN KSTC 151940Z AUTO 31008KT 10SM FEW047 24/13 A3003 920 49 2300 310/08 RMK AO2
14926KSTC STC20030715134509807/15/03 13:45:31  5-MIN KSTC 151945Z AUTO 36011KT 10SM CLR 24/14 A3003 920 51 2300 360/11 RMK AO2
14926KSTC STC20030715135011507/15/03 13:50:31  5-MIN KSTC 151950Z AUTO 34007KT 10SM CLR 24/14 A3003 920 51 2300 330/07 RMK AO2 SLP174 T02440139
14926KSTC STC20030715135509807/15/03 13:55:31  5-MIN KSTC 151955Z AUTO 01006KT 10SM CLR 25/14 A3003 920 51 2300 360/06 RMK AO2
14926KSTC STC20030715140009807/15/03 14:00:31  5-MIN KSTC 152000Z AUTO 31006KT 10SM CLR 25/14 A3003 920 49 2300 310/06 RMK AO2
14926KSTC STC20030715140509807/15/03 14:05:31  5-MIN KSTC 152005Z AUTO 34008KT 10SM CLR 25/14 A3003 920 51 2300 340/08 RMK AO2
14926KSTC STC20030715141009807/15/03 14:10:31  5-MIN KSTC 152010Z AUTO 33008KT 10SM CLR 25/15 A3003 930 53 2300 320/08 RMK AO2
14926KSTC STC20030715141509807/15/03 14:15:31  5-MIN KSTC 152015Z AUTO 33005KT 10SM CLR 25/14 A3003 930 51 2300 320/05 RMK AO2
14926KSTC STC20030715142009807/15/03 14:20:31  5-MIN KSTC 152020Z AUTO 33007KT 10SM CLR 25/14 A3003 930 51 2300 330/07 RMK AO2
14926KSTC STC20030715142509807/15/03 14:25:31  5-MIN KSTC 152025Z AUTO 33007KT 10SM CLR 25/14 A3003 930 51 2300 330/07 RMK AO2
14926KSTC STC20030715143009807/15/03 14:30:31  5-MIN KSTC 152030Z AUTO 33010KT 10SM CLR 25/15 A3003 930 53 2300 320/10 RMK AO2
14926KSTC STC20030715143509807/15/03 14:35:31  5-MIN KSTC 152035Z AUTO 29007KT 10SM CLR 25/15 A3003 930 53 2300 290/07 RMK AO2
14926KSTC STC20030715144010107/15/03 14:40:31  5-MIN KSTC 152040Z AUTO 34009KT 10SM FEW048 25/14 A3003 930 51 2300 330/09 RMK AO2
14926KSTC STC20030715144510107/15/03 14:45:31  5-MIN KSTC 152045Z AUTO 32008KT 10SM FEW048 25/15 A3003 930 53 2300 310/08 RMK AO2
14926KSTC STC20030715145012107/15/03 14:50:31  5-MIN KSTC 152050Z AUTO 34007KT 10SM CLR 25/14 A3003 930 51 2300 330/07 RMK AO2 SLP172 T02500144 51011
14926KSTC STC20030715145510107/15/03 14:55:31  5-MIN KSTC 152055Z AUTO 34009KT 10SM FEW048 25/15 A3002 930 53 2300 340/09 RMK AO2
14926KSTC STC20030715150010107/15/03 15:00:31  5-MIN KSTC 152100Z AUTO 32011KT 10SM FEW048 25/14 A3003 930 51 2300 320/11 RMK AO2
14926KSTC STC20030715150509807/15/03 15:05:31  5-MIN KSTC 152105Z AUTO 32007KT 10SM CLR 25/14 A3003 930 51 2300 320/07 RMK AO2
14926KSTC STC20030715151009807/15/03 15:10:31  5-MIN KSTC 152110Z AUTO 32006KT 10SM CLR 25/14 A3003 930 51 2300 320/06 RMK AO2
14926KSTC STC20030715151510707/15/03 15:15:31  5-MIN KSTC 152115Z AUTO 32010G14KT 10SM FEW049 25/14 A3003 930 51 2300 310/10G14 RMK AO2
14926KSTC STC20030715152010707/15/03 15:20:31  5-MIN KSTC 152120Z AUTO 33008G14KT 10SM FEW049 25/14 A3002 930 49 2300 320/08G14 RMK AO2
14926KSTC STC20030715152509807/15/03 15:25:31  5-MIN KSTC 152125Z AUTO 33007KT 10SM CLR 26/14 A3002 930 49 2400 330/07 RMK AO2
14926KSTC STC20030715153009807/15/03 15:30:31  5-MIN KSTC 152130Z AUTO 31008KT 10SM CLR 26/14 A3002 930 49 2400 310/08 RMK AO2
14926KSTC STC20030715153509807/15/03 15:35:31  5-MIN KSTC 152135Z AUTO 31009KT 10SM CLR 26/14 A3002 930 49 2400 310/09 RMK AO2
14926KSTC STC20030715154009807/15/03 15:40:31  5-MIN KSTC 152140Z AUTO 33008KT 10SM CLR 25/14 A3002 930 51 2300 330/08 RMK AO2
14926KSTC STC20030715154509807/15/03 15:45:31  5-MIN KSTC 152145Z AUTO 31008KT 10SM CLR 26/14 A3002 930 49 2400 310/08 RMK AO2
14926KSTC STC20030715155011507/15/03 15:50:31  5-MIN KSTC 152150Z AUTO 32009KT 10SM CLR 24/14 A3002 930 51 2300 320/09 RMK AO2 SLP170 T02440139
14926KSTC STC20030715155509807/15/03 15:55:31  5-MIN KSTC 152155Z AUTO 32008KT 10SM CLR 24/14 A3002 940 53 2300 320/08 RMK AO2
14926KSTC STC20030715160009807/15/03 16:00:31  5-MIN KSTC 152200Z AUTO 33008KT 10SM CLR 25/14 A3002 940 51 2300 330/08 RMK AO2
14926KSTC STC20030715160509807/15/03 16:05:31  5-MIN KSTC 152205Z AUTO 33005KT 10SM CLR 26/14 A3002 940 48 2400 320/05 RMK AO2
14926KSTC STC20030715161009807/15/03 16:10:31  5-MIN KSTC 152210Z AUTO 31009KT 10SM CLR 26/14 A3002 940 49 2400 300/09 RMK AO2
14926KSTC STC20030715161509807/15/03 16:15:31  5-MIN KSTC 152215Z AUTO 32006KT 10SM CLR 24/14 A3002 940 51 2300 320/06 RMK AO2
14926KSTC STC20030715162009807/15/03 16:20:31  5-MIN KSTC 152220Z AUTO VRB05KT 10SM CLR 25/14 A3002 940 51 2300 VRB/05 RMK AO2
14926KSTC STC20030715162509807/15/03 16:25:31  5-MIN KSTC 152225Z AUTO 31007KT 10SM CLR 26/14 A3002 930 48 2400 300/07 RMK AO2
14926KSTC STC20030715163010107/15/03 16:30:31  5-MIN KSTC 152230Z AUTO 31011KT 10SM FEW050 26/14 A3002 940 49 2400 310/11 RMK AO2
14926KSTC STC20030715163510107/15/03 16:35:31  5-MIN KSTC 152235Z AUTO 30009KT 10SM FEW050 25/14 A3002 940 49 2300 300/09 RMK AO2
14926KSTC STC20030715164010107/15/03 16:40:31  5-MIN KSTC 152240Z AUTO 31010KT 10SM FEW050 25/14 A3002 940 49 2300 310/10 RMK AO2
14926KSTC STC20030715164510107/15/03 16:45:31  5-MIN KSTC 152245Z AUTO 31009KT 10SM FEW050 25/14 A3002 940 49 2300 310/09 RMK AO2
14926KSTC STC20030715165011807/15/03 16:50:31  5-MIN KSTC 152250Z AUTO 31008KT 10SM FEW050 25/14 A3002 940 49 2300 310/08 RMK AO2 SLP169 T02500139
14926KSTC STC20030715165510107/15/03 16:55:31  5-MIN KSTC 152255Z AUTO 31005KT 10SM FEW050 25/14 A3002 940 49 2300 310/05 RMK AO2
14926KSTC STC20030715170009807/15/03 17:00:31  5-MIN KSTC 152300Z AUTO 31007KT 10SM CLR 26/14 A3002 940 48 2400 310/07 RMK AO2
14926KSTC STC20030715170509807/15/03 17:05:31  5-MIN KSTC 152305Z AUTO 32008KT 10SM CLR 25/14 A3002 940 51 2300 320/08 RMK AO2
14926KSTC STC20030715171009807/15/03 17:10:31  5-MIN KSTC 152310Z AUTO 31008KT 10SM CLR 25/13 A3001 940 48 2300 310/08 RMK AO2
14926KSTC STC20030715171509807/15/03 17:15:31  5-MIN KSTC 152315Z AUTO 31009KT 10SM CLR 25/14 A3001 940 49 2300 310/09 RMK AO2
14926KSTC STC20030715172009807/15/03 17:20:31  5-MIN KSTC 152320Z AUTO 31006KT 10SM CLR 25/14 A3001 940 49 2300 310/06 RMK AO2
14926KSTC STC20030715172509807/15/03 17:25:31  5-MIN KSTC 152325Z AUTO 31011KT 10SM CLR 25/14 A3001 940 49 2300 310/11 RMK AO2
14926KSTC STC20030715173009807/15/03 17:30:31  5-MIN KSTC 152330Z AUTO 32008KT 10SM CLR 25/14 A3001 940 49 2300 320/08 RMK AO2
14926KSTC STC20030715173509807/15/03 17:35:31  5-MIN KSTC 152335Z AUTO 31008KT 10SM CLR 25/14 A3001 940 49 2400 310/08 RMK AO2
14926KSTC STC20030715174009807/15/03 17:40:31  5-MIN KSTC 152340Z AUTO 32008KT 10SM CLR 25/14 A3001 940 49 2400 310/08 RMK AO2
14926KSTC STC20030715174509807/15/03 17:45:31  5-MIN KSTC 152345Z AUTO 31008KT 10SM CLR 25/13 A3001 940 48 2400 300/08 RMK AO2
14926KSTC STC20030715175013307/15/03 17:50:31  5-MIN KSTC 152350Z AUTO 30008KT 10SM CLR 25/14 A3001 940 49 2400 300/08 RMK AO2 SLP167 T02500139 10256 20228 58001
14926KSTC STC20030715175509807/15/03 17:55:31  5-MIN KSTC 152355Z AUTO 33007KT 10SM CLR 25/14 A3001 940 51 2400 320/07 RMK AO2
14926KSTC STC20030715180009807/15/03 18:00:31  5-MIN KSTC 160000Z AUTO 33005KT 10SM CLR 24/14 A3001 940 53 2300 330/05 RMK AO2
14926KSTC STC20030715180509807/15/03 18:05:31  5-MIN KSTC 160005Z AUTO 33005KT 10SM CLR 24/14 A3001 940 51 2300 320/05 RMK AO2
14926KSTC STC20030715181009807/15/03 18:10:31  5-MIN KSTC 160010Z AUTO 32006KT 10SM CLR 24/14 A3001 940 51 2300 320/06 RMK AO2
14926KSTC STC20030715181509807/15/03 18:15:31  5-MIN KSTC 160015Z AUTO 32007KT 10SM CLR 24/14 A3001 940 51 2300 320/07 RMK AO2
14926KSTC STC20030715182009807/15/03 18:20:31  5-MIN KSTC 160020Z AUTO 32005KT 10SM CLR 24/14 A3001 940 51 2300 320/05 RMK AO2
14926KSTC STC20030715182509807/15/03 18:25:31  5-MIN KSTC 160025Z AUTO 33005KT 10SM CLR 24/14 A3001 940 53 2300 330/05 RMK AO2
14926KSTC STC20030715183009807/15/03 18:30:31  5-MIN KSTC 160030Z AUTO 32005KT 10SM CLR 24/14 A3001 940 53 2300 320/05 RMK AO2
14926KSTC STC20030715183509807/15/03 18:35:31  5-MIN KSTC 160035Z AUTO 31008KT 10SM CLR 24/14 A3001 940 55 2200 310/08 RMK AO2
14926KSTC STC20030715184009807/15/03 18:40:31  5-MIN KSTC 160040Z AUTO 31007KT 10SM CLR 24/15 A3001 940 57 2200 310/07 RMK AO2
14926KSTC STC20030715184509807/15/03 18:45:31  5-MIN KSTC 160045Z AUTO 32005KT 10SM CLR 23/16 A3001 940 61 2200 310/05 RMK AO2
14926KSTC STC20030715185011507/15/03 18:50:31  5-MIN KSTC 160050Z AUTO 32005KT 10SM CLR 23/16 A3001 940 61 2200 310/05 RMK AO2 SLP167 T02330156
14926KSTC STC20030715185509807/15/03 18:55:31  5-MIN KSTC 160055Z AUTO 33005KT 10SM CLR 23/15 A3001 940 59 2200 330/05 RMK AO2
14926KSTC STC20030715190009807/15/03 19:00:31  5-MIN KSTC 160100Z AUTO 32005KT 10SM CLR 23/15 A3001 940 59 2200 310/05 RMK AO2
14926KSTC STC20030715190509807/15/03 19:05:31  5-MIN KSTC 160105Z AUTO 32005KT 10SM CLR 23/16 A3001 940 63 2100 310/05 RMK AO2
14926KSTC STC20030715191009807/15/03 19:10:31  5-MIN KSTC 160110Z AUTO 31004KT 10SM CLR 23/16 A3001 940 63 2100 310/04 RMK AO2
14926KSTC STC20030715191509807/15/03 19:15:31  5-MIN KSTC 160115Z AUTO 31004KT 10SM CLR 23/16 A3001 940 65 2100 310/04 RMK AO2
14926KSTC STC20030715192009807/15/03 19:20:31  5-MIN KSTC 160120Z AUTO 30004KT 10SM CLR 23/16 A3001 940 65 2100 290/04 RMK AO2
14926KSTC STC20030715192509807/15/03 19:25:31  5-MIN KSTC 160125Z AUTO 31004KT 10SM CLR 22/16 A3001 940 68 2000 310/04 RMK AO2
14926KSTC STC20030715193009807/15/03 19:30:31  5-MIN KSTC 160130Z AUTO 30004KT 10SM CLR 23/16 A3001 940 63 2100 300/04 RMK AO2
14926KSTC STC20030715193509807/15/03 19:35:31  5-MIN KSTC 160135Z AUTO 30004KT 10SM CLR 22/16 A3001 940 68 2000 300/04 RMK AO2
14926KSTC STC20030715194009807/15/03 19:40:31  5-MIN KSTC 160140Z AUTO 30003KT 10SM CLR 22/16 A3001 940 65 2000 300/03 RMK AO2
14926KSTC STC20030715194509807/15/03 19:45:31  5-MIN KSTC 160145Z AUTO 30003KT 10SM CLR 22/16 A3001 940 65 2000 300/03 RMK AO2
14926KSTC STC20030715195011507/15/03 19:50:31  5-MIN KSTC 160150Z AUTO 27003KT 10SM CLR 22/16 A3001 940 70 2000 270/03 RMK AO2 SLP167 T02170161
14926KSTC STC20030715195509807/15/03 19:55:31  5-MIN KSTC 160155Z AUTO 00000KT 10SM CLR 21/17 A3001 940 75 1900 000/00 RMK AO2
14926KSTC STC20030715200009807/15/03 20:00:31  5-MIN KSTC 160200Z AUTO 00000KT 10SM CLR 21/17 A3001 940 78 1800 000/00 RMK AO2
14926KSTC STC20030715200509807/15/03 20:05:31  5-MIN KSTC 160205Z AUTO 00000KT 10SM CLR 20/17 A3001 940 84 1800 000/00 RMK AO2
14926KSTC STC20030715201009807/15/03 20:10:31  5-MIN KSTC 160210Z AUTO 00000KT 10SM CLR 19/17 A3001 940 84 1700 000/00 RMK AO2
14926KSTC STC20030715201509807/15/03 20:15:31  5-MIN KSTC 160215Z AUTO 00000KT 10SM CLR 19/17 A3002 940 87 1700 000/00 RMK AO2
14926KSTC STC20030715202009807/15/03 20:20:31  5-MIN KSTC 160220Z AUTO 00000KT 10SM CLR 19/17 A3002 940 84 1700 000/00 RMK AO2
14926KSTC STC20030715202509807/15/03 20:25:31  5-MIN KSTC 160225Z AUTO 00000KT 10SM CLR 19/17 A3002 940 87 1600 000/00 RMK AO2
14926KSTC STC20030715203009807/15/03 20:30:31  5-MIN KSTC 160230Z AUTO 00000KT 10SM CLR 19/17 A3002 930 87 1600 000/00 RMK AO2
14926KSTC STC20030715203509807/15/03 20:35:31  5-MIN KSTC 160235Z AUTO 00000KT 10SM CLR 18/17 A3002 930 93 1500 000/00 RMK AO2
14926KSTC STC20030715204009807/15/03 20:40:31  5-MIN KSTC 160240Z AUTO 00000KT 10SM CLR 18/17 A3003 930 90 1600 000/00 RMK AO2
14926KSTC STC20030715204509807/15/03 20:45:31  5-MIN KSTC 160245Z AUTO 00000KT 10SM CLR 18/16 A3003 930 87 1600 000/00 RMK AO2
14926KSTC STC20030715205012107/15/03 20:50:31  5-MIN KSTC 160250Z AUTO 00000KT 10SM CLR 18/17 A3003 930 90 1600 000/00 RMK AO2 SLP174 T01830167 56004
14926KSTC STC20030715205509807/15/03 20:55:31  5-MIN KSTC 160255Z AUTO 00000KT 10SM CLR 18/17 A3003 920 93 1500 000/00 RMK AO2
14926KSTC STC20030715210009807/15/03 21:00:31  5-MIN KSTC 160300Z AUTO 00000KT 10SM CLR 18/17 A3003 920 93 1500 000/00 RMK AO2
14926KSTC STC20030715210509807/15/03 21:05:31  5-MIN KSTC 160305Z AUTO 00000KT 10SM CLR 18/16 A3003 920 87 1600 000/00 RMK AO2
14926KSTC STC20030715211009807/15/03 21:10:31  5-MIN KSTC 160310Z AUTO 00000KT 10SM CLR 18/16 A3003 920 87 1600 000/00 RMK AO2
14926KSTC STC20030715211509807/15/03 21:15:31  5-MIN KSTC 160315Z AUTO 00000KT 10SM CLR 18/17 A3004 920 90 1600 000/00 RMK AO2
14926KSTC STC20030715212009807/15/03 21:20:31  5-MIN KSTC 160320Z AUTO 00000KT 10SM CLR 18/17 A3004 920 90 1600 000/00 RMK AO2
14926KSTC STC20030715212509807/15/03 21:25:31  5-MIN KSTC 160325Z AUTO 00000KT 10SM CLR 18/16 A3004 920 87 1600 000/00 RMK AO2
14926KSTC STC20030715213009807/15/03 21:30:31  5-MIN KSTC 160330Z AUTO 00000KT 10SM CLR 17/16 A3004 920 93 1400 000/00 RMK AO2
14926KSTC STC20030715213509807/15/03 21:35:31  5-MIN KSTC 160335Z AUTO 00000KT 10SM CLR 17/16 A3004 920 93 1400 000/00 RMK AO2
14926KSTC STC20030715214009807/15/03 21:40:31  5-MIN KSTC 160340Z AUTO 00000KT 10SM CLR 17/16 A3004 920 93 1400 000/00 RMK AO2
14926KSTC STC20030715214509807/15/03 21:45:31  5-MIN KSTC 160345Z AUTO 00000KT 10SM CLR 17/16 A3004 920 93 1400 000/00 RMK AO2
14926KSTC STC20030715215011507/15/03 21:50:31  5-MIN KSTC 160350Z AUTO 00000KT 10SM CLR 17/16 A3004 920 93 1400 000/00 RMK AO2 SLP178 T01720161
14926KSTC STC20030715215509807/15/03 21:55:31  5-MIN KSTC 160355Z AUTO 00000KT 10SM CLR 17/16 A3004 920 93 1400 000/00 RMK AO2
14926KSTC STC20030715220009807/15/03 22:00:31  5-MIN KSTC 160400Z AUTO 00000KT 10SM CLR 17/16 A3004 920 93 1400 000/00 RMK AO2
14926KSTC STC20030715220509807/15/03 22:05:31  5-MIN KSTC 160405Z AUTO 00000KT 10SM CLR 17/16 A3004 920 93 1400 000/00 RMK AO2
14926KSTC STC20030715221009807/15/03 22:10:31  5-MIN KSTC 160410Z AUTO 00000KT 10SM CLR 17/16 A3004 920 93 1400 000/00 RMK AO2
14926KSTC STC20030715221509807/15/03 22:15:31  5-MIN KSTC 160415Z AUTO 00000KT 10SM CLR 17/16 A3004 920 93 1400 000/00 RMK AO2
14926KSTC STC20030715222009807/15/03 22:20:31  5-MIN KSTC 160420Z AUTO 00000KT 10SM CLR 17/16 A3004 920 93 1400 000/00 RMK AO2
14926KSTC STC20030715222509807/15/03 22:25:31  5-MIN KSTC 160425Z AUTO 00000KT 10SM CLR 17/16 A3004 910 93 1400 000/00 RMK AO2
14926KSTC STC20030715223009807/15/03 22:30:31  5-MIN KSTC 160430Z AUTO 00000KT 10SM CLR 17/16 A3004 910 93 1400 000/00 RMK AO2
14926KSTC STC20030715223509807/15/03 22:35:31  5-MIN KSTC 160435Z AUTO 00000KT 10SM CLR 17/16 A3004 910 93 1400 000/00 RMK AO2
14926KSTC STC20030715224009807/15/03 22:40:31  5-MIN KSTC 160440Z AUTO 00000KT 10SM CLR 16/16 A3004 910 96 1300 000/00 RMK AO2
14926KSTC STC20030715224509807/15/03 22:45:31  5-MIN KSTC 160445Z AUTO 00000KT 10SM CLR 16/16 A3004 910 96 1300 000/00 RMK AO2
14926KSTC STC20030715225011507/15/03 22:50:31  5-MIN KSTC 160450Z AUTO 00000KT 10SM CLR 16/16 A3004 910 96 1300 000/00 RMK AO2 SLP179 T01610156
14926KSTC STC20030715225509807/15/03 22:55:31  5-MIN KSTC 160455Z AUTO 00000KT 10SM CLR 16/16 A3004 910 96 1300 000/00 RMK AO2
14926KSTC STC20030715230009907/15/03 23:00:31  5-MIN KSTC 160500Z AUTO 00000KT 10SM CLR 16/16 A3004 910 100 1200 000/00 RMK AO2
14926KSTC STC20030715230509807/15/03 23:05:31  5-MIN KSTC 160505Z AUTO 00000KT 10SM CLR 16/16 A3005 910 96 1300 000/00 RMK AO2
14926KSTC STC20030715231009807/15/03 23:10:31  5-MIN KSTC 160510Z AUTO 00000KT 10SM CLR 16/16 A3005 910 96 1300 000/00 RMK AO2
14926KSTC STC20030715231509907/15/03 23:15:31  5-MIN KSTC 160515Z AUTO 00000KT 10SM CLR 16/16 A3005 910 100 1200 000/00 RMK AO2
14926KSTC STC20030715232009807/15/03 23:20:31  5-MIN KSTC 160520Z AUTO 21003KT 10SM CLR 16/15 A3005 910 96 1200 210/03 RMK AO2
14926KSTC STC20030715232509807/15/03 23:25:31  5-MIN KSTC 160525Z AUTO 21003KT 10SM CLR 16/15 A3005 910 96 1200 210/03 RMK AO2
14926KSTC STC20030715233009807/15/03 23:30:31  5-MIN KSTC 160530Z AUTO 00000KT 10SM CLR 16/15 A3005 900 96 1200 000/00 RMK AO2
14926KSTC STC20030715233509807/15/03 23:35:31  5-MIN KSTC 160535Z AUTO 00000KT 10SM CLR 16/15 A3005 900 96 1200 000/00 RMK AO2
14926KSTC STC20030715234009807/15/03 23:40:31  5-MIN KSTC 160540Z AUTO 00000KT 10SM CLR 16/15 A3005 910 96 1200 000/00 RMK AO2
14926KSTC STC20030715234509807/15/03 23:45:31  5-MIN KSTC 160545Z AUTO 00000KT 10SM CLR 16/15 A3005 910 96 1200 000/00 RMK AO2
14926KSTC STC20030715235014307/15/03 23:50:31  5-MIN KSTC 160550Z AUTO 28003KT 10SM CLR 16/15 A3005 900 93 1300 270/03 RMK AO2 SLP182 T01610150 10250 20156 402560156 53005
14926KSTC STC20030715235509807/15/03 23:55:31  5-MIN KSTC 160555Z AUTO 00000KT 10SM CLR 16/15 A3006 900 96 1200 000/00 RMK AO2
14926KSTC STC20030716000009807/16/03 00:00:31  5-MIN KSTC 160600Z AUTO 00000KT 10SM CLR 16/15 A3006 900 93 1300 000/00 RMK AO2
14926KSTC STC20030716000509807/16/03 00:05:31  5-MIN KSTC 160605Z AUTO 00000KT 10SM CLR 16/15 A3006 900 93 1300 000/00 RMK AO2
14926KSTC STC20030716001009807/16/03 00:10:31  5-MIN KSTC 160610Z AUTO 00000KT 10SM CLR 17/15 A3006 900 90 1300 000/00 RMK AO2
14926KSTC STC20030716001509807/16/03 00:15:31  5-MIN KSTC 160615Z AUTO 00000KT 10SM CLR 17/15 A3006 900 90 1300 000/00 RMK AO2
14926KSTC STC20030716002009807/16/03 00:20:31  5-MIN KSTC 160620Z AUTO 00000KT 10SM CLR 17/15 A3006 900 90 1300 000/00 RMK AO2
14926KSTC STC20030716002509807/16/03 00:25:31  5-MIN KSTC 160625Z AUTO 00000KT 10SM CLR 17/15 A3006 900 90 1300 000/00 RMK AO2
14926KSTC STC20030716003009807/16/03 00:30:31  5-MIN KSTC 160630Z AUTO 00000KT 10SM CLR 16/14 A3006 900 90 1300 000/00 RMK AO2
14926KSTC STC20030716003509807/16/03 00:35:31  5-MIN KSTC 160635Z AUTO 00000KT 10SM CLR 16/14 A3006 900 93 1200 000/00 RMK AO2
14926KSTC STC20030716004009807/16/03 00:40:31  5-MIN KSTC 160640Z AUTO 00000KT 10SM CLR 16/14 A3006 900 93 1200 000/00 RMK AO2
14926KSTC STC20030716004509807/16/03 00:45:31  5-MIN KSTC 160645Z AUTO 00000KT 10SM CLR 16/14 A3006 900 93 1200 000/00 RMK AO2
14926KSTC STC20030716005011507/16/03 00:50:31  5-MIN KSTC 160650Z AUTO 00000KT 10SM CLR 16/14 A3006 900 93 1200 000/00 RMK AO2 SLP184 T01560144
14926KSTC STC20030716005509807/16/03 00:55:31  5-MIN KSTC 160655Z AUTO 00000KT 10SM CLR 16/14 A3006 900 93 1200 000/00 RMK AO2
14926KSTC STC20030716010009807/16/03 01:00:31  5-MIN KSTC 160700Z AUTO 00000KT 10SM CLR 15/14 A3006 900 96 1100 000/00 RMK AO2
14926KSTC STC20030716010509807/16/03 01:05:31  5-MIN KSTC 160705Z AUTO 00000KT 10SM CLR 15/14 A3006 900 96 1100 000/00 RMK AO2
14926KSTC STC20030716011009807/16/03 01:10:31  5-MIN KSTC 160710Z AUTO 00000KT 10SM CLR 15/14 A3006 900 96 1100 000/00 RMK AO2
14926KSTC STC20030716011509907/16/03 01:15:31  5-MIN KSTC 160715Z AUTO 00000KT 10SM CLR 14/14 A3006 900 100 1100 000/00 RMK AO2
14926KSTC STC20030716012009807/16/03 01:20:31  5-MIN KSTC 160720Z AUTO 00000KT 10SM CLR 15/14 A3006 900 96 1100 000/00 RMK AO2
14926KSTC STC20030716012509907/16/03 01:25:31  5-MIN KSTC 160725Z AUTO 00000KT 10SM CLR 14/14 A3006 900 100 1100 000/00 RMK AO2
14926KSTC STC20030716013009907/16/03 01:30:31  5-MIN KSTC 160730Z AUTO 00000KT 10SM CLR 14/14 A3006 900 100 1000 000/00 RMK AO2
14926KSTC STC20030716013509807/16/03 01:35:31  5-MIN KSTC 160735Z AUTO 00000KT 10SM CLR 14/14 A3006 900 96 1100 000/00 RMK AO2
14926KSTC STC20030716014009807/16/03 01:40:31  5-MIN KSTC 160740Z AUTO 00000KT 10SM CLR 14/14 A3006 900 96 1100 000/00 RMK AO2
14926KSTC STC20030716014509807/16/03 01:45:31  5-MIN KSTC 160745Z AUTO 00000KT 10SM CLR 14/14 A3006 900 96 1100 000/00 RMK AO2
14926KSTC STC20030716015011607/16/03 01:50:31  5-MIN KSTC 160750Z AUTO 00000KT 10SM CLR 14/14 A3006 900 100 1000 000/00 RMK AO2 SLP184 T01390139
14926KSTC STC20030716015509907/16/03 01:55:31  5-MIN KSTC 160755Z AUTO 00000KT 10SM CLR 14/14 A3006 900 100 1000 000/00 RMK AO2
14926KSTC STC20030716020009807/16/03 02:00:31  5-MIN KSTC 160800Z AUTO 00000KT 10SM CLR 14/14 A3006 900 96 1100 000/00 RMK AO2
14926KSTC STC20030716020509907/16/03 02:05:31  5-MIN KSTC 160805Z AUTO 00000KT 10SM CLR 14/14 A3006 900 100 1000 000/00 RMK AO2
14926KSTC STC20030716021009907/16/03 02:10:31  5-MIN KSTC 160810Z AUTO 00000KT 10SM CLR 14/14 A3005 900 100 1000 000/00 RMK AO2
14926KSTC STC20030716021509907/16/03 02:15:31  5-MIN KSTC 160815Z AUTO 00000KT 10SM CLR 13/13 A3005 900 100 1000 000/00 RMK AO2
14926KSTC STC20030716022009907/16/03 02:20:31  5-MIN KSTC 160820Z AUTO 00000KT 10SM CLR 14/14 A3005 910 100 1000 000/00 RMK AO2
14926KSTC STC20030716022509907/16/03 02:25:31  5-MIN KSTC 160825Z AUTO 00000KT 10SM CLR 14/14 A3005 910 100 1000 000/00 RMK AO2
14926KSTC STC20030716023009907/16/03 02:30:31  5-MIN KSTC 160830Z AUTO 16003KT 10SM CLR 14/14 A3005 910 100 1000 160/03 RMK AO2
14926KSTC STC20030716023509907/16/03 02:35:31  5-MIN KSTC 160835Z AUTO 00000KT 10SM CLR 14/14 A3005 910 100 1000 000/00 RMK AO2
14926KSTC STC20030716024009807/16/03 02:40:31  5-MIN KSTC 160840Z AUTO 00000KT 10SM CLR 14/13 A3005 910 96 1000 000/00 RMK AO2
14926KSTC STC20030716024509807/16/03 02:45:31  5-MIN KSTC 160845Z AUTO 00000KT 10SM CLR 14/13 A3004 910 96 1000 000/00 RMK AO2
14926KSTC STC20030716025012207/16/03 02:50:31  5-MIN KSTC 160850Z AUTO 00000KT 10SM CLR 14/14 A3005 910 100 1000 000/00 RMK AO2 SLP180 T01390139 51008
14926KSTC STC20030716025509907/16/03 02:55:31  5-MIN KSTC 160855Z AUTO 00000KT 10SM CLR 14/14 A3005 910 100 1000 000/00 RMK AO2
14926KSTC STC20030716030009907/16/03 03:00:31  5-MIN KSTC 160900Z AUTO 00000KT 10SM CLR 14/14 A3005 900 100 1000 000/00 RMK AO2
14926KSTC STC20030716030509907/16/03 03:05:31  5-MIN KSTC 160905Z AUTO 20003KT 10SM CLR 13/13 A3006 900 100 1000 200/03 RMK AO2
14926KSTC STC20030716031009907/16/03 03:10:31  5-MIN KSTC 160910Z AUTO 20003KT 10SM CLR 13/13 A3006 900 100 1000 200/03 RMK AO2
14926KSTC STC20030716031509707/16/03 03:15:31  5-MIN KSTC 160915Z AUTO 21003KT 10SM CLR 13/13 A3006 900 96 900 210/03 RMK AO2
14926KSTC STC20030716032009707/16/03 03:20:31  5-MIN KSTC 160920Z AUTO 00000KT 10SM CLR 13/13 A3006 900 96 900 000/00 RMK AO2
14926KSTC STC20030716032509907/16/03 03:25:31  5-MIN KSTC 160925Z AUTO 00000KT 10SM CLR 13/13 A3006 900 100 1000 000/00 RMK AO2
14926KSTC STC20030716033009807/16/03 03:30:31  5-MIN KSTC 160930Z AUTO 00000KT 10SM CLR 13/13 A3005 900 96 1000 000/00 RMK AO2
14926KSTC STC20030716033509807/16/03 03:35:31  5-MIN KSTC 160935Z AUTO 00000KT 10SM CLR 13/13 A3005 910 100 900 000/00 RMK AO2
14926KSTC STC20030716034009807/16/03 03:40:31  5-MIN KSTC 160940Z AUTO 00000KT 10SM CLR 13/13 A3005 900 100 900 000/00 RMK AO2
14926KSTC STC20030716034509907/16/03 03:45:31  5-MIN KSTC 160945Z AUTO 00000KT 10SM CLR 13/13 A3006 900 100 1000 000/00 RMK AO2
14926KSTC STC20030716035011507/16/03 03:50:31  5-MIN KSTC 160950Z AUTO 00000KT 10SM CLR 13/13 A3006 890 100 900 000/00 RMK AO2 SLP187 T01330133
14926KSTC STC20030716035509807/16/03 03:55:31  5-MIN KSTC 160955Z AUTO 00000KT 10SM CLR 13/13 A3006 900 100 900 000/00 RMK AO2
14926KSTC STC20030716040010007/16/03 04:00:31  5-MIN KSTC 161000Z AUTO 00000KT 6SM BR CLR 13/13 A3006 900 100 900 000/00 RMK AO2
14926KSTC STC20030716040509907/16/03 04:05:31  5-MIN KSTC 161005Z AUTO 00000KT 5SM BR CLR 13/12 A3006 900 96 900 000/00 RMK AO2
14926KSTC STC20030716041009707/16/03 04:10:31  5-MIN KSTC 161010Z AUTO 00000KT 7SM CLR 13/13 A3006 900 100 900 000/00 RMK AO2
14926KSTC STC20030716041509707/16/03 04:15:31  5-MIN KSTC 161015Z AUTO 00000KT 7SM CLR 13/13 A3006 900 100 900 000/00 RMK AO2
14926KSTC STC20030716042009807/16/03 04:20:31  5-MIN KSTC 161020Z AUTO 00000KT 10SM CLR 13/13 A3006 900 100 900 000/00 RMK AO2
14926KSTC STC20030716042509807/16/03 04:25:31  5-MIN KSTC 161025Z AUTO 00000KT 10SM CLR 13/13 A3006 900 100 900 000/00 RMK AO2
14926KSTC STC20030716043009707/16/03 04:30:31  5-MIN KSTC 161030Z AUTO 00000KT 10SM CLR 13/12 A3006 890 96 900 000/00 RMK AO2
14926KSTC STC20030716043509807/16/03 04:35:31  5-MIN KSTC 161035Z AUTO 00000KT 10SM CLR 13/13 A3006 890 100 900 000/00 RMK AO2
14926KSTC STC20030716044009807/16/03 04:40:31  5-MIN KSTC 161040Z AUTO 00000KT 10SM CLR 13/13 A3006 890 100 900 000/00 RMK AO2
14926KSTC STC20030716044509707/16/03 04:45:31  5-MIN KSTC 161045Z AUTO 00000KT 10SM CLR 13/12 A3006 900 96 900 000/00 RMK AO2
14926KSTC STC20030716045011407/16/03 04:50:31  5-MIN KSTC 161050Z AUTO 00000KT 10SM CLR 13/12 A3006 900 96 900 000/00 RMK AO2 SLP185 T01280122
14926KSTC STC20030716045509807/16/03 04:55:31  5-MIN KSTC 161055Z AUTO 00000KT 10SM CLR 12/12 A3006 900 100 800 000/00 RMK AO2
14926KSTC STC20030716050009707/16/03 05:00:31  5-MIN KSTC 161100Z AUTO 16003KT 10SM CLR 13/12 A3006 900 96 900 160/03 RMK AO2
14926KSTC STC20030716050509807/16/03 05:05:31  5-MIN KSTC 161105Z AUTO 15003KT 10SM CLR 13/13 A3006 900 100 900 150/03 RMK AO2
14926KSTC STC20030716051009807/16/03 05:10:31  5-MIN KSTC 161110Z AUTO 15004KT 10SM CLR 13/13 A3006 900 100 900 150/04 RMK AO2
14926KSTC STC20030716051510707/16/03 05:15:31  5-MIN KSTC 161115Z AUTO 15004KT 10SM TS CLR 13/13 A3007 890 100 900 140/04 RMK AO2 TSB12
14926KSTC STC20030716052010707/16/03 05:20:31  5-MIN KSTC 161120Z AUTO 11003KT 10SM TS CLR 13/13 A3006 900 100 900 110/03 RMK AO2 TSB12
14926KSTC STC20030716052510807/16/03 05:25:31  5-MIN KSTC 161125Z AUTO 00000KT 10SM TS CLR 14/14 A3006 890 100 1000 000/00 RMK AO2 TSB12
14926KSTC STC20030716053010807/16/03 05:30:31  5-MIN KSTC 161130Z AUTO 14005KT 10SM CLR 14/14 A3006 900 100 1000 140/05 RMK AO2 TSB12E27
14926KSTC STC20030716053510807/16/03 05:35:31  5-MIN KSTC 161135Z AUTO 15004KT 10SM CLR 14/14 A3007 890 100 1100 140/04 RMK AO2 TSB12E27
14926KSTC STC20030716054010807/16/03 05:40:31  5-MIN KSTC 161140Z AUTO 14005KT 10SM CLR 14/14 A3007 890 100 1100 140/05 RMK AO2 TSB12E27
14926KSTC STC20030716054510807/16/03 05:45:31  5-MIN KSTC 161145Z AUTO 15005KT 10SM CLR 14/14 A3007 890 100 1100 150/05 RMK AO2 TSB12E27
14926KSTC STC20030716055014307/16/03 05:50:31  5-MIN KSTC 161150Z AUTO 14004KT 10SM CLR 14/14 A3007 890 100 1100 140/04 RMK AO2 TSB12E27 SLP187 T01440144 10167 20122 58003
14926KSTC STC20030716055509807/16/03 05:55:31  5-MIN KSTC 161155Z AUTO 14004KT 10SM CLR 15/14 A3007 890 96 1100 130/04 RMK AO2
14926KSTC STC20030716060009907/16/03 06:00:31  5-MIN KSTC 161200Z AUTO 14003KT 10SM CLR 15/15 A3007 890 100 1100 140/03 RMK AO2
14926KSTC STC20030716060509907/16/03 06:05:31  5-MIN KSTC 161205Z AUTO 15003KT 10SM CLR 15/15 A3006 890 100 1100 150/03 RMK AO2
14926KSTC STC20030716061009807/16/03 06:10:31  5-MIN KSTC 161210Z AUTO 15003KT 10SM CLR 16/15 A3006 900 96 1200 140/03 RMK AO2
14926KSTC STC20030716061509807/16/03 06:15:31  5-MIN KSTC 161215Z AUTO 17004KT 10SM CLR 16/15 A3007 890 96 1200 160/04 RMK AO2
14926KSTC STC20030716062009807/16/03 06:20:31  5-MIN KSTC 161220Z AUTO 17003KT 10SM CLR 16/15 A3006 900 96 1200 170/03 RMK AO2
14926KSTC STC20030716062509907/16/03 06:25:31  5-MIN KSTC 161225Z AUTO 00000KT 10SM CLR 16/16 A3007 890 100 1200 000/00 RMK AO2
14926KSTC STC20030716063009907/16/03 06:30:31  5-MIN KSTC 161230Z AUTO 19004KT 10SM CLR 16/16 A3007 880 100 1200 180/04 RMK AO2
14926KSTC STC20030716063510807/16/03 06:35:31  5-MIN KSTC 161235Z AUTO 21004KT 10SM TS CLR 16/16 A3008 880 100 1300 200/04 RMK AO2 TSB33
14926KSTC STC20030716064011407/16/03 06:40:31  5-MIN KSTC 161240Z AUTO 21005KT 10SM TS CLR 17/16 A3009 870 96 1300 210/05 RMK AO2 TSB33 PRESRR
14926KSTC STC20030716064511507/16/03 06:45:31  5-MIN KSTC 161245Z AUTO 21007KT 10SM TS CLR 17/17 A3009 870 100 1300 210/07 RMK AO2 TSB33 PRESRR
14926KSTC STC20030716065013107/16/03 06:50:31  5-MIN KSTC 161250Z AUTO 22007KT 10SM CLR 17/17 A3011 860 96 1400 210/07 RMK AO2 TSB33E48 PRESRR SLP199 T01720167
14926KSTC STC20030716065510507/16/03 06:55:31  5-MIN KSTC 161255Z AUTO 22009KT 10SM CLR 17/17 A3012 850 96 1300 220/09 RMK AO2 PRESRR
14926KSTC STC20030716070009807/16/03 07:00:31  5-MIN KSTC 161300Z AUTO 23009KT 10SM CLR 17/17 A3012 840 96 1300 220/09 RMK AO2
14926KSTC STC20030716070509807/16/03 07:05:31  5-MIN KSTC 161305Z AUTO 22009KT 10SM CLR 18/17 A3012 850 93 1400 210/09 RMK AO2
14926KSTC STC20030716071009807/16/03 07:10:31  5-MIN KSTC 161310Z AUTO 21007KT 10SM CLR 18/17 A3011 850 93 1400 210/07 RMK AO2
14926KSTC STC20030716071509807/16/03 07:15:31  5-MIN KSTC 161315Z AUTO 20007KT 10SM CLR 18/17 A3010 860 93 1400 190/07 RMK AO2
14926KSTC STC20030716072009807/16/03 07:20:31  5-MIN KSTC 161320Z AUTO 20006KT 10SM CLR 18/17 A3010 860 90 1500 200/06 RMK AO2
14926KSTC STC20030716072509807/16/03 07:25:31  5-MIN KSTC 161325Z AUTO 19006KT 10SM CLR 18/17 A3010 860 93 1500 190/06 RMK AO2
14926KSTC STC20030716073009807/16/03 07:30:31  5-MIN KSTC 161330Z AUTO 19006KT 10SM CLR 19/17 A3010 860 90 1600 190/06 RMK AO2
14926KSTC STC20030716073509807/16/03 07:35:31  5-MIN KSTC 161335Z AUTO 19006KT 10SM CLR 19/17 A3009 870 90 1600 180/06 RMK AO2
14926KSTC STC20030716074009807/16/03 07:40:31  5-MIN KSTC 161340Z AUTO 18006KT 10SM CLR 19/17 A3009 870 90 1600 180/06 RMK AO2
14926KSTC STC20030716074509807/16/03 07:45:31  5-MIN KSTC 161345Z AUTO 18007KT 10SM CLR 19/17 A3008 880 87 1600 180/07 RMK AO2
14926KSTC STC20030716075012207/16/03 07:50:31  5-MIN KSTC 161350Z AUTO 18007KT 10SM CLR 19/17 A3007 890 87 1700 170/07 RMK AO2 PRESFR SLP188 T01940172
14926KSTC STC20030716075510507/16/03 07:55:31  5-MIN KSTC 161355Z AUTO 16006KT 10SM CLR 19/18 A3007 890 90 1700 160/06 RMK AO2 PRESFR
14926KSTC STC20030716080009807/16/03 08:00:31  5-MIN KSTC 161400Z AUTO 17009KT 10SM CLR 19/18 A3006 890 90 1700 170/09 RMK AO2
14926KSTC STC20030716080509807/16/03 08:05:31  5-MIN KSTC 161405Z AUTO 18007KT 10SM CLR 20/17 A3006 900 84 1700 170/07 RMK AO2
14926KSTC STC20030716081009807/16/03 08:10:31  5-MIN KSTC 161410Z AUTO 17008KT 10SM CLR 20/17 A3006 900 84 1700 170/08 RMK AO2
14926KSTC STC20030716081509807/16/03 08:15:31  5-MIN KSTC 161415Z AUTO 17007KT 10SM CLR 20/18 A3006 900 87 1700 160/07 RMK AO2
14926KSTC STC20030716082009807/16/03 08:20:31  5-MIN KSTC 161420Z AUTO 17007KT 10SM CLR 21/18 A3005 900 84 1800 160/07 RMK AO2
14926KSTC STC20030716082509807/16/03 08:25:31  5-MIN KSTC 161425Z AUTO 15008KT 10SM CLR 21/18 A3005 910 84 1800 150/08 RMK AO2
14926KSTC STC20030716083010507/16/03 08:30:31  5-MIN KSTC 161430Z AUTO 14008KT 10SM CLR 21/18 A3004 920 84 1800 130/08 RMK AO2 PRESFR
14926KSTC STC20030716083510507/16/03 08:35:31  5-MIN KSTC 161435Z AUTO 13008KT 10SM CLR 21/18 A3003 930 84 1800 130/08 RMK AO2 PRESFR
14926KSTC STC20030716084009807/16/03 08:40:31  5-MIN KSTC 161440Z AUTO 14009KT 10SM CLR 21/18 A3003 930 81 1900 140/09 RMK AO2
14926KSTC STC20030716084509807/16/03 08:45:31  5-MIN KSTC 161445Z AUTO 13008KT 10SM CLR 21/18 A3002 930 81 1900 130/08 RMK AO2
14926KSTC STC20030716085012107/16/03 08:50:31  5-MIN KSTC 161450Z AUTO 14009KT 10SM CLR 21/18 A3002 940 81 1900 130/09 RMK AO2 SLP169 T02110178 51007
14926KSTC STC20030716085509807/16/03 08:55:31  5-MIN KSTC 161455Z AUTO 14009KT 10SM CLR 22/18 A3002 940 78 2000 140/09 RMK AO2
14926KSTC STC20030716090009807/16/03 09:00:31  5-MIN KSTC 161500Z AUTO 15009KT 10SM CLR 22/18 A3003 920 78 2000 150/09 RMK AO2
14926KSTC STC20030716090509807/16/03 09:05:31  5-MIN KSTC 161505Z AUTO 18008KT 10SM CLR 22/18 A3004 920 78 2000 170/08 RMK AO2
14926KSTC STC20030716091009807/16/03 09:10:31  5-MIN KSTC 161510Z AUTO 18006KT 10SM CLR 23/18 A3004 920 73 2100 170/06 RMK AO2
14926KSTC STC20030716091509807/16/03 09:15:31  5-MIN KSTC 161515Z AUTO 19007KT 10SM CLR 23/18 A3004 920 76 2100 180/07 RMK AO2
14926KSTC STC20030716092009807/16/03 09:20:31  5-MIN KSTC 161520Z AUTO 20006KT 10SM CLR 23/18 A3005 910 73 2100 190/06 RMK AO2
14926KSTC STC20030716092509807/16/03 09:25:31  5-MIN KSTC 161525Z AUTO 20008KT 10SM CLR 23/18 A3005 900 76 2100 200/08 RMK AO2
14926KSTC STC20030716093009807/16/03 09:30:31  5-MIN KSTC 161530Z AUTO 21008KT 10SM CLR 23/18 A3006 900 73 2000 210/08 RMK AO2
14926KSTC STC20030716093509807/16/03 09:35:31  5-MIN KSTC 161535Z AUTO 18007KT 10SM CLR 23/18 A3006 900 73 2100 180/07 RMK AO2
14926KSTC STC20030716094009807/16/03 09:40:31  5-MIN KSTC 161540Z AUTO 17006KT 10SM CLR 23/18 A3005 910 73 2100 170/06 RMK AO2
14926KSTC STC20030716094509807/16/03 09:45:31  5-MIN KSTC 161545Z AUTO 18007KT 10SM CLR 23/18 A3004 910 70 2100 170/07 RMK AO2
14926KSTC STC20030716095011507/16/03 09:50:31  5-MIN KSTC 161550Z AUTO 15006KT 10SM CLR 24/18 A3004 920 68 2200 150/06 RMK AO2 SLP177 T02390178
14926KSTC STC20030716095509807/16/03 09:55:31  5-MIN KSTC 161555Z AUTO 16005KT 10SM CLR 24/18 A3004 920 68 2200 160/05 RMK AO2
14926KSTC STC20030716100009807/16/03 10:00:31  5-MIN KSTC 161600Z AUTO VRB06KT 10SM CLR 24/18 A3004 910 68 2200 VRB/06 RMK AO2
14926KSTC STC20030716100509807/16/03 10:05:31  5-MIN KSTC 161605Z AUTO 16007KT 10SM CLR 24/18 A3004 910 68 2200 160/07 RMK AO2
14926KSTC STC20030716101009807/16/03 10:10:31  5-MIN KSTC 161610Z AUTO 17008KT 10SM CLR 25/18 A3005 910 64 2300 170/08 RMK AO2
14926KSTC STC20030716101509807/16/03 10:15:31  5-MIN KSTC 161615Z AUTO 18008KT 10SM CLR 24/17 A3005 910 61 2200 180/08 RMK AO2
14926KSTC STC20030716102009807/16/03 10:20:31  5-MIN KSTC 161620Z AUTO 18008KT 10SM CLR 24/17 A3005 910 63 2200 180/08 RMK AO2
14926KSTC STC20030716102509807/16/03 10:25:31  5-MIN KSTC 161625Z AUTO 20009KT 10SM CLR 25/18 A3005 910 64 2300 200/09 RMK AO2
14926KSTC STC20030716103009807/16/03 10:30:31  5-MIN KSTC 161630Z AUTO 20009KT 10SM CLR 25/18 A3005 910 64 2300 200/09 RMK AO2
14926KSTC STC20030716103509807/16/03 10:35:31  5-MIN KSTC 161635Z AUTO 18010KT 10SM CLR 24/18 A3005 910 66 2200 180/10 RMK AO2
14926KSTC STC20030716104009807/16/03 10:40:31  5-MIN KSTC 161640Z AUTO 19012KT 10SM CLR 24/18 A3005 900 68 2200 190/12 RMK AO2
14926KSTC STC20030716104509807/16/03 10:45:31  5-MIN KSTC 161645Z AUTO 21009KT 10SM CLR 24/18 A3006 900 68 2200 200/09 RMK AO2
14926KSTC STC20030716105011507/16/03 10:50:31  5-MIN KSTC 161650Z AUTO 20011KT 10SM CLR 25/18 A3005 900 66 2300 200/11 RMK AO2 SLP182 T02500183
14926KSTC STC20030716105509807/16/03 10:55:31  5-MIN KSTC 161655Z AUTO 19010KT 10SM CLR 25/18 A3005 900 66 2300 190/10 RMK AO2
14926KSTC STC20030716110009807/16/03 11:00:31  5-MIN KSTC 161700Z AUTO 19009KT 10SM CLR 24/18 A3005 900 68 2200 190/09 RMK AO2
14926KSTC STC20030716110509807/16/03 11:05:31  5-MIN KSTC 161705Z AUTO 18010KT 10SM CLR 25/18 A3005 910 66 2300 180/10 RMK AO2
14926KSTC STC20030716111009807/16/03 11:10:31  5-MIN KSTC 161710Z AUTO 20010KT 10SM CLR 24/18 A3005 900 68 2200 190/10 RMK AO2
14926KSTC STC20030716111509807/16/03 11:15:31  5-MIN KSTC 161715Z AUTO 18008KT 10SM CLR 26/19 A3005 910 66 2400 180/08 RMK AO2
14926KSTC STC20030716112009807/16/03 11:20:31  5-MIN KSTC 161720Z AUTO 17009KT 10SM CLR 25/19 A3004 910 68 2300 170/09 RMK AO2
14926KSTC STC20030716112509807/16/03 11:25:31  5-MIN KSTC 161725Z AUTO 18009KT 10SM CLR 24/18 A3004 910 66 2300 180/09 RMK AO2
14926KSTC STC20030716113009807/16/03 11:30:31  5-MIN KSTC 161730Z AUTO 21011KT 10SM CLR 24/18 A3006 900 66 2200 210/11 RMK AO2
14926KSTC STC20030716113509807/16/03 11:35:31  5-MIN KSTC 161735Z AUTO 20010KT 10SM CLR 25/18 A3006 900 66 2300 200/10 RMK AO2
14926KSTC STC20030716114009807/16/03 11:40:31  5-MIN KSTC 161740Z AUTO 20010KT 10SM CLR 25/19 A3006 900 68 2300 200/10 RMK AO2
14926KSTC STC20030716114509807/16/03 11:45:31  5-MIN KSTC 161745Z AUTO 19008KT 10SM CLR 25/18 A3005 900 66 2300 190/08 RMK AO2
14926KSTC STC20030716115013307/16/03 11:50:31  5-MIN KSTC 161750Z AUTO 19009KT 10SM CLR 25/19 A3005 900 68 2300 190/09 RMK AO2 SLP181 T02500189 10256 20144 58017
14926KSTC STC20030716115509807/16/03 11:55:31  5-MIN KSTC 161755Z AUTO 20008KT 10SM CLR 26/19 A3005 910 66 2400 190/08 RMK AO2
14926KSTC STC20030716120009807/16/03 12:00:31  5-MIN KSTC 161800Z AUTO 18010KT 10SM CLR 26/19 A3004 910 66 2400 180/10 RMK AO2
14926KSTC STC20030716120509807/16/03 12:05:31  5-MIN KSTC 161805Z AUTO 19009KT 10SM CLR 26/19 A3004 920 66 2400 190/09 RMK AO2
14926KSTC STC20030716121009807/16/03 12:10:31  5-MIN KSTC 161810Z AUTO 20008KT 10SM CLR 26/19 A3004 910 66 2400 200/08 RMK AO2
14926KSTC STC20030716121509807/16/03 12:15:31  5-MIN KSTC 161815Z AUTO 19008KT 10SM CLR 26/19 A3004 910 66 2400 190/08 RMK AO2
14926KSTC STC20030716122009807/16/03 12:20:31  5-MIN KSTC 161820Z AUTO 19008KT 10SM CLR 26/19 A3004 910 66 2400 190/08 RMK AO2
14926KSTC STC20030716122509807/16/03 12:25:31  5-MIN KSTC 161825Z AUTO 19007KT 10SM CLR 26/19 A3004 910 68 2400 180/07 RMK AO2
14926KSTC STC20030716123009807/16/03 12:30:31  5-MIN KSTC 161830Z AUTO 20008KT 10SM CLR 26/19 A3005 910 64 2400 190/08 RMK AO2
14926KSTC STC20030716123510707/16/03 12:35:31  5-MIN KSTC 161835Z AUTO 19012G17KT 10SM FEW110 27/19 A3004 910 62 2500 180/12G17 RMK AO2
14926KSTC STC20030716124010407/16/03 12:40:31  5-MIN KSTC 161840Z AUTO 20012G17KT 10SM CLR 27/19 A3004 910 62 2500 200/12G17 RMK AO2
14926KSTC STC20030716124509807/16/03 12:45:31  5-MIN KSTC 161845Z AUTO 20010KT 10SM CLR 26/19 A3004 910 64 2400 190/10 RMK AO2
14926KSTC STC20030716125011507/16/03 12:50:31  5-MIN KSTC 161850Z AUTO 18010KT 10SM CLR 27/19 A3004 910 62 2500 180/10 RMK AO2 SLP178 T02670189
14926KSTC STC20030716125509807/16/03 12:55:31  5-MIN KSTC 161855Z AUTO 20009KT 10SM CLR 27/19 A3004 910 62 2500 190/09 RMK AO2
14926KSTC STC20030716130009807/16/03 13:00:31  5-MIN KSTC 161900Z AUTO 19011KT 10SM CLR 27/19 A3004 910 62 2500 190/11 RMK AO2
14926KSTC STC20030716130509807/16/03 13:05:31  5-MIN KSTC 161905Z AUTO 19009KT 10SM CLR 27/19 A3005 910 62 2500 190/09 RMK AO2
14926KSTC STC20030716131009807/16/03 13:10:31  5-MIN KSTC 161910Z AUTO 19007KT 10SM CLR 27/19 A3005 910 62 2500 190/07 RMK AO2
14926KSTC STC20030716131509807/16/03 13:15:31  5-MIN KSTC 161915Z AUTO 20009KT 10SM CLR 27/19 A3004 910 62 2600 190/09 RMK AO2
14926KSTC STC20030716132009807/16/03 13:20:31  5-MIN KSTC 161920Z AUTO 19009KT 10SM CLR 27/19 A3004 910 62 2600 180/09 RMK AO2
14926KSTC STC20030716132509807/16/03 13:25:31  5-MIN KSTC 161925Z AUTO 17011KT 10SM CLR 27/19 A3004 920 62 2600 170/11 RMK AO2
14926KSTC STC20030716133009807/16/03 13:30:31  5-MIN KSTC 161930Z AUTO 19011KT 10SM CLR 27/19 A3004 920 62 2600 190/11 RMK AO2
14926KSTC STC20030716133510407/16/03 13:35:31  5-MIN KSTC 161935Z AUTO 17008G15KT 10SM CLR 28/19 A3004 920 60 2600 170/08G15 RMK AO2
14926KSTC STC20030716134010407/16/03 13:40:31  5-MIN KSTC 161940Z AUTO 17009G15KT 10SM CLR 27/19 A3004 920 62 2600 170/09G15 RMK AO2
14926KSTC STC20030716134509807/16/03 13:45:31  5-MIN KSTC 161945Z AUTO 18010KT 10SM CLR 28/20 A3003 920 62 2600 170/10 RMK AO2
14926KSTC STC20030716135011507/16/03 13:50:31  5-MIN KSTC 161950Z AUTO 18009KT 10SM CLR 27/19 A3003 920 62 2600 180/09 RMK AO2 SLP174 T02720194
14926KSTC STC20030716135509807/16/03 13:55:31  5-MIN KSTC 161955Z AUTO 16011KT 10SM CLR 28/19 A3003 930 60 2600 160/11 RMK AO2
14926KSTC STC20030716140009807/16/03 14:00:31  5-MIN KSTC 162000Z AUTO 18010KT 10SM CLR 28/20 A3003 930 62 2600 180/10 RMK AO2
14926KSTC STC20030716140509807/16/03 14:05:31  5-MIN KSTC 162005Z AUTO 15012KT 10SM CLR 28/19 A3002 930 60 2600 150/12 RMK AO2
14926KSTC STC20030716141009807/16/03 14:10:31  5-MIN KSTC 162010Z AUTO 17012KT 10SM CLR 28/20 A3002 930 62 2700 160/12 RMK AO2
14926KSTC STC20030716141509807/16/03 14:15:31  5-MIN KSTC 162015Z AUTO 17013KT 10SM CLR 28/20 A3002 930 62 2700 170/13 RMK AO2
14926KSTC STC20030716142009807/16/03 14:20:31  5-MIN KSTC 162020Z AUTO 19011KT 10SM CLR 28/20 A3002 930 62 2700 180/11 RMK AO2
14926KSTC STC20030716142509807/16/03 14:25:31  5-MIN KSTC 162025Z AUTO 18013KT 10SM CLR 28/20 A3002 930 62 2700 170/13 RMK AO2
14926KSTC STC20030716143009807/16/03 14:30:31  5-MIN KSTC 162030Z AUTO 16011KT 10SM CLR 28/20 A3002 930 62 2700 160/11 RMK AO2
14926KSTC STC20030716143509807/16/03 14:35:31  5-MIN KSTC 162035Z AUTO 18011KT 10SM CLR 28/20 A3002 940 62 2700 170/11 RMK AO2
14926KSTC STC20030716144009807/16/03 14:40:31  5-MIN KSTC 162040Z AUTO 17014KT 10SM CLR 28/20 A3002 940 60 2700 170/14 RMK AO2
14926KSTC STC20030716144509807/16/03 14:45:31  5-MIN KSTC 162045Z AUTO 18010KT 10SM CLR 28/19 A3001 940 58 2700 180/10 RMK AO2
14926KSTC STC20030716145012107/16/03 14:50:31  5-MIN KSTC 162050Z AUTO 18014KT 10SM CLR 28/20 A3001 940 60 2700 170/14 RMK AO2 SLP167 T02830200 50011
14926KSTC STC20030716145510407/16/03 14:55:31  5-MIN KSTC 162055Z AUTO 19014G17KT 10SM CLR 28/20 A3001 940 60 2700 190/14G17 RMK AO2
14926KSTC STC20030716150009807/16/03 15:00:31  5-MIN KSTC 162100Z AUTO 18012KT 10SM CLR 28/20 A3001 950 60 2700 180/12 RMK AO2
14926KSTC STC20030716150510407/16/03 15:05:31  5-MIN KSTC 162105Z AUTO 17013G19KT 10SM CLR 28/20 A3001 950 60 2700 170/13G19 RMK AO2
14926KSTC STC20030716151010407/16/03 15:10:31  5-MIN KSTC 162110Z AUTO 19016G20KT 10SM CLR 28/20 A3001 950 60 2700 180/16G20 RMK AO2
14926KSTC STC20030716151510407/16/03 15:15:31  5-MIN KSTC 162115Z AUTO 18015G20KT 10SM CLR 28/19 A3001 950 58 2700 170/15G20 RMK AO2
14926KSTC STC20030716152010407/16/03 15:20:31  5-MIN KSTC 162120Z AUTO 20014G19KT 10SM CLR 28/19 A3001 950 58 2700 200/14G19 RMK AO2
14926KSTC STC20030716152509807/16/03 15:25:31  5-MIN KSTC 162125Z AUTO 19013KT 10SM CLR 28/19 A3001 950 58 2700 190/13 RMK AO2
14926KSTC STC20030716153009807/16/03 15:30:31  5-MIN KSTC 162130Z AUTO 18014KT 10SM CLR 28/20 A3001 940 60 2700 180/14 RMK AO2
14926KSTC STC20030716153509807/16/03 15:35:31  5-MIN KSTC 162135Z AUTO 21014KT 10SM CLR 28/20 A3001 940 60 2700 200/14 RMK AO2
14926KSTC STC20030716154010407/16/03 15:40:31  5-MIN KSTC 162140Z AUTO 20014G20KT 10SM CLR 28/20 A3002 940 60 2700 200/14G20 RMK AO2
14926KSTC STC20030716154510407/16/03 15:45:31  5-MIN KSTC 162145Z AUTO 20012G20KT 10SM CLR 28/21 A3002 940 62 2700 200/12G20 RMK AO2
14926KSTC STC20030716155011507/16/03 15:50:31  5-MIN KSTC 162150Z AUTO 21013KT 10SM CLR 28/21 A3002 940 62 2700 210/13 RMK AO2 SLP169 T02830206
14926KSTC STC20030716155509807/16/03 15:55:31  5-MIN KSTC 162155Z AUTO 20011KT 10SM CLR 28/21 A3002 940 62 2700 200/11 RMK AO2
14926KSTC STC20030716160009807/16/03 16:00:31  5-MIN KSTC 162200Z AUTO 20011KT 10SM CLR 28/21 A3002 940 64 2700 200/11 RMK AO2
14926KSTC STC20030716160509807/16/03 16:05:31  5-MIN KSTC 162205Z AUTO 19011KT 10SM CLR 28/21 A3001 940 64 2700 190/11 RMK AO2
14926KSTC STC20030716161009807/16/03 16:10:31  5-MIN KSTC 162210Z AUTO 20012KT 10SM CLR 28/21 A3001 940 64 2700 200/12 RMK AO2
14926KSTC STC20030716161509807/16/03 16:15:31  5-MIN KSTC 162215Z AUTO 19011KT 10SM CLR 29/21 A3001 940 62 2800 190/11 RMK AO2
14926KSTC STC20030716162009807/16/03 16:20:31  5-MIN KSTC 162220Z AUTO 19011KT 10SM CLR 29/21 A3001 940 60 2800 190/11 RMK AO2
14926KSTC STC20030716162509807/16/03 16:25:31  5-MIN KSTC 162225Z AUTO 20013KT 10SM CLR 29/20 A3001 940 58 2800 200/13 RMK AO2
14926KSTC STC20030716163009807/16/03 16:30:31  5-MIN KSTC 162230Z AUTO 20013KT 10SM CLR 29/20 A3001 940 58 2800 190/13 RMK AO2
14926KSTC STC20030716163509807/16/03 16:35:31  5-MIN KSTC 162235Z AUTO 20012KT 10SM CLR 29/21 A3001 940 60 2800 200/12 RMK AO2
14926KSTC STC20030716164009807/16/03 16:40:31  5-MIN KSTC 162240Z AUTO 20012KT 10SM CLR 29/21 A3001 940 60 2800 190/12 RMK AO2
14926KSTC STC20030716164509807/16/03 16:45:31  5-MIN KSTC 162245Z AUTO 19009KT 10SM CLR 29/21 A3001 940 60 2800 190/09 RMK AO2
14926KSTC STC20030716165011507/16/03 16:50:31  5-MIN KSTC 162250Z AUTO 19013KT 10SM CLR 29/20 A3001 940 58 2800 190/13 RMK AO2 SLP166 T02890200
14926KSTC STC20030716165509807/16/03 16:55:31  5-MIN KSTC 162255Z AUTO 19011KT 10SM CLR 29/21 A3001 950 60 2800 190/11 RMK AO2
14926KSTC STC20030716170009807/16/03 17:00:31  5-MIN KSTC 162300Z AUTO 19011KT 10SM CLR 29/20 A3001 950 58 2800 180/11 RMK AO2
14926KSTC STC20030716170509807/16/03 17:05:31  5-MIN KSTC 162305Z AUTO 19010KT 10SM CLR 29/20 A3000 950 58 2800 190/10 RMK AO2
14926KSTC STC20030716171009807/16/03 17:10:31  5-MIN KSTC 162310Z AUTO 20009KT 10SM CLR 29/21 A3000 950 60 2800 190/09 RMK AO2
14926KSTC STC20030716171509807/16/03 17:15:31  5-MIN KSTC 162315Z AUTO 19011KT 10SM CLR 29/21 A3000 950 62 2800 190/11 RMK AO2
14926KSTC STC20030716172009807/16/03 17:20:31  5-MIN KSTC 162320Z AUTO 20011KT 10SM CLR 29/21 A3000 950 62 2800 200/11 RMK AO2
14926KSTC STC20030716172509807/16/03 17:25:31  5-MIN KSTC 162325Z AUTO 21010KT 10SM CLR 28/21 A3000 950 64 2700 200/10 RMK AO2
14926KSTC STC20030716173010407/16/03 17:30:31  5-MIN KSTC 162330Z AUTO 21014G17KT 10SM CLR 28/21 A3000 950 62 2700 210/14G17 RMK AO2
14926KSTC STC20030716173509807/16/03 17:35:31  5-MIN KSTC 162335Z AUTO 21013KT 10SM CLR 28/20 A3000 950 60 2700 200/13 RMK AO2
14926KSTC STC20030716174009807/16/03 17:40:31  5-MIN KSTC 162340Z AUTO 21011KT 10SM CLR 28/20 A3000 960 60 2700 210/11 RMK AO2
14926KSTC STC20030716174509807/16/03 17:45:31  5-MIN KSTC 162345Z AUTO 21010KT 10SM CLR 28/20 A3000 960 60 2700 210/10 RMK AO2
14926KSTC STC20030716175013307/16/03 17:50:31  5-MIN KSTC 162350Z AUTO 21011KT 10SM CLR 28/20 A2999 960 60 2700 210/11 RMK AO2 SLP161 T02830200 10289 20250 58014
14926KSTC STC20030716175509807/16/03 17:55:31  5-MIN KSTC 162355Z AUTO 21011KT 10SM CLR 28/20 A2999 960 60 2700 210/11 RMK AO2
14926KSTC STC20030716180009807/16/03 18:00:31  5-MIN KSTC 170000Z AUTO 20009KT 10SM CLR 28/21 A2999 960 62 2700 200/09 RMK AO2
14926KSTC STC20030716180509807/16/03 18:05:31  5-MIN KSTC 170005Z AUTO 19007KT 10SM CLR 28/21 A2999 960 62 2700 190/07 RMK AO2
14926KSTC STC20030716181009807/16/03 18:10:31  5-MIN KSTC 170010Z AUTO 19007KT 10SM CLR 28/21 A2999 960 66 2700 190/07 RMK AO2
14926KSTC STC20030716181509807/16/03 18:15:31  5-MIN KSTC 170015Z AUTO 19010KT 10SM CLR 28/21 A2999 960 64 2700 190/10 RMK AO2
14926KSTC STC20030716182009807/16/03 18:20:31  5-MIN KSTC 170020Z AUTO 20008KT 10SM CLR 28/21 A2999 960 64 2700 190/08 RMK AO2
14926KSTC STC20030716182509807/16/03 18:25:31  5-MIN KSTC 170025Z AUTO 20009KT 10SM CLR 28/21 A2999 960 66 2700 190/09 RMK AO2
14926KSTC STC20030716183009807/16/03 18:30:31  5-MIN KSTC 170030Z AUTO 20008KT 10SM CLR 28/21 A3000 960 64 2700 200/08 RMK AO2
14926KSTC STC20030716183509807/16/03 18:35:31  5-MIN KSTC 170035Z AUTO 20008KT 10SM CLR 27/21 A3000 960 66 2600 200/08 RMK AO2
14926KSTC STC20030716184009807/16/03 18:40:31  5-MIN KSTC 170040Z AUTO 21009KT 10SM CLR 27/21 A3000 960 69 2600 200/09 RMK AO2
14926KSTC STC20030716184509807/16/03 18:45:31  5-MIN KSTC 170045Z AUTO 20007KT 10SM CLR 27/21 A2999 960 69 2600 190/07 RMK AO2
14926KSTC STC20030716185011507/16/03 18:50:31  5-MIN KSTC 170050Z AUTO 19007KT 10SM CLR 27/21 A2999 960 69 2600 190/07 RMK AO2 SLP159 T02720211
14926KSTC STC20030716185509807/16/03 18:55:31  5-MIN KSTC 170055Z AUTO 19007KT 10SM CLR 27/21 A2999 960 71 2600 190/07 RMK AO2
14926KSTC STC20030716190009807/16/03 19:00:31  5-MIN KSTC 170100Z AUTO 19007KT 10SM CLR 27/21 A2999 960 71 2600 180/07 RMK AO2
14926KSTC STC20030716190509807/16/03 19:05:31  5-MIN KSTC 170105Z AUTO 19006KT 10SM CLR 27/21 A2999 960 71 2600 180/06 RMK AO2
14926KSTC STC20030716191009807/16/03 19:10:31  5-MIN KSTC 170110Z AUTO 18006KT 10SM CLR 27/21 A2999 960 71 2600 170/06 RMK AO2
14926KSTC STC20030716191509807/16/03 19:15:31  5-MIN KSTC 170115Z AUTO 17006KT 10SM CLR 26/22 A2999 960 76 2500 160/06 RMK AO2
14926KSTC STC20030716192009807/16/03 19:20:31  5-MIN KSTC 170120Z AUTO 17006KT 10SM CLR 26/22 A2999 960 76 2500 170/06 RMK AO2
14926KSTC STC20030716192509807/16/03 19:25:31  5-MIN KSTC 170125Z AUTO 18006KT 10SM CLR 26/22 A2999 960 79 2400 170/06 RMK AO2
14926KSTC STC20030716193009807/16/03 19:30:31  5-MIN KSTC 170130Z AUTO 18006KT 10SM CLR 26/21 A3000 960 73 2500 180/06 RMK AO2
14926KSTC STC20030716193509807/16/03 19:35:31  5-MIN KSTC 170135Z AUTO 18006KT 10SM CLR 26/21 A3000 950 76 2400 180/06 RMK AO2
14926KSTC STC20030716194009807/16/03 19:40:31  5-MIN KSTC 170140Z AUTO 18005KT 10SM CLR 26/22 A3000 950 79 2400 180/05 RMK AO2
14926KSTC STC20030716194509807/16/03 19:45:31  5-MIN KSTC 170145Z AUTO 18005KT 10SM CLR 25/22 A3000 950 81 2400 180/05 RMK AO2
14926KSTC STC20030716195011507/16/03 19:50:31  5-MIN KSTC 170150Z AUTO 18005KT 10SM CLR 25/22 A3000 950 81 2400 170/05 RMK AO2 SLP163 T02500217
14926KSTC STC20030716195509807/16/03 19:55:31  5-MIN KSTC 170155Z AUTO 17005KT 10SM CLR 24/22 A3000 950 84 2300 170/05 RMK AO2
14926KSTC STC20030716200009807/16/03 20:00:31  5-MIN KSTC 170200Z AUTO 17005KT 10SM CLR 24/21 A3000 950 81 2300 160/05 RMK AO2
14926KSTC STC20030716200509807/16/03 20:05:31  5-MIN KSTC 170205Z AUTO 16005KT 10SM CLR 24/21 A3000 950 84 2200 160/05 RMK AO2
14926KSTC STC20030716201009807/16/03 20:10:31  5-MIN KSTC 170210Z AUTO 16005KT 10SM CLR 23/21 A3001 950 87 2200 160/05 RMK AO2
14926KSTC STC20030716201509807/16/03 20:15:31  5-MIN KSTC 170215Z AUTO 16005KT 10SM CLR 23/21 A3001 950 87 2200 150/05 RMK AO2
14926KSTC STC20030716202009807/16/03 20:20:31  5-MIN KSTC 170220Z AUTO 15005KT 10SM CLR 23/21 A3001 950 87 2200 150/05 RMK AO2
14926KSTC STC20030716202509807/16/03 20:25:31  5-MIN KSTC 170225Z AUTO 15005KT 10SM CLR 23/21 A3001 940 87 2200 150/05 RMK AO2
14926KSTC STC20030716203009807/16/03 20:30:31  5-MIN KSTC 170230Z AUTO 15005KT 10SM CLR 23/21 A3001 940 90 2100 150/05 RMK AO2
14926KSTC STC20030716203509807/16/03 20:35:31  5-MIN KSTC 170235Z AUTO 15005KT 10SM CLR 23/21 A3001 940 90 2100 140/05 RMK AO2
14926KSTC STC20030716204009807/16/03 20:40:31  5-MIN KSTC 170240Z AUTO 14004KT 10SM CLR 22/21 A3002 940 93 2000 140/04 RMK AO2
14926KSTC STC20030716204509807/16/03 20:45:31  5-MIN KSTC 170245Z AUTO 14004KT 10SM CLR 22/21 A3002 940 93 2000 140/04 RMK AO2
14926KSTC STC20030716205012107/16/03 20:50:31  5-MIN KSTC 170250Z AUTO 14004KT 10SM CLR 22/21 A3002 940 93 2000 140/04 RMK AO2 SLP169 T02220211 58005
14926KSTC STC20030716205509807/16/03 20:55:31  5-MIN KSTC 170255Z AUTO 14004KT 10SM CLR 22/21 A3002 930 93 2000 130/04 RMK AO2
14926KSTC STC20030716210009807/16/03 21:00:31  5-MIN KSTC 170300Z AUTO 12003KT 10SM CLR 22/21 A3002 930 93 2000 120/03 RMK AO2
14926KSTC STC20030716210509807/16/03 21:05:31  5-MIN KSTC 170305Z AUTO 14003KT 10SM CLR 22/21 A3002 930 93 2000 140/03 RMK AO2
14926KSTC STC20030716211009807/16/03 21:10:31  5-MIN KSTC 170310Z AUTO 14004KT 10SM CLR 22/21 A3002 930 93 2000 140/04 RMK AO2
14926KSTC STC20030716211509807/16/03 21:15:31  5-MIN KSTC 170315Z AUTO 15005KT 10SM CLR 22/21 A3002 930 93 2000 140/05 RMK AO2
14926KSTC STC20030716212009807/16/03 21:20:31  5-MIN KSTC 170320Z AUTO 16005KT 10SM CLR 22/21 A3002 930 93 2000 150/05 RMK AO2
14926KSTC STC20030716212509807/16/03 21:25:31  5-MIN KSTC 170325Z AUTO 16005KT 10SM CLR 22/21 A3002 930 97 2000 160/05 RMK AO2
14926KSTC STC20030716213009807/16/03 21:30:31  5-MIN KSTC 170330Z AUTO 17005KT 10SM CLR 22/21 A3002 930 97 2000 160/05 RMK AO2
14926KSTC STC20030716213509807/16/03 21:35:31  5-MIN KSTC 170335Z AUTO 17004KT 10SM CLR 22/21 A3002 930 97 2000 160/04 RMK AO2
14926KSTC STC20030716214009807/16/03 21:40:31  5-MIN KSTC 170340Z AUTO 17004KT 10SM CLR 22/21 A3002 930 97 2000 160/04 RMK AO2
14926KSTC STC20030716214509807/16/03 21:45:31  5-MIN KSTC 170345Z AUTO 17004KT 10SM CLR 22/21 A3003 930 97 2000 170/04 RMK AO2
14926KSTC STC20030716215011507/16/03 21:50:31  5-MIN KSTC 170350Z AUTO 18003KT 10SM CLR 22/21 A3002 930 97 2000 180/03 RMK AO2 SLP170 T02170211
14926KSTC STC20030716215509807/16/03 21:55:31  5-MIN KSTC 170355Z AUTO 00000KT 10SM CLR 22/21 A3002 930 97 2000 000/00 RMK AO2
14926KSTC STC20030716220009807/16/03 22:00:31  5-MIN KSTC 170400Z AUTO 00000KT 10SM CLR 22/21 A3002 930 97 2000 000/00 RMK AO2
14926KSTC STC20030716220509807/16/03 22:05:31  5-MIN KSTC 170405Z AUTO 00000KT 10SM CLR 22/21 A3002 930 93 2000 000/00 RMK AO2
14926KSTC STC20030716221009807/16/03 22:10:31  5-MIN KSTC 170410Z AUTO 00000KT 10SM CLR 22/21 A3002 930 93 2000 000/00 RMK AO2
14926KSTC STC20030716221509807/16/03 22:15:31  5-MIN KSTC 170415Z AUTO 00000KT 10SM CLR 22/21 A3003 930 93 2000 000/00 RMK AO2
14926KSTC STC20030716222009807/16/03 22:20:31  5-MIN KSTC 170420Z AUTO 00000KT 10SM CLR 22/21 A3003 930 93 2000 000/00 RMK AO2
14926KSTC STC20030716222509807/16/03 22:25:31  5-MIN KSTC 170425Z AUTO 15003KT 10SM CLR 22/21 A3003 930 93 2000 150/03 RMK AO2
14926KSTC STC20030716223009807/16/03 22:30:31  5-MIN KSTC 170430Z AUTO 16003KT 10SM CLR 22/21 A3002 930 97 2000 160/03 RMK AO2
14926KSTC STC20030716223509807/16/03 22:35:31  5-MIN KSTC 170435Z AUTO 00000KT 10SM CLR 21/21 A3002 930 97 1900 000/00 RMK AO2
14926KSTC STC20030716224009807/16/03 22:40:31  5-MIN KSTC 170440Z AUTO 00000KT 10SM CLR 21/21 A3002 930 97 1900 000/00 RMK AO2
14926KSTC STC20030716224509807/16/03 22:45:31  5-MIN KSTC 170445Z AUTO 14003KT 10SM CLR 21/20 A3002 930 97 1800 140/03 RMK AO2
14926KSTC STC20030716225011507/16/03 22:50:31  5-MIN KSTC 170450Z AUTO 00000KT 10SM CLR 21/20 A3002 930 97 1800 000/00 RMK AO2 SLP169 T02060200
14926KSTC STC20030716225509807/16/03 22:55:31  5-MIN KSTC 170455Z AUTO 00000KT 10SM CLR 21/21 A3002 930 97 1900 000/00 RMK AO2
14926KSTC STC20030716230009807/16/03 23:00:31  5-MIN KSTC 170500Z AUTO 00000KT 10SM CLR 21/21 A3002 930 97 1900 000/00 RMK AO2
14926KSTC STC20030716230509907/16/03 23:05:31  5-MIN KSTC 170505Z AUTO 00000KT 10SM CLR 21/21 A3002 930 100 1800 000/00 RMK AO2
14926KSTC STC20030716231009807/16/03 23:10:31  5-MIN KSTC 170510Z AUTO 00000KT 10SM CLR 21/21 A3002 930 97 1900 000/00 RMK AO2
14926KSTC STC20030716231509807/16/03 23:15:31  5-MIN KSTC 170515Z AUTO 00000KT 10SM CLR 21/20 A3002 930 97 1800 000/00 RMK AO2
14926KSTC STC20030716232009907/16/03 23:20:31  5-MIN KSTC 170520Z AUTO 00000KT 10SM CLR 21/21 A3003 930 100 1800 000/00 RMK AO2
14926KSTC STC20030716232509907/16/03 23:25:31  5-MIN KSTC 170525Z AUTO 00000KT 10SM CLR 20/20 A3003 930 100 1800 000/00 RMK AO2
14926KSTC STC20030716233009907/16/03 23:30:31  5-MIN KSTC 170530Z AUTO 35003KT 10SM CLR 20/20 A3003 930 100 1800 340/03 RMK AO2
14926KSTC STC20030716233509907/16/03 23:35:31  5-MIN KSTC 170535Z AUTO 34003KT 10SM CLR 20/20 A3003 920 100 1800 330/03 RMK AO2
14926KSTC STC20030716234009907/16/03 23:40:31  5-MIN KSTC 170540Z AUTO 32003KT 10SM CLR 20/20 A3003 920 100 1800 320/03 RMK AO2
14926KSTC STC20030716234509907/16/03 23:45:31  5-MIN KSTC 170545Z AUTO 00000KT 10SM CLR 20/20 A3003 920 100 1800 000/00 RMK AO2
14926KSTC STC20030716235014407/16/03 23:50:31  5-MIN KSTC 170550Z AUTO 00000KT 10SM CLR 20/20 A3003 920 100 1800 000/00 RMK AO2 SLP173 T02000200 10283 20200 402890122 53008
14926KSTC STC20030716235509907/16/03 23:55:31  5-MIN KSTC 170555Z AUTO 00000KT 10SM CLR 20/20 A3003 920 100 1800 000/00 RMK AO2
14926KSTC STC20030717000009807/17/03 00:00:31  5-MIN KSTC 170600Z AUTO 00000KT 10SM CLR 21/20 A3003 920 97 1800 000/00 RMK AO2
14926KSTC STC20030717000509907/17/03 00:05:31  5-MIN KSTC 170605Z AUTO 00000KT 10SM CLR 20/20 A3003 920 100 1800 000/00 RMK AO2
14926KSTC STC20030717001009807/17/03 00:10:31  5-MIN KSTC 170610Z AUTO 00000KT 10SM CLR 21/20 A3003 920 97 1800 000/00 RMK AO2
14926KSTC STC20030717001509907/17/03 00:15:31  5-MIN KSTC 170615Z AUTO 00000KT 10SM CLR 20/20 A3004 920 100 1800 000/00 RMK AO2
14926KSTC STC20030717002009907/17/03 00:20:31  5-MIN KSTC 170620Z AUTO 00000KT 10SM CLR 20/20 A3004 920 100 1800 000/00 RMK AO2
14926KSTC STC20030717002509907/17/03 00:25:31  5-MIN KSTC 170625Z AUTO 00000KT 10SM CLR 20/20 A3004 910 100 1700 000/00 RMK AO2
14926KSTC STC20030717003009907/17/03 00:30:31  5-MIN KSTC 170630Z AUTO 00000KT 10SM CLR 19/19 A3004 910 100 1700 000/00 RMK AO2
14926KSTC STC20030717003509907/17/03 00:35:31  5-MIN KSTC 170635Z AUTO 00000KT 10SM CLR 19/19 A3004 920 100 1700 000/00 RMK AO2
14926KSTC STC20030717004009907/17/03 00:40:31  5-MIN KSTC 170640Z AUTO 00000KT 10SM CLR 19/19 A3004 910 100 1700 000/00 RMK AO2
14926KSTC STC20030717004509907/17/03 00:45:31  5-MIN KSTC 170645Z AUTO 16003KT 10SM CLR 19/19 A3004 920 100 1700 160/03 RMK AO2
14926KSTC STC20030717005011607/17/03 00:50:31  5-MIN KSTC 170650Z AUTO 15003KT 10SM CLR 19/19 A3004 920 100 1600 150/03 RMK AO2 SLP175 T01890189
14926KSTC STC20030717005509907/17/03 00:55:31  5-MIN KSTC 170655Z AUTO 14003KT 10SM CLR 19/19 A3004 920 100 1700 140/03 RMK AO2
14926KSTC STC20030717010009907/17/03 01:00:31  5-MIN KSTC 170700Z AUTO 14003KT 10SM CLR 19/19 A3004 920 100 1700 140/03 RMK AO2
14926KSTC STC20030717010509907/17/03 01:05:31  5-MIN KSTC 170705Z AUTO 00000KT 10SM CLR 19/19 A3004 920 100 1700 000/00 RMK AO2
14926KSTC STC20030717011009907/17/03 01:10:31  5-MIN KSTC 170710Z AUTO 14003KT 10SM CLR 20/20 A3004 920 100 1800 140/03 RMK AO2
14926KSTC STC20030717011509807/17/03 01:15:31  5-MIN KSTC 170715Z AUTO 15003KT 10SM CLR 20/19 A3004 920 97 1800 140/03 RMK AO2
14926KSTC STC20030717012009807/17/03 01:20:31  5-MIN KSTC 170720Z AUTO 14003KT 10SM CLR 20/19 A3004 920 97 1800 140/03 RMK AO2
14926KSTC STC20030717012509907/17/03 01:25:31  5-MIN KSTC 170725Z AUTO 16004KT 10SM CLR 19/19 A3004 920 100 1700 150/04 RMK AO2
14926KSTC STC20030717013009907/17/03 01:30:31  5-MIN KSTC 170730Z AUTO 15003KT 10SM CLR 19/19 A3004 920 100 1700 150/03 RMK AO2
14926KSTC STC20030717013509907/17/03 01:35:31  5-MIN KSTC 170735Z AUTO 00000KT 10SM CLR 19/19 A3004 920 100 1700 000/00 RMK AO2
14926KSTC STC20030717014009907/17/03 01:40:31  5-MIN KSTC 170740Z AUTO 00000KT 10SM CLR 19/19 A3004 920 100 1700 000/00 RMK AO2
14926KSTC STC20030717014509907/17/03 01:45:31  5-MIN KSTC 170745Z AUTO 00000KT 10SM CLR 19/19 A3004 920 100 1700 000/00 RMK AO2
14926KSTC STC20030717015011807/17/03 01:50:31  5-MIN KSTC 170750Z AUTO 00000KT 6SM BR CLR 19/19 A3004 920 100 1600 000/00 RMK AO2 SLP176 T01890189
14926KSTC STC20030717015510107/17/03 01:55:31  5-MIN KSTC 170755Z AUTO 00000KT 6SM BR CLR 19/19 A3004 920 100 1600 000/00 RMK AO2
14926KSTC STC20030717020010107/17/03 02:00:31  5-MIN KSTC 170800Z AUTO 00000KT 5SM BR CLR 19/19 A3004 920 100 1600 000/00 RMK AO2
14926KSTC STC20030717020510107/17/03 02:05:31  5-MIN KSTC 170805Z AUTO 00000KT 5SM BR CLR 19/19 A3004 910 100 1700 000/00 RMK AO2
14926KSTC STC20030717021009707/17/03 02:10:31  5-MIN KSTC 170810Z AUTO 00000KT 9SM CLR 19/18 A3004 920 97 1600 000/00 RMK AO2
14926KSTC STC20030717021509807/17/03 02:15:31  5-MIN KSTC 170815Z AUTO 00000KT 9SM CLR 19/19 A3004 910 100 1600 000/00 RMK AO2
14926KSTC STC20030717022009807/17/03 02:20:31  5-MIN KSTC 170820Z AUTO 00000KT 10SM CLR 19/18 A3004 910 97 1600 000/00 RMK AO2
14926KSTC STC20030717022509907/17/03 02:25:31  5-MIN KSTC 170825Z AUTO 00000KT 10SM CLR 19/19 A3004 910 100 1600 000/00 RMK AO2
14926KSTC STC20030717023009807/17/03 02:30:31  5-MIN KSTC 170830Z AUTO 00000KT 10SM CLR 19/18 A3004 910 97 1600 000/00 RMK AO2
14926KSTC STC20030717023510107/17/03 02:35:31  5-MIN KSTC 170835Z AUTO 35003KT 6SM BR CLR 18/18 A3004 910 100 1600 340/03 RMK AO2
14926KSTC STC20030717024010007/17/03 02:40:31  5-MIN KSTC 170840Z AUTO 00000KT 3SM BR CLR 19/18 A3005 910 97 1600 000/00 RMK AO2
14926KSTC STC20030717024510407/17/03 02:45:31  5-MIN KSTC 170845Z AUTO 35003KT 2SM BR FEW001 19/19 A3005 910 100 1600 350/03 RMK AO2
14926KSTC STC20030717025012707/17/03 02:50:31  5-MIN KSTC 170850Z AUTO 35003KT 2SM BR SCT001 19/19 A3005 910 100 1600 350/03 RMK AO2 SLP177 T01890189 53004
14926KSTC STC20030717025511907/17/03 02:55:31  5-MIN KSTC 170855Z AUTO 34004KT 2 1/2SM BR FEW001 19/19 A3005 910 97 1700 340/04 RMK AO2 VIS 1 3/4V4
14926KSTC STC20030717030010407/17/03 03:00:31  5-MIN KSTC 170900Z AUTO 34003KT 3SM BR FEW001 19/19 A3005 910 100 1700 340/03 RMK AO2
14926KSTC STC20030717030510407/17/03 03:05:31  5-MIN KSTC 170905Z AUTO 00000KT 3SM BR FEW001 19/19 A3005 910 100 1700 000/00 RMK AO2
14926KSTC STC20030717031010407/17/03 03:10:31  5-MIN KSTC 170910Z AUTO 00000KT 2SM BR SCT001 19/19 A3004 910 100 1700 000/00 RMK AO2
14926KSTC STC20030717031510807/17/03 03:15:31  5-MIN KSTC 170915Z AUTO 00000KT 1 1/2SM BR BKN001 19/19 A3004 910 100 1700 000/00 RMK AO2
14926KSTC STC20030717032010807/17/03 03:20:31  5-MIN KSTC 170920Z AUTO 00000KT 1 1/4SM BR BKN001 19/19 A3005 910 100 1700 000/00 RMK AO2
14926KSTC STC20030717032510807/17/03 03:25:31  5-MIN KSTC 170925Z AUTO 00000KT 1 1/4SM BR BKN001 19/19 A3005 910 100 1700 000/00 RMK AO2
14926KSTC STC20030717033010807/17/03 03:30:31  5-MIN KSTC 170930Z AUTO 00000KT 1 3/4SM BR SCT001 19/19 A3005 910 100 1700 000/00 RMK AO2
14926KSTC STC20030717033510807/17/03 03:35:31  5-MIN KSTC 170935Z AUTO 01003KT 1 3/4SM BR SCT001 18/18 A3005 910 100 1500 360/03 RMK AO2
14926KSTC STC20030717034010807/17/03 03:40:31  5-MIN KSTC 170940Z AUTO 36003KT 1 1/2SM BR SCT001 19/19 A3005 910 100 1600 360/03 RMK AO2
14926KSTC STC20030717034510807/17/03 03:45:31  5-MIN KSTC 170945Z AUTO 36003KT 2 1/2SM BR FEW001 19/19 A3005 910 100 1600 350/03 RMK AO2
14926KSTC STC20030717035011807/17/03 03:50:31  5-MIN KSTC 170950Z AUTO 00000KT 4SM BR CLR 19/19 A3005 910 100 1600 000/00 RMK AO2 SLP178 T01890189
14926KSTC STC20030717035510807/17/03 03:55:31  5-MIN KSTC 170955Z AUTO 00000KT 2 1/2SM BR FEW001 19/19 A3005 910 100 1600 000/00 RMK AO2
14926KSTC STC20030717040010807/17/03 04:00:31  5-MIN KSTC 171000Z AUTO 00000KT 2 1/2SM BR FEW001 19/19 A3005 900 100 1700 000/00 RMK AO2
14926KSTC STC20030717040510407/17/03 04:05:31  5-MIN KSTC 171005Z AUTO 00000KT 3SM BR FEW001 19/19 A3005 900 100 1600 000/00 RMK AO2
14926KSTC STC20030717041010407/17/03 04:10:31  5-MIN KSTC 171010Z AUTO 00000KT 4SM BR FEW001 19/19 A3005 900 100 1600 000/00 RMK AO2
14926KSTC STC20030717041510407/17/03 04:15:31  5-MIN KSTC 171015Z AUTO 01003KT 5SM BR FEW001 19/19 A3005 900 100 1600 360/03 RMK AO2
14926KSTC STC20030717042010407/17/03 04:20:31  5-MIN KSTC 171020Z AUTO 36003KT 5SM BR FEW001 18/18 A3006 900 100 1500 360/03 RMK AO2
14926KSTC STC20030717042510107/17/03 04:25:31  5-MIN KSTC 171025Z AUTO 01003KT 6SM BR CLR 19/19 A3006 900 100 1600 010/03 RMK AO2
14926KSTC STC20030717043009807/17/03 04:30:31  5-MIN KSTC 171030Z AUTO 01004KT 9SM CLR 19/19 A3006 900 100 1600 010/04 RMK AO2
14926KSTC STC20030717043509907/17/03 04:35:31  5-MIN KSTC 171035Z AUTO 01003KT 10SM CLR 19/19 A3006 900 100 1600 360/03 RMK AO2
14926KSTC STC20030717044009907/17/03 04:40:31  5-MIN KSTC 171040Z AUTO 35003KT 10SM CLR 19/19 A3006 900 100 1600 350/03 RMK AO2
14926KSTC STC20030717044509907/17/03 04:45:31  5-MIN KSTC 171045Z AUTO 35003KT 10SM CLR 19/19 A3006 900 100 1600 340/03 RMK AO2
14926KSTC STC20030717045011607/17/03 04:50:31  5-MIN KSTC 171050Z AUTO 00000KT 10SM CLR 19/19 A3006 900 100 1600 000/00 RMK AO2 SLP182 T01890189
14926KSTC STC20030717045509907/17/03 04:55:31  5-MIN KSTC 171055Z AUTO 02004KT 10SM CLR 18/18 A3006 890 100 1500 020/04 RMK AO2
14926KSTC STC20030717050009907/17/03 05:00:31  5-MIN KSTC 171100Z AUTO 03006KT 10SM CLR 18/18 A3006 900 100 1500 030/06 RMK AO2
14926KSTC STC20030717050509807/17/03 05:05:31  5-MIN KSTC 171105Z AUTO 04005KT 10SM CLR 19/19 A3006 900 97 1700 030/05 RMK AO2
14926KSTC STC20030717051009807/17/03 05:10:31  5-MIN KSTC 171110Z AUTO 04007KT 10SM CLR 20/19 A3006 900 97 1700 040/07 RMK AO2
14926KSTC STC20030717051509807/17/03 05:15:31  5-MIN KSTC 171115Z AUTO 04006KT 10SM CLR 20/19 A3006 890 93 1700 040/06 RMK AO2
14926KSTC STC20030717052009807/17/03 05:20:31  5-MIN KSTC 171120Z AUTO 05008KT 10SM CLR 20/19 A3007 890 93 1700 040/08 RMK AO2
14926KSTC STC20030717052509807/17/03 05:25:31  5-MIN KSTC 171125Z AUTO 04008KT 10SM CLR 20/19 A3007 890 93 1700 040/08 RMK AO2
14926KSTC STC20030717053009807/17/03 05:30:31  5-MIN KSTC 171130Z AUTO 04010KT 10SM CLR 20/18 A3007 890 90 1700 040/10 RMK AO2
14926KSTC STC20030717053509807/17/03 05:35:31  5-MIN KSTC 171135Z AUTO 05010KT 10SM CLR 20/18 A3007 890 90 1700 040/10 RMK AO2
14926KSTC STC20030717054009807/17/03 05:40:31  5-MIN KSTC 171140Z AUTO 05009KT 10SM CLR 20/18 A3007 890 90 1700 040/09 RMK AO2
14926KSTC STC20030717054511007/17/03 05:45:31  5-MIN KSTC 171145Z AUTO 04011G16KT 10SM CLR 20/18 A3007 890 90 1700 040/11G16 RMK AO2 P0001
14926KSTC STC20030717055015107/17/03 05:50:31  5-MIN KSTC 171150Z AUTO 05009KT 10SM CLR 20/18 A3007 880 90 1700 040/09 RMK AO2 SLP186 P0001 60001 70001 T02000183 10206 20183 53006
14926KSTC STC20030717055509807/17/03 05:55:31  5-MIN KSTC 171155Z AUTO 05010KT 10SM CLR 20/18 A3008 880 90 1700 040/10 RMK AO2
14926KSTC STC20030717060009807/17/03 06:00:31  5-MIN KSTC 171200Z AUTO 05011KT 10SM CLR 20/18 A3007 880 90 1700 040/11 RMK AO2
14926KSTC STC20030717060509807/17/03 06:05:31  5-MIN KSTC 171205Z AUTO 05014KT 10SM CLR 20/18 A3008 880 87 1700 050/14 RMK AO2
14926KSTC STC20030717061009807/17/03 06:10:31  5-MIN KSTC 171210Z AUTO 05012KT 10SM CLR 20/18 A3008 880 87 1700 040/12 RMK AO2
14926KSTC STC20030717061509807/17/03 06:15:31  5-MIN KSTC 171215Z AUTO 05012KT 10SM CLR 20/18 A3008 870 90 1700 050/12 RMK AO2
14926KSTC STC20030717062010107/17/03 06:20:31  5-MIN KSTC 171220Z AUTO 05013KT 10SM FEW008 20/18 A3009 870 90 1700 040/13 RMK AO2
14926KSTC STC20030717062510107/17/03 06:25:31  5-MIN KSTC 171225Z AUTO 05009KT 10SM SCT008 19/18 A3009 870 93 1600 050/09 RMK AO2
14926KSTC STC20030717063010107/17/03 06:30:31  5-MIN KSTC 171230Z AUTO 06012KT 10SM BKN008 19/18 A3009 870 93 1600 050/12 RMK AO2
14926KSTC STC20030717063510107/17/03 06:35:31  5-MIN KSTC 171235Z AUTO 05011KT 10SM BKN008 19/18 A3009 870 93 1600 050/11 RMK AO2
14926KSTC STC20030717064010107/17/03 06:40:31  5-MIN KSTC 171240Z AUTO 06010KT 10SM BKN006 19/18 A3009 870 93 1600 050/10 RMK AO2
14926KSTC STC20030717064510107/17/03 06:45:31  5-MIN KSTC 171245Z AUTO 06011KT 10SM OVC006 20/19 A3009 870 93 1700 060/11 RMK AO2
14926KSTC STC20030717065011807/17/03 06:50:31  5-MIN KSTC 171250Z AUTO 06010KT 10SM OVC006 20/19 A3009 870 93 1700 060/10 RMK AO2 SLP193 T02000189
14926KSTC STC20030717065510107/17/03 06:55:31  5-MIN KSTC 171255Z AUTO 05010KT 10SM OVC006 20/19 A3010 870 93 1700 050/10 RMK AO2
14926KSTC STC20030717070010107/17/03 07:00:31  5-MIN KSTC 171300Z AUTO 06010KT 10SM OVC006 20/19 A3010 860 93 1700 060/10 RMK AO2
14926KSTC STC20030717070510107/17/03 07:05:31  5-MIN KSTC 171305Z AUTO 07011KT 10SM OVC006 20/19 A3010 860 93 1700 070/11 RMK AO2
14926KSTC STC20030717071010707/17/03 07:10:31  5-MIN KSTC 171310Z AUTO 06011G17KT 10SM OVC006 20/19 A3010 860 93 1700 060/11G17 RMK AO2
14926KSTC STC20030717071510707/17/03 07:15:31  5-MIN KSTC 171315Z AUTO 08009G17KT 10SM OVC006 20/19 A3010 860 93 1700 080/09G17 RMK AO2
14926KSTC STC20030717072010107/17/03 07:20:31  5-MIN KSTC 171320Z AUTO 07010KT 10SM OVC006 20/19 A3011 860 93 1700 070/10 RMK AO2
14926KSTC STC20030717072510107/17/03 07:25:31  5-MIN KSTC 171325Z AUTO 06009KT 10SM OVC006 20/18 A3011 850 90 1700 050/09 RMK AO2
14926KSTC STC20030717073010107/17/03 07:30:31  5-MIN KSTC 171330Z AUTO 06010KT 10SM OVC008 20/18 A3011 850 90 1700 060/10 RMK AO2
14926KSTC STC20030717073510107/17/03 07:35:31  5-MIN KSTC 171335Z AUTO 05014KT 10SM OVC008 20/18 A3011 850 90 1700 050/14 RMK AO2
14926KSTC STC20030717074010707/17/03 07:40:31  5-MIN KSTC 171340Z AUTO 06013G18KT 10SM OVC008 19/18 A3011 850 90 1600 060/13G18 RMK AO2
14926KSTC STC20030717074510107/17/03 07:45:31  5-MIN KSTC 171345Z AUTO 07014KT 10SM OVC008 19/18 A3011 850 90 1600 060/14 RMK AO2
14926KSTC STC20030717075011807/17/03 07:50:31  5-MIN KSTC 171350Z AUTO 06012KT 10SM OVC008 19/17 A3012 850 87 1600 060/12 RMK AO2 SLP202 T01940172
14926KSTC STC20030717075510107/17/03 07:55:31  5-MIN KSTC 171355Z AUTO 05011KT 10SM OVC008 19/17 A3012 840 87 1600 050/11 RMK AO2
14926KSTC STC20030717080010107/17/03 08:00:31  5-MIN KSTC 171400Z AUTO 06014KT 10SM OVC008 19/17 A3013 840 90 1500 060/14 RMK AO2
14926KSTC STC20030717080510707/17/03 08:05:31  5-MIN KSTC 171405Z AUTO 09011G17KT 10SM OVC008 19/17 A3013 830 87 1600 080/11G17 RMK AO2
14926KSTC STC20030717081010107/17/03 08:10:31  5-MIN KSTC 171410Z AUTO 08008KT 10SM OVC008 19/17 A3013 830 87 1600 080/08 RMK AO2
14926KSTC STC20030717081510107/17/03 08:15:31  5-MIN KSTC 171415Z AUTO 06010KT 10SM OVC008 20/18 A3013 830 87 1700 060/10 RMK AO2
14926KSTC STC20030717082010107/17/03 08:20:31  5-MIN KSTC 171420Z AUTO 05008KT 10SM OVC008 20/18 A3013 830 87 1600 040/08 RMK AO2
14926KSTC STC20030717082510107/17/03 08:25:31  5-MIN KSTC 171425Z AUTO 06007KT 10SM OVC008 20/18 A3013 830 87 1600 060/07 RMK AO2
14926KSTC STC20030717083010107/17/03 08:30:31  5-MIN KSTC 171430Z AUTO 04009KT 10SM OVC008 20/18 A3013 830 87 1600 040/09 RMK AO2
14926KSTC STC20030717083511707/17/03 08:35:31  5-MIN KSTC 171435Z AUTO 06008KT 010V100 10SM OVC008 20/18 A3013 830 87 1600 050/08 010V100 RMK AO2
14926KSTC STC20030717084010107/17/03 08:40:31  5-MIN KSTC 171440Z AUTO 07007KT 10SM OVC008 21/18 A3013 830 84 1700 070/07 RMK AO2
14926KSTC STC20030717084511307/17/03 08:45:31  5-MIN KSTC 171445Z AUTO 05007KT 10SM OVC010 21/18 A3013 830 81 1800 040/07 RMK AO2 CIG 008V013
14926KSTC STC20030717085013607/17/03 08:50:31  5-MIN KSTC 171450Z AUTO 06009KT 10SM BKN010 21/18 A3012 840 84 1700 060/09 RMK AO2 CIG 009V013 SLP205 T02060178 53009
14926KSTC STC20030717085511307/17/03 08:55:31  5-MIN KSTC 171455Z AUTO 07008KT 10SM BKN010 21/18 A3012 840 81 1800 070/08 RMK AO2 CIG 009V013
14926KSTC STC20030717090010107/17/03 09:00:31  5-MIN KSTC 171500Z AUTO 06007KT 10SM SCT010 21/18 A3013 840 81 1800 050/07 RMK AO2
14926KSTC STC20030717090510107/17/03 09:05:31  5-MIN KSTC 171505Z AUTO 05009KT 10SM SCT012 22/18 A3013 830 78 1800 050/09 RMK AO2
14926KSTC STC20030717091010107/17/03 09:10:31  5-MIN KSTC 171510Z AUTO 06010KT 10SM FEW012 22/17 A3013 830 75 1800 060/10 RMK AO2
14926KSTC STC20030717091510107/17/03 09:15:31  5-MIN KSTC 171515Z AUTO 07007KT 10SM FEW012 22/18 A3013 830 78 1800 070/07 RMK AO2
14926KSTC STC20030717092009907/17/03 09:20:31  5-MIN KSTC 171520Z AUTO 04009KT 10SM CLR A3014 M M M 040/09 RMK AO2 FZRANO PNO $
14926KSTC STC20030717092510207/17/03 09:25:31  5-MIN KSTC 171525Z AUTO 05007KT 10SM FEW015 A3014 M M M 050/07 RMK AO2 FZRANO PNO $
14926KSTC STC20030717093010207/17/03 09:30:31  5-MIN KSTC 171530Z AUTO 05008KT 10SM FEW015 A3014 M M M 050/08 RMK AO2 FZRANO PNO $
14926KSTC STC20030717093510207/17/03 09:35:31  5-MIN KSTC 171535Z AUTO 05009KT 10SM FEW017 A3014 M M M 040/09 RMK AO2 FZRANO PNO $
14926KSTC STC20030717094009907/17/03 09:40:31  5-MIN KSTC 171540Z AUTO 08009KT 10SM CLR A3013 M M M 070/09 RMK AO2 FZRANO PNO $
14926KSTC STC20030717094510007/17/03 09:45:31  5-MIN KSTC 171545Z AUTO 06008KT CLR A3013 M M M 060/08 RMK AO2 PWINO FZRANO PNO $
14926KSTC STC20030717095010607/17/03 09:50:31  5-MIN KSTC 171550Z AUTO 04010KT CLR A3014 M M M 030/10 RMK AO2 SLPNO PWINO FZRANO PNO $
14926KSTC STC20030717095510007/17/03 09:55:31  5-MIN KSTC 171555Z AUTO 07009KT CLR A3013 M M M 070/09 RMK AO2 PWINO FZRANO PNO $
14926KSTC STC20030717100010007/17/03 10:00:31  5-MIN KSTC 171600Z AUTO 07008KT CLR A3014 M M M 070/08 RMK AO2 PWINO FZRANO PNO $
14926KSTC STC20030717100511607/17/03 10:05:31  5-MIN KSTC 171605Z AUTO 05008KT 020V080 CLR A3014 M M M 050/08 020V080 RMK AO2 PWINO FZRANO PNO $
14926KSTC STC20030717101011607/17/03 10:10:31  5-MIN KSTC 171610Z AUTO 04008KT 350V070 CLR A3015 M M M 030/08 350V070 RMK AO2 PWINO FZRANO PNO $
14926KSTC STC20030717101510307/17/03 10:15:31  5-MIN KSTC 171615Z AUTO 02009KT A3016 M M M 020/09 RMK AO2 PRESRR PWINO FZRANO PNO $
14926KSTC STC20030717102010307/17/03 10:20:31  5-MIN KSTC 171620Z AUTO 04009KT A3017 M M M 040/09 RMK AO2 PRESRR PWINO FZRANO PNO $
14926KSTC STC20030717102509607/17/03 10:25:31  5-MIN KSTC 171625Z AUTO 02008KT A3017 M M M 010/08 RMK AO2 PWINO FZRANO PNO $
14926KSTC STC20030717103009607/17/03 10:30:31  5-MIN KSTC 171630Z AUTO 03010KT A3018 M M M 020/10 RMK AO2 PWINO FZRANO PNO $
14926KSTC STC20030717103509607/17/03 10:35:31  5-MIN KSTC 171635Z AUTO 05009KT A3018 M M M 050/09 RMK AO2 PWINO FZRANO PNO $
14926KSTC STC20030717104009607/17/03 10:40:31  5-MIN KSTC 171640Z AUTO 04007KT A3018 M M M 030/07 RMK AO2 PWINO FZRANO PNO $
14926KSTC STC20030717104509607/17/03 10:45:31  5-MIN KSTC 171645Z AUTO 04008KT A3018 M M M 030/08 RMK AO2 PWINO FZRANO PNO $
14926KSTC STC20030717105010207/17/03 10:50:31  5-MIN KSTC 171650Z AUTO 03008KT A3018 M M M 020/08 RMK AO2 SLPNO PWINO FZRANO PNO $
14926KSTC STC20030717105509607/17/03 10:55:31  5-MIN KSTC 171655Z AUTO 02009KT A3018 M M M 020/09 RMK AO2 PWINO FZRANO PNO $
14926KSTC STC20030717110009607/17/03 11:00:31  5-MIN KSTC 171700Z AUTO 02009KT A3018 M M M 010/09 RMK AO2 PWINO FZRANO PNO $
14926KSTC STC20030717110509607/17/03 11:05:31  5-MIN KSTC 171705Z AUTO 01009KT A3018 M M M 010/09 RMK AO2 PWINO FZRANO PNO $
14926KSTC STC20030717111009607/17/03 11:10:31  5-MIN KSTC 171710Z AUTO 02010KT A3017 M M M 020/10 RMK AO2 PWINO FZRANO PNO $
14926KSTC STC20030717111511207/17/03 11:15:31  5-MIN KSTC 171715Z AUTO 04010KT 010V070 A3017 M M M 030/10 010V070 RMK AO2 PWINO FZRANO PNO $
14926KSTC STC20030717112009607/17/03 11:20:31  5-MIN KSTC 171720Z AUTO 05012KT A3016 M M M 050/12 RMK AO2 PWINO FZRANO PNO $
14926KSTC STC20030717112510307/17/03 11:25:31  5-MIN KSTC 171725Z AUTO 04010KT A3015 M M M 040/10 RMK AO2 PRESFR PWINO FZRANO PNO $
14926KSTC STC20030717113010007/17/03 11:30:31  5-MIN KSTC 171730Z AUTO 06010KT CLR A3015 M M M 060/10 RMK AO2 PWINO FZRANO PNO $
14926KSTC STC20030717113510007/17/03 11:35:31  5-MIN KSTC 171735Z AUTO 07010KT CLR A3015 M M M 060/10 RMK AO2 PWINO FZRANO PNO $
14926KSTC STC20030717114010007/17/03 11:40:31  5-MIN KSTC 171740Z AUTO 05012KT CLR A3016 M M M 040/12 RMK AO2 PWINO FZRANO PNO $
14926KSTC STC20030717114510007/17/03 11:45:31  5-MIN KSTC 171745Z AUTO 04011KT CLR A3016 M M M 040/11 RMK AO2 PWINO FZRANO PNO $
14926KSTC STC20030717115011807/17/03 11:50:31  5-MIN KSTC 171750Z AUTO 05012KT CLR A3016 M M M 050/12 RMK AO2 SLPNO 6//// 51016 PWINO FZRANO PNO $
14926KSTC STC20030717115510007/17/03 11:55:31  5-MIN KSTC 171755Z AUTO 05010KT CLR A3016 M M M 050/10 RMK AO2 PWINO FZRANO PNO $
14926KSTC STC20030717120010007/17/03 12:00:31  5-MIN KSTC 171800Z AUTO 05008KT CLR A3016 M M M 050/08 RMK AO2 PWINO FZRANO PNO $
14926KSTC STC20030717120510007/17/03 12:05:31  5-MIN KSTC 171805Z AUTO 05010KT CLR A3016 M M M 050/10 RMK AO2 PWINO FZRANO PNO $
14926KSTC STC20030717121010007/17/03 12:10:31  5-MIN KSTC 171810Z AUTO 06009KT CLR A3016 M M M 060/09 RMK AO2 PWINO FZRANO PNO $
14926KSTC STC20030717121509607/17/03 12:15:31  5-MIN KSTC 171815Z AUTO 06010KT A3016 M M M 050/10 RMK AO2 PWINO FZRANO PNO $
14926KSTC STC20030717122008607/17/03 12:20:31  5-MIN KSTC 171820Z AUTO 05010KT M M M 050/10 RMK AO2 PWINO FZRANO $
14926KSTC STC20030717122509707/17/03 12:25:31  5-MIN KSTC 171825Z AUTO 07009KT 24/16 A3015 810 61 2100 070/09 RMK AO2 PWINO $
14926KSTC STC20030717123009707/17/03 12:30:31  5-MIN KSTC 171830Z AUTO 06011KT 24/16 A3015 810 61 2100 060/11 RMK AO2 PWINO $
14926KSTC STC20030717123509707/17/03 12:35:31  5-MIN KSTC 171835Z AUTO 06009KT 24/16 A3015 810 61 2100 060/09 RMK AO2 PWINO $
14926KSTC STC20030717124009707/17/03 12:40:31  5-MIN KSTC 171840Z AUTO 07009KT 23/16 A3015 820 63 2000 070/09 RMK AO2 PWINO $
14926KSTC STC20030717124509707/17/03 12:45:31  5-MIN KSTC 171845Z AUTO 08010KT 23/16 A3014 820 63 2000 070/10 RMK AO2 PWINO $
14926KSTC STC20030717125011407/17/03 12:50:31  5-MIN KSTC 171850Z AUTO 07012KT 23/16 A3014 830 65 2000 070/12 RMK AO2 SLP209 T02280161 PWINO $
14926KSTC STC20030717125509707/17/03 12:55:31  5-MIN KSTC 171855Z AUTO 06009KT 23/16 A3013 830 65 2000 060/09 RMK AO2 PWINO $
14926KSTC STC20030717130010407/17/03 13:00:31  5-MIN KSTC 171900Z AUTO 08012KT 22/16 A3010 860 68 1900 070/12 RMK AO2 PRESFR PWINO $
14926KSTC STC20030717130508707/17/03 13:05:31  5-MIN KSTC 171905Z AUTO 22/16 A3010 860 68 1900 M /M RMK AO2 PWINO $
14926KSTC STC20030717131008707/17/03 13:10:31  5-MIN KSTC 171910Z AUTO 22/16 A3011 850 68 1900 M /M RMK AO2 PWINO $
14926KSTC STC20030717131508707/17/03 13:15:31  5-MIN KSTC 171915Z AUTO 22/16 A3011 850 65 1900 M /M RMK AO2 PWINO $
14926KSTC STC20030717132009407/17/03 13:20:31  5-MIN KSTC 171920Z AUTO 22/16 A3012 840 65 1900 M /M RMK AO2 PRESRR PWINO $
14926KSTC STC20030717132511707/17/03 13:25:31  5-MIN KSTC 171925Z AUTO VRB06G76KT SQ CLR 22/16 A3014 830 65 1900 VRB/06G76 RMK AO2 PRESRR PWINO $
14926KSTC STC20030717133010807/17/03 13:30:31  5-MIN KSTC 171930Z AUTO 08008KT CLR 22/16 A3014 820 68 1900 070/08 RMK AO2 PRESRR PWINO $
14926KSTC STC20030717133510107/17/03 13:35:31  5-MIN KSTC 171935Z AUTO 09007KT CLR 22/16 A3014 820 68 1900 090/07 RMK AO2 PWINO $
14926KSTC STC20030717134010107/17/03 13:40:31  5-MIN KSTC 171940Z AUTO 06009KT CLR 23/16 A3015 820 65 1900 060/09 RMK AO2 PWINO $
14926KSTC STC20030717134510107/17/03 13:45:31  5-MIN KSTC 171945Z AUTO 08009KT CLR 23/16 A3015 820 63 1900 080/09 RMK AO2 PWINO $
14926KSTC STC20030717135011807/17/03 13:50:31  5-MIN KSTC 171950Z AUTO 09008KT CLR 22/16 A3014 830 65 1900 090/08 RMK AO2 SLP210 T02220156 PWINO $
14926KSTC STC20030717135510107/17/03 13:55:31  5-MIN KSTC 171955Z AUTO 09008KT CLR 22/16 A3014 820 68 1900 090/08 RMK AO2 PWINO $
14926KSTC STC20030717140010107/17/03 14:00:31  5-MIN KSTC 172000Z AUTO 08007KT CLR 22/16 A3015 810 65 1900 080/07 RMK AO2 PWINO $
14926KSTC STC20030717140509507/17/03 14:05:31  5-MIN KSTC 172005Z AUTO 04007KT CLR 22/16 A3015 810 65 1900 040/07 RMK AO2 $
14926KSTC STC20030717141009507/17/03 14:10:31  5-MIN KSTC 172010Z AUTO 05008KT CLR 22/16 A3015 810 65 1900 050/08 RMK AO2 $
14926KSTC STC20030717141509507/17/03 14:15:31  5-MIN KSTC 172015Z AUTO 04006KT CLR 22/16 A3016 810 65 1900 040/06 RMK AO2 $
14926KSTC STC20030717142009507/17/03 14:20:31  5-MIN KSTC 172020Z AUTO VRB04KT CLR 22/16 A3016 810 65 1900 VRB/04 RMK AO2 $
14926KSTC STC20030717142509507/17/03 14:25:31  5-MIN KSTC 172025Z AUTO 05004KT CLR 22/16 A3015 810 68 1800 050/04 RMK AO2 $
14926KSTC STC20030717143009507/17/03 14:30:31  5-MIN KSTC 172030Z AUTO 06005KT CLR 22/16 A3015 810 68 1900 060/05 RMK AO2 $
14926KSTC STC20030717143509507/17/03 14:35:31  5-MIN KSTC 172035Z AUTO 04005KT CLR 22/16 A3016 810 68 1900 030/05 RMK AO2 $
14926KSTC STC20030717144009307/17/03 14:40:31  5-MIN KSTC 172040Z AUTO 07006KT CLR 22/16 A3015 810 68 1900 060/06 RMK AO2
14926KSTC STC20030717144509307/17/03 14:45:31  5-MIN KSTC 172045Z AUTO 07007KT CLR 23/16 A3015 820 65 1900 070/07 RMK AO2
14926KSTC STC20030717145011807/17/03 14:50:31  5-MIN KSTC 172050Z AUTO 06007KT CLR 23/16 A3015 810 63 2000 060/07 RMK AO2 SLP214 6//// T02330161 $
14926KSTC STC20030717145509507/17/03 14:55:31  5-MIN KSTC 172055Z AUTO 05009KT CLR 23/16 A3015 810 63 2000 040/09 RMK AO2 $
14926KSTC STC20030717150009507/17/03 15:00:31  5-MIN KSTC 172100Z AUTO 05008KT CLR 23/16 A3015 810 61 2000 040/08 RMK AO2 $
14926KSTC STC20030717150509507/17/03 15:05:31  5-MIN KSTC 172105Z AUTO 08008KT CLR 23/16 A3015 810 63 1900 080/08 RMK AO2 $
14926KSTC STC20030717151009307/17/03 15:10:31  5-MIN KSTC 172110Z AUTO 04008KT CLR 23/16 A3016 810 63 1900 030/08 RMK AO2
14926KSTC STC20030717151509307/17/03 15:15:31  5-MIN KSTC 172115Z AUTO 05007KT CLR 23/16 A3016 800 61 2000 050/07 RMK AO2
14926KSTC STC20030717152009807/17/03 15:20:31  5-MIN KSTC 172120Z AUTO 06008KT 10SM CLR 23/16 A3017 800 63 1900 060/08 RMK AO2
14926KSTC STC20030717152509807/17/03 15:25:31  5-MIN KSTC 172125Z AUTO 07004KT 10SM CLR 23/16 A3017 790 63 1900 070/04 RMK AO2
14926KSTC STC20030717153009807/17/03 15:30:31  5-MIN KSTC 172130Z AUTO 07007KT 10SM CLR 23/16 A3017 790 63 1900 070/07 RMK AO2
14926KSTC STC20030717153509807/17/03 15:35:31  5-MIN KSTC 172135Z AUTO 06006KT 10SM CLR 22/15 A3017 790 63 1900 060/06 RMK AO2
14926KSTC STC20030717154009807/17/03 15:40:31  5-MIN KSTC 172140Z AUTO 06005KT 10SM CLR 23/16 A3017 800 63 1900 060/05 RMK AO2
14926KSTC STC20030717154509807/17/03 15:45:31  5-MIN KSTC 172145Z AUTO 06007KT 10SM CLR 23/16 A3016 800 63 1900 060/07 RMK AO2
14926KSTC STC20030717155011507/17/03 15:50:31  5-MIN KSTC 172150Z AUTO 06006KT 10SM CLR 23/16 A3017 800 63 1900 050/06 RMK AO2 SLP220 T02280156
14926KSTC STC20030717155509807/17/03 15:55:31  5-MIN KSTC 172155Z AUTO 06006KT 10SM CLR 22/16 A3017 800 65 1900 050/06 RMK AO2
14926KSTC STC20030717160009807/17/03 16:00:31  5-MIN KSTC 172200Z AUTO 07006KT 10SM CLR 22/16 A3017 800 65 1900 060/06 RMK AO2
14926KSTC STC20030717160509807/17/03 16:05:31  5-MIN KSTC 172205Z AUTO 06004KT 10SM CLR 22/16 A3017 800 68 1900 050/04 RMK AO2
14926KSTC STC20030717161009807/17/03 16:10:31  5-MIN KSTC 172210Z AUTO 07005KT 10SM CLR 22/16 A3016 800 68 1900 070/05 RMK AO2
14926KSTC STC20030717161509807/17/03 16:15:31  5-MIN KSTC 172215Z AUTO 07005KT 10SM CLR 22/16 A3016 800 68 1900 070/05 RMK AO2
14926KSTC STC20030717162009807/17/03 16:20:31  5-MIN KSTC 172220Z AUTO 06006KT 10SM CLR 22/16 A3016 800 68 1900 060/06 RMK AO2
14926KSTC STC20030717162509807/17/03 16:25:31  5-MIN KSTC 172225Z AUTO VRB05KT 10SM CLR 22/16 A3016 800 68 1900 VRB/05 RMK AO2
14926KSTC STC20030717163009807/17/03 16:30:31  5-MIN KSTC 172230Z AUTO 04006KT 10SM CLR 22/16 A3017 800 68 1900 040/06 RMK AO2
14926KSTC STC20030717163509807/17/03 16:35:31  5-MIN KSTC 172235Z AUTO 05007KT 10SM CLR 22/16 A3016 800 68 1900 040/07 RMK AO2
14926KSTC STC20030717164009807/17/03 16:40:31  5-MIN KSTC 172240Z AUTO 05008KT 10SM CLR 22/16 A3016 800 70 1800 040/08 RMK AO2
14926KSTC STC20030717164509807/17/03 16:45:31  5-MIN KSTC 172245Z AUTO 05008KT 10SM CLR 22/16 A3016 800 70 1800 040/08 RMK AO2
14926KSTC STC20030717165011507/17/03 16:50:31  5-MIN KSTC 172250Z AUTO 05008KT 10SM CLR 22/16 A3016 800 70 1800 050/08 RMK AO2 SLP219 T02170161
14926KSTC STC20030717165509807/17/03 16:55:31  5-MIN KSTC 172255Z AUTO 05008KT 10SM CLR 22/16 A3016 810 70 1800 050/08 RMK AO2
14926KSTC STC20030717170009807/17/03 17:00:31  5-MIN KSTC 172300Z AUTO 07007KT 10SM CLR 22/16 A3015 810 70 1800 060/07 RMK AO2
14926KSTC STC20030717170509807/17/03 17:05:31  5-MIN KSTC 172305Z AUTO 06007KT 10SM CLR 22/16 A3015 810 70 1800 050/07 RMK AO2
14926KSTC STC20030717171011407/17/03 17:10:31  5-MIN KSTC 172310Z AUTO 05007KT 020V100 10SM CLR 22/17 A3015 820 70 1900 050/07 020V100 RMK AO2
14926KSTC STC20030717171509807/17/03 17:15:31  5-MIN KSTC 172315Z AUTO 07006KT 10SM CLR 22/16 A3014 820 70 1800 070/06 RMK AO2
14926KSTC STC20030717172009807/17/03 17:20:31  5-MIN KSTC 172320Z AUTO 06007KT 10SM CLR 22/16 A3014 820 70 1800 050/07 RMK AO2
14926KSTC STC20030717172509807/17/03 17:25:31  5-MIN KSTC 172325Z AUTO 05006KT 10SM CLR 22/17 A3014 820 73 1800 050/06 RMK AO2
14926KSTC STC20030717173009807/17/03 17:30:31  5-MIN KSTC 172330Z AUTO 05006KT 10SM CLR 22/16 A3014 830 70 1800 050/06 RMK AO2
14926KSTC STC20030717173509807/17/03 17:35:31  5-MIN KSTC 172335Z AUTO 05006KT 10SM CLR 22/16 A3014 820 70 1800 050/06 RMK AO2
14926KSTC STC20030717174009807/17/03 17:40:31  5-MIN KSTC 172340Z AUTO 05007KT 10SM CLR 22/16 A3015 820 70 1800 050/07 RMK AO2
14926KSTC STC20030717174509807/17/03 17:45:31  5-MIN KSTC 172345Z AUTO 06006KT 10SM CLR 22/16 A3015 820 70 1800 060/06 RMK AO2
14926KSTC STC20030717175013307/17/03 17:50:31  5-MIN KSTC 172350Z AUTO 06005KT 10SM CLR 22/16 A3015 820 70 1800 060/05 RMK AO2 SLP213 6//// T02170161 10244 20217
14926KSTC STC20030717175509807/17/03 17:55:31  5-MIN KSTC 172355Z AUTO 05005KT 10SM CLR 22/16 A3015 820 70 1800 050/05 RMK AO2
14926KSTC STC20030717180009807/17/03 18:00:31  5-MIN KSTC 180000Z AUTO 05004KT 10SM CLR 22/16 A3015 820 70 1800 050/04 RMK AO2
14926KSTC STC20030717180509807/17/03 18:05:31  5-MIN KSTC 180005Z AUTO 04005KT 10SM CLR 22/17 A3015 820 73 1800 030/05 RMK AO2
14926KSTC STC20030717181009807/17/03 18:10:31  5-MIN KSTC 180010Z AUTO 05003KT 10SM CLR 22/17 A3014 820 73 1800 050/03 RMK AO2
14926KSTC STC20030717181509807/17/03 18:15:31  5-MIN KSTC 180015Z AUTO 06003KT 10SM CLR 22/17 A3014 820 73 1800 060/03 RMK AO2
14926KSTC STC20030717182009807/17/03 18:20:31  5-MIN KSTC 180020Z AUTO 06003KT 10SM CLR 22/17 A3014 820 73 1800 060/03 RMK AO2
14926KSTC STC20030717182509807/17/03 18:25:31  5-MIN KSTC 180025Z AUTO 06005KT 10SM CLR 22/17 A3014 830 73 1800 060/05 RMK AO2
14926KSTC STC20030717183009807/17/03 18:30:31  5-MIN KSTC 180030Z AUTO VRB04KT 10SM CLR 21/17 A3014 830 75 1800 VRB/04 RMK AO2
14926KSTC STC20030717183509807/17/03 18:35:31  5-MIN KSTC 180035Z AUTO 06006KT 10SM CLR 21/17 A3014 820 75 1800 060/06 RMK AO2
14926KSTC STC20030717184009807/17/03 18:40:31  5-MIN KSTC 180040Z AUTO 06007KT 10SM CLR 21/16 A3014 820 73 1800 060/07 RMK AO2
14926KSTC STC20030717184509807/17/03 18:45:31  5-MIN KSTC 180045Z AUTO 08005KT 10SM CLR 21/16 A3013 830 73 1800 080/05 RMK AO2
14926KSTC STC20030717185011507/17/03 18:50:31  5-MIN KSTC 180050Z AUTO 05006KT 10SM CLR 21/16 A3014 830 75 1700 050/06 RMK AO2 SLP210 T02060161
14926KSTC STC20030717185509807/17/03 18:55:31  5-MIN KSTC 180055Z AUTO 04005KT 10SM CLR 21/16 A3014 830 75 1700 040/05 RMK AO2
14926KSTC STC20030717190009807/17/03 19:00:31  5-MIN KSTC 180100Z AUTO 05007KT 10SM CLR 21/16 A3014 830 73 1700 040/07 RMK AO2
14926KSTC STC20030717190509807/17/03 19:05:31  5-MIN KSTC 180105Z AUTO 06006KT 10SM CLR 21/16 A3014 830 73 1700 050/06 RMK AO2
14926KSTC STC20030717191009807/17/03 19:10:31  5-MIN KSTC 180110Z AUTO 05006KT 10SM CLR 20/16 A3014 830 75 1600 050/06 RMK AO2
14926KSTC STC20030717191509807/17/03 19:15:31  5-MIN KSTC 180115Z AUTO 06004KT 10SM CLR 20/16 A3014 830 75 1600 050/04 RMK AO2
14926KSTC STC20030717192009807/17/03 19:20:31  5-MIN KSTC 180120Z AUTO 05005KT 10SM CLR 20/16 A3014 830 75 1600 040/05 RMK AO2
14926KSTC STC20030717192509807/17/03 19:25:31  5-MIN KSTC 180125Z AUTO 05007KT 10SM CLR 20/16 A3014 830 75 1600 040/07 RMK AO2
14926KSTC STC20030717193009807/17/03 19:30:31  5-MIN KSTC 180130Z AUTO 05006KT 10SM CLR 19/16 A3014 830 78 1600 050/06 RMK AO2
14926KSTC STC20030717193509807/17/03 19:35:31  5-MIN KSTC 180135Z AUTO 04005KT 10SM CLR 19/16 A3014 820 78 1600 040/05 RMK AO2
14926KSTC STC20030717194009807/17/03 19:40:31  5-MIN KSTC 180140Z AUTO 05007KT 10SM CLR 19/16 A3013 830 78 1600 040/07 RMK AO2
14926KSTC STC20030717194509807/17/03 19:45:31  5-MIN KSTC 180145Z AUTO 04007KT 10SM CLR 19/16 A3014 830 81 1500 040/07 RMK AO2
14926KSTC STC20030717195011507/17/03 19:50:31  5-MIN KSTC 180150Z AUTO 04006KT 10SM CLR 19/16 A3014 820 81 1500 040/06 RMK AO2 SLP212 T01890156
14926KSTC STC20030717195509807/17/03 19:55:31  5-MIN KSTC 180155Z AUTO 04006KT 10SM CLR 19/16 A3014 830 81 1500 040/06 RMK AO2
14926KSTC STC20030717200009807/17/03 20:00:31  5-MIN KSTC 180200Z AUTO 05007KT 10SM CLR 19/16 A3014 830 81 1500 040/07 RMK AO2
14926KSTC STC20030717200509807/17/03 20:05:31  5-MIN KSTC 180205Z AUTO 04007KT 10SM CLR 19/15 A3014 830 78 1500 040/07 RMK AO2
14926KSTC STC20030717201009807/17/03 20:10:31  5-MIN KSTC 180210Z AUTO 05005KT 10SM CLR 18/15 A3014 830 81 1400 050/05 RMK AO2
14926KSTC STC20030717201509807/17/03 20:15:31  5-MIN KSTC 180215Z AUTO 05006KT 10SM CLR 18/15 A3014 830 81 1400 050/06 RMK AO2
14926KSTC STC20030717202009807/17/03 20:20:31  5-MIN KSTC 180220Z AUTO 06007KT 10SM CLR 18/15 A3013 830 81 1500 050/07 RMK AO2
14926KSTC STC20030717202509807/17/03 20:25:31  5-MIN KSTC 180225Z AUTO 06008KT 10SM CLR 18/14 A3014 830 78 1400 060/08 RMK AO2
14926KSTC STC20030717203009807/17/03 20:30:31  5-MIN KSTC 180230Z AUTO 06008KT 10SM CLR 18/14 A3014 830 75 1400 060/08 RMK AO2
14926KSTC STC20030717203509807/17/03 20:35:31  5-MIN KSTC 180235Z AUTO 06007KT 10SM CLR 18/14 A3014 820 75 1400 060/07 RMK AO2
14926KSTC STC20030717204009807/17/03 20:40:31  5-MIN KSTC 180240Z AUTO 06008KT 10SM CLR 18/14 A3014 830 78 1400 060/08 RMK AO2
14926KSTC STC20030717204509807/17/03 20:45:31  5-MIN KSTC 180245Z AUTO 07007KT 10SM CLR 18/13 A3014 830 75 1400 060/07 RMK AO2
14926KSTC STC20030717205012107/17/03 20:50:31  5-MIN KSTC 180250Z AUTO 07008KT 10SM CLR 18/13 A3014 820 75 1400 060/08 RMK AO2 SLP213 T01780133 58001
14926KSTC STC20030717205509807/17/03 20:55:31  5-MIN KSTC 180255Z AUTO 06008KT 10SM CLR 18/13 A3015 820 75 1400 060/08 RMK AO2
14926KSTC STC20030717210009807/17/03 21:00:31  5-MIN KSTC 180300Z AUTO 06006KT 10SM CLR 18/13 A3014 820 75 1400 060/06 RMK AO2
14926KSTC STC20030717210509807/17/03 21:05:31  5-MIN KSTC 180305Z AUTO 06007KT 10SM CLR 18/13 A3014 820 75 1400 060/07 RMK AO2
14926KSTC STC20030717211009807/17/03 21:10:31  5-MIN KSTC 180310Z AUTO 07006KT 10SM CLR 17/13 A3015 820 78 1300 060/06 RMK AO2
14926KSTC STC20030717211509807/17/03 21:15:31  5-MIN KSTC 180315Z AUTO 06005KT 10SM CLR 17/13 A3015 820 78 1300 060/05 RMK AO2
14926KSTC STC20030717212009807/17/03 21:20:31  5-MIN KSTC 180320Z AUTO 06007KT 10SM CLR 17/13 A3015 820 78 1300 050/07 RMK AO2
14926KSTC STC20030717212509807/17/03 21:25:31  5-MIN KSTC 180325Z AUTO 06006KT 10SM CLR 17/13 A3015 820 78 1300 050/06 RMK AO2
14926KSTC STC20030717213009807/17/03 21:30:31  5-MIN KSTC 180330Z AUTO 06008KT 10SM CLR 17/13 A3015 820 78 1300 060/08 RMK AO2
14926KSTC STC20030717213509807/17/03 21:35:31  5-MIN KSTC 180335Z AUTO 06007KT 10SM CLR 17/13 A3015 810 78 1300 060/07 RMK AO2
14926KSTC STC20030717214009807/17/03 21:40:31  5-MIN KSTC 180340Z AUTO 05006KT 10SM CLR 17/13 A3015 810 77 1200 050/06 RMK AO2
14926KSTC STC20030717214509807/17/03 21:45:31  5-MIN KSTC 180345Z AUTO 06007KT 10SM CLR 17/13 A3015 810 77 1200 060/07 RMK AO2
14926KSTC STC20030717215011407/17/03 21:50:31  5-MIN KSTC 180350Z AUTO 06006KT 10SM CLR 17/13 A3015 810 77 1200 050/06 RMK AO2 SLPNO T01670128
14926KSTC STC20030717215509807/17/03 21:55:31  5-MIN KSTC 180355Z AUTO 06006KT 10SM CLR 17/13 A3015 810 77 1200 060/06 RMK AO2
14926KSTC STC20030717220009807/17/03 22:00:31  5-MIN KSTC 180400Z AUTO 06006KT 10SM CLR 17/13 A3015 810 77 1200 060/06 RMK AO2
14926KSTC STC20030717220509807/17/03 22:05:31  5-MIN KSTC 180405Z AUTO VRB04KT 10SM CLR 17/13 A3015 810 77 1200 VRB/04 RMK AO2
14926KSTC STC20030717221009807/17/03 22:10:31  5-MIN KSTC 180410Z AUTO 07005KT 10SM CLR 17/13 A3016 810 77 1200 070/05 RMK AO2
14926KSTC STC20030717221509807/17/03 22:15:31  5-MIN KSTC 180415Z AUTO 07005KT 10SM CLR 17/12 A3016 810 75 1200 070/05 RMK AO2
14926KSTC STC20030717222009807/17/03 22:20:31  5-MIN KSTC 180420Z AUTO 07005KT 10SM CLR 17/12 A3016 810 75 1200 070/05 RMK AO2
14926KSTC STC20030717222509807/17/03 22:25:31  5-MIN KSTC 180425Z AUTO 07005KT 10SM CLR 16/12 A3016 810 77 1200 070/05 RMK AO2
14926KSTC STC20030717223009807/17/03 22:30:31  5-MIN KSTC 180430Z AUTO 06004KT 10SM CLR 16/12 A3016 810 77 1200 060/04 RMK AO2
14926KSTC STC20030717223509807/17/03 22:35:31  5-MIN KSTC 180435Z AUTO 08004KT 10SM CLR 16/13 A3015 810 80 1200 080/04 RMK AO2
14926KSTC STC20030717224009807/17/03 22:40:31  5-MIN KSTC 180440Z AUTO 07004KT 10SM CLR 16/13 A3015 810 80 1200 060/04 RMK AO2
14926KSTC STC20030717224509807/17/03 22:45:31  5-MIN KSTC 180445Z AUTO 07005KT 10SM CLR 16/12 A3016 810 80 1100 070/05 RMK AO2
14926KSTC STC20030717225011407/17/03 22:50:31  5-MIN KSTC 180450Z AUTO VRB04KT 10SM CLR 16/12 A3015 810 80 1100 VRB/04 RMK AO2 SLPNO T01560122
14926KSTC STC20030717225509807/17/03 22:55:31  5-MIN KSTC 180455Z AUTO VRB03KT 10SM CLR 16/12 A3015 810 80 1100 VRB/03 RMK AO2
14926KSTC STC20030717230009807/17/03 23:00:31  5-MIN KSTC 180500Z AUTO VRB03KT 10SM CLR 16/12 A3015 810 80 1100 VRB/03 RMK AO2
14926KSTC STC20030717230509807/17/03 23:05:31  5-MIN KSTC 180505Z AUTO 00000KT 10SM CLR 15/12 A3015 810 83 1000 000/00 RMK AO2
14926KSTC STC20030717231009807/17/03 23:10:31  5-MIN KSTC 180510Z AUTO 00000KT 10SM CLR 15/12 A3015 810 83 1000 000/00 RMK AO2
14926KSTC STC20030717231509807/17/03 23:15:31  5-MIN KSTC 180515Z AUTO 00000KT 10SM CLR 15/12 A3015 810 80 1000 000/00 RMK AO2
14926KSTC STC20030717232009807/17/03 23:20:31  5-MIN KSTC 180520Z AUTO 06003KT 10SM CLR 15/12 A3016 810 80 1000 060/03 RMK AO2
14926KSTC STC20030717232509807/17/03 23:25:31  5-MIN KSTC 180525Z AUTO 06003KT 10SM CLR 15/12 A3016 810 80 1000 060/03 RMK AO2
14926KSTC STC20030717233009807/17/03 23:30:31  5-MIN KSTC 180530Z AUTO 06004KT 10SM CLR 14/12 A3016 810 83 1000 060/04 RMK AO2
14926KSTC STC20030717233509807/17/03 23:35:31  5-MIN KSTC 180535Z AUTO 07004KT 10SM CLR 14/12 A3016 810 83 1000 060/04 RMK AO2
14926KSTC STC20030717234009807/17/03 23:40:31  5-MIN KSTC 180540Z AUTO 07003KT 10SM CLR 14/12 A3016 810 83 1000 060/03 RMK AO2
14926KSTC STC20030717234509807/17/03 23:45:31  5-MIN KSTC 180545Z AUTO 06005KT 10SM CLR 14/12 A3016 810 83 1000 060/05 RMK AO2
14926KSTC STC20030717235014207/17/03 23:50:31  5-MIN KSTC 180550Z AUTO 07004KT 10SM CLR 14/12 A3016 810 83 1000 060/04 RMK AO2 SLPNO T01440117 10217 20144 402440144 55000
14926KSTC STC20030717235509807/17/03 23:55:31  5-MIN KSTC 180555Z AUTO 06004KT 10SM CLR 14/12 A3016 810 83 1000 060/04 RMK AO2
14926KSTC STC20030718000009807/18/03 00:00:31  5-MIN KSTC 180600Z AUTO 06004KT 10SM CLR 14/12 A3016 810 83 1000 060/04 RMK AO2
14926KSTC STC20030718000509807/18/03 00:05:31  5-MIN KSTC 180605Z AUTO 06004KT 10SM CLR 14/11 A3016 800 80 1000 060/04 RMK AO2
14926KSTC STC20030718001009707/18/03 00:10:31  5-MIN KSTC 180610Z AUTO 06005KT 10SM CLR 14/11 A3016 810 83 900 060/05 RMK AO2
14926KSTC STC20030718001509807/18/03 00:15:31  5-MIN KSTC 180615Z AUTO 07004KT 10SM CLR 14/11 A3016 810 80 1000 070/04 RMK AO2
14926KSTC STC20030718002009807/18/03 00:20:31  5-MIN KSTC 180620Z AUTO 07004KT 10SM CLR 14/11 A3016 810 77 1000 070/04 RMK AO2
14926KSTC STC20030718002509807/18/03 00:25:31  5-MIN KSTC 180625Z AUTO 07005KT 10SM CLR 14/11 A3016 810 77 1000 060/05 RMK AO2
14926KSTC STC20030718003009707/18/03 00:30:31  5-MIN KSTC 180630Z AUTO 07005KT 10SM CLR 14/11 A3016 810 80 900 070/05 RMK AO2
14926KSTC STC20030718003509807/18/03 00:35:31  5-MIN KSTC 180635Z AUTO 06005KT 10SM CLR 14/11 A3016 810 77 1000 060/05 RMK AO2
14926KSTC STC20030718004009707/18/03 00:40:31  5-MIN KSTC 180640Z AUTO 07005KT 10SM CLR 14/10 A3015 810 77 900 060/05 RMK AO2
14926KSTC STC20030718004509707/18/03 00:45:31  5-MIN KSTC 180645Z AUTO 07004KT 10SM CLR 14/10 A3016 810 77 900 070/04 RMK AO2
14926KSTC STC20030718005011507/18/03 00:50:31  5-MIN KSTC 180650Z AUTO 07006KT 10SM CLR 14/10 A3015 810 74 1000 070/06 RMK AO2 SLP218 T01440100
14926KSTC STC20030718005509707/18/03 00:55:31  5-MIN KSTC 180655Z AUTO 07006KT 10SM CLR 14/10 A3015 810 77 900 070/06 RMK AO2
14926KSTC STC20030718010009707/18/03 01:00:31  5-MIN KSTC 180700Z AUTO 07005KT 10SM CLR 14/09 A3015 810 74 900 070/05 RMK AO2
14926KSTC STC20030718010509707/18/03 01:05:31  5-MIN KSTC 180705Z AUTO 08005KT 10SM CLR 14/09 A3016 810 74 900 070/05 RMK AO2
14926KSTC STC20030718011009707/18/03 01:10:31  5-MIN KSTC 180710Z AUTO 08005KT 10SM CLR 14/09 A3016 810 74 900 070/05 RMK AO2
14926KSTC STC20030718011509707/18/03 01:15:31  5-MIN KSTC 180715Z AUTO 07006KT 10SM CLR 14/09 A3015 810 74 900 070/06 RMK AO2
14926KSTC STC20030718012009707/18/03 01:20:31  5-MIN KSTC 180720Z AUTO 07006KT 10SM CLR 14/09 A3015 810 74 900 070/06 RMK AO2
14926KSTC STC20030718012509707/18/03 01:25:31  5-MIN KSTC 180725Z AUTO 07005KT 10SM CLR 14/09 A3015 810 74 900 070/05 RMK AO2
14926KSTC STC20030718013009707/18/03 01:30:31  5-MIN KSTC 180730Z AUTO 07005KT 10SM CLR 14/09 A3015 810 74 900 060/05 RMK AO2
14926KSTC STC20030718013509707/18/03 01:35:31  5-MIN KSTC 180735Z AUTO 07005KT 10SM CLR 14/09 A3015 810 74 900 070/05 RMK AO2
14926KSTC STC20030718014009707/18/03 01:40:31  5-MIN KSTC 180740Z AUTO 08006KT 10SM CLR 14/09 A3015 820 74 900 070/06 RMK AO2
14926KSTC STC20030718014509707/18/03 01:45:31  5-MIN KSTC 180745Z AUTO 07006KT 10SM CLR 14/09 A3015 820 74 900 070/06 RMK AO2
14926KSTC STC20030718015011407/18/03 01:50:31  5-MIN KSTC 180750Z AUTO 07006KT 10SM CLR 14/09 A3015 820 74 900 070/06 RMK AO2 SLP215 T01390094
14926KSTC STC20030718015509707/18/03 01:55:31  5-MIN KSTC 180755Z AUTO 07006KT 10SM CLR 13/09 A3015 820 77 900 070/06 RMK AO2
14926KSTC STC20030718020009707/18/03 02:00:31  5-MIN KSTC 180800Z AUTO 07005KT 10SM CLR 13/09 A3015 820 77 800 070/05 RMK AO2
14926KSTC STC20030718020509707/18/03 02:05:31  5-MIN KSTC 180805Z AUTO 07005KT 10SM CLR 13/09 A3015 820 77 800 070/05 RMK AO2
14926KSTC STC20030718021009707/18/03 02:10:31  5-MIN KSTC 180810Z AUTO 08005KT 10SM CLR 13/09 A3015 810 77 800 080/05 RMK AO2
14926KSTC STC20030718021509707/18/03 02:15:31  5-MIN KSTC 180815Z AUTO 07004KT 10SM CLR 13/09 A3015 810 74 800 070/04 RMK AO2
14926KSTC STC20030718022009707/18/03 02:20:31  5-MIN KSTC 180820Z AUTO 07004KT 10SM CLR 13/09 A3015 810 74 800 070/04 RMK AO2
14926KSTC STC20030718022509707/18/03 02:25:31  5-MIN KSTC 180825Z AUTO 07005KT 10SM CLR 13/09 A3015 810 80 800 060/05 RMK AO2
14926KSTC STC20030718023009707/18/03 02:30:31  5-MIN KSTC 180830Z AUTO 06005KT 10SM CLR 13/09 A3016 810 80 800 060/05 RMK AO2
14926KSTC STC20030718023509707/18/03 02:35:31  5-MIN KSTC 180835Z AUTO 06004KT 10SM CLR 13/09 A3016 810 77 800 050/04 RMK AO2
14926KSTC STC20030718024009707/18/03 02:40:31  5-MIN KSTC 180840Z AUTO 04003KT 10SM CLR 13/09 A3016 810 74 800 040/03 RMK AO2
14926KSTC STC20030718024509707/18/03 02:45:31  5-MIN KSTC 180845Z AUTO 05003KT 10SM CLR 13/09 A3016 810 77 800 050/03 RMK AO2
14926KSTC STC20030718025012007/18/03 02:50:31  5-MIN KSTC 180850Z AUTO 00000KT 10SM CLR 13/09 A3016 810 77 800 000/00 RMK AO2 SLP219 T01280089 51003
14926KSTC STC20030718025509707/18/03 02:55:31  5-MIN KSTC 180855Z AUTO 05004KT 10SM CLR 13/09 A3016 810 77 800 050/04 RMK AO2
14926KSTC STC20030718030009707/18/03 03:00:31  5-MIN KSTC 180900Z AUTO 05004KT 10SM CLR 13/09 A3016 800 77 800 050/04 RMK AO2
14926KSTC STC20030718030509707/18/03 03:05:31  5-MIN KSTC 180905Z AUTO 06004KT 10SM CLR 12/09 A3016 810 80 700 050/04 RMK AO2
14926KSTC STC20030718031009707/18/03 03:10:31  5-MIN KSTC 180910Z AUTO 05004KT 10SM CLR 12/09 A3016 800 80 700 050/04 RMK AO2
14926KSTC STC20030718031509707/18/03 03:15:31  5-MIN KSTC 180915Z AUTO 06005KT 10SM CLR 12/09 A3016 810 80 700 060/05 RMK AO2
14926KSTC STC20030718032009707/18/03 03:20:31  5-MIN KSTC 180920Z AUTO 05004KT 10SM CLR 12/09 A3017 800 80 700 050/04 RMK AO2
14926KSTC STC20030718032509707/18/03 03:25:31  5-MIN KSTC 180925Z AUTO 05004KT 10SM CLR 12/09 A3017 800 80 700 050/04 RMK AO2
14926KSTC STC20030718033009707/18/03 03:30:31  5-MIN KSTC 180930Z AUTO 06004KT 10SM CLR 12/09 A3016 800 80 700 050/04 RMK AO2
14926KSTC STC20030718033509707/18/03 03:35:31  5-MIN KSTC 180935Z AUTO 05004KT 10SM CLR 12/09 A3016 800 80 700 050/04 RMK AO2
14926KSTC STC20030718034009707/18/03 03:40:31  5-MIN KSTC 180940Z AUTO 06003KT 10SM CLR 12/09 A3016 800 80 700 050/03 RMK AO2
14926KSTC STC20030718034509707/18/03 03:45:31  5-MIN KSTC 180945Z AUTO 05003KT 10SM CLR 12/09 A3016 800 80 700 050/03 RMK AO2
14926KSTC STC20030718035011407/18/03 03:50:31  5-MIN KSTC 180950Z AUTO 05003KT 10SM CLR 12/09 A3016 800 80 700 050/03 RMK AO2 SLP222 T01220089
14926KSTC STC20030718035509707/18/03 03:55:31  5-MIN KSTC 180955Z AUTO 05003KT 10SM CLR 12/09 A3016 800 80 700 050/03 RMK AO2
14926KSTC STC20030718040009707/18/03 04:00:31  5-MIN KSTC 181000Z AUTO 06003KT 10SM CLR 12/09 A3016 800 80 700 060/03 RMK AO2
14926KSTC STC20030718040509707/18/03 04:05:31  5-MIN KSTC 181005Z AUTO 06003KT 10SM CLR 12/09 A3016 810 80 700 060/03 RMK AO2
14926KSTC STC20030718041009707/18/03 04:10:31  5-MIN KSTC 181010Z AUTO 06003KT 10SM CLR 12/09 A3016 800 80 700 060/03 RMK AO2
14926KSTC STC20030718041509707/18/03 04:15:31  5-MIN KSTC 181015Z AUTO 06004KT 10SM CLR 12/09 A3016 800 80 700 060/04 RMK AO2
14926KSTC STC20030718042009707/18/03 04:20:31  5-MIN KSTC 181020Z AUTO 00000KT 10SM CLR 12/09 A3016 800 80 700 000/00 RMK AO2
14926KSTC STC20030718042509707/18/03 04:25:31  5-MIN KSTC 181025Z AUTO 05003KT 10SM CLR 12/09 A3016 800 80 700 050/03 RMK AO2
14926KSTC STC20030718043009707/18/03 04:30:31  5-MIN KSTC 181030Z AUTO 04004KT 10SM CLR 12/09 A3017 800 83 600 040/04 RMK AO2
14926KSTC STC20030718043509707/18/03 04:35:31  5-MIN KSTC 181035Z AUTO 05004KT 10SM CLR 12/09 A3017 800 83 600 040/04 RMK AO2
14926KSTC STC20030718044009707/18/03 04:40:31  5-MIN KSTC 181040Z AUTO 05004KT 10SM CLR 12/09 A3017 800 83 600 050/04 RMK AO2
14926KSTC STC20030718044509707/18/03 04:45:31  5-MIN KSTC 181045Z AUTO 06005KT 10SM CLR 12/09 A3017 800 83 600 060/05 RMK AO2
14926KSTC STC20030718045011407/18/03 04:50:31  5-MIN KSTC 181050Z AUTO 06004KT 10SM CLR 12/09 A3017 800 83 600 050/04 RMK AO2 SLP223 T01170089
14926KSTC STC20030718045509707/18/03 04:55:31  5-MIN KSTC 181055Z AUTO VRB03KT 10SM CLR 12/09 A3017 790 80 700 VRB/03 RMK AO2
14926KSTC STC20030718050009707/18/03 05:00:31  5-MIN KSTC 181100Z AUTO 00000KT 10SM CLR 12/09 A3018 790 80 700 000/00 RMK AO2
14926KSTC STC20030718050509707/18/03 05:05:31  5-MIN KSTC 181105Z AUTO 04003KT 10SM CLR 12/09 A3017 790 80 700 040/03 RMK AO2
14926KSTC STC20030718051009707/18/03 05:10:31  5-MIN KSTC 181110Z AUTO 06003KT 10SM CLR 12/09 A3017 800 86 600 050/03 RMK AO2
14926KSTC STC20030718051509707/18/03 05:15:31  5-MIN KSTC 181115Z AUTO 07004KT 10SM CLR 12/09 A3017 800 86 600 070/04 RMK AO2
14926KSTC STC20030718052009707/18/03 05:20:31  5-MIN KSTC 181120Z AUTO 07004KT 10SM CLR 12/09 A3017 800 83 700 070/04 RMK AO2
14926KSTC STC20030718052509707/18/03 05:25:31  5-MIN KSTC 181125Z AUTO 08005KT 10SM CLR 12/09 A3016 800 83 700 080/05 RMK AO2
14926KSTC STC20030718053009707/18/03 05:30:31  5-MIN KSTC 181130Z AUTO 08004KT 10SM CLR 12/09 A3016 800 83 700 080/04 RMK AO2
14926KSTC STC20030718053509707/18/03 05:35:31  5-MIN KSTC 181135Z AUTO 06004KT 10SM CLR 13/09 A3017 800 80 800 060/04 RMK AO2
14926KSTC STC20030718054009707/18/03 05:40:31  5-MIN KSTC 181140Z AUTO 06004KT 10SM CLR 13/09 A3016 800 80 800 060/04 RMK AO2
14926KSTC STC20030718054509707/18/03 05:45:31  5-MIN KSTC 181145Z AUTO VRB03KT 10SM CLR 13/09 A3017 800 80 800 VRB/03 RMK AO2
14926KSTC STC20030718055013807/18/03 05:50:31  5-MIN KSTC 181150Z AUTO 07004KT 10SM CLR 13/09 A3017 800 77 800 060/04 RMK AO2 SLP224 7//// T01330094 10144 20117 53001
14926KSTC STC20030718055509707/18/03 05:55:31  5-MIN KSTC 181155Z AUTO VRB03KT 10SM CLR 13/09 A3017 800 77 800 VRB/03 RMK AO2
14926KSTC STC20030718060009707/18/03 06:00:31  5-MIN KSTC 181200Z AUTO 06003KT 10SM CLR 13/09 A3017 790 77 800 060/03 RMK AO2
14926KSTC STC20030718060509707/18/03 06:05:31  5-MIN KSTC 181205Z AUTO VRB04KT 10SM CLR 13/09 A3018 790 77 800 VRB/04 RMK AO2
14926KSTC STC20030718061009707/18/03 06:10:31  5-MIN KSTC 181210Z AUTO 05004KT 10SM CLR 14/09 A3018 790 74 900 050/04 RMK AO2
14926KSTC STC20030718061509707/18/03 06:15:31  5-MIN KSTC 181215Z AUTO 07004KT 10SM CLR 14/10 A3018 790 77 900 070/04 RMK AO2
14926KSTC STC20030718062009707/18/03 06:20:31  5-MIN KSTC 181220Z AUTO 06005KT 10SM CLR 14/09 A3019 780 74 900 060/05 RMK AO2
14926KSTC STC20030718062509707/18/03 06:25:31  5-MIN KSTC 181225Z AUTO 06006KT 10SM CLR 14/10 A3019 780 74 900 050/06 RMK AO2
14926KSTC STC20030718063009707/18/03 06:30:31  5-MIN KSTC 181230Z AUTO VRB04KT 10SM CLR 14/09 A3018 780 72 900 VRB/04 RMK AO2
14926KSTC STC20030718063509707/18/03 06:35:31  5-MIN KSTC 181235Z AUTO 06005KT 10SM CLR 14/10 A3018 790 74 900 060/05 RMK AO2
14926KSTC STC20030718064009807/18/03 06:40:31  5-MIN KSTC 181240Z AUTO 07005KT 10SM CLR 15/10 A3018 780 72 1000 060/05 RMK AO2
14926KSTC STC20030718064509807/18/03 06:45:31  5-MIN KSTC 181245Z AUTO 09006KT 10SM CLR 15/10 A3018 790 72 1000 090/06 RMK AO2
14926KSTC STC20030718065011507/18/03 06:50:31  5-MIN KSTC 181250Z AUTO 08005KT 10SM CLR 15/10 A3018 780 72 1000 080/05 RMK AO2 SLP229 T01500100
14926KSTC STC20030718065509807/18/03 06:55:31  5-MIN KSTC 181255Z AUTO 09006KT 10SM CLR 15/10 A3019 780 72 1000 090/06 RMK AO2
14926KSTC STC20030718070009807/18/03 07:00:31  5-MIN KSTC 181300Z AUTO 08005KT 10SM CLR 16/11 A3019 780 72 1100 080/05 RMK AO2
14926KSTC STC20030718070509807/18/03 07:05:31  5-MIN KSTC 181305Z AUTO VRB05KT 10SM CLR 16/11 A3018 780 72 1100 VRB/05 RMK AO2
14926KSTC STC20030718071009807/18/03 07:10:31  5-MIN KSTC 181310Z AUTO 09005KT 10SM CLR 16/11 A3018 790 72 1100 090/05 RMK AO2
14926KSTC STC20030718071509807/18/03 07:15:31  5-MIN KSTC 181315Z AUTO VRB05KT 10SM CLR 16/11 A3018 790 74 1100 VRB/05 RMK AO2
14926KSTC STC20030718072009807/18/03 07:20:31  5-MIN KSTC 181320Z AUTO 10007KT 10SM CLR 16/11 A3018 790 72 1100 100/07 RMK AO2
14926KSTC STC20030718072509807/18/03 07:25:31  5-MIN KSTC 181325Z AUTO 10007KT 10SM CLR 16/11 A3018 790 72 1100 090/07 RMK AO2
14926KSTC STC20030718073009807/18/03 07:30:31  5-MIN KSTC 181330Z AUTO 11008KT 10SM CLR 16/11 A3017 790 72 1100 110/08 RMK AO2
14926KSTC STC20030718073509807/18/03 07:35:31  5-MIN KSTC 181335Z AUTO 11007KT 10SM CLR 16/12 A3017 790 75 1100 100/07 RMK AO2
14926KSTC STC20030718074009807/18/03 07:40:31  5-MIN KSTC 181340Z AUTO 09006KT 10SM CLR 16/12 A3017 800 75 1200 090/06 RMK AO2
14926KSTC STC20030718074509807/18/03 07:45:31  5-MIN KSTC 181345Z AUTO 10008KT 10SM CLR 17/12 A3017 800 72 1200 090/08 RMK AO2
14926KSTC STC20030718075011507/18/03 07:50:31  5-MIN KSTC 181350Z AUTO 11006KT 10SM CLR 17/12 A3017 800 75 1200 110/06 RMK AO2 SLP223 T01670122
14926KSTC STC20030718075509807/18/03 07:55:31  5-MIN KSTC 181355Z AUTO 09006KT 10SM CLR 17/12 A3017 800 75 1200 090/06 RMK AO2
14926KSTC STC20030718080009807/18/03 08:00:31  5-MIN KSTC 181400Z AUTO 11006KT 10SM CLR 17/12 A3017 800 72 1300 110/06 RMK AO2
14926KSTC STC20030718080509807/18/03 08:05:31  5-MIN KSTC 181405Z AUTO 12007KT 10SM CLR 18/13 A3017 800 72 1300 110/07 RMK AO2
14926KSTC STC20030718081009807/18/03 08:10:31  5-MIN KSTC 181410Z AUTO 12005KT 10SM CLR 18/13 A3017 790 72 1300 110/05 RMK AO2
14926KSTC STC20030718081509807/18/03 08:15:31  5-MIN KSTC 181415Z AUTO 11006KT 10SM CLR 18/13 A3017 800 72 1300 100/06 RMK AO2
14926KSTC STC20030718082009807/18/03 08:20:31  5-MIN KSTC 181420Z AUTO 11006KT 10SM CLR 18/13 A3017 800 72 1300 100/06 RMK AO2
14926KSTC STC20030718082509807/18/03 08:25:31  5-MIN KSTC 181425Z AUTO 13005KT 10SM CLR 18/13 A3017 790 70 1400 120/05 RMK AO2
14926KSTC STC20030718083009807/18/03 08:30:31  5-MIN KSTC 181430Z AUTO 13006KT 10SM CLR 18/13 A3017 790 72 1400 130/06 RMK AO2
14926KSTC STC20030718083509807/18/03 08:35:31  5-MIN KSTC 181435Z AUTO 12007KT 10SM CLR 19/13 A3017 800 70 1500 120/07 RMK AO2
14926KSTC STC20030718084009807/18/03 08:40:31  5-MIN KSTC 181440Z AUTO 12004KT 10SM CLR 19/13 A3018 790 70 1500 120/04 RMK AO2
14926KSTC STC20030718084509807/18/03 08:45:31  5-MIN KSTC 181445Z AUTO 13003KT 10SM CLR 19/13 A3018 790 70 1500 120/03 RMK AO2
14926KSTC STC20030718085012107/18/03 08:50:31  5-MIN KSTC 181450Z AUTO 12006KT 10SM CLR 19/13 A3018 790 67 1500 120/06 RMK AO2 SLP225 T01940133 51003
14926KSTC STC20030718085509807/18/03 08:55:31  5-MIN KSTC 181455Z AUTO 15005KT 10SM CLR 20/13 A3017 790 65 1600 150/05 RMK AO2
14926KSTC STC20030718090009807/18/03 09:00:31  5-MIN KSTC 181500Z AUTO 13007KT 10SM CLR 20/13 A3017 800 65 1600 130/07 RMK AO2
14926KSTC STC20030718090509807/18/03 09:05:31  5-MIN KSTC 181505Z AUTO 13008KT 10SM CLR 20/13 A3017 790 65 1600 130/08 RMK AO2
14926KSTC STC20030718091009807/18/03 09:10:31  5-MIN KSTC 181510Z AUTO 15006KT 10SM CLR 20/13 A3018 790 65 1600 150/06 RMK AO2
14926KSTC STC20030718091509807/18/03 09:15:31  5-MIN KSTC 181515Z AUTO 13004KT 10SM CLR 20/13 A3018 790 65 1600 120/04 RMK AO2
14926KSTC STC20030718092009807/18/03 09:20:31  5-MIN KSTC 181520Z AUTO VRB04KT 10SM CLR 21/14 A3018 790 65 1700 VRB/04 RMK AO2
14926KSTC STC20030718092509807/18/03 09:25:31  5-MIN KSTC 181525Z AUTO VRB04KT 10SM CLR 21/14 A3018 790 67 1700 VRB/04 RMK AO2
14926KSTC STC20030718093009807/18/03 09:30:31  5-MIN KSTC 181530Z AUTO 13006KT 10SM CLR 21/14 A3017 790 65 1700 130/06 RMK AO2
14926KSTC STC20030718093509807/18/03 09:35:31  5-MIN KSTC 181535Z AUTO 14006KT 10SM CLR 21/14 A3017 800 67 1700 130/06 RMK AO2
14926KSTC STC20030718094009807/18/03 09:40:31  5-MIN KSTC 181540Z AUTO 14006KT 10SM CLR 21/14 A3017 800 65 1700 130/06 RMK AO2
14926KSTC STC20030718094509807/18/03 09:45:31  5-MIN KSTC 181545Z AUTO 14006KT 10SM CLR 22/14 A3017 800 63 1800 140/06 RMK AO2
14926KSTC STC20030718095011507/18/03 09:50:31  5-MIN KSTC 181550Z AUTO 15007KT 10SM CLR 22/14 A3017 800 63 1800 150/07 RMK AO2 SLP222 T02170144
14926KSTC STC20030718095509807/18/03 09:55:31  5-MIN KSTC 181555Z AUTO 14008KT 10SM CLR 21/14 A3017 800 65 1700 140/08 RMK AO2
14926KSTC STC20030718100009807/18/03 10:00:31  5-MIN KSTC 181600Z AUTO 15006KT 10SM CLR 22/14 A3017 800 63 1800 140/06 RMK AO2
14926KSTC STC20030718100509807/18/03 10:05:31  5-MIN KSTC 181605Z AUTO 16007KT 10SM CLR 22/14 A3017 800 63 1800 160/07 RMK AO2
14926KSTC STC20030718101009807/18/03 10:10:31  5-MIN KSTC 181610Z AUTO 16008KT 10SM CLR 22/14 A3017 800 63 1800 160/08 RMK AO2
14926KSTC STC20030718101509807/18/03 10:15:31  5-MIN KSTC 181615Z AUTO 15007KT 10SM CLR 22/14 A3017 790 61 1900 140/07 RMK AO2
14926KSTC STC20030718102009807/18/03 10:20:31  5-MIN KSTC 181620Z AUTO 16005KT 10SM CLR 22/14 A3017 790 63 1800 150/05 RMK AO2
14926KSTC STC20030718102511407/18/03 10:25:31  5-MIN KSTC 181625Z AUTO 14007KT 110V210 10SM CLR 22/15 A3018 790 63 1800 140/07 110V210 RMK AO2
14926KSTC STC20030718103009807/18/03 10:30:31  5-MIN KSTC 181630Z AUTO VRB04KT 10SM CLR 22/14 A3018 790 61 1900 VRB/04 RMK AO2
14926KSTC STC20030718103511407/18/03 10:35:31  5-MIN KSTC 181635Z AUTO 14007KT 090V170 10SM CLR 23/14 A3018 790 59 1900 140/07 090V170 RMK AO2
14926KSTC STC20030718104009807/18/03 10:40:31  5-MIN KSTC 181640Z AUTO 12006KT 10SM CLR 22/15 A3018 790 63 1800 110/06 RMK AO2
14926KSTC STC20030718104509807/18/03 10:45:31  5-MIN KSTC 181645Z AUTO 12007KT 10SM CLR 23/15 A3018 780 61 1900 120/07 RMK AO2
14926KSTC STC20030718105011507/18/03 10:50:31  5-MIN KSTC 181650Z AUTO 12007KT 10SM CLR 23/15 A3018 780 61 1900 120/07 RMK AO2 SLP227 T02280150
14926KSTC STC20030718105509807/18/03 10:55:31  5-MIN KSTC 181655Z AUTO 09006KT 10SM CLR 23/15 A3018 790 59 2000 080/06 RMK AO2
14926KSTC STC20030718110009807/18/03 11:00:31  5-MIN KSTC 181700Z AUTO VRB06KT 10SM CLR 23/15 A3018 790 61 1900 VRB/06 RMK AO2
14926KSTC STC20030718110509807/18/03 11:05:31  5-MIN KSTC 181705Z AUTO 10006KT 10SM CLR 23/15 A3018 790 61 1900 100/06 RMK AO2
14926KSTC STC20030718111009807/18/03 11:10:31  5-MIN KSTC 181710Z AUTO 09007KT 10SM CLR 23/15 A3018 790 61 1900 090/07 RMK AO2
14926KSTC STC20030718111509807/18/03 11:15:31  5-MIN KSTC 181715Z AUTO VRB05KT 10SM CLR 23/15 A3018 780 61 1900 VRB/05 RMK AO2
14926KSTC STC20030718112009807/18/03 11:20:31  5-MIN KSTC 181720Z AUTO 11005KT 10SM CLR 23/15 A3018 790 61 1900 110/05 RMK AO2
14926KSTC STC20030718112511407/18/03 11:25:31  5-MIN KSTC 181725Z AUTO 10007KT 050V130 10SM CLR 23/15 A3018 790 59 2000 100/07 050V130 RMK AO2
14926KSTC STC20030718113009807/18/03 11:30:31  5-MIN KSTC 181730Z AUTO 13006KT 10SM CLR 23/15 A3018 790 59 2000 130/06 RMK AO2
14926KSTC STC20030718113509807/18/03 11:35:31  5-MIN KSTC 181735Z AUTO 11007KT 10SM CLR 24/15 A3018 790 57 2000 110/07 RMK AO2
14926KSTC STC20030718114009807/18/03 11:40:31  5-MIN KSTC 181740Z AUTO 10007KT 10SM CLR 23/14 A3018 790 57 2000 090/07 RMK AO2
14926KSTC STC20030718114509807/18/03 11:45:31  5-MIN KSTC 181745Z AUTO 11008KT 10SM CLR 23/14 A3018 790 57 2000 110/08 RMK AO2
14926KSTC STC20030718115013307/18/03 11:50:31  5-MIN KSTC 181750Z AUTO VRB05KT 10SM CLR 24/15 A3018 790 57 2000 VRB/05 RMK AO2 SLP226 T02390150 10239 20133 51001
14926KSTC STC20030718115509807/18/03 11:55:31  5-MIN KSTC 181755Z AUTO 11007KT 10SM CLR 24/15 A3018 780 57 2000 110/07 RMK AO2
14926KSTC STC20030718120009807/18/03 12:00:31  5-MIN KSTC 181800Z AUTO VRB06KT 10SM CLR 24/15 A3018 780 57 2000 VRB/06 RMK AO2
14926KSTC STC20030718120509807/18/03 12:05:31  5-MIN KSTC 181805Z AUTO 21007KT 10SM CLR 23/14 A3018 780 57 2000 200/07 RMK AO2
14926KSTC STC20030718121009807/18/03 12:10:31  5-MIN KSTC 181810Z AUTO 18004KT 10SM CLR 24/15 A3018 780 57 2000 180/04 RMK AO2
14926KSTC STC20030718121511407/18/03 12:15:31  5-MIN KSTC 181815Z AUTO 18007KT 150V220 10SM CLR 24/14 A3018 790 55 2000 180/07 150V220 RMK AO2
14926KSTC STC20030718122009807/18/03 12:20:31  5-MIN KSTC 181820Z AUTO 13006KT 10SM CLR 24/14 A3017 790 53 2100 130/06 RMK AO2
14926KSTC STC20030718122509807/18/03 12:25:31  5-MIN KSTC 181825Z AUTO 16006KT 10SM CLR 24/15 A3017 800 57 2000 160/06 RMK AO2
14926KSTC STC20030718123009807/18/03 12:30:31  5-MIN KSTC 181830Z AUTO 17006KT 10SM CLR 24/15 A3017 800 55 2100 170/06 RMK AO2
14926KSTC STC20030718123509807/18/03 12:35:31  5-MIN KSTC 181835Z AUTO 17007KT 10SM CLR 24/14 A3017 800 55 2100 160/07 RMK AO2
14926KSTC STC20030718124009807/18/03 12:40:31  5-MIN KSTC 181840Z AUTO 18007KT 10SM CLR 24/14 A3016 800 53 2100 170/07 RMK AO2
14926KSTC STC20030718124509807/18/03 12:45:31  5-MIN KSTC 181845Z AUTO 14005KT 10SM CLR 24/14 A3016 800 53 2100 140/05 RMK AO2
14926KSTC STC20030718125011507/18/03 12:50:31  5-MIN KSTC 181850Z AUTO VRB05KT 10SM CLR 24/14 A3017 800 53 2100 VRB/05 RMK AO2 SLP221 T02390139
14926KSTC STC20030718125509807/18/03 12:55:31  5-MIN KSTC 181855Z AUTO VRB04KT 10SM CLR 24/14 A3017 800 51 2100 VRB/04 RMK AO2
14926KSTC STC20030718130009807/18/03 13:00:31  5-MIN KSTC 181900Z AUTO 18007KT 10SM CLR 24/15 A3017 800 55 2100 170/07 RMK AO2
14926KSTC STC20030718130509807/18/03 13:05:31  5-MIN KSTC 181905Z AUTO 13005KT 10SM CLR 24/14 A3016 800 53 2100 120/05 RMK AO2
14926KSTC STC20030718131009807/18/03 13:10:31  5-MIN KSTC 181910Z AUTO VRB05KT 10SM CLR 25/14 A3017 790 51 2200 VRB/05 RMK AO2
14926KSTC STC20030718131509807/18/03 13:15:31  5-MIN KSTC 181915Z AUTO VRB03KT 10SM CLR 24/14 A3017 790 51 2100 VRB/03 RMK AO2
14926KSTC STC20030718132009807/18/03 13:20:31  5-MIN KSTC 181920Z AUTO 16006KT 10SM CLR 24/14 A3017 790 51 2100 160/06 RMK AO2
14926KSTC STC20030718132509807/18/03 13:25:31  5-MIN KSTC 181925Z AUTO VRB03KT 10SM CLR 24/14 A3017 790 51 2100 VRB/03 RMK AO2
14926KSTC STC20030718133009807/18/03 13:30:31  5-MIN KSTC 181930Z AUTO 09006KT 10SM CLR 25/14 A3017 800 49 2200 090/06 RMK AO2
14926KSTC STC20030718133509807/18/03 13:35:31  5-MIN KSTC 181935Z AUTO 05005KT 10SM CLR 25/14 A3017 800 49 2200 040/05 RMK AO2
14926KSTC STC20030718134009807/18/03 13:40:31  5-MIN KSTC 181940Z AUTO VRB04KT 10SM CLR 25/13 A3016 800 48 2200 VRB/04 RMK AO2
14926KSTC STC20030718134509807/18/03 13:45:31  5-MIN KSTC 181945Z AUTO VRB06KT 10SM CLR 25/14 A3016 810 49 2200 VRB/06 RMK AO2
14926KSTC STC20030718135011507/18/03 13:50:31  5-MIN KSTC 181950Z AUTO 11006KT 10SM CLR 25/13 A3015 810 48 2200 100/06 RMK AO2 SLP216 T02500133
14926KSTC STC20030718135509807/18/03 13:55:31  5-MIN KSTC 181955Z AUTO 14007KT 10SM CLR 25/14 A3015 820 51 2200 140/07 RMK AO2
14926KSTC STC20030718140009807/18/03 14:00:31  5-MIN KSTC 182000Z AUTO 17005KT 10SM CLR 25/14 A3015 810 49 2200 160/05 RMK AO2
14926KSTC STC20030718140509807/18/03 14:05:31  5-MIN KSTC 182005Z AUTO 14006KT 10SM CLR 25/13 A3015 810 48 2200 130/06 RMK AO2
14926KSTC STC20030718141009807/18/03 14:10:31  5-MIN KSTC 182010Z AUTO 12006KT 10SM CLR 25/14 A3015 820 49 2200 120/06 RMK AO2
14926KSTC STC20030718141509807/18/03 14:15:31  5-MIN KSTC 182015Z AUTO VRB05KT 10SM CLR 25/14 A3015 810 49 2200 VRB/05 RMK AO2
14926KSTC STC20030718142009807/18/03 14:20:31  5-MIN KSTC 182020Z AUTO VRB06KT 10SM CLR 25/14 A3015 810 51 2200 VRB/06 RMK AO2
14926KSTC STC20030718142509807/18/03 14:25:31  5-MIN KSTC 182025Z AUTO VRB06KT 10SM CLR 25/14 A3015 810 51 2200 VRB/06 RMK AO2
14926KSTC STC20030718143009807/18/03 14:30:31  5-MIN KSTC 182030Z AUTO VRB03KT 10SM CLR 26/14 A3015 810 48 2300 VRB/03 RMK AO2
14926KSTC STC20030718143509807/18/03 14:35:31  5-MIN KSTC 182035Z AUTO VRB04KT 10SM CLR 26/14 A3015 820 49 2300 VRB/04 RMK AO2
14926KSTC STC20030718144009807/18/03 14:40:31  5-MIN KSTC 182040Z AUTO 17007KT 10SM CLR 26/14 A3015 820 48 2300 170/07 RMK AO2
14926KSTC STC20030718144509807/18/03 14:45:31  5-MIN KSTC 182045Z AUTO 18005KT 10SM CLR 26/14 A3015 810 49 2300 170/05 RMK AO2
14926KSTC STC20030718145012107/18/03 14:50:31  5-MIN KSTC 182050Z AUTO VRB05KT 10SM CLR 26/13 A3016 810 46 2300 VRB/05 RMK AO2 SLP218 T02560133 53003
14926KSTC STC20030718145509807/18/03 14:55:31  5-MIN KSTC 182055Z AUTO VRB03KT 10SM CLR 25/13 A3016 810 46 2200 VRB/03 RMK AO2
14926KSTC STC20030718150009807/18/03 15:00:31  5-MIN KSTC 182100Z AUTO 16006KT 10SM CLR 26/13 A3016 810 46 2300 150/06 RMK AO2
14926KSTC STC20030718150509807/18/03 15:05:31  5-MIN KSTC 182105Z AUTO 00000KT 10SM CLR 25/13 A3016 810 46 2200 000/00 RMK AO2
14926KSTC STC20030718151009807/18/03 15:10:31  5-MIN KSTC 182110Z AUTO 00000KT 10SM CLR 26/12 A3015 820 43 2300 000/00 RMK AO2
14926KSTC STC20030718151509807/18/03 15:15:31  5-MIN KSTC 182115Z AUTO 00000KT 10SM CLR 25/12 A3014 820 44 2200 000/00 RMK AO2
14926KSTC STC20030718152009807/18/03 15:20:31  5-MIN KSTC 182120Z AUTO 16006KT 10SM CLR 26/13 A3014 820 46 2300 160/06 RMK AO2
14926KSTC STC20030718152509807/18/03 15:25:31  5-MIN KSTC 182125Z AUTO VRB03KT 10SM CLR 25/13 A3015 820 46 2200 VRB/03 RMK AO2
14926KSTC STC20030718153009807/18/03 15:30:31  5-MIN KSTC 182130Z AUTO 17006KT 10SM CLR 26/14 A3015 820 48 2300 170/06 RMK AO2
14926KSTC STC20030718153509807/18/03 15:35:31  5-MIN KSTC 182135Z AUTO 00000KT 10SM CLR 26/13 A3014 820 46 2300 000/00 RMK AO2
14926KSTC STC20030718154009807/18/03 15:40:31  5-MIN KSTC 182140Z AUTO 17004KT 10SM CLR 26/14 A3014 830 48 2300 170/04 RMK AO2
14926KSTC STC20030718154509807/18/03 15:45:31  5-MIN KSTC 182145Z AUTO VRB06KT 10SM CLR 26/14 A3013 830 49 2300 VRB/06 RMK AO2
14926KSTC STC20030718155011507/18/03 15:50:31  5-MIN KSTC 182150Z AUTO 12006KT 10SM CLR 26/14 A3013 830 48 2300 110/06 RMK AO2 SLP210 T02560139
14926KSTC STC20030718155509807/18/03 15:55:31  5-MIN KSTC 182155Z AUTO VRB04KT 10SM CLR 26/14 A3014 830 46 2300 VRB/04 RMK AO2
14926KSTC STC20030718160009807/18/03 16:00:31  5-MIN KSTC 182200Z AUTO 00000KT 10SM CLR 26/13 A3014 820 46 2300 000/00 RMK AO2
14926KSTC STC20030718160509807/18/03 16:05:31  5-MIN KSTC 182205Z AUTO 17004KT 10SM CLR 26/14 A3014 830 48 2300 170/04 RMK AO2
14926KSTC STC20030718161009807/18/03 16:10:31  5-MIN KSTC 182210Z AUTO 17005KT 10SM CLR 25/14 A3014 830 49 2200 170/05 RMK AO2
14926KSTC STC20030718161509807/18/03 16:15:31  5-MIN KSTC 182215Z AUTO VRB06KT 10SM CLR 26/14 A3014 820 48 2300 VRB/06 RMK AO2
14926KSTC STC20030718162009807/18/03 16:20:31  5-MIN KSTC 182220Z AUTO 22004KT 10SM CLR 25/13 A3014 820 48 2200 220/04 RMK AO2
14926KSTC STC20030718162509807/18/03 16:25:31  5-MIN KSTC 182225Z AUTO 19005KT 10SM CLR 26/14 A3014 820 48 2300 190/05 RMK AO2
14926KSTC STC20030718163009807/18/03 16:30:31  5-MIN KSTC 182230Z AUTO 00000KT 10SM CLR 26/13 A3014 820 46 2300 000/00 RMK AO2
14926KSTC STC20030718163509807/18/03 16:35:31  5-MIN KSTC 182235Z AUTO 00000KT 10SM CLR 26/13 A3014 820 46 2300 000/00 RMK AO2
14926KSTC STC20030718164009807/18/03 16:40:31  5-MIN KSTC 182240Z AUTO 20004KT 10SM CLR 26/14 A3014 820 48 2300 200/04 RMK AO2
14926KSTC STC20030718164509807/18/03 16:45:31  5-MIN KSTC 182245Z AUTO 21004KT 10SM CLR 26/13 A3014 830 46 2300 210/04 RMK AO2
14926KSTC STC20030718165011507/18/03 16:50:31  5-MIN KSTC 182250Z AUTO VRB03KT 10SM CLR 26/13 A3013 830 46 2300 VRB/03 RMK AO2 SLP211 T02560133
14926KSTC STC20030718165509807/18/03 16:55:31  5-MIN KSTC 182255Z AUTO 18005KT 10SM CLR 26/14 A3013 830 48 2300 180/05 RMK AO2
14926KSTC STC20030718170009807/18/03 17:00:31  5-MIN KSTC 182300Z AUTO 20004KT 10SM CLR 26/14 A3013 830 48 2300 200/04 RMK AO2
14926KSTC STC20030718170509807/18/03 17:05:31  5-MIN KSTC 182305Z AUTO 22005KT 10SM CLR 26/14 A3013 830 49 2300 220/05 RMK AO2
14926KSTC STC20030718171009807/18/03 17:10:31  5-MIN KSTC 182310Z AUTO 21006KT 10SM CLR 25/14 A3013 830 51 2200 210/06 RMK AO2
14926KSTC STC20030718171509807/18/03 17:15:31  5-MIN KSTC 182315Z AUTO 23003KT 10SM CLR 25/13 A3013 830 48 2200 220/03 RMK AO2
14926KSTC STC20030718172009807/18/03 17:20:31  5-MIN KSTC 182320Z AUTO 25004KT 10SM CLR 25/13 A3013 830 48 2200 240/04 RMK AO2
14926KSTC STC20030718172509807/18/03 17:25:31  5-MIN KSTC 182325Z AUTO 00000KT 10SM CLR 26/13 A3013 830 46 2300 000/00 RMK AO2
14926KSTC STC20030718173009807/18/03 17:30:31  5-MIN KSTC 182330Z AUTO 22003KT 10SM CLR 25/14 A3013 830 49 2200 220/03 RMK AO2
14926KSTC STC20030718173509807/18/03 17:35:31  5-MIN KSTC 182335Z AUTO 19003KT 10SM CLR 25/13 A3013 840 48 2200 180/03 RMK AO2
14926KSTC STC20030718174009807/18/03 17:40:31  5-MIN KSTC 182340Z AUTO 20005KT 10SM CLR 25/13 A3013 830 48 2200 200/05 RMK AO2
14926KSTC STC20030718174509807/18/03 17:45:31  5-MIN KSTC 182345Z AUTO 21003KT 10SM CLR 25/13 A3013 840 48 2200 210/03 RMK AO2
14926KSTC STC20030718175013307/18/03 17:50:31  5-MIN KSTC 182350Z AUTO 22003KT 10SM CLR 25/13 A3013 840 48 2200 220/03 RMK AO2 SLP207 T02500133 10261 20233 55008
14926KSTC STC20030718175509807/18/03 17:55:31  5-MIN KSTC 182355Z AUTO 22003KT 10SM CLR 25/13 A3013 840 48 2200 220/03 RMK AO2
14926KSTC STC20030718180009807/18/03 18:00:31  5-MIN KSTC 190000Z AUTO 22003KT 10SM CLR 25/13 A3013 840 48 2200 210/03 RMK AO2
14926KSTC STC20030718180509807/18/03 18:05:31  5-MIN KSTC 190005Z AUTO 21003KT 10SM CLR 25/13 A3013 840 48 2200 210/03 RMK AO2
14926KSTC STC20030718181009807/18/03 18:10:31  5-MIN KSTC 190010Z AUTO 21003KT 10SM CLR 25/14 A3013 840 49 2200 210/03 RMK AO2
14926KSTC STC20030718181509807/18/03 18:15:31  5-MIN KSTC 190015Z AUTO 22003KT 10SM CLR 25/13 A3013 840 48 2200 220/03 RMK AO2
14926KSTC STC20030718182009807/18/03 18:20:31  5-MIN KSTC 190020Z AUTO 22003KT 10SM CLR 25/14 A3013 840 49 2200 220/03 RMK AO2
14926KSTC STC20030718182509807/18/03 18:25:31  5-MIN KSTC 190025Z AUTO 22003KT 10SM CLR 25/13 A3012 840 48 2200 210/03 RMK AO2
14926KSTC STC20030718183009807/18/03 18:30:31  5-MIN KSTC 190030Z AUTO 21003KT 10SM CLR 24/13 A3012 840 49 2200 210/03 RMK AO2
14926KSTC STC20030718183509807/18/03 18:35:31  5-MIN KSTC 190035Z AUTO 00000KT 10SM CLR 24/14 A3012 840 51 2200 000/00 RMK AO2
14926KSTC STC20030718184009807/18/03 18:40:31  5-MIN KSTC 190040Z AUTO 20003KT 10SM CLR 24/14 A3012 840 53 2200 200/03 RMK AO2
14926KSTC STC20030718184509807/18/03 18:45:31  5-MIN KSTC 190045Z AUTO 20003KT 10SM CLR 24/15 A3012 840 55 2200 200/03 RMK AO2
14926KSTC STC20030718185011507/18/03 18:50:31  5-MIN KSTC 190050Z AUTO 20003KT 10SM CLR 24/15 A3012 840 55 2200 200/03 RMK AO2 SLP204 T02440150
14926KSTC STC20030718185509807/18/03 18:55:31  5-MIN KSTC 190055Z AUTO 00000KT 10SM CLR 24/16 A3012 850 59 2100 000/00 RMK AO2
14926KSTC STC20030718190009807/18/03 19:00:31  5-MIN KSTC 190100Z AUTO 19003KT 10SM CLR 24/16 A3011 850 59 2100 180/03 RMK AO2
14926KSTC STC20030718190509807/18/03 19:05:31  5-MIN KSTC 190105Z AUTO 00000KT 10SM CLR 23/16 A3012 850 63 2000 000/00 RMK AO2
14926KSTC STC20030718191009807/18/03 19:10:31  5-MIN KSTC 190110Z AUTO 00000KT 10SM CLR 23/17 A3012 850 66 2000 000/00 RMK AO2
14926KSTC STC20030718191509807/18/03 19:15:31  5-MIN KSTC 190115Z AUTO 00000KT 10SM CLR 23/17 A3012 850 66 2000 000/00 RMK AO2
14926KSTC STC20030718192009807/18/03 19:20:31  5-MIN KSTC 190120Z AUTO 00000KT 10SM CLR 23/17 A3012 840 68 2000 000/00 RMK AO2
14926KSTC STC20030718192509807/18/03 19:25:31  5-MIN KSTC 190125Z AUTO 00000KT 10SM CLR 23/17 A3012 840 70 2000 000/00 RMK AO2
14926KSTC STC20030718193009807/18/03 19:30:31  5-MIN KSTC 190130Z AUTO 00000KT 10SM CLR 22/17 A3012 840 70 1900 000/00 RMK AO2
14926KSTC STC20030718193509807/18/03 19:35:31  5-MIN KSTC 190135Z AUTO 00000KT 10SM CLR 22/17 A3012 840 70 1900 000/00 RMK AO2
14926KSTC STC20030718194009807/18/03 19:40:31  5-MIN KSTC 190140Z AUTO 00000KT 10SM CLR 22/17 A3012 840 73 1800 000/00 RMK AO2
14926KSTC STC20030718194509807/18/03 19:45:31  5-MIN KSTC 190145Z AUTO 00000KT 10SM CLR 22/17 A3012 840 73 1800 000/00 RMK AO2
14926KSTC STC20030718195011507/18/03 19:50:31  5-MIN KSTC 190150Z AUTO 00000KT 10SM CLR 21/16 A3012 840 73 1800 000/00 RMK AO2 SLP207 T02110161
14926KSTC STC20030718195509807/18/03 19:55:31  5-MIN KSTC 190155Z AUTO 00000KT 10SM CLR 21/17 A3012 840 78 1700 000/00 RMK AO2
14926KSTC STC20030718200009807/18/03 20:00:31  5-MIN KSTC 190200Z AUTO 00000KT 10SM CLR 20/16 A3012 840 78 1700 000/00 RMK AO2
14926KSTC STC20030718200509807/18/03 20:05:31  5-MIN KSTC 190205Z AUTO 00000KT 10SM CLR 20/17 A3012 840 81 1700 000/00 RMK AO2
14926KSTC STC20030718201009807/18/03 20:10:31  5-MIN KSTC 190210Z AUTO 00000KT 10SM CLR 19/17 A3012 840 84 1600 000/00 RMK AO2
14926KSTC STC20030718201509807/18/03 20:15:31  5-MIN KSTC 190215Z AUTO 00000KT 10SM CLR 19/16 A3012 840 84 1500 000/00 RMK AO2
14926KSTC STC20030718202009807/18/03 20:20:31  5-MIN KSTC 190220Z AUTO 00000KT 10SM CLR 19/16 A3012 840 81 1500 000/00 RMK AO2
14926KSTC STC20030718202509807/18/03 20:25:31  5-MIN KSTC 190225Z AUTO 00000KT 10SM CLR 19/16 A3012 840 81 1500 000/00 RMK AO2
14926KSTC STC20030718203009807/18/03 20:30:31  5-MIN KSTC 190230Z AUTO 00000KT 10SM CLR 18/16 A3012 840 84 1500 000/00 RMK AO2
14926KSTC STC20030718203509807/18/03 20:35:31  5-MIN KSTC 190235Z AUTO 00000KT 10SM CLR 18/16 A3012 840 84 1500 000/00 RMK AO2
14926KSTC STC20030718204009807/18/03 20:40:31  5-MIN KSTC 190240Z AUTO 00000KT 10SM CLR 18/16 A3012 840 90 1400 000/00 RMK AO2
14926KSTC STC20030718204509807/18/03 20:45:31  5-MIN KSTC 190245Z AUTO 00000KT 10SM CLR 18/16 A3012 840 90 1400 000/00 RMK AO2
14926KSTC STC20030718205012107/18/03 20:50:31  5-MIN KSTC 190250Z AUTO 00000KT 10SM CLR 18/16 A3012 840 90 1400 000/00 RMK AO2 SLP206 T01780161 56010
14926KSTC STC20030718205509807/18/03 20:55:31  5-MIN KSTC 190255Z AUTO 00000KT 10SM CLR 18/16 A3012 840 87 1400 000/00 RMK AO2
14926KSTC STC20030718210009807/18/03 21:00:31  5-MIN KSTC 190300Z AUTO 00000KT 10SM CLR 18/15 A3012 840 83 1400 000/00 RMK AO2
14926KSTC STC20030718210509807/18/03 21:05:31  5-MIN KSTC 190305Z AUTO 00000KT 10SM CLR 17/15 A3012 840 87 1300 000/00 RMK AO2
14926KSTC STC20030718211009807/18/03 21:10:31  5-MIN KSTC 190310Z AUTO 00000KT 10SM CLR 17/16 A3012 840 93 1300 000/00 RMK AO2
14926KSTC STC20030718211509807/18/03 21:15:31  5-MIN KSTC 190315Z AUTO 00000KT 10SM CLR 17/15 A3012 840 90 1300 000/00 RMK AO2
14926KSTC STC20030718212009807/18/03 21:20:31  5-MIN KSTC 190320Z AUTO 00000KT 10SM CLR 17/15 A3012 850 87 1300 000/00 RMK AO2
14926KSTC STC20030718212509807/18/03 21:25:31  5-MIN KSTC 190325Z AUTO 00000KT 10SM CLR 17/15 A3012 850 90 1300 000/00 RMK AO2
14926KSTC STC20030718213009807/18/03 21:30:31  5-MIN KSTC 190330Z AUTO 00000KT 10SM CLR 17/15 A3012 850 90 1300 000/00 RMK AO2
14926KSTC STC20030718213509807/18/03 21:35:31  5-MIN KSTC 190335Z AUTO 00000KT 10SM CLR 17/15 A3011 850 90 1300 000/00 RMK AO2
14926KSTC STC20030718214009807/18/03 21:40:31  5-MIN KSTC 190340Z AUTO 00000KT 10SM CLR 17/16 A3011 850 93 1300 000/00 RMK AO2
14926KSTC STC20030718214509807/18/03 21:45:31  5-MIN KSTC 190345Z AUTO 00000KT 10SM CLR 16/16 A3011 850 96 1200 000/00 RMK AO2
14926KSTC STC20030718215011507/18/03 21:50:31  5-MIN KSTC 190350Z AUTO 00000KT 10SM CLR 16/16 A3011 850 96 1200 000/00 RMK AO2 SLP204 T01610156
14926KSTC STC20030718215509807/18/03 21:55:31  5-MIN KSTC 190355Z AUTO 00000KT 10SM CLR 16/16 A3011 850 96 1200 000/00 RMK AO2
14926KSTC STC20030718220009807/18/03 22:00:31  5-MIN KSTC 190400Z AUTO 00000KT 10SM CLR 16/16 A3012 850 96 1200 000/00 RMK AO2
14926KSTC STC20030718220509807/18/03 22:05:31  5-MIN KSTC 190405Z AUTO 00000KT 10SM CLR 16/15 A3012 840 93 1200 000/00 RMK AO2
14926KSTC STC20030718221009807/18/03 22:10:31  5-MIN KSTC 190410Z AUTO 00000KT 10SM CLR 17/16 A3012 840 93 1300 000/00 RMK AO2
14926KSTC STC20030718221509807/18/03 22:15:31  5-MIN KSTC 190415Z AUTO 00000KT 10SM CLR 17/16 A3012 840 93 1300 000/00 RMK AO2
14926KSTC STC20030718222009807/18/03 22:20:31  5-MIN KSTC 190420Z AUTO 00000KT 10SM CLR 17/16 A3012 840 96 1300 000/00 RMK AO2
14926KSTC STC20030718222509807/18/03 22:25:31  5-MIN KSTC 190425Z AUTO 00000KT 10SM CLR 16/15 A3012 840 96 1100 000/00 RMK AO2
14926KSTC STC20030718223009807/18/03 22:30:31  5-MIN KSTC 190430Z AUTO 00000KT 10SM CLR 16/15 A3012 840 93 1200 000/00 RMK AO2
14926KSTC STC20030718223509807/18/03 22:35:31  5-MIN KSTC 190435Z AUTO 00000KT 10SM CLR 16/15 A3012 840 93 1200 000/00 RMK AO2
14926KSTC STC20030718224009807/18/03 22:40:31  5-MIN KSTC 190440Z AUTO 00000KT 10SM CLR 16/15 A3013 840 93 1200 000/00 RMK AO2
14926KSTC STC20030718224509807/18/03 22:45:31  5-MIN KSTC 190445Z AUTO 00000KT 10SM CLR 17/16 A3013 840 93 1300 000/00 RMK AO2
14926KSTC STC20030718225011507/18/03 22:50:31  5-MIN KSTC 190450Z AUTO 00000KT 10SM CLR 16/15 A3012 840 96 1100 000/00 RMK AO2 SLP206 T01560150
14926KSTC STC20030718225509807/18/03 22:55:31  5-MIN KSTC 190455Z AUTO 00000KT 10SM CLR 16/15 A3012 840 96 1100 000/00 RMK AO2
14926KSTC STC20030718230009907/18/03 23:00:31  5-MIN KSTC 190500Z AUTO 00000KT 10SM CLR 16/16 A3012 840 100 1100 000/00 RMK AO2
14926KSTC STC20030718230509907/18/03 23:05:31  5-MIN KSTC 190505Z AUTO 00000KT 10SM CLR 16/16 A3012 840 100 1100 000/00 RMK AO2
14926KSTC STC20030718231009907/18/03 23:10:31  5-MIN KSTC 190510Z AUTO 00000KT 10SM CLR 16/16 A3012 840 100 1100 000/00 RMK AO2
14926KSTC STC20030718231509807/18/03 23:15:31  5-MIN KSTC 190515Z AUTO 00000KT 10SM CLR 16/15 A3012 840 96 1100 000/00 RMK AO2
14926KSTC STC20030718232009807/18/03 23:20:31  5-MIN KSTC 190520Z AUTO 00000KT 10SM CLR 16/15 A3012 840 96 1100 000/00 RMK AO2
14926KSTC STC20030718232509907/18/03 23:25:31  5-MIN KSTC 190525Z AUTO 00000KT 10SM CLR 16/16 A3012 840 100 1100 000/00 RMK AO2
14926KSTC STC20030718233009807/18/03 23:30:31  5-MIN KSTC 190530Z AUTO 00000KT 10SM CLR 16/15 A3012 840 96 1100 000/00 RMK AO2
14926KSTC STC20030718233509807/18/03 23:35:31  5-MIN KSTC 190535Z AUTO 00000KT 10SM CLR 16/15 A3012 840 96 1100 000/00 RMK AO2
14926KSTC STC20030718234009907/18/03 23:40:31  5-MIN KSTC 190540Z AUTO 00000KT 10SM CLR 15/15 A3012 840 100 1100 000/00 RMK AO2
14926KSTC STC20030718234509807/18/03 23:45:31  5-MIN KSTC 190545Z AUTO 00000KT 10SM CLR 16/15 A3012 840 96 1100 000/00 RMK AO2
14926KSTC STC20030718235014407/18/03 23:50:31  5-MIN KSTC 190550Z AUTO 00000KT 10SM CLR 15/15 A3012 840 100 1100 000/00 RMK AO2 SLP204 T01500150 10250 20150 402610117 56003
14926KSTC STC20030718235509907/18/03 23:55:31  5-MIN KSTC 190555Z AUTO 00000KT 10SM CLR 15/15 A3012 850 100 1100 000/00 RMK AO2
14926KSTC STC20030719000009807/19/03 00:00:31  5-MIN KSTC 190600Z AUTO 00000KT 10SM CLR 15/14 A3011 850 96 1100 000/00 RMK AO2
14926KSTC STC20030719000509907/19/03 00:05:31  5-MIN KSTC 190605Z AUTO 00000KT 10SM CLR 15/15 A3011 850 100 1100 000/00 RMK AO2
14926KSTC STC20030719001009907/19/03 00:10:31  5-MIN KSTC 190610Z AUTO 00000KT 10SM CLR 15/15 A3011 850 100 1100 000/00 RMK AO2
14926KSTC STC20030719001509907/19/03 00:15:31  5-MIN KSTC 190615Z AUTO 00000KT 10SM CLR 14/14 A3011 850 100 1000 000/00 RMK AO2
14926KSTC STC20030719002009807/19/03 00:20:31  5-MIN KSTC 190620Z AUTO 00000KT 10SM CLR 14/14 A3011 850 96 1000 000/00 RMK AO2
14926KSTC STC20030719002509807/19/03 00:25:31  5-MIN KSTC 190625Z AUTO 00000KT 10SM CLR 14/14 A3010 860 96 1000 000/00 RMK AO2
14926KSTC STC20030719003009907/19/03 00:30:31  5-MIN KSTC 190630Z AUTO 00000KT 10SM CLR 14/14 A3011 860 100 1000 000/00 RMK AO2
14926KSTC STC20030719003509807/19/03 00:35:31  5-MIN KSTC 190635Z AUTO 00000KT 10SM CLR 14/14 A3010 860 96 1000 000/00 RMK AO2
14926KSTC STC20030719004009807/19/03 00:40:31  5-MIN KSTC 190640Z AUTO 00000KT 10SM CLR 14/14 A3010 860 96 1000 000/00 RMK AO2
14926KSTC STC20030719004509807/19/03 00:45:31  5-MIN KSTC 190645Z AUTO 00000KT 9SM CLR 14/14 A3010 860 100 1000 000/00 RMK AO2
14926KSTC STC20030719005011507/19/03 00:50:31  5-MIN KSTC 190650Z AUTO 00000KT 8SM CLR 14/14 A3010 860 100 1000 000/00 RMK AO2 SLP199 T01390139
14926KSTC STC20030719005509807/19/03 00:55:31  5-MIN KSTC 190655Z AUTO 00000KT 7SM CLR 14/14 A3010 860 100 1000 000/00 RMK AO2
14926KSTC STC20030719010009807/19/03 01:00:31  5-MIN KSTC 190700Z AUTO 00000KT 7SM CLR 14/14 A3010 860 100 1000 000/00 RMK AO2
14926KSTC STC20030719010509707/19/03 01:05:31  5-MIN KSTC 190705Z AUTO 00000KT 8SM CLR 14/14 A3010 860 96 1000 000/00 RMK AO2
14926KSTC STC20030719011009807/19/03 01:10:31  5-MIN KSTC 190710Z AUTO 00000KT 8SM CLR 14/14 A3010 860 100 1000 000/00 RMK AO2
14926KSTC STC20030719011509807/19/03 01:15:31  5-MIN KSTC 190715Z AUTO 00000KT 7SM CLR 14/14 A3010 860 100 1000 000/00 RMK AO2
14926KSTC STC20030719012010007/19/03 01:20:31  5-MIN KSTC 190720Z AUTO 00000KT 6SM BR CLR 13/13 A3010 860 100 900 000/00 RMK AO2
14926KSTC STC20030719012509707/19/03 01:25:31  5-MIN KSTC 190725Z AUTO 00000KT 7SM CLR 13/13 A3010 860 100 900 000/00 RMK AO2
14926KSTC STC20030719013009807/19/03 01:30:31  5-MIN KSTC 190730Z AUTO 00000KT 8SM CLR 14/14 A3009 870 100 1000 000/00 RMK AO2
14926KSTC STC20030719013509707/19/03 01:35:31  5-MIN KSTC 190735Z AUTO 00000KT 9SM CLR 14/13 A3009 870 96 1000 000/00 RMK AO2
14926KSTC STC20030719014009707/19/03 01:40:31  5-MIN KSTC 190740Z AUTO 00000KT 9SM CLR 14/13 A3009 870 96 1000 000/00 RMK AO2
14926KSTC STC20030719014509807/19/03 01:45:31  5-MIN KSTC 190745Z AUTO 00000KT 8SM CLR 14/14 A3009 870 100 1000 000/00 RMK AO2
14926KSTC STC20030719015011407/19/03 01:50:31  5-MIN KSTC 190750Z AUTO 00000KT 7SM CLR 14/13 A3009 870 96 1000 000/00 RMK AO2 SLP195 T01390133
14926KSTC STC20030719015510007/19/03 01:55:31  5-MIN KSTC 190755Z AUTO 00000KT 5SM BR CLR 13/13 A3009 870 100 900 000/00 RMK AO2
14926KSTC STC20030719020010007/19/03 02:00:31  5-MIN KSTC 190800Z AUTO 00000KT 6SM BR CLR 14/13 A3009 870 96 1000 000/00 RMK AO2
14926KSTC STC20030719020509807/19/03 02:05:31  5-MIN KSTC 190805Z AUTO 00000KT 8SM CLR 14/14 A3009 870 100 1000 000/00 RMK AO2
14926KSTC STC20030719021009707/19/03 02:10:31  5-MIN KSTC 190810Z AUTO 00000KT 8SM CLR 14/13 A3009 870 96 1000 000/00 RMK AO2
14926KSTC STC20030719021509707/19/03 02:15:31  5-MIN KSTC 190815Z AUTO 00000KT 8SM CLR 13/13 A3009 870 100 900 000/00 RMK AO2
14926KSTC STC20030719022009707/19/03 02:20:31  5-MIN KSTC 190820Z AUTO 00000KT 7SM CLR 13/13 A3009 870 100 900 000/00 RMK AO2
14926KSTC STC20030719022509707/19/03 02:25:31  5-MIN KSTC 190825Z AUTO 00000KT 7SM CLR 13/13 A3009 870 100 900 000/00 RMK AO2
14926KSTC STC20030719023009707/19/03 02:30:31  5-MIN KSTC 190830Z AUTO 00000KT 7SM CLR 13/13 A3009 870 100 900 000/00 RMK AO2
14926KSTC STC20030719023509707/19/03 02:35:31  5-MIN KSTC 190835Z AUTO 00000KT 7SM CLR 13/13 A3009 870 100 900 000/00 RMK AO2
14926KSTC STC20030719024009707/19/03 02:40:31  5-MIN KSTC 190840Z AUTO 00000KT 7SM CLR 14/13 A3009 870 96 1000 000/00 RMK AO2
14926KSTC STC20030719024509707/19/03 02:45:31  5-MIN KSTC 190845Z AUTO 00000KT 7SM CLR 14/13 A3009 870 96 1000 000/00 RMK AO2
14926KSTC STC20030719025012407/19/03 02:50:31  5-MIN KSTC 190850Z AUTO 00000KT 6SM BR CLR 14/14 A3009 870 100 1000 000/00 RMK AO2 SLP195 T01390139 57001
14926KSTC STC20030719025510007/19/03 02:55:31  5-MIN KSTC 190855Z AUTO 00000KT 5SM BR CLR 13/13 A3009 870 100 900 000/00 RMK AO2
14926KSTC STC20030719030010007/19/03 03:00:31  5-MIN KSTC 190900Z AUTO 00000KT 3SM BR CLR 13/13 A3009 870 100 900 000/00 RMK AO2
14926KSTC STC20030719030510407/19/03 03:05:31  5-MIN KSTC 190905Z AUTO 00000KT 1 3/4SM BR CLR 13/13 A3009 870 100 900 000/00 RMK AO2
14926KSTC STC20030719031010407/19/03 03:10:31  5-MIN KSTC 190910Z AUTO 00000KT 1 3/4SM BR CLR 13/13 A3009 870 100 900 000/00 RMK AO2
14926KSTC STC20030719031510407/19/03 03:15:31  5-MIN KSTC 190915Z AUTO 00000KT 1 3/4SM BR CLR 13/13 A3009 870 100 900 000/00 RMK AO2
14926KSTC STC20030719032010207/19/03 03:20:31  5-MIN KSTC 190920Z AUTO 00000KT 3/4SM BR CLR 13/13 A3009 870 100 900 000/00 RMK AO2
14926KSTC STC20030719032510007/19/03 03:25:31  5-MIN KSTC 190925Z AUTO 00000KT 1SM BR CLR 13/13 A3010 860 100 900 000/00 RMK AO2
14926KSTC STC20030719033010507/19/03 03:30:31  5-MIN KSTC 190930Z AUTO 00000KT 2 1/2SM BR CLR 14/14 A3009 870 100 1000 000/00 RMK AO2
14926KSTC STC20030719033510007/19/03 03:35:31  5-MIN KSTC 190935Z AUTO 00000KT 4SM BR CLR 13/13 A3010 860 100 900 000/00 RMK AO2
14926KSTC STC20030719034010107/19/03 03:40:31  5-MIN KSTC 190940Z AUTO 00000KT 4SM BR CLR 14/14 A3010 860 100 1000 000/00 RMK AO2
14926KSTC STC20030719034510307/19/03 03:45:31  5-MIN KSTC 190945Z AUTO 00000KT 5SM BR FEW110 13/13 A3009 870 100 900 000/00 RMK AO2
14926KSTC STC20030719035012007/19/03 03:50:31  5-MIN KSTC 190950Z AUTO 00000KT 6SM BR SCT120 13/13 A3009 870 100 900 000/00 RMK AO2 SLP196 T01330133
14926KSTC STC20030719035510307/19/03 03:55:31  5-MIN KSTC 190955Z AUTO 00000KT 6SM BR SCT120 13/13 A3009 870 100 900 000/00 RMK AO2
14926KSTC STC20030719040010007/19/03 04:00:31  5-MIN KSTC 191000Z AUTO 00000KT 7SM FEW120 13/13 A3009 870 100 900 000/00 RMK AO2
14926KSTC STC20030719040510007/19/03 04:05:31  5-MIN KSTC 191005Z AUTO 00000KT 9SM FEW120 13/13 A3010 870 100 900 000/00 RMK AO2
14926KSTC STC20030719041010007/19/03 04:10:31  5-MIN KSTC 191010Z AUTO 17003KT 9SM FEW120 13/13 A3009 870 100 900 170/03 RMK AO2
14926KSTC STC20030719041510007/19/03 04:15:31  5-MIN KSTC 191015Z AUTO 00000KT 9SM FEW120 13/13 A3009 870 100 900 000/00 RMK AO2
14926KSTC STC20030719042009707/19/03 04:20:31  5-MIN KSTC 191020Z AUTO 00000KT 9SM CLR 13/13 A3009 870 100 800 000/00 RMK AO2
14926KSTC STC20030719042510007/19/03 04:25:31  5-MIN KSTC 191025Z AUTO 00000KT 6SM BR CLR 13/13 A3010 860 100 900 000/00 RMK AO2
14926KSTC STC20030719043010007/19/03 04:30:31  5-MIN KSTC 191030Z AUTO 00000KT 6SM BR CLR 13/13 A3009 870 100 900 000/00 RMK AO2
14926KSTC STC20030719043510007/19/03 04:35:31  5-MIN KSTC 191035Z AUTO 00000KT 5SM BR CLR 13/13 A3009 870 100 900 000/00 RMK AO2
14926KSTC STC20030719044010307/19/03 04:40:31  5-MIN KSTC 191040Z AUTO 00000KT 4SM BR FEW120 14/13 A3010 870 96 1000 000/00 RMK AO2
14926KSTC STC20030719044510407/19/03 04:45:31  5-MIN KSTC 191045Z AUTO 00000KT 3SM BR FEW120 14/14 A3010 860 100 1000 000/00 RMK AO2
14926KSTC STC20030719045012007/19/03 04:50:31  5-MIN KSTC 191050Z AUTO 00000KT 3SM BR FEW120 13/13 A3010 860 100 900 000/00 RMK AO2 SLP197 T01330133
14926KSTC STC20030719045510307/19/03 04:55:31  5-MIN KSTC 191055Z AUTO 00000KT 3SM BR FEW120 13/13 A3009 870 100 800 000/00 RMK AO2
14926KSTC STC20030719050010307/19/03 05:00:31  5-MIN KSTC 191100Z AUTO 00000KT 3SM BR FEW120 13/13 A3009 870 100 900 000/00 RMK AO2
14926KSTC STC20030719050510007/19/03 05:05:31  5-MIN KSTC 191105Z AUTO 00000KT 4SM BR CLR 13/13 A3009 870 100 900 000/00 RMK AO2
14926KSTC STC20030719051010407/19/03 05:10:31  5-MIN KSTC 191110Z AUTO 00000KT 5SM BR FEW120 14/14 A3009 870 100 1000 000/00 RMK AO2
14926KSTC STC20030719051510307/19/03 05:15:31  5-MIN KSTC 191115Z AUTO 00000KT 6SM BR FEW120 13/13 A3009 870 100 900 000/00 RMK AO2
14926KSTC STC20030719052010107/19/03 05:20:31  5-MIN KSTC 191120Z AUTO 00000KT 6SM BR CLR 14/14 A3009 870 100 1000 000/00 RMK AO2
14926KSTC STC20030719052509807/19/03 05:25:31  5-MIN KSTC 191125Z AUTO 00000KT 7SM CLR 14/14 A3010 860 100 1000 000/00 RMK AO2
14926KSTC STC20030719053009707/19/03 05:30:31  5-MIN KSTC 191130Z AUTO 00000KT 7SM CLR 14/14 A3009 870 96 1000 000/00 RMK AO2
14926KSTC STC20030719053510007/19/03 05:35:31  5-MIN KSTC 191135Z AUTO 00000KT 8SM FEW120 14/14 A3009 870 96 1000 000/00 RMK AO2
14926KSTC STC20030719054009707/19/03 05:40:31  5-MIN KSTC 191140Z AUTO 15003KT 9SM CLR 14/14 A3009 870 96 1000 140/03 RMK AO2
14926KSTC STC20030719054509807/19/03 05:45:31  5-MIN KSTC 191145Z AUTO 00000KT 10SM CLR 15/14 A3010 860 96 1100 000/00 RMK AO2
14926KSTC STC20030719055013307/19/03 05:50:31  5-MIN KSTC 191150Z AUTO 00000KT 10SM CLR 15/14 A3010 860 96 1100 000/00 RMK AO2 SLP197 T01500144 10150 20128 56009
14926KSTC STC20030719055509807/19/03 05:55:31  5-MIN KSTC 191155Z AUTO 14003KT 10SM CLR 15/14 A3009 870 96 1100 140/03 RMK AO2
14926KSTC STC20030719060009807/19/03 06:00:31  5-MIN KSTC 191200Z AUTO 15003KT 10SM CLR 16/15 A3009 870 96 1200 150/03 RMK AO2
14926KSTC STC20030719060509807/19/03 06:05:31  5-MIN KSTC 191205Z AUTO 14004KT 10SM CLR 16/15 A3009 870 96 1200 140/04 RMK AO2
14926KSTC STC20030719061009807/19/03 06:10:31  5-MIN KSTC 191210Z AUTO 13003KT 10SM CLR 16/15 A3009 870 93 1200 130/03 RMK AO2
14926KSTC STC20030719061509807/19/03 06:15:31  5-MIN KSTC 191215Z AUTO 14003KT 10SM CLR 16/15 A3009 870 93 1200 130/03 RMK AO2
14926KSTC STC20030719062009807/19/03 06:20:31  5-MIN KSTC 191220Z AUTO 14003KT 10SM CLR 17/15 A3009 870 90 1300 130/03 RMK AO2
14926KSTC STC20030719062509807/19/03 06:25:31  5-MIN KSTC 191225Z AUTO 14003KT 10SM CLR 17/15 A3008 880 90 1300 140/03 RMK AO2
14926KSTC STC20030719063009807/19/03 06:30:31  5-MIN KSTC 191230Z AUTO 15003KT 10SM CLR 17/16 A3008 880 93 1300 150/03 RMK AO2
14926KSTC STC20030719063509807/19/03 06:35:31  5-MIN KSTC 191235Z AUTO 13003KT 10SM CLR 17/16 A3008 880 90 1400 130/03 RMK AO2
14926KSTC STC20030719064009807/19/03 06:40:31  5-MIN KSTC 191240Z AUTO 14003KT 10SM CLR 17/15 A3008 880 90 1300 140/03 RMK AO2
14926KSTC STC20030719064510107/19/03 06:45:31  5-MIN KSTC 191245Z AUTO 15003KT 10SM FEW110 17/16 A3008 880 90 1400 150/03 RMK AO2
14926KSTC STC20030719065011807/19/03 06:50:31  5-MIN KSTC 191250Z AUTO 16003KT 10SM SCT110 18/16 A3008 880 90 1400 160/03 RMK AO2 SLP191 T01780161
14926KSTC STC20030719065510107/19/03 06:55:31  5-MIN KSTC 191255Z AUTO 17003KT 10SM FEW110 18/16 A3008 880 87 1500 160/03 RMK AO2
14926KSTC STC20030719070010107/19/03 07:00:31  5-MIN KSTC 191300Z AUTO 17004KT 10SM FEW110 18/16 A3008 880 84 1500 170/04 RMK AO2
14926KSTC STC20030719070510107/19/03 07:05:31  5-MIN KSTC 191305Z AUTO 18004KT 10SM FEW110 18/16 A3007 890 84 1500 170/04 RMK AO2
14926KSTC STC20030719071010107/19/03 07:10:31  5-MIN KSTC 191310Z AUTO 18005KT 10SM FEW110 19/16 A3007 890 81 1600 180/05 RMK AO2
14926KSTC STC20030719071509807/19/03 07:15:31  5-MIN KSTC 191315Z AUTO 19005KT 10SM CLR 19/16 A3007 890 81 1600 190/05 RMK AO2
14926KSTC STC20030719072009807/19/03 07:20:31  5-MIN KSTC 191320Z AUTO 20003KT 10SM CLR 19/16 A3007 880 81 1600 200/03 RMK AO2
14926KSTC STC20030719072509807/19/03 07:25:31  5-MIN KSTC 191325Z AUTO 21004KT 10SM CLR 20/16 A3008 880 78 1700 210/04 RMK AO2
14926KSTC STC20030719073009807/19/03 07:30:31  5-MIN KSTC 191330Z AUTO 21005KT 10SM CLR 20/16 A3008 880 78 1700 210/05 RMK AO2
14926KSTC STC20030719073509807/19/03 07:35:31  5-MIN KSTC 191335Z AUTO 21006KT 10SM CLR 21/16 A3007 880 75 1800 210/06 RMK AO2
14926KSTC STC20030719074010107/19/03 07:40:31  5-MIN KSTC 191340Z AUTO 21006KT 10SM FEW110 21/16 A3007 890 73 1800 210/06 RMK AO2
14926KSTC STC20030719074510107/19/03 07:45:31  5-MIN KSTC 191345Z AUTO 20005KT 10SM SCT100 21/16 A3007 890 75 1800 200/05 RMK AO2
14926KSTC STC20030719075011807/19/03 07:50:31  5-MIN KSTC 191350Z AUTO 21006KT 10SM FEW100 21/16 A3007 890 73 1800 200/06 RMK AO2 SLP187 T02110161
14926KSTC STC20030719075510107/19/03 07:55:31  5-MIN KSTC 191355Z AUTO 19006KT 10SM FEW100 21/16 A3007 890 73 1800 190/06 RMK AO2
14926KSTC STC20030719080010107/19/03 08:00:31  5-MIN KSTC 191400Z AUTO 20005KT 10SM FEW100 22/16 A3007 890 70 1900 200/05 RMK AO2
14926KSTC STC20030719080510107/19/03 08:05:31  5-MIN KSTC 191405Z AUTO 19006KT 10SM FEW100 22/16 A3007 890 70 1900 190/06 RMK AO2
14926KSTC STC20030719081010107/19/03 08:10:31  5-MIN KSTC 191410Z AUTO 19005KT 10SM FEW100 22/16 A3006 890 70 1900 190/05 RMK AO2
14926KSTC STC20030719081509807/19/03 08:15:31  5-MIN KSTC 191415Z AUTO 19005KT 10SM CLR 22/16 A3006 890 70 1900 190/05 RMK AO2
14926KSTC STC20030719082009807/19/03 08:20:31  5-MIN KSTC 191420Z AUTO 20005KT 10SM CLR 22/17 A3006 890 73 1900 190/05 RMK AO2
14926KSTC STC20030719082509807/19/03 08:25:31  5-MIN KSTC 191425Z AUTO 20005KT 10SM CLR 22/17 A3006 900 73 1900 190/05 RMK AO2
14926KSTC STC20030719083009807/19/03 08:30:31  5-MIN KSTC 191430Z AUTO 20005KT 10SM CLR 22/17 A3006 900 73 2000 190/05 RMK AO2
14926KSTC STC20030719083509807/19/03 08:35:31  5-MIN KSTC 191435Z AUTO 19005KT 10SM CLR 22/17 A3006 900 73 2000 180/05 RMK AO2
14926KSTC STC20030719084009807/19/03 08:40:31  5-MIN KSTC 191440Z AUTO 20004KT 10SM CLR 22/17 A3006 900 73 2000 190/04 RMK AO2
14926KSTC STC20030719084509807/19/03 08:45:31  5-MIN KSTC 191445Z AUTO 19006KT 10SM CLR 23/18 A3006 900 73 2000 180/06 RMK AO2
14926KSTC STC20030719085012107/19/03 08:50:31  5-MIN KSTC 191450Z AUTO 19005KT 10SM CLR 23/18 A3005 900 73 2100 180/05 RMK AO2 SLP182 T02280178 50001
14926KSTC STC20030719085509807/19/03 08:55:31  5-MIN KSTC 191455Z AUTO 21006KT 10SM CLR 23/18 A3005 900 73 2100 210/06 RMK AO2
14926KSTC STC20030719090009807/19/03 09:00:31  5-MIN KSTC 191500Z AUTO 19006KT 10SM CLR 23/18 A3005 900 73 2100 190/06 RMK AO2
14926KSTC STC20030719090509807/19/03 09:05:31  5-MIN KSTC 191505Z AUTO 20006KT 10SM CLR 23/18 A3005 910 73 2100 200/06 RMK AO2
14926KSTC STC20030719091009807/19/03 09:10:31  5-MIN KSTC 191510Z AUTO 21006KT 10SM CLR 23/19 A3005 910 76 2100 200/06 RMK AO2
14926KSTC STC20030719091509807/19/03 09:15:31  5-MIN KSTC 191515Z AUTO 22006KT 10SM CLR 24/19 A3005 910 73 2200 210/06 RMK AO2
14926KSTC STC20030719092010107/19/03 09:20:31  5-MIN KSTC 191520Z AUTO 19006KT 10SM FEW110 24/19 A3005 910 73 2200 190/06 RMK AO2
14926KSTC STC20030719092510107/19/03 09:25:31  5-MIN KSTC 191525Z AUTO 20007KT 10SM FEW110 24/19 A3005 910 76 2200 200/07 RMK AO2
14926KSTC STC20030719093010107/19/03 09:30:31  5-MIN KSTC 191530Z AUTO 20006KT 10SM FEW110 24/19 A3005 910 73 2200 200/06 RMK AO2
14926KSTC STC20030719093510107/19/03 09:35:31  5-MIN KSTC 191535Z AUTO 21008KT 10SM FEW110 24/19 A3005 910 73 2200 200/08 RMK AO2
14926KSTC STC20030719094010107/19/03 09:40:31  5-MIN KSTC 191540Z AUTO 23007KT 10SM FEW110 25/20 A3005 910 73 2300 220/07 RMK AO2
14926KSTC STC20030719094510107/19/03 09:45:31  5-MIN KSTC 191545Z AUTO 21007KT 10SM FEW110 25/20 A3004 910 73 2300 210/07 RMK AO2
14926KSTC STC20030719095011507/19/03 09:50:31  5-MIN KSTC 191550Z AUTO 21009KT 10SM CLR 26/20 A3004 920 71 2400 200/09 RMK AO2 SLP177 T02560200
14926KSTC STC20030719095509807/19/03 09:55:31  5-MIN KSTC 191555Z AUTO 22009KT 10SM CLR 25/20 A3004 910 73 2300 220/09 RMK AO2
14926KSTC STC20030719100009807/19/03 10:00:31  5-MIN KSTC 191600Z AUTO 23007KT 10SM CLR 25/20 A3004 910 73 2300 230/07 RMK AO2
14926KSTC STC20030719100510107/19/03 10:05:31  5-MIN KSTC 191605Z AUTO 22009KT 10SM FEW022 26/21 A3004 910 73 2400 220/09 RMK AO2
14926KSTC STC20030719101010107/19/03 10:10:31  5-MIN KSTC 191610Z AUTO 21010KT 10SM FEW022 26/21 A3004 920 73 2400 210/10 RMK AO2
14926KSTC STC20030719101510107/19/03 10:15:31  5-MIN KSTC 191615Z AUTO 24007KT 10SM FEW022 26/21 A3004 920 73 2400 240/07 RMK AO2
14926KSTC STC20030719102010107/19/03 10:20:31  5-MIN KSTC 191620Z AUTO 21008KT 10SM FEW022 26/21 A3003 920 71 2500 210/08 RMK AO2
14926KSTC STC20030719102510107/19/03 10:25:31  5-MIN KSTC 191625Z AUTO 22007KT 10SM FEW024 26/21 A3003 920 71 2500 220/07 RMK AO2
14926KSTC STC20030719103010107/19/03 10:30:31  5-MIN KSTC 191630Z AUTO 22008KT 10SM FEW024 27/21 A3003 930 71 2500 220/08 RMK AO2
14926KSTC STC20030719103510107/19/03 10:35:31  5-MIN KSTC 191635Z AUTO 20008KT 10SM FEW024 26/21 A3002 930 71 2500 200/08 RMK AO2
14926KSTC STC20030719104010107/19/03 10:40:31  5-MIN KSTC 191640Z AUTO 21011KT 10SM FEW024 27/21 A3002 930 69 2500 210/11 RMK AO2
14926KSTC STC20030719104510807/19/03 10:45:31  5-MIN KSTC 191645Z AUTO 22011KT 10SM FEW024 SCT029 26/21 A3002 940 71 2500 210/11 RMK AO2
14926KSTC STC20030719105011807/19/03 10:50:31  5-MIN KSTC 191650Z AUTO 21013KT 10SM FEW026 26/21 A3002 940 71 2500 210/13 RMK AO2 SLP169 T02610206
14926KSTC STC20030719105510107/19/03 10:55:31  5-MIN KSTC 191655Z AUTO 21010KT 10SM SCT028 27/21 A3002 940 69 2500 210/10 RMK AO2
14926KSTC STC20030719110010807/19/03 11:00:31  5-MIN KSTC 191700Z AUTO 24010KT 10SM FEW026 SCT031 26/21 A3002 940 71 2500 230/10 RMK AO2
14926KSTC STC20030719110510107/19/03 11:05:31  5-MIN KSTC 191705Z AUTO 21014KT 10SM SCT026 27/21 A3001 940 69 2500 200/14 RMK AO2
14926KSTC STC20030719111010707/19/03 11:10:31  5-MIN KSTC 191710Z AUTO 21012G16KT 10SM SCT028 27/20 A3001 940 66 2500 210/12G16 RMK AO2
14926KSTC STC20030719111510107/19/03 11:15:31  5-MIN KSTC 191715Z AUTO 22012KT 10SM FEW029 27/21 A3001 940 69 2500 220/12 RMK AO2
14926KSTC STC20030719112010107/19/03 11:20:31  5-MIN KSTC 191720Z AUTO 21011KT 10SM FEW027 27/20 A3001 940 66 2500 210/11 RMK AO2
14926KSTC STC20030719112510107/19/03 11:25:31  5-MIN KSTC 191725Z AUTO 22010KT 10SM FEW027 27/21 A3001 940 69 2500 220/10 RMK AO2
14926KSTC STC20030719113010107/19/03 11:30:31  5-MIN KSTC 191730Z AUTO 20012KT 10SM FEW027 27/20 A3001 940 64 2600 200/12 RMK AO2
14926KSTC STC20030719113510107/19/03 11:35:31  5-MIN KSTC 191735Z AUTO 23013KT 10SM FEW027 27/20 A3001 950 66 2500 230/13 RMK AO2
14926KSTC STC20030719114010107/19/03 11:40:31  5-MIN KSTC 191740Z AUTO 21012KT 10SM FEW029 27/20 A3000 950 64 2600 210/12 RMK AO2
14926KSTC STC20030719114510107/19/03 11:45:31  5-MIN KSTC 191745Z AUTO 21011KT 10SM FEW029 27/21 A3000 950 66 2600 210/11 RMK AO2
14926KSTC STC20030719115013607/19/03 11:50:31  5-MIN KSTC 191750Z AUTO 20012KT 10SM FEW029 27/21 A3000 950 69 2600 200/12 RMK AO2 SLP163 T02670206 10272 20150 58013
14926KSTC STC20030719115510107/19/03 11:55:31  5-MIN KSTC 191755Z AUTO 22009KT 10SM SCT029 27/21 A3000 950 69 2600 220/09 RMK AO2
14926KSTC STC20030719120010107/19/03 12:00:31  5-MIN KSTC 191800Z AUTO 23009KT 10SM FEW029 27/21 A3000 950 66 2600 230/09 RMK AO2
14926KSTC STC20030719120510107/19/03 12:05:31  5-MIN KSTC 191805Z AUTO 23010KT 10SM FEW029 28/20 A3000 950 62 2700 230/10 RMK AO2
14926KSTC STC20030719121010107/19/03 12:10:31  5-MIN KSTC 191810Z AUTO 22009KT 10SM FEW029 27/21 A3000 960 66 2600 220/09 RMK AO2
14926KSTC STC20030719121510107/19/03 12:15:31  5-MIN KSTC 191815Z AUTO 20008KT 10SM FEW029 28/21 A3000 950 64 2700 200/08 RMK AO2
14926KSTC STC20030719122010107/19/03 12:20:31  5-MIN KSTC 191820Z AUTO 20010KT 10SM FEW029 28/21 A3000 950 64 2700 200/10 RMK AO2
14926KSTC STC20030719122509807/19/03 12:25:31  5-MIN KSTC 191825Z AUTO 20010KT 10SM CLR 28/21 A3000 960 64 2700 190/10 RMK AO2
14926KSTC STC20030719123010107/19/03 12:30:31  5-MIN KSTC 191830Z AUTO 20011KT 10SM FEW032 28/20 A3000 960 62 2700 200/11 RMK AO2
14926KSTC STC20030719123510807/19/03 12:35:31  5-MIN KSTC 191835Z AUTO 19011KT 10SM FEW032 SCT100 28/20 A3000 960 62 2700 190/11 RMK AO2
14926KSTC STC20030719124010107/19/03 12:40:31  5-MIN KSTC 191840Z AUTO 21011KT 10SM FEW032 28/21 A3000 950 64 2700 210/11 RMK AO2
14926KSTC STC20030719124510107/19/03 12:45:31  5-MIN KSTC 191845Z AUTO 21009KT 10SM FEW034 28/21 A3000 950 62 2700 210/09 RMK AO2
14926KSTC STC20030719125012507/19/03 12:50:31  5-MIN KSTC 191850Z AUTO 23009KT 10SM FEW034 SCT100 28/21 A2999 960 64 2700 220/09 RMK AO2 SLP161 T02780206
14926KSTC STC20030719125510107/19/03 12:55:31  5-MIN KSTC 191855Z AUTO 19009KT 10SM SCT032 28/21 A2999 960 64 2700 190/09 RMK AO2
14926KSTC STC20030719130010107/19/03 13:00:31  5-MIN KSTC 191900Z AUTO 20010KT 10SM FEW032 28/21 A2999 960 62 2700 190/10 RMK AO2
14926KSTC STC20030719130510107/19/03 13:05:31  5-MIN KSTC 191905Z AUTO 20010KT 10SM SCT034 28/21 A2999 960 64 2700 200/10 RMK AO2
14926KSTC STC20030719131010107/19/03 13:10:31  5-MIN KSTC 191910Z AUTO 20013KT 10SM SCT032 28/21 A2998 970 64 2700 190/13 RMK AO2
14926KSTC STC20030719131510107/19/03 13:15:31  5-MIN KSTC 191915Z AUTO 19010KT 10SM SCT033 28/21 A2998 970 62 2800 190/10 RMK AO2
14926KSTC STC20030719132010107/19/03 13:20:31  5-MIN KSTC 191920Z AUTO 20011KT 10SM FEW031 28/21 A2998 970 64 2800 200/11 RMK AO2
14926KSTC STC20030719132510107/19/03 13:25:31  5-MIN KSTC 191925Z AUTO 20012KT 10SM FEW033 28/21 A2997 980 62 2800 200/12 RMK AO2
14926KSTC STC20030719133010107/19/03 13:30:31  5-MIN KSTC 191930Z AUTO 19010KT 10SM FEW033 28/21 A2997 980 64 2800 190/10 RMK AO2
14926KSTC STC20030719133510107/19/03 13:35:31  5-MIN KSTC 191935Z AUTO 20013KT 10SM FEW033 28/21 A2996 990 62 2800 200/13 RMK AO2
14926KSTC STC20030719134010107/19/03 13:40:31  5-MIN KSTC 191940Z AUTO 20013KT 10SM FEW033 28/21 A2996 990 62 2800 200/13 RMK AO2
14926KSTC STC20030719134510107/19/03 13:45:31  5-MIN KSTC 191945Z AUTO 20013KT 10SM FEW035 28/20 A2996 990 60 2800 200/13 RMK AO2
14926KSTC STC20030719135011807/19/03 13:50:31  5-MIN KSTC 191950Z AUTO 21011KT 10SM FEW035 28/20 A2996 990 60 2800 200/11 RMK AO2 SLP150 T02830200
14926KSTC STC20030719135510107/19/03 13:55:31  5-MIN KSTC 191955Z AUTO 19011KT 10SM FEW035 28/21 A2996 990 62 2800 190/11 RMK AO2
14926KSTC STC20030719140010807/19/03 14:00:31  5-MIN KSTC 192000Z AUTO 20012KT 10SM FEW035 SCT090 28/20 A2996 990 60 2800 190/12 RMK AO2
14926KSTC STC20030719140510807/19/03 14:05:31  5-MIN KSTC 192005Z AUTO 20014KT 10SM FEW035 SCT090 28/20 A2996 990 60 2800 200/14 RMK AO2
14926KSTC STC20030719141010107/19/03 14:10:31  5-MIN KSTC 192010Z AUTO 20011KT 10SM FEW035 28/20 A2996 990 60 2800 200/11 RMK AO2
14926KSTC STC20030719141511507/19/03 14:15:31  5-MIN KSTC 192015Z AUTO 21013G19KT 10SM SCT037 SCT090 28/19 A2995 1000 60 2700 200/13G19 RMK AO2
14926KSTC STC20030719142011507/19/03 14:20:31  5-MIN KSTC 192020Z AUTO 19011G19KT 10SM SCT039 SCT090 28/20 A2995 1000 60 2800 180/11G19 RMK AO2
14926KSTC STC20030719142510907/19/03 14:25:31  5-MIN KSTC 192025Z AUTO 20011KT 10SM FEW039 SCT075 29/20 A2995 1000 58 2900 200/11 RMK AO2
14926KSTC STC20030719143010107/19/03 14:30:31  5-MIN KSTC 192030Z AUTO 20009KT 10SM SCT039 28/20 A2996 990 60 2800 190/09 RMK AO2
14926KSTC STC20030719143510107/19/03 14:35:31  5-MIN KSTC 192035Z AUTO 22011KT 10SM SCT039 29/21 A2996 990 60 2800 220/11 RMK AO2
14926KSTC STC20030719144010207/19/03 14:40:31  5-MIN KSTC 192040Z AUTO 19012KT 10SM SCT041 29/21 A2995 1000 60 2900 190/12 RMK AO2
14926KSTC STC20030719144510207/19/03 14:45:31  5-MIN KSTC 192045Z AUTO 19010KT 10SM FEW041 29/20 A2994 1000 58 2900 190/10 RMK AO2
14926KSTC STC20030719145013207/19/03 14:50:31  5-MIN KSTC 192050Z AUTO 19010KT 10SM FEW041 28/21 A2993 1020 62 2800 190/10 RMK AO2 PRESFR SLP140 T02830206 58018
14926KSTC STC20030719145510207/19/03 14:55:31  5-MIN KSTC 192055Z AUTO 19012KT 10SM FEW037 28/21 A2993 1020 62 2800 180/12 RMK AO2
14926KSTC STC20030719150010907/19/03 15:00:31  5-MIN KSTC 192100Z AUTO 19010KT 10SM FEW037 SCT045 28/21 A2994 1010 62 2800 180/10 RMK AO2
14926KSTC STC20030719150510207/19/03 15:05:31  5-MIN KSTC 192105Z AUTO 20010KT 10SM FEW037 28/21 A2995 1000 62 2800 200/10 RMK AO2
14926KSTC STC20030719151010807/19/03 15:10:31  5-MIN KSTC 192110Z AUTO 19008KT 10SM FEW037 28/21 A2996 990 64 2700 190/08 RMK AO2 PRESRR
14926KSTC STC20030719151510107/19/03 15:15:31  5-MIN KSTC 192115Z AUTO 19005KT 10SM SCT039 28/20 A2996 990 62 2700 190/05 RMK AO2
14926KSTC STC20030719152010907/19/03 15:20:31  5-MIN KSTC 192120Z AUTO 19008KT 10SM SCT041 BKN048 27/21 A2995 1000 66 2700 190/08 RMK AO2
14926KSTC STC20030719152511807/19/03 15:25:31  5-MIN KSTC 192125Z AUTO 19008KT 10SM TS FEW038 SCT047 27/21 A2995 1000 66 2700 190/08 RMK AO2 TSB23
14926KSTC STC20030719153011807/19/03 15:30:31  5-MIN KSTC 192130Z AUTO 19006KT 10SM TS SCT042 BKN049 27/21 A2994 1000 69 2600 190/06 RMK AO2 TSB23
14926KSTC STC20030719153511107/19/03 15:35:31  5-MIN KSTC 192135Z AUTO 19006KT 10SM TS SCT044 27/21 A2995 1000 69 2600 190/06 RMK AO2 TSB23
14926KSTC STC20030719154011107/19/03 15:40:31  5-MIN KSTC 192140Z AUTO 19004KT 10SM TS SCT044 27/21 A2995 1000 69 2600 180/04 RMK AO2 TSB23
14926KSTC STC20030719154511007/19/03 15:45:31  5-MIN KSTC 192145Z AUTO 19003KT 10SM TS SCT044 27/21 A2996 990 69 2600 190/03 RMK AO2 TSB23
14926KSTC STC20030719155012707/19/03 15:50:31  5-MIN KSTC 192150Z AUTO 20004KT 10SM TS FEW044 26/21 A2996 990 71 2500 200/04 RMK AO2 TSB23 SLP151 T02610206
14926KSTC STC20030719155510407/19/03 15:55:31  5-MIN KSTC 192155Z AUTO 18003KT 10SM TS FEW044 26/21 A2996 990 71 2500 180/03 RMK AO2
14926KSTC STC20030719160010407/19/03 16:00:31  5-MIN KSTC 192200Z AUTO 00000KT 10SM TS FEW048 26/21 A2997 980 73 2500 000/00 RMK AO2
14926KSTC STC20030719160511107/19/03 16:05:31  5-MIN KSTC 192205Z AUTO 06004KT 10SM TS FEW050 SCT060 25/21 A2997 980 79 2400 060/04 RMK AO2
14926KSTC STC20030719161012607/19/03 16:10:31  5-MIN KSTC 192210Z AUTO 00000KT 10SM -TSRA SCT050 BKN060 25/21 A2997 980 79 2400 000/00 RMK AO2 RAB06 P0000
14926KSTC STC20030719161512607/19/03 16:15:31  5-MIN KSTC 192215Z AUTO 00000KT 10SM -TSRA BKN050 BKN060 25/22 A2996 990 81 2400 000/00 RMK AO2 RAB06 P0000
14926KSTC STC20030719162014107/19/03 16:20:31  5-MIN KSTC 192220Z AUTO 20005KT 10SM -TSRA FEW022 BKN048 BKN060 25/22 A2995 1000 84 2400 200/05 RMK AO2 RAB06 PRESFR P0001
14926KSTC STC20030719162514107/19/03 16:25:31  5-MIN KSTC 192225Z AUTO 21009KT 10SM -TSRA FEW022 BKN048 BKN060 24/22 A2994 1010 87 2400 210/09 RMK AO2 RAB06 PRESFR P0001
14926KSTC STC20030719163012707/19/03 16:30:31  5-MIN KSTC 192230Z AUTO 21010KT 10SM -TSRA BKN050 BKN065 24/23 A2994 1010 93 2300 210/10 RMK AO2 RAB06 P0001
14926KSTC STC20030719163513407/19/03 16:35:31  5-MIN KSTC 192235Z AUTO 21009KT 10SM TS FEW044 BKN060 BKN070 24/22 A2993 1010 87 2300 210/09 RMK AO2 RAB06E34 P0001
14926KSTC STC20030719164012707/19/03 16:40:31  5-MIN KSTC 192240Z AUTO 22010KT 10SM TS FEW046 BKN070 24/22 A2993 1020 87 2300 220/10 RMK AO2 RAB06E34 P0001
14926KSTC STC20030719164512707/19/03 16:45:31  5-MIN KSTC 192245Z AUTO 20017KT 10SM TS BKN075 24/22 A2988 1060 87 2400 200/17 RMK AO2 RAB06E34 PRESFR P0001
14926KSTC STC20030719165013707/19/03 16:50:31  5-MIN KSTC 192250Z AUTO 21015KT 10SM -TSRA BKN065 24/21 A2989 1050 84 2400 200/15 RMK AO2 RAB06 SLP127 P0001 T02390211
14926KSTC STC20030719165511407/19/03 16:55:31  5-MIN KSTC 192255Z AUTO 21015KT 10SM -TSRA BKN060 24/21 A2989 1060 84 2400 210/15 RMK AO2 P0000
14926KSTC STC20030719170011407/19/03 17:00:31  5-MIN KSTC 192300Z AUTO 19014KT 10SM -TSRA SCT065 24/21 A2988 1070 81 2400 190/14 RMK AO2 P0000
14926KSTC STC20030719170511707/19/03 17:05:31  5-MIN KSTC 192305Z AUTO 21013KT 10SM TS SCT065 24/21 A2988 1070 84 2400 210/13 RMK AO2 RAE03 P0000
14926KSTC STC20030719171011707/19/03 17:10:31  5-MIN KSTC 192310Z AUTO 21013KT 10SM TS FEW060 24/21 A2988 1060 84 2400 210/13 RMK AO2 RAE03 P0000
14926KSTC STC20030719171511707/19/03 17:15:31  5-MIN KSTC 192315Z AUTO 22015KT 10SM TS FEW034 24/22 A2989 1060 87 2400 220/15 RMK AO2 RAE03 P0000
14926KSTC STC20030719172011407/19/03 17:20:31  5-MIN KSTC 192320Z AUTO 21017KT 10SM TS CLR 24/21 A2989 1060 84 2400 210/17 RMK AO2 RAE03 P0000
14926KSTC STC20030719172511407/19/03 17:25:31  5-MIN KSTC 192325Z AUTO 25013KT 10SM TS CLR 24/21 A2989 1060 81 2400 240/13 RMK AO2 RAE03 P0000
14926KSTC STC20030719173011407/19/03 17:30:31  5-MIN KSTC 192330Z AUTO 25013KT 10SM TS CLR 23/21 A2989 1050 84 2300 250/13 RMK AO2 RAE03 P0000
14926KSTC STC20030719173511407/19/03 17:35:31  5-MIN KSTC 192335Z AUTO 24011KT 10SM TS CLR 23/21 A2989 1050 84 2300 230/11 RMK AO2 RAE03 P0000
14926KSTC STC20030719174011407/19/03 17:40:31  5-MIN KSTC 192340Z AUTO 23011KT 10SM TS CLR 23/21 A2989 1060 84 2300 230/11 RMK AO2 RAE03 P0000
14926KSTC STC20030719174511607/19/03 17:45:31  5-MIN KSTC 192345Z AUTO 22010KT 10SM CLR 23/21 A2989 1060 84 2300 220/10 RMK AO2 TSE43RAE03 P0000
14926KSTC STC20030719175015707/19/03 17:50:31  5-MIN KSTC 192350Z AUTO 23012KT 10SM CLR 23/21 A2988 1060 84 2300 230/12 RMK AO2 TSE43RAE03 SLP123 P0000 60001 T02330206 10289 20233 58024
14926KSTC STC20030719175510207/19/03 17:55:31  5-MIN KSTC 192355Z AUTO 23013KT 10SM TS CLR 23/21 A2988 1060 87 2300 230/13 RMK AO2
14926KSTC STC20030719180010207/19/03 18:00:31  5-MIN KSTC 200000Z AUTO 23011KT 10SM TS CLR 23/21 A2988 1060 87 2300 230/11 RMK AO2
14926KSTC STC20030719180510207/19/03 18:05:31  5-MIN KSTC 200005Z AUTO 23011KT 10SM TS CLR 24/21 A2989 1060 84 2400 230/11 RMK AO2
14926KSTC STC20030719181010207/19/03 18:10:31  5-MIN KSTC 200010Z AUTO 24014KT 10SM TS CLR 24/21 A2988 1060 84 2400 240/14 RMK AO2
14926KSTC STC20030719181510207/19/03 18:15:31  5-MIN KSTC 200015Z AUTO 25011KT 10SM TS CLR 24/21 A2988 1060 81 2400 240/11 RMK AO2
14926KSTC STC20030719182010207/19/03 18:20:31  5-MIN KSTC 200020Z AUTO 25011KT 10SM TS CLR 24/20 A2988 1060 78 2400 250/11 RMK AO2
14926KSTC STC20030719182510207/19/03 18:25:31  5-MIN KSTC 200025Z AUTO 25012KT 10SM TS CLR 24/19 A2988 1060 73 2400 250/12 RMK AO2
14926KSTC STC20030719183010207/19/03 18:30:31  5-MIN KSTC 200030Z AUTO 26012KT 10SM TS CLR 24/18 A2988 1060 68 2400 250/12 RMK AO2
14926KSTC STC20030719183510207/19/03 18:35:31  5-MIN KSTC 200035Z AUTO 25011KT 10SM TS CLR 23/18 A2988 1060 70 2300 250/11 RMK AO2
14926KSTC STC20030719184010207/19/03 18:40:31  5-MIN KSTC 200040Z AUTO 26009KT 10SM TS CLR 23/17 A2988 1060 68 2300 250/09 RMK AO2
14926KSTC STC20030719184510207/19/03 18:45:31  5-MIN KSTC 200045Z AUTO 26008KT 10SM TS CLR 23/18 A2988 1060 70 2300 250/08 RMK AO2
14926KSTC STC20030719185011907/19/03 18:50:31  5-MIN KSTC 200050Z AUTO 25008KT 10SM TS CLR 23/18 A2988 1060 70 2300 250/08 RMK AO2 SLP122 T02330178
14926KSTC STC20030719185510207/19/03 18:55:31  5-MIN KSTC 200055Z AUTO 23008KT 10SM TS CLR 23/18 A2989 1060 73 2200 230/08 RMK AO2
14926KSTC STC20030719190010707/19/03 19:00:31  5-MIN KSTC 200100Z AUTO 25008KT 10SM CLR 23/18 A2989 1060 76 2200 240/08 RMK AO2 TSE0058
14926KSTC STC20030719190511307/19/03 19:05:31  5-MIN KSTC 200105Z AUTO 23008KT 10SM TS CLR 23/18 A2989 1050 73 2200 220/08 RMK AO2 TSE0058B03
14926KSTC STC20030719191011307/19/03 19:10:31  5-MIN KSTC 200110Z AUTO 23007KT 10SM TS CLR 22/18 A2989 1050 75 2200 230/07 RMK AO2 TSE0058B03
14926KSTC STC20030719191511307/19/03 19:15:31  5-MIN KSTC 200115Z AUTO 24007KT 10SM TS CLR 22/18 A2989 1050 75 2200 230/07 RMK AO2 TSE0058B03
14926KSTC STC20030719192011307/19/03 19:20:31  5-MIN KSTC 200120Z AUTO 25006KT 10SM CLR 22/18 A2989 1050 75 2200 250/06 RMK AO2 TSE0058B03E17
14926KSTC STC20030719192511307/19/03 19:25:31  5-MIN KSTC 200125Z AUTO 26007KT 10SM CLR 22/18 A2989 1050 75 2200 250/07 RMK AO2 TSE0058B03E17
14926KSTC STC20030719193011307/19/03 19:30:31  5-MIN KSTC 200130Z AUTO 26006KT 10SM CLR 22/18 A2990 1050 75 2200 260/06 RMK AO2 TSE0058B03E17
14926KSTC STC20030719193511307/19/03 19:35:31  5-MIN KSTC 200135Z AUTO 27006KT 10SM CLR 22/18 A2990 1050 78 2100 260/06 RMK AO2 TSE0058B03E17
14926KSTC STC20030719194011307/19/03 19:40:31  5-MIN KSTC 200140Z AUTO 27004KT 10SM CLR 22/18 A2990 1050 78 2100 270/04 RMK AO2 TSE0058B03E17
14926KSTC STC20030719194511307/19/03 19:45:31  5-MIN KSTC 200145Z AUTO 27004KT 10SM CLR 22/18 A2990 1050 78 2100 270/04 RMK AO2 TSE0058B03E17
14926KSTC STC20030719195013007/19/03 19:50:31  5-MIN KSTC 200150Z AUTO 27005KT 10SM CLR 22/18 A2990 1050 78 2100 270/05 RMK AO2 TSE0058B03E17 SLP129 T02170178
14926KSTC STC20030719195509907/19/03 19:55:31  5-MIN KSTC 200155Z AUTO 26004KT 10SM CLR 21/18 A2990 1050 81 2000 260/04 RMK AO2
14926KSTC STC20030719200009907/19/03 20:00:31  5-MIN KSTC 200200Z AUTO 27005KT 10SM CLR 21/18 A2990 1050 81 2000 270/05 RMK AO2
14926KSTC STC20030719200509907/19/03 20:05:31  5-MIN KSTC 200205Z AUTO 28005KT 10SM CLR 21/18 A2990 1040 81 2000 270/05 RMK AO2
14926KSTC STC20030719201009907/19/03 20:10:31  5-MIN KSTC 200210Z AUTO 00000KT 10SM CLR 21/18 A2990 1040 81 2000 000/00 RMK AO2
14926KSTC STC20030719201509907/19/03 20:15:31  5-MIN KSTC 200215Z AUTO 00000KT 10SM CLR 21/18 A2990 1040 81 2000 000/00 RMK AO2
14926KSTC STC20030719202009907/19/03 20:20:31  5-MIN KSTC 200220Z AUTO 29003KT 10SM CLR 21/18 A2991 1040 81 2000 290/03 RMK AO2
14926KSTC STC20030719202509907/19/03 20:25:31  5-MIN KSTC 200225Z AUTO 29004KT 10SM CLR 21/18 A2991 1040 84 2000 290/04 RMK AO2
14926KSTC STC20030719203009907/19/03 20:30:31  5-MIN KSTC 200230Z AUTO 00000KT 10SM CLR 20/18 A2991 1040 87 1900 000/00 RMK AO2
14926KSTC STC20030719203509907/19/03 20:35:31  5-MIN KSTC 200235Z AUTO 33003KT 10SM CLR 19/18 A2991 1040 90 1800 330/03 RMK AO2
14926KSTC STC20030719204009907/19/03 20:40:31  5-MIN KSTC 200240Z AUTO 00000KT 10SM CLR 20/18 A2991 1030 87 1900 000/00 RMK AO2
14926KSTC STC20030719204509907/19/03 20:45:31  5-MIN KSTC 200245Z AUTO 00000KT 10SM CLR 20/18 A2991 1030 87 1900 000/00 RMK AO2
14926KSTC STC20030719205012207/19/03 20:50:31  5-MIN KSTC 200250Z AUTO 00000KT 10SM CLR 19/18 A2991 1030 90 1800 000/00 RMK AO2 SLP133 T01940178 58015
14926KSTC STC20030719205509907/19/03 20:55:31  5-MIN KSTC 200255Z AUTO 00000KT 10SM CLR 19/18 A2991 1030 93 1800 000/00 RMK AO2
14926KSTC STC20030719210009907/19/03 21:00:31  5-MIN KSTC 200300Z AUTO 00000KT 10SM CLR 19/18 A2992 1030 93 1800 000/00 RMK AO2
14926KSTC STC20030719210509907/19/03 21:05:31  5-MIN KSTC 200305Z AUTO 00000KT 10SM CLR 19/18 A2992 1030 90 1800 000/00 RMK AO2
14926KSTC STC20030719211009907/19/03 21:10:31  5-MIN KSTC 200310Z AUTO 00000KT 10SM CLR 19/18 A2992 1030 90 1800 000/00 RMK AO2
14926KSTC STC20030719211509907/19/03 21:15:31  5-MIN KSTC 200315Z AUTO 00000KT 10SM CLR 19/18 A2992 1030 90 1800 000/00 RMK AO2
14926KSTC STC20030719212009907/19/03 21:20:31  5-MIN KSTC 200320Z AUTO 00000KT 10SM CLR 19/18 A2992 1030 90 1800 000/00 RMK AO2
14926KSTC STC20030719212509907/19/03 21:25:31  5-MIN KSTC 200325Z AUTO 02003KT 10SM CLR 19/18 A2992 1020 93 1800 020/03 RMK AO2
14926KSTC STC20030719213009907/19/03 21:30:31  5-MIN KSTC 200330Z AUTO 00000KT 10SM CLR 19/18 A2993 1020 93 1800 000/00 RMK AO2
14926KSTC STC20030719213509907/19/03 21:35:31  5-MIN KSTC 200335Z AUTO 00000KT 10SM CLR 18/18 A2993 1020 96 1700 000/00 RMK AO2
14926KSTC STC20030719214009907/19/03 21:40:31  5-MIN KSTC 200340Z AUTO 00000KT 10SM CLR 18/18 A2993 1020 96 1700 000/00 RMK AO2
14926KSTC STC20030719214509907/19/03 21:45:31  5-MIN KSTC 200345Z AUTO 00000KT 10SM CLR 18/17 A2993 1020 93 1700 000/00 RMK AO2
14926KSTC STC20030719215011607/19/03 21:50:31  5-MIN KSTC 200350Z AUTO 01003KT 10SM CLR 19/18 A2993 1020 93 1700 360/03 RMK AO2 SLP139 T01890178
14926KSTC STC20030719215509907/19/03 21:55:31  5-MIN KSTC 200355Z AUTO 02004KT 10SM CLR 18/18 A2993 1020 96 1700 020/04 RMK AO2
14926KSTC STC20030719220009907/19/03 22:00:31  5-MIN KSTC 200400Z AUTO 02005KT 10SM CLR 19/18 A2993 1020 93 1700 020/05 RMK AO2
14926KSTC STC20030719220509907/19/03 22:05:31  5-MIN KSTC 200405Z AUTO 02004KT 10SM CLR 19/18 A2993 1020 93 1800 010/04 RMK AO2
14926KSTC STC20030719221009907/19/03 22:10:31  5-MIN KSTC 200410Z AUTO 02004KT 10SM CLR 19/18 A2993 1020 93 1800 010/04 RMK AO2
14926KSTC STC20030719221509907/19/03 22:15:31  5-MIN KSTC 200415Z AUTO 02003KT 10SM CLR 19/18 A2993 1020 93 1800 020/03 RMK AO2
14926KSTC STC20030719222009907/19/03 22:20:31  5-MIN KSTC 200420Z AUTO 02003KT 10SM CLR 19/18 A2993 1020 93 1800 010/03 RMK AO2
14926KSTC STC20030719222509907/19/03 22:25:31  5-MIN KSTC 200425Z AUTO 01004KT 10SM CLR 19/18 A2993 1020 97 1700 360/04 RMK AO2
14926KSTC STC20030719223009907/19/03 22:30:31  5-MIN KSTC 200430Z AUTO 34004KT 10SM CLR 19/18 A2993 1010 97 1700 340/04 RMK AO2
14926KSTC STC20030719223509907/19/03 22:35:31  5-MIN KSTC 200435Z AUTO 34004KT 10SM CLR 19/18 A2993 1010 97 1700 330/04 RMK AO2
14926KSTC STC20030719224009907/19/03 22:40:31  5-MIN KSTC 200440Z AUTO 33003KT 10SM CLR 19/18 A2994 1010 97 1700 320/03 RMK AO2
14926KSTC STC20030719224509907/19/03 22:45:31  5-MIN KSTC 200445Z AUTO 32003KT 10SM CLR 18/18 A2993 1010 96 1700 320/03 RMK AO2
14926KSTC STC20030719225011607/19/03 22:50:31  5-MIN KSTC 200450Z AUTO 31003KT 10SM CLR 19/18 A2993 1020 93 1700 310/03 RMK AO2 SLP137 T01890178
14926KSTC STC20030719225509907/19/03 22:55:31  5-MIN KSTC 200455Z AUTO 30003KT 10SM CLR 19/18 A2993 1020 97 1800 290/03 RMK AO2
14926KSTC STC20030719230009907/19/03 23:00:31  5-MIN KSTC 200500Z AUTO 29004KT 10SM CLR 19/18 A2993 1020 97 1700 290/04 RMK AO2
14926KSTC STC20030719230509907/19/03 23:05:31  5-MIN KSTC 200505Z AUTO 00000KT 10SM CLR 18/18 A2993 1020 96 1700 000/00 RMK AO2
14926KSTC STC20030719231009907/19/03 23:10:31  5-MIN KSTC 200510Z AUTO 00000KT 10SM CLR 19/18 A2993 1020 97 1800 000/00 RMK AO2
14926KSTC STC20030719231509907/19/03 23:15:31  5-MIN KSTC 200515Z AUTO 22003KT 10SM CLR 19/18 A2993 1020 97 1700 210/03 RMK AO2
14926KSTC STC20030719232009907/19/03 23:20:31  5-MIN KSTC 200520Z AUTO 00000KT 10SM CLR 19/18 A2993 1010 97 1700 000/00 RMK AO2
14926KSTC STC20030719232509907/19/03 23:25:31  5-MIN KSTC 200525Z AUTO 28003KT 10SM CLR 19/18 A2994 1010 93 1800 280/03 RMK AO2
14926KSTC STC20030719233009907/19/03 23:30:31  5-MIN KSTC 200530Z AUTO 00000KT 10SM CLR 19/18 A2993 1020 93 1800 000/00 RMK AO2
14926KSTC STC20030719233509907/19/03 23:35:31  5-MIN KSTC 200535Z AUTO 00000KT 10SM CLR 19/18 A2992 1020 93 1800 000/00 RMK AO2
14926KSTC STC20030719234009907/19/03 23:40:31  5-MIN KSTC 200540Z AUTO 00000KT 10SM CLR 19/18 A2992 1030 93 1800 000/00 RMK AO2
14926KSTC STC20030719234509907/19/03 23:45:31  5-MIN KSTC 200545Z AUTO 00000KT 10SM CLR 19/18 A2992 1030 93 1800 000/00 RMK AO2
14926KSTC STC20030719235014407/19/03 23:50:31  5-MIN KSTC 200550Z AUTO 00000KT 10SM CLR 19/18 A2992 1030 93 1800 000/00 RMK AO2 SLP133 T01940183 10239 20183 402890128 53009
14926KSTC STC20030719235509907/19/03 23:55:31  5-MIN KSTC 200555Z AUTO 00000KT 10SM CLR 19/18 A2991 1040 93 1800 000/00 RMK AO2
14926KSTC STC20030720000009907/20/03 00:00:31  5-MIN KSTC 200600Z AUTO 00000KT 10SM CLR 19/18 A2991 1040 93 1800 000/00 RMK AO2
14926KSTC STC20030720000509907/20/03 00:05:31  5-MIN KSTC 200605Z AUTO 00000KT 10SM CLR 19/19 A2991 1040 97 1800 000/00 RMK AO2
14926KSTC STC20030720001009907/20/03 00:10:31  5-MIN KSTC 200610Z AUTO 00000KT 10SM CLR 19/18 A2989 1050 97 1800 000/00 RMK AO2
14926KSTC STC20030720001509907/20/03 00:15:31  5-MIN KSTC 200615Z AUTO 15003KT 10SM CLR 19/18 A2989 1050 97 1800 150/03 RMK AO2
14926KSTC STC20030720002010007/20/03 00:20:31  5-MIN KSTC 200620Z AUTO 00000KT 10SM CLR 18/18 A2989 1050 100 1700 000/00 RMK AO2
14926KSTC STC20030720002510007/20/03 00:25:31  5-MIN KSTC 200625Z AUTO 00000KT 10SM CLR 18/18 A2989 1050 100 1700 000/00 RMK AO2
14926KSTC STC20030720003010007/20/03 00:30:31  5-MIN KSTC 200630Z AUTO 00000KT 10SM CLR 18/18 A2989 1050 100 1700 000/00 RMK AO2
14926KSTC STC20030720003510007/20/03 00:35:31  5-MIN KSTC 200635Z AUTO 00000KT 10SM CLR 18/18 A2989 1050 100 1700 000/00 RMK AO2
14926KSTC STC20030720004009907/20/03 00:40:31  5-MIN KSTC 200640Z AUTO 00000KT 9SM CLR 18/18 A2989 1060 100 1700 000/00 RMK AO2
14926KSTC STC20030720004509907/20/03 00:45:31  5-MIN KSTC 200645Z AUTO 00000KT 9SM CLR 18/18 A2988 1060 100 1700 000/00 RMK AO2
14926KSTC STC20030720005011607/20/03 00:50:31  5-MIN KSTC 200650Z AUTO 00000KT 10SM CLR 18/18 A2989 1050 96 1700 000/00 RMK AO2 SLP125 T01830178
14926KSTC STC20030720005510007/20/03 00:55:31  5-MIN KSTC 200655Z AUTO 31003KT 10SM CLR 18/18 A2990 1040 100 1700 310/03 RMK AO2
14926KSTC STC20030720010009907/20/03 01:00:31  5-MIN KSTC 200700Z AUTO 33003KT 10SM CLR 18/17 A2991 1040 96 1600 330/03 RMK AO2
14926KSTC STC20030720010509907/20/03 01:05:31  5-MIN KSTC 200705Z AUTO 33003KT 10SM CLR 18/17 A2990 1040 96 1600 320/03 RMK AO2
14926KSTC STC20030720011010107/20/03 01:10:31  5-MIN KSTC 200710Z AUTO 32003KT 10SM CLR 18/17 A2990 1040 96 1600 320/03 RMK AO2 $
14926KSTC STC20030720011510107/20/03 01:15:31  5-MIN KSTC 200715Z AUTO 00000KT 10SM CLR 18/17 A2990 1050 96 1700 000/00 RMK AO2 $
14926KSTC STC20030720012010107/20/03 01:20:31  5-MIN KSTC 200720Z AUTO 00000KT 9SM CLR 17/17 A2989 1050 100 1600 000/00 RMK AO2 $
14926KSTC STC20030720012510107/20/03 01:25:31  5-MIN KSTC 200725Z AUTO 00000KT 10SM CLR 18/17 A2989 1060 96 1700 000/00 RMK AO2 $
14926KSTC STC20030720013010107/20/03 01:30:31  5-MIN KSTC 200730Z AUTO 00000KT 10SM CLR 18/17 A2989 1060 96 1700 000/00 RMK AO2 $
14926KSTC STC20030720013510007/20/03 01:35:31  5-MIN KSTC 200735Z AUTO 01003KT 8SM CLR 17/17 A2989 1050 96 1600 010/03 RMK AO2 $
14926KSTC STC20030720014010107/20/03 01:40:31  5-MIN KSTC 200740Z AUTO 00000KT 8SM CLR 17/17 A2988 1060 100 1600 000/00 RMK AO2 $
14926KSTC STC20030720014510107/20/03 01:45:31  5-MIN KSTC 200745Z AUTO 00000KT 9SM CLR 18/18 A2987 1070 100 1700 000/00 RMK AO2 $
14926KSTC STC20030720015012407/20/03 01:50:31  5-MIN KSTC 200750Z AUTO 00000KT 9SM CLR 17/17 A2987 1080 96 1600 000/00 RMK AO2 PRESFR SLP116 T01720167 $
14926KSTC STC20030720015510107/20/03 01:55:31  5-MIN KSTC 200755Z AUTO 00000KT 9SM CLR 17/17 A2986 1080 100 1600 000/00 RMK AO2 $
14926KSTC STC20030720020010107/20/03 02:00:31  5-MIN KSTC 200800Z AUTO 00000KT 8SM CLR 17/17 A2986 1080 100 1600 000/00 RMK AO2 $
14926KSTC STC20030720020510107/20/03 02:05:31  5-MIN KSTC 200805Z AUTO 00000KT 7SM CLR 17/17 A2986 1090 100 1600 000/00 RMK AO2 $
14926KSTC STC20030720021010407/20/03 02:10:31  5-MIN KSTC 200810Z AUTO 00000KT 6SM BR CLR 17/17 A2985 1090 100 1600 000/00 RMK AO2 $
14926KSTC STC20030720021510407/20/03 02:15:31  5-MIN KSTC 200815Z AUTO 00000KT 5SM BR CLR 17/17 A2985 1090 100 1600 000/00 RMK AO2 $
14926KSTC STC20030720022010207/20/03 02:20:31  5-MIN KSTC 200820Z AUTO 00000KT 5SM BR CLR 17/17 A2985 1100 100 1600 000/00 RMK AO2
14926KSTC STC20030720022510207/20/03 02:25:31  5-MIN KSTC 200825Z AUTO 00000KT 6SM BR CLR 17/17 A2984 1100 100 1700 000/00 RMK AO2
14926KSTC STC20030720023010207/20/03 02:30:31  5-MIN KSTC 200830Z AUTO 00000KT 4SM BR CLR 17/17 A2985 1100 100 1600 000/00 RMK AO2
14926KSTC STC20030720023510207/20/03 02:35:31  5-MIN KSTC 200835Z AUTO 00000KT 4SM BR CLR 17/17 A2985 1090 100 1600 000/00 RMK AO2
14926KSTC STC20030720024010207/20/03 02:40:31  5-MIN KSTC 200840Z AUTO 00000KT 6SM BR CLR 16/16 A2986 1090 100 1500 000/00 RMK AO2
14926KSTC STC20030720024509907/20/03 02:45:31  5-MIN KSTC 200845Z AUTO 00000KT 9SM CLR 17/17 A2985 1090 100 1600 000/00 RMK AO2
14926KSTC STC20030720025012207/20/03 02:50:31  5-MIN KSTC 200850Z AUTO 00000KT 10SM CLR 17/16 A2985 1100 96 1600 000/00 RMK AO2 SLP110 T01670161 58001
14926KSTC STC20030720025510007/20/03 02:55:31  5-MIN KSTC 200855Z AUTO 00000KT 10SM CLR 17/17 A2985 1090 100 1600 000/00 RMK AO2
14926KSTC STC20030720030009907/20/03 03:00:31  5-MIN KSTC 200900Z AUTO 00000KT 9SM CLR 17/17 A2986 1090 100 1600 000/00 RMK AO2
14926KSTC STC20030720030509907/20/03 03:05:31  5-MIN KSTC 200905Z AUTO 00000KT 8SM CLR 17/17 A2986 1080 100 1600 000/00 RMK AO2
14926KSTC STC20030720031009907/20/03 03:10:31  5-MIN KSTC 200910Z AUTO 00000KT 7SM CLR 17/17 A2986 1090 100 1600 000/00 RMK AO2
14926KSTC STC20030720031509907/20/03 03:15:31  5-MIN KSTC 200915Z AUTO 00000KT 8SM CLR 17/17 A2986 1080 100 1600 000/00 RMK AO2
14926KSTC STC20030720032009907/20/03 03:20:31  5-MIN KSTC 200920Z AUTO 00000KT 8SM CLR 16/16 A2986 1080 100 1500 000/00 RMK AO2
14926KSTC STC20030720032510207/20/03 03:25:31  5-MIN KSTC 200925Z AUTO 00000KT 6SM BR CLR 17/17 A2986 1080 100 1600 000/00 RMK AO2
14926KSTC STC20030720033010207/20/03 03:30:31  5-MIN KSTC 200930Z AUTO 02003KT 6SM BR CLR 17/17 A2986 1080 100 1600 020/03 RMK AO2
14926KSTC STC20030720033509907/20/03 03:35:31  5-MIN KSTC 200935Z AUTO 00000KT 7SM CLR 17/17 A2987 1080 100 1600 000/00 RMK AO2
14926KSTC STC20030720034009907/20/03 03:40:31  5-MIN KSTC 200940Z AUTO 00000KT 7SM CLR 17/17 A2987 1070 100 1600 000/00 RMK AO2
14926KSTC STC20030720034509807/20/03 03:45:31  5-MIN KSTC 200945Z AUTO 00000KT 9SM CLR 17/17 A2987 1080 96 1600 000/00 RMK AO2
14926KSTC STC20030720035011707/20/03 03:50:31  5-MIN KSTC 200950Z AUTO 00000KT 10SM CLR 17/17 A2987 1070 100 1600 000/00 RMK AO2 SLP119 T01670167
14926KSTC STC20030720035510007/20/03 03:55:31  5-MIN KSTC 200955Z AUTO 00000KT 10SM CLR 17/17 A2987 1070 100 1600 000/00 RMK AO2
14926KSTC STC20030720040009907/20/03 04:00:31  5-MIN KSTC 201000Z AUTO 00000KT 10SM CLR 17/17 A2987 1080 96 1600 000/00 RMK AO2
14926KSTC STC20030720040509907/20/03 04:05:31  5-MIN KSTC 201005Z AUTO 00000KT 10SM CLR 17/17 A2987 1070 96 1600 000/00 RMK AO2
14926KSTC STC20030720041009907/20/03 04:10:31  5-MIN KSTC 201010Z AUTO 20004KT 10SM CLR 17/17 A2987 1080 96 1600 200/04 RMK AO2
14926KSTC STC20030720041509907/20/03 04:15:31  5-MIN KSTC 201015Z AUTO 20003KT 10SM CLR 17/17 A2987 1080 96 1600 200/03 RMK AO2
14926KSTC STC20030720042009907/20/03 04:20:31  5-MIN KSTC 201020Z AUTO 21003KT 10SM CLR 17/17 A2987 1080 96 1600 200/03 RMK AO2
14926KSTC STC20030720042510007/20/03 04:25:31  5-MIN KSTC 201025Z AUTO 20003KT 10SM CLR 17/17 A2986 1080 100 1600 190/03 RMK AO2
14926KSTC STC20030720043010007/20/03 04:30:31  5-MIN KSTC 201030Z AUTO 00000KT 10SM CLR 17/17 A2987 1080 100 1600 000/00 RMK AO2
14926KSTC STC20030720043509907/20/03 04:35:31  5-MIN KSTC 201035Z AUTO 00000KT 9SM CLR 17/17 A2987 1070 100 1600 000/00 RMK AO2
14926KSTC STC20030720044010107/20/03 04:40:31  5-MIN KSTC 201040Z AUTO 00000KT 9SM FEW120 18/17 A2987 1070 96 1700 000/00 RMK AO2
14926KSTC STC20030720044510207/20/03 04:45:31  5-MIN KSTC 201045Z AUTO 21004KT 8SM SCT120 18/18 A2988 1070 100 1700 210/04 RMK AO2
14926KSTC STC20030720045013507/20/03 04:50:31  5-MIN KSTC 201050Z AUTO 22004KT 8SM -RA BKN110 18/18 A2989 1060 100 1700 220/04 RMK AO2 RAB46 SLP124 P0000 T01780178
14926KSTC STC20030720045511207/20/03 04:55:31  5-MIN KSTC 201055Z AUTO 24003KT 8SM -RA BKN110 18/18 A2989 1060 100 1700 240/03 RMK AO2 P0000
14926KSTC STC20030720050011207/20/03 05:00:31  5-MIN KSTC 201100Z AUTO 27003KT 8SM -RA BKN110 19/19 A2989 1050 100 1800 270/03 RMK AO2 P0000
14926KSTC STC20030720050511907/20/03 05:05:31  5-MIN KSTC 201105Z AUTO 27003KT 8SM -RA SCT100 BKN120 19/19 A2990 1050 100 1800 270/03 RMK AO2 P0000
14926KSTC STC20030720051011207/20/03 05:10:31  5-MIN KSTC 201110Z AUTO 27005KT 9SM -RA BKN110 19/19 A2990 1050 100 1800 270/05 RMK AO2 P0001
14926KSTC STC20030720051511907/20/03 05:15:31  5-MIN KSTC 201115Z AUTO 34003KT 9SM -RA SCT095 BKN110 19/19 A2990 1050 100 1800 340/03 RMK AO2 P0001
14926KSTC STC20030720052012507/20/03 05:20:31  5-MIN KSTC 201120Z AUTO 35004KT 8SM -RA SCT075 SCT090 OVC110 19/19 A2991 1040 97 1800 340/04 RMK AO2 P0001
14926KSTC STC20030720052511807/20/03 05:25:31  5-MIN KSTC 201125Z AUTO 34004KT 8SM -RA BKN080 BKN110 19/19 A2991 1040 97 1800 340/04 RMK AO2 P0001
14926KSTC STC20030720053011907/20/03 05:30:31  5-MIN KSTC 201130Z AUTO 33003KT 8SM -RA BKN080 OVC110 19/19 A2991 1040 100 1800 330/03 RMK AO2 P0002
14926KSTC STC20030720053512607/20/03 05:35:31  5-MIN KSTC 201135Z AUTO 24005KT 7SM -RA BKN060 BKN090 OVC110 19/19 A2991 1030 100 1800 240/05 RMK AO2 P0002
14926KSTC STC20030720054012207/20/03 05:40:31  5-MIN KSTC 201140Z AUTO 27003KT 6SM -RA BR BKN060 OVC110 19/19 A2992 1030 100 1800 260/03 RMK AO2 P0003
14926KSTC STC20030720054511807/20/03 05:45:31  5-MIN KSTC 201145Z AUTO 00000KT 7SM -RA SCT060 OVC110 20/19 A2992 1030 97 1900 000/00 RMK AO2 P0003
14926KSTC STC20030720055016607/20/03 05:50:31  5-MIN KSTC 201150Z AUTO 00000KT 8SM -RA SCT070 OVC110 19/19 A2992 1030 100 1800 000/00 RMK AO2 SLP136 P0003 60003 70004 T01940194 10200 20161 58020
14926KSTC STC20030720055511807/20/03 05:55:31  5-MIN KSTC 201155Z AUTO 32003KT 9SM -RA SCT048 BKN110 20/19 A2992 1020 97 1900 310/03 RMK AO2 P0000
14926KSTC STC20030720060011907/20/03 06:00:31  5-MIN KSTC 201200Z AUTO 30003KT 9SM -RA FEW034 BKN110 20/20 A2992 1030 100 1900 300/03 RMK AO2 P0000
14926KSTC STC20030720060511907/20/03 06:05:31  5-MIN KSTC 201205Z AUTO 00000KT 9SM -RA FEW046 BKN110 20/20 A2992 1030 100 1900 000/00 RMK AO2 P0000
14926KSTC STC20030720061011807/20/03 06:10:31  5-MIN KSTC 201210Z AUTO 30003KT 8SM -RA FEW042 BKN110 20/19 A2993 1020 97 1900 300/03 RMK AO2 P0001
14926KSTC STC20030720061512707/20/03 06:15:31  5-MIN KSTC 201215Z AUTO 25004KT 8SM -TSRA SCT041 BKN110 20/20 A2993 1020 100 1900 250/04 RMK AO2 TSB15 P0001
14926KSTC STC20030720062012707/20/03 06:20:31  5-MIN KSTC 201220Z AUTO 24004KT 7SM -TSRA SCT035 BKN110 19/19 A2993 1020 100 1800 230/04 RMK AO2 TSB15 P0001
14926KSTC STC20030720062512707/20/03 06:25:31  5-MIN KSTC 201225Z AUTO 24006KT 7SM -TSRA SCT029 BKN110 20/20 A2993 1020 100 1900 240/06 RMK AO2 TSB15 P0001
14926KSTC STC20030720063012607/20/03 06:30:31  5-MIN KSTC 201230Z AUTO 24007KT 7SM -TSRA BKN032 OVC110 21/20 A2993 1020 97 1900 240/07 RMK AO2 TSB15 P0002
14926KSTC STC20030720063512607/20/03 06:35:31  5-MIN KSTC 201235Z AUTO 23007KT 7SM -TSRA BKN032 OVC110 21/20 A2992 1020 97 1900 230/07 RMK AO2 TSB15 P0002
14926KSTC STC20030720064012607/20/03 06:40:31  5-MIN KSTC 201240Z AUTO 22006KT 8SM -TSRA BKN031 OVC120 21/20 A2992 1030 97 1900 220/06 RMK AO2 TSB15 P0003
14926KSTC STC20030720064512707/20/03 06:45:31  5-MIN KSTC 201245Z AUTO 22007KT 10SM -TSRA BKN027 OVC120 21/20 A2992 1030 93 2000 220/07 RMK AO2 TSB15 P0003
14926KSTC STC20030720065014407/20/03 06:50:31  5-MIN KSTC 201250Z AUTO 22006KT 10SM -TSRA BKN025 OVC120 21/19 A2991 1030 93 2000 210/06 RMK AO2 TSB15 SLP133 P0003 T02060194
14926KSTC STC20030720065512107/20/03 06:55:31  5-MIN KSTC 201255Z AUTO 22006KT 10SM -TSRA BKN025 OVC120 21/19 A2991 1030 93 2000 220/06 RMK AO2 P0000
14926KSTC STC20030720070012707/20/03 07:00:31  5-MIN KSTC 201300Z AUTO 22007KT 10SM -RA BKN023 BKN120 21/19 A2991 1030 93 2000 220/07 RMK AO2 TSE1256 P0001
14926KSTC STC20030720070512007/20/03 07:05:31  5-MIN KSTC 201305Z AUTO 22007KT 10SM -RA BKN026 21/20 A2991 1030 97 2000 210/07 RMK AO2 TSE1256 P0001
14926KSTC STC20030720071012007/20/03 07:10:31  5-MIN KSTC 201310Z AUTO 22007KT 10SM -RA SCT026 21/20 A2992 1030 97 2000 210/07 RMK AO2 TSE1256 P0001
14926KSTC STC20030720071512707/20/03 07:15:31  5-MIN KSTC 201315Z AUTO 23009KT 10SM -RA SCT024 SCT120 21/20 A2992 1030 97 2000 230/09 RMK AO2 TSE1256 P0001
14926KSTC STC20030720072012807/20/03 07:20:31  5-MIN KSTC 201320Z AUTO 23010KT 10SM FEW026 SCT120 21/20 A2992 1030 93 2000 230/10 RMK AO2 TSE1256RAE17 P0001
14926KSTC STC20030720072512107/20/03 07:25:31  5-MIN KSTC 201325Z AUTO 24011KT 10SM SCT110 21/19 A2992 1020 90 2000 230/11 RMK AO2 TSE1256RAE17 P0001
14926KSTC STC20030720073012107/20/03 07:30:31  5-MIN KSTC 201330Z AUTO 23013KT 10SM SCT110 21/19 A2992 1030 90 2000 230/13 RMK AO2 TSE1256RAE17 P0001
14926KSTC STC20030720073512107/20/03 07:35:31  5-MIN KSTC 201335Z AUTO 23010KT 10SM FEW110 21/19 A2991 1040 90 2000 220/10 RMK AO2 TSE1256RAE17 P0001
14926KSTC STC20030720074012107/20/03 07:40:31  5-MIN KSTC 201340Z AUTO 22009KT 10SM FEW110 21/19 A2990 1040 90 2000 220/09 RMK AO2 TSE1256RAE17 P0001
14926KSTC STC20030720074512107/20/03 07:45:31  5-MIN KSTC 201345Z AUTO 23010KT 10SM FEW110 21/19 A2991 1040 90 2000 230/10 RMK AO2 TSE1256RAE17 P0001
14926KSTC STC20030720075013807/20/03 07:50:31  5-MIN KSTC 201350Z AUTO 23009KT 10SM FEW110 21/19 A2990 1040 87 2000 220/09 RMK AO2 TSE1256RAE17 SLP130 P0001 T02110189
14926KSTC STC20030720075509907/20/03 07:55:31  5-MIN KSTC 201355Z AUTO 22007KT 10SM CLR 21/19 A2990 1040 87 2000 210/07 RMK AO2
14926KSTC STC20030720080009907/20/03 08:00:31  5-MIN KSTC 201400Z AUTO 22008KT 10SM CLR 21/19 A2990 1040 87 2000 210/08 RMK AO2
14926KSTC STC20030720080509907/20/03 08:05:31  5-MIN KSTC 201405Z AUTO 22010KT 10SM CLR 21/19 A2990 1040 87 2000 210/10 RMK AO2
14926KSTC STC20030720081009907/20/03 08:10:31  5-MIN KSTC 201410Z AUTO 21008KT 10SM CLR 21/18 A2990 1050 84 2000 210/08 RMK AO2
14926KSTC STC20030720081509907/20/03 08:15:31  5-MIN KSTC 201415Z AUTO 21008KT 10SM CLR 21/18 A2990 1050 84 2000 210/08 RMK AO2
14926KSTC STC20030720082009907/20/03 08:20:31  5-MIN KSTC 201420Z AUTO 21011KT 10SM CLR 21/18 A2989 1050 87 2000 200/11 RMK AO2
14926KSTC STC20030720082509907/20/03 08:25:31  5-MIN KSTC 201425Z AUTO 21011KT 10SM CLR 21/18 A2989 1050 84 2000 210/11 RMK AO2
14926KSTC STC20030720083009907/20/03 08:30:31  5-MIN KSTC 201430Z AUTO 21009KT 10SM CLR 21/18 A2990 1050 84 2000 210/09 RMK AO2
14926KSTC STC20030720083509907/20/03 08:35:31  5-MIN KSTC 201435Z AUTO 21009KT 10SM CLR 21/18 A2989 1060 84 2000 200/09 RMK AO2
14926KSTC STC20030720084009907/20/03 08:40:31  5-MIN KSTC 201440Z AUTO 20009KT 10SM CLR 20/18 A2988 1070 87 1900 190/09 RMK AO2
14926KSTC STC20030720084510207/20/03 08:45:31  5-MIN KSTC 201445Z AUTO 19008KT 10SM FEW085 21/17 A2987 1070 81 2000 180/08 RMK AO2
14926KSTC STC20030720085013107/20/03 08:50:31  5-MIN KSTC 201450Z AUTO 21003KT 10SM FEW085 21/18 A2989 1060 84 2000 200/03 RMK AO2 SLP126 60004 T02060178 53024
14926KSTC STC20030720085510207/20/03 08:55:31  5-MIN KSTC 201455Z AUTO 00000KT 10SM FEW085 21/18 A2989 1050 84 2000 000/00 RMK AO2
14926KSTC STC20030720090010907/20/03 09:00:31  5-MIN KSTC 201500Z AUTO 00000KT 10SM FEW085 21/18 A2990 1050 81 2000 000/00 RMK AO2 PRESRR
14926KSTC STC20030720090510207/20/03 09:05:31  5-MIN KSTC 201505Z AUTO 25004KT 10SM FEW085 21/17 A2990 1040 78 2000 250/04 RMK AO2
14926KSTC STC20030720091009907/20/03 09:10:31  5-MIN KSTC 201510Z AUTO 24007KT 10SM CLR 21/18 A2991 1040 84 2000 240/07 RMK AO2
14926KSTC STC20030720091509907/20/03 09:15:31  5-MIN KSTC 201515Z AUTO 24008KT 10SM CLR 21/18 A2990 1040 84 2000 240/08 RMK AO2
14926KSTC STC20030720092009907/20/03 09:20:31  5-MIN KSTC 201520Z AUTO 23007KT 10SM CLR 21/18 A2989 1060 84 2000 230/07 RMK AO2
14926KSTC STC20030720092510607/20/03 09:25:31  5-MIN KSTC 201525Z AUTO 22006KT 10SM CLR 21/18 A2987 1070 81 2100 220/06 RMK AO2 PRESFR
14926KSTC STC20030720093009907/20/03 09:30:31  5-MIN KSTC 201530Z AUTO 22005KT 10SM CLR 21/18 A2987 1070 84 2100 210/05 RMK AO2
14926KSTC STC20030720093509907/20/03 09:35:31  5-MIN KSTC 201535Z AUTO 20004KT 10SM CLR 21/18 A2987 1070 81 2100 200/04 RMK AO2
14926KSTC STC20030720094010607/20/03 09:40:31  5-MIN KSTC 201540Z AUTO 19005KT 10SM CLR 21/18 A2986 1090 81 2100 180/05 RMK AO2 PRESFR
14926KSTC STC20030720094509907/20/03 09:45:31  5-MIN KSTC 201545Z AUTO 18005KT 10SM CLR 21/18 A2986 1090 81 2100 170/05 RMK AO2
14926KSTC STC20030720095011607/20/03 09:50:31  5-MIN KSTC 201550Z AUTO 22003KT 10SM CLR 21/18 A2987 1080 81 2100 210/03 RMK AO2 SLP119 T02110178
14926KSTC STC20030720095509907/20/03 09:55:31  5-MIN KSTC 201555Z AUTO 00000KT 10SM CLR 21/18 A2987 1070 81 2100 000/00 RMK AO2
14926KSTC STC20030720100009907/20/03 10:00:31  5-MIN KSTC 201600Z AUTO 25003KT 10SM CLR 22/18 A2987 1070 78 2100 240/03 RMK AO2
14926KSTC STC20030720100509907/20/03 10:05:31  5-MIN KSTC 201605Z AUTO 27004KT 10SM CLR 22/18 A2988 1070 81 2100 270/04 RMK AO2
14926KSTC STC20030720101009907/20/03 10:10:31  5-MIN KSTC 201610Z AUTO 00000KT 10SM CLR 22/18 A2988 1060 78 2100 000/00 RMK AO2
14926KSTC STC20030720101509907/20/03 10:15:31  5-MIN KSTC 201615Z AUTO 27004KT 10SM CLR 22/18 A2987 1070 78 2200 270/04 RMK AO2
14926KSTC STC20030720102009907/20/03 10:20:31  5-MIN KSTC 201620Z AUTO 24005KT 10SM CLR 22/18 A2987 1070 78 2200 240/05 RMK AO2
14926KSTC STC20030720102509907/20/03 10:25:31  5-MIN KSTC 201625Z AUTO 22005KT 10SM CLR 22/18 A2986 1080 78 2200 220/05 RMK AO2
14926KSTC STC20030720103010607/20/03 10:30:31  5-MIN KSTC 201630Z AUTO 24007KT 10SM CLR 22/18 A2985 1090 78 2200 230/07 RMK AO2 PRESFR
14926KSTC STC20030720103509907/20/03 10:35:31  5-MIN KSTC 201635Z AUTO 21008KT 10SM CLR 23/18 A2985 1090 73 2300 210/08 RMK AO2
14926KSTC STC20030720104009907/20/03 10:40:31  5-MIN KSTC 201640Z AUTO 23009KT 10SM CLR 23/18 A2985 1090 76 2300 230/09 RMK AO2
14926KSTC STC20030720104509907/20/03 10:45:31  5-MIN KSTC 201645Z AUTO 23009KT 10SM CLR 23/18 A2985 1100 76 2300 220/09 RMK AO2
14926KSTC STC20030720105011607/20/03 10:50:31  5-MIN KSTC 201650Z AUTO 23009KT 10SM CLR 23/18 A2985 1100 73 2300 230/09 RMK AO2 SLP110 T02280178
14926KSTC STC20030720105509907/20/03 10:55:31  5-MIN KSTC 201655Z AUTO 23009KT 10SM CLR 23/18 A2984 1100 76 2300 220/09 RMK AO2
14926KSTC STC20030720110009907/20/03 11:00:31  5-MIN KSTC 201700Z AUTO 23011KT 10SM CLR 23/18 A2984 1100 76 2300 230/11 RMK AO2
14926KSTC STC20030720110509907/20/03 11:05:31  5-MIN KSTC 201705Z AUTO 24007KT 10SM CLR 23/18 A2984 1100 73 2400 230/07 RMK AO2
14926KSTC STC20030720111009907/20/03 11:10:31  5-MIN KSTC 201710Z AUTO 24008KT 10SM CLR 24/19 A2985 1090 73 2400 240/08 RMK AO2
14926KSTC STC20030720111509907/20/03 11:15:31  5-MIN KSTC 201715Z AUTO 26008KT 10SM CLR 24/19 A2986 1090 73 2400 260/08 RMK AO2
14926KSTC STC20030720112009907/20/03 11:20:31  5-MIN KSTC 201720Z AUTO 26008KT 10SM CLR 24/19 A2985 1090 73 2500 260/08 RMK AO2
14926KSTC STC20030720112509907/20/03 11:25:31  5-MIN KSTC 201725Z AUTO 25009KT 10SM CLR 24/18 A2984 1100 71 2400 250/09 RMK AO2
14926KSTC STC20030720113009907/20/03 11:30:31  5-MIN KSTC 201730Z AUTO 24010KT 10SM CLR 24/18 A2984 1100 68 2500 240/10 RMK AO2
14926KSTC STC20030720113509907/20/03 11:35:31  5-MIN KSTC 201735Z AUTO 25009KT 10SM CLR 24/19 A2985 1100 71 2500 250/09 RMK AO2
14926KSTC STC20030720114009907/20/03 11:40:31  5-MIN KSTC 201740Z AUTO 27009KT 10SM CLR 24/19 A2985 1090 71 2500 270/09 RMK AO2
14926KSTC STC20030720114509907/20/03 11:45:31  5-MIN KSTC 201745Z AUTO 29010KT 10SM CLR 25/19 A2985 1090 68 2500 290/10 RMK AO2
14926KSTC STC20030720115014007/20/03 11:50:31  5-MIN KSTC 201750Z AUTO 27010KT 10SM CLR 25/18 A2985 1090 66 2500 270/10 RMK AO2 SLP112 60004 T02500183 10250 20194 58011
14926KSTC STC20030720115509907/20/03 11:55:31  5-MIN KSTC 201755Z AUTO 27010KT 10SM CLR 24/18 A2985 1090 68 2500 270/10 RMK AO2
14926KSTC STC20030720120009907/20/03 12:00:31  5-MIN KSTC 201800Z AUTO 27009KT 10SM CLR 24/18 A2985 1090 68 2500 270/09 RMK AO2
14926KSTC STC20030720120509907/20/03 12:05:31  5-MIN KSTC 201805Z AUTO 27008KT 10SM CLR 24/19 A2985 1090 71 2500 270/08 RMK AO2
14926KSTC STC20030720121009907/20/03 12:10:31  5-MIN KSTC 201810Z AUTO 29007KT 10SM CLR 24/19 A2985 1090 71 2500 290/07 RMK AO2
14926KSTC STC20030720121509907/20/03 12:15:31  5-MIN KSTC 201815Z AUTO 30009KT 10SM CLR 24/19 A2985 1090 71 2500 300/09 RMK AO2
14926KSTC STC20030720122009907/20/03 12:20:31  5-MIN KSTC 201820Z AUTO 31008KT 10SM CLR 24/19 A2985 1090 73 2400 310/08 RMK AO2
14926KSTC STC20030720122509907/20/03 12:25:31  5-MIN KSTC 201825Z AUTO 31008KT 10SM CLR 24/19 A2985 1090 73 2400 310/08 RMK AO2
14926KSTC STC20030720123009907/20/03 12:30:31  5-MIN KSTC 201830Z AUTO 31010KT 10SM CLR 24/19 A2985 1090 76 2400 310/10 RMK AO2
14926KSTC STC20030720123509907/20/03 12:35:31  5-MIN KSTC 201835Z AUTO 30009KT 10SM CLR 24/19 A2985 1090 71 2500 300/09 RMK AO2
14926KSTC STC20030720124009907/20/03 12:40:31  5-MIN KSTC 201840Z AUTO 31009KT 10SM CLR 24/19 A2985 1100 71 2500 300/09 RMK AO2
14926KSTC STC20030720124509907/20/03 12:45:31  5-MIN KSTC 201845Z AUTO 31008KT 10SM CLR 24/19 A2984 1100 73 2500 300/08 RMK AO2
14926KSTC STC20030720125011607/20/03 12:50:31  5-MIN KSTC 201850Z AUTO 33006KT 10SM CLR 24/19 A2984 1100 73 2500 330/06 RMK AO2 SLP109 T02440194
14926KSTC STC20030720125509907/20/03 12:55:31  5-MIN KSTC 201855Z AUTO 32008KT 10SM CLR 24/20 A2984 1100 76 2500 320/08 RMK AO2
14926KSTC STC20030720130009907/20/03 13:00:31  5-MIN KSTC 201900Z AUTO 33007KT 10SM CLR 24/19 A2984 1100 73 2500 320/07 RMK AO2
14926KSTC STC20030720130509907/20/03 13:05:31  5-MIN KSTC 201905Z AUTO 32009KT 10SM CLR 25/19 A2984 1100 71 2500 320/09 RMK AO2
14926KSTC STC20030720131009907/20/03 13:10:31  5-MIN KSTC 201910Z AUTO 31008KT 10SM CLR 26/20 A2984 1100 71 2600 310/08 RMK AO2
14926KSTC STC20030720131509907/20/03 13:15:31  5-MIN KSTC 201915Z AUTO 31010KT 10SM CLR 26/20 A2984 1100 68 2700 310/10 RMK AO2
14926KSTC STC20030720132009907/20/03 13:20:31  5-MIN KSTC 201920Z AUTO 30012KT 10SM CLR 26/19 A2984 1100 66 2700 300/12 RMK AO2
14926KSTC STC20030720132509907/20/03 13:25:31  5-MIN KSTC 201925Z AUTO 30010KT 10SM CLR 26/20 A2984 1100 68 2700 290/10 RMK AO2
14926KSTC STC20030720133009907/20/03 13:30:31  5-MIN KSTC 201930Z AUTO 31012KT 10SM CLR 27/19 A2984 1110 64 2700 310/12 RMK AO2
14926KSTC STC20030720133509907/20/03 13:35:31  5-MIN KSTC 201935Z AUTO 31010KT 10SM CLR 27/19 A2983 1110 64 2700 310/10 RMK AO2
14926KSTC STC20030720134009907/20/03 13:40:31  5-MIN KSTC 201940Z AUTO 29008KT 10SM CLR 27/20 A2983 1110 66 2700 290/08 RMK AO2
14926KSTC STC20030720134509907/20/03 13:45:31  5-MIN KSTC 201945Z AUTO 31010KT 10SM CLR 27/19 A2983 1110 64 2700 300/10 RMK AO2
14926KSTC STC20030720135011607/20/03 13:50:31  5-MIN KSTC 201950Z AUTO 31011KT 10SM CLR 27/19 A2983 1110 64 2700 300/11 RMK AO2 SLP105 T02670194
14926KSTC STC20030720135509907/20/03 13:55:31  5-MIN KSTC 201955Z AUTO 30010KT 10SM CLR 26/19 A2983 1110 64 2700 300/10 RMK AO2
14926KSTC STC20030720140009907/20/03 14:00:31  5-MIN KSTC 202000Z AUTO 30012KT 10SM CLR 27/19 A2983 1110 62 2800 290/12 RMK AO2
14926KSTC STC20030720140509907/20/03 14:05:31  5-MIN KSTC 202005Z AUTO 28011KT 10SM CLR 27/19 A2983 1110 64 2700 280/11 RMK AO2
14926KSTC STC20030720141009907/20/03 14:10:31  5-MIN KSTC 202010Z AUTO 30010KT 10SM CLR 27/20 A2983 1110 64 2800 290/10 RMK AO2
14926KSTC STC20030720141509907/20/03 14:15:31  5-MIN KSTC 202015Z AUTO 27011KT 10SM CLR 27/19 A2983 1110 64 2700 270/11 RMK AO2
14926KSTC STC20030720142009907/20/03 14:20:31  5-MIN KSTC 202020Z AUTO 30012KT 10SM CLR 27/19 A2983 1110 62 2800 300/12 RMK AO2
14926KSTC STC20030720142509907/20/03 14:25:31  5-MIN KSTC 202025Z AUTO 30012KT 10SM CLR 27/19 A2983 1110 62 2700 300/12 RMK AO2
14926KSTC STC20030720143009907/20/03 14:30:31  5-MIN KSTC 202030Z AUTO 28010KT 10SM CLR 27/19 A2983 1110 64 2700 280/10 RMK AO2
14926KSTC STC20030720143509907/20/03 14:35:31  5-MIN KSTC 202035Z AUTO 30010KT 10SM CLR 27/19 A2983 1110 64 2700 300/10 RMK AO2
14926KSTC STC20030720144009907/20/03 14:40:31  5-MIN KSTC 202040Z AUTO 33008KT 10SM CLR 27/20 A2982 1120 66 2800 330/08 RMK AO2
14926KSTC STC20030720144510207/20/03 14:45:31  5-MIN KSTC 202045Z AUTO 33007KT 10SM FEW030 26/20 A2982 1120 68 2700 330/07 RMK AO2
14926KSTC STC20030720145012507/20/03 14:50:31  5-MIN KSTC 202050Z AUTO 31009KT 10SM FEW032 27/20 A2983 1110 64 2800 300/09 RMK AO2 SLP102 T02720200 55013
14926KSTC STC20030720145509907/20/03 14:55:31  5-MIN KSTC 202055Z AUTO 29009KT 10SM CLR 27/20 A2982 1120 64 2800 290/09 RMK AO2
14926KSTC STC20030720150009907/20/03 15:00:31  5-MIN KSTC 202100Z AUTO 32009KT 10SM CLR 27/19 A2982 1120 62 2800 310/09 RMK AO2
14926KSTC STC20030720150509907/20/03 15:05:31  5-MIN KSTC 202105Z AUTO 29009KT 10SM CLR 27/20 A2982 1120 64 2800 290/09 RMK AO2
14926KSTC STC20030720151009907/20/03 15:10:31  5-MIN KSTC 202110Z AUTO 29010KT 10SM CLR 27/20 A2982 1120 64 2800 280/10 RMK AO2
14926KSTC STC20030720151509907/20/03 15:15:31  5-MIN KSTC 202115Z AUTO 27011KT 10SM CLR 28/20 A2982 1120 62 2900 270/11 RMK AO2
14926KSTC STC20030720152009907/20/03 15:20:31  5-MIN KSTC 202120Z AUTO 31009KT 10SM CLR 28/19 A2981 1130 60 2900 300/09 RMK AO2
14926KSTC STC20030720152510207/20/03 15:25:31  5-MIN KSTC 202125Z AUTO 29008KT 10SM FEW034 28/20 A2981 1130 62 2900 290/08 RMK AO2
14926KSTC STC20030720153010207/20/03 15:30:31  5-MIN KSTC 202130Z AUTO 30011KT 10SM FEW034 28/20 A2981 1130 62 2900 300/11 RMK AO2
14926KSTC STC20030720153510207/20/03 15:35:31  5-MIN KSTC 202135Z AUTO 33008KT 10SM SCT034 27/20 A2981 1130 64 2800 330/08 RMK AO2
14926KSTC STC20030720154010207/20/03 15:40:31  5-MIN KSTC 202140Z AUTO 30009KT 10SM SCT034 27/20 A2981 1130 66 2800 300/09 RMK AO2
14926KSTC STC20030720154510207/20/03 15:45:31  5-MIN KSTC 202145Z AUTO 29011KT 10SM SCT034 28/20 A2981 1130 62 2900 290/11 RMK AO2
14926KSTC STC20030720155011907/20/03 15:50:31  5-MIN KSTC 202150Z AUTO 28011KT 10SM SCT034 28/19 A2981 1130 60 2900 280/11 RMK AO2 SLP096 T02780194
14926KSTC STC20030720155510207/20/03 15:55:31  5-MIN KSTC 202155Z AUTO 28009KT 10SM FEW034 28/20 A2980 1140 62 2900 280/09 RMK AO2
14926KSTC STC20030720160010207/20/03 16:00:31  5-MIN KSTC 202200Z AUTO 31008KT 10SM FEW034 28/20 A2980 1140 62 2900 300/08 RMK AO2
14926KSTC STC20030720160510807/20/03 16:05:31  5-MIN KSTC 202205Z AUTO 29012G16KT 10SM FEW036 28/19 A2980 1140 60 2900 290/12G16 RMK AO2
14926KSTC STC20030720161010207/20/03 16:10:31  5-MIN KSTC 202210Z AUTO 28010KT 10SM FEW036 28/19 A2980 1140 60 2900 280/10 RMK AO2
14926KSTC STC20030720161510207/20/03 16:15:31  5-MIN KSTC 202215Z AUTO 29010KT 10SM SCT036 28/20 A2980 1140 62 2900 280/10 RMK AO2
14926KSTC STC20030720162010207/20/03 16:20:31  5-MIN KSTC 202220Z AUTO 28009KT 10SM SCT036 28/20 A2980 1140 60 3000 270/09 RMK AO2
14926KSTC STC20030720162510207/20/03 16:25:31  5-MIN KSTC 202225Z AUTO 30011KT 10SM SCT038 28/19 A2980 1140 60 2900 300/11 RMK AO2
14926KSTC STC20030720163010207/20/03 16:30:31  5-MIN KSTC 202230Z AUTO 29010KT 10SM SCT038 28/19 A2980 1140 58 3000 290/10 RMK AO2
14926KSTC STC20030720163510207/20/03 16:35:31  5-MIN KSTC 202235Z AUTO 29011KT 10SM BKN038 28/19 A2980 1140 58 3000 290/11 RMK AO2
14926KSTC STC20030720164010207/20/03 16:40:31  5-MIN KSTC 202240Z AUTO 29012KT 10SM SCT038 28/19 A2980 1140 60 2900 280/12 RMK AO2
14926KSTC STC20030720164510207/20/03 16:45:31  5-MIN KSTC 202245Z AUTO 28015KT 10SM FEW038 28/19 A2980 1140 58 2900 270/15 RMK AO2
14926KSTC STC20030720165011907/20/03 16:50:31  5-MIN KSTC 202250Z AUTO 29012KT 10SM FEW038 28/19 A2980 1140 58 2900 290/12 RMK AO2 SLP094 T02780189
14926KSTC STC20030720165510207/20/03 16:55:31  5-MIN KSTC 202255Z AUTO 29013KT 10SM FEW038 27/19 A2980 1140 60 2800 290/13 RMK AO2
14926KSTC STC20030720170010207/20/03 17:00:31  5-MIN KSTC 202300Z AUTO 29013KT 10SM FEW038 28/19 A2980 1140 58 2900 290/13 RMK AO2
14926KSTC STC20030720170510207/20/03 17:05:31  5-MIN KSTC 202305Z AUTO 29011KT 10SM FEW037 28/19 A2980 1140 58 2900 280/11 RMK AO2
14926KSTC STC20030720171010207/20/03 17:10:31  5-MIN KSTC 202310Z AUTO 29013KT 10SM FEW037 28/19 A2980 1140 58 2900 290/13 RMK AO2
14926KSTC STC20030720171509907/20/03 17:15:31  5-MIN KSTC 202315Z AUTO 30013KT 10SM CLR 28/19 A2980 1140 58 2900 290/13 RMK AO2
14926KSTC STC20030720172009907/20/03 17:20:31  5-MIN KSTC 202320Z AUTO 30014KT 10SM CLR 27/19 A2980 1140 60 2800 300/14 RMK AO2
14926KSTC STC20030720172509907/20/03 17:25:31  5-MIN KSTC 202325Z AUTO 31010KT 10SM CLR 27/19 A2980 1140 62 2800 300/10 RMK AO2
14926KSTC STC20030720173009907/20/03 17:30:31  5-MIN KSTC 202330Z AUTO 29012KT 10SM CLR 28/19 A2980 1140 60 2900 290/12 RMK AO2
14926KSTC STC20030720173510507/20/03 17:35:31  5-MIN KSTC 202335Z AUTO 28013G17KT 10SM CLR 27/19 A2979 1140 60 2800 270/13G17 RMK AO2
14926KSTC STC20030720174009907/20/03 17:40:31  5-MIN KSTC 202340Z AUTO 30013KT 10SM CLR 27/19 A2979 1150 60 2800 300/13 RMK AO2
14926KSTC STC20030720174509907/20/03 17:45:31  5-MIN KSTC 202345Z AUTO 30010KT 10SM CLR 27/19 A2979 1150 60 2900 290/10 RMK AO2
14926KSTC STC20030720175013407/20/03 17:50:31  5-MIN KSTC 202350Z AUTO 30012KT 10SM CLR 27/19 A2979 1150 62 2900 300/12 RMK AO2 SLP089 T02720194 10283 20239 57008
14926KSTC STC20030720175509907/20/03 17:55:31  5-MIN KSTC 202355Z AUTO 30011KT 10SM CLR 27/19 A2978 1150 62 2900 290/11 RMK AO2
14926KSTC STC20030720180009907/20/03 18:00:31  5-MIN KSTC 210000Z AUTO 30011KT 10SM CLR 27/19 A2978 1160 60 2900 290/11 RMK AO2
14926KSTC STC20030720180509907/20/03 18:05:31  5-MIN KSTC 210005Z AUTO 29011KT 10SM CLR 27/19 A2978 1150 62 2900 290/11 RMK AO2
14926KSTC STC20030720181009907/20/03 18:10:31  5-MIN KSTC 210010Z AUTO 29012KT 10SM CLR 27/19 A2978 1160 62 2900 290/12 RMK AO2
14926KSTC STC20030720181509907/20/03 18:15:31  5-MIN KSTC 210015Z AUTO 30010KT 10SM CLR 27/19 A2978 1160 64 2800 290/10 RMK AO2
14926KSTC STC20030720182009907/20/03 18:20:31  5-MIN KSTC 210020Z AUTO 30008KT 10SM CLR 27/19 A2978 1160 62 2900 290/08 RMK AO2
14926KSTC STC20030720182510207/20/03 18:25:31  5-MIN KSTC 210025Z AUTO 29010KT 10SM FEW042 27/19 A2978 1160 62 2900 290/10 RMK AO2
14926KSTC STC20030720183010207/20/03 18:30:31  5-MIN KSTC 210030Z AUTO 31010KT 10SM FEW042 27/19 A2978 1160 64 2800 310/10 RMK AO2
14926KSTC STC20030720183510207/20/03 18:35:31  5-MIN KSTC 210035Z AUTO 32011KT 10SM SCT044 27/19 A2978 1160 64 2800 320/11 RMK AO2
14926KSTC STC20030720184010207/20/03 18:40:31  5-MIN KSTC 210040Z AUTO 32009KT 10SM SCT044 27/19 A2978 1150 64 2800 320/09 RMK AO2
14926KSTC STC20030720184510207/20/03 18:45:31  5-MIN KSTC 210045Z AUTO 32007KT 10SM BKN044 26/19 A2978 1160 66 2700 320/07 RMK AO2
14926KSTC STC20030720185011907/20/03 18:50:31  5-MIN KSTC 210050Z AUTO 33010KT 10SM BKN044 26/19 A2978 1160 66 2700 320/10 RMK AO2 SLP087 T02610194
14926KSTC STC20030720185510207/20/03 18:55:31  5-MIN KSTC 210055Z AUTO 33010KT 10SM SCT044 26/19 A2978 1160 66 2700 320/10 RMK AO2
14926KSTC STC20030720190010807/20/03 19:00:31  5-MIN KSTC 210100Z AUTO 33012G19KT 10SM SCT044 26/18 A2978 1150 61 2700 330/12G19 RMK AO2
14926KSTC STC20030720190510807/20/03 19:05:31  5-MIN KSTC 210105Z AUTO 34012G19KT 10SM FEW044 25/17 A2979 1150 59 2600 330/12G19 RMK AO2
14926KSTC STC20030720191010207/20/03 19:10:31  5-MIN KSTC 210110Z AUTO 33010KT 10SM FEW044 25/17 A2979 1150 59 2600 330/10 RMK AO2
14926KSTC STC20030720191509907/20/03 19:15:31  5-MIN KSTC 210115Z AUTO 33011KT 10SM CLR 24/17 A2979 1150 61 2500 330/11 RMK AO2
14926KSTC STC20030720192009907/20/03 19:20:31  5-MIN KSTC 210120Z AUTO 33012KT 10SM CLR 24/16 A2979 1150 59 2500 330/12 RMK AO2
14926KSTC STC20030720192509907/20/03 19:25:31  5-MIN KSTC 210125Z AUTO 33011KT 10SM CLR 24/16 A2979 1150 59 2500 330/11 RMK AO2
14926KSTC STC20030720193009907/20/03 19:30:31  5-MIN KSTC 210130Z AUTO 33010KT 10SM CLR 24/16 A2979 1140 61 2500 320/10 RMK AO2
14926KSTC STC20030720193509907/20/03 19:35:31  5-MIN KSTC 210135Z AUTO 33010KT 10SM CLR 24/16 A2979 1150 59 2500 320/10 RMK AO2
14926KSTC STC20030720194009907/20/03 19:40:31  5-MIN KSTC 210140Z AUTO 33010KT 10SM CLR 24/16 A2979 1150 59 2500 320/10 RMK AO2
14926KSTC STC20030720194509907/20/03 19:45:31  5-MIN KSTC 210145Z AUTO 33009KT 10SM CLR 23/16 A2979 1150 61 2400 330/09 RMK AO2
14926KSTC STC20030720195011607/20/03 19:50:31  5-MIN KSTC 210150Z AUTO 33009KT 10SM CLR 23/16 A2979 1140 61 2400 320/09 RMK AO2 SLP092 T02330156
14926KSTC STC20030720195509907/20/03 19:55:31  5-MIN KSTC 210155Z AUTO 33010KT 10SM CLR 23/16 A2979 1140 63 2300 320/10 RMK AO2
14926KSTC STC20030720200009907/20/03 20:00:31  5-MIN KSTC 210200Z AUTO 33008KT 10SM CLR 23/16 A2979 1150 63 2300 320/08 RMK AO2
14926KSTC STC20030720200509907/20/03 20:05:31  5-MIN KSTC 210205Z AUTO 33008KT 10SM CLR 23/16 A2979 1140 63 2300 320/08 RMK AO2
14926KSTC STC20030720201009907/20/03 20:10:31  5-MIN KSTC 210210Z AUTO 33008KT 10SM CLR 22/16 A2979 1140 65 2300 330/08 RMK AO2
14926KSTC STC20030720201509907/20/03 20:15:31  5-MIN KSTC 210215Z AUTO 33008KT 10SM CLR 22/16 A2980 1140 65 2300 320/08 RMK AO2
14926KSTC STC20030720202009907/20/03 20:20:31  5-MIN KSTC 210220Z AUTO 33007KT 10SM CLR 22/16 A2980 1140 68 2200 330/07 RMK AO2
14926KSTC STC20030720202509907/20/03 20:25:31  5-MIN KSTC 210225Z AUTO 33006KT 10SM CLR 22/16 A2980 1140 68 2200 330/06 RMK AO2
14926KSTC STC20030720203009907/20/03 20:30:31  5-MIN KSTC 210230Z AUTO 33007KT 10SM CLR 22/16 A2980 1140 68 2200 330/07 RMK AO2
14926KSTC STC20030720203509907/20/03 20:35:31  5-MIN KSTC 210235Z AUTO 33007KT 10SM CLR 22/15 A2980 1140 65 2200 320/07 RMK AO2
14926KSTC STC20030720204009907/20/03 20:40:31  5-MIN KSTC 210240Z AUTO 33007KT 10SM CLR 21/15 A2980 1130 68 2100 330/07 RMK AO2
14926KSTC STC20030720204509907/20/03 20:45:31  5-MIN KSTC 210245Z AUTO 33006KT 10SM CLR 21/15 A2981 1130 68 2100 330/06 RMK AO2
14926KSTC STC20030720205012207/20/03 20:50:31  5-MIN KSTC 210250Z AUTO 33006KT 10SM CLR 21/15 A2981 1130 70 2100 320/06 RMK AO2 SLP098 T02060150 56014
14926KSTC STC20030720205509907/20/03 20:55:31  5-MIN KSTC 210255Z AUTO 33006KT 10SM CLR 21/15 A2981 1130 70 2100 320/06 RMK AO2
14926KSTC STC20030720210009907/20/03 21:00:31  5-MIN KSTC 210300Z AUTO 33006KT 10SM CLR 21/15 A2981 1130 70 2100 320/06 RMK AO2
14926KSTC STC20030720210509907/20/03 21:05:31  5-MIN KSTC 210305Z AUTO 33006KT 10SM CLR 21/15 A2981 1130 70 2100 320/06 RMK AO2
14926KSTC STC20030720211009907/20/03 21:10:31  5-MIN KSTC 210310Z AUTO 32005KT 10SM CLR 20/15 A2981 1130 72 2000 320/05 RMK AO2
14926KSTC STC20030720211509907/20/03 21:15:31  5-MIN KSTC 210315Z AUTO 32006KT 10SM CLR 19/15 A2981 1130 75 1900 320/06 RMK AO2
14926KSTC STC20030720212009907/20/03 21:20:31  5-MIN KSTC 210320Z AUTO 33006KT 10SM CLR 19/15 A2981 1130 75 1900 330/06 RMK AO2
14926KSTC STC20030720212509907/20/03 21:25:31  5-MIN KSTC 210325Z AUTO 33005KT 10SM CLR 20/15 A2981 1130 72 2000 320/05 RMK AO2
14926KSTC STC20030720213009907/20/03 21:30:31  5-MIN KSTC 210330Z AUTO 32005KT 10SM CLR 19/15 A2981 1120 75 1900 320/05 RMK AO2
14926KSTC STC20030720213509907/20/03 21:35:31  5-MIN KSTC 210335Z AUTO 32004KT 10SM CLR 19/15 A2982 1120 78 1900 310/04 RMK AO2
14926KSTC STC20030720214009907/20/03 21:40:31  5-MIN KSTC 210340Z AUTO 32004KT 10SM CLR 19/15 A2982 1120 78 1900 320/04 RMK AO2
14926KSTC STC20030720214509907/20/03 21:45:31  5-MIN KSTC 210345Z AUTO 33004KT 10SM CLR 19/15 A2982 1120 78 1900 330/04 RMK AO2
14926KSTC STC20030720215011607/20/03 21:50:31  5-MIN KSTC 210350Z AUTO 32005KT 10SM CLR 19/15 A2982 1120 78 1900 320/05 RMK AO2 SLP102 T01890150
14926KSTC STC20030720215509907/20/03 21:55:31  5-MIN KSTC 210355Z AUTO 32005KT 10SM CLR 19/15 A2982 1120 78 1900 320/05 RMK AO2
14926KSTC STC20030720220010207/20/03 22:00:31  5-MIN KSTC 210400Z AUTO 32005KT 10SM FEW070 19/15 A2982 1120 78 1900 320/05 RMK AO2
14926KSTC STC20030720220510207/20/03 22:05:31  5-MIN KSTC 210405Z AUTO 33004KT 10SM BKN070 19/15 A2982 1120 78 1900 330/04 RMK AO2
14926KSTC STC20030720221010207/20/03 22:10:31  5-MIN KSTC 210410Z AUTO 33004KT 10SM BKN070 19/15 A2982 1120 78 1900 330/04 RMK AO2
14926KSTC STC20030720221510207/20/03 22:15:31  5-MIN KSTC 210415Z AUTO 33003KT 10SM BKN070 18/15 A2982 1120 81 1800 330/03 RMK AO2
14926KSTC STC20030720222010207/20/03 22:20:31  5-MIN KSTC 210420Z AUTO 32003KT 10SM SCT070 18/15 A2982 1120 81 1800 320/03 RMK AO2
14926KSTC STC20030720222510207/20/03 22:25:31  5-MIN KSTC 210425Z AUTO 32004KT 10SM SCT070 19/15 A2982 1120 78 1900 310/04 RMK AO2
14926KSTC STC20030720223010207/20/03 22:30:31  5-MIN KSTC 210430Z AUTO 32004KT 10SM SCT070 18/15 A2982 1120 81 1800 320/04 RMK AO2
14926KSTC STC20030720223510207/20/03 22:35:31  5-MIN KSTC 210435Z AUTO 32006KT 10SM FEW075 18/15 A2982 1120 81 1800 310/06 RMK AO2
14926KSTC STC20030720224009907/20/03 22:40:31  5-MIN KSTC 210440Z AUTO 31006KT 10SM CLR 18/15 A2982 1120 83 1700 310/06 RMK AO2
14926KSTC STC20030720224509907/20/03 22:45:31  5-MIN KSTC 210445Z AUTO 31006KT 10SM CLR 18/15 A2982 1120 83 1700 310/06 RMK AO2
14926KSTC STC20030720225011607/20/03 22:50:31  5-MIN KSTC 210450Z AUTO 31006KT 10SM CLR 17/15 A2982 1120 87 1700 310/06 RMK AO2 SLP102 T01720150
14926KSTC STC20030720225509907/20/03 22:55:31  5-MIN KSTC 210455Z AUTO 31006KT 10SM CLR 18/15 A2982 1120 83 1700 310/06 RMK AO2
14926KSTC STC20030720230009907/20/03 23:00:31  5-MIN KSTC 210500Z AUTO 31007KT 10SM CLR 18/15 A2982 1120 83 1700 310/07 RMK AO2
14926KSTC STC20030720230509907/20/03 23:05:31  5-MIN KSTC 210505Z AUTO 32006KT 10SM CLR 18/15 A2982 1120 83 1700 320/06 RMK AO2
14926KSTC STC20030720231009907/20/03 23:10:31  5-MIN KSTC 210510Z AUTO 33005KT 10SM CLR 17/15 A2982 1120 87 1700 330/05 RMK AO2
14926KSTC STC20030720231509907/20/03 23:15:31  5-MIN KSTC 210515Z AUTO 32006KT 10SM CLR 18/15 A2982 1120 83 1700 320/06 RMK AO2
14926KSTC STC20030720232009907/20/03 23:20:31  5-MIN KSTC 210520Z AUTO 32007KT 10SM CLR 17/15 A2982 1120 90 1600 320/07 RMK AO2
14926KSTC STC20030720232509907/20/03 23:25:31  5-MIN KSTC 210525Z AUTO 32007KT 10SM CLR 17/15 A2982 1120 90 1600 310/07 RMK AO2
14926KSTC STC20030720233009907/20/03 23:30:31  5-MIN KSTC 210530Z AUTO 32006KT 10SM CLR 17/15 A2982 1120 87 1700 320/06 RMK AO2
14926KSTC STC20030720233509907/20/03 23:35:31  5-MIN KSTC 210535Z AUTO 32007KT 10SM CLR 17/15 A2982 1120 87 1700 320/07 RMK AO2
14926KSTC STC20030720234009907/20/03 23:40:31  5-MIN KSTC 210540Z AUTO 32006KT 10SM CLR 17/15 A2982 1120 90 1600 320/06 RMK AO2
14926KSTC STC20030720234509907/20/03 23:45:31  5-MIN KSTC 210545Z AUTO 32007KT 10SM CLR 17/15 A2982 1120 90 1600 310/07 RMK AO2
14926KSTC STC20030720235014407/20/03 23:50:31  5-MIN KSTC 210550Z AUTO 32007KT 10SM CLR 17/15 A2982 1120 90 1600 320/07 RMK AO2 SLP102 T01670150 10272 20167 402830161 53008
14926KSTC STC20030720235509907/20/03 23:55:31  5-MIN KSTC 210555Z AUTO 32007KT 10SM CLR 17/15 A2982 1120 87 1700 320/07 RMK AO2
14926KSTC STC20030721000009907/21/03 00:00:31  5-MIN KSTC 210600Z AUTO 33006KT 10SM CLR 17/15 A2982 1120 87 1700 320/06 RMK AO2
14926KSTC STC20030721000509907/21/03 00:05:31  5-MIN KSTC 210605Z AUTO 33006KT 10SM CLR 17/15 A2983 1110 87 1700 330/06 RMK AO2
14926KSTC STC20030721001009907/21/03 00:10:31  5-MIN KSTC 210610Z AUTO 34005KT 10SM CLR 17/14 A2983 1110 83 1700 330/05 RMK AO2
14926KSTC STC20030721001509907/21/03 00:15:31  5-MIN KSTC 210615Z AUTO 33005KT 10SM CLR 17/14 A2983 1110 83 1700 330/05 RMK AO2
14926KSTC STC20030721002009907/21/03 00:20:31  5-MIN KSTC 210620Z AUTO 34005KT 10SM CLR 17/14 A2983 1110 83 1700 340/05 RMK AO2
14926KSTC STC20030721002509907/21/03 00:25:31  5-MIN KSTC 210625Z AUTO 35005KT 10SM CLR 17/14 A2982 1120 86 1600 350/05 RMK AO2
14926KSTC STC20030721003009907/21/03 00:30:31  5-MIN KSTC 210630Z AUTO 36005KT 10SM CLR 17/14 A2982 1120 86 1600 350/05 RMK AO2
14926KSTC STC20030721003509907/21/03 00:35:31  5-MIN KSTC 210635Z AUTO 35005KT 10SM CLR 17/14 A2983 1110 86 1600 350/05 RMK AO2
14926KSTC STC20030721004009907/21/03 00:40:31  5-MIN KSTC 210640Z AUTO 35004KT 10SM CLR 17/14 A2982 1120 86 1600 340/04 RMK AO2
14926KSTC STC20030721004509907/21/03 00:45:31  5-MIN KSTC 210645Z AUTO 34005KT 10SM CLR 17/14 A2982 1120 86 1600 330/05 RMK AO2
14926KSTC STC20030721005011607/21/03 00:50:31  5-MIN KSTC 210650Z AUTO 34005KT 10SM CLR 17/14 A2982 1120 86 1600 340/05 RMK AO2 SLP103 T01670144
14926KSTC STC20030721005509907/21/03 00:55:31  5-MIN KSTC 210655Z AUTO 34005KT 10SM CLR 17/14 A2982 1120 86 1600 340/05 RMK AO2
14926KSTC STC20030721010009907/21/03 01:00:31  5-MIN KSTC 210700Z AUTO 34006KT 10SM CLR 17/14 A2982 1120 86 1600 340/06 RMK AO2
14926KSTC STC20030721010509907/21/03 01:05:31  5-MIN KSTC 210705Z AUTO 33006KT 10SM CLR 17/14 A2983 1110 86 1600 330/06 RMK AO2
14926KSTC STC20030721011009907/21/03 01:10:31  5-MIN KSTC 210710Z AUTO 33006KT 10SM CLR 17/14 A2982 1120 86 1600 330/06 RMK AO2
14926KSTC STC20030721011509907/21/03 01:15:31  5-MIN KSTC 210715Z AUTO 34005KT 10SM CLR 17/14 A2982 1120 86 1600 330/05 RMK AO2
14926KSTC STC20030721012009907/21/03 01:20:31  5-MIN KSTC 210720Z AUTO 33006KT 10SM CLR 17/14 A2982 1120 86 1600 330/06 RMK AO2
14926KSTC STC20030721012509907/21/03 01:25:31  5-MIN KSTC 210725Z AUTO 33006KT 10SM CLR 16/14 A2983 1110 90 1500 330/06 RMK AO2
14926KSTC STC20030721013009907/21/03 01:30:31  5-MIN KSTC 210730Z AUTO 33006KT 10SM CLR 17/14 A2983 1110 86 1600 330/06 RMK AO2
14926KSTC STC20030721013509907/21/03 01:35:31  5-MIN KSTC 210735Z AUTO 33006KT 10SM CLR 16/14 A2982 1110 90 1500 330/06 RMK AO2
14926KSTC STC20030721014009907/21/03 01:40:31  5-MIN KSTC 210740Z AUTO 33006KT 10SM CLR 16/14 A2983 1110 90 1500 330/06 RMK AO2
14926KSTC STC20030721014509907/21/03 01:45:31  5-MIN KSTC 210745Z AUTO 33005KT 10SM CLR 16/14 A2983 1110 90 1500 330/05 RMK AO2
14926KSTC STC20030721015011607/21/03 01:50:31  5-MIN KSTC 210750Z AUTO 34006KT 10SM CLR 16/14 A2983 1110 90 1500 340/06 RMK AO2 SLP104 T01610144
14926KSTC STC20030721015509907/21/03 01:55:31  5-MIN KSTC 210755Z AUTO 33006KT 10SM CLR 16/14 A2983 1110 90 1500 330/06 RMK AO2
14926KSTC STC20030721020009907/21/03 02:00:31  5-MIN KSTC 210800Z AUTO 33006KT 10SM CLR 16/14 A2983 1110 90 1500 330/06 RMK AO2
14926KSTC STC20030721020509907/21/03 02:05:31  5-MIN KSTC 210805Z AUTO 33006KT 10SM CLR 16/14 A2982 1120 90 1500 330/06 RMK AO2
14926KSTC STC20030721021009907/21/03 02:10:31  5-MIN KSTC 210810Z AUTO 33006KT 10SM CLR 16/14 A2982 1120 90 1500 320/06 RMK AO2
14926KSTC STC20030721021509907/21/03 02:15:31  5-MIN KSTC 210815Z AUTO 32005KT 10SM CLR 16/14 A2983 1110 86 1500 320/05 RMK AO2
14926KSTC STC20030721022009907/21/03 02:20:31  5-MIN KSTC 210820Z AUTO 32006KT 10SM CLR 16/14 A2982 1110 90 1500 320/06 RMK AO2
14926KSTC STC20030721022509907/21/03 02:25:31  5-MIN KSTC 210825Z AUTO 33007KT 10SM CLR 16/14 A2982 1120 90 1500 320/07 RMK AO2
14926KSTC STC20030721023009907/21/03 02:30:31  5-MIN KSTC 210830Z AUTO 33006KT 10SM CLR 16/14 A2983 1110 90 1500 320/06 RMK AO2
14926KSTC STC20030721023509907/21/03 02:35:31  5-MIN KSTC 210835Z AUTO 33006KT 10SM CLR 16/14 A2983 1110 90 1500 320/06 RMK AO2
14926KSTC STC20030721024009907/21/03 02:40:31  5-MIN KSTC 210840Z AUTO 32006KT 10SM CLR 16/14 A2983 1110 90 1500 320/06 RMK AO2
14926KSTC STC20030721024509907/21/03 02:45:31  5-MIN KSTC 210845Z AUTO 32007KT 10SM CLR 16/14 A2983 1110 90 1500 320/07 RMK AO2
14926KSTC STC20030721025012207/21/03 02:50:31  5-MIN KSTC 210850Z AUTO 32007KT 10SM CLR 16/14 A2984 1110 90 1500 320/07 RMK AO2 SLP107 T01560139 51004
14926KSTC STC20030721025509907/21/03 02:55:31  5-MIN KSTC 210855Z AUTO 32008KT 10SM CLR 16/14 A2984 1100 90 1500 320/08 RMK AO2
14926KSTC STC20030721030009907/21/03 03:00:31  5-MIN KSTC 210900Z AUTO 33007KT 10SM CLR 16/14 A2983 1110 86 1500 320/07 RMK AO2
14926KSTC STC20030721030509907/21/03 03:05:31  5-MIN KSTC 210905Z AUTO 33006KT 10SM CLR 16/14 A2983 1110 90 1500 320/06 RMK AO2
14926KSTC STC20030721031009907/21/03 03:10:31  5-MIN KSTC 210910Z AUTO 33006KT 10SM CLR 16/14 A2983 1110 90 1500 320/06 RMK AO2
14926KSTC STC20030721031509907/21/03 03:15:31  5-MIN KSTC 210915Z AUTO 32006KT 10SM CLR 15/13 A2983 1110 90 1400 310/06 RMK AO2
14926KSTC STC20030721032009907/21/03 03:20:31  5-MIN KSTC 210920Z AUTO 32006KT 10SM CLR 14/13 A2983 1110 93 1300 310/06 RMK AO2
14926KSTC STC20030721032509907/21/03 03:25:31  5-MIN KSTC 210925Z AUTO 31007KT 10SM CLR 14/13 A2983 1110 93 1300 310/07 RMK AO2
14926KSTC STC20030721033009907/21/03 03:30:31  5-MIN KSTC 210930Z AUTO 31007KT 10SM CLR 14/13 A2983 1110 93 1300 310/07 RMK AO2
14926KSTC STC20030721033509907/21/03 03:35:31  5-MIN KSTC 210935Z AUTO 32007KT 10SM CLR 14/13 A2983 1110 93 1300 310/07 RMK AO2
14926KSTC STC20030721034009907/21/03 03:40:31  5-MIN KSTC 210940Z AUTO 32007KT 10SM CLR 15/13 A2983 1110 90 1400 320/07 RMK AO2
14926KSTC STC20030721034509907/21/03 03:45:31  5-MIN KSTC 210945Z AUTO 32007KT 10SM CLR 15/13 A2983 1110 90 1400 320/07 RMK AO2
14926KSTC STC20030721035011607/21/03 03:50:31  5-MIN KSTC 210950Z AUTO 32006KT 10SM CLR 14/13 A2983 1110 93 1300 320/06 RMK AO2 SLP106 T01440133
14926KSTC STC20030721035509907/21/03 03:55:31  5-MIN KSTC 210955Z AUTO 32006KT 10SM CLR 14/13 A2983 1110 93 1300 320/06 RMK AO2
14926KSTC STC20030721040009907/21/03 04:00:31  5-MIN KSTC 211000Z AUTO 33006KT 10SM CLR 14/13 A2983 1110 93 1300 320/06 RMK AO2
14926KSTC STC20030721040509907/21/03 04:05:31  5-MIN KSTC 211005Z AUTO 33006KT 10SM CLR 15/13 A2983 1110 90 1400 330/06 RMK AO2
14926KSTC STC20030721041009907/21/03 04:10:31  5-MIN KSTC 211010Z AUTO 32006KT 10SM CLR 15/13 A2984 1100 90 1400 320/06 RMK AO2
14926KSTC STC20030721041509907/21/03 04:15:31  5-MIN KSTC 211015Z AUTO 32007KT 10SM CLR 14/13 A2984 1100 93 1300 320/07 RMK AO2
14926KSTC STC20030721042009907/21/03 04:20:31  5-MIN KSTC 211020Z AUTO 32007KT 10SM CLR 14/13 A2984 1100 93 1300 320/07 RMK AO2
14926KSTC STC20030721042509907/21/03 04:25:31  5-MIN KSTC 211025Z AUTO 32007KT 10SM CLR 14/13 A2984 1100 93 1300 320/07 RMK AO2
14926KSTC STC20030721043009907/21/03 04:30:31  5-MIN KSTC 211030Z AUTO 32007KT 10SM CLR 14/13 A2984 1100 93 1300 320/07 RMK AO2
14926KSTC STC20030721043509907/21/03 04:35:31  5-MIN KSTC 211035Z AUTO 33007KT 10SM CLR 15/13 A2984 1100 90 1400 330/07 RMK AO2
14926KSTC STC20030721044009907/21/03 04:40:31  5-MIN KSTC 211040Z AUTO 33006KT 10SM CLR 15/13 A2984 1100 90 1400 330/06 RMK AO2
14926KSTC STC20030721044509907/21/03 04:45:31  5-MIN KSTC 211045Z AUTO 33007KT 10SM CLR 15/13 A2984 1100 90 1400 320/07 RMK AO2
14926KSTC STC20030721045011607/21/03 04:50:31  5-MIN KSTC 211050Z AUTO 33006KT 10SM CLR 15/13 A2985 1090 90 1400 330/06 RMK AO2 SLP111 T01500133
14926KSTC STC20030721045509907/21/03 04:55:31  5-MIN KSTC 211055Z AUTO 32006KT 10SM CLR 15/13 A2985 1090 90 1400 320/06 RMK AO2
14926KSTC STC20030721050009907/21/03 05:00:31  5-MIN KSTC 211100Z AUTO 32007KT 10SM CLR 15/13 A2985 1090 90 1400 320/07 RMK AO2
14926KSTC STC20030721050509907/21/03 05:05:31  5-MIN KSTC 211105Z AUTO 32006KT 10SM CLR 14/13 A2985 1090 93 1300 320/06 RMK AO2
14926KSTC STC20030721051009907/21/03 05:10:31  5-MIN KSTC 211110Z AUTO 32006KT 10SM CLR 14/13 A2985 1090 93 1300 320/06 RMK AO2
14926KSTC STC20030721051509907/21/03 05:15:31  5-MIN KSTC 211115Z AUTO 32005KT 10SM CLR 14/13 A2985 1090 93 1300 320/05 RMK AO2
14926KSTC STC20030721052009907/21/03 05:20:31  5-MIN KSTC 211120Z AUTO 33005KT 10SM CLR 14/13 A2985 1090 93 1300 330/05 RMK AO2
14926KSTC STC20030721052509907/21/03 05:25:31  5-MIN KSTC 211125Z AUTO 33005KT 10SM CLR 15/13 A2986 1090 90 1400 330/05 RMK AO2
14926KSTC STC20030721053009907/21/03 05:30:31  5-MIN KSTC 211130Z AUTO 33005KT 10SM CLR 15/14 A2986 1080 93 1400 330/05 RMK AO2
14926KSTC STC20030721053509907/21/03 05:35:31  5-MIN KSTC 211135Z AUTO 33005KT 10SM CLR 16/14 A2986 1080 90 1400 330/05 RMK AO2
14926KSTC STC20030721054009907/21/03 05:40:31  5-MIN KSTC 211140Z AUTO 33006KT 10SM CLR 16/14 A2986 1080 90 1400 330/06 RMK AO2
14926KSTC STC20030721054509907/21/03 05:45:31  5-MIN KSTC 211145Z AUTO 33006KT 10SM CLR 16/14 A2986 1080 90 1400 330/06 RMK AO2
14926KSTC STC20030721055014007/21/03 05:50:31  5-MIN KSTC 211150Z AUTO 33007KT 10SM CLR 16/14 A2986 1080 90 1400 330/07 RMK AO2 SLP114 70004 T01560139 10172 20144 53005
14926KSTC STC20030721055509907/21/03 05:55:31  5-MIN KSTC 211155Z AUTO 33006KT 10SM CLR 16/14 A2986 1080 90 1400 330/06 RMK AO2
14926KSTC STC20030721060009907/21/03 06:00:31  5-MIN KSTC 211200Z AUTO 33007KT 10SM CLR 16/14 A2986 1080 90 1400 330/07 RMK AO2
14926KSTC STC20030721060509907/21/03 06:05:31  5-MIN KSTC 211205Z AUTO 33006KT 10SM CLR 16/14 A2986 1080 90 1400 330/06 RMK AO2
14926KSTC STC20030721061009907/21/03 06:10:31  5-MIN KSTC 211210Z AUTO 33006KT 10SM CLR 16/14 A2986 1080 90 1400 330/06 RMK AO2
14926KSTC STC20030721061509907/21/03 06:15:31  5-MIN KSTC 211215Z AUTO 32007KT 10SM CLR 16/14 A2986 1080 90 1400 320/07 RMK AO2
14926KSTC STC20030721062009907/21/03 06:20:31  5-MIN KSTC 211220Z AUTO 32007KT 10SM CLR 16/14 A2986 1080 90 1400 320/07 RMK AO2
14926KSTC STC20030721062509907/21/03 06:25:31  5-MIN KSTC 211225Z AUTO 32008KT 10SM CLR 16/14 A2987 1080 90 1500 320/08 RMK AO2
14926KSTC STC20030721063009907/21/03 06:30:31  5-MIN KSTC 211230Z AUTO 32008KT 10SM CLR 16/14 A2987 1080 90 1500 320/08 RMK AO2
14926KSTC STC20030721063509907/21/03 06:35:31  5-MIN KSTC 211235Z AUTO 32007KT 10SM CLR 16/14 A2987 1070 90 1500 320/07 RMK AO2
14926KSTC STC20030721064009907/21/03 06:40:31  5-MIN KSTC 211240Z AUTO 31008KT 10SM CLR 17/14 A2987 1070 86 1600 310/08 RMK AO2
14926KSTC STC20030721064509907/21/03 06:45:31  5-MIN KSTC 211245Z AUTO 31009KT 10SM CLR 17/14 A2987 1070 86 1600 310/09 RMK AO2
14926KSTC STC20030721065011607/21/03 06:50:31  5-MIN KSTC 211250Z AUTO 31009KT 10SM CLR 17/15 A2988 1070 90 1600 310/09 RMK AO2 SLP121 T01670150
14926KSTC STC20030721065509907/21/03 06:55:31  5-MIN KSTC 211255Z AUTO 31009KT 10SM CLR 17/15 A2988 1070 90 1500 310/09 RMK AO2
14926KSTC STC20030721070009907/21/03 07:00:31  5-MIN KSTC 211300Z AUTO 32007KT 10SM CLR 17/15 A2988 1070 87 1600 320/07 RMK AO2
14926KSTC STC20030721070509907/21/03 07:05:31  5-MIN KSTC 211305Z AUTO 32008KT 10SM CLR 17/15 A2988 1060 87 1600 320/08 RMK AO2
14926KSTC STC20030721071011507/21/03 07:10:31  5-MIN KSTC 211310Z AUTO 33009KT 310V020 10SM CLR 17/15 A2988 1060 87 1600 330/09 310V020 RMK AO2
14926KSTC STC20030721071509907/21/03 07:15:31  5-MIN KSTC 211315Z AUTO 33009KT 10SM CLR 18/15 A2988 1070 83 1700 330/09 RMK AO2
14926KSTC STC20030721072009907/21/03 07:20:31  5-MIN KSTC 211320Z AUTO 35008KT 10SM CLR 18/15 A2988 1070 83 1700 340/08 RMK AO2
14926KSTC STC20030721072509907/21/03 07:25:31  5-MIN KSTC 211325Z AUTO 35008KT 10SM CLR 18/15 A2988 1070 81 1700 350/08 RMK AO2
14926KSTC STC20030721073009907/21/03 07:30:31  5-MIN KSTC 211330Z AUTO 36007KT 10SM CLR 18/15 A2988 1070 81 1700 350/07 RMK AO2
14926KSTC STC20030721073509907/21/03 07:35:31  5-MIN KSTC 211335Z AUTO 36008KT 10SM CLR 18/15 A2988 1070 81 1700 360/08 RMK AO2
14926KSTC STC20030721074009907/21/03 07:40:31  5-MIN KSTC 211340Z AUTO 36008KT 10SM CLR 18/15 A2988 1070 81 1700 360/08 RMK AO2
14926KSTC STC20030721074509907/21/03 07:45:31  5-MIN KSTC 211345Z AUTO 35008KT 10SM CLR 18/14 A2987 1070 78 1700 350/08 RMK AO2
14926KSTC STC20030721075011607/21/03 07:50:31  5-MIN KSTC 211350Z AUTO 36007KT 10SM CLR 19/15 A2987 1070 78 1800 360/07 RMK AO2 SLP120 T01890150
14926KSTC STC20030721075509907/21/03 07:55:31  5-MIN KSTC 211355Z AUTO 35008KT 10SM CLR 19/15 A2987 1070 78 1800 350/08 RMK AO2
14926KSTC STC20030721080009907/21/03 08:00:31  5-MIN KSTC 211400Z AUTO 35009KT 10SM CLR 19/15 A2987 1070 78 1800 350/09 RMK AO2
14926KSTC STC20030721080509907/21/03 08:05:31  5-MIN KSTC 211405Z AUTO 36009KT 10SM CLR 19/15 A2988 1070 78 1800 360/09 RMK AO2
14926KSTC STC20030721081009907/21/03 08:10:31  5-MIN KSTC 211410Z AUTO 35007KT 10SM CLR 19/15 A2988 1070 78 1800 350/07 RMK AO2
14926KSTC STC20030721081509907/21/03 08:15:31  5-MIN KSTC 211415Z AUTO 36009KT 10SM CLR 19/15 A2988 1070 75 1900 360/09 RMK AO2
14926KSTC STC20030721082009907/21/03 08:20:31  5-MIN KSTC 211420Z AUTO 01009KT 10SM CLR 19/15 A2988 1060 75 1900 010/09 RMK AO2
14926KSTC STC20030721082509907/21/03 08:25:31  5-MIN KSTC 211425Z AUTO 36009KT 10SM CLR 19/15 A2988 1060 75 1900 360/09 RMK AO2
14926KSTC STC20030721083009907/21/03 08:30:31  5-MIN KSTC 211430Z AUTO 34008KT 10SM CLR 19/15 A2988 1060 75 1900 340/08 RMK AO2
14926KSTC STC20030721083509907/21/03 08:35:31  5-MIN KSTC 211435Z AUTO 01007KT 10SM CLR 20/15 A2988 1060 72 1900 360/07 RMK AO2
14926KSTC STC20030721084009907/21/03 08:40:31  5-MIN KSTC 211440Z AUTO 35007KT 10SM CLR 20/15 A2988 1060 72 1900 350/07 RMK AO2
14926KSTC STC20030721084509907/21/03 08:45:31  5-MIN KSTC 211445Z AUTO 35008KT 10SM CLR 20/15 A2989 1060 72 1900 350/08 RMK AO2
14926KSTC STC20030721085012207/21/03 08:50:31  5-MIN KSTC 211450Z AUTO 35008KT 10SM CLR 20/15 A2989 1060 72 1900 340/08 RMK AO2 SLP125 T02000150 53007
14926KSTC STC20030721085509907/21/03 08:55:31  5-MIN KSTC 211455Z AUTO 35009KT 10SM CLR 21/15 A2989 1060 70 2000 350/09 RMK AO2
14926KSTC STC20030721090010207/21/03 09:00:31  5-MIN KSTC 211500Z AUTO 34009KT 10SM FEW022 21/15 A2989 1050 70 2000 340/09 RMK AO2
14926KSTC STC20030721090510207/21/03 09:05:31  5-MIN KSTC 211505Z AUTO 34009KT 10SM FEW022 20/15 A2989 1050 72 1900 340/09 RMK AO2
14926KSTC STC20030721091010207/21/03 09:10:31  5-MIN KSTC 211510Z AUTO 36007KT 10SM SCT024 21/15 A2990 1050 70 2000 360/07 RMK AO2
14926KSTC STC20030721091510207/21/03 09:15:31  5-MIN KSTC 211515Z AUTO 35010KT 10SM SCT024 21/15 A2990 1050 68 2000 350/10 RMK AO2
14926KSTC STC20030721092010207/21/03 09:20:31  5-MIN KSTC 211520Z AUTO 35008KT 10SM SCT024 21/15 A2990 1050 70 2000 340/08 RMK AO2
14926KSTC STC20030721092510207/21/03 09:25:31  5-MIN KSTC 211525Z AUTO 33009KT 10SM SCT024 21/15 A2989 1050 68 2000 330/09 RMK AO2
14926KSTC STC20030721093010207/21/03 09:30:31  5-MIN KSTC 211530Z AUTO 33012KT 10SM SCT024 21/14 A2990 1050 65 2000 330/12 RMK AO2
14926KSTC STC20030721093510907/21/03 09:35:31  5-MIN KSTC 211535Z AUTO 35006KT 10SM FEW026 SCT035 21/14 A2990 1050 67 2000 350/06 RMK AO2
14926KSTC STC20030721094010907/21/03 09:40:31  5-MIN KSTC 211540Z AUTO 33010KT 10SM SCT028 SCT035 22/15 A2990 1050 65 2100 320/10 RMK AO2
14926KSTC STC20030721094510907/21/03 09:45:31  5-MIN KSTC 211545Z AUTO 34008KT 10SM SCT028 SCT035 21/14 A2990 1050 67 2000 340/08 RMK AO2
14926KSTC STC20030721095012607/21/03 09:50:31  5-MIN KSTC 211550Z AUTO 34009KT 10SM FEW028 SCT035 22/15 A2989 1050 65 2100 340/09 RMK AO2 SLP127 T02170150
14926KSTC STC20030721095510907/21/03 09:55:31  5-MIN KSTC 211555Z AUTO 01008KT 10SM FEW028 SCT035 22/14 A2989 1050 63 2100 010/08 RMK AO2
14926KSTC STC20030721100010907/21/03 10:00:31  5-MIN KSTC 211600Z AUTO 34008KT 10SM SCT028 SCT037 21/14 A2990 1050 65 2000 340/08 RMK AO2
14926KSTC STC20030721100512507/21/03 10:05:31  5-MIN KSTC 211605Z AUTO 01007KT 330V040 10SM SCT028 SCT035 21/14 A2990 1050 65 2000 360/07 330V040 RMK AO2
14926KSTC STC20030721101010207/21/03 10:10:31  5-MIN KSTC 211610Z AUTO 34008KT 10SM SCT028 22/14 A2990 1050 63 2100 330/08 RMK AO2
14926KSTC STC20030721101510907/21/03 10:15:31  5-MIN KSTC 211615Z AUTO 36007KT 10SM FEW028 SCT049 22/14 A2990 1050 61 2100 360/07 RMK AO2
14926KSTC STC20030721102011607/21/03 10:20:31  5-MIN KSTC 211620Z AUTO 35008KT 10SM FEW028 SCT036 BKN047 22/14 A2990 1040 61 2200 350/08 RMK AO2
14926KSTC STC20030721102511607/21/03 10:25:31  5-MIN KSTC 211625Z AUTO 34008KT 10SM FEW028 SCT033 BKN047 22/15 A2990 1050 65 2100 330/08 RMK AO2
14926KSTC STC20030721103010907/21/03 10:30:31  5-MIN KSTC 211630Z AUTO 33008KT 10SM SCT031 BKN047 21/15 A2990 1050 70 2000 330/08 RMK AO2
14926KSTC STC20030721103510907/21/03 10:35:31  5-MIN KSTC 211635Z AUTO 35009KT 10SM FEW031 BKN047 22/15 A2990 1040 65 2100 350/09 RMK AO2
14926KSTC STC20030721104010907/21/03 10:40:31  5-MIN KSTC 211640Z AUTO 35009KT 10SM FEW031 BKN047 22/14 A2990 1040 61 2200 350/09 RMK AO2
14926KSTC STC20030721104510907/21/03 10:45:31  5-MIN KSTC 211645Z AUTO 36010KT 10SM FEW031 SCT045 22/14 A2990 1050 59 2200 350/10 RMK AO2
14926KSTC STC20030721105012607/21/03 10:50:31  5-MIN KSTC 211650Z AUTO 02009KT 10SM FEW031 SCT050 22/14 A2990 1050 59 2200 020/09 RMK AO2 SLP130 T02220139
14926KSTC STC20030721105510907/21/03 10:55:31  5-MIN KSTC 211655Z AUTO 01011KT 10SM FEW045 SCT055 22/14 A2990 1050 59 2200 360/11 RMK AO2
14926KSTC STC20030721110010907/21/03 11:00:31  5-MIN KSTC 211700Z AUTO 35011KT 10SM FEW036 SCT055 22/13 A2990 1050 56 2200 350/11 RMK AO2
14926KSTC STC20030721110510907/21/03 11:05:31  5-MIN KSTC 211705Z AUTO 36010KT 10SM FEW036 SCT055 22/14 A2990 1050 61 2100 360/10 RMK AO2
14926KSTC STC20030721111010207/21/03 11:10:31  5-MIN KSTC 211710Z AUTO 36010KT 10SM SCT050 22/14 A2990 1040 61 2100 360/10 RMK AO2
14926KSTC STC20030721111511507/21/03 11:15:31  5-MIN KSTC 211715Z AUTO 04009G15KT 10SM FEW036 BKN050 23/14 A2990 1050 57 2200 040/09G15 RMK AO2
14926KSTC STC20030721112010907/21/03 11:20:31  5-MIN KSTC 211720Z AUTO 03010KT 10SM SCT036 BKN055 22/13 A2990 1050 56 2200 030/10 RMK AO2
14926KSTC STC20030721112511507/21/03 11:25:31  5-MIN KSTC 211725Z AUTO 03011G16KT 10SM SCT036 BKN050 22/13 A2989 1050 56 2200 020/11G16 RMK AO2
14926KSTC STC20030721113011507/21/03 11:30:31  5-MIN KSTC 211730Z AUTO 04011G16KT 10SM SCT038 BKN050 22/13 A2989 1050 56 2200 030/11G16 RMK AO2
14926KSTC STC20030721113510907/21/03 11:35:31  5-MIN KSTC 211735Z AUTO 04009KT 10SM SCT038 BKN050 23/14 A2990 1050 57 2200 030/09 RMK AO2
14926KSTC STC20030721114011507/21/03 11:40:31  5-MIN KSTC 211740Z AUTO 01009G17KT 10SM SCT036 BKN050 22/14 A2990 1050 61 2100 360/09G17 RMK AO2
14926KSTC STC20030721114511507/21/03 11:45:31  5-MIN KSTC 211745Z AUTO 36009G17KT 10SM SCT036 BKN050 22/14 A2990 1050 59 2200 360/09G17 RMK AO2
14926KSTC STC20030721115014407/21/03 11:50:31  5-MIN KSTC 211750Z AUTO 03011KT 10SM FEW036 SCT050 23/14 A2990 1050 59 2200 030/11 RMK AO2 SLP130 T02280144 10228 20156 51010
14926KSTC STC20030721115510907/21/03 11:55:31  5-MIN KSTC 211755Z AUTO 01009KT 10SM FEW036 SCT050 22/14 A2990 1050 59 2200 010/09 RMK AO2
14926KSTC STC20030721120010907/21/03 12:00:31  5-MIN KSTC 211800Z AUTO 02010KT 10SM FEW036 SCT050 22/14 A2990 1050 59 2200 010/10 RMK AO2
14926KSTC STC20030721120510907/21/03 12:05:31  5-MIN KSTC 211805Z AUTO 01011KT 10SM SCT036 BKN048 22/14 A2989 1050 61 2100 010/11 RMK AO2
14926KSTC STC20030721121010907/21/03 12:10:31  5-MIN KSTC 211810Z AUTO 03010KT 10SM FEW036 BKN046 21/13 A2990 1050 61 2000 030/10 RMK AO2
14926KSTC STC20030721121510907/21/03 12:15:31  5-MIN KSTC 211815Z AUTO 04007KT 10SM FEW036 BKN046 22/13 A2990 1050 58 2100 030/07 RMK AO2
14926KSTC STC20030721122011507/21/03 12:20:31  5-MIN KSTC 211820Z AUTO 01011G14KT 10SM SCT038 BKN049 23/13 A2990 1050 55 2200 010/11G14 RMK AO2
14926KSTC STC20030721122511507/21/03 12:25:31  5-MIN KSTC 211825Z AUTO 02006G14KT 10SM SCT038 BKN047 23/14 A2990 1050 57 2200 020/06G14 RMK AO2
14926KSTC STC20030721123011507/21/03 12:30:31  5-MIN KSTC 211830Z AUTO 02008G15KT 10SM SCT038 BKN047 22/13 A2990 1040 54 2200 020/08G15 RMK AO2
14926KSTC STC20030721123512507/21/03 12:35:31  5-MIN KSTC 211835Z AUTO 01010KT 350V050 10SM SCT038 BKN049 22/14 A2990 1050 59 2200 010/10 350V050 RMK AO2
14926KSTC STC20030721124010907/21/03 12:40:31  5-MIN KSTC 211840Z AUTO 01012KT 10SM SCT038 BKN049 22/13 A2990 1040 58 2100 010/12 RMK AO2
14926KSTC STC20030721124510907/21/03 12:45:31  5-MIN KSTC 211845Z AUTO 01009KT 10SM FEW038 BKN049 22/14 A2990 1040 61 2100 010/09 RMK AO2
14926KSTC STC20030721125012607/21/03 12:50:31  5-MIN KSTC 211850Z AUTO 03009KT 10SM FEW038 BKN050 22/14 A2990 1040 59 2200 030/09 RMK AO2 SLP130 T02220139
14926KSTC STC20030721125511507/21/03 12:55:31  5-MIN KSTC 211855Z AUTO 05011G15KT 10SM FEW038 BKN050 22/14 A2990 1050 59 2200 040/11G15 RMK AO2
14926KSTC STC20030721130011507/21/03 13:00:31  5-MIN KSTC 211900Z AUTO 04009G15KT 10SM FEW038 BKN050 22/13 A2990 1040 58 2100 040/09G15 RMK AO2
14926KSTC STC20030721130510907/21/03 13:05:31  5-MIN KSTC 211905Z AUTO 04007KT 10SM FEW038 BKN050 22/13 A2990 1040 56 2200 030/07 RMK AO2
14926KSTC STC20030721131010907/21/03 13:10:31  5-MIN KSTC 211910Z AUTO 01009KT 10SM SCT038 BKN050 22/13 A2991 1040 56 2200 010/09 RMK AO2
14926KSTC STC20030721131510907/21/03 13:15:31  5-MIN KSTC 211915Z AUTO 01008KT 10SM FEW038 BKN050 22/14 A2991 1040 61 2100 010/08 RMK AO2
14926KSTC STC20030721132010907/21/03 13:20:31  5-MIN KSTC 211920Z AUTO 03010KT 10SM FEW038 BKN050 22/14 A2991 1030 59 2100 030/10 RMK AO2
14926KSTC STC20030721132510907/21/03 13:25:31  5-MIN KSTC 211925Z AUTO 04007KT 10SM FEW038 SCT050 23/14 A2992 1030 57 2200 030/07 RMK AO2
14926KSTC STC20030721133011507/21/03 13:30:31  5-MIN KSTC 211930Z AUTO 01012G15KT 10SM SCT036 SCT050 23/14 A2992 1030 57 2200 010/12G15 RMK AO2
14926KSTC STC20030721133511507/21/03 13:35:31  5-MIN KSTC 211935Z AUTO 01009G15KT 10SM SCT036 SCT050 23/13 A2992 1030 53 2200 010/09G15 RMK AO2
14926KSTC STC20030721134010207/21/03 13:40:31  5-MIN KSTC 211940Z AUTO 02011KT 10SM FEW036 23/13 A2992 1030 53 2200 020/11 RMK AO2
14926KSTC STC20030721134510207/21/03 13:45:31  5-MIN KSTC 211945Z AUTO 03008KT 10SM FEW036 23/13 A2992 1030 55 2200 030/08 RMK AO2
14926KSTC STC20030721135011907/21/03 13:50:31  5-MIN KSTC 211950Z AUTO 01009KT 10SM FEW036 22/13 A2992 1020 56 2100 360/09 RMK AO2 SLP138 T02220133
14926KSTC STC20030721135510207/21/03 13:55:31  5-MIN KSTC 211955Z AUTO 02010KT 10SM FEW036 22/13 A2992 1020 56 2100 010/10 RMK AO2
14926KSTC STC20030721140009907/21/03 14:00:31  5-MIN KSTC 212000Z AUTO 01010KT 10SM CLR 22/13 A2992 1020 56 2100 360/10 RMK AO2
14926KSTC STC20030721140509907/21/03 14:05:31  5-MIN KSTC 212005Z AUTO 02007KT 10SM CLR 22/13 A2992 1020 56 2100 020/07 RMK AO2
14926KSTC STC20030721141009907/21/03 14:10:31  5-MIN KSTC 212010Z AUTO 03007KT 10SM CLR 22/13 A2992 1020 54 2100 030/07 RMK AO2
14926KSTC STC20030721141509907/21/03 14:15:31  5-MIN KSTC 212015Z AUTO VRB06KT 10SM CLR 22/13 A2992 1020 54 2100 VRB/06 RMK AO2
14926KSTC STC20030721142009907/21/03 14:20:31  5-MIN KSTC 212020Z AUTO 01008KT 10SM CLR 22/13 A2992 1020 54 2100 010/08 RMK AO2
14926KSTC STC20030721142509907/21/03 14:25:31  5-MIN KSTC 212025Z AUTO 01007KT 10SM CLR 23/13 A2992 1020 55 2200 010/07 RMK AO2
14926KSTC STC20030721143009907/21/03 14:30:31  5-MIN KSTC 212030Z AUTO 02009KT 10SM CLR 23/13 A2992 1020 55 2200 020/09 RMK AO2
14926KSTC STC20030721143509907/21/03 14:35:31  5-MIN KSTC 212035Z AUTO 03009KT 10SM CLR 22/13 A2993 1020 54 2100 030/09 RMK AO2
14926KSTC STC20030721144009907/21/03 14:40:31  5-MIN KSTC 212040Z AUTO 02007KT 10SM CLR 22/13 A2993 1020 54 2100 010/07 RMK AO2
14926KSTC STC20030721144509907/21/03 14:45:31  5-MIN KSTC 212045Z AUTO 01008KT 10SM CLR 22/13 A2993 1020 56 2100 010/08 RMK AO2
14926KSTC STC20030721145012207/21/03 14:50:31  5-MIN KSTC 212050Z AUTO 03009KT 10SM CLR 22/13 A2993 1020 56 2100 030/09 RMK AO2 SLP141 T02170128 51003
14926KSTC STC20030721145509907/21/03 14:55:31  5-MIN KSTC 212055Z AUTO 03009KT 10SM CLR 22/13 A2993 1010 56 2100 020/09 RMK AO2
14926KSTC STC20030721150009907/21/03 15:00:31  5-MIN KSTC 212100Z AUTO 02008KT 10SM CLR 22/13 A2994 1010 58 2100 020/08 RMK AO2
14926KSTC STC20030721150510207/21/03 15:05:31  5-MIN KSTC 212105Z AUTO 02007KT 10SM FEW075 22/13 A2994 1010 56 2100 020/07 RMK AO2
14926KSTC STC20030721151010207/21/03 15:10:31  5-MIN KSTC 212110Z AUTO VRB06KT 10SM BKN075 22/13 A2994 1010 56 2100 VRB/06 RMK AO2
14926KSTC STC20030721151510207/21/03 15:15:31  5-MIN KSTC 212115Z AUTO 03008KT 10SM BKN075 22/13 A2994 1010 58 2100 020/08 RMK AO2
14926KSTC STC20030721152010207/21/03 15:20:31  5-MIN KSTC 212120Z AUTO 03006KT 10SM BKN070 22/13 A2994 1010 56 2100 030/06 RMK AO2
14926KSTC STC20030721152511807/21/03 15:25:31  5-MIN KSTC 212125Z AUTO 03007KT 360V060 10SM OVC070 22/14 A2994 1010 59 2100 020/07 360V060 RMK AO2
14926KSTC STC20030721153010207/21/03 15:30:31  5-MIN KSTC 212130Z AUTO VRB05KT 10SM OVC070 22/14 A2994 1010 61 2100 VRB/05 RMK AO2
14926KSTC STC20030721153510207/21/03 15:35:31  5-MIN KSTC 212135Z AUTO 03005KT 10SM OVC070 22/14 A2994 1010 61 2100 030/05 RMK AO2
14926KSTC STC20030721154010907/21/03 15:40:31  5-MIN KSTC 212140Z AUTO 02008KT 10SM FEW050 OVC070 22/14 A2994 1010 61 2100 020/08 RMK AO2
14926KSTC STC20030721154510907/21/03 15:45:31  5-MIN KSTC 212145Z AUTO 04005KT 10SM FEW050 OVC070 22/14 A2994 1010 63 2100 030/05 RMK AO2
14926KSTC STC20030721155012607/21/03 15:50:31  5-MIN KSTC 212150Z AUTO 04007KT 10SM FEW050 OVC070 22/14 A2994 1010 63 2100 030/07 RMK AO2 SLP146 T02170144
14926KSTC STC20030721155510907/21/03 15:55:31  5-MIN KSTC 212155Z AUTO 05007KT 10SM FEW050 OVC070 22/14 A2994 1010 63 2100 050/07 RMK AO2
14926KSTC STC20030721160010907/21/03 16:00:31  5-MIN KSTC 212200Z AUTO 05005KT 10SM FEW050 OVC070 22/14 A2994 1010 61 2100 040/05 RMK AO2
14926KSTC STC20030721160510907/21/03 16:05:31  5-MIN KSTC 212205Z AUTO 03006KT 10SM FEW050 OVC075 22/14 A2994 1010 61 2100 020/06 RMK AO2
14926KSTC STC20030721161010207/21/03 16:10:31  5-MIN KSTC 212210Z AUTO 03006KT 10SM BKN075 22/14 A2994 1010 61 2100 030/06 RMK AO2
14926KSTC STC20030721161510207/21/03 16:15:31  5-MIN KSTC 212215Z AUTO 05005KT 10SM BKN075 22/14 A2994 1010 59 2100 040/05 RMK AO2
14926KSTC STC20030721162011807/21/03 16:20:31  5-MIN KSTC 212220Z AUTO 04007KT 360V070 10SM SCT075 23/13 A2994 1010 55 2200 030/07 360V070 RMK AO2
14926KSTC STC20030721162510207/21/03 16:25:31  5-MIN KSTC 212225Z AUTO 01005KT 10SM SCT075 23/14 A2994 1010 57 2200 010/05 RMK AO2
14926KSTC STC20030721163010207/21/03 16:30:31  5-MIN KSTC 212230Z AUTO 05007KT 10SM FEW075 23/14 A2994 1010 57 2200 040/07 RMK AO2
14926KSTC STC20030721163510207/21/03 16:35:31  5-MIN KSTC 212235Z AUTO 04006KT 10SM FEW075 23/14 A2994 1010 55 2200 040/06 RMK AO2
14926KSTC STC20030721164009907/21/03 16:40:31  5-MIN KSTC 212240Z AUTO 04006KT 10SM CLR 23/14 A2994 1010 57 2200 040/06 RMK AO2
14926KSTC STC20030721164509907/21/03 16:45:31  5-MIN KSTC 212245Z AUTO VRB05KT 10SM CLR 23/14 A2994 1010 57 2200 VRB/05 RMK AO2
14926KSTC STC20030721165011607/21/03 16:50:31  5-MIN KSTC 212250Z AUTO 01005KT 10SM CLR 23/14 A2994 1010 59 2200 010/05 RMK AO2 SLP145 T02280144
14926KSTC STC20030721165509907/21/03 16:55:31  5-MIN KSTC 212255Z AUTO VRB06KT 10SM CLR 22/14 A2994 1010 59 2100 VRB/06 RMK AO2
14926KSTC STC20030721170009907/21/03 17:00:31  5-MIN KSTC 212300Z AUTO 02006KT 10SM CLR 22/14 A2994 1010 59 2100 020/06 RMK AO2
14926KSTC STC20030721170509907/21/03 17:05:31  5-MIN KSTC 212305Z AUTO 02005KT 10SM CLR 23/14 A2994 1010 57 2200 020/05 RMK AO2
14926KSTC STC20030721171009907/21/03 17:10:31  5-MIN KSTC 212310Z AUTO VRB04KT 10SM CLR 23/14 A2994 1010 57 2200 VRB/04 RMK AO2
14926KSTC STC20030721171509907/21/03 17:15:31  5-MIN KSTC 212315Z AUTO VRB03KT 10SM CLR 23/14 A2994 1010 59 2200 VRB/03 RMK AO2
14926KSTC STC20030721172009907/21/03 17:20:31  5-MIN KSTC 212320Z AUTO VRB03KT 10SM CLR 23/14 A2994 1010 59 2200 VRB/03 RMK AO2
14926KSTC STC20030721172509907/21/03 17:25:31  5-MIN KSTC 212325Z AUTO 32005KT 10SM CLR 23/14 A2994 1010 59 2200 310/05 RMK AO2
14926KSTC STC20030721173009907/21/03 17:30:31  5-MIN KSTC 212330Z AUTO 31004KT 10SM CLR 22/14 A2994 1010 61 2100 310/04 RMK AO2
14926KSTC STC20030721173509907/21/03 17:35:31  5-MIN KSTC 212335Z AUTO 35006KT 10SM CLR 23/14 A2994 1010 59 2200 350/06 RMK AO2
14926KSTC STC20030721174009907/21/03 17:40:31  5-MIN KSTC 212340Z AUTO 01005KT 10SM CLR 22/14 A2994 1010 59 2100 010/05 RMK AO2
14926KSTC STC20030721174509907/21/03 17:45:31  5-MIN KSTC 212345Z AUTO 01003KT 10SM CLR 22/14 A2994 1010 59 2100 360/03 RMK AO2
14926KSTC STC20030721175013407/21/03 17:50:31  5-MIN KSTC 212350Z AUTO 36004KT 10SM CLR 23/14 A2994 1010 59 2200 360/04 RMK AO2 SLP143 T02280144 10233 20211 53012
14926KSTC STC20030721175509907/21/03 17:55:31  5-MIN KSTC 212355Z AUTO 02005KT 10SM CLR 22/14 A2994 1010 61 2100 020/05 RMK AO2
14926KSTC STC20030721180009907/21/03 18:00:31  5-MIN KSTC 220000Z AUTO 02005KT 10SM CLR 22/14 A2994 1010 59 2100 010/05 RMK AO2
14926KSTC STC20030721180510207/21/03 18:05:31  5-MIN KSTC 220005Z AUTO 01003KT 10SM FEW038 22/14 A2994 1010 61 2100 360/03 RMK AO2
14926KSTC STC20030721181010207/21/03 18:10:31  5-MIN KSTC 220010Z AUTO 01004KT 10SM FEW038 22/14 A2994 1010 61 2100 010/04 RMK AO2
14926KSTC STC20030721181510207/21/03 18:15:31  5-MIN KSTC 220015Z AUTO 02004KT 10SM FEW038 23/14 A2994 1010 57 2200 020/04 RMK AO2
14926KSTC STC20030721182010207/21/03 18:20:31  5-MIN KSTC 220020Z AUTO 00000KT 10SM FEW038 23/14 A2994 1010 59 2200 000/00 RMK AO2
14926KSTC STC20030721182510207/21/03 18:25:31  5-MIN KSTC 220025Z AUTO VRB04KT 10SM FEW038 23/14 A2994 1010 59 2200 VRB/04 RMK AO2
14926KSTC STC20030721183010207/21/03 18:30:31  5-MIN KSTC 220030Z AUTO 04005KT 10SM FEW038 22/14 A2994 1010 61 2100 040/05 RMK AO2
14926KSTC STC20030721183510207/21/03 18:35:31  5-MIN KSTC 220035Z AUTO 02004KT 10SM FEW038 22/14 A2994 1010 61 2100 020/04 RMK AO2
14926KSTC STC20030721184009907/21/03 18:40:31  5-MIN KSTC 220040Z AUTO 02003KT 10SM CLR 22/14 A2994 1010 61 2100 020/03 RMK AO2
14926KSTC STC20030721184509907/21/03 18:45:31  5-MIN KSTC 220045Z AUTO 02006KT 10SM CLR 22/14 A2994 1000 63 2100 010/06 RMK AO2
14926KSTC STC20030721185011607/21/03 18:50:31  5-MIN KSTC 220050Z AUTO 36005KT 10SM CLR 22/14 A2994 1000 63 2000 360/05 RMK AO2 SLP145 T02170144
14926KSTC STC20030721185509907/21/03 18:55:31  5-MIN KSTC 220055Z AUTO 36005KT 10SM CLR 22/14 A2995 1000 63 2000 360/05 RMK AO2
14926KSTC STC20030721190009907/21/03 19:00:31  5-MIN KSTC 220100Z AUTO 36004KT 10SM CLR 22/14 A2995 1000 63 2000 360/04 RMK AO2
14926KSTC STC20030721190509907/21/03 19:05:31  5-MIN KSTC 220105Z AUTO 36003KT 10SM CLR 21/14 A2995 1000 65 2000 360/03 RMK AO2
14926KSTC STC20030721191009907/21/03 19:10:31  5-MIN KSTC 220110Z AUTO 36003KT 10SM CLR 21/14 A2995 1000 67 1900 350/03 RMK AO2
14926KSTC STC20030721191509907/21/03 19:15:31  5-MIN KSTC 220115Z AUTO 36003KT 10SM CLR 20/15 A2995 1000 72 1900 350/03 RMK AO2
14926KSTC STC20030721192009907/21/03 19:20:31  5-MIN KSTC 220120Z AUTO 36003KT 10SM CLR 20/15 A2995 1000 72 1900 360/03 RMK AO2
14926KSTC STC20030721192509907/21/03 19:25:31  5-MIN KSTC 220125Z AUTO 36003KT 10SM CLR 20/15 A2995 1000 72 1800 360/03 RMK AO2
14926KSTC STC20030721193009807/21/03 19:30:31  5-MIN KSTC 220130Z AUTO 36003KT 10SM CLR 20/15 A2996 990 72 1800 360/03 RMK AO2
14926KSTC STC20030721193509807/21/03 19:35:31  5-MIN KSTC 220135Z AUTO 35003KT 10SM CLR 19/15 A2996 990 75 1800 340/03 RMK AO2
14926KSTC STC20030721194009807/21/03 19:40:31  5-MIN KSTC 220140Z AUTO 34003KT 10SM CLR 19/15 A2996 990 75 1800 340/03 RMK AO2
14926KSTC STC20030721194509807/21/03 19:45:31  5-MIN KSTC 220145Z AUTO 00000KT 10SM CLR 19/15 A2996 990 75 1800 000/00 RMK AO2
14926KSTC STC20030721195011507/21/03 19:50:31  5-MIN KSTC 220150Z AUTO 00000KT 10SM CLR 19/15 A2996 990 75 1800 000/00 RMK AO2 SLP150 T01940150
14926KSTC STC20030721195509807/21/03 19:55:31  5-MIN KSTC 220155Z AUTO 31004KT 10SM CLR 18/15 A2996 990 81 1700 310/04 RMK AO2
14926KSTC STC20030721200009807/21/03 20:00:31  5-MIN KSTC 220200Z AUTO 30004KT 10SM CLR 18/15 A2996 990 81 1600 300/04 RMK AO2
14926KSTC STC20030721200509807/21/03 20:05:31  5-MIN KSTC 220205Z AUTO 30005KT 10SM CLR 18/15 A2996 990 81 1600 300/05 RMK AO2
14926KSTC STC20030721201009807/21/03 20:10:31  5-MIN KSTC 220210Z AUTO 31005KT 10SM CLR 18/15 A2996 990 83 1600 310/05 RMK AO2
14926KSTC STC20030721201510107/21/03 20:15:31  5-MIN KSTC 220215Z AUTO 31005KT 10SM FEW070 18/15 A2996 990 83 1600 310/05 RMK AO2
14926KSTC STC20030721202010807/21/03 20:20:31  5-MIN KSTC 220220Z AUTO 33004KT 10SM FEW041 SCT070 18/15 A2997 980 81 1600 320/04 RMK AO2
14926KSTC STC20030721202510807/21/03 20:25:31  5-MIN KSTC 220225Z AUTO 33004KT 10SM FEW041 BKN065 18/15 A2997 980 81 1600 320/04 RMK AO2
14926KSTC STC20030721203010807/21/03 20:30:31  5-MIN KSTC 220230Z AUTO 32004KT 10SM SCT041 BKN070 18/15 A2997 980 81 1600 320/04 RMK AO2
14926KSTC STC20030721203510807/21/03 20:35:31  5-MIN KSTC 220235Z AUTO 33004KT 10SM SCT043 BKN070 18/15 A2997 980 81 1600 320/04 RMK AO2
14926KSTC STC20030721204010807/21/03 20:40:31  5-MIN KSTC 220240Z AUTO 32003KT 10SM FEW043 OVC070 18/15 A2997 980 81 1600 320/03 RMK AO2
14926KSTC STC20030721204510807/21/03 20:45:31  5-MIN KSTC 220245Z AUTO 32004KT 10SM FEW043 OVC070 18/16 A2998 980 84 1600 320/04 RMK AO2
14926KSTC STC20030721205013107/21/03 20:50:31  5-MIN KSTC 220250Z AUTO 32004KT 10SM FEW043 OVC070 18/16 A2998 970 84 1600 310/04 RMK AO2 SLP156 T01830156 50002
14926KSTC STC20030721205510807/21/03 20:55:31  5-MIN KSTC 220255Z AUTO 31006KT 10SM FEW043 BKN070 18/16 A2998 970 84 1600 310/06 RMK AO2
14926KSTC STC20030721210010107/21/03 21:00:31  5-MIN KSTC 220300Z AUTO 31005KT 10SM BKN070 18/16 A2998 970 87 1600 310/05 RMK AO2
14926KSTC STC20030721210510107/21/03 21:05:31  5-MIN KSTC 220305Z AUTO 32005KT 10SM BKN070 18/15 A2998 970 83 1600 310/05 RMK AO2
14926KSTC STC20030721211010807/21/03 21:10:31  5-MIN KSTC 220310Z AUTO 34005KT 10SM FEW055 BKN070 18/15 A2998 970 81 1600 340/05 RMK AO2
14926KSTC STC20030721211513707/21/03 21:15:31  5-MIN KSTC 220315Z AUTO 01010G16KT 330V050 10SM FEW043 SCT050 BKN070 18/15 A2999 960 81 1600 010/10G16 330V050 RMK AO2
14926KSTC STC20030721212012107/21/03 21:20:31  5-MIN KSTC 220320Z AUTO 02010G16KT 10SM SCT045 BKN055 BKN070 19/15 A2999 960 78 1700 020/10G16 RMK AO2
14926KSTC STC20030721212512107/21/03 21:25:31  5-MIN KSTC 220325Z AUTO 03008G16KT 10SM SCT043 BKN070 OVC085 19/15 A2999 960 78 1700 030/08G16 RMK AO2
14926KSTC STC20030721213011507/21/03 21:30:31  5-MIN KSTC 220330Z AUTO 03010KT 10SM SCT045 BKN050 OVC070 19/14 A2999 960 75 1700 030/10 RMK AO2
14926KSTC STC20030721213511507/21/03 21:35:31  5-MIN KSTC 220335Z AUTO 04008KT 10SM BKN047 BKN060 OVC075 18/14 A3000 960 78 1600 030/08 RMK AO2
14926KSTC STC20030721214011507/21/03 21:40:31  5-MIN KSTC 220340Z AUTO 04008KT 10SM SCT047 BKN060 OVC080 18/14 A3000 960 78 1600 040/08 RMK AO2
14926KSTC STC20030721214511507/21/03 21:45:31  5-MIN KSTC 220345Z AUTO 04007KT 10SM FEW044 BKN065 OVC080 18/14 A3000 950 78 1600 040/07 RMK AO2
14926KSTC STC20030721215013207/21/03 21:50:31  5-MIN KSTC 220350Z AUTO 04006KT 10SM SCT050 BKN065 OVC080 18/14 A3000 950 78 1600 040/06 RMK AO2 SLP164 T01830144
14926KSTC STC20030721215511507/21/03 21:55:31  5-MIN KSTC 220355Z AUTO 03005KT 10SM FEW050 SCT060 OVC075 18/15 A3000 950 81 1600 030/05 RMK AO2
14926KSTC STC20030721220010807/21/03 22:00:31  5-MIN KSTC 220400Z AUTO 02004KT 10SM SCT060 OVC080 18/15 A3000 950 81 1600 020/04 RMK AO2
14926KSTC STC20030721220510807/21/03 22:05:31  5-MIN KSTC 220405Z AUTO 03004KT 10SM FEW060 OVC080 18/15 A3000 950 83 1500 030/04 RMK AO2
14926KSTC STC20030721221010807/21/03 22:10:31  5-MIN KSTC 220410Z AUTO 01003KT 10SM FEW060 OVC085 18/15 A3000 950 83 1500 010/03 RMK AO2
14926KSTC STC20030721221512407/21/03 22:15:31  5-MIN KSTC 220415Z AUTO 00000KT 10SM -RA SCT075 OVC095 18/15 A3000 950 83 1500 000/00 RMK AO2 RAB11 P0000
14926KSTC STC20030721222011607/21/03 22:20:31  5-MIN KSTC 220420Z AUTO 00000KT 10SM OVC090 18/15 A3000 960 83 1500 000/00 RMK AO2 RAB11E20 P0000
14926KSTC STC20030721222511607/21/03 22:25:31  5-MIN KSTC 220425Z AUTO 00000KT 10SM OVC090 18/15 A3000 950 83 1500 000/00 RMK AO2 RAB11E20 P0000
14926KSTC STC20030721223012307/21/03 22:30:31  5-MIN KSTC 220430Z AUTO 00000KT 10SM FEW065 OVC090 18/16 A3000 950 87 1500 000/00 RMK AO2 RAB11E20 P0000
14926KSTC STC20030721223512307/21/03 22:35:31  5-MIN KSTC 220435Z AUTO 00000KT 10SM FEW065 OVC090 17/16 A3000 950 90 1500 000/00 RMK AO2 RAB11E20 P0000
14926KSTC STC20030721224011607/21/03 22:40:31  5-MIN KSTC 220440Z AUTO 00000KT 10SM OVC090 17/16 A3000 950 90 1500 000/00 RMK AO2 RAB11E20 P0000
14926KSTC STC20030721224511607/21/03 22:45:31  5-MIN KSTC 220445Z AUTO 04003KT 10SM BKN090 17/15 A3000 950 87 1500 040/03 RMK AO2 RAB11E20 P0000
14926KSTC STC20030721225013307/21/03 22:50:31  5-MIN KSTC 220450Z AUTO 02003KT 10SM BKN090 17/15 A3000 950 87 1500 020/03 RMK AO2 RAB11E20 SLP164 P0000 T01720150
14926KSTC STC20030721225510807/21/03 22:55:31  5-MIN KSTC 220455Z AUTO 00000KT 10SM SCT095 BKN120 17/15 A3000 950 90 1400 000/00 RMK AO2
14926KSTC STC20030721230010807/21/03 23:00:31  5-MIN KSTC 220500Z AUTO 00000KT 10SM SCT095 BKN120 17/15 A3000 950 90 1400 000/00 RMK AO2
14926KSTC STC20030721230510807/21/03 23:05:31  5-MIN KSTC 220505Z AUTO 06003KT 10SM FEW095 SCT110 16/15 A3000 950 93 1300 060/03 RMK AO2
14926KSTC STC20030721231010807/21/03 23:10:31  5-MIN KSTC 220510Z AUTO 00000KT 10SM FEW095 SCT110 16/15 A3000 950 93 1300 000/00 RMK AO2
14926KSTC STC20030721231510107/21/03 23:15:31  5-MIN KSTC 220515Z AUTO 36003KT 10SM FEW120 16/15 A3001 950 96 1300 350/03 RMK AO2
14926KSTC STC20030721232010107/21/03 23:20:31  5-MIN KSTC 220520Z AUTO 00000KT 10SM FEW120 16/14 A3000 950 93 1300 000/00 RMK AO2
14926KSTC STC20030721232510107/21/03 23:25:31  5-MIN KSTC 220525Z AUTO 01004KT 10SM FEW110 16/15 A3000 950 96 1300 010/04 RMK AO2
14926KSTC STC20030721233010107/21/03 23:30:31  5-MIN KSTC 220530Z AUTO 01003KT 10SM FEW110 16/15 A3001 950 96 1300 010/03 RMK AO2
14926KSTC STC20030721233510107/21/03 23:35:31  5-MIN KSTC 220535Z AUTO 00000KT 10SM FEW110 16/15 A3001 950 96 1300 000/00 RMK AO2
14926KSTC STC20030721234009807/21/03 23:40:31  5-MIN KSTC 220540Z AUTO 00000KT 10SM CLR 16/15 A3001 950 96 1300 000/00 RMK AO2
14926KSTC STC20030721234509807/21/03 23:45:31  5-MIN KSTC 220545Z AUTO 00000KT 10SM CLR 16/14 A3001 950 93 1300 000/00 RMK AO2
14926KSTC STC20030721235015207/21/03 23:50:31  5-MIN KSTC 220550Z AUTO 00000KT 10SM FEW100 15/14 A3001 950 96 1200 000/00 RMK AO2 SLP168 60000 T01500144 10228 20150 402330144 53013
14926KSTC STC20030721235510107/21/03 23:55:31  5-MIN KSTC 220555Z AUTO 00000KT 10SM FEW100 16/14 A3001 940 93 1300 000/00 RMK AO2
14926KSTC STC20030722000010107/22/03 00:00:31  5-MIN KSTC 220600Z AUTO 00000KT 10SM FEW100 15/14 A3001 940 96 1200 000/00 RMK AO2
14926KSTC STC20030722000510107/22/03 00:05:31  5-MIN KSTC 220605Z AUTO 00000KT 10SM FEW100 16/15 A3001 940 96 1300 000/00 RMK AO2
14926KSTC STC20030722001010107/22/03 00:10:31  5-MIN KSTC 220610Z AUTO 00000KT 10SM SCT100 16/15 A3001 940 96 1300 000/00 RMK AO2
14926KSTC STC20030722001510207/22/03 00:15:31  5-MIN KSTC 220615Z AUTO 00000KT 10SM BKN110 15/15 A3001 940 100 1200 000/00 RMK AO2
14926KSTC STC20030722002010107/22/03 00:20:31  5-MIN KSTC 220620Z AUTO 00000KT 10SM BKN110 14/14 A3001 940 96 1100 000/00 RMK AO2
14926KSTC STC20030722002510107/22/03 00:25:31  5-MIN KSTC 220625Z AUTO 00000KT 10SM BKN110 15/14 A3001 940 96 1200 000/00 RMK AO2
14926KSTC STC20030722003010207/22/03 00:30:31  5-MIN KSTC 220630Z AUTO 00000KT 10SM BKN110 15/15 A3001 950 100 1200 000/00 RMK AO2
14926KSTC STC20030722003510107/22/03 00:35:31  5-MIN KSTC 220635Z AUTO 00000KT 10SM OVC110 15/14 A3001 940 96 1200 000/00 RMK AO2
14926KSTC STC20030722004010107/22/03 00:40:31  5-MIN KSTC 220640Z AUTO 06003KT 10SM OVC110 15/14 A3001 940 96 1200 050/03 RMK AO2
14926KSTC STC20030722004510207/22/03 00:45:31  5-MIN KSTC 220645Z AUTO 06003KT 10SM BKN110 15/15 A3001 940 100 1200 060/03 RMK AO2
14926KSTC STC20030722005011807/22/03 00:50:31  5-MIN KSTC 220650Z AUTO 05003KT 10SM BKN110 16/15 A3001 940 96 1300 050/03 RMK AO2 SLP170 T01560150
14926KSTC STC20030722005510107/22/03 00:55:31  5-MIN KSTC 220655Z AUTO 00000KT 10SM BKN110 16/15 A3001 940 96 1300 000/00 RMK AO2
14926KSTC STC20030722010010107/22/03 01:00:31  5-MIN KSTC 220700Z AUTO 00000KT 10SM BKN110 16/15 A3002 940 96 1300 000/00 RMK AO2
14926KSTC STC20030722010510207/22/03 01:05:31  5-MIN KSTC 220705Z AUTO 06003KT 10SM BKN110 15/15 A3002 940 100 1200 050/03 RMK AO2
14926KSTC STC20030722011010807/22/03 01:10:31  5-MIN KSTC 220710Z AUTO 00000KT 10SM FEW020 BKN110 15/14 A3002 930 96 1200 000/00 RMK AO2
14926KSTC STC20030722011510807/22/03 01:15:31  5-MIN KSTC 220715Z AUTO 00000KT 10SM FEW020 BKN110 15/14 A3002 930 96 1200 000/00 RMK AO2
14926KSTC STC20030722012010807/22/03 01:20:31  5-MIN KSTC 220720Z AUTO 00000KT 10SM FEW020 BKN110 15/14 A3002 930 96 1200 000/00 RMK AO2
14926KSTC STC20030722012510807/22/03 01:25:31  5-MIN KSTC 220725Z AUTO 00000KT 10SM FEW020 BKN110 15/14 A3002 930 96 1200 000/00 RMK AO2
14926KSTC STC20030722013010807/22/03 01:30:31  5-MIN KSTC 220730Z AUTO 00000KT 10SM FEW020 BKN110 15/14 A3003 930 96 1200 000/00 RMK AO2
14926KSTC STC20030722013510807/22/03 01:35:31  5-MIN KSTC 220735Z AUTO 05003KT 10SM FEW020 BKN110 15/14 A3002 930 96 1200 040/03 RMK AO2
14926KSTC STC20030722014010107/22/03 01:40:31  5-MIN KSTC 220740Z AUTO 05003KT 10SM BKN110 15/14 A3002 930 96 1200 050/03 RMK AO2
14926KSTC STC20030722014510107/22/03 01:45:31  5-MIN KSTC 220745Z AUTO 05003KT 10SM BKN110 15/14 A3002 930 96 1200 040/03 RMK AO2
14926KSTC STC20030722015011807/22/03 01:50:31  5-MIN KSTC 220750Z AUTO 05003KT 10SM BKN110 15/14 A3003 930 96 1200 050/03 RMK AO2 SLP174 T01500144
14926KSTC STC20030722015510107/22/03 01:55:31  5-MIN KSTC 220755Z AUTO 05003KT 10SM BKN110 15/14 A3003 930 96 1200 050/03 RMK AO2
14926KSTC STC20030722020010107/22/03 02:00:31  5-MIN KSTC 220800Z AUTO 00000KT 10SM OVC110 15/14 A3003 930 96 1200 000/00 RMK AO2
14926KSTC STC20030722020510907/22/03 02:05:31  5-MIN KSTC 220805Z AUTO 00000KT 10SM FEW023 OVC110 14/14 A3003 920 100 1100 000/00 RMK AO2
14926KSTC STC20030722021010907/22/03 02:10:31  5-MIN KSTC 220810Z AUTO 00000KT 10SM FEW023 OVC110 14/14 A3003 920 100 1100 000/00 RMK AO2
14926KSTC STC20030722021510907/22/03 02:15:31  5-MIN KSTC 220815Z AUTO 00000KT 10SM SCT023 OVC110 14/14 A3003 920 100 1100 000/00 RMK AO2
14926KSTC STC20030722022010907/22/03 02:20:31  5-MIN KSTC 220820Z AUTO 00000KT 10SM BKN023 OVC110 14/14 A3003 920 100 1100 000/00 RMK AO2
14926KSTC STC20030722022510907/22/03 02:25:31  5-MIN KSTC 220825Z AUTO 00000KT 10SM BKN023 OVC110 14/14 A3004 920 100 1100 000/00 RMK AO2
14926KSTC STC20030722023010907/22/03 02:30:31  5-MIN KSTC 220830Z AUTO 00000KT 10SM BKN023 OVC110 14/14 A3004 920 100 1100 000/00 RMK AO2
14926KSTC STC20030722023510807/22/03 02:35:31  5-MIN KSTC 220835Z AUTO 06003KT 10SM BKN025 OVC110 15/14 A3004 920 96 1200 050/03 RMK AO2
14926KSTC STC20030722024010107/22/03 02:40:31  5-MIN KSTC 220840Z AUTO 06003KT 10SM OVC025 15/14 A3004 920 96 1200 060/03 RMK AO2
14926KSTC STC20030722024510807/22/03 02:45:31  5-MIN KSTC 220845Z AUTO 07004KT 10SM BKN025 OVC110 15/14 A3004 920 96 1200 070/04 RMK AO2
14926KSTC STC20030722025013107/22/03 02:50:31  5-MIN KSTC 220850Z AUTO 07003KT 10SM BKN027 OVC110 15/14 A3004 920 96 1200 060/03 RMK AO2 SLP177 T01500144 51010
14926KSTC STC20030722025510207/22/03 02:55:31  5-MIN KSTC 220855Z AUTO 07003KT 10SM OVC027 15/15 A3004 920 100 1200 060/03 RMK AO2
14926KSTC STC20030722030010107/22/03 03:00:31  5-MIN KSTC 220900Z AUTO 07004KT 10SM OVC027 16/15 A3004 920 96 1200 070/04 RMK AO2
14926KSTC STC20030722030510107/22/03 03:05:31  5-MIN KSTC 220905Z AUTO 08005KT 10SM OVC027 16/15 A3004 920 96 1200 070/05 RMK AO2
14926KSTC STC20030722031010107/22/03 03:10:31  5-MIN KSTC 220910Z AUTO 08004KT 10SM OVC029 16/15 A3004 910 96 1200 070/04 RMK AO2
14926KSTC STC20030722031510107/22/03 03:15:31  5-MIN KSTC 220915Z AUTO 06004KT 10SM OVC029 16/14 A3005 910 93 1200 060/04 RMK AO2
14926KSTC STC20030722032010107/22/03 03:20:31  5-MIN KSTC 220920Z AUTO 06004KT 10SM OVC029 16/14 A3005 910 93 1200 060/04 RMK AO2
14926KSTC STC20030722032510107/22/03 03:25:31  5-MIN KSTC 220925Z AUTO 06003KT 10SM OVC031 16/14 A3005 910 93 1200 060/03 RMK AO2
14926KSTC STC20030722033010107/22/03 03:30:31  5-MIN KSTC 220930Z AUTO 07004KT 10SM OVC031 16/14 A3005 910 93 1200 060/04 RMK AO2
14926KSTC STC20030722033510107/22/03 03:35:31  5-MIN KSTC 220935Z AUTO 07003KT 10SM OVC031 16/14 A3005 910 93 1200 070/03 RMK AO2
14926KSTC STC20030722034010107/22/03 03:40:31  5-MIN KSTC 220940Z AUTO 00000KT 10SM OVC031 16/14 A3005 900 93 1200 000/00 RMK AO2
14926KSTC STC20030722034510107/22/03 03:45:31  5-MIN KSTC 220945Z AUTO 00000KT 10SM OVC031 16/14 A3005 900 93 1200 000/00 RMK AO2
14926KSTC STC20030722035011807/22/03 03:50:31  5-MIN KSTC 220950Z AUTO 00000KT 10SM OVC033 16/14 A3005 910 93 1200 000/00 RMK AO2 SLP182 T01560144
14926KSTC STC20030722035510107/22/03 03:55:31  5-MIN KSTC 220955Z AUTO 10003KT 10SM OVC033 16/14 A3005 910 90 1300 100/03 RMK AO2
14926KSTC STC20030722040010107/22/03 04:00:31  5-MIN KSTC 221000Z AUTO 09004KT 10SM OVC033 16/14 A3005 900 90 1300 090/04 RMK AO2
14926KSTC STC20030722040510107/22/03 04:05:31  5-MIN KSTC 221005Z AUTO 07003KT 10SM OVC033 16/14 A3005 900 90 1300 070/03 RMK AO2
14926KSTC STC20030722041010107/22/03 04:10:31  5-MIN KSTC 221010Z AUTO 00000KT 10SM OVC033 16/14 A3006 900 93 1200 000/00 RMK AO2
14926KSTC STC20030722041510107/22/03 04:15:31  5-MIN KSTC 221015Z AUTO 08003KT 10SM OVC033 16/14 A3006 900 93 1200 070/03 RMK AO2
14926KSTC STC20030722042010107/22/03 04:20:31  5-MIN KSTC 221020Z AUTO 07003KT 10SM OVC033 16/14 A3006 900 93 1200 070/03 RMK AO2
14926KSTC STC20030722042511707/22/03 04:25:31  5-MIN KSTC 221025Z AUTO 07003KT 10SM -RA OVC033 16/14 A3006 900 93 1200 070/03 RMK AO2 RAB25 P0000
14926KSTC STC20030722043011707/22/03 04:30:31  5-MIN KSTC 221030Z AUTO 09003KT 10SM -RA OVC033 16/14 A3006 900 93 1200 090/03 RMK AO2 RAB25 P0000
14926KSTC STC20030722043511707/22/03 04:35:31  5-MIN KSTC 221035Z AUTO 00000KT 10SM -RA OVC033 16/14 A3006 900 93 1200 000/00 RMK AO2 RAB25 P0000
14926KSTC STC20030722044011607/22/03 04:40:31  5-MIN KSTC 221040Z AUTO 00000KT 10SM OVC033 16/14 A3006 890 93 1200 000/00 RMK AO2 RAB25E36 P0000
14926KSTC STC20030722044511607/22/03 04:45:31  5-MIN KSTC 221045Z AUTO 06003KT 10SM OVC033 16/14 A3006 900 93 1200 050/03 RMK AO2 RAB25E36 P0000
14926KSTC STC20030722045013307/22/03 04:50:31  5-MIN KSTC 221050Z AUTO 00000KT 10SM OVC033 16/14 A3006 900 93 1200 000/00 RMK AO2 RAB25E36 SLP185 P0000 T01560144
14926KSTC STC20030722045510107/22/03 04:55:31  5-MIN KSTC 221055Z AUTO 00000KT 10SM OVC033 16/14 A3006 890 93 1200 000/00 RMK AO2
14926KSTC STC20030722050010107/22/03 05:00:31  5-MIN KSTC 221100Z AUTO 00000KT 10SM OVC033 16/14 A3007 890 93 1200 000/00 RMK AO2
14926KSTC STC20030722050510107/22/03 05:05:31  5-MIN KSTC 221105Z AUTO 07004KT 10SM OVC033 16/14 A3007 890 90 1200 070/04 RMK AO2
14926KSTC STC20030722051010107/22/03 05:10:31  5-MIN KSTC 221110Z AUTO 10003KT 10SM OVC033 16/14 A3007 890 90 1200 090/03 RMK AO2
14926KSTC STC20030722051510807/22/03 05:15:31  5-MIN KSTC 221115Z AUTO 00000KT 10SM BKN035 OVC044 16/14 A3007 880 90 1200 000/00 RMK AO2
14926KSTC STC20030722052010807/22/03 05:20:31  5-MIN KSTC 221120Z AUTO 00000KT 10SM BKN035 OVC044 16/14 A3007 880 90 1200 000/00 RMK AO2
14926KSTC STC20030722052510807/22/03 05:25:31  5-MIN KSTC 221125Z AUTO 00000KT 10SM BKN037 BKN070 16/14 A3008 880 90 1200 000/00 RMK AO2
14926KSTC STC20030722053011507/22/03 05:30:31  5-MIN KSTC 221130Z AUTO 00000KT 10SM BKN035 BKN047 BKN070 15/14 A3008 880 93 1100 000/00 RMK AO2
14926KSTC STC20030722053510807/22/03 05:35:31  5-MIN KSTC 221135Z AUTO 35004KT 10SM BKN035 BKN048 15/14 A3008 880 93 1100 340/04 RMK AO2
14926KSTC STC20030722054010807/22/03 05:40:31  5-MIN KSTC 221140Z AUTO 00000KT 10SM BKN035 BKN046 16/14 A3008 880 90 1200 000/00 RMK AO2
14926KSTC STC20030722054510807/22/03 05:45:31  5-MIN KSTC 221145Z AUTO 04003KT 10SM BKN035 BKN047 16/14 A3008 880 90 1200 040/03 RMK AO2
14926KSTC STC20030722055015607/22/03 05:50:31  5-MIN KSTC 221150Z AUTO 04003KT 10SM FEW033 SCT040 SCT047 16/14 A3008 880 90 1200 030/03 RMK AO2 SLP192 60000 T01560139 10161 20144 53009
14926KSTC STC20030722055510807/22/03 05:55:31  5-MIN KSTC 221155Z AUTO 01003KT 10SM SCT035 BKN045 16/14 A3008 880 90 1200 010/03 RMK AO2
14926KSTC STC20030722060011507/22/03 06:00:31  5-MIN KSTC 221200Z AUTO 01004KT 10SM FEW036 BKN043 BKN050 16/14 A3008 880 90 1200 360/04 RMK AO2
14926KSTC STC20030722060510807/22/03 06:05:31  5-MIN KSTC 221205Z AUTO 01003KT 10SM SCT043 BKN050 16/14 A3008 870 90 1200 360/03 RMK AO2
14926KSTC STC20030722061010807/22/03 06:10:31  5-MIN KSTC 221210Z AUTO 00000KT 10SM BKN046 BKN060 16/14 A3008 880 90 1300 000/00 RMK AO2
14926KSTC STC20030722061510807/22/03 06:15:31  5-MIN KSTC 221215Z AUTO 00000KT 10SM SCT046 BKN060 16/14 A3008 880 86 1300 000/00 RMK AO2
14926KSTC STC20030722062010807/22/03 06:20:31  5-MIN KSTC 221220Z AUTO 00000KT 10SM FEW043 SCT050 17/14 A3008 880 83 1300 000/00 RMK AO2
14926KSTC STC20030722062510107/22/03 06:25:31  5-MIN KSTC 221225Z AUTO 03004KT 10SM FEW049 17/14 A3009 870 83 1300 020/04 RMK AO2
14926KSTC STC20030722063010107/22/03 06:30:31  5-MIN KSTC 221230Z AUTO 01003KT 10SM FEW049 17/14 A3009 870 83 1300 010/03 RMK AO2
14926KSTC STC20030722063509807/22/03 06:35:31  5-MIN KSTC 221235Z AUTO 01003KT 10SM CLR 17/14 A3009 870 83 1300 010/03 RMK AO2
14926KSTC STC20030722064009807/22/03 06:40:31  5-MIN KSTC 221240Z AUTO 01003KT 10SM CLR 17/14 A3009 870 83 1300 360/03 RMK AO2
14926KSTC STC20030722064509807/22/03 06:45:31  5-MIN KSTC 221245Z AUTO 03004KT 10SM CLR 17/13 A3010 860 80 1300 030/04 RMK AO2
14926KSTC STC20030722065011507/22/03 06:50:31  5-MIN KSTC 221250Z AUTO 02003KT 10SM CLR 17/13 A3010 860 78 1400 020/03 RMK AO2 SLP198 T01720133
14926KSTC STC20030722065509807/22/03 06:55:31  5-MIN KSTC 221255Z AUTO 07003KT 10SM CLR 17/13 A3010 860 78 1400 060/03 RMK AO2
14926KSTC STC20030722070009807/22/03 07:00:31  5-MIN KSTC 221300Z AUTO 08003KT 10SM CLR 17/13 A3010 860 75 1400 070/03 RMK AO2
14926KSTC STC20030722070509807/22/03 07:05:31  5-MIN KSTC 221305Z AUTO 00000KT 10SM CLR 17/13 A3010 860 78 1400 000/00 RMK AO2
14926KSTC STC20030722071009807/22/03 07:10:31  5-MIN KSTC 221310Z AUTO VRB03KT 10SM CLR 17/13 A3010 860 78 1400 VRB/03 RMK AO2
14926KSTC STC20030722071509807/22/03 07:15:31  5-MIN KSTC 221315Z AUTO 00000KT 10SM CLR 18/13 A3010 860 72 1400 000/00 RMK AO2
14926KSTC STC20030722072009807/22/03 07:20:31  5-MIN KSTC 221320Z AUTO 00000KT 10SM CLR 17/13 A3010 860 75 1400 000/00 RMK AO2
14926KSTC STC20030722072509807/22/03 07:25:31  5-MIN KSTC 221325Z AUTO 00000KT 10SM CLR 18/13 A3010 860 72 1500 000/00 RMK AO2
14926KSTC STC20030722073009807/22/03 07:30:31  5-MIN KSTC 221330Z AUTO VRB03KT 10SM CLR 18/13 A3010 860 72 1400 VRB/03 RMK AO2
14926KSTC STC20030722073509807/22/03 07:35:31  5-MIN KSTC 221335Z AUTO 00000KT 10SM CLR 18/13 A3011 850 70 1500 000/00 RMK AO2
14926KSTC STC20030722074009807/22/03 07:40:31  5-MIN KSTC 221340Z AUTO 00000KT 10SM CLR 18/12 A3011 850 69 1400 000/00 RMK AO2
14926KSTC STC20030722074509807/22/03 07:45:31  5-MIN KSTC 221345Z AUTO 00000KT 10SM CLR 18/12 A3010 860 67 1500 000/00 RMK AO2
14926KSTC STC20030722075011507/22/03 07:50:31  5-MIN KSTC 221350Z AUTO 00000KT 10SM CLR 18/12 A3011 860 67 1500 000/00 RMK AO2 SLP201 T01830122
14926KSTC STC20030722075509807/22/03 07:55:31  5-MIN KSTC 221355Z AUTO 00000KT 10SM CLR 18/12 A3011 850 67 1500 000/00 RMK AO2
14926KSTC STC20030722080009807/22/03 08:00:31  5-MIN KSTC 221400Z AUTO VRB03KT 10SM CLR 19/13 A3011 850 67 1500 VRB/03 RMK AO2
14926KSTC STC20030722080509807/22/03 08:05:31  5-MIN KSTC 221405Z AUTO 05003KT 10SM CLR 19/13 A3011 850 67 1500 040/03 RMK AO2
14926KSTC STC20030722081009807/22/03 08:10:31  5-MIN KSTC 221410Z AUTO 01004KT 10SM CLR 19/13 A3011 850 65 1600 010/04 RMK AO2
14926KSTC STC20030722081509807/22/03 08:15:31  5-MIN KSTC 221415Z AUTO 01004KT 10SM CLR 19/13 A3011 850 65 1600 010/04 RMK AO2
14926KSTC STC20030722082009807/22/03 08:20:31  5-MIN KSTC 221420Z AUTO 01005KT 10SM CLR 19/13 A3011 850 65 1600 010/05 RMK AO2
14926KSTC STC20030722082509807/22/03 08:25:31  5-MIN KSTC 221425Z AUTO 06004KT 10SM CLR 19/13 A3011 850 65 1600 060/04 RMK AO2
14926KSTC STC20030722083009807/22/03 08:30:31  5-MIN KSTC 221430Z AUTO 01004KT 10SM CLR 19/12 A3011 850 62 1600 010/04 RMK AO2
14926KSTC STC20030722083509807/22/03 08:35:31  5-MIN KSTC 221435Z AUTO 00000KT 10SM CLR 20/13 A3011 850 63 1700 000/00 RMK AO2
14926KSTC STC20030722084009807/22/03 08:40:31  5-MIN KSTC 221440Z AUTO VRB03KT 10SM CLR 20/12 A3011 850 60 1700 VRB/03 RMK AO2
14926KSTC STC20030722084509807/22/03 08:45:31  5-MIN KSTC 221445Z AUTO VRB04KT 10SM CLR 20/12 A3011 850 60 1700 VRB/04 RMK AO2
14926KSTC STC20030722085012107/22/03 08:50:31  5-MIN KSTC 221450Z AUTO VRB03KT 10SM CLR 20/12 A3011 850 60 1700 VRB/03 RMK AO2 SLP202 T02000122 53016
14926KSTC STC20030722085509807/22/03 08:55:31  5-MIN KSTC 221455Z AUTO VRB03KT 10SM CLR 19/12 A3011 850 62 1600 VRB/03 RMK AO2
14926KSTC STC20030722090009807/22/03 09:00:31  5-MIN KSTC 221500Z AUTO 00000KT 10SM CLR 20/12 A3011 850 60 1700 000/00 RMK AO2
14926KSTC STC20030722090509807/22/03 09:05:31  5-MIN KSTC 221505Z AUTO VRB03KT 10SM CLR 20/12 A3011 850 58 1700 VRB/03 RMK AO2
14926KSTC STC20030722091009807/22/03 09:10:31  5-MIN KSTC 221510Z AUTO 34004KT 10SM CLR 20/12 A3011 850 58 1700 330/04 RMK AO2
14926KSTC STC20030722091509807/22/03 09:15:31  5-MIN KSTC 221515Z AUTO VRB04KT 10SM CLR 21/12 A3011 850 58 1700 VRB/04 RMK AO2
14926KSTC STC20030722092009807/22/03 09:20:31  5-MIN KSTC 221520Z AUTO 00000KT 10SM CLR 21/12 A3011 850 56 1700 000/00 RMK AO2
14926KSTC STC20030722092510107/22/03 09:25:31  5-MIN KSTC 221525Z AUTO VRB04KT 10SM FEW030 21/12 A3011 850 56 1700 VRB/04 RMK AO2
14926KSTC STC20030722093010107/22/03 09:30:31  5-MIN KSTC 221530Z AUTO VRB03KT 10SM SCT030 21/12 A3011 850 54 1800 VRB/03 RMK AO2
14926KSTC STC20030722093510107/22/03 09:35:31  5-MIN KSTC 221535Z AUTO VRB04KT 10SM SCT030 21/12 A3011 850 58 1700 VRB/04 RMK AO2
14926KSTC STC20030722094010107/22/03 09:40:31  5-MIN KSTC 221540Z AUTO 35006KT 10SM FEW030 21/13 A3011 850 58 1800 340/06 RMK AO2
14926KSTC STC20030722094510107/22/03 09:45:31  5-MIN KSTC 221545Z AUTO 02008KT 10SM FEW030 21/13 A3011 850 58 1800 020/08 RMK AO2
14926KSTC STC20030722095011807/22/03 09:50:31  5-MIN KSTC 221550Z AUTO 01009KT 10SM FEW033 21/13 A3011 850 58 1800 360/09 RMK AO2 SLP202 T02110128
14926KSTC STC20030722095510107/22/03 09:55:31  5-MIN KSTC 221555Z AUTO 01008KT 10SM FEW033 21/13 A3011 850 60 1700 010/08 RMK AO2
14926KSTC STC20030722100010107/22/03 10:00:31  5-MIN KSTC 221600Z AUTO 04007KT 10SM FEW036 21/12 A3011 850 58 1700 030/07 RMK AO2
14926KSTC STC20030722100510107/22/03 10:05:31  5-MIN KSTC 221605Z AUTO 03006KT 10SM FEW036 21/12 A3011 850 58 1700 030/06 RMK AO2
14926KSTC STC20030722101010107/22/03 10:10:31  5-MIN KSTC 221610Z AUTO 01006KT 10SM FEW036 21/12 A3011 850 58 1700 010/06 RMK AO2
14926KSTC STC20030722101510807/22/03 10:15:31  5-MIN KSTC 221615Z AUTO 03005KT 10SM FEW036 SCT050 21/13 A3011 850 58 1800 020/05 RMK AO2
14926KSTC STC20030722102010107/22/03 10:20:31  5-MIN KSTC 221620Z AUTO 02008KT 10SM FEW050 21/12 A3011 850 56 1800 020/08 RMK AO2
14926KSTC STC20030722102510107/22/03 10:25:31  5-MIN KSTC 221625Z AUTO 01006KT 10SM FEW050 22/12 A3011 850 54 1900 010/06 RMK AO2
14926KSTC STC20030722103010107/22/03 10:30:31  5-MIN KSTC 221630Z AUTO VRB06KT 10SM FEW050 22/12 A3011 850 54 1900 VRB/06 RMK AO2
14926KSTC STC20030722103510807/22/03 10:35:31  5-MIN KSTC 221635Z AUTO 01008KT 10SM FEW043 SCT050 22/12 A3011 850 54 1900 010/08 RMK AO2
14926KSTC STC20030722104010807/22/03 10:40:31  5-MIN KSTC 221640Z AUTO 35007KT 10SM FEW043 SCT050 22/13 A3011 850 56 1900 340/07 RMK AO2
14926KSTC STC20030722104510107/22/03 10:45:31  5-MIN KSTC 221645Z AUTO VRB06KT 10SM FEW045 22/12 A3011 850 54 1900 VRB/06 RMK AO2
14926KSTC STC20030722105011807/22/03 10:50:31  5-MIN KSTC 221650Z AUTO 03009KT 10SM FEW042 22/12 A3011 850 52 1900 020/09 RMK AO2 SLP202 T02170117
14926KSTC STC20030722105510107/22/03 10:55:31  5-MIN KSTC 221655Z AUTO 01008KT 10SM FEW042 22/12 A3011 850 54 1900 010/08 RMK AO2
14926KSTC STC20030722110010107/22/03 11:00:31  5-MIN KSTC 221700Z AUTO 02009KT 10SM FEW046 22/12 A3011 850 52 1900 020/09 RMK AO2
14926KSTC STC20030722110510107/22/03 11:05:31  5-MIN KSTC 221705Z AUTO 01008KT 10SM FEW046 21/12 A3011 850 56 1700 010/08 RMK AO2
14926KSTC STC20030722111010107/22/03 11:10:31  5-MIN KSTC 221710Z AUTO VRB06KT 10SM FEW046 22/12 A3011 850 52 1900 VRB/06 RMK AO2
14926KSTC STC20030722111511507/22/03 11:15:31  5-MIN KSTC 221715Z AUTO 01009KT 10SM FEW043 SCT050 SCT060 22/12 A3011 850 51 1900 010/09 RMK AO2
14926KSTC STC20030722112010807/22/03 11:20:31  5-MIN KSTC 221720Z AUTO 03009KT 10SM SCT046 SCT060 22/12 A3011 850 51 1900 030/09 RMK AO2
14926KSTC STC20030722112510807/22/03 11:25:31  5-MIN KSTC 221725Z AUTO 03008KT 10SM SCT046 SCT060 22/12 A3011 850 52 1900 020/08 RMK AO2
14926KSTC STC20030722113010807/22/03 11:30:31  5-MIN KSTC 221730Z AUTO 02010KT 10SM SCT046 BKN060 22/12 A3011 850 52 1900 020/10 RMK AO2
14926KSTC STC20030722113510807/22/03 11:35:31  5-MIN KSTC 221735Z AUTO 03009KT 10SM SCT043 BKN055 22/12 A3011 850 52 1900 030/09 RMK AO2
14926KSTC STC20030722114012407/22/03 11:40:31  5-MIN KSTC 221740Z AUTO 03010KT 360V070 10SM BKN047 BKN060 22/12 A3011 850 52 1900 030/10 360V070 RMK AO2
14926KSTC STC20030722114510807/22/03 11:45:31  5-MIN KSTC 221745Z AUTO 01009KT 10SM BKN047 BKN060 21/12 A3012 850 54 1800 010/09 RMK AO2
14926KSTC STC20030722115014307/22/03 11:50:31  5-MIN KSTC 221750Z AUTO 03009KT 10SM BKN047 BKN060 21/12 A3011 850 54 1800 030/09 RMK AO2 SLP204 T02110117 10222 20156 51009
14926KSTC STC20030722115510807/22/03 11:55:31  5-MIN KSTC 221755Z AUTO 02010KT 10SM SCT047 BKN060 23/12 A3011 850 49 2000 020/10 RMK AO2
14926KSTC STC20030722120012407/22/03 12:00:31  5-MIN KSTC 221800Z AUTO 02008KT 340V050 10SM FEW047 SCT060 23/12 A3011 850 49 2000 020/08 340V050 RMK AO2
14926KSTC STC20030722120510107/22/03 12:05:31  5-MIN KSTC 221805Z AUTO 03011KT 10SM FEW047 23/11 A3011 850 47 2000 030/11 RMK AO2
14926KSTC STC20030722121010107/22/03 12:10:31  5-MIN KSTC 221810Z AUTO 01010KT 10SM FEW047 23/12 A3011 850 49 2000 010/10 RMK AO2
14926KSTC STC20030722121510407/22/03 12:15:31  5-MIN KSTC 221815Z AUTO 04010G17KT 10SM CLR 22/11 A3011 850 49 1900 040/10G17 RMK AO2
14926KSTC STC20030722122010107/22/03 12:20:31  5-MIN KSTC 221820Z AUTO 02013KT 10SM FEW050 23/11 A3011 850 47 2000 010/13 RMK AO2
14926KSTC STC20030722122509807/22/03 12:25:31  5-MIN KSTC 221825Z AUTO 03010KT 10SM CLR 23/11 A3011 850 47 2000 020/10 RMK AO2
14926KSTC STC20030722123009807/22/03 12:30:31  5-MIN KSTC 221830Z AUTO 01010KT 10SM CLR 23/11 A3011 850 45 2000 010/10 RMK AO2
14926KSTC STC20030722123509807/22/03 12:35:31  5-MIN KSTC 221835Z AUTO 04009KT 10SM CLR 23/11 A3011 850 45 2000 040/09 RMK AO2
14926KSTC STC20030722124010107/22/03 12:40:31  5-MIN KSTC 221840Z AUTO 04010KT 10SM FEW050 23/11 A3011 850 45 2000 030/10 RMK AO2
14926KSTC STC20030722124510707/22/03 12:45:31  5-MIN KSTC 221845Z AUTO 01011G16KT 10SM FEW050 22/11 A3011 850 47 1900 010/11G16 RMK AO2
14926KSTC STC20030722125012407/22/03 12:50:31  5-MIN KSTC 221850Z AUTO 02012G16KT 10SM FEW050 23/10 A3011 850 44 2000 020/12G16 RMK AO2 SLP202 T02280100
14926KSTC STC20030722125510707/22/03 12:55:31  5-MIN KSTC 221855Z AUTO 02012G18KT 10SM FEW050 23/10 A3011 850 44 2000 020/12G18 RMK AO2
14926KSTC STC20030722130010707/22/03 13:00:31  5-MIN KSTC 221900Z AUTO 01010G18KT 10SM FEW050 22/09 A3011 850 43 1900 010/10G18 RMK AO2
14926KSTC STC20030722130512307/22/03 13:05:31  5-MIN KSTC 221905Z AUTO 03009G15KT 010V070 10SM SCT050 23/10 A3011 850 42 2000 030/09G15 010V070 RMK AO2
14926KSTC STC20030722131010107/22/03 13:10:31  5-MIN KSTC 221910Z AUTO 36009KT 10SM FEW055 22/09 A3011 850 43 1900 360/09 RMK AO2
14926KSTC STC20030722131510107/22/03 13:15:31  5-MIN KSTC 221915Z AUTO 36009KT 10SM FEW055 23/09 A3011 850 42 2000 360/09 RMK AO2
14926KSTC STC20030722132010107/22/03 13:20:31  5-MIN KSTC 221920Z AUTO 01012KT 10SM FEW055 23/10 A3011 850 42 2000 010/12 RMK AO2
14926KSTC STC20030722132510107/22/03 13:25:31  5-MIN KSTC 221925Z AUTO 01008KT 10SM FEW055 23/10 A3011 850 44 2000 360/08 RMK AO2
14926KSTC STC20030722133011707/22/03 13:30:31  5-MIN KSTC 221930Z AUTO 05007KT 360V080 10SM FEW055 23/10 A3011 850 44 2000 040/07 360V080 RMK AO2
14926KSTC STC20030722133510707/22/03 13:35:31  5-MIN KSTC 221935Z AUTO 02011G14KT 10SM FEW055 22/09 A3011 850 43 1900 020/11G14 RMK AO2
14926KSTC STC20030722134010107/22/03 13:40:31  5-MIN KSTC 221940Z AUTO 01011KT 10SM FEW055 23/10 A3011 850 44 2000 010/11 RMK AO2
14926KSTC STC20030722134510707/22/03 13:45:31  5-MIN KSTC 221945Z AUTO 02011G16KT 10SM SCT060 23/10 A3012 850 42 2000 020/11G16 RMK AO2
14926KSTC STC20030722135012407/22/03 13:50:31  5-MIN KSTC 221950Z AUTO 03009G16KT 10SM SCT060 22/10 A3012 850 45 1900 030/09G16 RMK AO2 SLP204 T02220100
14926KSTC STC20030722135510107/22/03 13:55:31  5-MIN KSTC 221955Z AUTO 05007KT 10SM BKN060 23/10 A3011 850 42 2000 050/07 RMK AO2
14926KSTC STC20030722140010107/22/03 14:00:31  5-MIN KSTC 222000Z AUTO 06009KT 10SM BKN060 22/11 A3012 850 47 1900 060/09 RMK AO2
14926KSTC STC20030722140510807/22/03 14:05:31  5-MIN KSTC 222005Z AUTO 04011KT 10SM SCT060 BKN075 22/11 A3012 850 49 1900 040/11 RMK AO2
14926KSTC STC20030722141010807/22/03 14:10:31  5-MIN KSTC 222010Z AUTO 07008KT 10SM SCT060 BKN075 22/10 A3012 850 47 1900 060/08 RMK AO2
14926KSTC STC20030722141510807/22/03 14:15:31  5-MIN KSTC 222015Z AUTO 06009KT 10SM SCT055 BKN070 23/10 A3012 850 44 2000 050/09 RMK AO2
14926KSTC STC20030722142010807/22/03 14:20:31  5-MIN KSTC 222020Z AUTO 01009KT 10SM SCT055 BKN070 22/11 A3012 850 47 1900 010/09 RMK AO2
14926KSTC STC20030722142510807/22/03 14:25:31  5-MIN KSTC 222025Z AUTO 36009KT 10SM BKN050 BKN070 23/11 A3011 850 44 2000 360/09 RMK AO2
14926KSTC STC20030722143012407/22/03 14:30:31  5-MIN KSTC 222030Z AUTO 04008KT 360V060 10SM BKN050 BKN075 23/11 A3011 850 45 2100 030/08 360V060 RMK AO2
14926KSTC STC20030722143510807/22/03 14:35:31  5-MIN KSTC 222035Z AUTO 03009KT 10SM BKN055 BKN070 22/10 A3011 850 45 1900 020/09 RMK AO2
14926KSTC STC20030722144010807/22/03 14:40:31  5-MIN KSTC 222040Z AUTO 01007KT 10SM BKN055 BKN070 23/09 A3011 850 41 2100 010/07 RMK AO2
14926KSTC STC20030722144510807/22/03 14:45:31  5-MIN KSTC 222045Z AUTO 34012KT 10SM SCT055 SCT070 23/10 A3011 850 42 2100 340/12 RMK AO2
14926KSTC STC20030722145013107/22/03 14:50:31  5-MIN KSTC 222050Z AUTO 35008KT 10SM SCT055 SCT070 23/11 A3011 850 44 2100 350/08 RMK AO2 SLP202 T02330106 53000
14926KSTC STC20030722145510807/22/03 14:55:31  5-MIN KSTC 222055Z AUTO 36010KT 10SM SCT050 BKN070 24/11 A3011 850 42 2100 360/10 RMK AO2
14926KSTC STC20030722150010807/22/03 15:00:31  5-MIN KSTC 222100Z AUTO 04008KT 10SM BKN050 BKN070 23/11 A3011 850 45 2100 040/08 RMK AO2
14926KSTC STC20030722150510807/22/03 15:05:31  5-MIN KSTC 222105Z AUTO 05007KT 10SM SCT050 SCT070 23/11 A3011 850 45 2000 050/07 RMK AO2
14926KSTC STC20030722151010107/22/03 15:10:31  5-MIN KSTC 222110Z AUTO 05006KT 10SM SCT055 23/11 A3011 850 44 2100 050/06 RMK AO2
14926KSTC STC20030722151510107/22/03 15:15:31  5-MIN KSTC 222115Z AUTO 04006KT 10SM BKN055 23/11 A3011 850 44 2100 040/06 RMK AO2
14926KSTC STC20030722152010107/22/03 15:20:31  5-MIN KSTC 222120Z AUTO 04008KT 10SM BKN055 23/11 A3011 850 45 2000 030/08 RMK AO2
14926KSTC STC20030722152510107/22/03 15:25:31  5-MIN KSTC 222125Z AUTO 04006KT 10SM SCT055 22/11 A3011 850 47 1900 040/06 RMK AO2
14926KSTC STC20030722153010107/22/03 15:30:31  5-MIN KSTC 222130Z AUTO VRB05KT 10SM FEW055 23/10 A3011 850 42 2100 VRB/05 RMK AO2
14926KSTC STC20030722153510107/22/03 15:35:31  5-MIN KSTC 222135Z AUTO 03007KT 10SM SCT060 23/11 A3011 850 44 2100 030/07 RMK AO2
14926KSTC STC20030722154010107/22/03 15:40:31  5-MIN KSTC 222140Z AUTO 05008KT 10SM FEW055 23/11 A3011 850 44 2100 040/08 RMK AO2
14926KSTC STC20030722154510107/22/03 15:45:31  5-MIN KSTC 222145Z AUTO 05009KT 10SM FEW055 23/11 A3011 850 45 2000 040/09 RMK AO2
14926KSTC STC20030722155011507/22/03 15:50:31  5-MIN KSTC 222150Z AUTO 06007KT 10SM CLR 23/11 A3011 850 44 2100 060/07 RMK AO2 SLP201 T02330106
14926KSTC STC20030722155509807/22/03 15:55:31  5-MIN KSTC 222155Z AUTO 04006KT 10SM CLR 23/11 A3011 850 44 2100 040/06 RMK AO2
14926KSTC STC20030722160009807/22/03 16:00:31  5-MIN KSTC 222200Z AUTO 05009KT 10SM CLR 23/10 A3011 850 42 2100 050/09 RMK AO2
14926KSTC STC20030722160509807/22/03 16:05:31  5-MIN KSTC 222205Z AUTO VRB05KT 10SM CLR 23/10 A3011 850 42 2100 VRB/05 RMK AO2
14926KSTC STC20030722161009807/22/03 16:10:31  5-MIN KSTC 222210Z AUTO 03007KT 10SM CLR 23/10 A3011 860 42 2100 030/07 RMK AO2
14926KSTC STC20030722161509807/22/03 16:15:31  5-MIN KSTC 222215Z AUTO 02008KT 10SM CLR 23/11 A3011 850 44 2100 020/08 RMK AO2
14926KSTC STC20030722162009807/22/03 16:20:31  5-MIN KSTC 222220Z AUTO 02009KT 10SM CLR 23/10 A3010 860 42 2100 020/09 RMK AO2
14926KSTC STC20030722162509807/22/03 16:25:31  5-MIN KSTC 222225Z AUTO 01008KT 10SM CLR 23/10 A3010 860 42 2100 360/08 RMK AO2
14926KSTC STC20030722163009807/22/03 16:30:31  5-MIN KSTC 222230Z AUTO 01006KT 10SM CLR 24/10 A3010 860 41 2100 360/06 RMK AO2
14926KSTC STC20030722163509807/22/03 16:35:31  5-MIN KSTC 222235Z AUTO 03006KT 10SM CLR 23/10 A3010 860 42 2100 030/06 RMK AO2
14926KSTC STC20030722164009807/22/03 16:40:31  5-MIN KSTC 222240Z AUTO 04009KT 10SM CLR 24/11 A3011 860 42 2100 040/09 RMK AO2
14926KSTC STC20030722164509807/22/03 16:45:31  5-MIN KSTC 222245Z AUTO 01007KT 10SM CLR 23/10 A3010 860 42 2100 010/07 RMK AO2
14926KSTC STC20030722165011507/22/03 16:50:31  5-MIN KSTC 222250Z AUTO 03007KT 10SM CLR 23/10 A3010 860 42 2100 030/07 RMK AO2 SLP200 T02330100
14926KSTC STC20030722165509807/22/03 16:55:31  5-MIN KSTC 222255Z AUTO 05009KT 10SM CLR 23/09 A3010 860 41 2100 050/09 RMK AO2
14926KSTC STC20030722170009807/22/03 17:00:31  5-MIN KSTC 222300Z AUTO VRB06KT 10SM CLR 23/09 A3010 860 41 2100 VRB/06 RMK AO2
14926KSTC STC20030722170509807/22/03 17:05:31  5-MIN KSTC 222305Z AUTO 02009KT 10SM CLR 23/10 A3010 860 42 2100 010/09 RMK AO2
14926KSTC STC20030722171009807/22/03 17:10:31  5-MIN KSTC 222310Z AUTO 02007KT 10SM CLR 23/09 A3010 860 41 2100 020/07 RMK AO2
14926KSTC STC20030722171509807/22/03 17:15:31  5-MIN KSTC 222315Z AUTO 01008KT 10SM CLR 23/09 A3010 860 41 2100 010/08 RMK AO2
14926KSTC STC20030722172009807/22/03 17:20:31  5-MIN KSTC 222320Z AUTO 03007KT 10SM CLR 23/09 A3010 860 41 2100 020/07 RMK AO2
14926KSTC STC20030722172509807/22/03 17:25:31  5-MIN KSTC 222325Z AUTO 02007KT 10SM CLR 23/09 A3010 860 41 2100 020/07 RMK AO2
14926KSTC STC20030722173009807/22/03 17:30:31  5-MIN KSTC 222330Z AUTO 01007KT 10SM CLR 23/10 A3010 860 42 2100 010/07 RMK AO2
14926KSTC STC20030722173509807/22/03 17:35:31  5-MIN KSTC 222335Z AUTO 01007KT 10SM CLR 23/09 A3010 860 41 2100 010/07 RMK AO2
14926KSTC STC20030722174009807/22/03 17:40:31  5-MIN KSTC 222340Z AUTO 04008KT 10SM CLR 23/09 A3010 860 42 2000 040/08 RMK AO2
14926KSTC STC20030722174509807/22/03 17:45:31  5-MIN KSTC 222345Z AUTO 04006KT 10SM CLR 23/09 A3010 860 42 2000 030/06 RMK AO2
14926KSTC STC20030722175013307/22/03 17:50:31  5-MIN KSTC 222350Z AUTO 02005KT 10SM CLR 23/09 A3010 860 42 2000 020/05 RMK AO2 SLP198 T02280094 10239 20217 58001
14926KSTC STC20030722175509807/22/03 17:55:31  5-MIN KSTC 222355Z AUTO 01005KT 10SM CLR 23/10 A3010 860 44 2000 010/05 RMK AO2
14926KSTC STC20030722180009807/22/03 18:00:31  5-MIN KSTC 230000Z AUTO 03006KT 10SM CLR 23/10 A3010 860 44 2000 030/06 RMK AO2
14926KSTC STC20030722180509807/22/03 18:05:31  5-MIN KSTC 230005Z AUTO VRB06KT 10SM CLR 23/10 A3010 860 44 2000 VRB/06 RMK AO2
14926KSTC STC20030722181009807/22/03 18:10:31  5-MIN KSTC 230010Z AUTO 02004KT 10SM CLR 23/10 A3010 860 44 2000 010/04 RMK AO2
14926KSTC STC20030722181509807/22/03 18:15:31  5-MIN KSTC 230015Z AUTO 04005KT 10SM CLR 23/10 A3010 860 44 2000 030/05 RMK AO2
14926KSTC STC20030722182009807/22/03 18:20:31  5-MIN KSTC 230020Z AUTO VRB04KT 10SM CLR 23/11 A3010 860 45 2000 VRB/04 RMK AO2
14926KSTC STC20030722182509807/22/03 18:25:31  5-MIN KSTC 230025Z AUTO 02005KT 10SM CLR 22/11 A3010 860 47 1900 020/05 RMK AO2
14926KSTC STC20030722183009807/22/03 18:30:31  5-MIN KSTC 230030Z AUTO 02005KT 10SM CLR 22/11 A3010 860 47 1900 020/05 RMK AO2
14926KSTC STC20030722183509807/22/03 18:35:31  5-MIN KSTC 230035Z AUTO 03005KT 10SM CLR 22/11 A3010 860 47 1900 020/05 RMK AO2
14926KSTC STC20030722184009807/22/03 18:40:31  5-MIN KSTC 230040Z AUTO 04004KT 10SM CLR 22/11 A3011 860 47 1900 030/04 RMK AO2
14926KSTC STC20030722184509807/22/03 18:45:31  5-MIN KSTC 230045Z AUTO 03006KT 10SM CLR 22/11 A3011 860 47 1900 030/06 RMK AO2
14926KSTC STC20030722185011507/22/03 18:50:31  5-MIN KSTC 230050Z AUTO 03004KT 10SM CLR 22/11 A3011 850 49 1900 030/04 RMK AO2 SLP200 T02170106
14926KSTC STC20030722185509807/22/03 18:55:31  5-MIN KSTC 230055Z AUTO 03004KT 10SM CLR 22/11 A3011 850 49 1900 030/04 RMK AO2
14926KSTC STC20030722190009807/22/03 19:00:31  5-MIN KSTC 230100Z AUTO 03003KT 10SM CLR 22/11 A3011 850 49 1900 030/03 RMK AO2
14926KSTC STC20030722190509807/22/03 19:05:31  5-MIN KSTC 230105Z AUTO 02004KT 10SM CLR 22/11 A3011 850 49 1900 020/04 RMK AO2
14926KSTC STC20030722191009807/22/03 19:10:31  5-MIN KSTC 230110Z AUTO 02004KT 10SM CLR 21/11 A3011 850 50 1800 020/04 RMK AO2
14926KSTC STC20030722191509807/22/03 19:15:31  5-MIN KSTC 230115Z AUTO 03004KT 10SM CLR 21/11 A3011 850 52 1800 020/04 RMK AO2
14926KSTC STC20030722192009807/22/03 19:20:31  5-MIN KSTC 230120Z AUTO 02004KT 10SM CLR 21/11 A3011 850 52 1800 020/04 RMK AO2
14926KSTC STC20030722192509807/22/03 19:25:31  5-MIN KSTC 230125Z AUTO 02004KT 10SM CLR 21/11 A3011 850 54 1700 020/04 RMK AO2
14926KSTC STC20030722193009807/22/03 19:30:31  5-MIN KSTC 230130Z AUTO 02003KT 10SM CLR 20/11 A3011 850 56 1700 020/03 RMK AO2
14926KSTC STC20030722193509807/22/03 19:35:31  5-MIN KSTC 230135Z AUTO 02004KT 10SM CLR 20/12 A3011 850 58 1700 020/04 RMK AO2
14926KSTC STC20030722194009807/22/03 19:40:31  5-MIN KSTC 230140Z AUTO 02004KT 10SM CLR 20/11 A3011 850 56 1700 020/04 RMK AO2
14926KSTC STC20030722194509807/22/03 19:45:31  5-MIN KSTC 230145Z AUTO 02004KT 10SM CLR 19/11 A3012 850 58 1600 020/04 RMK AO2
14926KSTC STC20030722195011507/22/03 19:50:31  5-MIN KSTC 230150Z AUTO 02004KT 10SM CLR 19/12 A3012 850 60 1600 020/04 RMK AO2 SLP205 T01940117
14926KSTC STC20030722195509807/22/03 19:55:31  5-MIN KSTC 230155Z AUTO 02003KT 10SM CLR 19/12 A3012 850 60 1600 020/03 RMK AO2
14926KSTC STC20030722200009807/22/03 20:00:31  5-MIN KSTC 230200Z AUTO 03004KT 10SM CLR 19/12 A3012 850 60 1600 020/04 RMK AO2
14926KSTC STC20030722200509807/22/03 20:05:31  5-MIN KSTC 230205Z AUTO 03004KT 10SM CLR 18/12 A3012 850 67 1500 030/04 RMK AO2
14926KSTC STC20030722201009807/22/03 20:10:31  5-MIN KSTC 230210Z AUTO 03004KT 10SM CLR 17/12 A3012 850 72 1300 030/04 RMK AO2
14926KSTC STC20030722201509807/22/03 20:15:31  5-MIN KSTC 230215Z AUTO 00000KT 10SM CLR 17/12 A3012 840 72 1300 000/00 RMK AO2
14926KSTC STC20030722202009807/22/03 20:20:31  5-MIN KSTC 230220Z AUTO 00000KT 10SM CLR 17/12 A3012 840 72 1300 000/00 RMK AO2
14926KSTC STC20030722202509807/22/03 20:25:31  5-MIN KSTC 230225Z AUTO 07005KT 10SM CLR 17/12 A3012 840 75 1300 070/05 RMK AO2
14926KSTC STC20030722203009807/22/03 20:30:31  5-MIN KSTC 230230Z AUTO 07003KT 10SM CLR 17/12 A3013 840 72 1300 060/03 RMK AO2
14926KSTC STC20030722203509807/22/03 20:35:31  5-MIN KSTC 230235Z AUTO 07003KT 10SM CLR 17/12 A3013 840 72 1300 070/03 RMK AO2
14926KSTC STC20030722204009807/22/03 20:40:31  5-MIN KSTC 230240Z AUTO 08003KT 10SM CLR 17/12 A3013 830 72 1300 070/03 RMK AO2
14926KSTC STC20030722204509807/22/03 20:45:31  5-MIN KSTC 230245Z AUTO 06003KT 10SM CLR 16/12 A3013 830 77 1200 060/03 RMK AO2
14926KSTC STC20030722205012107/22/03 20:50:31  5-MIN KSTC 230250Z AUTO 05003KT 10SM CLR 16/13 A3013 830 80 1200 050/03 RMK AO2 SLP209 T01610128 58004
14926KSTC STC20030722205509807/22/03 20:55:31  5-MIN KSTC 230255Z AUTO 00000KT 10SM CLR 15/13 A3013 830 86 1100 000/00 RMK AO2
14926KSTC STC20030722210009807/22/03 21:00:31  5-MIN KSTC 230300Z AUTO 00000KT 10SM CLR 15/12 A3013 830 83 1100 000/00 RMK AO2
14926KSTC STC20030722210509807/22/03 21:05:31  5-MIN KSTC 230305Z AUTO 00000KT 10SM CLR 14/12 A3014 830 83 1000 000/00 RMK AO2
14926KSTC STC20030722211009807/22/03 21:10:31  5-MIN KSTC 230310Z AUTO 00000KT 10SM CLR 15/12 A3014 830 83 1100 000/00 RMK AO2
14926KSTC STC20030722211509807/22/03 21:15:31  5-MIN KSTC 230315Z AUTO 00000KT 10SM CLR 15/12 A3014 820 83 1100 000/00 RMK AO2
14926KSTC STC20030722212009807/22/03 21:20:31  5-MIN KSTC 230320Z AUTO 06003KT 10SM CLR 14/12 A3014 820 86 1000 060/03 RMK AO2
14926KSTC STC20030722212509807/22/03 21:25:31  5-MIN KSTC 230325Z AUTO 06004KT 10SM CLR 14/12 A3014 820 86 1000 060/04 RMK AO2
14926KSTC STC20030722213009807/22/03 21:30:31  5-MIN KSTC 230330Z AUTO 06004KT 10SM CLR 14/12 A3014 820 86 1000 060/04 RMK AO2
14926KSTC STC20030722213509807/22/03 21:35:31  5-MIN KSTC 230335Z AUTO 07004KT 10SM CLR 15/13 A3014 820 86 1100 060/04 RMK AO2
14926KSTC STC20030722214009807/22/03 21:40:31  5-MIN KSTC 230340Z AUTO 06004KT 10SM CLR 16/12 A3015 820 80 1100 060/04 RMK AO2
14926KSTC STC20030722214509807/22/03 21:45:31  5-MIN KSTC 230345Z AUTO 07004KT 10SM CLR 16/12 A3015 820 80 1100 060/04 RMK AO2
14926KSTC STC20030722215011507/22/03 21:50:31  5-MIN KSTC 230350Z AUTO 07004KT 10SM CLR 16/12 A3015 820 75 1200 070/04 RMK AO2 SLP215 T01610117
14926KSTC STC20030722215509807/22/03 21:55:31  5-MIN KSTC 230355Z AUTO 07003KT 10SM CLR 16/12 A3015 820 77 1100 070/03 RMK AO2
14926KSTC STC20030722220009807/22/03 22:00:31  5-MIN KSTC 230400Z AUTO 07003KT 10SM CLR 15/12 A3015 820 80 1000 070/03 RMK AO2
14926KSTC STC20030722220509807/22/03 22:05:31  5-MIN KSTC 230405Z AUTO 08004KT 10SM CLR 15/12 A3015 820 80 1000 070/04 RMK AO2
14926KSTC STC20030722221009807/22/03 22:10:31  5-MIN KSTC 230410Z AUTO 08003KT 10SM CLR 15/12 A3015 820 80 1000 070/03 RMK AO2
14926KSTC STC20030722221509807/22/03 22:15:31  5-MIN KSTC 230415Z AUTO 07004KT 10SM CLR 15/12 A3015 820 83 1000 070/04 RMK AO2
14926KSTC STC20030722222009807/22/03 22:20:31  5-MIN KSTC 230420Z AUTO 07004KT 10SM CLR 14/12 A3015 820 86 1000 060/04 RMK AO2
14926KSTC STC20030722222509807/22/03 22:25:31  5-MIN KSTC 230425Z AUTO 07003KT 10SM CLR 15/12 A3015 820 80 1000 060/03 RMK AO2
14926KSTC STC20030722223009807/22/03 22:30:31  5-MIN KSTC 230430Z AUTO 00000KT 10SM CLR 15/12 A3015 810 80 1000 000/00 RMK AO2
14926KSTC STC20030722223509807/22/03 22:35:31  5-MIN KSTC 230435Z AUTO 00000KT 10SM CLR 15/12 A3015 810 80 1000 000/00 RMK AO2
14926KSTC STC20030722224009707/22/03 22:40:31  5-MIN KSTC 230440Z AUTO 00000KT 10SM CLR 14/11 A3015 820 83 900 000/00 RMK AO2
14926KSTC STC20030722224509707/22/03 22:45:31  5-MIN KSTC 230445Z AUTO 00000KT 10SM CLR 13/11 A3015 820 86 800 000/00 RMK AO2
14926KSTC STC20030722225011407/22/03 22:50:31  5-MIN KSTC 230450Z AUTO 00000KT 10SM CLR 13/11 A3015 820 86 800 000/00 RMK AO2 SLP217 T01330111
14926KSTC STC20030722225509707/22/03 22:55:31  5-MIN KSTC 230455Z AUTO 00000KT 10SM CLR 13/12 A3015 810 89 800 000/00 RMK AO2
14926KSTC STC20030722230009707/22/03 23:00:31  5-MIN KSTC 230500Z AUTO 00000KT 10SM CLR 13/12 A3015 810 89 800 000/00 RMK AO2
14926KSTC STC20030722230509707/22/03 23:05:31  5-MIN KSTC 230505Z AUTO 00000KT 10SM CLR 13/12 A3015 810 93 800 000/00 RMK AO2
14926KSTC STC20030722231009707/22/03 23:10:31  5-MIN KSTC 230510Z AUTO 00000KT 10SM CLR 13/12 A3015 810 93 800 000/00 RMK AO2
14926KSTC STC20030722231509707/22/03 23:15:31  5-MIN KSTC 230515Z AUTO 00000KT 10SM CLR 13/12 A3015 810 93 800 000/00 RMK AO2
14926KSTC STC20030722232009707/22/03 23:20:31  5-MIN KSTC 230520Z AUTO 00000KT 10SM CLR 13/12 A3015 810 93 800 000/00 RMK AO2
14926KSTC STC20030722232509707/22/03 23:25:31  5-MIN KSTC 230525Z AUTO 00000KT 10SM CLR 13/12 A3015 810 93 800 000/00 RMK AO2
14926KSTC STC20030722233009707/22/03 23:30:31  5-MIN KSTC 230530Z AUTO 00000KT 10SM CLR 12/12 A3015 810 96 700 000/00 RMK AO2
14926KSTC STC20030722233509707/22/03 23:35:31  5-MIN KSTC 230535Z AUTO 02003KT 10SM CLR 12/11 A3015 810 96 600 010/03 RMK AO2
14926KSTC STC20030722234009707/22/03 23:40:31  5-MIN KSTC 230540Z AUTO 00000KT 10SM CLR 12/11 A3016 810 96 600 000/00 RMK AO2
14926KSTC STC20030722234509707/22/03 23:45:31  5-MIN KSTC 230545Z AUTO 00000KT 10SM CLR 12/11 A3016 810 96 600 000/00 RMK AO2
14926KSTC STC20030722235014207/22/03 23:50:31  5-MIN KSTC 230550Z AUTO 00000KT 10SM CLR 12/11 A3016 810 96 600 000/00 RMK AO2 SLP220 T01170111 10228 20117 402390117 53011
14926KSTC STC20030722235509707/22/03 23:55:31  5-MIN KSTC 230555Z AUTO 00000KT 10SM CLR 12/11 A3016 810 93 700 000/00 RMK AO2
14926KSTC STC20030723000009707/23/03 00:00:31  5-MIN KSTC 230600Z AUTO 00000KT 10SM CLR 12/12 A3016 810 96 700 000/00 RMK AO2
14926KSTC STC20030723000509707/23/03 00:05:31  5-MIN KSTC 230605Z AUTO 00000KT 10SM CLR 12/11 A3016 810 96 600 000/00 RMK AO2
14926KSTC STC20030723001009807/23/03 00:10:31  5-MIN KSTC 230610Z AUTO 00000KT 10SM CLR 12/12 A3016 810 100 600 000/00 RMK AO2
14926KSTC STC20030723001509807/23/03 00:15:31  5-MIN KSTC 230615Z AUTO 00000KT 10SM CLR 12/12 A3016 810 100 600 000/00 RMK AO2
14926KSTC STC20030723002009707/23/03 00:20:31  5-MIN KSTC 230620Z AUTO 00000KT 10SM CLR 12/11 A3016 810 93 700 000/00 RMK AO2
14926KSTC STC20030723002509707/23/03 00:25:31  5-MIN KSTC 230625Z AUTO 00000KT 10SM CLR 12/11 A3016 810 93 700 000/00 RMK AO2
14926KSTC STC20030723003009707/23/03 00:30:31  5-MIN KSTC 230630Z AUTO 00000KT 10SM CLR 12/11 A3016 800 96 600 000/00 RMK AO2
14926KSTC STC20030723003509707/23/03 00:35:31  5-MIN KSTC 230635Z AUTO 00000KT 10SM CLR 12/11 A3016 810 96 600 000/00 RMK AO2
14926KSTC STC20030723004009707/23/03 00:40:31  5-MIN KSTC 230640Z AUTO 00000KT 10SM CLR 12/11 A3016 810 96 600 000/00 RMK AO2
14926KSTC STC20030723004509707/23/03 00:45:31  5-MIN KSTC 230645Z AUTO 00000KT 10SM CLR 12/11 A3016 810 96 600 000/00 RMK AO2
14926KSTC STC20030723005011407/23/03 00:50:31  5-MIN KSTC 230650Z AUTO 00000KT 10SM CLR 12/11 A3016 810 96 600 000/00 RMK AO2 SLP219 T01170111
14926KSTC STC20030723005509707/23/03 00:55:31  5-MIN KSTC 230655Z AUTO 00000KT 10SM CLR 12/11 A3016 810 96 600 000/00 RMK AO2
14926KSTC STC20030723010009807/23/03 01:00:31  5-MIN KSTC 230700Z AUTO 00000KT 10SM CLR 11/11 A3016 810 100 600 000/00 RMK AO2
14926KSTC STC20030723010509807/23/03 01:05:31  5-MIN KSTC 230705Z AUTO 00000KT 10SM CLR 11/11 A3016 810 100 600 000/00 RMK AO2
14926KSTC STC20030723011009707/23/03 01:10:31  5-MIN KSTC 230710Z AUTO 00000KT 10SM CLR 12/11 A3016 810 96 600 000/00 RMK AO2
14926KSTC STC20030723011509807/23/03 01:15:31  5-MIN KSTC 230715Z AUTO 00000KT 10SM CLR 11/11 A3016 810 100 600 000/00 RMK AO2
14926KSTC STC20030723012009807/23/03 01:20:31  5-MIN KSTC 230720Z AUTO 00000KT 10SM CLR 11/11 A3016 800 100 500 000/00 RMK AO2
14926KSTC STC20030723012509807/23/03 01:25:31  5-MIN KSTC 230725Z AUTO 00000KT 10SM CLR 11/11 A3016 800 100 600 000/00 RMK AO2
14926KSTC STC20030723013009707/23/03 01:30:31  5-MIN KSTC 230730Z AUTO 00000KT 10SM CLR 11/11 A3016 800 96 600 000/00 RMK AO2
14926KSTC STC20030723013509707/23/03 01:35:31  5-MIN KSTC 230735Z AUTO 00000KT 10SM CLR 11/10 A3016 800 96 500 000/00 RMK AO2
14926KSTC STC20030723014009707/23/03 01:40:31  5-MIN KSTC 230740Z AUTO 00000KT 10SM CLR 11/10 A3017 800 96 500 000/00 RMK AO2
14926KSTC STC20030723014509707/23/03 01:45:31  5-MIN KSTC 230745Z AUTO 00000KT 10SM CLR 11/10 A3017 800 93 600 000/00 RMK AO2
14926KSTC STC20030723015011407/23/03 01:50:31  5-MIN KSTC 230750Z AUTO 00000KT 10SM CLR 11/11 A3016 800 96 600 000/00 RMK AO2 SLP222 T01110106
14926KSTC STC20030723015509707/23/03 01:55:31  5-MIN KSTC 230755Z AUTO 00000KT 10SM CLR 11/11 A3016 800 96 600 000/00 RMK AO2
14926KSTC STC20030723020009707/23/03 02:00:31  5-MIN KSTC 230800Z AUTO 00000KT 10SM CLR 11/11 A3016 800 96 600 000/00 RMK AO2
14926KSTC STC20030723020509807/23/03 02:05:31  5-MIN KSTC 230805Z AUTO 00000KT 10SM CLR 11/11 A3016 800 100 500 000/00 RMK AO2
14926KSTC STC20030723021009707/23/03 02:10:31  5-MIN KSTC 230810Z AUTO 00000KT 10SM CLR 11/11 A3016 800 96 600 000/00 RMK AO2
14926KSTC STC20030723021509707/23/03 02:15:31  5-MIN KSTC 230815Z AUTO 00000KT 10SM CLR 11/10 A3016 800 96 500 000/00 RMK AO2
14926KSTC STC20030723022009807/23/03 02:20:31  5-MIN KSTC 230820Z AUTO 00000KT 10SM CLR 11/11 A3016 800 100 500 000/00 RMK AO2
14926KSTC STC20030723022509807/23/03 02:25:31  5-MIN KSTC 230825Z AUTO 00000KT 10SM CLR 11/11 A3017 800 100 500 000/00 RMK AO2
14926KSTC STC20030723023009707/23/03 02:30:31  5-MIN KSTC 230830Z AUTO 00000KT 9SM CLR 11/11 A3017 800 100 500 000/00 RMK AO2
14926KSTC STC20030723023509807/23/03 02:35:31  5-MIN KSTC 230835Z AUTO 00000KT 10SM CLR 11/11 A3017 800 100 500 000/00 RMK AO2
14926KSTC STC20030723024009807/23/03 02:40:31  5-MIN KSTC 230840Z AUTO 00000KT 10SM CLR 10/10 A3017 800 100 400 000/00 RMK AO2
14926KSTC STC20030723024509707/23/03 02:45:31  5-MIN KSTC 230845Z AUTO 00000KT 10SM CLR 10/09 A3017 800 96 400 000/00 RMK AO2
14926KSTC STC20030723025012107/23/03 02:50:31  5-MIN KSTC 230850Z AUTO 00000KT 10SM CLR 10/10 A3017 800 100 400 000/00 RMK AO2 SLP223 T01000100 51009
14926KSTC STC20030723025509807/23/03 02:55:31  5-MIN KSTC 230855Z AUTO 00000KT 10SM CLR 10/10 A3017 800 100 400 000/00 RMK AO2
14926KSTC STC20030723030009807/23/03 03:00:31  5-MIN KSTC 230900Z AUTO 00000KT 10SM CLR 11/11 A3017 800 100 500 000/00 RMK AO2
14926KSTC STC20030723030509807/23/03 03:05:31  5-MIN KSTC 230905Z AUTO 00000KT 10SM CLR 10/10 A3017 800 100 400 000/00 RMK AO2
14926KSTC STC20030723031009807/23/03 03:10:31  5-MIN KSTC 230910Z AUTO 00000KT 10SM CLR 10/10 A3017 800 100 400 000/00 RMK AO2
14926KSTC STC20030723031509707/23/03 03:15:31  5-MIN KSTC 230915Z AUTO 00000KT 9SM CLR 10/10 A3017 800 100 400 000/00 RMK AO2
14926KSTC STC20030723032009607/23/03 03:20:31  5-MIN KSTC 230920Z AUTO 00000KT 7SM CLR 09/09 A3017 800 96 400 000/00 RMK AO2
14926KSTC STC20030723032509707/23/03 03:25:31  5-MIN KSTC 230925Z AUTO 00000KT 8SM CLR 09/09 A3017 800 100 400 000/00 RMK AO2
14926KSTC STC20030723033009807/23/03 03:30:31  5-MIN KSTC 230930Z AUTO 00000KT 10SM CLR 10/10 A3017 800 100 400 000/00 RMK AO2
14926KSTC STC20030723033509807/23/03 03:35:31  5-MIN KSTC 230935Z AUTO 00000KT 10SM CLR 10/10 A3017 800 100 400 000/00 RMK AO2
14926KSTC STC20030723034009807/23/03 03:40:31  5-MIN KSTC 230940Z AUTO 00000KT 10SM CLR 10/10 A3017 800 100 400 000/00 RMK AO2
14926KSTC STC20030723034509707/23/03 03:45:31  5-MIN KSTC 230945Z AUTO 00000KT 8SM CLR 10/10 A3017 800 100 400 000/00 RMK AO2
14926KSTC STC20030723035011707/23/03 03:50:31  5-MIN KSTC 230950Z AUTO 00000KT 4SM BR CLR 10/10 A3017 790 100 400 000/00 RMK AO2 SLP225 T01000100
14926KSTC STC20030723035510007/23/03 03:55:31  5-MIN KSTC 230955Z AUTO 00000KT 5SM BR CLR 10/10 A3017 790 100 400 000/00 RMK AO2
14926KSTC STC20030723040009707/23/03 04:00:31  5-MIN KSTC 231000Z AUTO 00000KT 10SM CLR 10/09 A3018 790 96 400 000/00 RMK AO2
14926KSTC STC20030723040509807/23/03 04:05:31  5-MIN KSTC 231005Z AUTO 00000KT 10SM CLR 09/09 A3018 790 100 400 000/00 RMK AO2
14926KSTC STC20030723041009807/23/03 04:10:31  5-MIN KSTC 231010Z AUTO 00000KT 10SM CLR 09/09 A3018 790 100 400 000/00 RMK AO2
14926KSTC STC20030723041509807/23/03 04:15:31  5-MIN KSTC 231015Z AUTO 00000KT 10SM CLR 10/10 A3018 790 100 400 000/00 RMK AO2
14926KSTC STC20030723042009807/23/03 04:20:31  5-MIN KSTC 231020Z AUTO 00000KT 10SM CLR 09/09 A3018 790 100 300 000/00 RMK AO2
14926KSTC STC20030723042509807/23/03 04:25:31  5-MIN KSTC 231025Z AUTO 00000KT 10SM CLR 09/09 A3018 790 100 400 000/00 RMK AO2
14926KSTC STC20030723043009807/23/03 04:30:31  5-MIN KSTC 231030Z AUTO 00000KT 10SM CLR 09/09 A3018 790 100 300 000/00 RMK AO2
14926KSTC STC20030723043509807/23/03 04:35:31  5-MIN KSTC 231035Z AUTO 06003KT 10SM CLR 09/09 A3018 780 100 300 060/03 RMK AO2
14926KSTC STC20030723044009707/23/03 04:40:31  5-MIN KSTC 231040Z AUTO 00000KT 10SM CLR 09/09 A3018 780 96 300 000/00 RMK AO2
14926KSTC STC20030723044509807/23/03 04:45:31  5-MIN KSTC 231045Z AUTO 00000KT 10SM CLR 09/09 A3018 780 100 300 000/00 RMK AO2
14926KSTC STC20030723045011407/23/03 04:50:31  5-MIN KSTC 231050Z AUTO 00000KT 9SM CLR 09/09 A3019 780 100 300 000/00 RMK AO2 SLP230 T00890089
14926KSTC STC20030723045509707/23/03 04:55:31  5-MIN KSTC 231055Z AUTO 00000KT 9SM CLR 09/09 A3019 780 100 300 000/00 RMK AO2
14926KSTC STC20030723050009807/23/03 05:00:31  5-MIN KSTC 231100Z AUTO 00000KT 10SM CLR 09/09 A3019 780 100 300 000/00 RMK AO2
14926KSTC STC20030723050509807/23/03 05:05:31  5-MIN KSTC 231105Z AUTO 00000KT 10SM CLR 09/09 A3019 780 100 300 000/00 RMK AO2
14926KSTC STC20030723051009807/23/03 05:10:31  5-MIN KSTC 231110Z AUTO 00000KT 10SM CLR 09/09 A3019 780 100 300 000/00 RMK AO2
14926KSTC STC20030723051509807/23/03 05:15:31  5-MIN KSTC 231115Z AUTO 00000KT 10SM CLR 09/09 A3019 780 100 300 000/00 RMK AO2
14926KSTC STC20030723052009807/23/03 05:20:31  5-MIN KSTC 231120Z AUTO 00000KT 10SM CLR 09/09 A3019 780 100 300 000/00 RMK AO2
14926KSTC STC20030723052509807/23/03 05:25:31  5-MIN KSTC 231125Z AUTO 00000KT 10SM CLR 09/09 A3019 770 100 300 000/00 RMK AO2
14926KSTC STC20030723053009707/23/03 05:30:31  5-MIN KSTC 231130Z AUTO 00000KT 10SM CLR 10/09 A3020 770 96 400 000/00 RMK AO2
14926KSTC STC20030723053509807/23/03 05:35:31  5-MIN KSTC 231135Z AUTO 00000KT 10SM CLR 10/10 A3020 770 100 400 000/00 RMK AO2
14926KSTC STC20030723054009707/23/03 05:40:31  5-MIN KSTC 231140Z AUTO 00000KT 10SM CLR 11/10 A3019 770 96 500 000/00 RMK AO2
14926KSTC STC20030723054509707/23/03 05:45:31  5-MIN KSTC 231145Z AUTO 00000KT 10SM CLR 11/10 A3019 770 96 500 000/00 RMK AO2
14926KSTC STC20030723055013207/23/03 05:50:31  5-MIN KSTC 231150Z AUTO 00000KT 10SM CLR 11/11 A3020 770 96 500 000/00 RMK AO2 SLP233 T01110106 10122 20089 53003
14926KSTC STC20030723055509707/23/03 05:55:31  5-MIN KSTC 231155Z AUTO 00000KT 10SM CLR 11/11 A3020 770 96 500 000/00 RMK AO2
14926KSTC STC20030723060009707/23/03 06:00:31  5-MIN KSTC 231200Z AUTO 00000KT 10SM CLR 12/11 A3020 770 93 600 000/00 RMK AO2
14926KSTC STC20030723060509707/23/03 06:05:31  5-MIN KSTC 231205Z AUTO 00000KT 10SM CLR 12/11 A3020 770 96 600 000/00 RMK AO2
14926KSTC STC20030723061009707/23/03 06:10:31  5-MIN KSTC 231210Z AUTO 00000KT 10SM CLR 12/11 A3020 770 93 700 000/00 RMK AO2
14926KSTC STC20030723061509707/23/03 06:15:31  5-MIN KSTC 231215Z AUTO 00000KT 10SM CLR 12/12 A3020 770 96 700 000/00 RMK AO2
14926KSTC STC20030723062009707/23/03 06:20:31  5-MIN KSTC 231220Z AUTO 00000KT 10SM CLR 13/12 A3020 760 93 700 000/00 RMK AO2
14926KSTC STC20030723062509707/23/03 06:25:31  5-MIN KSTC 231225Z AUTO 00000KT 10SM CLR 13/12 A3020 760 93 700 000/00 RMK AO2
14926KSTC STC20030723063009707/23/03 06:30:31  5-MIN KSTC 231230Z AUTO 00000KT 10SM CLR 13/12 A3021 760 93 800 000/00 RMK AO2
14926KSTC STC20030723063509707/23/03 06:35:31  5-MIN KSTC 231235Z AUTO 00000KT 10SM CLR 13/12 A3021 760 93 800 000/00 RMK AO2
14926KSTC STC20030723064009707/23/03 06:40:31  5-MIN KSTC 231240Z AUTO 00000KT 10SM CLR 14/12 A3021 760 86 900 000/00 RMK AO2
14926KSTC STC20030723064509707/23/03 06:45:31  5-MIN KSTC 231245Z AUTO 00000KT 10SM CLR 14/12 A3021 760 86 900 000/00 RMK AO2
14926KSTC STC20030723065011507/23/03 06:50:31  5-MIN KSTC 231250Z AUTO 00000KT 10SM CLR 15/13 A3021 760 86 1000 000/00 RMK AO2 SLP236 T01500128
14926KSTC STC20030723065509807/23/03 06:55:31  5-MIN KSTC 231255Z AUTO 00000KT 10SM CLR 15/12 A3020 760 83 1000 000/00 RMK AO2
14926KSTC STC20030723070009807/23/03 07:00:31  5-MIN KSTC 231300Z AUTO 00000KT 10SM CLR 16/12 A3021 760 80 1000 000/00 RMK AO2
14926KSTC STC20030723070509807/23/03 07:05:31  5-MIN KSTC 231305Z AUTO 00000KT 10SM CLR 16/13 A3020 770 83 1000 000/00 RMK AO2
14926KSTC STC20030723071009807/23/03 07:10:31  5-MIN KSTC 231310Z AUTO 00000KT 10SM CLR 16/13 A3020 760 83 1000 000/00 RMK AO2
14926KSTC STC20030723071509807/23/03 07:15:31  5-MIN KSTC 231315Z AUTO 00000KT 10SM CLR 16/13 A3020 770 83 1100 000/00 RMK AO2
14926KSTC STC20030723072009807/23/03 07:20:31  5-MIN KSTC 231320Z AUTO 00000KT 10SM CLR 16/13 A3020 760 83 1100 000/00 RMK AO2
14926KSTC STC20030723072509807/23/03 07:25:31  5-MIN KSTC 231325Z AUTO 00000KT 10SM CLR 16/13 A3021 760 83 1100 000/00 RMK AO2
14926KSTC STC20030723073009807/23/03 07:30:31  5-MIN KSTC 231330Z AUTO 14003KT 10SM CLR 17/13 A3020 770 80 1200 140/03 RMK AO2
14926KSTC STC20030723073509807/23/03 07:35:31  5-MIN KSTC 231335Z AUTO 13003KT 10SM CLR 17/13 A3020 760 78 1200 130/03 RMK AO2
14926KSTC STC20030723074009807/23/03 07:40:31  5-MIN KSTC 231340Z AUTO 15003KT 10SM CLR 17/13 A3021 760 75 1200 150/03 RMK AO2
14926KSTC STC20030723074509807/23/03 07:45:31  5-MIN KSTC 231345Z AUTO 16004KT 10SM CLR 17/13 A3021 760 75 1200 160/04 RMK AO2
14926KSTC STC20030723075011507/23/03 07:50:31  5-MIN KSTC 231350Z AUTO 15004KT 10SM CLR 17/12 A3021 760 72 1200 150/04 RMK AO2 SLP235 T01720122
14926KSTC STC20030723075509807/23/03 07:55:31  5-MIN KSTC 231355Z AUTO 15004KT 10SM CLR 18/12 A3020 760 69 1300 150/04 RMK AO2
14926KSTC STC20030723080009807/23/03 08:00:31  5-MIN KSTC 231400Z AUTO 14004KT 10SM CLR 18/12 A3020 760 69 1300 130/04 RMK AO2
14926KSTC STC20030723080509807/23/03 08:05:31  5-MIN KSTC 231405Z AUTO 15004KT 10SM CLR 18/12 A3021 760 69 1300 150/04 RMK AO2
14926KSTC STC20030723081009807/23/03 08:10:31  5-MIN KSTC 231410Z AUTO VRB03KT 10SM CLR 18/13 A3021 760 70 1400 VRB/03 RMK AO2
14926KSTC STC20030723081509807/23/03 08:15:31  5-MIN KSTC 231415Z AUTO 13005KT 10SM CLR 19/13 A3021 760 67 1400 130/05 RMK AO2
14926KSTC STC20030723082009807/23/03 08:20:31  5-MIN KSTC 231420Z AUTO 18004KT 10SM CLR 18/12 A3020 770 67 1400 170/04 RMK AO2
14926KSTC STC20030723082509807/23/03 08:25:31  5-MIN KSTC 231425Z AUTO VRB04KT 10SM CLR 19/13 A3020 770 65 1500 VRB/04 RMK AO2
14926KSTC STC20030723083009807/23/03 08:30:31  5-MIN KSTC 231430Z AUTO VRB03KT 10SM CLR 19/12 A3020 770 62 1400 VRB/03 RMK AO2
14926KSTC STC20030723083509807/23/03 08:35:31  5-MIN KSTC 231435Z AUTO 19004KT 10SM CLR 19/12 A3020 770 65 1400 190/04 RMK AO2
14926KSTC STC20030723084009807/23/03 08:40:31  5-MIN KSTC 231440Z AUTO 16004KT 10SM CLR 20/13 A3020 770 63 1600 160/04 RMK AO2
14926KSTC STC20030723084509807/23/03 08:45:31  5-MIN KSTC 231445Z AUTO 14005KT 10SM CLR 19/12 A3020 770 62 1500 140/05 RMK AO2
14926KSTC STC20030723085012107/23/03 08:50:31  5-MIN KSTC 231450Z AUTO VRB05KT 10SM CLR 20/13 A3020 770 63 1600 VRB/05 RMK AO2 SLP233 T02000128 53009
14926KSTC STC20030723085509807/23/03 08:55:31  5-MIN KSTC 231455Z AUTO 14005KT 10SM CLR 20/13 A3020 770 63 1600 130/05 RMK AO2
14926KSTC STC20030723090009807/23/03 09:00:31  5-MIN KSTC 231500Z AUTO 19006KT 10SM CLR 20/12 A3019 770 60 1600 190/06 RMK AO2
14926KSTC STC20030723090509807/23/03 09:05:31  5-MIN KSTC 231505Z AUTO VRB03KT 10SM CLR 20/12 A3019 770 60 1600 VRB/03 RMK AO2
14926KSTC STC20030723091009807/23/03 09:10:31  5-MIN KSTC 231510Z AUTO 15005KT 10SM CLR 20/12 A3019 770 60 1600 140/05 RMK AO2
14926KSTC STC20030723091509807/23/03 09:15:31  5-MIN KSTC 231515Z AUTO VRB03KT 10SM CLR 21/12 A3019 780 58 1600 VRB/03 RMK AO2
14926KSTC STC20030723092009807/23/03 09:20:31  5-MIN KSTC 231520Z AUTO VRB04KT 10SM CLR 21/12 A3019 780 56 1600 VRB/04 RMK AO2
14926KSTC STC20030723092509807/23/03 09:25:31  5-MIN KSTC 231525Z AUTO VRB03KT 10SM CLR 21/12 A3019 770 56 1600 VRB/03 RMK AO2
14926KSTC STC20030723093009807/23/03 09:30:31  5-MIN KSTC 231530Z AUTO VRB03KT 10SM CLR 21/12 A3019 780 56 1600 VRB/03 RMK AO2
14926KSTC STC20030723093509807/23/03 09:35:31  5-MIN KSTC 231535Z AUTO VRB03KT 10SM CLR 21/12 A3019 780 54 1700 VRB/03 RMK AO2
14926KSTC STC20030723094009807/23/03 09:40:31  5-MIN KSTC 231540Z AUTO 20003KT 10SM CLR 21/12 A3019 780 56 1700 190/03 RMK AO2
14926KSTC STC20030723094509807/23/03 09:45:31  5-MIN KSTC 231545Z AUTO 22006KT 10SM CLR 21/12 A3019 780 56 1700 220/06 RMK AO2
14926KSTC STC20030723095011507/23/03 09:50:31  5-MIN KSTC 231550Z AUTO VRB04KT 10SM CLR 21/12 A3019 780 54 1700 VRB/04 RMK AO2 SLP230 T02110117
14926KSTC STC20030723095509807/23/03 09:55:31  5-MIN KSTC 231555Z AUTO VRB05KT 10SM CLR 21/11 A3019 780 52 1700 VRB/05 RMK AO2
14926KSTC STC20030723100009807/23/03 10:00:31  5-MIN KSTC 231600Z AUTO VRB04KT 10SM CLR 21/12 A3019 780 54 1700 VRB/04 RMK AO2
14926KSTC STC20030723100509807/23/03 10:05:31  5-MIN KSTC 231605Z AUTO VRB04KT 10SM CLR 21/12 A3019 780 54 1700 VRB/04 RMK AO2
14926KSTC STC20030723101009807/23/03 10:10:31  5-MIN KSTC 231610Z AUTO VRB04KT 10SM CLR 22/12 A3019 780 52 1800 VRB/04 RMK AO2
14926KSTC STC20030723101509807/23/03 10:15:31  5-MIN KSTC 231615Z AUTO VRB05KT 10SM CLR 22/12 A3019 780 52 1800 VRB/05 RMK AO2
14926KSTC STC20030723102009807/23/03 10:20:31  5-MIN KSTC 231620Z AUTO VRB03KT 10SM CLR 22/11 A3019 780 50 1800 VRB/03 RMK AO2
14926KSTC STC20030723102509807/23/03 10:25:31  5-MIN KSTC 231625Z AUTO 19005KT 10SM CLR 22/11 A3019 780 49 1800 190/05 RMK AO2
14926KSTC STC20030723103009807/23/03 10:30:31  5-MIN KSTC 231630Z AUTO 00000KT 10SM CLR 22/10 A3019 780 47 1800 000/00 RMK AO2
14926KSTC STC20030723103509807/23/03 10:35:31  5-MIN KSTC 231635Z AUTO VRB04KT 10SM CLR 22/11 A3019 780 47 1800 VRB/04 RMK AO2
14926KSTC STC20030723104009807/23/03 10:40:31  5-MIN KSTC 231640Z AUTO VRB05KT 10SM CLR 22/11 A3018 780 47 1800 VRB/05 RMK AO2
14926KSTC STC20030723104509807/23/03 10:45:31  5-MIN KSTC 231645Z AUTO 00000KT 10SM CLR 22/10 A3019 780 47 1800 000/00 RMK AO2
14926KSTC STC20030723105011507/23/03 10:50:31  5-MIN KSTC 231650Z AUTO VRB03KT 10SM CLR 22/10 A3018 780 45 1800 VRB/03 RMK AO2 SLP229 T02220100
14926KSTC STC20030723105509807/23/03 10:55:31  5-MIN KSTC 231655Z AUTO 11003KT 10SM CLR 22/11 A3018 780 47 1800 110/03 RMK AO2
14926KSTC STC20030723110009807/23/03 11:00:31  5-MIN KSTC 231700Z AUTO 19006KT 10SM CLR 23/11 A3018 790 45 1900 190/06 RMK AO2
14926KSTC STC20030723110509807/23/03 11:05:31  5-MIN KSTC 231705Z AUTO 20005KT 10SM CLR 22/11 A3018 790 47 1800 200/05 RMK AO2
14926KSTC STC20030723111009807/23/03 11:10:31  5-MIN KSTC 231710Z AUTO VRB04KT 10SM CLR 22/11 A3018 790 47 1800 VRB/04 RMK AO2
14926KSTC STC20030723111509807/23/03 11:15:31  5-MIN KSTC 231715Z AUTO 23004KT 10SM CLR 22/11 A3018 790 49 1800 230/04 RMK AO2
14926KSTC STC20030723112009807/23/03 11:20:31  5-MIN KSTC 231720Z AUTO 00000KT 10SM CLR 22/11 A3018 790 47 1900 000/00 RMK AO2
14926KSTC STC20030723112509807/23/03 11:25:31  5-MIN KSTC 231725Z AUTO 08005KT 10SM CLR 23/11 A3018 790 45 1900 080/05 RMK AO2
14926KSTC STC20030723113009807/23/03 11:30:31  5-MIN KSTC 231730Z AUTO 14005KT 10SM CLR 23/10 A3018 790 44 1900 140/05 RMK AO2
14926KSTC STC20030723113509807/23/03 11:35:31  5-MIN KSTC 231735Z AUTO 00000KT 10SM CLR 23/10 A3018 790 44 1900 000/00 RMK AO2
14926KSTC STC20030723114009807/23/03 11:40:31  5-MIN KSTC 231740Z AUTO VRB03KT 10SM CLR 23/09 A3018 790 42 1900 VRB/03 RMK AO2
14926KSTC STC20030723114509807/23/03 11:45:31  5-MIN KSTC 231745Z AUTO 00000KT 10SM CLR 23/09 A3017 790 41 2000 000/00 RMK AO2
14926KSTC STC20030723115013607/23/03 11:50:31  5-MIN KSTC 231750Z AUTO 15007KT 10SM FEW055 23/10 A3017 790 42 2000 150/07 RMK AO2 SLP225 T02330100 10233 20111 50001
14926KSTC STC20030723115510107/23/03 11:55:31  5-MIN KSTC 231755Z AUTO 00000KT 10SM FEW055 23/10 A3017 800 44 1900 000/00 RMK AO2
14926KSTC STC20030723120010107/23/03 12:00:31  5-MIN KSTC 231800Z AUTO VRB05KT 10SM FEW055 24/11 A3017 800 42 2000 VRB/05 RMK AO2
14926KSTC STC20030723120510107/23/03 12:05:31  5-MIN KSTC 231805Z AUTO VRB04KT 10SM FEW055 23/10 A3017 800 44 1900 VRB/04 RMK AO2
14926KSTC STC20030723121010107/23/03 12:10:31  5-MIN KSTC 231810Z AUTO VRB04KT 10SM FEW055 23/10 A3016 800 42 2000 VRB/04 RMK AO2
14926KSTC STC20030723121510107/23/03 12:15:31  5-MIN KSTC 231815Z AUTO 19005KT 10SM FEW055 23/10 A3016 800 42 2000 180/05 RMK AO2
14926KSTC STC20030723122009807/23/03 12:20:31  5-MIN KSTC 231820Z AUTO VRB03KT 10SM CLR 23/10 A3016 800 42 2000 VRB/03 RMK AO2
14926KSTC STC20030723122509807/23/03 12:25:31  5-MIN KSTC 231825Z AUTO 16006KT 10SM CLR 24/11 A3016 800 42 2100 150/06 RMK AO2
14926KSTC STC20030723123009807/23/03 12:30:31  5-MIN KSTC 231830Z AUTO 13005KT 10SM CLR 23/11 A3016 800 44 2000 130/05 RMK AO2
14926KSTC STC20030723123509807/23/03 12:35:31  5-MIN KSTC 231835Z AUTO VRB04KT 10SM CLR 24/11 A3016 800 42 2100 VRB/04 RMK AO2
14926KSTC STC20030723124010107/23/03 12:40:31  5-MIN KSTC 231840Z AUTO VRB04KT 10SM FEW050 24/10 A3016 810 41 2100 VRB/04 RMK AO2
14926KSTC STC20030723124510107/23/03 12:45:31  5-MIN KSTC 231845Z AUTO 07003KT 10SM SCT050 23/10 A3016 810 42 2000 060/03 RMK AO2
14926KSTC STC20030723125011807/23/03 12:50:31  5-MIN KSTC 231850Z AUTO VRB04KT 10SM SCT050 23/10 A3016 810 42 2000 VRB/04 RMK AO2 SLP220 T02330100
14926KSTC STC20030723125510107/23/03 12:55:31  5-MIN KSTC 231855Z AUTO 13007KT 10SM BKN050 23/10 A3016 810 42 2000 120/07 RMK AO2
14926KSTC STC20030723130010107/23/03 13:00:31  5-MIN KSTC 231900Z AUTO 00000KT 10SM BKN050 23/10 A3015 810 42 2000 000/00 RMK AO2
14926KSTC STC20030723130510107/23/03 13:05:31  5-MIN KSTC 231905Z AUTO VRB03KT 10SM BKN050 24/10 A3015 810 41 2100 VRB/03 RMK AO2
14926KSTC STC20030723131010107/23/03 13:10:31  5-MIN KSTC 231910Z AUTO VRB04KT 10SM SCT050 24/11 A3015 810 42 2100 VRB/04 RMK AO2
14926KSTC STC20030723131510107/23/03 13:15:31  5-MIN KSTC 231915Z AUTO 18007KT 10SM SCT050 24/11 A3015 810 44 2100 180/07 RMK AO2
14926KSTC STC20030723132010107/23/03 13:20:31  5-MIN KSTC 231920Z AUTO VRB05KT 10SM FEW050 24/11 A3015 810 42 2100 VRB/05 RMK AO2
14926KSTC STC20030723132510107/23/03 13:25:31  5-MIN KSTC 231925Z AUTO VRB04KT 10SM FEW055 24/10 A3015 810 39 2100 VRB/04 RMK AO2
14926KSTC STC20030723133009807/23/03 13:30:31  5-MIN KSTC 231930Z AUTO 18008KT 10SM CLR 24/10 A3015 820 41 2100 170/08 RMK AO2
14926KSTC STC20030723133509807/23/03 13:35:31  5-MIN KSTC 231935Z AUTO 17005KT 10SM CLR 24/10 A3015 820 39 2100 170/05 RMK AO2
14926KSTC STC20030723134009807/23/03 13:40:31  5-MIN KSTC 231940Z AUTO VRB03KT 10SM CLR 24/09 A3014 820 39 2100 VRB/03 RMK AO2
14926KSTC STC20030723134509807/23/03 13:45:31  5-MIN KSTC 231945Z AUTO VRB04KT 10SM CLR 24/09 A3014 820 38 2100 VRB/04 RMK AO2
14926KSTC STC20030723135011507/23/03 13:50:31  5-MIN KSTC 231950Z AUTO 22004KT 10SM CLR 24/10 A3014 820 39 2100 220/04 RMK AO2 SLP214 T02440100
14926KSTC STC20030723135509807/23/03 13:55:31  5-MIN KSTC 231955Z AUTO VRB06KT 10SM CLR 24/10 A3014 820 39 2100 VRB/06 RMK AO2
14926KSTC STC20030723140009807/23/03 14:00:31  5-MIN KSTC 232000Z AUTO 16006KT 10SM CLR 24/10 A3014 820 41 2100 160/06 RMK AO2
14926KSTC STC20030723140509807/23/03 14:05:31  5-MIN KSTC 232005Z AUTO 17005KT 10SM CLR 24/10 A3014 820 39 2100 160/05 RMK AO2
14926KSTC STC20030723141009807/23/03 14:10:31  5-MIN KSTC 232010Z AUTO VRB04KT 10SM CLR 24/09 A3014 820 39 2100 VRB/04 RMK AO2
14926KSTC STC20030723141509807/23/03 14:15:31  5-MIN KSTC 232015Z AUTO VRB04KT 10SM CLR 24/09 A3014 820 38 2100 VRB/04 RMK AO2
14926KSTC STC20030723142009807/23/03 14:20:31  5-MIN KSTC 232020Z AUTO VRB04KT 10SM CLR 24/09 A3014 830 38 2100 VRB/04 RMK AO2
14926KSTC STC20030723142509807/23/03 14:25:31  5-MIN KSTC 232025Z AUTO 00000KT 10SM CLR 25/09 A3014 820 37 2200 000/00 RMK AO2
14926KSTC STC20030723143009807/23/03 14:30:31  5-MIN KSTC 232030Z AUTO VRB03KT 10SM CLR 25/09 A3014 830 35 2200 VRB/03 RMK AO2
14926KSTC STC20030723143509807/23/03 14:35:31  5-MIN KSTC 232035Z AUTO VRB04KT 10SM CLR 25/09 A3014 820 37 2200 VRB/04 RMK AO2
14926KSTC STC20030723144009807/23/03 14:40:31  5-MIN KSTC 232040Z AUTO VRB03KT 10SM CLR 24/09 A3014 820 38 2100 VRB/03 RMK AO2
14926KSTC STC20030723144510107/23/03 14:45:31  5-MIN KSTC 232045Z AUTO VRB03KT 10SM FEW070 25/09 A3014 830 37 2200 VRB/03 RMK AO2
14926KSTC STC20030723145012407/23/03 14:50:31  5-MIN KSTC 232050Z AUTO 00000KT 10SM SCT070 25/09 A3014 830 37 2200 000/00 RMK AO2 SLP212 T02500094 58009
14926KSTC STC20030723145510107/23/03 14:55:31  5-MIN KSTC 232055Z AUTO VRB06KT 10SM SCT070 26/09 A3013 830 35 2300 VRB/06 RMK AO2
14926KSTC STC20030723150010107/23/03 15:00:31  5-MIN KSTC 232100Z AUTO VRB04KT 10SM BKN065 25/09 A3013 830 37 2200 VRB/04 RMK AO2
14926KSTC STC20030723150510107/23/03 15:05:31  5-MIN KSTC 232105Z AUTO 15007KT 10SM BKN065 25/09 A3013 830 37 2200 140/07 RMK AO2
14926KSTC STC20030723151010107/23/03 15:10:31  5-MIN KSTC 232110Z AUTO VRB05KT 10SM BKN070 25/09 A3013 830 37 2200 VRB/05 RMK AO2
14926KSTC STC20030723151510107/23/03 15:15:31  5-MIN KSTC 232115Z AUTO 11005KT 10SM OVC070 24/09 A3013 830 38 2200 110/05 RMK AO2
14926KSTC STC20030723152010107/23/03 15:20:31  5-MIN KSTC 232120Z AUTO 09005KT 10SM OVC065 24/10 A3013 830 39 2200 090/05 RMK AO2
14926KSTC STC20030723152510107/23/03 15:25:31  5-MIN KSTC 232125Z AUTO 12005KT 10SM OVC070 24/10 A3013 830 39 2200 110/05 RMK AO2
14926KSTC STC20030723153010107/23/03 15:30:31  5-MIN KSTC 232130Z AUTO 11006KT 10SM BKN070 24/09 A3013 840 38 2200 110/06 RMK AO2
14926KSTC STC20030723153510107/23/03 15:35:31  5-MIN KSTC 232135Z AUTO VRB05KT 10SM BKN070 24/09 A3013 840 38 2200 VRB/05 RMK AO2
14926KSTC STC20030723154010107/23/03 15:40:31  5-MIN KSTC 232140Z AUTO 06003KT 10SM SCT070 24/09 A3013 840 38 2200 060/03 RMK AO2
14926KSTC STC20030723154510107/23/03 15:45:31  5-MIN KSTC 232145Z AUTO VRB05KT 10SM SCT070 24/09 A3012 840 39 2100 VRB/05 RMK AO2
14926KSTC STC20030723155011807/23/03 15:50:31  5-MIN KSTC 232150Z AUTO VRB04KT 10SM FEW070 24/09 A3012 840 39 2100 VRB/04 RMK AO2 SLP207 T02390094
14926KSTC STC20030723155510107/23/03 15:55:31  5-MIN KSTC 232155Z AUTO VRB04KT 10SM FEW070 24/09 A3012 840 38 2200 VRB/04 RMK AO2
14926KSTC STC20030723160009807/23/03 16:00:31  5-MIN KSTC 232200Z AUTO 00000KT 10SM CLR 24/09 A3012 840 36 2200 000/00 RMK AO2
14926KSTC STC20030723160509807/23/03 16:05:31  5-MIN KSTC 232205Z AUTO VRB06KT 10SM CLR 24/09 A3012 840 38 2200 VRB/06 RMK AO2
14926KSTC STC20030723161009807/23/03 16:10:31  5-MIN KSTC 232210Z AUTO VRB06KT 10SM CLR 25/10 A3012 850 38 2200 VRB/06 RMK AO2
14926KSTC STC20030723161510107/23/03 16:15:31  5-MIN KSTC 232215Z AUTO 13006KT 10SM FEW065 25/09 A3012 850 37 2200 120/06 RMK AO2
14926KSTC STC20030723162010107/23/03 16:20:31  5-MIN KSTC 232220Z AUTO 12005KT 10SM FEW065 25/09 A3012 850 37 2200 120/05 RMK AO2
14926KSTC STC20030723162510107/23/03 16:25:31  5-MIN KSTC 232225Z AUTO VRB05KT 10SM FEW065 26/09 A3011 850 35 2300 VRB/05 RMK AO2
14926KSTC STC20030723163010107/23/03 16:30:31  5-MIN KSTC 232230Z AUTO 11005KT 10SM FEW065 25/09 A3011 850 37 2200 110/05 RMK AO2
14926KSTC STC20030723163510107/23/03 16:35:31  5-MIN KSTC 232235Z AUTO 13005KT 10SM FEW065 24/09 A3011 850 38 2200 130/05 RMK AO2
14926KSTC STC20030723164010107/23/03 16:40:31  5-MIN KSTC 232240Z AUTO 12004KT 10SM FEW065 24/09 A3011 850 38 2200 120/04 RMK AO2
14926KSTC STC20030723164509807/23/03 16:45:31  5-MIN KSTC 232245Z AUTO 19003KT 10SM CLR 24/09 A3011 850 38 2200 180/03 RMK AO2
14926KSTC STC20030723165011507/23/03 16:50:31  5-MIN KSTC 232250Z AUTO VRB03KT 10SM CLR 24/09 A3011 850 36 2200 VRB/03 RMK AO2 SLP202 T02440089
14926KSTC STC20030723165511407/23/03 16:55:31  5-MIN KSTC 232255Z AUTO 16008KT 130V190 10SM CLR 24/09 A3011 850 38 2200 160/08 130V190 RMK AO2
14926KSTC STC20030723170009807/23/03 17:00:31  5-MIN KSTC 232300Z AUTO 19008KT 10SM CLR 24/09 A3011 860 38 2200 190/08 RMK AO2
14926KSTC STC20030723170509807/23/03 17:05:31  5-MIN KSTC 232305Z AUTO 19005KT 10SM CLR 24/09 A3011 860 38 2200 190/05 RMK AO2
14926KSTC STC20030723171009807/23/03 17:10:31  5-MIN KSTC 232310Z AUTO 21005KT 10SM CLR 24/09 A3010 860 38 2200 200/05 RMK AO2
14926KSTC STC20030723171509807/23/03 17:15:31  5-MIN KSTC 232315Z AUTO 18006KT 10SM CLR 24/09 A3010 860 38 2200 180/06 RMK AO2
14926KSTC STC20030723172009807/23/03 17:20:31  5-MIN KSTC 232320Z AUTO 16004KT 10SM CLR 24/09 A3010 860 36 2200 160/04 RMK AO2
14926KSTC STC20030723172509807/23/03 17:25:31  5-MIN KSTC 232325Z AUTO 21005KT 10SM CLR 24/09 A3010 860 38 2200 210/05 RMK AO2
14926KSTC STC20030723173009807/23/03 17:30:31  5-MIN KSTC 232330Z AUTO 19006KT 10SM CLR 24/09 A3009 870 38 2200 180/06 RMK AO2
14926KSTC STC20030723173509807/23/03 17:35:31  5-MIN KSTC 232335Z AUTO 19005KT 10SM CLR 24/09 A3009 870 39 2100 180/05 RMK AO2
14926KSTC STC20030723174009807/23/03 17:40:31  5-MIN KSTC 232340Z AUTO 18005KT 10SM CLR 24/09 A3009 870 39 2100 180/05 RMK AO2
14926KSTC STC20030723174509807/23/03 17:45:31  5-MIN KSTC 232345Z AUTO 22005KT 10SM CLR 24/10 A3009 870 41 2100 220/05 RMK AO2
14926KSTC STC20030723175013307/23/03 17:50:31  5-MIN KSTC 232350Z AUTO 18006KT 10SM CLR 24/10 A3009 870 41 2100 180/06 RMK AO2 SLP198 T02390100 10256 20228 56012
14926KSTC STC20030723175509807/23/03 17:55:31  5-MIN KSTC 232355Z AUTO 18005KT 10SM CLR 24/10 A3009 870 41 2100 180/05 RMK AO2
14926KSTC STC20030723180009807/23/03 18:00:31  5-MIN KSTC 240000Z AUTO 18005KT 10SM CLR 24/10 A3009 870 41 2100 180/05 RMK AO2
14926KSTC STC20030723180509807/23/03 18:05:31  5-MIN KSTC 240005Z AUTO 20005KT 10SM CLR 24/10 A3009 870 41 2100 190/05 RMK AO2
14926KSTC STC20030723181009807/23/03 18:10:31  5-MIN KSTC 240010Z AUTO 19006KT 10SM CLR 24/10 A3009 870 41 2100 190/06 RMK AO2
14926KSTC STC20030723181509807/23/03 18:15:31  5-MIN KSTC 240015Z AUTO 19005KT 10SM CLR 23/10 A3009 870 42 2100 190/05 RMK AO2
14926KSTC STC20030723182009807/23/03 18:20:31  5-MIN KSTC 240020Z AUTO 18005KT 10SM CLR 23/11 A3009 870 44 2100 180/05 RMK AO2
14926KSTC STC20030723182509807/23/03 18:25:31  5-MIN KSTC 240025Z AUTO 18006KT 10SM CLR 23/11 A3009 870 45 2100 180/06 RMK AO2
14926KSTC STC20030723183009807/23/03 18:30:31  5-MIN KSTC 240030Z AUTO 18006KT 10SM CLR 23/11 A3009 870 44 2100 180/06 RMK AO2
14926KSTC STC20030723183509807/23/03 18:35:31  5-MIN KSTC 240035Z AUTO 19004KT 10SM CLR 23/11 A3009 870 45 2100 180/04 RMK AO2
14926KSTC STC20030723184009807/23/03 18:40:31  5-MIN KSTC 240040Z AUTO 20004KT 10SM CLR 23/12 A3009 870 49 2000 200/04 RMK AO2
14926KSTC STC20030723184509807/23/03 18:45:31  5-MIN KSTC 240045Z AUTO 20004KT 10SM CLR 23/13 A3009 870 53 2000 200/04 RMK AO2
14926KSTC STC20030723185011507/23/03 18:50:31  5-MIN KSTC 240050Z AUTO 21004KT 10SM CLR 23/13 A3009 870 53 2000 210/04 RMK AO2 SLP197 T02280128
14926KSTC STC20030723185509807/23/03 18:55:31  5-MIN KSTC 240055Z AUTO 21004KT 10SM CLR 22/12 A3009 870 52 1900 210/04 RMK AO2
14926KSTC STC20030723190009807/23/03 19:00:31  5-MIN KSTC 240100Z AUTO 19004KT 10SM CLR 22/13 A3009 870 54 1900 190/04 RMK AO2
14926KSTC STC20030723190509807/23/03 19:05:31  5-MIN KSTC 240105Z AUTO 19004KT 10SM CLR 22/13 A3009 870 56 1900 190/04 RMK AO2
14926KSTC STC20030723191009807/23/03 19:10:31  5-MIN KSTC 240110Z AUTO 19004KT 10SM CLR 22/13 A3009 870 56 1900 190/04 RMK AO2
14926KSTC STC20030723191509807/23/03 19:15:31  5-MIN KSTC 240115Z AUTO 19003KT 10SM CLR 21/13 A3009 870 58 1800 190/03 RMK AO2
14926KSTC STC20030723192009807/23/03 19:20:31  5-MIN KSTC 240120Z AUTO 19003KT 10SM CLR 21/13 A3009 870 58 1800 180/03 RMK AO2
14926KSTC STC20030723192509807/23/03 19:25:31  5-MIN KSTC 240125Z AUTO 18004KT 10SM CLR 21/13 A3009 870 60 1800 180/04 RMK AO2
14926KSTC STC20030723193009807/23/03 19:30:31  5-MIN KSTC 240130Z AUTO 18004KT 10SM CLR 19/14 A3008 870 70 1600 180/04 RMK AO2
14926KSTC STC20030723193509807/23/03 19:35:31  5-MIN KSTC 240135Z AUTO 17003KT 10SM CLR 19/14 A3008 880 70 1600 170/03 RMK AO2
14926KSTC STC20030723194009807/23/03 19:40:31  5-MIN KSTC 240140Z AUTO 17003KT 10SM CLR 19/14 A3009 870 70 1600 170/03 RMK AO2
14926KSTC STC20030723194509807/23/03 19:45:31  5-MIN KSTC 240145Z AUTO 18003KT 10SM CLR 19/13 A3009 870 67 1600 170/03 RMK AO2
14926KSTC STC20030723195011507/23/03 19:50:31  5-MIN KSTC 240150Z AUTO 00000KT 10SM CLR 19/13 A3009 870 70 1600 000/00 RMK AO2 SLP195 T01890133
14926KSTC STC20030723195509807/23/03 19:55:31  5-MIN KSTC 240155Z AUTO 00000KT 10SM CLR 18/13 A3009 870 72 1500 000/00 RMK AO2
14926KSTC STC20030723200009807/23/03 20:00:31  5-MIN KSTC 240200Z AUTO 00000KT 10SM CLR 18/14 A3009 870 75 1500 000/00 RMK AO2
14926KSTC STC20030723200509807/23/03 20:05:31  5-MIN KSTC 240205Z AUTO 00000KT 10SM CLR 18/13 A3009 870 72 1500 000/00 RMK AO2
14926KSTC STC20030723201009807/23/03 20:10:31  5-MIN KSTC 240210Z AUTO 18003KT 10SM CLR 18/13 A3009 870 70 1500 180/03 RMK AO2
14926KSTC STC20030723201509807/23/03 20:15:31  5-MIN KSTC 240215Z AUTO 00000KT 10SM CLR 18/13 A3009 870 72 1400 000/00 RMK AO2
14926KSTC STC20030723202009807/23/03 20:20:31  5-MIN KSTC 240220Z AUTO 18003KT 10SM CLR 17/13 A3009 870 75 1400 170/03 RMK AO2
14926KSTC STC20030723202509807/23/03 20:25:31  5-MIN KSTC 240225Z AUTO 18003KT 10SM CLR 17/13 A3008 880 75 1400 180/03 RMK AO2
14926KSTC STC20030723203009807/23/03 20:30:31  5-MIN KSTC 240230Z AUTO 18003KT 10SM CLR 17/12 A3009 870 72 1400 180/03 RMK AO2
14926KSTC STC20030723203509807/23/03 20:35:31  5-MIN KSTC 240235Z AUTO 18003KT 10SM CLR 17/12 A3009 870 75 1300 180/03 RMK AO2
14926KSTC STC20030723204009807/23/03 20:40:31  5-MIN KSTC 240240Z AUTO 00000KT 10SM CLR 17/13 A3009 870 77 1300 000/00 RMK AO2
14926KSTC STC20030723204509807/23/03 20:45:31  5-MIN KSTC 240245Z AUTO 00000KT 10SM CLR 17/13 A3008 870 78 1400 000/00 RMK AO2
14926KSTC STC20030723205012107/23/03 20:50:31  5-MIN KSTC 240250Z AUTO 00000KT 10SM CLR 17/13 A3009 870 80 1300 000/00 RMK AO2 SLP194 T01670133 56014
14926KSTC STC20030723205509807/23/03 20:55:31  5-MIN KSTC 240255Z AUTO 18003KT 10SM CLR 16/13 A3009 870 80 1200 180/03 RMK AO2
14926KSTC STC20030723210009807/23/03 21:00:31  5-MIN KSTC 240300Z AUTO 00000KT 10SM CLR 16/12 A3009 870 77 1200 000/00 RMK AO2
14926KSTC STC20030723210509807/23/03 21:05:31  5-MIN KSTC 240305Z AUTO 00000KT 10SM CLR 16/12 A3009 870 77 1200 000/00 RMK AO2
14926KSTC STC20030723211009807/23/03 21:10:31  5-MIN KSTC 240310Z AUTO 00000KT 10SM CLR 16/13 A3009 870 80 1200 000/00 RMK AO2
14926KSTC STC20030723211509807/23/03 21:15:31  5-MIN KSTC 240315Z AUTO 00000KT 10SM CLR 17/13 A3009 870 77 1300 000/00 RMK AO2
14926KSTC STC20030723212009807/23/03 21:20:31  5-MIN KSTC 240320Z AUTO 00000KT 10SM CLR 16/12 A3009 870 77 1200 000/00 RMK AO2
14926KSTC STC20030723212509807/23/03 21:25:31  5-MIN KSTC 240325Z AUTO 00000KT 10SM CLR 16/12 A3009 870 80 1200 000/00 RMK AO2
14926KSTC STC20030723213009807/23/03 21:30:31  5-MIN KSTC 240330Z AUTO 00000KT 10SM CLR 15/13 A3009 870 86 1100 000/00 RMK AO2
14926KSTC STC20030723213509807/23/03 21:35:31  5-MIN KSTC 240335Z AUTO 00000KT 10SM CLR 15/12 A3008 880 83 1100 000/00 RMK AO2
14926KSTC STC20030723214009807/23/03 21:40:31  5-MIN KSTC 240340Z AUTO 00000KT 10SM CLR 15/13 A3008 880 86 1100 000/00 RMK AO2
14926KSTC STC20030723214509807/23/03 21:45:31  5-MIN KSTC 240345Z AUTO 00000KT 10SM CLR 15/13 A3008 880 86 1100 000/00 RMK AO2
14926KSTC STC20030723215011507/23/03 21:50:31  5-MIN KSTC 240350Z AUTO 00000KT 10SM CLR 14/13 A3008 880 90 1100 000/00 RMK AO2 SLP193 T01440128
14926KSTC STC20030723215509807/23/03 21:55:31  5-MIN KSTC 240355Z AUTO 00000KT 10SM CLR 14/13 A3008 880 90 1100 000/00 RMK AO2
14926KSTC STC20030723220009807/23/03 22:00:31  5-MIN KSTC 240400Z AUTO 16003KT 10SM CLR 14/12 A3007 880 90 1000 160/03 RMK AO2
14926KSTC STC20030723220509807/23/03 22:05:31  5-MIN KSTC 240405Z AUTO 15003KT 10SM CLR 14/12 A3007 890 90 1000 150/03 RMK AO2
14926KSTC STC20030723221009707/23/03 22:10:31  5-MIN KSTC 240410Z AUTO 16003KT 10SM CLR 13/12 A3007 890 89 900 160/03 RMK AO2
14926KSTC STC20030723221509807/23/03 22:15:31  5-MIN KSTC 240415Z AUTO 16003KT 10SM CLR 14/12 A3007 890 90 1000 160/03 RMK AO2
14926KSTC STC20030723222009807/23/03 22:20:31  5-MIN KSTC 240420Z AUTO 16003KT 10SM CLR 15/12 A3007 890 83 1100 150/03 RMK AO2
14926KSTC STC20030723222509807/23/03 22:25:31  5-MIN KSTC 240425Z AUTO 16003KT 10SM CLR 14/12 A3007 890 86 1100 160/03 RMK AO2
14926KSTC STC20030723223009707/23/03 22:30:31  5-MIN KSTC 240430Z AUTO 15003KT 10SM CLR 13/12 A3007 890 89 900 150/03 RMK AO2
14926KSTC STC20030723223509707/23/03 22:35:31  5-MIN KSTC 240435Z AUTO 00000KT 10SM CLR 13/12 A3007 890 89 900 000/00 RMK AO2
14926KSTC STC20030723224009707/23/03 22:40:31  5-MIN KSTC 240440Z AUTO 00000KT 10SM CLR 13/12 A3007 890 89 900 000/00 RMK AO2
14926KSTC STC20030723224509807/23/03 22:45:31  5-MIN KSTC 240445Z AUTO 00000KT 10SM CLR 14/12 A3007 890 90 1000 000/00 RMK AO2
14926KSTC STC20030723225011507/23/03 22:50:31  5-MIN KSTC 240450Z AUTO 00000KT 10SM CLR 14/12 A3007 890 90 1000 000/00 RMK AO2 SLP189 T01390122
14926KSTC STC20030723225509707/23/03 22:55:31  5-MIN KSTC 240455Z AUTO 00000KT 10SM CLR 13/12 A3007 890 93 900 000/00 RMK AO2
14926KSTC STC20030723230009707/23/03 23:00:31  5-MIN KSTC 240500Z AUTO 00000KT 10SM CLR 13/12 A3007 890 93 900 000/00 RMK AO2
14926KSTC STC20030723230509707/23/03 23:05:31  5-MIN KSTC 240505Z AUTO 00000KT 10SM CLR 13/12 A3007 890 93 900 000/00 RMK AO2
14926KSTC STC20030723231009707/23/03 23:10:31  5-MIN KSTC 240510Z AUTO 00000KT 10SM CLR 13/12 A3007 890 93 900 000/00 RMK AO2
14926KSTC STC20030723231509707/23/03 23:15:31  5-MIN KSTC 240515Z AUTO 00000KT 10SM CLR 13/12 A3007 890 96 900 000/00 RMK AO2
14926KSTC STC20030723232009707/23/03 23:20:31  5-MIN KSTC 240520Z AUTO 00000KT 10SM CLR 13/12 A3007 890 96 900 000/00 RMK AO2
14926KSTC STC20030723232509707/23/03 23:25:31  5-MIN KSTC 240525Z AUTO 00000KT 10SM CLR 13/12 A3007 890 96 900 000/00 RMK AO2
14926KSTC STC20030723233009707/23/03 23:30:31  5-MIN KSTC 240530Z AUTO 00000KT 10SM CLR 13/12 A3007 890 96 900 000/00 RMK AO2
14926KSTC STC20030723233509707/23/03 23:35:31  5-MIN KSTC 240535Z AUTO 00000KT 10SM CLR 13/12 A3007 890 96 900 000/00 RMK AO2
14926KSTC STC20030723234009707/23/03 23:40:31  5-MIN KSTC 240540Z AUTO 00000KT 10SM CLR 12/11 A3007 890 93 800 000/00 RMK AO2
14926KSTC STC20030723234509707/23/03 23:45:31  5-MIN KSTC 240545Z AUTO 00000KT 10SM CLR 12/12 A3007 890 96 800 000/00 RMK AO2
14926KSTC STC20030723235014207/23/03 23:50:31  5-MIN KSTC 240550Z AUTO 00000KT 10SM CLR 13/12 A3007 890 96 900 000/00 RMK AO2 SLP189 T01280122 10239 20122 402560089 58002
14926KSTC STC20030723235509807/23/03 23:55:31  5-MIN KSTC 240555Z AUTO 00000KT 10SM CLR 12/12 A3007 890 100 800 000/00 RMK AO2
14926KSTC STC20030724000009707/24/03 00:00:31  5-MIN KSTC 240600Z AUTO 00000KT 10SM CLR 12/12 A3007 890 96 800 000/00 RMK AO2
14926KSTC STC20030724000509707/24/03 00:05:31  5-MIN KSTC 240605Z AUTO 00000KT 10SM CLR 13/12 A3007 890 93 900 000/00 RMK AO2
14926KSTC STC20030724001009707/24/03 00:10:31  5-MIN KSTC 240610Z AUTO 00000KT 10SM CLR 12/12 A3007 890 96 800 000/00 RMK AO2
14926KSTC STC20030724001509707/24/03 00:15:31  5-MIN KSTC 240615Z AUTO 00000KT 10SM CLR 12/12 A3006 890 96 800 000/00 RMK AO2
14926KSTC STC20030724002009707/24/03 00:20:31  5-MIN KSTC 240620Z AUTO 00000KT 10SM CLR 12/12 A3006 890 96 800 000/00 RMK AO2
14926KSTC STC20030724002509807/24/03 00:25:31  5-MIN KSTC 240625Z AUTO 00000KT 10SM CLR 12/12 A3006 890 100 700 000/00 RMK AO2
14926KSTC STC20030724003009807/24/03 00:30:31  5-MIN KSTC 240630Z AUTO 00000KT 10SM CLR 12/12 A3006 900 100 700 000/00 RMK AO2
14926KSTC STC20030724003509807/24/03 00:35:31  5-MIN KSTC 240635Z AUTO 00000KT 10SM CLR 12/12 A3006 900 100 800 000/00 RMK AO2
14926KSTC STC20030724004009807/24/03 00:40:31  5-MIN KSTC 240640Z AUTO 00000KT 10SM CLR 12/12 A3006 900 100 800 000/00 RMK AO2
14926KSTC STC20030724004509707/24/03 00:45:31  5-MIN KSTC 240645Z AUTO 00000KT 10SM CLR 12/12 A3006 900 96 800 000/00 RMK AO2
14926KSTC STC20030724005011407/24/03 00:50:31  5-MIN KSTC 240650Z AUTO 00000KT 10SM CLR 12/12 A3006 900 96 800 000/00 RMK AO2 SLP186 T01220117
14926KSTC STC20030724005509707/24/03 00:55:31  5-MIN KSTC 240655Z AUTO 00000KT 10SM CLR 12/12 A3006 900 96 800 000/00 RMK AO2
14926KSTC STC20030724010009707/24/03 01:00:31  5-MIN KSTC 240700Z AUTO 00000KT 10SM CLR 12/12 A3006 900 96 800 000/00 RMK AO2
14926KSTC STC20030724010509707/24/03 01:05:31  5-MIN KSTC 240705Z AUTO 00000KT 10SM CLR 12/12 A3006 900 96 800 000/00 RMK AO2
14926KSTC STC20030724011009707/24/03 01:10:31  5-MIN KSTC 240710Z AUTO 00000KT 10SM CLR 12/11 A3005 900 96 800 000/00 RMK AO2
14926KSTC STC20030724011509707/24/03 01:15:31  5-MIN KSTC 240715Z AUTO 00000KT 10SM CLR 11/11 A3005 900 96 700 000/00 RMK AO2
14926KSTC STC20030724012009807/24/03 01:20:31  5-MIN KSTC 240720Z AUTO 00000KT 10SM CLR 11/11 A3005 910 100 700 000/00 RMK AO2
14926KSTC STC20030724012509707/24/03 01:25:31  5-MIN KSTC 240725Z AUTO 00000KT 10SM CLR 12/11 A3005 910 96 800 000/00 RMK AO2
14926KSTC STC20030724013009707/24/03 01:30:31  5-MIN KSTC 240730Z AUTO 00000KT 10SM CLR 12/11 A3005 910 96 800 000/00 RMK AO2
14926KSTC STC20030724013509807/24/03 01:35:31  5-MIN KSTC 240735Z AUTO 15003KT 10SM CLR 11/11 A3005 910 100 700 150/03 RMK AO2
14926KSTC STC20030724014009807/24/03 01:40:31  5-MIN KSTC 240740Z AUTO 15004KT 10SM CLR 11/11 A3004 910 100 700 140/04 RMK AO2
14926KSTC STC20030724014509807/24/03 01:45:31  5-MIN KSTC 240745Z AUTO 14004KT 10SM CLR 11/11 A3005 910 100 600 140/04 RMK AO2
14926KSTC STC20030724015011507/24/03 01:50:31  5-MIN KSTC 240750Z AUTO 14003KT 10SM CLR 11/11 A3005 910 100 600 140/03 RMK AO2 SLP181 T01060106
14926KSTC STC20030724015509807/24/03 01:55:31  5-MIN KSTC 240755Z AUTO 14003KT 10SM CLR 11/11 A3005 910 100 600 140/03 RMK AO2
14926KSTC STC20030724020009707/24/03 02:00:31  5-MIN KSTC 240800Z AUTO 00000KT 10SM CLR 11/11 A3004 910 96 700 000/00 RMK AO2
14926KSTC STC20030724020509807/24/03 02:05:31  5-MIN KSTC 240805Z AUTO 00000KT 10SM CLR 11/11 A3004 910 100 600 000/00 RMK AO2
14926KSTC STC20030724021009807/24/03 02:10:31  5-MIN KSTC 240810Z AUTO 00000KT 10SM CLR 11/11 A3004 910 100 600 000/00 RMK AO2
14926KSTC STC20030724021509807/24/03 02:15:31  5-MIN KSTC 240815Z AUTO 00000KT 10SM CLR 11/11 A3004 910 100 600 000/00 RMK AO2
14926KSTC STC20030724022009807/24/03 02:20:31  5-MIN KSTC 240820Z AUTO 00000KT 10SM CLR 11/11 A3004 910 100 600 000/00 RMK AO2
14926KSTC STC20030724022509807/24/03 02:25:31  5-MIN KSTC 240825Z AUTO 00000KT 10SM CLR 11/11 A3004 910 100 600 000/00 RMK AO2
14926KSTC STC20030724023009807/24/03 02:30:31  5-MIN KSTC 240830Z AUTO 00000KT 10SM CLR 11/11 A3004 910 100 700 000/00 RMK AO2
14926KSTC STC20030724023509807/24/03 02:35:31  5-MIN KSTC 240835Z AUTO 00000KT 10SM CLR 11/11 A3004 910 100 700 000/00 RMK AO2
14926KSTC STC20030724024009707/24/03 02:40:31  5-MIN KSTC 240840Z AUTO 00000KT 10SM CLR 11/11 A3004 910 96 700 000/00 RMK AO2
14926KSTC STC20030724024509807/24/03 02:45:31  5-MIN KSTC 240845Z AUTO 00000KT 10SM CLR 11/11 A3004 910 100 700 000/00 RMK AO2
14926KSTC STC20030724025012107/24/03 02:50:31  5-MIN KSTC 240850Z AUTO 00000KT 10SM CLR 11/11 A3005 910 100 700 000/00 RMK AO2 SLP181 T01110111 56005
14926KSTC STC20030724025509807/24/03 02:55:31  5-MIN KSTC 240855Z AUTO 00000KT 10SM CLR 11/11 A3005 910 100 700 000/00 RMK AO2
14926KSTC STC20030724030009807/24/03 03:00:31  5-MIN KSTC 240900Z AUTO 00000KT 10SM CLR 11/11 A3005 910 100 700 000/00 RMK AO2
14926KSTC STC20030724030509707/24/03 03:05:31  5-MIN KSTC 240905Z AUTO 00000KT 9SM CLR 11/11 A3005 910 100 700 000/00 RMK AO2
14926KSTC STC20030724031009707/24/03 03:10:31  5-MIN KSTC 240910Z AUTO 00000KT 9SM CLR 11/11 A3005 910 100 700 000/00 RMK AO2
14926KSTC STC20030724031509807/24/03 03:15:31  5-MIN KSTC 240915Z AUTO 00000KT 10SM CLR 11/11 A3005 910 100 700 000/00 RMK AO2
14926KSTC STC20030724032009807/24/03 03:20:31  5-MIN KSTC 240920Z AUTO 00000KT 10SM CLR 11/11 A3005 910 100 700 000/00 RMK AO2
14926KSTC STC20030724032509807/24/03 03:25:31  5-MIN KSTC 240925Z AUTO 00000KT 10SM CLR 11/11 A3005 910 100 700 000/00 RMK AO2
14926KSTC STC20030724033009807/24/03 03:30:31  5-MIN KSTC 240930Z AUTO 00000KT 10SM CLR 11/11 A3005 910 100 600 000/00 RMK AO2
14926KSTC STC20030724033509807/24/03 03:35:31  5-MIN KSTC 240935Z AUTO 00000KT 10SM CLR 11/11 A3005 910 100 700 000/00 RMK AO2
14926KSTC STC20030724034009707/24/03 03:40:31  5-MIN KSTC 240940Z AUTO 00000KT 10SM CLR 11/11 A3005 900 96 700 000/00 RMK AO2
14926KSTC STC20030724034509807/24/03 03:45:31  5-MIN KSTC 240945Z AUTO 00000KT 10SM CLR 11/11 A3005 910 100 700 000/00 RMK AO2
14926KSTC STC20030724035011507/24/03 03:50:31  5-MIN KSTC 240950Z AUTO 00000KT 10SM CLR 11/11 A3005 900 100 600 000/00 RMK AO2 SLP184 T01060106
14926KSTC STC20030724035509707/24/03 03:55:31  5-MIN KSTC 240955Z AUTO 00000KT 10SM CLR 11/11 A3005 900 96 700 000/00 RMK AO2
14926KSTC STC20030724040009707/24/03 04:00:31  5-MIN KSTC 241000Z AUTO 00000KT 10SM CLR 11/10 A3005 900 96 600 000/00 RMK AO2
14926KSTC STC20030724040509807/24/03 04:05:31  5-MIN KSTC 241005Z AUTO 00000KT 10SM CLR 10/10 A3006 900 100 600 000/00 RMK AO2
14926KSTC STC20030724041009707/24/03 04:10:31  5-MIN KSTC 241010Z AUTO 00000KT 10SM CLR 11/09 A3006 900 93 600 000/00 RMK AO2
14926KSTC STC20030724041509807/24/03 04:15:31  5-MIN KSTC 241015Z AUTO 00000KT 10SM CLR 11/11 A3006 900 100 600 000/00 RMK AO2
14926KSTC STC20030724042009707/24/03 04:20:31  5-MIN KSTC 241020Z AUTO 00000KT 10SM CLR 11/10 A3006 900 96 600 000/00 RMK AO2
14926KSTC STC20030724042509707/24/03 04:25:31  5-MIN KSTC 241025Z AUTO 00000KT 10SM CLR 11/10 A3006 900 96 600 000/00 RMK AO2
14926KSTC STC20030724043009807/24/03 04:30:31  5-MIN KSTC 241030Z AUTO 00000KT 10SM CLR 11/11 A3006 900 100 600 000/00 RMK AO2
14926KSTC STC20030724043509707/24/03 04:35:31  5-MIN KSTC 241035Z AUTO 00000KT 10SM CLR 11/11 A3006 900 96 700 000/00 RMK AO2
14926KSTC STC20030724044009707/24/03 04:40:31  5-MIN KSTC 241040Z AUTO 00000KT 10SM CLR 11/10 A3006 900 96 600 000/00 RMK AO2
14926KSTC STC20030724044509707/24/03 04:45:31  5-MIN KSTC 241045Z AUTO 00000KT 10SM CLR 11/10 A3006 900 96 600 000/00 RMK AO2
14926KSTC STC20030724045011407/24/03 04:50:31  5-MIN KSTC 241050Z AUTO 00000KT 10SM CLR 11/10 A3006 900 96 600 000/00 RMK AO2 SLP185 T01060100
14926KSTC STC20030724045509707/24/03 04:55:31  5-MIN KSTC 241055Z AUTO 00000KT 10SM CLR 11/10 A3006 900 96 600 000/00 RMK AO2
14926KSTC STC20030724050009807/24/03 05:00:31  5-MIN KSTC 241100Z AUTO 00000KT 10SM CLR 11/11 A3006 900 100 600 000/00 RMK AO2
14926KSTC STC20030724050509707/24/03 05:05:31  5-MIN KSTC 241105Z AUTO 00000KT 10SM CLR 11/10 A3005 900 96 600 000/00 RMK AO2
14926KSTC STC20030724051009707/24/03 05:10:31  5-MIN KSTC 241110Z AUTO 00000KT 10SM CLR 11/11 A3005 900 96 700 000/00 RMK AO2
14926KSTC STC20030724051509707/24/03 05:15:31  5-MIN KSTC 241115Z AUTO 00000KT 10SM CLR 12/11 A3005 900 96 800 000/00 RMK AO2
14926KSTC STC20030724052009707/24/03 05:20:31  5-MIN KSTC 241120Z AUTO 13003KT 10SM CLR 12/11 A3005 900 96 800 130/03 RMK AO2
14926KSTC STC20030724052509707/24/03 05:25:31  5-MIN KSTC 241125Z AUTO 14003KT 10SM CLR 12/11 A3005 900 96 800 140/03 RMK AO2
14926KSTC STC20030724053009707/24/03 05:30:31  5-MIN KSTC 241130Z AUTO 00000KT 10SM CLR 12/11 A3005 900 93 800 000/00 RMK AO2
14926KSTC STC20030724053509707/24/03 05:35:31  5-MIN KSTC 241135Z AUTO 00000KT 10SM CLR 12/12 A3005 900 96 800 000/00 RMK AO2
14926KSTC STC20030724054009707/24/03 05:40:31  5-MIN KSTC 241140Z AUTO 00000KT 10SM CLR 13/12 A3005 910 93 900 000/00 RMK AO2
14926KSTC STC20030724054509807/24/03 05:45:31  5-MIN KSTC 241145Z AUTO 00000KT 10SM CLR 13/12 A3005 910 93 1000 000/00 RMK AO2
14926KSTC STC20030724055013307/24/03 05:50:31  5-MIN KSTC 241150Z AUTO 13004KT 10SM CLR 13/12 A3005 910 93 1000 130/04 RMK AO2 SLP182 T01330122 10133 20100 55007
14926KSTC STC20030724055509807/24/03 05:55:31  5-MIN KSTC 241155Z AUTO 13003KT 10SM CLR 13/12 A3005 910 93 1000 130/03 RMK AO2
14926KSTC STC20030724060009807/24/03 06:00:31  5-MIN KSTC 241200Z AUTO 14003KT 10SM CLR 14/12 A3005 910 90 1000 130/03 RMK AO2
14926KSTC STC20030724060509807/24/03 06:05:31  5-MIN KSTC 241205Z AUTO 14003KT 10SM CLR 14/12 A3005 910 90 1000 140/03 RMK AO2
14926KSTC STC20030724061009807/24/03 06:10:31  5-MIN KSTC 241210Z AUTO 14003KT 10SM CLR 13/13 A3005 910 96 1000 140/03 RMK AO2
14926KSTC STC20030724061509807/24/03 06:15:31  5-MIN KSTC 241215Z AUTO 15004KT 10SM CLR 13/13 A3005 910 96 1000 150/04 RMK AO2
14926KSTC STC20030724062009807/24/03 06:20:31  5-MIN KSTC 241220Z AUTO 14004KT 10SM CLR 13/13 A3004 910 96 1000 140/04 RMK AO2
14926KSTC STC20030724062509807/24/03 06:25:31  5-MIN KSTC 241225Z AUTO 15004KT 10SM CLR 14/13 A3004 910 96 1000 150/04 RMK AO2
14926KSTC STC20030724063009807/24/03 06:30:31  5-MIN KSTC 241230Z AUTO 14005KT 10SM CLR 14/13 A3004 920 93 1000 140/05 RMK AO2
14926KSTC STC20030724063509807/24/03 06:35:31  5-MIN KSTC 241235Z AUTO 14006KT 10SM CLR 14/13 A3004 920 90 1100 140/06 RMK AO2
14926KSTC STC20030724064009807/24/03 06:40:31  5-MIN KSTC 241240Z AUTO 14005KT 10SM CLR 14/13 A3003 920 93 1100 140/05 RMK AO2
14926KSTC STC20030724064509807/24/03 06:45:31  5-MIN KSTC 241245Z AUTO 14005KT 10SM CLR 15/13 A3003 920 90 1200 140/05 RMK AO2
14926KSTC STC20030724065011507/24/03 06:50:31  5-MIN KSTC 241250Z AUTO 14006KT 10SM CLR 15/13 A3003 920 90 1200 140/06 RMK AO2 SLP175 T01500133
14926KSTC STC20030724065509807/24/03 06:55:31  5-MIN KSTC 241255Z AUTO 14006KT 10SM CLR 15/13 A3003 930 90 1200 140/06 RMK AO2
14926KSTC STC20030724070009807/24/03 07:00:31  5-MIN KSTC 241300Z AUTO 15006KT 10SM CLR 15/13 A3003 930 90 1200 140/06 RMK AO2
14926KSTC STC20030724070509807/24/03 07:05:31  5-MIN KSTC 241305Z AUTO 15006KT 10SM CLR 15/14 A3002 930 93 1200 150/06 RMK AO2
14926KSTC STC20030724071009807/24/03 07:10:31  5-MIN KSTC 241310Z AUTO 15006KT 10SM CLR 16/14 A3003 930 90 1200 150/06 RMK AO2
14926KSTC STC20030724071509807/24/03 07:15:31  5-MIN KSTC 241315Z AUTO 16007KT 10SM CLR 16/14 A3003 930 86 1300 150/07 RMK AO2
14926KSTC STC20030724072009807/24/03 07:20:31  5-MIN KSTC 241320Z AUTO 16007KT 10SM CLR 16/14 A3003 930 90 1300 160/07 RMK AO2
14926KSTC STC20030724072509807/24/03 07:25:31  5-MIN KSTC 241325Z AUTO 16007KT 10SM CLR 16/14 A3002 930 90 1300 150/07 RMK AO2
14926KSTC STC20030724073009807/24/03 07:30:31  5-MIN KSTC 241330Z AUTO 16007KT 10SM CLR 16/14 A3003 930 86 1300 160/07 RMK AO2
14926KSTC STC20030724073509807/24/03 07:35:31  5-MIN KSTC 241335Z AUTO 17006KT 10SM CLR 17/14 A3003 920 80 1400 170/06 RMK AO2
14926KSTC STC20030724074009807/24/03 07:40:31  5-MIN KSTC 241340Z AUTO 18005KT 10SM CLR 17/14 A3004 920 80 1400 170/05 RMK AO2
14926KSTC STC20030724074509807/24/03 07:45:31  5-MIN KSTC 241345Z AUTO 18006KT 10SM CLR 18/14 A3004 920 78 1500 180/06 RMK AO2
14926KSTC STC20030724075011507/24/03 07:50:31  5-MIN KSTC 241350Z AUTO 18005KT 10SM CLR 18/14 A3004 920 78 1500 180/05 RMK AO2 SLP178 T01780139
14926KSTC STC20030724075509807/24/03 07:55:31  5-MIN KSTC 241355Z AUTO 19005KT 10SM CLR 18/14 A3004 920 75 1600 190/05 RMK AO2
14926KSTC STC20030724080009807/24/03 08:00:31  5-MIN KSTC 241400Z AUTO 19008KT 10SM CLR 19/14 A3003 920 72 1600 190/08 RMK AO2
14926KSTC STC20030724080509807/24/03 08:05:31  5-MIN KSTC 241405Z AUTO 19008KT 10SM CLR 19/14 A3003 920 72 1600 190/08 RMK AO2
14926KSTC STC20030724081009807/24/03 08:10:31  5-MIN KSTC 241410Z AUTO 19009KT 10SM CLR 19/14 A3003 930 70 1700 190/09 RMK AO2
14926KSTC STC20030724081509807/24/03 08:15:31  5-MIN KSTC 241415Z AUTO 20009KT 10SM CLR 19/13 A3003 920 67 1700 200/09 RMK AO2
14926KSTC STC20030724082009807/24/03 08:20:31  5-MIN KSTC 241420Z AUTO 19009KT 10SM CLR 20/14 A3004 920 67 1800 190/09 RMK AO2
14926KSTC STC20030724082509807/24/03 08:25:31  5-MIN KSTC 241425Z AUTO 20007KT 10SM CLR 20/13 A3004 910 65 1700 200/07 RMK AO2
14926KSTC STC20030724083009807/24/03 08:30:31  5-MIN KSTC 241430Z AUTO 20007KT 10SM CLR 21/14 A3004 910 65 1800 200/07 RMK AO2
14926KSTC STC20030724083509807/24/03 08:35:31  5-MIN KSTC 241435Z AUTO 22008KT 10SM CLR 21/14 A3005 910 65 1800 210/08 RMK AO2
14926KSTC STC20030724084009807/24/03 08:40:31  5-MIN KSTC 241440Z AUTO 20007KT 10SM CLR 21/14 A3005 910 63 1900 190/07 RMK AO2
14926KSTC STC20030724084509807/24/03 08:45:31  5-MIN KSTC 241445Z AUTO 20007KT 10SM CLR 21/14 A3005 910 63 1900 190/07 RMK AO2
14926KSTC STC20030724085012107/24/03 08:50:31  5-MIN KSTC 241450Z AUTO 18007KT 10SM CLR 22/14 A3005 910 61 1900 180/07 RMK AO2 SLP179 T02170139 50000
14926KSTC STC20030724085509807/24/03 08:55:31  5-MIN KSTC 241455Z AUTO 19009KT 10SM CLR 22/14 A3004 910 61 1900 190/09 RMK AO2
14926KSTC STC20030724090009807/24/03 09:00:31  5-MIN KSTC 241500Z AUTO 19008KT 10SM CLR 22/13 A3004 920 56 2000 190/08 RMK AO2
14926KSTC STC20030724090509807/24/03 09:05:31  5-MIN KSTC 241505Z AUTO 19008KT 10SM CLR 22/13 A3004 920 56 2000 180/08 RMK AO2
14926KSTC STC20030724091010107/24/03 09:10:31  5-MIN KSTC 241510Z AUTO 19008KT 10SM FEW050 23/13 A3004 920 55 2100 180/08 RMK AO2
14926KSTC STC20030724091510107/24/03 09:15:31  5-MIN KSTC 241515Z AUTO 18009KT 10SM SCT050 23/13 A3004 920 55 2100 180/09 RMK AO2
14926KSTC STC20030724092010107/24/03 09:20:31  5-MIN KSTC 241520Z AUTO 20009KT 10SM BKN050 23/13 A3004 920 55 2100 200/09 RMK AO2
14926KSTC STC20030724092510107/24/03 09:25:31  5-MIN KSTC 241525Z AUTO 19011KT 10SM BKN050 23/13 A3004 920 55 2100 190/11 RMK AO2
14926KSTC STC20030724093010107/24/03 09:30:31  5-MIN KSTC 241530Z AUTO 20014KT 10SM BKN050 23/13 A3003 920 53 2100 190/14 RMK AO2
14926KSTC STC20030724093510107/24/03 09:35:31  5-MIN KSTC 241535Z AUTO 20013KT 10SM BKN050 23/13 A3003 920 53 2100 200/13 RMK AO2
14926KSTC STC20030724094010107/24/03 09:40:31  5-MIN KSTC 241540Z AUTO 20012KT 10SM BKN050 23/13 A3003 920 51 2100 200/12 RMK AO2
14926KSTC STC20030724094510107/24/03 09:45:31  5-MIN KSTC 241545Z AUTO 19011KT 10SM SCT050 23/13 A3003 920 51 2100 190/11 RMK AO2
14926KSTC STC20030724095011807/24/03 09:50:31  5-MIN KSTC 241550Z AUTO 19011KT 10SM FEW050 24/13 A3003 930 49 2200 190/11 RMK AO2 SLP174 T02390128
14926KSTC STC20030724095510107/24/03 09:55:31  5-MIN KSTC 241555Z AUTO 19015KT 10SM FEW055 23/12 A3003 930 49 2100 190/15 RMK AO2
14926KSTC STC20030724100009807/24/03 10:00:31  5-MIN KSTC 241600Z AUTO 19014KT 10SM CLR 24/12 A3003 930 46 2200 190/14 RMK AO2
14926KSTC STC20030724100509807/24/03 10:05:31  5-MIN KSTC 241605Z AUTO 20012KT 10SM CLR 24/12 A3002 930 46 2200 190/12 RMK AO2
14926KSTC STC20030724101009807/24/03 10:10:31  5-MIN KSTC 241610Z AUTO 20011KT 10SM CLR 24/13 A3002 930 47 2300 200/11 RMK AO2
14926KSTC STC20030724101509807/24/03 10:15:31  5-MIN KSTC 241615Z AUTO 19010KT 10SM CLR 24/13 A3002 930 49 2300 190/10 RMK AO2
14926KSTC STC20030724102009807/24/03 10:20:31  5-MIN KSTC 241620Z AUTO 18013KT 10SM CLR 24/13 A3002 940 49 2200 170/13 RMK AO2
14926KSTC STC20030724102509807/24/03 10:25:31  5-MIN KSTC 241625Z AUTO 19013KT 10SM CLR 24/12 A3002 940 47 2200 180/13 RMK AO2
14926KSTC STC20030724103009807/24/03 10:30:31  5-MIN KSTC 241630Z AUTO 18010KT 10SM CLR 24/13 A3002 940 47 2300 180/10 RMK AO2
14926KSTC STC20030724103509807/24/03 10:35:31  5-MIN KSTC 241635Z AUTO 19012KT 10SM CLR 24/13 A3001 940 49 2200 180/12 RMK AO2
14926KSTC STC20030724104009807/24/03 10:40:31  5-MIN KSTC 241640Z AUTO 18011KT 10SM CLR 24/13 A3001 940 47 2300 170/11 RMK AO2
14926KSTC STC20030724104509807/24/03 10:45:31  5-MIN KSTC 241645Z AUTO 20013KT 10SM CLR 24/13 A3001 950 47 2300 200/13 RMK AO2
14926KSTC STC20030724105011507/24/03 10:50:31  5-MIN KSTC 241650Z AUTO 19012KT 10SM CLR 24/13 A3001 950 47 2300 190/12 RMK AO2 SLP166 T02440128
14926KSTC STC20030724105509807/24/03 10:55:31  5-MIN KSTC 241655Z AUTO 17013KT 10SM CLR 25/13 A3001 950 48 2400 170/13 RMK AO2
14926KSTC STC20030724110009807/24/03 11:00:31  5-MIN KSTC 241700Z AUTO 18011KT 10SM CLR 25/13 A3000 960 46 2400 180/11 RMK AO2
14926KSTC STC20030724110509807/24/03 11:05:31  5-MIN KSTC 241705Z AUTO 17012KT 10SM CLR 25/13 A3000 950 48 2400 160/12 RMK AO2
14926KSTC STC20030724111009807/24/03 11:10:31  5-MIN KSTC 241710Z AUTO 17013KT 10SM CLR 25/13 A3000 950 46 2400 170/13 RMK AO2
14926KSTC STC20030724112007007/24/03 11:20:31  5-MIN KSTC 241720Z AUTO M M M M /M RMK AO2 FZRANO $
14926KSTC STC20030724112509107/24/03 11:25:31  5-MIN KSTC 241725Z AUTO 16013KT 25/14 A3000 960 49 2400 160/13 RMK AO2 $
14926KSTC STC20030724113009407/24/03 11:30:31  5-MIN KSTC 241730Z AUTO 17012KT 10SM 25/14 A2999 960 49 2400 170/12 RMK AO2
14926KSTC STC20030724113509407/24/03 11:35:31  5-MIN KSTC 241735Z AUTO 18011KT 10SM 25/14 A2999 960 49 2400 180/11 RMK AO2
14926KSTC STC20030724114009407/24/03 11:40:31  5-MIN KSTC 241740Z AUTO 18012KT 10SM 25/14 A2999 960 49 2400 180/12 RMK AO2
14926KSTC STC20030724114509407/24/03 11:45:31  5-MIN KSTC 241745Z AUTO 17013KT 10SM 26/14 A2999 960 48 2500 170/13 RMK AO2
14926KSTC STC20030724115013907/24/03 11:50:31  5-MIN KSTC 241750Z AUTO 17013G20KT 10SM CLR 25/14 A2998 970 49 2400 170/13G20 RMK AO2 SLP159 6//// T02500139 10261 20133
14926KSTC STC20030724115510407/24/03 11:55:31  5-MIN KSTC 241755Z AUTO 18011G20KT 10SM CLR 26/14 A2998 970 48 2400 180/11G20 RMK AO2
14926KSTC STC20030724120009807/24/03 12:00:31  5-MIN KSTC 241800Z AUTO 17014KT 10SM CLR 26/14 A2998 970 48 2500 160/14 RMK AO2
14926KSTC STC20030724120509807/24/03 12:05:31  5-MIN KSTC 241805Z AUTO 17014KT 10SM CLR 26/14 A2998 970 46 2500 170/14 RMK AO2
14926KSTC STC20030724121010407/24/03 12:10:31  5-MIN KSTC 241810Z AUTO 18011G18KT 10SM CLR 26/14 A2998 970 48 2500 180/11G18 RMK AO2
14926KSTC STC20030724121510407/24/03 12:15:31  5-MIN KSTC 241815Z AUTO 16015G19KT 10SM CLR 26/14 A2998 970 49 2500 160/15G19 RMK AO2
14926KSTC STC20030724122009807/24/03 12:20:31  5-MIN KSTC 241820Z AUTO 17015KT 10SM CLR 26/14 A2998 980 46 2500 170/15 RMK AO2
14926KSTC STC20030724122509807/24/03 12:25:31  5-MIN KSTC 241825Z AUTO 18013KT 10SM CLR 26/14 A2997 980 46 2500 170/13 RMK AO2
14926KSTC STC20030724123009807/24/03 12:30:31  5-MIN KSTC 241830Z AUTO 16016KT 10SM CLR 27/14 A2997 980 46 2600 160/16 RMK AO2
14926KSTC STC20030724123509807/24/03 12:35:31  5-MIN KSTC 241835Z AUTO 17012KT 10SM CLR 27/14 A2997 980 46 2600 160/12 RMK AO2
14926KSTC STC20030724124010407/24/03 12:40:31  5-MIN KSTC 241840Z AUTO 18013G18KT 10SM CLR 26/14 A2997 980 48 2500 180/13G18 RMK AO2
14926KSTC STC20030724124510407/24/03 12:45:31  5-MIN KSTC 241845Z AUTO 15013G19KT 10SM CLR 26/14 A2997 980 48 2500 150/13G19 RMK AO2
14926KSTC STC20030724125011507/24/03 12:50:31  5-MIN KSTC 241850Z AUTO 17015KT 10SM CLR 26/14 A2997 980 48 2500 170/15 RMK AO2 SLP153 T02610144
14926KSTC STC20030724125509807/24/03 12:55:31  5-MIN KSTC 241855Z AUTO 17012KT 10SM CLR 27/14 A2997 980 46 2600 170/12 RMK AO2
14926KSTC STC20030724130009807/24/03 13:00:31  5-MIN KSTC 241900Z AUTO 18012KT 10SM CLR 27/14 A2997 980 46 2600 180/12 RMK AO2
14926KSTC STC20030724130509807/24/03 13:05:31  5-MIN KSTC 241905Z AUTO 17014KT 10SM CLR 27/15 A2997 980 46 2700 170/14 RMK AO2
14926KSTC STC20030724131009807/24/03 13:10:31  5-MIN KSTC 241910Z AUTO 18013KT 10SM CLR 27/14 A2997 980 46 2600 170/13 RMK AO2
14926KSTC STC20030724131510407/24/03 13:15:31  5-MIN KSTC 241915Z AUTO 17014G19KT 10SM CLR 27/14 A2996 990 46 2600 170/14G19 RMK AO2
14926KSTC STC20030724132010407/24/03 13:20:31  5-MIN KSTC 241920Z AUTO 16013G19KT 10SM CLR 27/15 A2996 990 48 2600 160/13G19 RMK AO2
14926KSTC STC20030724132509807/24/03 13:25:31  5-MIN KSTC 241925Z AUTO 19015KT 10SM CLR 27/14 A2996 990 46 2600 180/15 RMK AO2
14926KSTC STC20030724133009807/24/03 13:30:31  5-MIN KSTC 241930Z AUTO 17013KT 10SM CLR 27/14 A2996 990 46 2600 170/13 RMK AO2
14926KSTC STC20030724133510407/24/03 13:35:31  5-MIN KSTC 241935Z AUTO 16013G19KT 10SM CLR 27/15 A2996 990 46 2700 160/13G19 RMK AO2
14926KSTC STC20030724134009907/24/03 13:40:31  5-MIN KSTC 241940Z AUTO 17013KT 10SM CLR 27/15 A2995 1000 48 2600 170/13 RMK AO2
14926KSTC STC20030724134509907/24/03 13:45:31  5-MIN KSTC 241945Z AUTO 18015KT 10SM CLR 27/15 A2995 1000 48 2600 180/15 RMK AO2
14926KSTC STC20030724135011507/24/03 13:50:31  5-MIN KSTC 241950Z AUTO 20014KT 10SM CLR 27/14 A2996 990 46 2600 200/14 RMK AO2 SLP150 T02670144
14926KSTC STC20030724135510407/24/03 13:55:31  5-MIN KSTC 241955Z AUTO 16014G20KT 10SM CLR 27/15 A2995 990 48 2600 160/14G20 RMK AO2
14926KSTC STC20030724140010507/24/03 14:00:31  5-MIN KSTC 242000Z AUTO 18015G20KT 10SM CLR 27/14 A2995 1000 46 2600 180/15G20 RMK AO2
14926KSTC STC20030724140510507/24/03 14:05:31  5-MIN KSTC 242005Z AUTO 17016G20KT 10SM CLR 27/14 A2995 1000 46 2600 170/16G20 RMK AO2
14926KSTC STC20030724141010507/24/03 14:10:31  5-MIN KSTC 242010Z AUTO 17016G21KT 10SM CLR 27/14 A2995 1000 46 2600 170/16G21 RMK AO2
14926KSTC STC20030724141510507/24/03 14:15:31  5-MIN KSTC 242015Z AUTO 18017G21KT 10SM CLR 27/15 A2995 1000 48 2600 170/17G21 RMK AO2
14926KSTC STC20030724142010507/24/03 14:20:31  5-MIN KSTC 242020Z AUTO 18013G20KT 10SM CLR 27/14 A2994 1000 46 2600 180/13G20 RMK AO2
14926KSTC STC20030724142509907/24/03 14:25:31  5-MIN KSTC 242025Z AUTO 17013KT 10SM CLR 27/15 A2994 1000 46 2700 170/13 RMK AO2
14926KSTC STC20030724143009907/24/03 14:30:31  5-MIN KSTC 242030Z AUTO 18013KT 10SM CLR 27/15 A2994 1010 48 2600 170/13 RMK AO2
14926KSTC STC20030724143510507/24/03 14:35:31  5-MIN KSTC 242035Z AUTO 17016G20KT 10SM CLR 27/15 A2994 1010 46 2700 170/16G20 RMK AO2
14926KSTC STC20030724144010507/24/03 14:40:31  5-MIN KSTC 242040Z AUTO 18016G20KT 10SM CLR 27/15 A2994 1010 46 2700 180/16G20 RMK AO2
14926KSTC STC20030724144509907/24/03 14:45:31  5-MIN KSTC 242045Z AUTO 17015KT 10SM CLR 27/15 A2994 1010 48 2600 170/15 RMK AO2
14926KSTC STC20030724145011607/24/03 14:50:31  5-MIN KSTC 242050Z AUTO 17016KT 10SM CLR 27/15 A2994 1010 48 2600 170/16 RMK AO2 SLP146 T02670150
14926KSTC STC20030724145509907/24/03 14:55:31  5-MIN KSTC 242055Z AUTO 18014KT 10SM CLR 27/15 A2994 1010 48 2600 170/14 RMK AO2
14926KSTC STC20030724150009907/24/03 15:00:31  5-MIN KSTC 242100Z AUTO 18013KT 10SM CLR 27/15 A2994 1010 48 2600 180/13 RMK AO2
14926KSTC STC20030724150510507/24/03 15:05:31  5-MIN KSTC 242105Z AUTO 18013G19KT 10SM CLR 27/15 A2994 1010 48 2600 180/13G19 RMK AO2
14926KSTC STC20030724151010507/24/03 15:10:31  5-MIN KSTC 242110Z AUTO 16015G19KT 10SM CLR 27/15 A2994 1010 48 2600 160/15G19 RMK AO2
14926KSTC STC20030724151509907/24/03 15:15:31  5-MIN KSTC 242115Z AUTO 17012KT 10SM CLR 27/16 A2994 1010 50 2600 170/12 RMK AO2
14926KSTC STC20030724152009907/24/03 15:20:31  5-MIN KSTC 242120Z AUTO 17014KT 10SM CLR 27/16 A2994 1010 50 2600 160/14 RMK AO2
14926KSTC STC20030724152510507/24/03 15:25:31  5-MIN KSTC 242125Z AUTO 16016G23KT 10SM CLR 27/16 A2993 1010 50 2600 160/16G23 RMK AO2
14926KSTC STC20030724153010507/24/03 15:30:31  5-MIN KSTC 242130Z AUTO 18013G23KT 10SM CLR 27/16 A2993 1020 50 2600 170/13G23 RMK AO2
14926KSTC STC20030724153509907/24/03 15:35:31  5-MIN KSTC 242135Z AUTO 17017KT 10SM CLR 27/16 A2993 1020 50 2600 160/17 RMK AO2
14926KSTC STC20030724154010507/24/03 15:40:31  5-MIN KSTC 242140Z AUTO 18015G20KT 10SM CLR 27/16 A2993 1020 50 2600 170/15G20 RMK AO2
14926KSTC STC20030724154509907/24/03 15:45:31  5-MIN KSTC 242145Z AUTO 16015KT 10SM CLR 27/16 A2993 1020 50 2600 160/15 RMK AO2
14926KSTC STC20030724155012207/24/03 15:50:31  5-MIN KSTC 242150Z AUTO 17014G20KT 10SM CLR 27/16 A2992 1030 50 2600 160/14G20 RMK AO2 SLP138 T02670156
14926KSTC STC20030724155509907/24/03 15:55:31  5-MIN KSTC 242155Z AUTO 17014KT 10SM CLR 27/16 A2992 1030 52 2600 170/14 RMK AO2
14926KSTC STC20030724160010507/24/03 16:00:31  5-MIN KSTC 242200Z AUTO 16017G20KT 10SM CLR 27/16 A2992 1030 52 2600 150/17G20 RMK AO2
14926KSTC STC20030724160510507/24/03 16:05:31  5-MIN KSTC 242205Z AUTO 16018G21KT 10SM CLR 27/16 A2991 1030 52 2600 150/18G21 RMK AO2
14926KSTC STC20030724161010507/24/03 16:10:31  5-MIN KSTC 242210Z AUTO 16016G21KT 10SM CLR 27/16 A2991 1030 52 2600 160/16G21 RMK AO2
14926KSTC STC20030724161509907/24/03 16:15:31  5-MIN KSTC 242215Z AUTO 17016KT 10SM CLR 26/16 A2991 1040 53 2600 170/16 RMK AO2
14926KSTC STC20030724162009907/24/03 16:20:31  5-MIN KSTC 242220Z AUTO 17018KT 10SM CLR 26/16 A2991 1040 51 2600 160/18 RMK AO2
14926KSTC STC20030724162510207/24/03 16:25:31  5-MIN KSTC 242225Z AUTO 18016KT 10SM FEW100 26/16 A2991 1040 51 2600 180/16 RMK AO2
14926KSTC STC20030724163010807/24/03 16:30:31  5-MIN KSTC 242230Z AUTO 17014G19KT 10SM FEW100 27/16 A2991 1040 50 2700 170/14G19 RMK AO2
14926KSTC STC20030724163510207/24/03 16:35:31  5-MIN KSTC 242235Z AUTO 17012KT 10SM FEW100 27/16 A2991 1040 52 2700 170/12 RMK AO2
14926KSTC STC20030724164010807/24/03 16:40:31  5-MIN KSTC 242240Z AUTO 17012G20KT 10SM FEW100 26/16 A2990 1040 53 2600 170/12G20 RMK AO2
14926KSTC STC20030724164510807/24/03 16:45:31  5-MIN KSTC 242245Z AUTO 17016G20KT 10SM FEW100 26/16 A2990 1040 51 2600 160/16G20 RMK AO2
14926KSTC STC20030724165012507/24/03 16:50:31  5-MIN KSTC 242250Z AUTO 17013G20KT 10SM FEW100 26/16 A2990 1040 53 2600 160/13G20 RMK AO2 SLP131 T02610161
14926KSTC STC20030724165510207/24/03 16:55:31  5-MIN KSTC 242255Z AUTO 17012KT 10SM FEW110 26/16 A2990 1050 53 2600 160/12 RMK AO2
14926KSTC STC20030724170010207/24/03 17:00:31  5-MIN KSTC 242300Z AUTO 16015KT 10SM FEW110 26/16 A2990 1050 55 2500 160/15 RMK AO2
14926KSTC STC20030724170510207/24/03 17:05:31  5-MIN KSTC 242305Z AUTO 17013KT 10SM FEW110 26/16 A2990 1050 53 2600 160/13 RMK AO2
14926KSTC STC20030724171010207/24/03 17:10:31  5-MIN KSTC 242310Z AUTO 18013KT 10SM FEW110 26/16 A2990 1050 53 2600 180/13 RMK AO2
14926KSTC STC20030724171510207/24/03 17:15:31  5-MIN KSTC 242315Z AUTO 17014KT 10SM FEW110 26/16 A2990 1050 51 2600 170/14 RMK AO2
14926KSTC STC20030724172009907/24/03 17:20:31  5-MIN KSTC 242320Z AUTO 17014KT 10SM CLR 26/16 A2990 1050 53 2600 160/14 RMK AO2
14926KSTC STC20030724172509907/24/03 17:25:31  5-MIN KSTC 242325Z AUTO 17012KT 10SM CLR 26/16 A2990 1050 53 2600 160/12 RMK AO2
14926KSTC STC20030724173009907/24/03 17:30:31  5-MIN KSTC 242330Z AUTO 17014KT 10SM CLR 26/16 A2990 1050 55 2500 160/14 RMK AO2
14926KSTC STC20030724173510507/24/03 17:35:31  5-MIN KSTC 242335Z AUTO 17013G20KT 10SM CLR 26/16 A2990 1050 53 2500 160/13G20 RMK AO2
14926KSTC STC20030724174009907/24/03 17:40:31  5-MIN KSTC 242340Z AUTO 16016KT 10SM CLR 26/16 A2990 1050 53 2500 160/16 RMK AO2
14926KSTC STC20030724174510507/24/03 17:45:31  5-MIN KSTC 242345Z AUTO 17016G21KT 10SM CLR 26/16 A2990 1050 53 2500 160/16G21 RMK AO2
14926KSTC STC20030724180510507/24/03 18:05:31  5-MIN KSTC 250005Z AUTO 17014G19KT 10SM CLR 25/16 A2990 1050 55 2500 170/14G19 RMK AO2
14926KSTC STC20030724181010507/24/03 18:10:31  5-MIN KSTC 250010Z AUTO 17012G19KT 10SM CLR 25/16 A2990 1040 57 2500 170/12G19 RMK AO2
14926KSTC STC20030724181509907/24/03 18:15:31  5-MIN KSTC 250015Z AUTO 17014KT 10SM CLR 25/16 A2990 1040 55 2500 160/14 RMK AO2
14926KSTC STC20030724182009907/24/03 18:20:31  5-MIN KSTC 250020Z AUTO 17010KT 10SM CLR 25/16 A2990 1040 57 2500 170/10 RMK AO2
14926KSTC STC20030724182510507/24/03 18:25:31  5-MIN KSTC 250025Z AUTO 17012G17KT 10SM CLR 25/16 A2990 1040 57 2500 170/12G17 RMK AO2
14926KSTC STC20030724183010507/24/03 18:30:31  5-MIN KSTC 250030Z AUTO 17014G17KT 10SM CLR 25/16 A2990 1050 57 2500 170/14G17 RMK AO2
14926KSTC STC20030724183509907/24/03 18:35:31  5-MIN KSTC 250035Z AUTO 17011KT 10SM CLR 25/16 A2990 1050 57 2500 160/11 RMK AO2
14926KSTC STC20030724184009907/24/03 18:40:31  5-MIN KSTC 250040Z AUTO 16012KT 10SM CLR 24/16 A2990 1050 59 2400 160/12 RMK AO2
14926KSTC STC20030724184509907/24/03 18:45:31  5-MIN KSTC 250045Z AUTO 17011KT 10SM CLR 24/16 A2990 1050 59 2400 160/11 RMK AO2
14926KSTC STC20030724185011607/24/03 18:50:31  5-MIN KSTC 250050Z AUTO 16012KT 10SM CLR 24/16 A2990 1050 59 2400 160/12 RMK AO2 SLP128 T02440161
14926KSTC STC20030724185509907/24/03 18:55:31  5-MIN KSTC 250055Z AUTO 17013KT 10SM CLR 24/16 A2990 1050 59 2400 160/13 RMK AO2
14926KSTC STC20030724190009907/24/03 19:00:31  5-MIN KSTC 250100Z AUTO 17010KT 10SM CLR 24/16 A2990 1050 59 2400 170/10 RMK AO2
14926KSTC STC20030724190509907/24/03 19:05:31  5-MIN KSTC 250105Z AUTO 17012KT 10SM CLR 24/16 A2990 1050 61 2400 160/12 RMK AO2
14926KSTC STC20030724191009907/24/03 19:10:31  5-MIN KSTC 250110Z AUTO 17010KT 10SM CLR 24/16 A2990 1050 61 2400 160/10 RMK AO2
14926KSTC STC20030724191510507/24/03 19:15:31  5-MIN KSTC 250115Z AUTO 16013G17KT 10SM CLR 24/16 A2989 1050 61 2400 160/13G17 RMK AO2
14926KSTC STC20030724192010507/24/03 19:20:31  5-MIN KSTC 250120Z AUTO 16011G17KT 10SM CLR 24/16 A2989 1050 61 2400 160/11G17 RMK AO2
14926KSTC STC20030724192509907/24/03 19:25:31  5-MIN KSTC 250125Z AUTO 17013KT 10SM CLR 24/16 A2989 1050 61 2400 160/13 RMK AO2
14926KSTC STC20030724193009907/24/03 19:30:31  5-MIN KSTC 250130Z AUTO 17012KT 10SM CLR 23/16 A2989 1050 63 2300 160/12 RMK AO2
14926KSTC STC20030724193509907/24/03 19:35:31  5-MIN KSTC 250135Z AUTO 17010KT 10SM CLR 23/16 A2990 1050 63 2300 160/10 RMK AO2
14926KSTC STC20030724194009907/24/03 19:40:31  5-MIN KSTC 250140Z AUTO 16011KT 10SM CLR 23/16 A2989 1050 63 2300 160/11 RMK AO2
14926KSTC STC20030724194509907/24/03 19:45:31  5-MIN KSTC 250145Z AUTO 16011KT 10SM CLR 23/16 A2989 1050 63 2300 160/11 RMK AO2
14926KSTC STC20030724195011607/24/03 19:50:31  5-MIN KSTC 250150Z AUTO 16012KT 10SM CLR 23/16 A2989 1050 65 2200 160/12 RMK AO2 SLP126 T02280161
14926KSTC STC20030724195509907/24/03 19:55:31  5-MIN KSTC 250155Z AUTO 16012KT 10SM CLR 23/16 A2990 1050 63 2300 160/12 RMK AO2
14926KSTC STC20030724200009907/24/03 20:00:31  5-MIN KSTC 250200Z AUTO 17010KT 10SM CLR 23/16 A2990 1050 65 2200 160/10 RMK AO2
14926KSTC STC20030724200509907/24/03 20:05:31  5-MIN KSTC 250205Z AUTO 16009KT 10SM CLR 23/16 A2990 1050 65 2200 160/09 RMK AO2
14926KSTC STC20030724201009907/24/03 20:10:31  5-MIN KSTC 250210Z AUTO 16010KT 10SM CLR 23/16 A2990 1050 65 2200 160/10 RMK AO2
14926KSTC STC20030724201509907/24/03 20:15:31  5-MIN KSTC 250215Z AUTO 16010KT 10SM CLR 22/16 A2990 1040 68 2200 160/10 RMK AO2
14926KSTC STC20030724202009907/24/03 20:20:31  5-MIN KSTC 250220Z AUTO 17009KT 10SM CLR 22/16 A2991 1040 68 2200 160/09 RMK AO2
14926KSTC STC20030724202509907/24/03 20:25:31  5-MIN KSTC 250225Z AUTO 16010KT 10SM CLR 22/16 A2991 1040 68 2200 160/10 RMK AO2
14926KSTC STC20030724203009907/24/03 20:30:31  5-MIN KSTC 250230Z AUTO 16009KT 10SM CLR 22/16 A2991 1040 68 2200 160/09 RMK AO2
14926KSTC STC20030724203509907/24/03 20:35:31  5-MIN KSTC 250235Z AUTO 16008KT 10SM CLR 22/16 A2991 1040 68 2200 160/08 RMK AO2
14926KSTC STC20030724204009907/24/03 20:40:31  5-MIN KSTC 250240Z AUTO 16009KT 10SM CLR 22/16 A2991 1040 68 2200 160/09 RMK AO2
14926KSTC STC20030724204509907/24/03 20:45:31  5-MIN KSTC 250245Z AUTO 17008KT 10SM CLR 22/16 A2991 1040 70 2100 160/08 RMK AO2
14926KSTC STC20030724205012207/24/03 20:50:31  5-MIN KSTC 250250Z AUTO 17009KT 10SM CLR 22/16 A2991 1030 70 2100 160/09 RMK AO2 SLP133 T02170161 56013
14926KSTC STC20030724205509907/24/03 20:55:31  5-MIN KSTC 250255Z AUTO 16009KT 10SM CLR 22/16 A2991 1040 70 2100 160/09 RMK AO2
14926KSTC STC20030724210009907/24/03 21:00:31  5-MIN KSTC 250300Z AUTO 17009KT 10SM CLR 22/16 A2991 1030 70 2100 160/09 RMK AO2
14926KSTC STC20030724210509907/24/03 21:05:31  5-MIN KSTC 250305Z AUTO 17008KT 10SM CLR 22/16 A2991 1030 70 2100 160/08 RMK AO2
14926KSTC STC20030724211009907/24/03 21:10:31  5-MIN KSTC 250310Z AUTO 17010KT 10SM CLR 22/16 A2991 1030 70 2100 160/10 RMK AO2
14926KSTC STC20030724211509907/24/03 21:15:31  5-MIN KSTC 250315Z AUTO 17009KT 10SM CLR 21/16 A2991 1030 73 2000 160/09 RMK AO2
14926KSTC STC20030724212009907/24/03 21:20:31  5-MIN KSTC 250320Z AUTO 16010KT 10SM CLR 22/16 A2991 1030 70 2100 160/10 RMK AO2
14926KSTC STC20030724212509907/24/03 21:25:31  5-MIN KSTC 250325Z AUTO 17009KT 10SM CLR 22/16 A2991 1030 70 2100 160/09 RMK AO2
14926KSTC STC20030724213009907/24/03 21:30:31  5-MIN KSTC 250330Z AUTO 16009KT 10SM CLR 21/16 A2991 1040 73 2000 160/09 RMK AO2
14926KSTC STC20030724213509907/24/03 21:35:31  5-MIN KSTC 250335Z AUTO 16010KT 10SM CLR 21/16 A2991 1040 73 2000 160/10 RMK AO2
14926KSTC STC20030724214009907/24/03 21:40:31  5-MIN KSTC 250340Z AUTO 17010KT 10SM CLR 21/16 A2991 1040 73 2000 160/10 RMK AO2
14926KSTC STC20030724214509907/24/03 21:45:31  5-MIN KSTC 250345Z AUTO 17009KT 10SM CLR 21/16 A2991 1040 73 2000 160/09 RMK AO2
14926KSTC STC20030724215011607/24/03 21:50:31  5-MIN KSTC 250350Z AUTO 16009KT 10SM CLR 21/16 A2991 1040 73 2000 160/09 RMK AO2 SLP130 T02110161
14926KSTC STC20030724215509907/24/03 21:55:31  5-MIN KSTC 250355Z AUTO 16009KT 10SM CLR 21/16 A2991 1040 73 2000 160/09 RMK AO2
14926KSTC STC20030724220009907/24/03 22:00:31  5-MIN KSTC 250400Z AUTO 17009KT 10SM CLR 21/16 A2991 1040 73 2000 160/09 RMK AO2
14926KSTC STC20030724220509907/24/03 22:05:31  5-MIN KSTC 250405Z AUTO 17010KT 10SM CLR 21/16 A2991 1040 73 2000 160/10 RMK AO2
14926KSTC STC20030724221009907/24/03 22:10:31  5-MIN KSTC 250410Z AUTO 17011KT 10SM CLR 21/16 A2991 1040 73 2000 170/11 RMK AO2
14926KSTC STC20030724221509907/24/03 22:15:31  5-MIN KSTC 250415Z AUTO 16010KT 10SM CLR 21/16 A2990 1040 73 2000 160/10 RMK AO2
14926KSTC STC20030724222009907/24/03 22:20:31  5-MIN KSTC 250420Z AUTO 17011KT 10SM CLR 21/16 A2990 1040 73 2000 160/11 RMK AO2
14926KSTC STC20030724222509907/24/03 22:25:31  5-MIN KSTC 250425Z AUTO 16010KT 10SM CLR 21/16 A2990 1050 73 2000 160/10 RMK AO2
14926KSTC STC20030724223009907/24/03 22:30:31  5-MIN KSTC 250430Z AUTO 16011KT 10SM CLR 21/16 A2990 1050 73 2000 160/11 RMK AO2
14926KSTC STC20030724223509907/24/03 22:35:31  5-MIN KSTC 250435Z AUTO 17011KT 10SM CLR 21/16 A2989 1050 73 2000 160/11 RMK AO2
14926KSTC STC20030724224009907/24/03 22:40:31  5-MIN KSTC 250440Z AUTO 16011KT 10SM CLR 21/16 A2989 1050 73 2000 160/11 RMK AO2
14926KSTC STC20030724224509907/24/03 22:45:31  5-MIN KSTC 250445Z AUTO 17011KT 10SM CLR 21/16 A2989 1050 73 2000 160/11 RMK AO2
14926KSTC STC20030724225011607/24/03 22:50:31  5-MIN KSTC 250450Z AUTO 16012KT 10SM CLR 21/16 A2989 1060 73 2000 160/12 RMK AO2 SLP124 T02110161
14926KSTC STC20030724225509907/24/03 22:55:31  5-MIN KSTC 250455Z AUTO 17011KT 10SM CLR 21/16 A2989 1060 73 2100 160/11 RMK AO2
14926KSTC STC20030724230009907/24/03 23:00:31  5-MIN KSTC 250500Z AUTO 17011KT 10SM CLR 21/16 A2988 1060 73 2100 160/11 RMK AO2
14926KSTC STC20030724230509907/24/03 23:05:31  5-MIN KSTC 250505Z AUTO 16012KT 10SM CLR 21/16 A2988 1060 73 2100 160/12 RMK AO2
14926KSTC STC20030724231009907/24/03 23:10:31  5-MIN KSTC 250510Z AUTO 17013KT 10SM CLR 21/16 A2988 1060 73 2100 170/13 RMK AO2
14926KSTC STC20030724231509907/24/03 23:15:31  5-MIN KSTC 250515Z AUTO 17011KT 10SM CLR 21/16 A2988 1060 73 2100 160/11 RMK AO2
14926KSTC STC20030724232009907/24/03 23:20:31  5-MIN KSTC 250520Z AUTO 17012KT 10SM CLR 21/16 A2988 1060 73 2100 170/12 RMK AO2
14926KSTC STC20030724232509907/24/03 23:25:31  5-MIN KSTC 250525Z AUTO 17012KT 10SM CLR 21/16 A2988 1060 73 2100 160/12 RMK AO2
14926KSTC STC20030724233009907/24/03 23:30:31  5-MIN KSTC 250530Z AUTO 17012KT 10SM CLR 21/16 A2988 1070 73 2100 170/12 RMK AO2
14926KSTC STC20030724233509907/24/03 23:35:31  5-MIN KSTC 250535Z AUTO 17012KT 10SM CLR 21/16 A2988 1070 73 2100 170/12 RMK AO2
14926KSTC STC20030724234009907/24/03 23:40:31  5-MIN KSTC 250540Z AUTO 17010KT 10SM CLR 21/16 A2988 1060 73 2100 170/10 RMK AO2
14926KSTC STC20030724234509907/24/03 23:45:31  5-MIN KSTC 250545Z AUTO 17011KT 10SM CLR 21/16 A2988 1060 70 2100 170/11 RMK AO2
14926KSTC STC20030724235014407/24/03 23:50:31  5-MIN KSTC 250550Z AUTO 18011KT 10SM CLR 21/16 A2988 1060 75 2000 170/11 RMK AO2 SLP121 T02060161 10256 20206 402720100 53003
14926KSTC STC20030724235509907/24/03 23:55:31  5-MIN KSTC 250555Z AUTO 17012KT 10SM CLR 21/16 A2988 1070 70 2100 170/12 RMK AO2
14926KSTC STC20030725000009907/25/03 00:00:31  5-MIN KSTC 250600Z AUTO 17011KT 10SM CLR 21/16 A2988 1070 73 2000 170/11 RMK AO2
14926KSTC STC20030725000509907/25/03 00:05:31  5-MIN KSTC 250605Z AUTO 18011KT 10SM CLR 21/16 A2988 1060 73 2000 170/11 RMK AO2
14926KSTC STC20030725001009907/25/03 00:10:31  5-MIN KSTC 250610Z AUTO 17009KT 10SM CLR 21/16 A2988 1070 73 2000 170/09 RMK AO2
14926KSTC STC20030725001509907/25/03 00:15:31  5-MIN KSTC 250615Z AUTO 18010KT 10SM CLR 21/16 A2988 1070 73 2000 170/10 RMK AO2
14926KSTC STC20030725002009907/25/03 00:20:31  5-MIN KSTC 250620Z AUTO 17010KT 10SM CLR 21/16 A2987 1070 73 2000 170/10 RMK AO2
14926KSTC STC20030725002509907/25/03 00:25:31  5-MIN KSTC 250625Z AUTO 17010KT 10SM CLR 21/16 A2987 1070 73 2000 170/10 RMK AO2
14926KSTC STC20030725003009907/25/03 00:30:31  5-MIN KSTC 250630Z AUTO 17010KT 10SM CLR 21/16 A2988 1070 73 2000 170/10 RMK AO2
14926KSTC STC20030725003509907/25/03 00:35:31  5-MIN KSTC 250635Z AUTO 17009KT 10SM CLR 21/16 A2987 1070 73 2000 170/09 RMK AO2
14926KSTC STC20030725004009907/25/03 00:40:31  5-MIN KSTC 250640Z AUTO 17010KT 10SM CLR 21/16 A2987 1080 73 2000 170/10 RMK AO2
14926KSTC STC20030725004509907/25/03 00:45:31  5-MIN KSTC 250645Z AUTO 17011KT 10SM CLR 21/16 A2987 1080 73 2000 170/11 RMK AO2
14926KSTC STC20030725005011607/25/03 00:50:31  5-MIN KSTC 250650Z AUTO 18009KT 10SM CLR 21/16 A2987 1080 73 2000 170/09 RMK AO2 SLP117 T02060156
14926KSTC STC20030725005509907/25/03 00:55:31  5-MIN KSTC 250655Z AUTO 18010KT 10SM CLR 21/16 A2986 1080 73 2000 170/10 RMK AO2
14926KSTC STC20030725010009907/25/03 01:00:31  5-MIN KSTC 250700Z AUTO 18010KT 10SM CLR 21/16 A2987 1080 73 2000 170/10 RMK AO2
14926KSTC STC20030725010509907/25/03 01:05:31  5-MIN KSTC 250705Z AUTO 18008KT 10SM CLR 21/16 A2987 1080 73 2000 180/08 RMK AO2
14926KSTC STC20030725011009907/25/03 01:10:31  5-MIN KSTC 250710Z AUTO 18010KT 10SM CLR 21/16 A2986 1080 73 2000 180/10 RMK AO2
14926KSTC STC20030725011509907/25/03 01:15:31  5-MIN KSTC 250715Z AUTO 18010KT 10SM CLR 21/16 A2986 1080 73 2000 180/10 RMK AO2
14926KSTC STC20030725012009907/25/03 01:20:31  5-MIN KSTC 250720Z AUTO 18010KT 10SM CLR 21/16 A2987 1080 73 2000 180/10 RMK AO2
14926KSTC STC20030725012509907/25/03 01:25:31  5-MIN KSTC 250725Z AUTO 19011KT 10SM CLR 21/16 A2986 1080 73 2000 180/11 RMK AO2
14926KSTC STC20030725013009907/25/03 01:30:31  5-MIN KSTC 250730Z AUTO 18009KT 10SM CLR 21/16 A2986 1080 73 2000 180/09 RMK AO2
14926KSTC STC20030725013509907/25/03 01:35:31  5-MIN KSTC 250735Z AUTO 18009KT 10SM CLR 20/16 A2986 1080 75 2000 180/09 RMK AO2
14926KSTC STC20030725014009907/25/03 01:40:31  5-MIN KSTC 250740Z AUTO 18010KT 10SM CLR 21/15 A2986 1090 70 2000 180/10 RMK AO2
14926KSTC STC20030725014509907/25/03 01:45:31  5-MIN KSTC 250745Z AUTO 18009KT 10SM CLR 20/15 A2986 1090 72 2000 180/09 RMK AO2
14926KSTC STC20030725015011607/25/03 01:50:31  5-MIN KSTC 250750Z AUTO 18010KT 10SM CLR 20/15 A2986 1090 72 2000 180/10 RMK AO2 SLP113 T02000150
14926KSTC STC20030725015509907/25/03 01:55:31  5-MIN KSTC 250755Z AUTO 18011KT 10SM CLR 20/15 A2986 1090 72 2000 180/11 RMK AO2
14926KSTC STC20030725020009907/25/03 02:00:31  5-MIN KSTC 250800Z AUTO 18011KT 10SM CLR 20/15 A2985 1090 72 2000 180/11 RMK AO2
14926KSTC STC20030725020509907/25/03 02:05:31  5-MIN KSTC 250805Z AUTO 18011KT 10SM CLR 20/15 A2985 1090 72 2000 180/11 RMK AO2
14926KSTC STC20030725021009907/25/03 02:10:31  5-MIN KSTC 250810Z AUTO 18009KT 10SM CLR 21/15 A2985 1090 70 2000 180/09 RMK AO2
14926KSTC STC20030725021509907/25/03 02:15:31  5-MIN KSTC 250815Z AUTO 18010KT 10SM CLR 20/15 A2985 1090 72 2000 180/10 RMK AO2
14926KSTC STC20030725022009907/25/03 02:20:31  5-MIN KSTC 250820Z AUTO 18012KT 10SM CLR 20/15 A2985 1090 72 2000 180/12 RMK AO2
14926KSTC STC20030725022509907/25/03 02:25:31  5-MIN KSTC 250825Z AUTO 18012KT 10SM CLR 20/15 A2985 1090 72 2000 180/12 RMK AO2
14926KSTC STC20030725023009907/25/03 02:30:31  5-MIN KSTC 250830Z AUTO 17011KT 10SM CLR 20/15 A2985 1100 72 2000 170/11 RMK AO2
14926KSTC STC20030725023509907/25/03 02:35:31  5-MIN KSTC 250835Z AUTO 18011KT 10SM CLR 20/15 A2984 1100 72 2000 170/11 RMK AO2
14926KSTC STC20030725024009907/25/03 02:40:31  5-MIN KSTC 250840Z AUTO 18011KT 10SM CLR 20/15 A2984 1100 72 2000 180/11 RMK AO2
14926KSTC STC20030725024509907/25/03 02:45:31  5-MIN KSTC 250845Z AUTO 18010KT 10SM CLR 20/15 A2984 1100 72 2000 180/10 RMK AO2
14926KSTC STC20030725025012207/25/03 02:50:31  5-MIN KSTC 250850Z AUTO 18010KT 10SM CLR 20/15 A2984 1100 72 2000 180/10 RMK AO2 SLP107 T02000150 58011
14926KSTC STC20030725025509907/25/03 02:55:31  5-MIN KSTC 250855Z AUTO 18012KT 10SM CLR 20/15 A2984 1100 72 2000 170/12 RMK AO2
14926KSTC STC20030725030009907/25/03 03:00:31  5-MIN KSTC 250900Z AUTO 18011KT 10SM CLR 20/15 A2983 1110 72 2000 170/11 RMK AO2
14926KSTC STC20030725030509907/25/03 03:05:31  5-MIN KSTC 250905Z AUTO 18011KT 10SM CLR 20/15 A2983 1110 72 2000 170/11 RMK AO2
14926KSTC STC20030725031009907/25/03 03:10:31  5-MIN KSTC 250910Z AUTO 18011KT 10SM CLR 20/15 A2983 1110 72 2000 180/11 RMK AO2
14926KSTC STC20030725031509907/25/03 03:15:31  5-MIN KSTC 250915Z AUTO 17012KT 10SM CLR 20/15 A2983 1110 72 2000 170/12 RMK AO2
14926KSTC STC20030725032009907/25/03 03:20:31  5-MIN KSTC 250920Z AUTO 17014KT 10SM CLR 20/15 A2983 1110 72 2000 170/14 RMK AO2
14926KSTC STC20030725032509907/25/03 03:25:31  5-MIN KSTC 250925Z AUTO 18011KT 10SM CLR 20/14 A2983 1110 70 2000 170/11 RMK AO2
14926KSTC STC20030725033009907/25/03 03:30:31  5-MIN KSTC 250930Z AUTO 18010KT 10SM CLR 20/14 A2983 1110 70 2000 170/10 RMK AO2
14926KSTC STC20030725033509907/25/03 03:35:31  5-MIN KSTC 250935Z AUTO 18010KT 10SM CLR 20/14 A2983 1110 70 2000 170/10 RMK AO2
14926KSTC STC20030725034009907/25/03 03:40:31  5-MIN KSTC 250940Z AUTO 18010KT 10SM CLR 20/14 A2984 1100 70 2000 180/10 RMK AO2
14926KSTC STC20030725034509907/25/03 03:45:31  5-MIN KSTC 250945Z AUTO 18011KT 10SM CLR 20/14 A2984 1100 70 2000 180/11 RMK AO2
14926KSTC STC20030725035011607/25/03 03:50:31  5-MIN KSTC 250950Z AUTO 18011KT 10SM CLR 20/14 A2983 1110 70 2000 180/11 RMK AO2 SLP105 T02000144
14926KSTC STC20030725035509907/25/03 03:55:31  5-MIN KSTC 250955Z AUTO 18012KT 10SM CLR 20/14 A2983 1110 70 2000 170/12 RMK AO2
14926KSTC STC20030725040009907/25/03 04:00:31  5-MIN KSTC 251000Z AUTO 18011KT 10SM CLR 20/14 A2983 1110 70 2000 180/11 RMK AO2
14926KSTC STC20030725040509907/25/03 04:05:31  5-MIN KSTC 251005Z AUTO 18011KT 10SM CLR 20/14 A2983 1110 70 2000 170/11 RMK AO2
14926KSTC STC20030725041009907/25/03 04:10:31  5-MIN KSTC 251010Z AUTO 18012KT 10SM CLR 20/14 A2983 1110 70 2000 170/12 RMK AO2
14926KSTC STC20030725041509907/25/03 04:15:31  5-MIN KSTC 251015Z AUTO 18012KT 10SM CLR 20/14 A2983 1110 70 2000 170/12 RMK AO2
14926KSTC STC20030725042009907/25/03 04:20:31  5-MIN KSTC 251020Z AUTO 18011KT 10SM CLR 20/14 A2983 1110 70 2000 170/11 RMK AO2
14926KSTC STC20030725042509907/25/03 04:25:31  5-MIN KSTC 251025Z AUTO 18011KT 10SM CLR 20/14 A2984 1100 70 2000 170/11 RMK AO2
14926KSTC STC20030725043009907/25/03 04:30:31  5-MIN KSTC 251030Z AUTO 18010KT 10SM CLR 20/14 A2984 1110 70 2000 180/10 RMK AO2
14926KSTC STC20030725043509907/25/03 04:35:31  5-MIN KSTC 251035Z AUTO 18011KT 10SM CLR 20/14 A2984 1100 70 2000 170/11 RMK AO2
14926KSTC STC20030725044009907/25/03 04:40:31  5-MIN KSTC 251040Z AUTO 18012KT 10SM CLR 20/14 A2984 1100 70 2000 170/12 RMK AO2
14926KSTC STC20030725044509907/25/03 04:45:31  5-MIN KSTC 251045Z AUTO 18010KT 10SM CLR 20/14 A2983 1110 70 2000 170/10 RMK AO2
14926KSTC STC20030725045011607/25/03 04:50:31  5-MIN KSTC 251050Z AUTO 17010KT 10SM CLR 19/14 A2983 1110 72 1900 170/10 RMK AO2 SLP105 T01940144
14926KSTC STC20030725045509907/25/03 04:55:31  5-MIN KSTC 251055Z AUTO 17011KT 10SM CLR 19/14 A2983 1110 72 1900 170/11 RMK AO2
14926KSTC STC20030725050009907/25/03 05:00:31  5-MIN KSTC 251100Z AUTO 18011KT 10SM CLR 19/14 A2983 1110 72 1900 170/11 RMK AO2
14926KSTC STC20030725050509907/25/03 05:05:31  5-MIN KSTC 251105Z AUTO 17011KT 10SM CLR 19/14 A2983 1110 72 1900 170/11 RMK AO2
14926KSTC STC20030725051009907/25/03 05:10:31  5-MIN KSTC 251110Z AUTO 17012KT 10SM CLR 19/14 A2982 1120 72 1900 170/12 RMK AO2
14926KSTC STC20030725051509907/25/03 05:15:31  5-MIN KSTC 251115Z AUTO 17010KT 10SM CLR 19/14 A2982 1120 72 1900 170/10 RMK AO2
14926KSTC STC20030725052009907/25/03 05:20:31  5-MIN KSTC 251120Z AUTO 17011KT 10SM CLR 19/14 A2982 1120 72 1900 160/11 RMK AO2
14926KSTC STC20030725052509907/25/03 05:25:31  5-MIN KSTC 251125Z AUTO 17010KT 10SM CLR 19/14 A2982 1120 72 1900 170/10 RMK AO2
14926KSTC STC20030725053009907/25/03 05:30:31  5-MIN KSTC 251130Z AUTO 17012KT 10SM CLR 19/14 A2982 1120 72 1900 170/12 RMK AO2
14926KSTC STC20030725053509907/25/03 05:35:31  5-MIN KSTC 251135Z AUTO 17011KT 10SM CLR 19/14 A2982 1120 72 1900 170/11 RMK AO2
14926KSTC STC20030725054009907/25/03 05:40:31  5-MIN KSTC 251140Z AUTO 17010KT 10SM CLR 19/14 A2982 1120 72 1900 170/10 RMK AO2
14926KSTC STC20030725054509907/25/03 05:45:31  5-MIN KSTC 251145Z AUTO 17010KT 10SM CLR 20/14 A2982 1120 70 2000 170/10 RMK AO2
14926KSTC STC20030725055014007/25/03 05:50:31  5-MIN KSTC 251150Z AUTO 17009KT 10SM CLR 19/14 A2982 1120 72 1900 170/09 RMK AO2 SLP101 7//// T01940144 10211 20194 58013
14926KSTC STC20030725055509907/25/03 05:55:31  5-MIN KSTC 251155Z AUTO 17011KT 10SM CLR 20/14 A2982 1120 70 2000 170/11 RMK AO2
14926KSTC STC20030725060009907/25/03 06:00:31  5-MIN KSTC 251200Z AUTO 18010KT 10SM CLR 20/15 A2982 1120 72 2000 170/10 RMK AO2
14926KSTC STC20030725060509907/25/03 06:05:31  5-MIN KSTC 251205Z AUTO 18009KT 10SM CLR 20/15 A2982 1120 72 2000 170/09 RMK AO2
14926KSTC STC20030725061009907/25/03 06:10:31  5-MIN KSTC 251210Z AUTO 18011KT 10SM CLR 20/15 A2982 1120 72 2000 180/11 RMK AO2
14926KSTC STC20030725061509907/25/03 06:15:31  5-MIN KSTC 251215Z AUTO 18009KT 10SM CLR 20/15 A2982 1120 72 2000 170/09 RMK AO2
14926KSTC STC20030725062009907/25/03 06:20:31  5-MIN KSTC 251220Z AUTO 18010KT 10SM CLR 20/15 A2982 1120 72 2000 180/10 RMK AO2
14926KSTC STC20030725062509907/25/03 06:25:31  5-MIN KSTC 251225Z AUTO 17009KT 10SM CLR 20/15 A2982 1120 72 2000 170/09 RMK AO2
14926KSTC STC20030725063009907/25/03 06:30:31  5-MIN KSTC 251230Z AUTO 19012KT 10SM CLR 21/15 A2982 1120 70 2100 180/12 RMK AO2
14926KSTC STC20030725063509907/25/03 06:35:31  5-MIN KSTC 251235Z AUTO 18013KT 10SM CLR 21/15 A2982 1120 70 2100 180/13 RMK AO2
14926KSTC STC20030725064009907/25/03 06:40:31  5-MIN KSTC 251240Z AUTO 18011KT 10SM CLR 21/15 A2982 1120 70 2100 180/11 RMK AO2
14926KSTC STC20030725064509907/25/03 06:45:31  5-MIN KSTC 251245Z AUTO 18011KT 10SM CLR 21/15 A2982 1120 70 2100 180/11 RMK AO2
14926KSTC STC20030725065011607/25/03 06:50:31  5-MIN KSTC 251250Z AUTO 18012KT 10SM CLR 21/15 A2982 1120 70 2100 180/12 RMK AO2 SLP100 T02060150
14926KSTC STC20030725065509907/25/03 06:55:31  5-MIN KSTC 251255Z AUTO 18011KT 10SM CLR 21/15 A2982 1120 68 2100 180/11 RMK AO2
14926KSTC STC20030725070009907/25/03 07:00:31  5-MIN KSTC 251300Z AUTO 18011KT 10SM CLR 21/15 A2983 1110 68 2100 180/11 RMK AO2
14926KSTC STC20030725070509907/25/03 07:05:31  5-MIN KSTC 251305Z AUTO 18010KT 10SM CLR 21/16 A2983 1110 70 2100 180/10 RMK AO2
14926KSTC STC20030725071009907/25/03 07:10:31  5-MIN KSTC 251310Z AUTO 18009KT 10SM CLR 21/16 A2982 1120 70 2100 180/09 RMK AO2
14926KSTC STC20030725071509907/25/03 07:15:31  5-MIN KSTC 251315Z AUTO 17009KT 10SM CLR 22/16 A2982 1120 68 2200 170/09 RMK AO2
14926KSTC STC20030725072009907/25/03 07:20:31  5-MIN KSTC 251320Z AUTO 19011KT 10SM CLR 22/16 A2983 1110 68 2200 180/11 RMK AO2
14926KSTC STC20030725072510507/25/03 07:25:31  5-MIN KSTC 251325Z AUTO 18012G17KT 10SM CLR 22/16 A2983 1110 68 2200 180/12G17 RMK AO2
14926KSTC STC20030725073010507/25/03 07:30:31  5-MIN KSTC 251330Z AUTO 19011G17KT 10SM CLR 22/16 A2983 1110 68 2200 180/11G17 RMK AO2
14926KSTC STC20030725073509907/25/03 07:35:31  5-MIN KSTC 251335Z AUTO 19010KT 10SM CLR 22/16 A2983 1110 65 2200 180/10 RMK AO2
14926KSTC STC20030725074009907/25/03 07:40:31  5-MIN KSTC 251340Z AUTO 18009KT 10SM CLR 22/16 A2983 1110 65 2200 180/09 RMK AO2
14926KSTC STC20030725074509907/25/03 07:45:31  5-MIN KSTC 251345Z AUTO 18013KT 10SM CLR 23/16 A2982 1110 63 2300 180/13 RMK AO2
14926KSTC STC20030725075011607/25/03 07:50:31  5-MIN KSTC 251350Z AUTO 18009KT 10SM CLR 23/16 A2983 1110 65 2300 180/09 RMK AO2 SLP103 T02280161
14926KSTC STC20030725075510507/25/03 07:55:31  5-MIN KSTC 251355Z AUTO 18012G17KT 10SM CLR 23/16 A2983 1110 65 2300 180/12G17 RMK AO2
14926KSTC STC20030725080010507/25/03 08:00:31  5-MIN KSTC 251400Z AUTO 19014G17KT 10SM CLR 23/16 A2983 1110 65 2300 190/14G17 RMK AO2
14926KSTC STC20030725080509907/25/03 08:05:31  5-MIN KSTC 251405Z AUTO 18011KT 10SM CLR 23/16 A2983 1110 65 2300 180/11 RMK AO2
14926KSTC STC20030725081009907/25/03 08:10:31  5-MIN KSTC 251410Z AUTO 19011KT 10SM CLR 23/16 A2983 1110 65 2300 190/11 RMK AO2
14926KSTC STC20030725081510507/25/03 08:15:31  5-MIN KSTC 251415Z AUTO 19013G17KT 10SM CLR 23/16 A2983 1110 65 2300 190/13G17 RMK AO2
14926KSTC STC20030725082009907/25/03 08:20:31  5-MIN KSTC 251420Z AUTO 19012KT 10SM CLR 23/16 A2983 1110 63 2400 190/12 RMK AO2
14926KSTC STC20030725082509907/25/03 08:25:31  5-MIN KSTC 251425Z AUTO 19011KT 10SM CLR 23/16 A2983 1110 63 2400 190/11 RMK AO2
14926KSTC STC20030725083009907/25/03 08:30:31  5-MIN KSTC 251430Z AUTO 19011KT 10SM CLR 23/17 A2983 1110 66 2400 190/11 RMK AO2
14926KSTC STC20030725083509907/25/03 08:35:31  5-MIN KSTC 251435Z AUTO 18011KT 10SM CLR 23/16 A2984 1100 65 2300 180/11 RMK AO2
14926KSTC STC20030725084009907/25/03 08:40:31  5-MIN KSTC 251440Z AUTO 19010KT 10SM CLR 23/16 A2984 1100 65 2300 190/10 RMK AO2
14926KSTC STC20030725084509907/25/03 08:45:31  5-MIN KSTC 251445Z AUTO 19008KT 10SM CLR 23/17 A2984 1100 68 2300 190/08 RMK AO2
14926KSTC STC20030725085012207/25/03 08:50:31  5-MIN KSTC 251450Z AUTO 18007KT 10SM CLR 24/17 A2984 1100 63 2400 170/07 RMK AO2 SLP106 T02390167 58006
14926KSTC STC20030725085509907/25/03 08:55:31  5-MIN KSTC 251455Z AUTO 20010KT 10SM CLR 24/17 A2983 1110 63 2400 190/10 RMK AO2
14926KSTC STC20030725090010507/25/03 09:00:31  5-MIN KSTC 251500Z AUTO 19012G17KT 10SM CLR 24/17 A2984 1100 61 2500 180/12G17 RMK AO2
14926KSTC STC20030725090509907/25/03 09:05:31  5-MIN KSTC 251505Z AUTO 19012KT 10SM CLR 24/17 A2984 1100 61 2500 190/12 RMK AO2
14926KSTC STC20030725091010507/25/03 09:10:31  5-MIN KSTC 251510Z AUTO 21013G17KT 10SM CLR 24/17 A2984 1100 61 2500 200/13G17 RMK AO2
14926KSTC STC20030725091509907/25/03 09:15:31  5-MIN KSTC 251515Z AUTO 20010KT 10SM CLR 25/17 A2984 1110 61 2600 200/10 RMK AO2
14926KSTC STC20030725092009907/25/03 09:20:31  5-MIN KSTC 251520Z AUTO 20011KT 10SM CLR 25/17 A2983 1110 61 2600 200/11 RMK AO2
14926KSTC STC20030725092509907/25/03 09:25:31  5-MIN KSTC 251525Z AUTO 19013KT 10SM CLR 24/17 A2983 1110 63 2500 190/13 RMK AO2
14926KSTC STC20030725093009907/25/03 09:30:31  5-MIN KSTC 251530Z AUTO 19011KT 10SM CLR 25/17 A2983 1110 59 2600 190/11 RMK AO2
14926KSTC STC20030725093509907/25/03 09:35:31  5-MIN KSTC 251535Z AUTO 19013KT 10SM CLR 26/17 A2983 1110 59 2600 190/13 RMK AO2
14926KSTC STC20030725094009907/25/03 09:40:31  5-MIN KSTC 251540Z AUTO 19009KT 10SM CLR 25/17 A2983 1110 61 2600 190/09 RMK AO2
14926KSTC STC20030725094509907/25/03 09:45:31  5-MIN KSTC 251545Z AUTO 19011KT 10SM CLR 25/17 A2983 1110 61 2600 190/11 RMK AO2
14926KSTC STC20030725095011607/25/03 09:50:31  5-MIN KSTC 251550Z AUTO 19013KT 10SM CLR 25/17 A2983 1110 61 2600 190/13 RMK AO2 SLP103 T02500172
14926KSTC STC20030725095509907/25/03 09:55:31  5-MIN KSTC 251555Z AUTO 19012KT 10SM CLR 26/17 A2983 1110 57 2700 190/12 RMK AO2
14926KSTC STC20030725100009907/25/03 10:00:31  5-MIN KSTC 251600Z AUTO 20012KT 10SM CLR 26/17 A2983 1110 57 2700 190/12 RMK AO2
14926KSTC STC20030725100509907/25/03 10:05:31  5-MIN KSTC 251605Z AUTO 19012KT 10SM CLR 26/18 A2983 1110 59 2700 190/12 RMK AO2
14926KSTC STC20030725101009907/25/03 10:10:31  5-MIN KSTC 251610Z AUTO 19011KT 10SM CLR 26/18 A2983 1110 59 2700 190/11 RMK AO2
14926KSTC STC20030725101509907/25/03 10:15:31  5-MIN KSTC 251615Z AUTO 19010KT 10SM CLR 26/18 A2983 1110 59 2700 190/10 RMK AO2
14926KSTC STC20030725102009907/25/03 10:20:31  5-MIN KSTC 251620Z AUTO 19011KT 10SM CLR 27/18 A2983 1110 57 2700 190/11 RMK AO2
14926KSTC STC20030725102509907/25/03 10:25:31  5-MIN KSTC 251625Z AUTO 19010KT 10SM CLR 26/18 A2983 1110 59 2700 190/10 RMK AO2
14926KSTC STC20030725103009907/25/03 10:30:31  5-MIN KSTC 251630Z AUTO 21011KT 10SM CLR 26/18 A2983 1110 59 2700 210/11 RMK AO2
14926KSTC STC20030725103509907/25/03 10:35:31  5-MIN KSTC 251635Z AUTO 20010KT 10SM CLR 27/18 A2983 1110 57 2700 200/10 RMK AO2
14926KSTC STC20030725104009907/25/03 10:40:31  5-MIN KSTC 251640Z AUTO 19010KT 10SM CLR 26/18 A2983 1110 61 2600 190/10 RMK AO2
14926KSTC STC20030725104509907/25/03 10:45:31  5-MIN KSTC 251645Z AUTO 19009KT 10SM CLR 26/18 A2983 1110 61 2600 190/09 RMK AO2
14926KSTC STC20030725105011607/25/03 10:50:31  5-MIN KSTC 251650Z AUTO 20010KT 10SM CLR 26/18 A2983 1110 61 2600 190/10 RMK AO2 SLP105 T02560178
14926KSTC STC20030725105509907/25/03 10:55:31  5-MIN KSTC 251655Z AUTO 19009KT 10SM CLR 26/18 A2983 1110 64 2600 190/09 RMK AO2
14926KSTC STC20030725110009907/25/03 11:00:31  5-MIN KSTC 251700Z AUTO 19009KT 10SM CLR 26/18 A2983 1110 64 2600 190/09 RMK AO2
14926KSTC STC20030725110509907/25/03 11:05:31  5-MIN KSTC 251705Z AUTO 20010KT 10SM CLR 26/18 A2983 1110 61 2600 190/10 RMK AO2
14926KSTC STC20030725111009907/25/03 11:10:31  5-MIN KSTC 251710Z AUTO 18007KT 10SM CLR 26/18 A2983 1110 61 2600 180/07 RMK AO2
14926KSTC STC20030725111509907/25/03 11:15:31  5-MIN KSTC 251715Z AUTO 18008KT 10SM CLR 26/18 A2982 1120 64 2600 170/08 RMK AO2
14926KSTC STC20030725112010607/25/03 11:20:31  5-MIN KSTC 251720Z AUTO 17009KT 10SM CLR 26/18 A2981 1130 64 2600 160/09 RMK AO2 PRESFR
14926KSTC STC20030725112509907/25/03 11:25:31  5-MIN KSTC 251725Z AUTO 18009KT 10SM CLR 26/18 A2981 1130 64 2600 180/09 RMK AO2
14926KSTC STC20030725113009907/25/03 11:30:31  5-MIN KSTC 251730Z AUTO 18007KT 10SM CLR 26/18 A2981 1130 64 2600 170/07 RMK AO2
14926KSTC STC20030725113509907/25/03 11:35:31  5-MIN KSTC 251735Z AUTO 15008KT 10SM CLR 26/19 A2980 1130 66 2600 150/08 RMK AO2
14926KSTC STC20030725114009907/25/03 11:40:31  5-MIN KSTC 251740Z AUTO 16008KT 10SM CLR 26/19 A2980 1130 66 2600 160/08 RMK AO2
14926KSTC STC20030725114509907/25/03 11:45:31  5-MIN KSTC 251745Z AUTO 15006KT 10SM CLR 26/19 A2980 1140 66 2700 150/06 RMK AO2
14926KSTC STC20030725115013407/25/03 11:50:31  5-MIN KSTC 251750Z AUTO 16007KT 10SM CLR 26/19 A2981 1130 66 2600 160/07 RMK AO2 SLP096 T02560189 10267 20200 53004
14926KSTC STC20030725115509907/25/03 11:55:31  5-MIN KSTC 251755Z AUTO 19007KT 10SM CLR 25/18 A2982 1120 66 2600 190/07 RMK AO2
14926KSTC STC20030725120009907/25/03 12:00:31  5-MIN KSTC 251800Z AUTO 19007KT 10SM CLR 25/19 A2982 1120 68 2600 190/07 RMK AO2
14926KSTC STC20030725120509907/25/03 12:05:31  5-MIN KSTC 251805Z AUTO 17005KT 10SM CLR 25/19 A2982 1120 68 2600 160/05 RMK AO2
14926KSTC STC20030725121009907/25/03 12:10:31  5-MIN KSTC 251810Z AUTO 15006KT 10SM CLR 25/19 A2981 1130 71 2600 140/06 RMK AO2
14926KSTC STC20030725121509907/25/03 12:15:31  5-MIN KSTC 251815Z AUTO 15008KT 10SM CLR 25/19 A2980 1130 68 2600 150/08 RMK AO2
14926KSTC STC20030725122009907/25/03 12:20:31  5-MIN KSTC 251820Z AUTO 18006KT 10SM CLR 25/19 A2983 1110 68 2600 180/06 RMK AO2
14926KSTC STC20030725122509907/25/03 12:25:31  5-MIN KSTC 251825Z AUTO 21003KT 10SM CLR 25/19 A2984 1100 71 2500 200/03 RMK AO2
14926KSTC STC20030725123009907/25/03 12:30:31  5-MIN KSTC 251830Z AUTO 15003KT 10SM CLR 25/19 A2983 1110 71 2600 150/03 RMK AO2
14926KSTC STC20030725123509907/25/03 12:35:31  5-MIN KSTC 251835Z AUTO 12004KT 10SM CLR 25/19 A2982 1120 71 2600 120/04 RMK AO2
14926KSTC STC20030725124009907/25/03 12:40:31  5-MIN KSTC 251840Z AUTO 13006KT 10SM CLR 26/19 A2981 1130 68 2600 130/06 RMK AO2
14926KSTC STC20030725124509907/25/03 12:45:31  5-MIN KSTC 251845Z AUTO 14008KT 10SM CLR 26/19 A2981 1120 68 2600 140/08 RMK AO2
14926KSTC STC20030725125011607/25/03 12:50:31  5-MIN KSTC 251850Z AUTO VRB04KT 10SM CLR 26/19 A2982 1120 66 2700 VRB/04 RMK AO2 SLP102 T02610194
14926KSTC STC20030725125509907/25/03 12:55:31  5-MIN KSTC 251855Z AUTO 12006KT 10SM CLR 26/19 A2982 1120 66 2700 110/06 RMK AO2
14926KSTC STC20030725130009907/25/03 13:00:31  5-MIN KSTC 251900Z AUTO 10005KT 10SM CLR 26/20 A2983 1110 68 2700 100/05 RMK AO2
14926KSTC STC20030725130509907/25/03 13:05:31  5-MIN KSTC 251905Z AUTO 12006KT 10SM CLR 26/19 A2982 1120 66 2700 120/06 RMK AO2
14926KSTC STC20030725131009907/25/03 13:10:31  5-MIN KSTC 251910Z AUTO 14008KT 10SM CLR 26/19 A2981 1120 66 2700 140/08 RMK AO2
14926KSTC STC20030725131509907/25/03 13:15:31  5-MIN KSTC 251915Z AUTO 14007KT 10SM CLR 26/19 A2982 1120 66 2700 130/07 RMK AO2
14926KSTC STC20030725132009907/25/03 13:20:31  5-MIN KSTC 251920Z AUTO 13006KT 10SM CLR 27/19 A2983 1110 64 2700 130/06 RMK AO2
14926KSTC STC20030725132509907/25/03 13:25:31  5-MIN KSTC 251925Z AUTO 10005KT 10SM CLR 27/20 A2983 1110 66 2700 100/05 RMK AO2
14926KSTC STC20030725133009907/25/03 13:30:31  5-MIN KSTC 251930Z AUTO 11006KT 10SM CLR 27/19 A2983 1110 64 2700 110/06 RMK AO2
14926KSTC STC20030725133509907/25/03 13:35:31  5-MIN KSTC 251935Z AUTO 15008KT 10SM CLR 27/20 A2982 1120 66 2800 140/08 RMK AO2
14926KSTC STC20030725134009907/25/03 13:40:31  5-MIN KSTC 251940Z AUTO 14007KT 10SM CLR 27/20 A2983 1110 66 2700 140/07 RMK AO2
14926KSTC STC20030725134509907/25/03 13:45:31  5-MIN KSTC 251945Z AUTO 14008KT 10SM CLR 27/20 A2983 1110 66 2700 140/08 RMK AO2
14926KSTC STC20030725135011607/25/03 13:50:31  5-MIN KSTC 251950Z AUTO 15009KT 10SM CLR 27/20 A2983 1110 64 2800 140/09 RMK AO2 SLP103 T02720200
14926KSTC STC20030725135509907/25/03 13:55:31  5-MIN KSTC 251955Z AUTO 15009KT 10SM CLR 27/20 A2983 1110 64 2800 150/09 RMK AO2
14926KSTC STC20030725140009907/25/03 14:00:31  5-MIN KSTC 252000Z AUTO 15006KT 10SM CLR 27/20 A2984 1100 64 2800 140/06 RMK AO2
14926KSTC STC20030725140510607/25/03 14:05:31  5-MIN KSTC 252005Z AUTO 16007KT 10SM CLR 27/20 A2985 1090 64 2800 160/07 RMK AO2 PRESRR
14926KSTC STC20030725141009907/25/03 14:10:31  5-MIN KSTC 252010Z AUTO 10005KT 10SM CLR 27/20 A2985 1090 64 2800 100/05 RMK AO2
14926KSTC STC20030725141509907/25/03 14:15:31  5-MIN KSTC 252015Z AUTO VRB05KT 10SM CLR 27/21 A2984 1100 66 2800 VRB/05 RMK AO2
14926KSTC STC20030725142009907/25/03 14:20:31  5-MIN KSTC 252020Z AUTO 14008KT 10SM CLR 28/21 A2983 1110 64 2900 130/08 RMK AO2
14926KSTC STC20030725142509907/25/03 14:25:31  5-MIN KSTC 252025Z AUTO 11008KT 10SM CLR 28/20 A2983 1110 62 2900 110/08 RMK AO2
14926KSTC STC20030725143009907/25/03 14:30:31  5-MIN KSTC 252030Z AUTO 09007KT 10SM CLR 28/21 A2983 1110 64 2900 090/07 RMK AO2
14926KSTC STC20030725143509907/25/03 14:35:31  5-MIN KSTC 252035Z AUTO 09005KT 10SM CLR 28/21 A2984 1100 66 2900 090/05 RMK AO2
14926KSTC STC20030725144009907/25/03 14:40:31  5-MIN KSTC 252040Z AUTO VRB04KT 10SM CLR 28/21 A2985 1090 64 2800 VRB/04 RMK AO2
14926KSTC STC20030725144509907/25/03 14:45:31  5-MIN KSTC 252045Z AUTO 07005KT 10SM CLR 27/21 A2985 1090 66 2800 060/05 RMK AO2
14926KSTC STC20030725145012207/25/03 14:50:31  5-MIN KSTC 252050Z AUTO VRB03KT 10SM CLR 27/21 A2984 1100 69 2800 VRB/03 RMK AO2 SLP105 T02720211 58005
14926KSTC STC20030725145509907/25/03 14:55:31  5-MIN KSTC 252055Z AUTO 11006KT 10SM CLR 27/21 A2983 1110 69 2800 110/06 RMK AO2
14926KSTC STC20030725150010607/25/03 15:00:31  5-MIN KSTC 252100Z AUTO 11006KT 10SM CLR 27/21 A2982 1120 71 2800 110/06 RMK AO2 PRESFR
14926KSTC STC20030725150510607/25/03 15:05:31  5-MIN KSTC 252105Z AUTO 13007KT 10SM CLR 27/21 A2981 1130 71 2800 120/07 RMK AO2 PRESFR
14926KSTC STC20030725151009907/25/03 15:10:31  5-MIN KSTC 252110Z AUTO 13008KT 10SM CLR 27/21 A2981 1130 71 2800 120/08 RMK AO2
14926KSTC STC20030725151509907/25/03 15:15:31  5-MIN KSTC 252115Z AUTO 12007KT 10SM CLR 27/21 A2981 1130 71 2800 120/07 RMK AO2
14926KSTC STC20030725152009907/25/03 15:20:31  5-MIN KSTC 252120Z AUTO 11006KT 10SM CLR 27/21 A2981 1130 71 2800 110/06 RMK AO2
14926KSTC STC20030725152509907/25/03 15:25:31  5-MIN KSTC 252125Z AUTO 11006KT 10SM CLR 27/21 A2981 1130 71 2800 110/06 RMK AO2
14926KSTC STC20030725153011507/25/03 15:30:31  5-MIN KSTC 252130Z AUTO 12007KT 10SM -RA CLR 26/21 A2981 1130 73 2700 110/07 RMK AO2 RAB30 P0000
14926KSTC STC20030725153511507/25/03 15:35:31  5-MIN KSTC 252135Z AUTO 12007KT 10SM -RA CLR 26/21 A2981 1130 76 2600 110/07 RMK AO2 RAB30 P0000
14926KSTC STC20030725155013107/25/03 15:50:31  5-MIN KSTC 252150Z AUTO 12006KT 10SM CLR 26/21 A2981 1130 73 2700 120/06 RMK AO2 RAB30E40 SLP098 P0000 T02610211
14926KSTC STC20030725155509907/25/03 15:55:31  5-MIN KSTC 252155Z AUTO 11006KT 10SM CLR 26/21 A2981 1130 73 2700 110/06 RMK AO2
14926KSTC STC20030725160009907/25/03 16:00:31  5-MIN KSTC 252200Z AUTO 12005KT 10SM CLR 26/21 A2980 1130 73 2700 110/05 RMK AO2
14926KSTC STC20030725160509907/25/03 16:05:31  5-MIN KSTC 252205Z AUTO 12007KT 10SM CLR 26/22 A2980 1140 76 2700 110/07 RMK AO2
14926KSTC STC20030725161009907/25/03 16:10:31  5-MIN KSTC 252210Z AUTO VRB05KT 10SM CLR 26/21 A2980 1130 73 2700 VRB/05 RMK AO2
14926KSTC STC20030725161509907/25/03 16:15:31  5-MIN KSTC 252215Z AUTO 11007KT 10SM CLR 26/21 A2979 1140 73 2700 110/07 RMK AO2
14926KSTC STC20030725162009907/25/03 16:20:31  5-MIN KSTC 252220Z AUTO 12007KT 10SM CLR 26/21 A2980 1140 73 2700 110/07 RMK AO2
14926KSTC STC20030725162509907/25/03 16:25:31  5-MIN KSTC 252225Z AUTO 12007KT 10SM CLR 26/21 A2979 1140 73 2700 110/07 RMK AO2
14926KSTC STC20030725163009907/25/03 16:30:31  5-MIN KSTC 252230Z AUTO 11008KT 10SM CLR 26/21 A2979 1140 73 2700 110/08 RMK AO2
14926KSTC STC20030725163509907/25/03 16:35:31  5-MIN KSTC 252235Z AUTO 11007KT 10SM CLR 26/21 A2979 1150 73 2700 100/07 RMK AO2
14926KSTC STC20030725164009907/25/03 16:40:31  5-MIN KSTC 252240Z AUTO 11006KT 10SM CLR 26/21 A2979 1150 73 2700 100/06 RMK AO2
14926KSTC STC20030725164509907/25/03 16:45:31  5-MIN KSTC 252245Z AUTO 11008KT 10SM CLR 27/22 A2979 1150 73 2800 100/08 RMK AO2
14926KSTC STC20030725165011607/25/03 16:50:31  5-MIN KSTC 252250Z AUTO 12008KT 10SM CLR 27/22 A2979 1150 73 2800 110/08 RMK AO2 SLP090 T02670217
14926KSTC STC20030725165509907/25/03 16:55:31  5-MIN KSTC 252255Z AUTO 12007KT 10SM CLR 27/22 A2979 1150 73 2800 110/07 RMK AO2
14926KSTC STC20030725170009907/25/03 17:00:31  5-MIN KSTC 252300Z AUTO 12008KT 10SM CLR 27/22 A2979 1150 73 2800 110/08 RMK AO2
14926KSTC STC20030725170509907/25/03 17:05:31  5-MIN KSTC 252305Z AUTO 11007KT 10SM CLR 27/22 A2978 1150 73 2800 110/07 RMK AO2
14926KSTC STC20030725171009907/25/03 17:10:31  5-MIN KSTC 252310Z AUTO 12007KT 10SM CLR 27/22 A2978 1150 73 2800 120/07 RMK AO2
14926KSTC STC20030725171509907/25/03 17:15:31  5-MIN KSTC 252315Z AUTO 12008KT 10SM CLR 27/22 A2978 1150 73 2800 110/08 RMK AO2
14926KSTC STC20030725172009907/25/03 17:20:31  5-MIN KSTC 252320Z AUTO 12008KT 10SM CLR 27/22 A2978 1150 73 2800 120/08 RMK AO2
14926KSTC STC20030725172509907/25/03 17:25:31  5-MIN KSTC 252325Z AUTO 13009KT 10SM CLR 27/21 A2978 1150 71 2800 130/09 RMK AO2
14926KSTC STC20030725173009907/25/03 17:30:31  5-MIN KSTC 252330Z AUTO 13008KT 10SM CLR 27/21 A2978 1150 71 2800 120/08 RMK AO2
14926KSTC STC20030725173509907/25/03 17:35:31  5-MIN KSTC 252335Z AUTO 12007KT 10SM CLR 27/21 A2979 1150 71 2800 120/07 RMK AO2
14926KSTC STC20030725174009907/25/03 17:40:31  5-MIN KSTC 252340Z AUTO 11007KT 10SM CLR 27/21 A2979 1140 71 2800 110/07 RMK AO2
14926KSTC STC20030725174509907/25/03 17:45:31  5-MIN KSTC 252345Z AUTO 11007KT 10SM CLR 27/22 A2979 1140 73 2800 100/07 RMK AO2
14926KSTC STC20030725175014007/25/03 17:50:31  5-MIN KSTC 252350Z AUTO 11006KT 10SM CLR 27/22 A2980 1140 73 2800 110/06 RMK AO2 SLP092 60000 T02670217 10278 20250 51004
14926KSTC STC20030725175509907/25/03 17:55:31  5-MIN KSTC 252355Z AUTO 11005KT 10SM CLR 27/22 A2980 1140 73 2800 100/05 RMK AO2
14926KSTC STC20030725180009907/25/03 18:00:31  5-MIN KSTC 260000Z AUTO 10005KT 10SM CLR 27/22 A2979 1140 73 2800 100/05 RMK AO2
14926KSTC STC20030725180509907/25/03 18:05:31  5-MIN KSTC 260005Z AUTO 09006KT 10SM CLR 27/22 A2980 1140 73 2800 090/06 RMK AO2
14926KSTC STC20030725181009907/25/03 18:10:31  5-MIN KSTC 260010Z AUTO 10005KT 10SM CLR 27/22 A2980 1140 73 2800 090/05 RMK AO2
14926KSTC STC20030725181509907/25/03 18:15:31  5-MIN KSTC 260015Z AUTO 10006KT 10SM CLR 27/22 A2980 1140 73 2800 090/06 RMK AO2
14926KSTC STC20030725182009907/25/03 18:20:31  5-MIN KSTC 260020Z AUTO 10005KT 10SM CLR 27/22 A2980 1140 73 2800 100/05 RMK AO2
14926KSTC STC20030725182509907/25/03 18:25:31  5-MIN KSTC 260025Z AUTO 09006KT 10SM CLR 27/22 A2980 1140 73 2800 090/06 RMK AO2
14926KSTC STC20030725183009907/25/03 18:30:31  5-MIN KSTC 260030Z AUTO 09006KT 10SM CLR 27/22 A2980 1140 73 2800 090/06 RMK AO2
14926KSTC STC20030725183509907/25/03 18:35:31  5-MIN KSTC 260035Z AUTO 09006KT 10SM CLR 27/22 A2980 1140 73 2800 080/06 RMK AO2
14926KSTC STC20030725184009907/25/03 18:40:31  5-MIN KSTC 260040Z AUTO 09005KT 10SM CLR 27/22 A2980 1140 73 2800 080/05 RMK AO2
14926KSTC STC20030725184509907/25/03 18:45:31  5-MIN KSTC 260045Z AUTO 08007KT 10SM CLR 27/22 A2980 1140 76 2800 080/07 RMK AO2
14926KSTC STC20030725185011607/25/03 18:50:31  5-MIN KSTC 260050Z AUTO 08008KT 10SM CLR 27/22 A2980 1140 76 2800 080/08 RMK AO2 SLP092 T02670222
14926KSTC STC20030725185509907/25/03 18:55:31  5-MIN KSTC 260055Z AUTO 09007KT 10SM CLR 26/22 A2980 1140 79 2700 090/07 RMK AO2
14926KSTC STC20030725190009907/25/03 19:00:31  5-MIN KSTC 260100Z AUTO 09007KT 10SM CLR 26/22 A2980 1140 76 2700 090/07 RMK AO2
14926KSTC STC20030725190509907/25/03 19:05:31  5-MIN KSTC 260105Z AUTO 09006KT 10SM CLR 26/22 A2980 1140 76 2700 090/06 RMK AO2
14926KSTC STC20030725191009907/25/03 19:10:31  5-MIN KSTC 260110Z AUTO 10006KT 10SM CLR 26/22 A2980 1140 76 2700 100/06 RMK AO2
14926KSTC STC20030725191509907/25/03 19:15:31  5-MIN KSTC 260115Z AUTO 10006KT 10SM CLR 26/22 A2980 1140 76 2700 100/06 RMK AO2
14926KSTC STC20030725192009907/25/03 19:20:31  5-MIN KSTC 260120Z AUTO 10007KT 10SM CLR 26/22 A2980 1140 76 2700 100/07 RMK AO2
14926KSTC STC20030725192511507/25/03 19:25:31  5-MIN KSTC 260125Z AUTO 11008KT 090V150 10SM CLR 26/22 A2979 1140 79 2700 100/08 090V150 RMK AO2
14926KSTC STC20030725193009907/25/03 19:30:31  5-MIN KSTC 260130Z AUTO 11007KT 10SM CLR 26/22 A2979 1150 79 2700 110/07 RMK AO2
14926KSTC STC20030725193510207/25/03 19:35:31  5-MIN KSTC 260135Z AUTO 11006KT 10SM FEW050 26/22 A2979 1150 79 2700 110/06 RMK AO2
14926KSTC STC20030725194010207/25/03 19:40:31  5-MIN KSTC 260140Z AUTO 10007KT 10SM FEW050 26/22 A2979 1140 79 2700 100/07 RMK AO2
14926KSTC STC20030725194510207/25/03 19:45:31  5-MIN KSTC 260145Z AUTO 11006KT 10SM FEW050 26/22 A2980 1140 79 2700 100/06 RMK AO2
14926KSTC STC20030725195011907/25/03 19:50:31  5-MIN KSTC 260150Z AUTO 11006KT 10SM SCT050 26/22 A2980 1140 79 2700 110/06 RMK AO2 SLP091 T02560217
14926KSTC STC20030725195510207/25/03 19:55:31  5-MIN KSTC 260155Z AUTO 11007KT 10SM SCT050 25/22 A2980 1140 81 2600 100/07 RMK AO2
14926KSTC STC20030725200010207/25/03 20:00:31  5-MIN KSTC 260200Z AUTO 11006KT 10SM FEW050 25/22 A2980 1140 81 2600 100/06 RMK AO2
14926KSTC STC20030725200510207/25/03 20:05:31  5-MIN KSTC 260205Z AUTO 11006KT 10SM FEW050 25/22 A2980 1140 81 2600 110/06 RMK AO2
14926KSTC STC20030725201010207/25/03 20:10:31  5-MIN KSTC 260210Z AUTO 11007KT 10SM FEW050 25/22 A2980 1140 81 2600 110/07 RMK AO2
14926KSTC STC20030725201510207/25/03 20:15:31  5-MIN KSTC 260215Z AUTO 11007KT 10SM FEW050 25/22 A2980 1140 81 2600 110/07 RMK AO2
14926KSTC STC20030725202009907/25/03 20:20:31  5-MIN KSTC 260220Z AUTO 11007KT 10SM CLR 25/22 A2980 1140 81 2600 100/07 RMK AO2
14926KSTC STC20030725202509907/25/03 20:25:31  5-MIN KSTC 260225Z AUTO 11006KT 10SM CLR 25/22 A2980 1140 81 2600 100/06 RMK AO2
14926KSTC STC20030725203009907/25/03 20:30:31  5-MIN KSTC 260230Z AUTO 11007KT 10SM CLR 24/22 A2980 1140 84 2500 110/07 RMK AO2
14926KSTC STC20030725203509907/25/03 20:35:31  5-MIN KSTC 260235Z AUTO 11006KT 10SM CLR 24/22 A2980 1140 84 2500 110/06 RMK AO2
14926KSTC STC20030725204009907/25/03 20:40:31  5-MIN KSTC 260240Z AUTO 11006KT 10SM CLR 24/22 A2980 1140 84 2500 110/06 RMK AO2
14926KSTC STC20030725204509907/25/03 20:45:31  5-MIN KSTC 260245Z AUTO 11006KT 10SM CLR 24/22 A2980 1140 84 2500 110/06 RMK AO2
14926KSTC STC20030725205012207/25/03 20:50:31  5-MIN KSTC 260250Z AUTO 11006KT 10SM CLR 24/22 A2980 1140 84 2500 110/06 RMK AO2 SLP093 T02440217 55010
14926KSTC STC20030725205509907/25/03 20:55:31  5-MIN KSTC 260255Z AUTO 11006KT 10SM CLR 24/22 A2980 1140 84 2500 110/06 RMK AO2
14926KSTC STC20030725210009907/25/03 21:00:31  5-MIN KSTC 260300Z AUTO 11005KT 10SM CLR 24/22 A2980 1140 84 2500 110/05 RMK AO2
14926KSTC STC20030725210509907/25/03 21:05:31  5-MIN KSTC 260305Z AUTO 11006KT 10SM CLR 24/22 A2980 1140 84 2500 110/06 RMK AO2
14926KSTC STC20030725211009907/25/03 21:10:31  5-MIN KSTC 260310Z AUTO 11005KT 10SM CLR 24/22 A2980 1140 84 2500 110/05 RMK AO2
14926KSTC STC20030725211509907/25/03 21:15:31  5-MIN KSTC 260315Z AUTO 12006KT 10SM CLR 24/22 A2980 1140 84 2500 110/06 RMK AO2
14926KSTC STC20030725212009907/25/03 21:20:31  5-MIN KSTC 260320Z AUTO 11006KT 10SM CLR 24/22 A2980 1140 84 2500 110/06 RMK AO2
14926KSTC STC20030725212509907/25/03 21:25:31  5-MIN KSTC 260325Z AUTO 11006KT 10SM CLR 24/22 A2980 1140 84 2500 110/06 RMK AO2
14926KSTC STC20030725213009907/25/03 21:30:31  5-MIN KSTC 260330Z AUTO 11007KT 10SM CLR 24/22 A2980 1140 84 2500 110/07 RMK AO2
14926KSTC STC20030725213509907/25/03 21:35:31  5-MIN KSTC 260335Z AUTO 11007KT 10SM CLR 24/22 A2980 1140 84 2500 110/07 RMK AO2
14926KSTC STC20030725214009907/25/03 21:40:31  5-MIN KSTC 260340Z AUTO 12007KT 10SM CLR 24/22 A2979 1140 84 2500 110/07 RMK AO2
14926KSTC STC20030725214509907/25/03 21:45:31  5-MIN KSTC 260345Z AUTO 12007KT 10SM CLR 24/22 A2980 1140 84 2500 110/07 RMK AO2
14926KSTC STC20030725215011607/25/03 21:50:31  5-MIN KSTC 260350Z AUTO 12007KT 10SM CLR 24/22 A2980 1140 84 2500 120/07 RMK AO2 SLP090 T02440217
14926KSTC STC20030725215509907/25/03 21:55:31  5-MIN KSTC 260355Z AUTO 12007KT 10SM CLR 24/22 A2979 1140 84 2500 120/07 RMK AO2
14926KSTC STC20030725220009907/25/03 22:00:31  5-MIN KSTC 260400Z AUTO 12007KT 10SM CLR 24/22 A2979 1150 84 2500 120/07 RMK AO2
14926KSTC STC20030725220509907/25/03 22:05:31  5-MIN KSTC 260405Z AUTO 12007KT 10SM CLR 24/22 A2979 1150 84 2500 120/07 RMK AO2
14926KSTC STC20030725221009907/25/03 22:10:31  5-MIN KSTC 260410Z AUTO 12006KT 10SM CLR 24/22 A2979 1140 84 2500 120/06 RMK AO2
14926KSTC STC20030725221509907/25/03 22:15:31  5-MIN KSTC 260415Z AUTO 12005KT 10SM CLR 24/22 A2979 1150 84 2500 120/05 RMK AO2
14926KSTC STC20030725222009907/25/03 22:20:31  5-MIN KSTC 260420Z AUTO 13005KT 10SM CLR 24/22 A2979 1150 84 2500 130/05 RMK AO2
14926KSTC STC20030725222509907/25/03 22:25:31  5-MIN KSTC 260425Z AUTO 13004KT 10SM CLR 24/22 A2979 1140 84 2500 130/04 RMK AO2
14926KSTC STC20030725223009907/25/03 22:30:31  5-MIN KSTC 260430Z AUTO 13004KT 10SM CLR 24/22 A2980 1140 87 2500 130/04 RMK AO2
14926KSTC STC20030725223509907/25/03 22:35:31  5-MIN KSTC 260435Z AUTO 12004KT 10SM CLR 24/22 A2980 1140 87 2500 120/04 RMK AO2
14926KSTC STC20030725224009907/25/03 22:40:31  5-MIN KSTC 260440Z AUTO 13004KT 10SM CLR 24/22 A2980 1140 87 2500 120/04 RMK AO2
14926KSTC STC20030725224509907/25/03 22:45:31  5-MIN KSTC 260445Z AUTO 14004KT 10SM CLR 24/22 A2980 1140 87 2500 130/04 RMK AO2
14926KSTC STC20030725225011607/25/03 22:50:31  5-MIN KSTC 260450Z AUTO 14005KT 10SM CLR 24/22 A2980 1140 87 2500 140/05 RMK AO2 SLP091 T02390217
14926KSTC STC20030725225509907/25/03 22:55:31  5-MIN KSTC 260455Z AUTO 13004KT 10SM CLR 24/22 A2980 1140 84 2500 130/04 RMK AO2
14926KSTC STC20030725230009907/25/03 23:00:31  5-MIN KSTC 260500Z AUTO 13004KT 10SM CLR 24/22 A2980 1140 84 2500 130/04 RMK AO2
14926KSTC STC20030725230509907/25/03 23:05:31  5-MIN KSTC 260505Z AUTO 14004KT 10SM CLR 24/22 A2980 1140 84 2500 130/04 RMK AO2
14926KSTC STC20030725231009907/25/03 23:10:31  5-MIN KSTC 260510Z AUTO 14004KT 10SM CLR 24/22 A2980 1140 84 2500 130/04 RMK AO2
14926KSTC STC20030725231509907/25/03 23:15:31  5-MIN KSTC 260515Z AUTO 14004KT 10SM CLR 24/22 A2980 1140 84 2500 130/04 RMK AO2
14926KSTC STC20030725232009907/25/03 23:20:31  5-MIN KSTC 260520Z AUTO 15004KT 10SM CLR 24/22 A2980 1140 87 2500 140/04 RMK AO2
14926KSTC STC20030725232509907/25/03 23:25:31  5-MIN KSTC 260525Z AUTO 14003KT 10SM CLR 24/22 A2980 1140 87 2500 140/03 RMK AO2
14926KSTC STC20030725233009907/25/03 23:30:31  5-MIN KSTC 260530Z AUTO 14004KT 10SM CLR 24/22 A2979 1140 87 2500 130/04 RMK AO2
14926KSTC STC20030725233509907/25/03 23:35:31  5-MIN KSTC 260535Z AUTO 13003KT 10SM CLR 24/22 A2979 1140 84 2500 130/03 RMK AO2
14926KSTC STC20030725234009907/25/03 23:40:31  5-MIN KSTC 260540Z AUTO 14003KT 10SM CLR 24/22 A2979 1150 84 2500 140/03 RMK AO2
14926KSTC STC20030725234509907/25/03 23:45:31  5-MIN KSTC 260545Z AUTO 13003KT 10SM CLR 24/22 A2979 1150 87 2500 130/03 RMK AO2
14926KSTC STC20030725235014407/25/03 23:50:31  5-MIN KSTC 260550Z AUTO 14004KT 10SM CLR 24/22 A2979 1150 87 2500 140/04 RMK AO2 SLP088 T02390217 10267 20239 402780194 55000
14926KSTC STC20030725235509907/25/03 23:55:31  5-MIN KSTC 260555Z AUTO 00000KT 10SM CLR 24/22 A2979 1150 84 2500 000/00 RMK AO2
14926KSTC STC20030726000009907/26/03 00:00:31  5-MIN KSTC 260600Z AUTO 14003KT 10SM CLR 24/22 A2979 1150 84 2500 140/03 RMK AO2
14926KSTC STC20030726000509907/26/03 00:05:31  5-MIN KSTC 260605Z AUTO 14004KT 10SM CLR 24/22 A2979 1150 87 2500 140/04 RMK AO2
14926KSTC STC20030726001009907/26/03 00:10:31  5-MIN KSTC 260610Z AUTO 15004KT 10SM CLR 24/22 A2979 1150 87 2500 140/04 RMK AO2
14926KSTC STC20030726001509907/26/03 00:15:31  5-MIN KSTC 260615Z AUTO 15004KT 10SM CLR 24/22 A2978 1150 87 2500 140/04 RMK AO2
14926KSTC STC20030726002009907/26/03 00:20:31  5-MIN KSTC 260620Z AUTO 14003KT 10SM CLR 24/22 A2978 1150 87 2500 140/03 RMK AO2
14926KSTC STC20030726002509907/26/03 00:25:31  5-MIN KSTC 260625Z AUTO 14005KT 10SM CLR 24/22 A2978 1150 84 2500 140/05 RMK AO2
14926KSTC STC20030726003009907/26/03 00:30:31  5-MIN KSTC 260630Z AUTO 14003KT 10SM CLR 24/22 A2978 1160 84 2600 130/03 RMK AO2
14926KSTC STC20030726003509907/26/03 00:35:31  5-MIN KSTC 260635Z AUTO 14003KT 10SM CLR 24/22 A2978 1160 84 2600 140/03 RMK AO2
14926KSTC STC20030726004009907/26/03 00:40:31  5-MIN KSTC 260640Z AUTO 14004KT 10SM CLR 24/22 A2978 1160 84 2600 130/04 RMK AO2
14926KSTC STC20030726004509907/26/03 00:45:31  5-MIN KSTC 260645Z AUTO 14004KT 10SM CLR 24/22 A2977 1160 84 2600 140/04 RMK AO2
14926KSTC STC20030726005011607/26/03 00:50:31  5-MIN KSTC 260650Z AUTO 15004KT 10SM CLR 24/22 A2977 1160 87 2500 140/04 RMK AO2 SLP083 T02390217
14926KSTC STC20030726005509907/26/03 00:55:31  5-MIN KSTC 260655Z AUTO 15004KT 10SM CLR 24/22 A2977 1160 87 2500 140/04 RMK AO2
14926KSTC STC20030726010009907/26/03 01:00:31  5-MIN KSTC 260700Z AUTO 15004KT 10SM CLR 24/22 A2977 1160 87 2500 140/04 RMK AO2
14926KSTC STC20030726010509907/26/03 01:05:31  5-MIN KSTC 260705Z AUTO 16004KT 10SM CLR 24/22 A2977 1160 87 2500 160/04 RMK AO2
14926KSTC STC20030726011009907/26/03 01:10:31  5-MIN KSTC 260710Z AUTO 15005KT 10SM CLR 24/21 A2977 1160 84 2500 150/05 RMK AO2
14926KSTC STC20030726011509907/26/03 01:15:31  5-MIN KSTC 260715Z AUTO 15004KT 10SM CLR 23/21 A2977 1160 87 2400 150/04 RMK AO2
14926KSTC STC20030726012009907/26/03 01:20:31  5-MIN KSTC 260720Z AUTO 16004KT 10SM CLR 23/21 A2977 1160 87 2400 160/04 RMK AO2
14926KSTC STC20030726012509907/26/03 01:25:31  5-MIN KSTC 260725Z AUTO 16005KT 10SM CLR 23/21 A2977 1160 87 2400 160/05 RMK AO2
14926KSTC STC20030726013009907/26/03 01:30:31  5-MIN KSTC 260730Z AUTO 16005KT 10SM CLR 23/21 A2977 1160 87 2400 160/05 RMK AO2
14926KSTC STC20030726013509907/26/03 01:35:31  5-MIN KSTC 260735Z AUTO 16005KT 10SM CLR 23/21 A2977 1170 87 2400 160/05 RMK AO2
14926KSTC STC20030726014009907/26/03 01:40:31  5-MIN KSTC 260740Z AUTO 16005KT 10SM CLR 23/21 A2976 1170 87 2400 160/05 RMK AO2
14926KSTC STC20030726014509907/26/03 01:45:31  5-MIN KSTC 260745Z AUTO 16005KT 10SM CLR 23/21 A2976 1170 87 2400 160/05 RMK AO2
14926KSTC STC20030726015011607/26/03 01:50:31  5-MIN KSTC 260750Z AUTO 16005KT 10SM CLR 23/21 A2976 1180 87 2400 150/05 RMK AO2 SLP078 T02330211
14926KSTC STC20030726015509907/26/03 01:55:31  5-MIN KSTC 260755Z AUTO 15006KT 10SM CLR 23/21 A2976 1180 87 2500 150/06 RMK AO2
14926KSTC STC20030726020009907/26/03 02:00:31  5-MIN KSTC 260800Z AUTO 15006KT 10SM CLR 23/21 A2975 1180 87 2500 150/06 RMK AO2
14926KSTC STC20030726020509907/26/03 02:05:31  5-MIN KSTC 260805Z AUTO 15006KT 10SM CLR 23/21 A2975 1180 90 2400 150/06 RMK AO2
14926KSTC STC20030726021009907/26/03 02:10:31  5-MIN KSTC 260810Z AUTO 15006KT 10SM CLR 23/21 A2975 1190 90 2400 150/06 RMK AO2
14926KSTC STC20030726021509907/26/03 02:15:31  5-MIN KSTC 260815Z AUTO 16006KT 10SM CLR 23/21 A2975 1190 90 2400 160/06 RMK AO2
14926KSTC STC20030726022009907/26/03 02:20:31  5-MIN KSTC 260820Z AUTO 16006KT 10SM CLR 23/21 A2974 1190 90 2400 160/06 RMK AO2
14926KSTC STC20030726022509907/26/03 02:25:31  5-MIN KSTC 260825Z AUTO 16005KT 10SM CLR 23/21 A2974 1190 90 2400 150/05 RMK AO2
14926KSTC STC20030726023009907/26/03 02:30:31  5-MIN KSTC 260830Z AUTO 15004KT 10SM CLR 23/21 A2974 1190 90 2400 150/04 RMK AO2
14926KSTC STC20030726023509907/26/03 02:35:31  5-MIN KSTC 260835Z AUTO 15005KT 10SM CLR 23/21 A2974 1190 87 2500 150/05 RMK AO2
14926KSTC STC20030726024009907/26/03 02:40:31  5-MIN KSTC 260840Z AUTO 15005KT 10SM CLR 23/21 A2974 1190 84 2500 150/05 RMK AO2
14926KSTC STC20030726024509907/26/03 02:45:31  5-MIN KSTC 260845Z AUTO 15005KT 10SM CLR 23/21 A2974 1190 87 2400 150/05 RMK AO2
14926KSTC STC20030726025012207/26/03 02:50:31  5-MIN KSTC 260850Z AUTO 15004KT 10SM CLR 23/21 A2974 1190 87 2400 150/04 RMK AO2 SLP073 T02280206 58003
14926KSTC STC20030726025509907/26/03 02:55:31  5-MIN KSTC 260855Z AUTO 15005KT 10SM CLR 23/21 A2974 1190 87 2400 150/05 RMK AO2
14926KSTC STC20030726030009907/26/03 03:00:31  5-MIN KSTC 260900Z AUTO 15005KT 10SM CLR 23/21 A2974 1190 87 2400 150/05 RMK AO2
14926KSTC STC20030726030509907/26/03 03:05:31  5-MIN KSTC 260905Z AUTO 14004KT 10SM CLR 23/21 A2974 1190 87 2400 140/04 RMK AO2
14926KSTC STC20030726031009907/26/03 03:10:31  5-MIN KSTC 260910Z AUTO 14003KT 10SM CLR 23/21 A2974 1190 84 2500 140/03 RMK AO2
14926KSTC STC20030726031509907/26/03 03:15:31  5-MIN KSTC 260915Z AUTO 14003KT 10SM CLR 23/21 A2975 1190 84 2500 130/03 RMK AO2
14926KSTC STC20030726032009907/26/03 03:20:31  5-MIN KSTC 260920Z AUTO 00000KT 10SM CLR 23/21 A2975 1190 84 2500 000/00 RMK AO2
14926KSTC STC20030726032509907/26/03 03:25:31  5-MIN KSTC 260925Z AUTO 00000KT 10SM CLR 23/21 A2975 1190 84 2500 000/00 RMK AO2
14926KSTC STC20030726033009907/26/03 03:30:31  5-MIN KSTC 260930Z AUTO 00000KT 10SM CLR 23/21 A2975 1190 87 2400 000/00 RMK AO2
14926KSTC STC20030726033509907/26/03 03:35:31  5-MIN KSTC 260935Z AUTO 00000KT 10SM CLR 22/21 A2975 1190 90 2300 000/00 RMK AO2
14926KSTC STC20030726034009907/26/03 03:40:31  5-MIN KSTC 260940Z AUTO 00000KT 10SM CLR 22/21 A2975 1190 90 2300 000/00 RMK AO2
14926KSTC STC20030726034509907/26/03 03:45:31  5-MIN KSTC 260945Z AUTO 00000KT 10SM CLR 22/21 A2975 1190 93 2300 000/00 RMK AO2
14926KSTC STC20030726035011607/26/03 03:50:31  5-MIN KSTC 260950Z AUTO 00000KT 10SM CLR 22/21 A2975 1180 90 2300 000/00 RMK AO2 SLP076 T02220206
14926KSTC STC20030726035509907/26/03 03:55:31  5-MIN KSTC 260955Z AUTO 00000KT 10SM CLR 22/21 A2975 1180 90 2300 000/00 RMK AO2
14926KSTC STC20030726040009907/26/03 04:00:31  5-MIN KSTC 261000Z AUTO 00000KT 10SM CLR 22/21 A2976 1180 90 2300 000/00 RMK AO2
14926KSTC STC20030726040509907/26/03 04:05:31  5-MIN KSTC 261005Z AUTO 00000KT 10SM CLR 22/21 A2976 1180 93 2300 000/00 RMK AO2
14926KSTC STC20030726041009907/26/03 04:10:31  5-MIN KSTC 261010Z AUTO 00000KT 10SM CLR 21/21 A2976 1180 97 2200 000/00 RMK AO2
14926KSTC STC20030726041509907/26/03 04:15:31  5-MIN KSTC 261015Z AUTO 12003KT 10SM CLR 21/21 A2976 1180 97 2200 120/03 RMK AO2
14926KSTC STC20030726042009907/26/03 04:20:31  5-MIN KSTC 261020Z AUTO 12003KT 10SM CLR 21/20 A2976 1180 93 2200 120/03 RMK AO2
14926KSTC STC20030726042509907/26/03 04:25:31  5-MIN KSTC 261025Z AUTO 12003KT 10SM CLR 22/20 A2976 1180 87 2300 120/03 RMK AO2
14926KSTC STC20030726043009907/26/03 04:30:31  5-MIN KSTC 261030Z AUTO 12003KT 10SM CLR 22/20 A2976 1180 87 2300 120/03 RMK AO2
14926KSTC STC20030726043509907/26/03 04:35:31  5-MIN KSTC 261035Z AUTO 12003KT 10SM CLR 22/20 A2976 1170 87 2300 120/03 RMK AO2
14926KSTC STC20030726044009907/26/03 04:40:31  5-MIN KSTC 261040Z AUTO 00000KT 10SM CLR 22/20 A2976 1170 90 2300 000/00 RMK AO2
14926KSTC STC20030726044509907/26/03 04:45:31  5-MIN KSTC 261045Z AUTO 00000KT 10SM CLR 21/20 A2977 1170 93 2200 000/00 RMK AO2
14926KSTC STC20030726045011607/26/03 04:50:31  5-MIN KSTC 261050Z AUTO 00000KT 10SM CLR 22/20 A2977 1170 90 2200 000/00 RMK AO2 SLP082 T02170200
14926KSTC STC20030726045509907/26/03 04:55:31  5-MIN KSTC 261055Z AUTO 12003KT 10SM CLR 22/20 A2977 1170 90 2200 120/03 RMK AO2
14926KSTC STC20030726050009907/26/03 05:00:31  5-MIN KSTC 261100Z AUTO 12003KT 10SM CLR 22/20 A2977 1170 90 2200 110/03 RMK AO2
14926KSTC STC20030726050509907/26/03 05:05:31  5-MIN KSTC 261105Z AUTO 13004KT 10SM CLR 22/20 A2977 1170 90 2200 130/04 RMK AO2
14926KSTC STC20030726051009907/26/03 05:10:31  5-MIN KSTC 261110Z AUTO 13003KT 10SM CLR 21/20 A2977 1170 93 2200 130/03 RMK AO2
14926KSTC STC20030726051509907/26/03 05:15:31  5-MIN KSTC 261115Z AUTO 13003KT 10SM CLR 22/20 A2977 1170 90 2200 130/03 RMK AO2
14926KSTC STC20030726052009907/26/03 05:20:31  5-MIN KSTC 261120Z AUTO 13004KT 10SM CLR 22/20 A2977 1160 90 2200 130/04 RMK AO2
14926KSTC STC20030726052509907/26/03 05:25:31  5-MIN KSTC 261125Z AUTO VRB03KT 10SM CLR 22/20 A2978 1160 87 2300 VRB/03 RMK AO2
14926KSTC STC20030726053009907/26/03 05:30:31  5-MIN KSTC 261130Z AUTO 00000KT 10SM CLR 22/20 A2978 1160 87 2300 000/00 RMK AO2
14926KSTC STC20030726053509907/26/03 05:35:31  5-MIN KSTC 261135Z AUTO 00000KT 10SM CLR 22/20 A2978 1160 90 2200 000/00 RMK AO2
14926KSTC STC20030726054009907/26/03 05:40:31  5-MIN KSTC 261140Z AUTO 00000KT 10SM CLR 22/20 A2978 1150 90 2200 000/00 RMK AO2
14926KSTC STC20030726054509907/26/03 05:45:31  5-MIN KSTC 261145Z AUTO 00000KT 10SM CLR 21/20 A2978 1150 93 2200 000/00 RMK AO2
14926KSTC STC20030726055013407/26/03 05:50:31  5-MIN KSTC 261150Z AUTO 00000KT 10SM CLR 22/21 A2979 1150 93 2200 000/00 RMK AO2 SLP089 T02170206 10244 20211 56015
14926KSTC STC20030726055509907/26/03 05:55:31  5-MIN KSTC 261155Z AUTO 00000KT 10SM CLR 22/21 A2980 1140 90 2300 000/00 RMK AO2
14926KSTC STC20030726060009907/26/03 06:00:31  5-MIN KSTC 261200Z AUTO 00000KT 10SM CLR 22/21 A2980 1140 93 2200 000/00 RMK AO2
14926KSTC STC20030726060509907/26/03 06:05:31  5-MIN KSTC 261205Z AUTO 00000KT 10SM CLR 22/21 A2981 1130 90 2300 000/00 RMK AO2
14926KSTC STC20030726061009907/26/03 06:10:31  5-MIN KSTC 261210Z AUTO 00000KT 10SM CLR 23/21 A2981 1130 90 2300 000/00 RMK AO2
14926KSTC STC20030726061509907/26/03 06:15:31  5-MIN KSTC 261215Z AUTO 00000KT 10SM CLR 23/21 A2981 1130 87 2300 000/00 RMK AO2
14926KSTC STC20030726062009907/26/03 06:20:31  5-MIN KSTC 261220Z AUTO 00000KT 10SM CLR 23/21 A2981 1130 90 2300 000/00 RMK AO2
14926KSTC STC20030726062509907/26/03 06:25:31  5-MIN KSTC 261225Z AUTO 00000KT 10SM CLR 23/21 A2981 1130 87 2400 000/00 RMK AO2
14926KSTC STC20030726063009907/26/03 06:30:31  5-MIN KSTC 261230Z AUTO 00000KT 10SM CLR 24/21 A2981 1130 84 2500 000/00 RMK AO2
14926KSTC STC20030726063509907/26/03 06:35:31  5-MIN KSTC 261235Z AUTO 00000KT 10SM CLR 24/21 A2981 1130 84 2500 000/00 RMK AO2
14926KSTC STC20030726064009907/26/03 06:40:31  5-MIN KSTC 261240Z AUTO 00000KT 10SM CLR 24/21 A2981 1130 81 2500 000/00 RMK AO2
14926KSTC STC20030726064509907/26/03 06:45:31  5-MIN KSTC 261245Z AUTO 00000KT 10SM CLR 24/21 A2981 1130 78 2500 000/00 RMK AO2
14926KSTC STC20030726065011607/26/03 06:50:31  5-MIN KSTC 261250Z AUTO 00000KT 10SM CLR 25/21 A2980 1140 76 2600 000/00 RMK AO2 SLP093 T02500206
14926KSTC STC20030726065509907/26/03 06:55:31  5-MIN KSTC 261255Z AUTO 00000KT 10SM CLR 25/21 A2980 1140 76 2600 000/00 RMK AO2
14926KSTC STC20030726070009907/26/03 07:00:31  5-MIN KSTC 261300Z AUTO 00000KT 10SM CLR 25/21 A2980 1140 76 2600 000/00 RMK AO2
14926KSTC STC20030726070509907/26/03 07:05:31  5-MIN KSTC 261305Z AUTO 00000KT 10SM CLR 25/21 A2980 1140 76 2600 000/00 RMK AO2
14926KSTC STC20030726071009907/26/03 07:10:31  5-MIN KSTC 261310Z AUTO 00000KT 10SM CLR 26/21 A2980 1130 73 2600 000/00 RMK AO2
14926KSTC STC20030726071509907/26/03 07:15:31  5-MIN KSTC 261315Z AUTO 00000KT 10SM CLR 26/21 A2981 1130 73 2600 000/00 RMK AO2
14926KSTC STC20030726072009907/26/03 07:20:31  5-MIN KSTC 261320Z AUTO 00000KT 10SM CLR 25/21 A2981 1130 76 2600 000/00 RMK AO2
14926KSTC STC20030726072509907/26/03 07:25:31  5-MIN KSTC 261325Z AUTO 23003KT 10SM CLR 26/21 A2981 1130 73 2600 230/03 RMK AO2
14926KSTC STC20030726073009907/26/03 07:30:31  5-MIN KSTC 261330Z AUTO 00000KT 10SM CLR 26/21 A2981 1130 73 2600 000/00 RMK AO2
14926KSTC STC20030726073509907/26/03 07:35:31  5-MIN KSTC 261335Z AUTO 00000KT 10SM CLR 26/21 A2981 1130 76 2600 000/00 RMK AO2
14926KSTC STC20030726074009907/26/03 07:40:31  5-MIN KSTC 261340Z AUTO 00000KT 10SM CLR 26/21 A2981 1130 73 2600 000/00 RMK AO2
14926KSTC STC20030726074509907/26/03 07:45:31  5-MIN KSTC 261345Z AUTO 00000KT 10SM CLR 26/21 A2981 1130 76 2600 000/00 RMK AO2
14926KSTC STC20030726075011607/26/03 07:50:31  5-MIN KSTC 261350Z AUTO 00000KT 10SM CLR 26/21 A2981 1130 73 2600 000/00 RMK AO2 SLP096 T02560206
14926KSTC STC20030726075509907/26/03 07:55:31  5-MIN KSTC 261355Z AUTO 23003KT 10SM CLR 26/21 A2981 1130 73 2700 230/03 RMK AO2
14926KSTC STC20030726080009907/26/03 08:00:31  5-MIN KSTC 261400Z AUTO 27003KT 10SM CLR 26/21 A2981 1130 73 2700 270/03 RMK AO2
14926KSTC STC20030726080509907/26/03 08:05:31  5-MIN KSTC 261405Z AUTO 00000KT 10SM CLR 26/21 A2981 1130 73 2700 000/00 RMK AO2
14926KSTC STC20030726081009907/26/03 08:10:31  5-MIN KSTC 261410Z AUTO 24003KT 10SM CLR 27/21 A2981 1120 71 2800 230/03 RMK AO2
14926KSTC STC20030726081509907/26/03 08:15:31  5-MIN KSTC 261415Z AUTO 26005KT 10SM CLR 27/21 A2982 1120 71 2800 250/05 RMK AO2
14926KSTC STC20030726082009907/26/03 08:20:31  5-MIN KSTC 261420Z AUTO 25004KT 10SM CLR 27/21 A2981 1130 71 2800 240/04 RMK AO2
14926KSTC STC20030726082509907/26/03 08:25:31  5-MIN KSTC 261425Z AUTO 28004KT 10SM CLR 27/21 A2981 1130 69 2800 280/04 RMK AO2
14926KSTC STC20030726083009907/26/03 08:30:31  5-MIN KSTC 261430Z AUTO 00000KT 10SM CLR 27/22 A2981 1130 71 2800 000/00 RMK AO2
14926KSTC STC20030726083509907/26/03 08:35:31  5-MIN KSTC 261435Z AUTO VRB03KT 10SM CLR 27/22 A2981 1130 71 2800 VRB/03 RMK AO2
14926KSTC STC20030726084009907/26/03 08:40:31  5-MIN KSTC 261440Z AUTO 25004KT 10SM CLR 28/22 A2982 1120 69 2900 250/04 RMK AO2
14926KSTC STC20030726084509907/26/03 08:45:31  5-MIN KSTC 261445Z AUTO VRB05KT 10SM CLR 28/22 A2981 1130 69 2900 VRB/05 RMK AO2
14926KSTC STC20030726085012207/26/03 08:50:31  5-MIN KSTC 261450Z AUTO 00000KT 10SM CLR 28/22 A2981 1130 66 3000 000/00 RMK AO2 SLP095 T02830217 53017
14926KSTC STC20030726085509907/26/03 08:55:31  5-MIN KSTC 261455Z AUTO VRB04KT 10SM CLR 28/22 A2981 1130 66 3000 VRB/04 RMK AO2
14926KSTC STC20030726090009907/26/03 09:00:31  5-MIN KSTC 261500Z AUTO 29005KT 10SM CLR 29/22 A2981 1130 64 3000 290/05 RMK AO2
14926KSTC STC20030726090509907/26/03 09:05:31  5-MIN KSTC 261505Z AUTO 30005KT 10SM CLR 29/22 A2981 1120 67 3000 290/05 RMK AO2
14926KSTC STC20030726091009907/26/03 09:10:31  5-MIN KSTC 261510Z AUTO 30006KT 10SM CLR 29/22 A2982 1120 67 3000 300/06 RMK AO2
14926KSTC STC20030726091509907/26/03 09:15:31  5-MIN KSTC 261515Z AUTO 31005KT 10SM CLR 29/22 A2982 1120 67 3000 310/05 RMK AO2
14926KSTC STC20030726092009907/26/03 09:20:31  5-MIN KSTC 261520Z AUTO VRB06KT 10SM CLR 29/22 A2982 1120 67 3000 VRB/06 RMK AO2
14926KSTC STC20030726092509907/26/03 09:25:31  5-MIN KSTC 261525Z AUTO 29005KT 10SM CLR 29/22 A2982 1120 64 3100 290/05 RMK AO2
14926KSTC STC20030726093009907/26/03 09:30:31  5-MIN KSTC 261530Z AUTO 33006KT 10SM CLR 29/23 A2982 1120 67 3100 320/06 RMK AO2
14926KSTC STC20030726093509907/26/03 09:35:31  5-MIN KSTC 261535Z AUTO 34004KT 10SM CLR 29/23 A2982 1120 67 3100 340/04 RMK AO2
14926KSTC STC20030726094009907/26/03 09:40:31  5-MIN KSTC 261540Z AUTO 34005KT 10SM CLR 29/23 A2982 1120 67 3100 330/05 RMK AO2
14926KSTC STC20030726094509907/26/03 09:45:31  5-MIN KSTC 261545Z AUTO 31006KT 10SM CLR 29/23 A2983 1110 67 3100 310/06 RMK AO2
14926KSTC STC20030726095011607/26/03 09:50:31  5-MIN KSTC 261550Z AUTO 33007KT 10SM CLR 29/23 A2983 1110 67 3100 320/07 RMK AO2 SLP102 T02940228
14926KSTC STC20030726095509907/26/03 09:55:31  5-MIN KSTC 261555Z AUTO VRB05KT 10SM CLR 29/23 A2983 1110 67 3000 VRB/05 RMK AO2
14926KSTC STC20030726100009907/26/03 10:00:31  5-MIN KSTC 261600Z AUTO 35005KT 10SM CLR 30/23 A2983 1110 67 3100 340/05 RMK AO2
14926KSTC STC20030726100509907/26/03 10:05:31  5-MIN KSTC 261605Z AUTO 32004KT 10SM CLR 30/23 A2983 1110 67 3100 320/04 RMK AO2
14926KSTC STC20030726101009907/26/03 10:10:31  5-MIN KSTC 261610Z AUTO 35007KT 10SM CLR 31/23 A2982 1120 65 3200 350/07 RMK AO2
14926KSTC STC20030726101509907/26/03 10:15:31  5-MIN KSTC 261615Z AUTO 36006KT 10SM CLR 30/23 A2982 1120 67 3100 350/06 RMK AO2
14926KSTC STC20030726102009907/26/03 10:20:31  5-MIN KSTC 261620Z AUTO 34006KT 10SM CLR 31/23 A2982 1120 65 3200 340/06 RMK AO2
14926KSTC STC20030726102509907/26/03 10:25:31  5-MIN KSTC 261625Z AUTO 35005KT 10SM CLR 31/23 A2982 1120 65 3200 350/05 RMK AO2
14926KSTC STC20030726103009907/26/03 10:30:31  5-MIN KSTC 261630Z AUTO VRB05KT 10SM CLR 31/23 A2982 1120 65 3200 VRB/05 RMK AO2
14926KSTC STC20030726103509907/26/03 10:35:31  5-MIN KSTC 261635Z AUTO 01005KT 10SM CLR 31/23 A2982 1120 65 3200 360/05 RMK AO2
14926KSTC STC20030726104009907/26/03 10:40:31  5-MIN KSTC 261640Z AUTO 33005KT 10SM CLR 31/24 A2983 1110 65 3200 320/05 RMK AO2
14926KSTC STC20030726104509907/26/03 10:45:31  5-MIN KSTC 261645Z AUTO 00000KT 10SM CLR 30/23 A2983 1110 67 3100 000/00 RMK AO2
14926KSTC STC20030726105011607/26/03 10:50:31  5-MIN KSTC 261650Z AUTO VRB04KT 10SM CLR 31/24 A2983 1110 65 3200 VRB/04 RMK AO2 SLP102 T03110239
14926KSTC STC20030726105509907/26/03 10:55:31  5-MIN KSTC 261655Z AUTO VRB03KT 10SM CLR 31/24 A2983 1110 67 3200 VRB/03 RMK AO2
14926KSTC STC20030726110009907/26/03 11:00:31  5-MIN KSTC 261700Z AUTO 36004KT 10SM CLR 31/24 A2983 1110 65 3200 360/04 RMK AO2
14926KSTC STC20030726110509907/26/03 11:05:31  5-MIN KSTC 261705Z AUTO 36005KT 10SM CLR 32/24 A2983 1110 63 3400 360/05 RMK AO2
14926KSTC STC20030726111009907/26/03 11:10:31  5-MIN KSTC 261710Z AUTO VRB03KT 10SM CLR 31/24 A2983 1110 65 3200 VRB/03 RMK AO2
14926KSTC STC20030726111509907/26/03 11:15:31  5-MIN KSTC 261715Z AUTO VRB05KT 10SM CLR 32/24 A2984 1100 63 3300 VRB/05 RMK AO2
14926KSTC STC20030726112009907/26/03 11:20:31  5-MIN KSTC 261720Z AUTO 29005KT 10SM CLR 32/24 A2984 1100 63 3300 290/05 RMK AO2
14926KSTC STC20030726112509907/26/03 11:25:31  5-MIN KSTC 261725Z AUTO VRB04KT 10SM CLR 32/23 A2984 1100 61 3300 VRB/04 RMK AO2
14926KSTC STC20030726113009907/26/03 11:30:31  5-MIN KSTC 261730Z AUTO 29008KT 10SM CLR 32/24 A2983 1110 61 3400 290/08 RMK AO2
14926KSTC STC20030726113509907/26/03 11:35:31  5-MIN KSTC 261735Z AUTO 32006KT 10SM CLR 33/24 A2983 1110 59 3400 320/06 RMK AO2
14926KSTC STC20030726114009907/26/03 11:40:31  5-MIN KSTC 261740Z AUTO 35007KT 10SM CLR 33/24 A2983 1110 61 3400 340/07 RMK AO2
14926KSTC STC20030726114509907/26/03 11:45:31  5-MIN KSTC 261745Z AUTO VRB05KT 10SM CLR 33/24 A2983 1110 59 3400 VRB/05 RMK AO2
14926KSTC STC20030726115013407/26/03 11:50:31  5-MIN KSTC 261750Z AUTO 32010KT 10SM CLR 33/24 A2983 1110 59 3400 320/10 RMK AO2 SLP102 T03280239 10328 20217 50006
14926KSTC STC20030726115509907/26/03 11:55:31  5-MIN KSTC 261755Z AUTO 32011KT 10SM CLR 32/23 A2983 1110 59 3400 320/11 RMK AO2
14926KSTC STC20030726120009907/26/03 12:00:31  5-MIN KSTC 261800Z AUTO 32011KT 10SM CLR 32/23 A2984 1100 61 3300 310/11 RMK AO2
14926KSTC STC20030726120509907/26/03 12:05:31  5-MIN KSTC 261805Z AUTO 31010KT 10SM CLR 32/24 A2984 1100 61 3300 310/10 RMK AO2
14926KSTC STC20030726121009907/26/03 12:10:31  5-MIN KSTC 261810Z AUTO 29009KT 10SM CLR 33/24 A2984 1100 59 3400 290/09 RMK AO2
14926KSTC STC20030726121509907/26/03 12:15:31  5-MIN KSTC 261815Z AUTO 33007KT 10SM CLR 32/24 A2984 1100 61 3300 330/07 RMK AO2
14926KSTC STC20030726122009907/26/03 12:20:31  5-MIN KSTC 261820Z AUTO 28008KT 10SM CLR 33/24 A2984 1100 59 3400 280/08 RMK AO2
14926KSTC STC20030726122509907/26/03 12:25:31  5-MIN KSTC 261825Z AUTO 28009KT 10SM CLR 33/24 A2984 1100 57 3500 280/09 RMK AO2
14926KSTC STC20030726123009907/26/03 12:30:31  5-MIN KSTC 261830Z AUTO 30010KT 10SM CLR 33/24 A2984 1100 57 3500 300/10 RMK AO2
14926KSTC STC20030726123511507/26/03 12:35:31  5-MIN KSTC 261835Z AUTO 31007KT 270V340 10SM CLR 32/24 A2985 1100 61 3300 300/07 270V340 RMK AO2
14926KSTC STC20030726124010507/26/03 12:40:31  5-MIN KSTC 261840Z AUTO 30010G14KT 10SM CLR 33/24 A2985 1090 59 3400 300/10G14 RMK AO2
14926KSTC STC20030726124510507/26/03 12:45:31  5-MIN KSTC 261845Z AUTO 29009G14KT 10SM CLR 33/24 A2985 1090 59 3400 290/09G14 RMK AO2
14926KSTC STC20030726125011607/26/03 12:50:31  5-MIN KSTC 261850Z AUTO 28007KT 10SM CLR 32/24 A2985 1090 61 3300 280/07 RMK AO2 SLP107 T03220239
14926KSTC STC20030726125509907/26/03 12:55:31  5-MIN KSTC 261855Z AUTO 32006KT 10SM CLR 32/24 A2985 1090 61 3300 320/06 RMK AO2
14926KSTC STC20030726130009907/26/03 13:00:31  5-MIN KSTC 261900Z AUTO 32006KT 10SM CLR 32/24 A2985 1090 61 3300 310/06 RMK AO2
14926KSTC STC20030726130509907/26/03 13:05:31  5-MIN KSTC 261905Z AUTO 29009KT 10SM CLR 32/23 A2985 1090 59 3300 280/09 RMK AO2
14926KSTC STC20030726131009907/26/03 13:10:31  5-MIN KSTC 261910Z AUTO 29008KT 10SM CLR 32/24 A2985 1090 61 3300 290/08 RMK AO2
14926KSTC STC20030726131509907/26/03 13:15:31  5-MIN KSTC 261915Z AUTO 28007KT 10SM CLR 32/24 A2985 1090 61 3300 280/07 RMK AO2
14926KSTC STC20030726132009907/26/03 13:20:31  5-MIN KSTC 261920Z AUTO 30008KT 10SM CLR 32/23 A2986 1090 59 3300 290/08 RMK AO2
14926KSTC STC20030726132509907/26/03 13:25:31  5-MIN KSTC 261925Z AUTO 26007KT 10SM CLR 33/24 A2986 1080 59 3400 260/07 RMK AO2
14926KSTC STC20030726133009907/26/03 13:30:31  5-MIN KSTC 261930Z AUTO 28010KT 10SM CLR 32/24 A2986 1080 61 3300 280/10 RMK AO2
14926KSTC STC20030726133509907/26/03 13:35:31  5-MIN KSTC 261935Z AUTO 29009KT 10SM CLR 32/23 A2986 1080 57 3300 280/09 RMK AO2
14926KSTC STC20030726134009907/26/03 13:40:31  5-MIN KSTC 261940Z AUTO 30009KT 10SM CLR 32/22 A2986 1080 56 3300 300/09 RMK AO2
14926KSTC STC20030726134509907/26/03 13:45:31  5-MIN KSTC 261945Z AUTO 30010KT 10SM CLR 32/23 A2987 1070 58 3300 300/10 RMK AO2
14926KSTC STC20030726135011607/26/03 13:50:31  5-MIN KSTC 261950Z AUTO 30011KT 10SM CLR 31/23 A2987 1070 63 3200 290/11 RMK AO2 SLP114 T03110233
14926KSTC STC20030727233009807/27/03 23:30:31  5-MIN KSTC 280530Z AUTO 31003KT 10SM CLR 19/17 A3009 870 90 1600 310/03 RMK AO2
14926KSTC STC20030727233509807/27/03 23:35:31  5-MIN KSTC 280535Z AUTO 00000KT 10SM CLR 19/17 A3009 870 87 1600 000/00 RMK AO2
14926KSTC STC20030727234009807/27/03 23:40:31  5-MIN KSTC 280540Z AUTO 30003KT 10SM CLR 19/17 A3009 870 87 1600 300/03 RMK AO2
14926KSTC STC20030727234509807/27/03 23:45:31  5-MIN KSTC 280545Z AUTO 31003KT 10SM CLR 18/17 A3009 870 90 1500 310/03 RMK AO2
14926KSTC STC20030727235014307/27/03 23:50:31  5-MIN KSTC 280550Z AUTO 32003KT 10SM CLR 18/17 A3008 870 90 1500 320/03 RMK AO2 SLP191 T01830167 10239 20178 402830156 53004
14926KSTC STC20030727235509807/27/03 23:55:31  5-MIN KSTC 280555Z AUTO 32003KT 10SM CLR 18/17 A3008 880 93 1400 310/03 RMK AO2
14926KSTC STC20030728000009807/28/03 00:00:31  5-MIN KSTC 280600Z AUTO 31003KT 10SM CLR 18/17 A3008 880 93 1400 310/03 RMK AO2
14926KSTC STC20030728000509807/28/03 00:05:31  5-MIN KSTC 280605Z AUTO 33003KT 10SM CLR 18/17 A3008 880 90 1500 330/03 RMK AO2
14926KSTC STC20030728001009807/28/03 00:10:31  5-MIN KSTC 280610Z AUTO 33003KT 10SM CLR 18/17 A3008 880 93 1500 330/03 RMK AO2
14926KSTC STC20030728001509807/28/03 00:15:31  5-MIN KSTC 280615Z AUTO 33003KT 10SM CLR 18/17 A3008 880 90 1500 330/03 RMK AO2
14926KSTC STC20030728002009807/28/03 00:20:31  5-MIN KSTC 280620Z AUTO 00000KT 10SM CLR 19/17 A3008 880 90 1600 000/00 RMK AO2
14926KSTC STC20030728002509807/28/03 00:25:31  5-MIN KSTC 280625Z AUTO 00000KT 10SM CLR 19/17 A3007 880 87 1600 000/00 RMK AO2
14926KSTC STC20030728003009807/28/03 00:30:31  5-MIN KSTC 280630Z AUTO 34003KT 10SM CLR 18/17 A3007 880 90 1500 340/03 RMK AO2
14926KSTC STC20030728003509807/28/03 00:35:31  5-MIN KSTC 280635Z AUTO 33003KT 10SM CLR 18/17 A3008 880 90 1500 330/03 RMK AO2
14926KSTC STC20030728004009807/28/03 00:40:31  5-MIN KSTC 280640Z AUTO 00000KT 10SM CLR 18/17 A3007 890 90 1500 000/00 RMK AO2
14926KSTC STC20030728004509807/28/03 00:45:31  5-MIN KSTC 280645Z AUTO 34003KT 10SM CLR 19/17 A3007 880 87 1600 330/03 RMK AO2
14926KSTC STC20030728005011507/28/03 00:50:31  5-MIN KSTC 280650Z AUTO 33004KT 10SM CLR 18/17 A3008 880 90 1500 320/04 RMK AO2 SLP188 T01830167
14926KSTC STC20030728005509807/28/03 00:55:31  5-MIN KSTC 280655Z AUTO 31003KT 10SM CLR 18/17 A3008 880 90 1500 310/03 RMK AO2
14926KSTC STC20030728010009807/28/03 01:00:31  5-MIN KSTC 280700Z AUTO 31003KT 10SM CLR 18/17 A3008 880 90 1500 310/03 RMK AO2
14926KSTC STC20030728010509807/28/03 01:05:31  5-MIN KSTC 280705Z AUTO 31005KT 10SM CLR 18/17 A3008 880 90 1500 310/05 RMK AO2
14926KSTC STC20030728011009807/28/03 01:10:31  5-MIN KSTC 280710Z AUTO 32005KT 10SM CLR 18/17 A3008 880 93 1500 310/05 RMK AO2
14926KSTC STC20030728011509807/28/03 01:15:31  5-MIN KSTC 280715Z AUTO 33003KT 10SM CLR 18/17 A3008 880 93 1500 330/03 RMK AO2
14926KSTC STC20030728012009807/28/03 01:20:31  5-MIN KSTC 280720Z AUTO 34003KT 10SM CLR 18/17 A3007 890 90 1500 340/03 RMK AO2
14926KSTC STC20030728012509807/28/03 01:25:31  5-MIN KSTC 280725Z AUTO 00000KT 10SM CLR 18/17 A3007 890 93 1500 000/00 RMK AO2
14926KSTC STC20030728013009807/28/03 01:30:31  5-MIN KSTC 280730Z AUTO 32003KT 10SM CLR 18/16 A3007 890 90 1500 320/03 RMK AO2
14926KSTC STC20030728013509807/28/03 01:35:31  5-MIN KSTC 280735Z AUTO 32004KT 10SM CLR 18/16 A3007 890 90 1500 320/04 RMK AO2
14926KSTC STC20030728014009807/28/03 01:40:31  5-MIN KSTC 280740Z AUTO 32004KT 10SM CLR 18/16 A3007 890 90 1500 320/04 RMK AO2
14926KSTC STC20030728014509807/28/03 01:45:31  5-MIN KSTC 280745Z AUTO 32005KT 10SM CLR 18/16 A3007 890 90 1500 320/05 RMK AO2
14926KSTC STC20030728015011507/28/03 01:50:31  5-MIN KSTC 280750Z AUTO 33004KT 10SM CLR 18/16 A3007 890 90 1500 320/04 RMK AO2 SLP186 T01780161
14926KSTC STC20030728015509807/28/03 01:55:31  5-MIN KSTC 280755Z AUTO 35003KT 10SM CLR 18/16 A3007 890 90 1500 340/03 RMK AO2
14926KSTC STC20030728020009807/28/03 02:00:31  5-MIN KSTC 280800Z AUTO 02003KT 10SM CLR 18/16 A3007 890 90 1500 010/03 RMK AO2
14926KSTC STC20030728020509807/28/03 02:05:31  5-MIN KSTC 280805Z AUTO 35003KT 10SM CLR 17/16 A3007 890 93 1400 340/03 RMK AO2
14926KSTC STC20030728021009807/28/03 02:10:31  5-MIN KSTC 280810Z AUTO 33004KT 10SM CLR 17/16 A3007 890 93 1400 330/04 RMK AO2
14926KSTC STC20030728021509807/28/03 02:15:31  5-MIN KSTC 280815Z AUTO 33004KT 10SM CLR 17/16 A3007 890 93 1400 330/04 RMK AO2
14926KSTC STC20030728022009807/28/03 02:20:31  5-MIN KSTC 280820Z AUTO 33004KT 10SM CLR 17/16 A3007 890 90 1400 330/04 RMK AO2
14926KSTC STC20030728022509807/28/03 02:25:31  5-MIN KSTC 280825Z AUTO 33003KT 10SM CLR 17/16 A3007 890 90 1400 330/03 RMK AO2
14926KSTC STC20030728023009807/28/03 02:30:31  5-MIN KSTC 280830Z AUTO 33003KT 10SM CLR 17/16 A3006 890 93 1400 330/03 RMK AO2
14926KSTC STC20030728023509807/28/03 02:35:31  5-MIN KSTC 280835Z AUTO 32003KT 10SM CLR 17/16 A3007 890 93 1400 310/03 RMK AO2
14926KSTC STC20030728024009807/28/03 02:40:31  5-MIN KSTC 280840Z AUTO 32004KT 10SM CLR 17/16 A3007 890 93 1300 320/04 RMK AO2
14926KSTC STC20030728024509807/28/03 02:45:31  5-MIN KSTC 280845Z AUTO 33003KT 10SM CLR 17/16 A3007 890 93 1300 330/03 RMK AO2
14926KSTC STC20030728025012107/28/03 02:50:31  5-MIN KSTC 280850Z AUTO 34003KT 10SM CLR 16/16 A3007 890 96 1300 340/03 RMK AO2 SLP186 T01610156 58004
14926KSTC STC20030728025509807/28/03 02:55:31  5-MIN KSTC 280855Z AUTO 35003KT 10SM CLR 17/16 A3007 890 93 1300 350/03 RMK AO2
14926KSTC STC20030728030009807/28/03 03:00:31  5-MIN KSTC 280900Z AUTO 00000KT 10SM CLR 17/16 A3007 890 93 1300 000/00 RMK AO2
14926KSTC STC20030728030509807/28/03 03:05:31  5-MIN KSTC 280905Z AUTO 33004KT 10SM CLR 17/16 A3006 890 93 1300 330/04 RMK AO2
14926KSTC STC20030728031009807/28/03 03:10:31  5-MIN KSTC 280910Z AUTO 33004KT 10SM CLR 17/16 A3006 900 93 1300 320/04 RMK AO2
14926KSTC STC20030728031509807/28/03 03:15:31  5-MIN KSTC 280915Z AUTO 34003KT 10SM CLR 16/15 A3006 890 93 1300 340/03 RMK AO2
14926KSTC STC20030728032009807/28/03 03:20:31  5-MIN KSTC 280920Z AUTO 33004KT 10SM CLR 16/16 A3006 890 96 1300 320/04 RMK AO2
14926KSTC STC20030728032509807/28/03 03:25:31  5-MIN KSTC 280925Z AUTO 33003KT 10SM CLR 16/16 A3006 900 96 1300 330/03 RMK AO2
14926KSTC STC20030728033009807/28/03 03:30:31  5-MIN KSTC 280930Z AUTO 33003KT 10SM CLR 16/16 A3006 890 96 1300 330/03 RMK AO2
14926KSTC STC20030728033509807/28/03 03:35:31  5-MIN KSTC 280935Z AUTO 32003KT 10SM CLR 16/16 A3006 890 96 1300 320/03 RMK AO2
14926KSTC STC20030728034009807/28/03 03:40:31  5-MIN KSTC 280940Z AUTO 31004KT 10SM CLR 16/16 A3006 890 96 1300 310/04 RMK AO2
14926KSTC STC20030728034509807/28/03 03:45:31  5-MIN KSTC 280945Z AUTO 32004KT 10SM CLR 16/16 A3006 890 96 1300 320/04 RMK AO2
14926KSTC STC20030728035011507/28/03 03:50:31  5-MIN KSTC 280950Z AUTO 32004KT 10SM CLR 16/16 A3006 890 96 1300 320/04 RMK AO2 SLP185 T01610156
14926KSTC STC20030728035509807/28/03 03:55:31  5-MIN KSTC 280955Z AUTO 33003KT 10SM CLR 16/15 A3006 890 93 1300 330/03 RMK AO2
14926KSTC STC20030728040009807/28/03 04:00:31  5-MIN KSTC 281000Z AUTO 32003KT 10SM CLR 16/15 A3006 900 96 1200 320/03 RMK AO2
14926KSTC STC20030728040509807/28/03 04:05:31  5-MIN KSTC 281005Z AUTO 33003KT 10SM CLR 16/15 A3006 900 96 1200 320/03 RMK AO2
14926KSTC STC20030728041009807/28/03 04:10:31  5-MIN KSTC 281010Z AUTO 33003KT 10SM CLR 16/15 A3006 900 96 1200 330/03 RMK AO2
14926KSTC STC20030728041509807/28/03 04:15:31  5-MIN KSTC 281015Z AUTO 32003KT 10SM CLR 16/15 A3006 900 96 1200 320/03 RMK AO2
14926KSTC STC20030728042009807/28/03 04:20:31  5-MIN KSTC 281020Z AUTO 32003KT 10SM CLR 16/15 A3006 900 96 1200 310/03 RMK AO2
14926KSTC STC20030728042509807/28/03 04:25:31  5-MIN KSTC 281025Z AUTO 31003KT 10SM CLR 16/16 A3006 900 96 1300 310/03 RMK AO2
14926KSTC STC20030728043009807/28/03 04:30:31  5-MIN KSTC 281030Z AUTO 32003KT 10SM CLR 16/15 A3006 900 96 1200 310/03 RMK AO2
14926KSTC STC20030728043509807/28/03 04:35:31  5-MIN KSTC 281035Z AUTO 32003KT 10SM CLR 16/15 A3006 900 96 1200 320/03 RMK AO2
14926KSTC STC20030728044009807/28/03 04:40:31  5-MIN KSTC 281040Z AUTO 33004KT 10SM CLR 16/15 A3006 900 96 1200 320/04 RMK AO2
14926KSTC STC20030728044509807/28/03 04:45:31  5-MIN KSTC 281045Z AUTO 33004KT 10SM CLR 16/15 A3006 890 96 1200 320/04 RMK AO2
14926KSTC STC20030728045011507/28/03 04:50:31  5-MIN KSTC 281050Z AUTO 33003KT 10SM CLR 16/15 A3006 890 96 1200 320/03 RMK AO2 SLP186 T01560150
14926KSTC STC20030728045509907/28/03 04:55:31  5-MIN KSTC 281055Z AUTO 33003KT 10SM CLR 15/15 A3006 900 100 1100 330/03 RMK AO2
14926KSTC STC20030728050009807/28/03 05:00:31  5-MIN KSTC 281100Z AUTO 34003KT 10SM CLR 16/15 A3006 900 96 1200 330/03 RMK AO2
14926KSTC STC20030728050509807/28/03 05:05:31  5-MIN KSTC 281105Z AUTO 33003KT 10SM CLR 16/15 A3006 900 96 1200 330/03 RMK AO2
14926KSTC STC20030728051009807/28/03 05:10:31  5-MIN KSTC 281110Z AUTO 33003KT 10SM CLR 16/15 A3006 890 96 1200 330/03 RMK AO2
14926KSTC STC20030728051509807/28/03 05:15:31  5-MIN KSTC 281115Z AUTO 00000KT 10SM CLR 16/15 A3007 890 96 1200 000/00 RMK AO2
14926KSTC STC20030728052009907/28/03 05:20:31  5-MIN KSTC 281120Z AUTO 33003KT 10SM CLR 15/15 A3007 890 100 1100 320/03 RMK AO2
14926KSTC STC20030728052509807/28/03 05:25:31  5-MIN KSTC 281125Z AUTO 33003KT 10SM CLR 15/14 A3007 890 96 1100 320/03 RMK AO2
14926KSTC STC20030728053009807/28/03 05:30:31  5-MIN KSTC 281130Z AUTO 34003KT 10SM CLR 15/14 A3007 890 96 1100 330/03 RMK AO2
14926KSTC STC20030728053509807/28/03 05:35:31  5-MIN KSTC 281135Z AUTO 00000KT 10SM CLR 15/14 A3006 890 96 1100 000/00 RMK AO2
14926KSTC STC20030728054009807/28/03 05:40:31  5-MIN KSTC 281140Z AUTO 33003KT 10SM CLR 16/15 A3007 890 96 1200 330/03 RMK AO2
14926KSTC STC20030728054509807/28/03 05:45:31  5-MIN KSTC 281145Z AUTO 34003KT 10SM CLR 16/15 A3007 890 96 1200 330/03 RMK AO2
14926KSTC STC20030728055013307/28/03 05:50:31  5-MIN KSTC 281150Z AUTO 33003KT 10SM CLR 16/16 A3007 890 96 1300 330/03 RMK AO2 SLP187 T01610156 10189 20150 56005
14926KSTC STC20030728055509807/28/03 05:55:31  5-MIN KSTC 281155Z AUTO 33003KT 10SM CLR 16/16 A3007 890 96 1300 330/03 RMK AO2
14926KSTC STC20030728060009807/28/03 06:00:31  5-MIN KSTC 281200Z AUTO 33003KT 10SM CLR 16/16 A3007 890 96 1300 330/03 RMK AO2
14926KSTC STC20030728060509807/28/03 06:05:31  5-MIN KSTC 281205Z AUTO 00000KT 10SM CLR 17/16 A3007 890 93 1300 000/00 RMK AO2
14926KSTC STC20030728061009807/28/03 06:10:31  5-MIN KSTC 281210Z AUTO 00000KT 10SM CLR 17/16 A3007 890 96 1300 000/00 RMK AO2
14926KSTC STC20030728061509807/28/03 06:15:31  5-MIN KSTC 281215Z AUTO 00000KT 10SM CLR 17/16 A3007 890 93 1400 000/00 RMK AO2
14926KSTC STC20030728062009807/28/03 06:20:31  5-MIN KSTC 281220Z AUTO 00000KT 10SM CLR 17/16 A3007 890 93 1400 000/00 RMK AO2
14926KSTC STC20030728062509807/28/03 06:25:31  5-MIN KSTC 281225Z AUTO 00000KT 10SM CLR 18/17 A3007 890 93 1500 000/00 RMK AO2
14926KSTC STC20030728063009807/28/03 06:30:31  5-MIN KSTC 281230Z AUTO 00000KT 10SM CLR 18/17 A3007 890 90 1500 000/00 RMK AO2
14926KSTC STC20030728063509807/28/03 06:35:31  5-MIN KSTC 281235Z AUTO 00000KT 10SM CLR 19/17 A3007 890 87 1600 000/00 RMK AO2
14926KSTC STC20030728064009807/28/03 06:40:31  5-MIN KSTC 281240Z AUTO 00000KT 10SM CLR 19/17 A3007 890 87 1600 000/00 RMK AO2
14926KSTC STC20030728064509807/28/03 06:45:31  5-MIN KSTC 281245Z AUTO 00000KT 10SM CLR 19/17 A3007 890 87 1700 000/00 RMK AO2
14926KSTC STC20030728065011507/28/03 06:50:31  5-MIN KSTC 281250Z AUTO 01003KT 10SM CLR 19/17 A3007 890 84 1700 010/03 RMK AO2 SLP187 T01940167
14926KSTC STC20030728065509807/28/03 06:55:31  5-MIN KSTC 281255Z AUTO 01003KT 10SM CLR 20/17 A3007 890 84 1700 360/03 RMK AO2
14926KSTC STC20030728070009807/28/03 07:00:31  5-MIN KSTC 281300Z AUTO 01003KT 10SM CLR 20/17 A3007 890 81 1700 360/03 RMK AO2
14926KSTC STC20030728070509807/28/03 07:05:31  5-MIN KSTC 281305Z AUTO 01003KT 10SM CLR 20/17 A3007 890 81 1700 360/03 RMK AO2
14926KSTC STC20030728071009807/28/03 07:10:31  5-MIN KSTC 281310Z AUTO 36003KT 10SM CLR 21/17 A3007 890 78 1800 360/03 RMK AO2
14926KSTC STC20030728071509807/28/03 07:15:31  5-MIN KSTC 281315Z AUTO 01003KT 10SM CLR 21/17 A3007 890 78 1800 010/03 RMK AO2
14926KSTC STC20030728072009807/28/03 07:20:31  5-MIN KSTC 281320Z AUTO 01003KT 10SM CLR 21/17 A3007 890 75 1800 360/03 RMK AO2
14926KSTC STC20030728072509807/28/03 07:25:31  5-MIN KSTC 281325Z AUTO 00000KT 10SM CLR 22/17 A3007 880 75 1900 000/00 RMK AO2
14926KSTC STC20030728073009807/28/03 07:30:31  5-MIN KSTC 281330Z AUTO 00000KT 10SM CLR 22/17 A3008 880 75 1900 000/00 RMK AO2
14926KSTC STC20030728073509807/28/03 07:35:31  5-MIN KSTC 281335Z AUTO 33003KT 10SM CLR 21/17 A3008 880 78 1800 320/03 RMK AO2
14926KSTC STC20030728074009807/28/03 07:40:31  5-MIN KSTC 281340Z AUTO VRB03KT 10SM CLR 22/17 A3008 880 75 1900 VRB/03 RMK AO2
14926KSTC STC20030728074509807/28/03 07:45:31  5-MIN KSTC 281345Z AUTO VRB04KT 10SM CLR 22/17 A3008 880 75 1900 VRB/04 RMK AO2
14926KSTC STC20030728075011507/28/03 07:50:31  5-MIN KSTC 281350Z AUTO 00000KT 10SM CLR 22/17 A3008 880 75 1900 000/00 RMK AO2 SLP190 T02170172
14926KSTC STC20030728075509807/28/03 07:55:31  5-MIN KSTC 281355Z AUTO VRB04KT 10SM CLR 22/17 A3008 880 73 2000 VRB/04 RMK AO2
14926KSTC STC20030728080009807/28/03 08:00:31  5-MIN KSTC 281400Z AUTO 32004KT 10SM CLR 22/17 A3008 880 73 2000 320/04 RMK AO2
14926KSTC STC20030728080509807/28/03 08:05:31  5-MIN KSTC 281405Z AUTO 32004KT 10SM CLR 22/17 A3008 880 70 2000 320/04 RMK AO2
14926KSTC STC20030728081009807/28/03 08:10:31  5-MIN KSTC 281410Z AUTO 34005KT 10SM CLR 23/17 A3008 880 68 2000 330/05 RMK AO2
14926KSTC STC20030728081509807/28/03 08:15:31  5-MIN KSTC 281415Z AUTO VRB05KT 10SM CLR 23/17 A3008 880 68 2000 VRB/05 RMK AO2
14926KSTC STC20030728082009807/28/03 08:20:31  5-MIN KSTC 281420Z AUTO 35004KT 10SM CLR 23/17 A3008 880 66 2100 350/04 RMK AO2
14926KSTC STC20030728082509807/28/03 08:25:31  5-MIN KSTC 281425Z AUTO 33005KT 10SM CLR 23/17 A3008 880 68 2100 330/05 RMK AO2
14926KSTC STC20030728083009807/28/03 08:30:31  5-MIN KSTC 281430Z AUTO 33005KT 10SM CLR 23/17 A3008 880 68 2100 330/05 RMK AO2
14926KSTC STC20030728083509807/28/03 08:35:31  5-MIN KSTC 281435Z AUTO VRB05KT 10SM CLR 23/17 A3008 880 66 2100 VRB/05 RMK AO2
14926KSTC STC20030728084009807/28/03 08:40:31  5-MIN KSTC 281440Z AUTO 33005KT 10SM CLR 23/17 A3008 880 66 2100 330/05 RMK AO2
14926KSTC STC20030728084509807/28/03 08:45:31  5-MIN KSTC 281445Z AUTO VRB04KT 10SM CLR 24/17 A3008 880 63 2200 VRB/04 RMK AO2
14926KSTC STC20030728085012107/28/03 08:50:31  5-MIN KSTC 281450Z AUTO 35003KT 10SM CLR 24/17 A3008 880 63 2200 350/03 RMK AO2 SLP189 T02390167 53000
14926KSTC STC20030728085509807/28/03 08:55:31  5-MIN KSTC 281455Z AUTO 32006KT 10SM CLR 24/17 A3008 880 61 2200 320/06 RMK AO2
14926KSTC STC20030728090009807/28/03 09:00:31  5-MIN KSTC 281500Z AUTO 31007KT 10SM CLR 24/16 A3008 880 59 2200 310/07 RMK AO2
14926KSTC STC20030728090509807/28/03 09:05:31  5-MIN KSTC 281505Z AUTO 36007KT 10SM CLR 24/16 A3008 880 57 2200 360/07 RMK AO2
14926KSTC STC20030728091009807/28/03 09:10:31  5-MIN KSTC 281510Z AUTO 32007KT 10SM CLR 24/16 A3008 880 59 2200 320/07 RMK AO2
14926KSTC STC20030728091509807/28/03 09:15:31  5-MIN KSTC 281515Z AUTO 33008KT 10SM CLR 25/16 A3008 880 55 2300 320/08 RMK AO2
14926KSTC STC20030728092009807/28/03 09:20:31  5-MIN KSTC 281520Z AUTO 33007KT 10SM CLR 24/16 A3008 880 57 2200 320/07 RMK AO2
14926KSTC STC20030728092509807/28/03 09:25:31  5-MIN KSTC 281525Z AUTO 34007KT 10SM CLR 25/16 A3008 880 55 2300 340/07 RMK AO2
14926KSTC STC20030728093009807/28/03 09:30:31  5-MIN KSTC 281530Z AUTO 35007KT 10SM CLR 26/16 A3008 880 53 2300 340/07 RMK AO2
14926KSTC STC20030728093509807/28/03 09:35:31  5-MIN KSTC 281535Z AUTO 34007KT 10SM CLR 26/16 A3008 880 53 2300 340/07 RMK AO2
14926KSTC STC20030728094009807/28/03 09:40:31  5-MIN KSTC 281540Z AUTO 35006KT 10SM CLR 26/16 A3008 880 53 2300 350/06 RMK AO2
14926KSTC STC20030728094509807/28/03 09:45:31  5-MIN KSTC 281545Z AUTO 36007KT 10SM CLR 26/16 A3008 880 53 2300 350/07 RMK AO2
14926KSTC STC20030728095011507/28/03 09:50:31  5-MIN KSTC 281550Z AUTO 34007KT 10SM CLR 26/15 A3008 880 51 2300 340/07 RMK AO2 SLP188 T02560150
14926KSTC STC20030728095509807/28/03 09:55:31  5-MIN KSTC 281555Z AUTO 33007KT 10SM CLR 26/16 A3007 880 53 2300 330/07 RMK AO2
14926KSTC STC20030728100009807/28/03 10:00:31  5-MIN KSTC 281600Z AUTO 02007KT 10SM CLR 26/15 A3008 880 51 2300 010/07 RMK AO2
14926KSTC STC20030728100509807/28/03 10:05:31  5-MIN KSTC 281605Z AUTO 36009KT 10SM CLR 26/15 A3008 880 51 2300 360/09 RMK AO2
14926KSTC STC20030728101009807/28/03 10:10:31  5-MIN KSTC 281610Z AUTO 35009KT 10SM CLR 26/15 A3007 880 51 2300 340/09 RMK AO2
14926KSTC STC20030728101509807/28/03 10:15:31  5-MIN KSTC 281615Z AUTO 36008KT 10SM CLR 26/15 A3008 880 50 2400 360/08 RMK AO2
14926KSTC STC20030728102009807/28/03 10:20:31  5-MIN KSTC 281620Z AUTO 01008KT 10SM CLR 26/14 A3008 880 49 2300 360/08 RMK AO2
14926KSTC STC20030728102509807/28/03 10:25:31  5-MIN KSTC 281625Z AUTO VRB06KT 10SM CLR 26/15 A3008 880 50 2400 VRB/06 RMK AO2
14926KSTC STC20030728103009807/28/03 10:30:31  5-MIN KSTC 281630Z AUTO 35008KT 10SM CLR 26/14 A3008 880 48 2400 350/08 RMK AO2
14926KSTC STC20030728103511407/28/03 10:35:31  5-MIN KSTC 281635Z AUTO 35008KT 310V010 10SM CLR 27/14 A3008 880 46 2500 350/08 310V010 RMK AO2
14926KSTC STC20030728104011407/28/03 10:40:31  5-MIN KSTC 281640Z AUTO 34008KT 310V010 10SM CLR 27/14 A3008 880 46 2500 340/08 310V010 RMK AO2
14926KSTC STC20030728104511407/28/03 10:45:31  5-MIN KSTC 281645Z AUTO 34008KT 300V010 10SM CLR 27/16 A3007 890 50 2500 340/08 300V010 RMK AO2
14926KSTC STC20030728105011507/28/03 10:50:31  5-MIN KSTC 281650Z AUTO 34007KT 10SM CLR 27/15 A3007 890 48 2500 340/07 RMK AO2 SLP187 T02670150
14926KSTC STC20030728105509807/28/03 10:55:31  5-MIN KSTC 281655Z AUTO 33009KT 10SM CLR 27/15 A3007 880 48 2500 330/09 RMK AO2
14926KSTC STC20030728110009807/28/03 11:00:31  5-MIN KSTC 281700Z AUTO 34007KT 10SM CLR 27/15 A3007 890 48 2500 340/07 RMK AO2
14926KSTC STC20030728110509807/28/03 11:05:31  5-MIN KSTC 281705Z AUTO 33008KT 10SM CLR 27/14 A3007 890 46 2500 320/08 RMK AO2
14926KSTC STC20030728111009807/28/03 11:10:31  5-MIN KSTC 281710Z AUTO 34007KT 10SM CLR 27/14 A3007 890 45 2500 340/07 RMK AO2
14926KSTC STC20030728111509807/28/03 11:15:31  5-MIN KSTC 281715Z AUTO VRB06KT 10SM CLR 27/14 A3007 890 46 2500 VRB/06 RMK AO2
14926KSTC STC20030728112011407/28/03 11:20:31  5-MIN KSTC 281720Z AUTO 35007KT 300V010 10SM CLR 27/14 A3007 890 45 2500 340/07 300V010 RMK AO2
14926KSTC STC20030728112509807/28/03 11:25:31  5-MIN KSTC 281725Z AUTO 33009KT 10SM CLR 27/15 A3007 890 46 2500 330/09 RMK AO2
14926KSTC STC20030728210009807/28/03 21:00:31  5-MIN KSTC 290300Z AUTO 15004KT 10SM CLR 19/17 A3002 940 87 1700 140/04 RMK AO2
14926KSTC STC20030728210509807/28/03 21:05:31  5-MIN KSTC 290305Z AUTO 13004KT 10SM CLR 19/17 A3002 940 87 1700 130/04 RMK AO2
14926KSTC STC20030728211009807/28/03 21:10:31  5-MIN KSTC 290310Z AUTO 12004KT 10SM CLR 19/17 A3002 940 87 1700 120/04 RMK AO2
14926KSTC STC20030728211509807/28/03 21:15:31  5-MIN KSTC 290315Z AUTO 13004KT 10SM CLR 20/17 A3002 930 84 1800 130/04 RMK AO2
14926KSTC STC20030728212009807/28/03 21:20:31  5-MIN KSTC 290320Z AUTO 15004KT 10SM CLR 19/17 A3002 940 84 1700 150/04 RMK AO2
14926KSTC STC20030728212509807/28/03 21:25:31  5-MIN KSTC 290325Z AUTO 16004KT 10SM CLR 19/17 A3001 940 90 1700 160/04 RMK AO2
14926KSTC STC20030728213009807/28/03 21:30:31  5-MIN KSTC 290330Z AUTO 15004KT 10SM CLR 19/17 A3002 940 90 1700 140/04 RMK AO2
14926KSTC STC20030728213509807/28/03 21:35:31  5-MIN KSTC 290335Z AUTO 14004KT 10SM CLR 19/17 A3001 940 90 1700 140/04 RMK AO2
14926KSTC STC20030728214009807/28/03 21:40:31  5-MIN KSTC 290340Z AUTO 15003KT 10SM CLR 19/17 A3001 940 87 1700 140/03 RMK AO2
14926KSTC STC20030728214509807/28/03 21:45:31  5-MIN KSTC 290345Z AUTO 00000KT 10SM CLR 19/17 A3001 940 87 1700 000/00 RMK AO2
14926KSTC STC20030728215011507/28/03 21:50:31  5-MIN KSTC 290350Z AUTO 00000KT 10SM CLR 19/17 A3001 940 90 1700 000/00 RMK AO2 SLP166 T01890172
14926KSTC STC20030728215509807/28/03 21:55:31  5-MIN KSTC 290355Z AUTO 20003KT 10SM CLR 18/17 A3001 940 90 1600 200/03 RMK AO2
14926KSTC STC20030728220009807/28/03 22:00:31  5-MIN KSTC 290400Z AUTO 00000KT 10SM CLR 18/17 A3001 940 90 1600 000/00 RMK AO2
14926KSTC STC20030728220509807/28/03 22:05:31  5-MIN KSTC 290405Z AUTO 00000KT 10SM CLR 18/17 A3001 940 93 1500 000/00 RMK AO2
14926KSTC STC20030728221009807/28/03 22:10:31  5-MIN KSTC 290410Z AUTO 00000KT 10SM CLR 18/17 A3001 940 93 1500 000/00 RMK AO2
14926KSTC STC20030728221509807/28/03 22:15:31  5-MIN KSTC 290415Z AUTO 00000KT 10SM CLR 18/17 A3001 940 93 1600 000/00 RMK AO2
14926KSTC STC20030728222009807/28/03 22:20:31  5-MIN KSTC 290420Z AUTO 00000KT 10SM CLR 17/16 A3001 940 93 1500 000/00 RMK AO2
14926KSTC STC20030728222509807/28/03 22:25:31  5-MIN KSTC 290425Z AUTO 00000KT 10SM CLR 18/17 A3001 950 93 1500 000/00 RMK AO2
14926KSTC STC20030728223009807/28/03 22:30:31  5-MIN KSTC 290430Z AUTO 00000KT 10SM CLR 17/17 A3001 950 96 1500 000/00 RMK AO2
14926KSTC STC20030728223509907/28/03 22:35:31  5-MIN KSTC 290435Z AUTO 00000KT 10SM CLR 17/17 A3001 950 100 1400 000/00 RMK AO2
14926KSTC STC20030728224009807/28/03 22:40:31  5-MIN KSTC 290440Z AUTO 00000KT 10SM CLR 18/17 A3001 940 93 1500 000/00 RMK AO2
14926KSTC STC20030728224509807/28/03 22:45:31  5-MIN KSTC 290445Z AUTO 00000KT 10SM CLR 18/17 A3001 950 96 1500 000/00 RMK AO2
14926KSTC STC20030728225011507/28/03 22:50:31  5-MIN KSTC 290450Z AUTO 00000KT 10SM CLR 17/16 A3001 940 93 1500 000/00 RMK AO2 SLP165 T01720161
14926KSTC STC20030728225509807/28/03 22:55:31  5-MIN KSTC 290455Z AUTO 00000KT 10SM CLR 17/16 A3001 940 93 1500 000/00 RMK AO2
14926KSTC STC20030728230009807/28/03 23:00:31  5-MIN KSTC 290500Z AUTO 00000KT 10SM CLR 17/16 A3001 950 93 1500 000/00 RMK AO2
14926KSTC STC20030728230509807/28/03 23:05:31  5-MIN KSTC 290505Z AUTO 00000KT 10SM CLR 17/16 A3001 940 93 1500 000/00 RMK AO2
14926KSTC STC20030728231009807/28/03 23:10:31  5-MIN KSTC 290510Z AUTO 00000KT 10SM CLR 17/16 A3001 940 96 1400 000/00 RMK AO2
14926KSTC STC20030728231509807/28/03 23:15:31  5-MIN KSTC 290515Z AUTO 00000KT 10SM CLR 17/16 A3001 940 96 1400 000/00 RMK AO2
14926KSTC STC20030728232009807/28/03 23:20:31  5-MIN KSTC 290520Z AUTO 00000KT 10SM CLR 17/16 A3001 940 93 1500 000/00 RMK AO2
14926KSTC STC20030728232509807/28/03 23:25:31  5-MIN KSTC 290525Z AUTO 00000KT 10SM CLR 17/16 A3001 940 96 1400 000/00 RMK AO2
14926KSTC STC20030728233009807/28/03 23:30:31  5-MIN KSTC 290530Z AUTO 00000KT 10SM CLR 17/16 A3001 940 96 1400 000/00 RMK AO2
14926KSTC STC20030728233509807/28/03 23:35:31  5-MIN KSTC 290535Z AUTO 00000KT 10SM CLR 16/16 A3001 950 96 1300 000/00 RMK AO2
14926KSTC STC20030728234009807/28/03 23:40:31  5-MIN KSTC 290540Z AUTO 00000KT 10SM CLR 17/16 A3001 950 96 1400 000/00 RMK AO2
14926KSTC STC20030728234509807/28/03 23:45:31  5-MIN KSTC 290545Z AUTO 00000KT 10SM CLR 17/16 A3001 950 96 1400 000/00 RMK AO2
14926KSTC STC20030728235014307/28/03 23:50:31  5-MIN KSTC 290550Z AUTO 00000KT 10SM CLR 17/16 A3001 950 96 1400 000/00 RMK AO2 SLP164 T01670161 10267 20161 402940150 53005
14926KSTC STC20030728235509807/28/03 23:55:31  5-MIN KSTC 290555Z AUTO 00000KT 10SM CLR 16/15 A3001 950 93 1300 000/00 RMK AO2
14926KSTC STC20030729000009807/29/03 00:00:31  5-MIN KSTC 290600Z AUTO 22003KT 10SM CLR 17/16 A3001 950 96 1400 220/03 RMK AO2
14926KSTC STC20030729000509807/29/03 00:05:31  5-MIN KSTC 290605Z AUTO 22003KT 10SM CLR 16/15 A3001 950 93 1300 220/03 RMK AO2
14926KSTC STC20030729001009807/29/03 00:10:31  5-MIN KSTC 290610Z AUTO 00000KT 10SM CLR 16/15 A3001 950 93 1300 000/00 RMK AO2
14926KSTC STC20030729001509807/29/03 00:15:31  5-MIN KSTC 290615Z AUTO 00000KT 10SM CLR 16/15 A3001 950 96 1300 000/00 RMK AO2
14926KSTC STC20030729002009807/29/03 00:20:31  5-MIN KSTC 290620Z AUTO 00000KT 10SM CLR 16/16 A3001 950 96 1300 000/00 RMK AO2
14926KSTC STC20030729002509807/29/03 00:25:31  5-MIN KSTC 290625Z AUTO 00000KT 10SM CLR 16/16 A3001 950 96 1300 000/00 RMK AO2
14926KSTC STC20030729003009807/29/03 00:30:31  5-MIN KSTC 290630Z AUTO 00000KT 10SM CLR 16/16 A3001 950 96 1300 000/00 RMK AO2
14926KSTC STC20030729003509807/29/03 00:35:31  5-MIN KSTC 290635Z AUTO 00000KT 10SM CLR 17/16 A3000 950 96 1400 000/00 RMK AO2
14926KSTC STC20030729004009807/29/03 00:40:31  5-MIN KSTC 290640Z AUTO 22003KT 9SM CLR 17/17 A3000 950 100 1400 220/03 RMK AO2
14926KSTC STC20030729004509707/29/03 00:45:31  5-MIN KSTC 290645Z AUTO 00000KT 9SM CLR 17/16 A3000 950 96 1400 000/00 RMK AO2
14926KSTC STC20030729005011507/29/03 00:50:31  5-MIN KSTC 290650Z AUTO 00000KT 10SM CLR 16/15 A3000 950 93 1300 000/00 RMK AO2 SLP163 T01610150
14926KSTC STC20030729005509807/29/03 00:55:31  5-MIN KSTC 290655Z AUTO 00000KT 10SM CLR 16/15 A3000 950 96 1300 000/00 RMK AO2
14926KSTC STC20030729010009807/29/03 01:00:31  5-MIN KSTC 290700Z AUTO 00000KT 10SM CLR 16/15 A3000 950 93 1300 000/00 RMK AO2
14926KSTC STC20030729010509807/29/03 01:05:31  5-MIN KSTC 290705Z AUTO 00000KT 10SM CLR 16/15 A3000 950 93 1300 000/00 RMK AO2
14926KSTC STC20030729011009807/29/03 01:10:31  5-MIN KSTC 290710Z AUTO 21003KT 10SM CLR 16/16 A3000 950 96 1300 200/03 RMK AO2
14926KSTC STC20030729011509907/29/03 01:15:31  5-MIN KSTC 290715Z AUTO 00000KT 10SM CLR 16/16 A3000 950 100 1300 000/00 RMK AO2
14926KSTC STC20030729012009907/29/03 01:20:31  5-MIN KSTC 290720Z AUTO 00000KT 10SM CLR 16/16 A3000 950 100 1300 000/00 RMK AO2
14926KSTC STC20030729012509907/29/03 01:25:31  5-MIN KSTC 290725Z AUTO 00000KT 10SM CLR 16/16 A3000 950 100 1300 000/00 RMK AO2
14926KSTC STC20030729013009807/29/03 01:30:31  5-MIN KSTC 290730Z AUTO 00000KT 10SM CLR 16/16 A3000 950 96 1300 000/00 RMK AO2
14926KSTC STC20030729013509907/29/03 01:35:31  5-MIN KSTC 290735Z AUTO 00000KT 10SM CLR 16/16 A3000 950 100 1300 000/00 RMK AO2
14926KSTC STC20030729014010007/29/03 01:40:31  5-MIN KSTC 290740Z AUTO 00000KT 6SM BR CLR 16/15 A3000 950 96 1300 000/00 RMK AO2
14926KSTC STC20030729014510107/29/03 01:45:31  5-MIN KSTC 290745Z AUTO 00000KT 2SM BR CLR 15/15 A3000 960 100 1200 000/00 RMK AO2
14926KSTC STC20030729015012207/29/03 01:50:31  5-MIN KSTC 290750Z AUTO 00000KT 2 1/2SM BR CLR 15/15 A3000 960 100 1200 000/00 RMK AO2 SLP161 T01500150
14926KSTC STC20030729015509707/29/03 01:55:31  5-MIN KSTC 290755Z AUTO 00000KT 7SM CLR 16/15 A2999 960 96 1300 000/00 RMK AO2
14926KSTC STC20030729020009707/29/03 02:00:31  5-MIN KSTC 290800Z AUTO 00000KT 7SM CLR 16/15 A2999 960 96 1300 000/00 RMK AO2
14926KSTC STC20030729020509707/29/03 02:05:31  5-MIN KSTC 290805Z AUTO 00000KT 7SM CLR 16/15 A2999 960 96 1300 000/00 RMK AO2
14926KSTC STC20030729021009807/29/03 02:10:31  5-MIN KSTC 290810Z AUTO 00000KT 7SM CLR 16/16 A2999 960 100 1300 000/00 RMK AO2
14926KSTC STC20030729021511307/29/03 02:15:31  5-MIN KSTC 290815Z AUTO 00000KT 2 1/2SM BR CLR 16/16 A2999 960 100 1300 000/00 RMK AO2 VIS 1V5
14926KSTC STC20030729022011307/29/03 02:20:31  5-MIN KSTC 290820Z AUTO 00000KT 1 3/4SM BR CLR 15/15 A2999 960 100 1200 000/00 RMK AO2 VIS 1V5
14926KSTC STC20030729022511307/29/03 02:25:31  5-MIN KSTC 290825Z AUTO 00000KT 2 1/2SM BR CLR 14/14 A2999 960 100 1200 000/00 RMK AO2 VIS 1V5
14926KSTC STC20030729023010107/29/03 02:30:31  5-MIN KSTC 290830Z AUTO 00000KT 4SM BR CLR 15/15 A2999 960 100 1200 000/00 RMK AO2
14926KSTC STC20030729023509907/29/03 02:35:31  5-MIN KSTC 290835Z AUTO 00000KT 10SM CLR 15/15 A2999 960 100 1200 000/00 RMK AO2
14926KSTC STC20030729024009807/29/03 02:40:31  5-MIN KSTC 290840Z AUTO 00000KT 10SM CLR 16/15 A2999 960 96 1300 000/00 RMK AO2
14926KSTC STC20030729024509907/29/03 02:45:31  5-MIN KSTC 290845Z AUTO 00000KT 10SM CLR 15/15 A2999 960 100 1200 000/00 RMK AO2
14926KSTC STC20030729025012207/29/03 02:50:31  5-MIN KSTC 290850Z AUTO 00000KT 10SM CLR 15/15 A2999 960 100 1200 000/00 RMK AO2 SLP159 T01500150 58002
14926KSTC STC20030729025509907/29/03 02:55:31  5-MIN KSTC 290855Z AUTO 00000KT 10SM CLR 15/15 A2999 960 100 1200 000/00 RMK AO2
14926KSTC STC20030729030009907/29/03 03:00:31  5-MIN KSTC 290900Z AUTO 00000KT 10SM CLR 15/15 A2999 960 100 1200 000/00 RMK AO2
14926KSTC STC20030729030510107/29/03 03:05:31  5-MIN KSTC 290905Z AUTO 00000KT 5SM BR CLR 15/15 A2999 960 100 1200 000/00 RMK AO2
14926KSTC STC20030729031010107/29/03 03:10:31  5-MIN KSTC 290910Z AUTO 00000KT 3SM BR CLR 14/14 A2999 960 100 1200 000/00 RMK AO2
14926KSTC STC20030729031511307/29/03 03:15:31  5-MIN KSTC 290915Z AUTO 00000KT 1 3/4SM BR CLR 14/14 A2999 960 100 1100 000/00 RMK AO2 VIS 1V5
14926KSTC STC20030729032011107/29/03 03:20:31  5-MIN KSTC 290920Z AUTO 00000KT 1SM BR CLR 14/14 A2999 960 100 1200 000/00 RMK AO2 VIS 1/2V4
14926KSTC STC20030729032510107/29/03 03:25:31  5-MIN KSTC 290925Z AUTO 00000KT 1SM BR CLR 14/14 A2999 960 100 1200 000/00 RMK AO2
14926KSTC STC20030729033010107/29/03 03:30:31  5-MIN KSTC 290930Z AUTO 00000KT 2SM BR CLR 14/14 A2999 960 100 1200 000/00 RMK AO2
14926KSTC STC20030729033510107/29/03 03:35:31  5-MIN KSTC 290935Z AUTO 00000KT 6SM BR CLR 14/14 A2999 960 100 1200 000/00 RMK AO2
14926KSTC STC20030729034010507/29/03 03:40:31  5-MIN KSTC 290940Z AUTO 00000KT 1 1/2SM BR CLR 14/14 A2999 960 100 1200 000/00 RMK AO2
14926KSTC STC20030729034510107/29/03 03:45:31  5-MIN KSTC 290945Z AUTO 00000KT 1SM BR CLR 14/14 A2999 960 100 1200 000/00 RMK AO2
14926KSTC STC20030729035013207/29/03 03:50:31  5-MIN KSTC 290950Z AUTO 00000KT 1 1/2SM BR CLR 14/14 A2999 960 100 1200 000/00 RMK AO2 VIS 3/4V5 SLP160 T01440144
14926KSTC STC20030729035510107/29/03 03:55:31  5-MIN KSTC 290955Z AUTO 00000KT 3SM BR CLR 13/13 A2999 960 100 1000 000/00 RMK AO2
14926KSTC STC20030729040010507/29/03 04:00:31  5-MIN KSTC 291000Z AUTO 00000KT 2 1/2SM BR CLR 13/13 A2999 960 100 1000 000/00 RMK AO2
14926KSTC STC20030729040510107/29/03 04:05:31  5-MIN KSTC 291005Z AUTO 00000KT 3SM BR CLR 14/14 A2999 960 100 1200 000/00 RMK AO2
14926KSTC STC20030729041010107/29/03 04:10:31  5-MIN KSTC 291010Z AUTO 00000KT 3SM BR CLR 14/14 A2999 960 100 1100 000/00 RMK AO2
14926KSTC STC20030729041511307/29/03 04:15:31  5-MIN KSTC 291015Z AUTO 00000KT 2SM BR CLR 14/14 A2999 960 100 1100 000/00 RMK AO2 VIS 1 1/2V5
14926KSTC STC20030729042010107/29/03 04:20:31  5-MIN KSTC 291020Z AUTO 00000KT 2SM BR CLR 14/14 A2999 960 100 1100 000/00 RMK AO2
14926KSTC STC20030729042511707/29/03 04:25:31  5-MIN KSTC 291025Z AUTO 00000KT 2 1/2SM BR CLR 13/13 A2999 960 100 1000 000/00 RMK AO2 VIS 1 1/4V5
14926KSTC STC20030729043010107/29/03 04:30:31  5-MIN KSTC 291030Z AUTO 00000KT 4SM BR CLR 13/13 A3000 960 100 1000 000/00 RMK AO2
14926KSTC STC20030729043510107/29/03 04:35:31  5-MIN KSTC 291035Z AUTO 00000KT 6SM BR CLR 14/14 A3000 960 100 1100 000/00 RMK AO2
14926KSTC STC20030729044010107/29/03 04:40:31  5-MIN KSTC 291040Z AUTO 00000KT 5SM BR CLR 14/14 A3000 960 100 1100 000/00 RMK AO2
14926KSTC STC20030729044510107/29/03 04:45:31  5-MIN KSTC 291045Z AUTO 00000KT 2SM BR CLR 14/14 A3000 950 100 1100 000/00 RMK AO2
14926KSTC STC20030729045013407/29/03 04:50:31  5-MIN KSTC 291050Z AUTO 00000KT 1 3/4SM BR CLR 14/14 A3000 950 100 1100 000/00 RMK AO2 VIS 1 1/4V4 SLP162 T01390139
14926KSTC STC20030729045511507/29/03 04:55:31  5-MIN KSTC 291055Z AUTO 00000KT 1 1/2SM BR CLR 13/13 A3000 950 100 1000 000/00 RMK AO2 VIS 1/2V4
14926KSTC STC20030729050010507/29/03 05:00:31  5-MIN KSTC 291100Z AUTO 00000KT 1 1/4SM BR CLR 14/14 A3000 950 100 1100 000/00 RMK AO2
14926KSTC STC20030729050510107/29/03 05:05:31  5-MIN KSTC 291105Z AUTO 00000KT 3SM BR CLR 13/13 A3000 950 100 1000 000/00 RMK AO2
14926KSTC STC20030729051009707/29/03 05:10:31  5-MIN KSTC 291110Z AUTO 00000KT 7SM CLR 13/13 A3000 950 96 1000 000/00 RMK AO2
14926KSTC STC20030729051510007/29/03 05:15:31  5-MIN KSTC 291115Z AUTO 00000KT 5SM BR CLR 13/13 A3000 950 96 1000 000/00 RMK AO2
14926KSTC STC20030729052010007/29/03 05:20:31  5-MIN KSTC 291120Z AUTO 00000KT 6SM BR CLR 14/13 A3000 950 96 1100 000/00 RMK AO2
14926KSTC STC20030729052509807/29/03 05:25:31  5-MIN KSTC 291125Z AUTO 00000KT 8SM CLR 14/14 A3000 950 100 1100 000/00 RMK AO2
14926KSTC STC20030729053009707/29/03 05:30:31  5-MIN KSTC 291130Z AUTO 00000KT 7SM CLR 14/13 A3000 950 96 1100 000/00 RMK AO2
14926KSTC STC20030729053509807/29/03 05:35:31  5-MIN KSTC 291135Z AUTO 00000KT 7SM CLR 14/14 A3000 950 100 1100 000/00 RMK AO2
14926KSTC STC20030729054009707/29/03 05:40:31  5-MIN KSTC 291140Z AUTO 00000KT 9SM CLR 14/14 A3001 950 96 1100 000/00 RMK AO2
14926KSTC STC20030729054509807/29/03 05:45:31  5-MIN KSTC 291145Z AUTO 00000KT 10SM CLR 14/14 A3001 950 96 1100 000/00 RMK AO2
14926KSTC STC20030729055013307/29/03 05:50:31  5-MIN KSTC 291150Z AUTO 00000KT 10SM CLR 14/14 A3001 950 96 1100 000/00 RMK AO2 SLP165 T01440139 10167 20128 56005
14926KSTC STC20030729055509807/29/03 05:55:31  5-MIN KSTC 291155Z AUTO 00000KT 10SM CLR 15/14 A3001 950 93 1200 000/00 RMK AO2
14926KSTC STC20030729060009807/29/03 06:00:31  5-MIN KSTC 291200Z AUTO 00000KT 10SM CLR 15/14 A3000 950 96 1200 000/00 RMK AO2
14926KSTC STC20030729060509807/29/03 06:05:31  5-MIN KSTC 291205Z AUTO 00000KT 10SM CLR 16/14 A3000 950 93 1300 000/00 RMK AO2
14926KSTC STC20030729061009807/29/03 06:10:31  5-MIN KSTC 291210Z AUTO 00000KT 10SM CLR 16/15 A3000 950 96 1300 000/00 RMK AO2
14926KSTC STC20030729061509807/29/03 06:15:31  5-MIN KSTC 291215Z AUTO 00000KT 10SM CLR 16/15 A3001 950 93 1300 000/00 RMK AO2
14926KSTC STC20030729062009807/29/03 06:20:31  5-MIN KSTC 291220Z AUTO 00000KT 10SM CLR 17/16 A3001 950 93 1400 000/00 RMK AO2
14926KSTC STC20030729062509807/29/03 06:25:31  5-MIN KSTC 291225Z AUTO 00000KT 10SM CLR 17/16 A3001 950 90 1500 000/00 RMK AO2
14926KSTC STC20030729063009807/29/03 06:30:31  5-MIN KSTC 291230Z AUTO 00000KT 10SM CLR 17/16 A3000 950 90 1500 000/00 RMK AO2
14926KSTC STC20030729063509807/29/03 06:35:31  5-MIN KSTC 291235Z AUTO 00000KT 10SM CLR 17/16 A3000 950 93 1500 000/00 RMK AO2
14926KSTC STC20030729064009807/29/03 06:40:31  5-MIN KSTC 291240Z AUTO 00000KT 10SM CLR 18/16 A3000 950 90 1500 000/00 RMK AO2
14926KSTC STC20030729064509807/29/03 06:45:31  5-MIN KSTC 291245Z AUTO 00000KT 10SM CLR 18/16 A3000 950 87 1600 000/00 RMK AO2
14926KSTC STC20030729065011507/29/03 06:50:31  5-MIN KSTC 291250Z AUTO 00000KT 10SM CLR 19/16 A3000 950 84 1700 000/00 RMK AO2 SLP164 T01890161
14926KSTC STC20030729065509807/29/03 06:55:31  5-MIN KSTC 291255Z AUTO 00000KT 10SM CLR 19/17 A3000 950 84 1700 000/00 RMK AO2
14926KSTC STC20030729070009807/29/03 07:00:31  5-MIN KSTC 291300Z AUTO 00000KT 10SM CLR 19/17 A3000 950 84 1700 000/00 RMK AO2
14926KSTC STC20030729070509807/29/03 07:05:31  5-MIN KSTC 291305Z AUTO 00000KT 10SM CLR 19/17 A3001 950 84 1700 000/00 RMK AO2
14926KSTC STC20030729071009807/29/03 07:10:31  5-MIN KSTC 291310Z AUTO 00000KT 10SM CLR 20/16 A3001 950 78 1800 000/00 RMK AO2
14926KSTC STC20030729071509807/29/03 07:15:31  5-MIN KSTC 291315Z AUTO 00000KT 10SM CLR 20/17 A3001 940 81 1800 000/00 RMK AO2
14926KSTC STC20030729072009807/29/03 07:20:31  5-MIN KSTC 291320Z AUTO 00000KT 10SM CLR 21/17 A3001 950 78 1900 000/00 RMK AO2
14926KSTC STC20030729072509807/29/03 07:25:31  5-MIN KSTC 291325Z AUTO 00000KT 10SM CLR 21/17 A3001 940 75 1900 000/00 RMK AO2
14926KSTC STC20030729073009807/29/03 07:30:31  5-MIN KSTC 291330Z AUTO 00000KT 10SM CLR 21/17 A3001 950 78 1900 000/00 RMK AO2
14926KSTC STC20030729073509807/29/03 07:35:31  5-MIN KSTC 291335Z AUTO 00000KT 10SM CLR 21/17 A3000 950 78 1900 000/00 RMK AO2
14926KSTC STC20030729074009807/29/03 07:40:31  5-MIN KSTC 291340Z AUTO 00000KT 10SM CLR 22/17 A3001 950 75 2000 000/00 RMK AO2
14926KSTC STC20030729074509807/29/03 07:45:31  5-MIN KSTC 291345Z AUTO 22003KT 10SM CLR 22/17 A3001 950 75 2000 210/03 RMK AO2
14926KSTC STC20030729075011507/29/03 07:50:31  5-MIN KSTC 291350Z AUTO 00000KT 10SM CLR 22/18 A3001 950 75 2000 000/00 RMK AO2 SLP164 T02220178
14926KSTC STC20030729075509807/29/03 07:55:31  5-MIN KSTC 291355Z AUTO VRB03KT 10SM CLR 22/17 A3001 950 73 2000 VRB/03 RMK AO2
14926KSTC STC20030729080009807/29/03 08:00:31  5-MIN KSTC 291400Z AUTO 00000KT 10SM CLR 23/18 A3001 950 73 2100 000/00 RMK AO2
14926KSTC STC20030729080509807/29/03 08:05:31  5-MIN KSTC 291405Z AUTO 00000KT 10SM CLR 23/18 A3001 950 70 2200 000/00 RMK AO2
14926KSTC STC20030729081009807/29/03 08:10:31  5-MIN KSTC 291410Z AUTO VRB03KT 10SM CLR 23/18 A3001 950 70 2200 VRB/03 RMK AO2
14926KSTC STC20030729081509807/29/03 08:15:31  5-MIN KSTC 291415Z AUTO VRB03KT 10SM CLR 23/18 A3000 950 70 2200 VRB/03 RMK AO2
14926KSTC STC20030729082009807/29/03 08:20:31  5-MIN KSTC 291420Z AUTO 20004KT 10SM CLR 24/18 A3000 950 68 2200 200/04 RMK AO2
14926KSTC STC20030729082509807/29/03 08:25:31  5-MIN KSTC 291425Z AUTO 20004KT 10SM CLR 24/17 A3000 950 66 2200 190/04 RMK AO2
14926KSTC STC20030729083009807/29/03 08:30:31  5-MIN KSTC 291430Z AUTO 00000KT 10SM CLR 24/18 A3000 950 68 2200 000/00 RMK AO2
14926KSTC STC20030729083509807/29/03 08:35:31  5-MIN KSTC 291435Z AUTO VRB03KT 10SM CLR 24/18 A3001 950 68 2200 VRB/03 RMK AO2
14926KSTC STC20030729084009807/29/03 08:40:31  5-MIN KSTC 291440Z AUTO 21004KT 10SM CLR 24/18 A3001 950 66 2300 210/04 RMK AO2
14926KSTC STC20030729084509807/29/03 08:45:31  5-MIN KSTC 291445Z AUTO 20004KT 10SM CLR 25/18 A3000 950 64 2400 200/04 RMK AO2
14926KSTC STC20030729085012107/29/03 08:50:31  5-MIN KSTC 291450Z AUTO VRB04KT 10SM CLR 25/18 A3000 950 64 2400 VRB/04 RMK AO2 SLP163 T02500178 53005
14926KSTC STC20030729085509807/29/03 08:55:31  5-MIN KSTC 291455Z AUTO 20005KT 10SM CLR 24/18 A3000 950 66 2300 200/05 RMK AO2
14926KSTC STC20030729090009807/29/03 09:00:31  5-MIN KSTC 291500Z AUTO 19005KT 10SM CLR 25/18 A3000 950 64 2400 190/05 RMK AO2
14926KSTC STC20030729090509807/29/03 09:05:31  5-MIN KSTC 291505Z AUTO 20005KT 10SM CLR 26/17 A3000 950 57 2400 200/05 RMK AO2
14926KSTC STC20030729091009807/29/03 09:10:31  5-MIN KSTC 291510Z AUTO 22005KT 10SM CLR 26/17 A3000 960 59 2400 220/05 RMK AO2
14926KSTC STC20030729091509807/29/03 09:15:31  5-MIN KSTC 291515Z AUTO 18005KT 10SM CLR 26/18 A2999 960 59 2500 180/05 RMK AO2
14926KSTC STC20030729092009807/29/03 09:20:31  5-MIN KSTC 291520Z AUTO 21006KT 10SM CLR 26/17 A3000 960 57 2500 210/06 RMK AO2
14926KSTC STC20030729092509807/29/03 09:25:31  5-MIN KSTC 291525Z AUTO 20006KT 10SM CLR 26/17 A3000 960 57 2500 200/06 RMK AO2
14926KSTC STC20030729093009807/29/03 09:30:31  5-MIN KSTC 291530Z AUTO 19006KT 10SM CLR 27/17 A3000 960 55 2600 190/06 RMK AO2
14926KSTC STC20030729093509807/29/03 09:35:31  5-MIN KSTC 291535Z AUTO 21006KT 10SM CLR 26/17 A2999 960 57 2500 210/06 RMK AO2
14926KSTC STC20030729094009807/29/03 09:40:31  5-MIN KSTC 291540Z AUTO VRB04KT 10SM CLR 27/17 A2999 960 53 2600 VRB/04 RMK AO2
14926KSTC STC20030729094509807/29/03 09:45:31  5-MIN KSTC 291545Z AUTO 17005KT 10SM CLR 27/17 A2999 960 55 2600 170/05 RMK AO2
14926KSTC STC20030729095011507/29/03 09:50:31  5-MIN KSTC 291550Z AUTO VRB04KT 10SM CLR 27/18 A2999 960 57 2600 VRB/04 RMK AO2 SLP158 T02670178
14926KSTC STC20030729095509807/29/03 09:55:31  5-MIN KSTC 291555Z AUTO 21005KT 10SM CLR 27/17 A2999 960 54 2600 200/05 RMK AO2
14926KSTC STC20030729100009807/29/03 10:00:31  5-MIN KSTC 291600Z AUTO 19006KT 10SM CLR 27/17 A2999 960 54 2600 180/06 RMK AO2
14926KSTC STC20030729100509807/29/03 10:05:31  5-MIN KSTC 291605Z AUTO 20006KT 10SM CLR 28/17 A2999 960 50 2700 200/06 RMK AO2
14926KSTC STC20030729101009807/29/03 10:10:31  5-MIN KSTC 291610Z AUTO 19008KT 10SM CLR 28/17 A2999 960 48 2800 190/08 RMK AO2
14926KSTC STC20030729101509807/29/03 10:15:31  5-MIN KSTC 291615Z AUTO 20007KT 10SM CLR 28/16 A2999 960 48 2700 200/07 RMK AO2
14926KSTC STC20030729102009807/29/03 10:20:31  5-MIN KSTC 291620Z AUTO VRB05KT 10SM CLR 28/17 A2999 970 50 2700 VRB/05 RMK AO2
14926KSTC STC20030729102509807/29/03 10:25:31  5-MIN KSTC 291625Z AUTO 20006KT 10SM CLR 28/17 A2999 970 48 2800 200/06 RMK AO2
14926KSTC STC20030729103009807/29/03 10:30:31  5-MIN KSTC 291630Z AUTO 20008KT 10SM CLR 28/16 A2998 970 47 2800 190/08 RMK AO2
14926KSTC STC20030729103509807/29/03 10:35:31  5-MIN KSTC 291635Z AUTO 19009KT 10SM CLR 28/16 A2998 970 45 2800 190/09 RMK AO2
14926KSTC STC20030729104009807/29/03 10:40:31  5-MIN KSTC 291640Z AUTO 17007KT 10SM CLR 28/16 A2998 970 47 2800 170/07 RMK AO2
14926KSTC STC20030729104509807/29/03 10:45:31  5-MIN KSTC 291645Z AUTO 20007KT 10SM CLR 28/16 A2998 970 47 2800 200/07 RMK AO2
14926KSTC STC20030729105011507/29/03 10:50:31  5-MIN KSTC 291650Z AUTO 19010KT 10SM CLR 29/17 A2998 970 47 2800 190/10 RMK AO2 SLP156 T02890167
14926KSTC STC20030729105509807/29/03 10:55:31  5-MIN KSTC 291655Z AUTO 21005KT 10SM CLR 28/16 A2998 970 48 2700 210/05 RMK AO2
14926KSTC STC20030729110010407/29/03 11:00:31  5-MIN KSTC 291700Z AUTO 25006G14KT 10SM CLR 29/16 A2998 970 45 2800 250/06G14 RMK AO2
14926KSTC STC20030729110512007/29/03 11:05:31  5-MIN KSTC 291705Z AUTO 23008G14KT 200V260 10SM CLR 29/17 A2998 970 45 2900 230/08G14 200V260 RMK AO2
14926KSTC STC20030729111009807/29/03 11:10:31  5-MIN KSTC 291710Z AUTO 23006KT 10SM CLR 29/16 A2998 980 45 2800 230/06 RMK AO2
14926KSTC STC20030729111511407/29/03 11:15:31  5-MIN KSTC 291715Z AUTO 20012KT 160V230 10SM CLR 29/17 A2997 980 47 2800 200/12 160V230 RMK AO2
14926KSTC STC20030729112010407/29/03 11:20:31  5-MIN KSTC 291720Z AUTO 23005G14KT 10SM CLR 29/17 A2997 980 47 2800 220/05G14 RMK AO2
14926KSTC STC20030729112509807/29/03 11:25:31  5-MIN KSTC 291725Z AUTO 19006KT 10SM CLR 29/17 A2997 980 45 2900 190/06 RMK AO2
14926KSTC STC20030729113010107/29/03 11:30:31  5-MIN KSTC 291730Z AUTO VRB06KT 10SM FEW047 29/17 A2997 980 45 2900 VRB/06 RMK AO2
14926KSTC STC20030729113510107/29/03 11:35:31  5-MIN KSTC 291735Z AUTO 21009KT 10SM FEW047 29/17 A2997 980 45 2900 210/09 RMK AO2
14926KSTC STC20030729114010107/29/03 11:40:31  5-MIN KSTC 291740Z AUTO 21009KT 10SM FEW047 30/17 A2997 980 44 3000 210/09 RMK AO2
14926KSTC STC20030729114510107/29/03 11:45:31  5-MIN KSTC 291745Z AUTO 20007KT 10SM FEW047 29/16 A2997 980 45 2800 190/07 RMK AO2
14926KSTC STC20030729115013607/29/03 11:50:31  5-MIN KSTC 291750Z AUTO 21010KT 10SM SCT047 30/16 A2997 980 42 3000 210/10 RMK AO2 SLP151 T03000161 10300 20144 58001
14926KSTC STC20030729115510107/29/03 11:55:31  5-MIN KSTC 291755Z AUTO 20008KT 10SM SCT047 30/16 A2997 980 41 3000 200/08 RMK AO2
14926KSTC STC20030729120010107/29/03 12:00:31  5-MIN KSTC 291800Z AUTO 23008KT 10SM FEW047 29/16 A2997 980 44 2900 230/08 RMK AO2
14926KSTC STC20030729120510107/29/03 12:05:31  5-MIN KSTC 291805Z AUTO 21009KT 10SM SCT049 29/16 A2997 980 44 2900 210/09 RMK AO2
14926KSTC STC20030729121010107/29/03 12:10:31  5-MIN KSTC 291810Z AUTO VRB06KT 10SM FEW049 29/16 A2997 980 44 2900 VRB/06 RMK AO2
14926KSTC STC20030729121510707/29/03 12:15:31  5-MIN KSTC 291815Z AUTO 21010G14KT 10SM FEW049 30/16 A2996 990 42 3000 200/10G14 RMK AO2
14926KSTC STC20030729122010707/29/03 12:20:31  5-MIN KSTC 291820Z AUTO 20007G14KT 10SM FEW049 29/16 A2996 990 44 2900 200/07G14 RMK AO2
14926KSTC STC20030729122510107/29/03 12:25:31  5-MIN KSTC 291825Z AUTO 23008KT 10SM FEW049 30/16 A2996 990 42 3000 230/08 RMK AO2
14926KSTC STC20030729123010107/29/03 12:30:31  5-MIN KSTC 291830Z AUTO 20010KT 10SM FEW049 30/16 A2996 990 42 3000 200/10 RMK AO2
14926KSTC STC20030729123510107/29/03 12:35:31  5-MIN KSTC 291835Z AUTO 19008KT 10SM FEW049 29/16 A2996 990 44 2900 190/08 RMK AO2
14926KSTC STC20030729124010107/29/03 12:40:31  5-MIN KSTC 291840Z AUTO 22010KT 10SM FEW049 30/16 A2996 990 42 3000 220/10 RMK AO2
14926KSTC STC20030729124509807/29/03 12:45:31  5-MIN KSTC 291845Z AUTO 21010KT 10SM CLR 31/16 A2996 990 41 3000 210/10 RMK AO2
14926KSTC STC20030729125011507/29/03 12:50:31  5-MIN KSTC 291850Z AUTO 19008KT 10SM CLR 30/16 A2996 990 42 3000 190/08 RMK AO2 SLP147 T03000161
14926KSTC STC20030729125509807/29/03 12:55:31  5-MIN KSTC 291855Z AUTO 24007KT 10SM CLR 30/17 A2995 990 44 3000 240/07 RMK AO2
14926KSTC STC20030729130009907/29/03 13:00:31  5-MIN KSTC 291900Z AUTO 21010KT 10SM CLR 30/17 A2995 1000 44 3000 210/10 RMK AO2
14926KSTC STC20030729130509907/29/03 13:05:31  5-MIN KSTC 291905Z AUTO 21011KT 10SM CLR 31/17 A2995 1000 42 3000 210/11 RMK AO2
14926KSTC STC20030729131009907/29/03 13:10:31  5-MIN KSTC 291910Z AUTO 19011KT 10SM CLR 30/16 A2995 1000 42 3000 190/11 RMK AO2
14926KSTC STC20030729131509907/29/03 13:15:31  5-MIN KSTC 291915Z AUTO 21011KT 10SM CLR 31/17 A2995 1000 42 3000 200/11 RMK AO2
14926KSTC STC20030729132009907/29/03 13:20:31  5-MIN KSTC 291920Z AUTO 21009KT 10SM CLR 30/17 A2994 1000 44 3000 210/09 RMK AO2
14926KSTC STC20030729132510507/29/03 13:25:31  5-MIN KSTC 291925Z AUTO 22011G16KT 10SM CLR 31/16 A2994 1010 39 3000 220/11G16 RMK AO2
14926KSTC STC20030729133010507/29/03 13:30:31  5-MIN KSTC 291930Z AUTO 21012G16KT 10SM CLR 31/16 A2994 1010 41 3100 210/12G16 RMK AO2
14926KSTC STC20030729133509907/29/03 13:35:31  5-MIN KSTC 291935Z AUTO 20011KT 10SM CLR 30/17 A2994 1010 44 3000 200/11 RMK AO2
14926KSTC STC20030729134009907/29/03 13:40:31  5-MIN KSTC 291940Z AUTO 20011KT 10SM CLR 30/17 A2994 1010 44 3000 200/11 RMK AO2
14926KSTC STC20030729134509907/29/03 13:45:31  5-MIN KSTC 291945Z AUTO 21010KT 10SM CLR 30/17 A2994 1010 44 3000 210/10 RMK AO2
14926KSTC STC20030729135011607/29/03 13:50:31  5-MIN KSTC 291950Z AUTO 20011KT 10SM CLR 31/17 A2993 1010 42 3100 200/11 RMK AO2 SLP140 T03060167
14926KSTC STC20030729135509907/29/03 13:55:31  5-MIN KSTC 291955Z AUTO 21009KT 10SM CLR 31/17 A2993 1010 42 3100 210/09 RMK AO2
14926KSTC STC20030729140009907/29/03 14:00:31  5-MIN KSTC 292000Z AUTO 20010KT 10SM CLR 30/17 A2993 1010 44 3000 200/10 RMK AO2
14926KSTC STC20030729140509907/29/03 14:05:31  5-MIN KSTC 292005Z AUTO 20011KT 10SM CLR 30/17 A2993 1020 44 3000 200/11 RMK AO2
14926KSTC STC20030729141009907/29/03 14:10:31  5-MIN KSTC 292010Z AUTO 19013KT 10SM CLR 30/17 A2993 1020 44 3000 190/13 RMK AO2
14926KSTC STC20030729141509907/29/03 14:15:31  5-MIN KSTC 292015Z AUTO 19012KT 10SM CLR 30/17 A2992 1020 45 3000 190/12 RMK AO2
14926KSTC STC20030729142009907/29/03 14:20:31  5-MIN KSTC 292020Z AUTO 19010KT 10SM CLR 31/17 A2992 1030 42 3100 190/10 RMK AO2
14926KSTC STC20030729142509907/29/03 14:25:31  5-MIN KSTC 292025Z AUTO 19010KT 10SM CLR 30/17 A2992 1030 45 3000 190/10 RMK AO2
14926KSTC STC20030729143010507/29/03 14:30:31  5-MIN KSTC 292030Z AUTO 18012G16KT 10SM CLR 31/17 A2992 1030 44 3100 180/12G16 RMK AO2
14926KSTC STC20030729143509907/29/03 14:35:31  5-MIN KSTC 292035Z AUTO 17011KT 10SM CLR 30/17 A2991 1030 45 3000 170/11 RMK AO2
14926KSTC STC20030729144009907/29/03 14:40:31  5-MIN KSTC 292040Z AUTO 19012KT 10SM CLR 31/17 A2991 1040 44 3100 180/12 RMK AO2
14926KSTC STC20030729144509907/29/03 14:45:31  5-MIN KSTC 292045Z AUTO 20012KT 10SM CLR 30/17 A2991 1040 45 3000 190/12 RMK AO2
14926KSTC STC20030729145012207/29/03 14:50:31  5-MIN KSTC 292050Z AUTO 20012KT 10SM CLR 31/17 A2991 1040 44 3100 190/12 RMK AO2 SLP131 T03060172 57012
14926KSTC STC20030729145509907/29/03 14:55:31  5-MIN KSTC 292055Z AUTO 19011KT 10SM CLR 30/16 A2990 1040 42 3000 190/11 RMK AO2
14926KSTC STC20030729150009907/29/03 15:00:31  5-MIN KSTC 292100Z AUTO 20010KT 10SM CLR 31/17 A2990 1040 42 3100 200/10 RMK AO2
14926KSTC STC20030729150509907/29/03 15:05:31  5-MIN KSTC 292105Z AUTO 18013KT 10SM CLR 31/17 A2990 1050 42 3100 180/13 RMK AO2
14926KSTC STC20030729151009907/29/03 15:10:31  5-MIN KSTC 292110Z AUTO 18012KT 10SM CLR 30/16 A2990 1050 41 3000 170/12 RMK AO2
14926KSTC STC20030729151509907/29/03 15:15:31  5-MIN KSTC 292115Z AUTO 20012KT 10SM CLR 31/16 A2990 1040 41 3100 200/12 RMK AO2
14926KSTC STC20030729152009907/29/03 15:20:31  5-MIN KSTC 292120Z AUTO 20011KT 10SM CLR 31/16 A2990 1050 41 3100 200/11 RMK AO2
14926KSTC STC20030729152509907/29/03 15:25:31  5-MIN KSTC 292125Z AUTO 20011KT 10SM CLR 30/16 A2990 1050 42 3000 200/11 RMK AO2
14926KSTC STC20030729153009907/29/03 15:30:31  5-MIN KSTC 292130Z AUTO 21011KT 10SM CLR 29/17 A2989 1050 45 3000 200/11 RMK AO2
14926KSTC STC20030729153509907/29/03 15:35:31  5-MIN KSTC 292135Z AUTO 20013KT 10SM CLR 29/17 A2989 1050 47 3000 200/13 RMK AO2
14926KSTC STC20030729154009907/29/03 15:40:31  5-MIN KSTC 292140Z AUTO 20012KT 10SM CLR 30/17 A2989 1050 45 3000 190/12 RMK AO2
14926KSTC STC20030729154510207/29/03 15:45:31  5-MIN KSTC 292145Z AUTO 19012KT 10SM FEW110 30/17 A2989 1050 45 3000 190/12 RMK AO2
14926KSTC STC20030729155011907/29/03 15:50:31  5-MIN KSTC 292150Z AUTO 19013KT 10SM FEW110 29/17 A2989 1050 47 2900 190/13 RMK AO2 SLP126 T02890167
14926KSTC STC20030729155510207/29/03 15:55:31  5-MIN KSTC 292155Z AUTO 19012KT 10SM FEW110 29/17 A2989 1060 45 3000 190/12 RMK AO2
14926KSTC STC20030729160010207/29/03 16:00:31  5-MIN KSTC 292200Z AUTO 19012KT 10SM FEW110 29/17 A2988 1060 47 2900 190/12 RMK AO2
14926KSTC STC20030729160510207/29/03 16:05:31  5-MIN KSTC 292205Z AUTO 19010KT 10SM FEW110 29/17 A2988 1060 48 2900 180/10 RMK AO2
14926KSTC STC20030729161010207/29/03 16:10:31  5-MIN KSTC 292210Z AUTO 19011KT 10SM FEW110 29/17 A2989 1060 47 2900 190/11 RMK AO2
14926KSTC STC20030729161510207/29/03 16:15:31  5-MIN KSTC 292215Z AUTO 20010KT 10SM FEW110 28/17 A2989 1050 50 2900 190/10 RMK AO2
14926KSTC STC20030729162010207/29/03 16:20:31  5-MIN KSTC 292220Z AUTO 19011KT 10SM FEW110 29/17 A2989 1060 48 2900 190/11 RMK AO2
14926KSTC STC20030729162510207/29/03 16:25:31  5-MIN KSTC 292225Z AUTO 19012KT 10SM FEW110 29/17 A2988 1060 47 3000 190/12 RMK AO2
14926KSTC STC20030729163010207/29/03 16:30:31  5-MIN KSTC 292230Z AUTO 19010KT 10SM FEW110 29/18 A2988 1060 50 2900 180/10 RMK AO2
14926KSTC STC20030729163510207/29/03 16:35:31  5-MIN KSTC 292235Z AUTO 19011KT 10SM FEW100 28/17 A2988 1060 50 2900 190/11 RMK AO2
14926KSTC STC20030729164010207/29/03 16:40:31  5-MIN KSTC 292240Z AUTO 19012KT 10SM SCT100 28/18 A2988 1070 52 2900 190/12 RMK AO2
14926KSTC STC20030729164510207/29/03 16:45:31  5-MIN KSTC 292245Z AUTO 19011KT 10SM SCT100 28/18 A2988 1070 52 2900 180/11 RMK AO2
14926KSTC STC20030729165011907/29/03 16:50:31  5-MIN KSTC 292250Z AUTO 18010KT 10SM SCT100 28/18 A2988 1070 52 2900 180/10 RMK AO2 SLP121 T02830178
14926KSTC STC20030729165510207/29/03 16:55:31  5-MIN KSTC 292255Z AUTO 19009KT 10SM SCT100 28/17 A2988 1060 52 2800 190/09 RMK AO2
14926KSTC STC20030729170010207/29/03 17:00:31  5-MIN KSTC 292300Z AUTO 19010KT 10SM BKN100 28/17 A2988 1060 52 2800 190/10 RMK AO2
14926KSTC STC20030729170510207/29/03 17:05:31  5-MIN KSTC 292305Z AUTO 19009KT 10SM BKN100 28/18 A2988 1060 54 2800 190/09 RMK AO2
14926KSTC STC20030729171010207/29/03 17:10:31  5-MIN KSTC 292310Z AUTO 20010KT 10SM BKN100 28/18 A2989 1060 54 2800 200/10 RMK AO2
14926KSTC STC20030729171510207/29/03 17:15:31  5-MIN KSTC 292315Z AUTO 20008KT 10SM BKN100 28/18 A2989 1060 54 2800 200/08 RMK AO2
14926KSTC STC20030729172010207/29/03 17:20:31  5-MIN KSTC 292320Z AUTO 20008KT 10SM OVC110 27/18 A2989 1060 56 2700 200/08 RMK AO2
14926KSTC STC20030729172510207/29/03 17:25:31  5-MIN KSTC 292325Z AUTO 20008KT 10SM BKN110 27/18 A2989 1060 56 2700 190/08 RMK AO2
14926KSTC STC20030729173010207/29/03 17:30:31  5-MIN KSTC 292330Z AUTO 20008KT 10SM BKN110 27/18 A2989 1060 56 2700 190/08 RMK AO2
14926KSTC STC20030729173510207/29/03 17:35:31  5-MIN KSTC 292335Z AUTO 21007KT 10SM BKN110 27/18 A2989 1060 60 2700 200/07 RMK AO2
14926KSTC STC20030729174010207/29/03 17:40:31  5-MIN KSTC 292340Z AUTO 21007KT 10SM SCT110 27/18 A2989 1060 60 2700 210/07 RMK AO2
14926KSTC STC20030729174510207/29/03 17:45:31  5-MIN KSTC 292345Z AUTO 20007KT 10SM SCT110 27/18 A2988 1060 60 2700 200/07 RMK AO2
14926KSTC STC20030729175013707/29/03 17:50:31  5-MIN KSTC 292350Z AUTO 21008KT 10SM SCT100 27/18 A2989 1060 60 2700 210/08 RMK AO2 SLP124 T02670183 10306 20267 58020
14926KSTC STC20030729175510207/29/03 17:55:31  5-MIN KSTC 292355Z AUTO 21008KT 10SM BKN100 27/18 A2989 1060 60 2700 210/08 RMK AO2
14926KSTC STC20030729180010207/29/03 18:00:31  5-MIN KSTC 300000Z AUTO 21009KT 10SM BKN110 27/18 A2989 1060 60 2700 210/09 RMK AO2
14926KSTC STC20030729180510207/29/03 18:05:31  5-MIN KSTC 300005Z AUTO 21009KT 10SM BKN110 26/18 A2989 1050 59 2600 200/09 RMK AO2
14926KSTC STC20030729181010207/29/03 18:10:31  5-MIN KSTC 300010Z AUTO 20008KT 10SM BKN110 26/18 A2989 1050 59 2600 200/08 RMK AO2
14926KSTC STC20030729181510207/29/03 18:15:31  5-MIN KSTC 300015Z AUTO 20008KT 10SM BKN110 26/18 A2989 1060 59 2600 200/08 RMK AO2
14926KSTC STC20030729182010207/29/03 18:20:31  5-MIN KSTC 300020Z AUTO 19007KT 10SM SCT110 26/18 A2988 1060 59 2600 190/07 RMK AO2
14926KSTC STC20030729182510207/29/03 18:25:31  5-MIN KSTC 300025Z AUTO 19009KT 10SM SCT110 26/18 A2988 1070 59 2600 190/09 RMK AO2
14926KSTC STC20030729183010207/29/03 18:30:31  5-MIN KSTC 300030Z AUTO 19008KT 10SM SCT100 26/18 A2987 1070 59 2600 190/08 RMK AO2
14926KSTC STC20030729183510207/29/03 18:35:31  5-MIN KSTC 300035Z AUTO 19009KT 10SM SCT100 26/18 A2987 1070 61 2600 190/09 RMK AO2
14926KSTC STC20030729184010207/29/03 18:40:31  5-MIN KSTC 300040Z AUTO 19009KT 10SM FEW100 26/18 A2987 1080 61 2600 190/09 RMK AO2
14926KSTC STC20030729184510207/29/03 18:45:31  5-MIN KSTC 300045Z AUTO 19010KT 10SM FEW100 26/18 A2987 1080 61 2600 190/10 RMK AO2
14926KSTC STC20030729185011907/29/03 18:50:31  5-MIN KSTC 300050Z AUTO 18010KT 10SM FEW100 26/18 A2986 1080 61 2600 170/10 RMK AO2 SLP113 T02560178
14926KSTC STC20030729185510207/29/03 18:55:31  5-MIN KSTC 300055Z AUTO 17011KT 10SM FEW100 26/18 A2985 1090 61 2600 170/11 RMK AO2
14926KSTC STC20030729190009907/29/03 19:00:31  5-MIN KSTC 300100Z AUTO 18011KT 10SM CLR 26/18 A2985 1090 61 2600 170/11 RMK AO2
14926KSTC STC20030729190509907/29/03 19:05:31  5-MIN KSTC 300105Z AUTO 19010KT 10SM CLR 26/18 A2985 1090 61 2600 180/10 RMK AO2
14926KSTC STC20030729191009907/29/03 19:10:31  5-MIN KSTC 300110Z AUTO 18010KT 10SM CLR 26/18 A2985 1090 61 2600 180/10 RMK AO2
14926KSTC STC20030729191509907/29/03 19:15:31  5-MIN KSTC 300115Z AUTO 19011KT 10SM CLR 26/18 A2985 1090 61 2600 190/11 RMK AO2
14926KSTC STC20030729192009907/29/03 19:20:31  5-MIN KSTC 300120Z AUTO 20009KT 10SM CLR 26/18 A2986 1090 64 2600 190/09 RMK AO2
14926KSTC STC20030729192509907/29/03 19:25:31  5-MIN KSTC 300125Z AUTO 19010KT 10SM CLR 26/18 A2986 1090 64 2600 190/10 RMK AO2
14926KSTC STC20030729193009907/29/03 19:30:31  5-MIN KSTC 300130Z AUTO 20010KT 10SM CLR 26/18 A2986 1090 61 2600 200/10 RMK AO2
14926KSTC STC20030729193509907/29/03 19:35:31  5-MIN KSTC 300135Z AUTO 20010KT 10SM CLR 26/18 A2986 1090 61 2600 200/10 RMK AO2
14926KSTC STC20030729194009907/29/03 19:40:31  5-MIN KSTC 300140Z AUTO 21009KT 10SM CLR 25/18 A2986 1080 64 2500 200/09 RMK AO2
14926KSTC STC20030729194509907/29/03 19:45:31  5-MIN KSTC 300145Z AUTO 21008KT 10SM CLR 25/18 A2986 1080 64 2500 210/08 RMK AO2
14926KSTC STC20030729195011607/29/03 19:50:31  5-MIN KSTC 300150Z AUTO 22006KT 10SM CLR 25/18 A2986 1080 64 2500 210/06 RMK AO2 SLP114 T02500178
14926KSTC STC20030729195509907/29/03 19:55:31  5-MIN KSTC 300155Z AUTO 22006KT 10SM CLR 25/18 A2986 1080 64 2500 220/06 RMK AO2
14926KSTC STC20030729200009907/29/03 20:00:31  5-MIN KSTC 300200Z AUTO 22007KT 10SM CLR 25/18 A2987 1080 64 2500 220/07 RMK AO2
14926KSTC STC20030729200509907/29/03 20:05:31  5-MIN KSTC 300205Z AUTO 23007KT 10SM CLR 25/18 A2987 1070 64 2500 230/07 RMK AO2
14926KSTC STC20030729201009907/29/03 20:10:31  5-MIN KSTC 300210Z AUTO 26007KT 10SM CLR 25/18 A2988 1070 64 2500 250/07 RMK AO2
14926KSTC STC20030729201509907/29/03 20:15:31  5-MIN KSTC 300215Z AUTO 27008KT 10SM CLR 25/18 A2988 1060 64 2500 270/08 RMK AO2
14926KSTC STC20030729202009907/29/03 20:20:31  5-MIN KSTC 300220Z AUTO 28007KT 10SM CLR 24/18 A2988 1060 68 2400 270/07 RMK AO2
14926KSTC STC20030729202509907/29/03 20:25:31  5-MIN KSTC 300225Z AUTO 27009KT 10SM CLR 24/18 A2988 1060 68 2400 270/09 RMK AO2
14926KSTC STC20030729203009907/29/03 20:30:31  5-MIN KSTC 300230Z AUTO 27010KT 10SM CLR 24/18 A2988 1060 68 2400 260/10 RMK AO2
14926KSTC STC20030729203509907/29/03 20:35:31  5-MIN KSTC 300235Z AUTO 24010KT 10SM CLR 24/18 A2988 1060 71 2400 240/10 RMK AO2
14926KSTC STC20030729204009907/29/03 20:40:31  5-MIN KSTC 300240Z AUTO 22011KT 10SM CLR 24/18 A2988 1070 68 2400 220/11 RMK AO2
14926KSTC STC20030729204509907/29/03 20:45:31  5-MIN KSTC 300245Z AUTO 22009KT 10SM CLR 24/18 A2988 1060 68 2400 210/09 RMK AO2
14926KSTC STC20030729205012207/29/03 20:50:31  5-MIN KSTC 300250Z AUTO 22009KT 10SM CLR 23/18 A2988 1060 70 2300 220/09 RMK AO2 SLP122 T02330178 55006
14926KSTC STC20030729205509907/29/03 20:55:31  5-MIN KSTC 300255Z AUTO 23008KT 10SM CLR 23/18 A2989 1060 70 2300 230/08 RMK AO2
14926KSTC STC20030729210009907/29/03 21:00:31  5-MIN KSTC 300300Z AUTO 23006KT 10SM CLR 23/17 A2988 1060 68 2300 230/06 RMK AO2
14926KSTC STC20030729210510207/29/03 21:05:31  5-MIN KSTC 300305Z AUTO 23007KT 10SM FEW120 23/17 A2988 1060 68 2300 230/07 RMK AO2
14926KSTC STC20030729211010207/29/03 21:10:31  5-MIN KSTC 300310Z AUTO 22007KT 10SM FEW120 23/17 A2988 1060 70 2300 220/07 RMK AO2
14926KSTC STC20030729211509907/29/03 21:15:31  5-MIN KSTC 300315Z AUTO 22007KT 10SM CLR 23/18 A2988 1070 73 2300 220/07 RMK AO2
14926KSTC STC20030729212010207/29/03 21:20:31  5-MIN KSTC 300320Z AUTO 22007KT 10SM FEW120 23/18 A2988 1070 73 2300 210/07 RMK AO2
14926KSTC STC20030729212510207/29/03 21:25:31  5-MIN KSTC 300325Z AUTO 23007KT 10SM FEW120 23/18 A2988 1060 73 2200 230/07 RMK AO2
14926KSTC STC20030729213010207/29/03 21:30:31  5-MIN KSTC 300330Z AUTO 23008KT 10SM FEW120 23/17 A2988 1070 70 2300 230/08 RMK AO2
14926KSTC STC20030729213510207/29/03 21:35:31  5-MIN KSTC 300335Z AUTO 23008KT 10SM FEW120 23/17 A2988 1070 70 2300 230/08 RMK AO2
14926KSTC STC20030729214010207/29/03 21:40:31  5-MIN KSTC 300340Z AUTO 24009KT 10SM FEW120 23/17 A2988 1060 68 2200 230/09 RMK AO2
14926KSTC STC20030729214510207/29/03 21:45:31  5-MIN KSTC 300345Z AUTO 23009KT 10SM SCT120 23/17 A2988 1060 68 2200 230/09 RMK AO2
14926KSTC STC20030729215011907/29/03 21:50:31  5-MIN KSTC 300350Z AUTO 24008KT 10SM SCT120 22/17 A2988 1060 70 2200 240/08 RMK AO2 SLP122 T02220167
14926KSTC STC20030729215510207/29/03 21:55:31  5-MIN KSTC 300355Z AUTO 24009KT 10SM SCT120 22/17 A2988 1060 70 2200 240/09 RMK AO2
14926KSTC STC20030729220010207/29/03 22:00:31  5-MIN KSTC 300400Z AUTO 23009KT 10SM FEW120 22/17 A2988 1060 70 2200 230/09 RMK AO2
14926KSTC STC20030729220510207/29/03 22:05:31  5-MIN KSTC 300405Z AUTO 23006KT 10SM FEW120 22/17 A2988 1060 70 2200 230/06 RMK AO2
14926KSTC STC20030729221010207/29/03 22:10:31  5-MIN KSTC 300410Z AUTO 24005KT 10SM FEW120 22/17 A2988 1060 73 2100 230/05 RMK AO2
14926KSTC STC20030729221510207/29/03 22:15:31  5-MIN KSTC 300415Z AUTO 23005KT 10SM FEW120 22/17 A2988 1060 73 2100 220/05 RMK AO2
14926KSTC STC20030729222009907/29/03 22:20:31  5-MIN KSTC 300420Z AUTO 23006KT 10SM CLR 22/17 A2988 1060 73 2100 230/06 RMK AO2
14926KSTC STC20030729222509907/29/03 22:25:31  5-MIN KSTC 300425Z AUTO 24005KT 10SM CLR 22/17 A2988 1060 73 2100 240/05 RMK AO2
14926KSTC STC20030729223009907/29/03 22:30:31  5-MIN KSTC 300430Z AUTO 24007KT 10SM CLR 22/17 A2988 1060 75 2100 230/07 RMK AO2
14926KSTC STC20030729223509907/29/03 22:35:31  5-MIN KSTC 300435Z AUTO 23006KT 10SM CLR 21/17 A2988 1060 78 2100 230/06 RMK AO2
14926KSTC STC20030729224009907/29/03 22:40:31  5-MIN KSTC 300440Z AUTO 24006KT 10SM CLR 22/16 A2988 1060 70 2100 240/06 RMK AO2
14926KSTC STC20030729224510207/29/03 22:45:31  5-MIN KSTC 300445Z AUTO 25006KT 10SM FEW047 22/16 A2988 1060 70 2100 240/06 RMK AO2
14926KSTC STC20030729225011907/29/03 22:50:31  5-MIN KSTC 300450Z AUTO 25006KT 10SM FEW047 22/16 A2988 1060 70 2100 250/06 RMK AO2 SLP120 T02170161
14926KSTC STC20030729225510207/29/03 22:55:31  5-MIN KSTC 300455Z AUTO 26005KT 10SM FEW049 22/16 A2988 1060 68 2100 260/05 RMK AO2
14926KSTC STC20030729230010207/29/03 23:00:31  5-MIN KSTC 300500Z AUTO 27005KT 10SM FEW047 22/16 A2988 1060 68 2100 270/05 RMK AO2
14926KSTC STC20030729230510207/29/03 23:05:31  5-MIN KSTC 300505Z AUTO 27006KT 10SM FEW047 22/16 A2988 1060 68 2100 260/06 RMK AO2
14926KSTC STC20030729231010207/29/03 23:10:31  5-MIN KSTC 300510Z AUTO 27007KT 10SM FEW047 22/16 A2988 1060 68 2100 260/07 RMK AO2
14926KSTC STC20030729231509907/29/03 23:15:31  5-MIN KSTC 300515Z AUTO 27007KT 10SM CLR 22/15 A2988 1060 65 2100 270/07 RMK AO2
14926KSTC STC20030729232009907/29/03 23:20:31  5-MIN KSTC 300520Z AUTO 27006KT 10SM CLR 22/15 A2988 1060 65 2100 260/06 RMK AO2
14926KSTC STC20030729232509907/29/03 23:25:31  5-MIN KSTC 300525Z AUTO 27006KT 10SM CLR 22/15 A2988 1070 65 2100 270/06 RMK AO2
14926KSTC STC20030729233009907/29/03 23:30:31  5-MIN KSTC 300530Z AUTO 27007KT 10SM CLR 22/14 A2987 1070 63 2100 270/07 RMK AO2
14926KSTC STC20030729233509907/29/03 23:35:31  5-MIN KSTC 300535Z AUTO 28009KT 10SM CLR 22/14 A2987 1070 61 2200 270/09 RMK AO2
14926KSTC STC20030729234009907/29/03 23:40:31  5-MIN KSTC 300540Z AUTO 28008KT 10SM CLR 22/14 A2988 1070 61 2200 270/08 RMK AO2
14926KSTC STC20030729234510207/29/03 23:45:31  5-MIN KSTC 300545Z AUTO 27011KT 10SM FEW120 22/14 A2988 1070 61 2200 270/11 RMK AO2
14926KSTC STC20030729235014707/29/03 23:50:31  5-MIN KSTC 300550Z AUTO 26011KT 10SM FEW120 22/14 A2988 1060 61 2200 260/11 RMK AO2 SLP119 T02220144 10267 20211 403060128 55000
14926KSTC STC20030729235510207/29/03 23:55:31  5-MIN KSTC 300555Z AUTO 25009KT 10SM FEW120 22/14 A2988 1060 63 2100 250/09 RMK AO2
14926KSTC STC20030730000010207/30/03 00:00:31  5-MIN KSTC 300600Z AUTO 26008KT 10SM FEW120 22/15 A2988 1070 65 2100 260/08 RMK AO2
14926KSTC STC20030730000510207/30/03 00:05:31  5-MIN KSTC 300605Z AUTO 26007KT 10SM FEW120 22/15 A2988 1060 65 2100 250/07 RMK AO2
14926KSTC STC20030730001010207/30/03 00:10:31  5-MIN KSTC 300610Z AUTO 25007KT 10SM FEW120 21/15 A2988 1070 68 2100 240/07 RMK AO2
14926KSTC STC20030730001510207/30/03 00:15:31  5-MIN KSTC 300615Z AUTO 25007KT 10SM FEW120 21/15 A2988 1070 68 2100 240/07 RMK AO2
14926KSTC STC20030730002009907/30/03 00:20:31  5-MIN KSTC 300620Z AUTO 24006KT 10SM CLR 21/15 A2988 1060 68 2100 240/06 RMK AO2
14926KSTC STC20030730002509907/30/03 00:25:31  5-MIN KSTC 300625Z AUTO 24005KT 10SM CLR 21/15 A2988 1060 68 2100 230/05 RMK AO2
14926KSTC STC20030730003010207/30/03 00:30:31  5-MIN KSTC 300630Z AUTO 24006KT 10SM SCT120 21/15 A2988 1060 68 2100 240/06 RMK AO2
14926KSTC STC20030730003510207/30/03 00:35:31  5-MIN KSTC 300635Z AUTO 25006KT 10SM SCT120 21/16 A2988 1070 70 2100 240/06 RMK AO2
14926KSTC STC20030730004010207/30/03 00:40:31  5-MIN KSTC 300640Z AUTO 24005KT 10SM BKN120 21/16 A2987 1070 70 2100 240/05 RMK AO2
14926KSTC STC20030730004510207/30/03 00:45:31  5-MIN KSTC 300645Z AUTO 25004KT 10SM BKN120 21/16 A2987 1070 73 2000 250/04 RMK AO2
14926KSTC STC20030730005011907/30/03 00:50:31  5-MIN KSTC 300650Z AUTO 26005KT 10SM BKN120 21/16 A2988 1070 73 2000 250/05 RMK AO2 SLP118 T02060156
14926KSTC STC20030730005510207/30/03 00:55:31  5-MIN KSTC 300655Z AUTO 26005KT 10SM OVC120 21/16 A2988 1070 73 2000 250/05 RMK AO2
14926KSTC STC20030730010010207/30/03 01:00:31  5-MIN KSTC 300700Z AUTO 27006KT 10SM OVC120 21/16 A2988 1070 73 2000 270/06 RMK AO2
14926KSTC STC20030730010510207/30/03 01:05:31  5-MIN KSTC 300705Z AUTO 27006KT 10SM BKN120 21/16 A2987 1070 73 2000 270/06 RMK AO2
14926KSTC STC20030730011010207/30/03 01:10:31  5-MIN KSTC 300710Z AUTO 27008KT 10SM BKN120 21/16 A2987 1070 70 2100 270/08 RMK AO2
14926KSTC STC20030730011510207/30/03 01:15:31  5-MIN KSTC 300715Z AUTO 27007KT 10SM BKN110 21/16 A2987 1070 73 2100 260/07 RMK AO2
14926KSTC STC20030730012010207/30/03 01:20:31  5-MIN KSTC 300720Z AUTO 26007KT 10SM BKN110 21/16 A2988 1070 75 2000 260/07 RMK AO2
14926KSTC STC20030730012510207/30/03 01:25:31  5-MIN KSTC 300725Z AUTO 26007KT 10SM OVC110 21/16 A2988 1070 73 2100 250/07 RMK AO2
14926KSTC STC20030730013010207/30/03 01:30:31  5-MIN KSTC 300730Z AUTO 25008KT 10SM OVC110 21/16 A2988 1070 75 2000 250/08 RMK AO2
14926KSTC STC20030730013510207/30/03 01:35:31  5-MIN KSTC 300735Z AUTO 24008KT 10SM OVC110 21/16 A2988 1060 75 2000 240/08 RMK AO2
14926KSTC STC20030730014010207/30/03 01:40:31  5-MIN KSTC 300740Z AUTO 22007KT 10SM OVC110 21/16 A2988 1060 75 2000 220/07 RMK AO2
14926KSTC STC20030730014510207/30/03 01:45:31  5-MIN KSTC 300745Z AUTO 23006KT 10SM OVC110 21/16 A2988 1060 75 2000 220/06 RMK AO2
14926KSTC STC20030730015011907/30/03 01:50:31  5-MIN KSTC 300750Z AUTO 23005KT 10SM OVC110 21/16 A2988 1060 75 2000 230/05 RMK AO2 SLP120 T02060161
14926KSTC STC20030730015510207/30/03 01:55:31  5-MIN KSTC 300755Z AUTO 23005KT 10SM OVC110 21/16 A2988 1060 75 2000 230/05 RMK AO2
14926KSTC STC20030730020010207/30/03 02:00:31  5-MIN KSTC 300800Z AUTO 23005KT 10SM OVC100 21/16 A2988 1060 75 2000 230/05 RMK AO2
14926KSTC STC20030730020510207/30/03 02:05:31  5-MIN KSTC 300805Z AUTO 23006KT 10SM OVC100 20/16 A2988 1060 78 1900 230/06 RMK AO2
14926KSTC STC20030730021010207/30/03 02:10:31  5-MIN KSTC 300810Z AUTO 23005KT 10SM OVC100 20/16 A2988 1060 78 1900 220/05 RMK AO2
14926KSTC STC20030730021510207/30/03 02:15:31  5-MIN KSTC 300815Z AUTO 21006KT 10SM BKN110 20/16 A2989 1060 78 1900 210/06 RMK AO2
14926KSTC STC20030730022010207/30/03 02:20:31  5-MIN KSTC 300820Z AUTO 21005KT 10SM BKN110 20/16 A2988 1060 78 1900 210/05 RMK AO2
14926KSTC STC20030730022510207/30/03 02:25:31  5-MIN KSTC 300825Z AUTO 22004KT 10SM SCT110 20/16 A2989 1060 78 1900 210/04 RMK AO2
14926KSTC STC20030730023010207/30/03 02:30:31  5-MIN KSTC 300830Z AUTO 21004KT 10SM SCT110 20/16 A2988 1060 78 1900 210/04 RMK AO2
14926KSTC STC20030730023510207/30/03 02:35:31  5-MIN KSTC 300835Z AUTO 21004KT 10SM FEW110 19/16 A2988 1060 81 1900 210/04 RMK AO2
14926KSTC STC20030730024009907/30/03 02:40:31  5-MIN KSTC 300840Z AUTO 21004KT 10SM CLR 19/17 A2988 1060 84 1900 200/04 RMK AO2
14926KSTC STC20030730024509907/30/03 02:45:31  5-MIN KSTC 300845Z AUTO 22004KT 10SM CLR 19/17 A2988 1060 84 1900 220/04 RMK AO2
14926KSTC STC20030730025012207/30/03 02:50:31  5-MIN KSTC 300850Z AUTO 23004KT 10SM CLR 19/17 A2988 1060 84 1900 230/04 RMK AO2 SLP120 T01940167 58002
14926KSTC STC20030730025509907/30/03 02:55:31  5-MIN KSTC 300855Z AUTO 24005KT 10SM CLR 19/16 A2988 1060 84 1800 230/05 RMK AO2
14926KSTC STC20030730030009907/30/03 03:00:31  5-MIN KSTC 300900Z AUTO 23005KT 10SM CLR 19/16 A2988 1060 84 1800 230/05 RMK AO2
14926KSTC STC20030730030509907/30/03 03:05:31  5-MIN KSTC 300905Z AUTO 23005KT 10SM CLR 19/17 A2988 1060 87 1800 220/05 RMK AO2
14926KSTC STC20030730031009907/30/03 03:10:31  5-MIN KSTC 300910Z AUTO 22005KT 10SM CLR 19/17 A2988 1060 87 1800 220/05 RMK AO2
14926KSTC STC20030730031509907/30/03 03:15:31  5-MIN KSTC 300915Z AUTO 22006KT 10SM CLR 19/17 A2988 1060 87 1800 220/06 RMK AO2
14926KSTC STC20030730032009907/30/03 03:20:31  5-MIN KSTC 300920Z AUTO 22006KT 10SM CLR 18/16 A2988 1060 87 1700 220/06 RMK AO2
14926KSTC STC20030730032509907/30/03 03:25:31  5-MIN KSTC 300925Z AUTO 22005KT 10SM CLR 18/16 A2988 1060 87 1700 220/05 RMK AO2
14926KSTC STC20030730033009907/30/03 03:30:31  5-MIN KSTC 300930Z AUTO 22005KT 10SM CLR 18/16 A2988 1060 90 1700 220/05 RMK AO2
14926KSTC STC20030730033509907/30/03 03:35:31  5-MIN KSTC 300935Z AUTO 23004KT 10SM CLR 18/16 A2988 1060 90 1700 230/04 RMK AO2
14926KSTC STC20030730034009907/30/03 03:40:31  5-MIN KSTC 300940Z AUTO 23004KT 10SM CLR 18/16 A2988 1060 90 1700 230/04 RMK AO2
14926KSTC STC20030730034509907/30/03 03:45:31  5-MIN KSTC 300945Z AUTO 25004KT 10SM CLR 17/16 A2989 1060 93 1600 250/04 RMK AO2
14926KSTC STC20030730035011607/30/03 03:50:31  5-MIN KSTC 300950Z AUTO 25005KT 10SM CLR 17/16 A2989 1060 93 1600 250/05 RMK AO2 SLP123 T01720161
14926KSTC STC20030730035509907/30/03 03:55:31  5-MIN KSTC 300955Z AUTO 25005KT 10SM CLR 17/16 A2989 1060 90 1600 240/05 RMK AO2
14926KSTC STC20030730040009907/30/03 04:00:31  5-MIN KSTC 301000Z AUTO 23005KT 10SM CLR 17/16 A2989 1060 90 1600 230/05 RMK AO2
14926KSTC STC20030730040509907/30/03 04:05:31  5-MIN KSTC 301005Z AUTO 23003KT 10SM CLR 17/16 A2989 1050 93 1600 230/03 RMK AO2
14926KSTC STC20030730041009907/30/03 04:10:31  5-MIN KSTC 301010Z AUTO 23003KT 10SM CLR 17/16 A2989 1050 93 1500 220/03 RMK AO2
14926KSTC STC20030730041509907/30/03 04:15:31  5-MIN KSTC 301015Z AUTO 21005KT 10SM CLR 16/16 A2989 1050 96 1500 210/05 RMK AO2
14926KSTC STC20030730042009907/30/03 04:20:31  5-MIN KSTC 301020Z AUTO 21004KT 10SM CLR 16/16 A2989 1050 96 1500 200/04 RMK AO2
14926KSTC STC20030730042509907/30/03 04:25:31  5-MIN KSTC 301025Z AUTO 00000KT 10SM CLR 16/15 A2989 1050 93 1500 000/00 RMK AO2
14926KSTC STC20030730043009907/30/03 04:30:31  5-MIN KSTC 301030Z AUTO VRB03KT 10SM CLR 17/16 A2990 1050 93 1600 VRB/03 RMK AO2
14926KSTC STC20030730043509907/30/03 04:35:31  5-MIN KSTC 301035Z AUTO 22004KT 10SM CLR 17/16 A2990 1050 93 1500 210/04 RMK AO2
14926KSTC STC20030730044009907/30/03 04:40:31  5-MIN KSTC 301040Z AUTO 23003KT 10SM CLR 17/16 A2990 1050 93 1500 230/03 RMK AO2
14926KSTC STC20030730044509907/30/03 04:45:31  5-MIN KSTC 301045Z AUTO 24004KT 10SM CLR 16/16 A2990 1050 96 1500 240/04 RMK AO2
14926KSTC STC20030730045011607/30/03 04:50:31  5-MIN KSTC 301050Z AUTO 24004KT 10SM CLR 16/15 A2990 1050 93 1500 230/04 RMK AO2 SLP127 T01610150
14926KSTC STC20030730045509907/30/03 04:55:31  5-MIN KSTC 301055Z AUTO 24003KT 10SM CLR 16/16 A2990 1050 96 1500 240/03 RMK AO2
14926KSTC STC20030730050009907/30/03 05:00:31  5-MIN KSTC 301100Z AUTO 00000KT 10SM CLR 16/15 A2990 1040 93 1500 000/00 RMK AO2
14926KSTC STC20030730050509907/30/03 05:05:31  5-MIN KSTC 301105Z AUTO 00000KT 10SM CLR 16/16 A2990 1040 96 1500 000/00 RMK AO2
14926KSTC STC20030730051009907/30/03 05:10:31  5-MIN KSTC 301110Z AUTO 24003KT 10SM CLR 16/16 A2990 1040 96 1500 240/03 RMK AO2
14926KSTC STC20030730051509907/30/03 05:15:31  5-MIN KSTC 301115Z AUTO 24003KT 10SM CLR 16/16 A2990 1040 96 1500 240/03 RMK AO2
14926KSTC STC20030730052009907/30/03 05:20:31  5-MIN KSTC 301120Z AUTO 25003KT 10SM CLR 16/15 A2990 1040 96 1400 250/03 RMK AO2
14926KSTC STC20030730052509907/30/03 05:25:31  5-MIN KSTC 301125Z AUTO 00000KT 10SM CLR 16/15 A2990 1040 96 1400 000/00 RMK AO2
14926KSTC STC20030730053009907/30/03 05:30:31  5-MIN KSTC 301130Z AUTO 23003KT 10SM CLR 16/15 A2990 1040 96 1400 230/03 RMK AO2
14926KSTC STC20030730053509907/30/03 05:35:31  5-MIN KSTC 301135Z AUTO 00000KT 10SM CLR 16/15 A2990 1040 96 1400 000/00 RMK AO2
14926KSTC STC20030730054009907/30/03 05:40:31  5-MIN KSTC 301140Z AUTO 00000KT 10SM CLR 16/15 A2990 1040 96 1400 000/00 RMK AO2
14926KSTC STC20030730054509807/30/03 05:45:31  5-MIN KSTC 301145Z AUTO 00000KT 9SM CLR 16/15 A2990 1040 96 1400 000/00 RMK AO2
14926KSTC STC20030730055013507/30/03 05:50:31  5-MIN KSTC 301150Z AUTO 00000KT 10SM CLR 16/16 A2990 1040 100 1400 000/00 RMK AO2 SLP130 T01560156 10217 20156 53002
14926KSTC STC20030730072509907/30/03 07:25:31  5-MIN KSTC 301325Z AUTO 24004KT 10SM CLR 20/17 A2992 1030 84 1900 240/04 RMK AO2
14926KSTC STC20030730073009907/30/03 07:30:31  5-MIN KSTC 301330Z AUTO 23005KT 10SM CLR 21/17 A2992 1030 81 2000 220/05 RMK AO2
14926KSTC STC20030730073509907/30/03 07:35:31  5-MIN KSTC 301335Z AUTO 24004KT 10SM CLR 21/17 A2992 1030 81 2000 230/04 RMK AO2
14926KSTC STC20030730074009907/30/03 07:40:31  5-MIN KSTC 301340Z AUTO 26004KT 10SM CLR 21/17 A2992 1030 78 2000 260/04 RMK AO2
14926KSTC STC20030730074509907/30/03 07:45:31  5-MIN KSTC 301345Z AUTO 25005KT 10SM CLR 21/17 A2991 1030 81 2000 250/05 RMK AO2
14926KSTC STC20030730075011607/30/03 07:50:31  5-MIN KSTC 301350Z AUTO VRB03KT 10SM CLR 21/17 A2992 1030 78 2000 VRB/03 RMK AO2 SLP133 T02110172
14926KSTC STC20030730075509907/30/03 07:55:31  5-MIN KSTC 301355Z AUTO VRB04KT 10SM CLR 22/17 A2992 1030 75 2100 VRB/04 RMK AO2
14926KSTC STC20030730080009907/30/03 08:00:31  5-MIN KSTC 301400Z AUTO 24005KT 10SM CLR 22/17 A2992 1030 75 2100 230/05 RMK AO2
14926KSTC STC20030730080509907/30/03 08:05:31  5-MIN KSTC 301405Z AUTO 25005KT 10SM CLR 22/17 A2992 1030 75 2100 250/05 RMK AO2
14926KSTC STC20030730081009907/30/03 08:10:31  5-MIN KSTC 301410Z AUTO 00000KT 10SM CLR 22/16 A2992 1030 68 2100 000/00 RMK AO2
14926KSTC STC20030730081509907/30/03 08:15:31  5-MIN KSTC 301415Z AUTO 29004KT 10SM CLR 22/17 A2992 1030 70 2100 280/04 RMK AO2
14926KSTC STC20030730082009907/30/03 08:20:31  5-MIN KSTC 301420Z AUTO VRB03KT 10SM CLR 22/17 A2992 1030 70 2100 VRB/03 RMK AO2
14926KSTC STC20030730082509907/30/03 08:25:31  5-MIN KSTC 301425Z AUTO 23005KT 10SM CLR 22/17 A2992 1030 70 2100 220/05 RMK AO2
14926KSTC STC20030730083009907/30/03 08:30:31  5-MIN KSTC 301430Z AUTO VRB05KT 10SM CLR 22/17 A2992 1030 70 2100 VRB/05 RMK AO2
14926KSTC STC20030730083509907/30/03 08:35:31  5-MIN KSTC 301435Z AUTO 26004KT 10SM CLR 23/17 A2992 1030 68 2200 250/04 RMK AO2
14926KSTC STC20030730084009907/30/03 08:40:31  5-MIN KSTC 301440Z AUTO VRB04KT 10SM CLR 23/17 A2992 1030 68 2200 VRB/04 RMK AO2
14926KSTC STC20030730084509907/30/03 08:45:31  5-MIN KSTC 301445Z AUTO VRB04KT 10SM CLR 23/16 A2992 1030 65 2200 VRB/04 RMK AO2
14926KSTC STC20030730085012207/30/03 08:50:31  5-MIN KSTC 301450Z AUTO VRB04KT 10SM CLR 23/16 A2992 1030 63 2200 VRB/04 RMK AO2 SLP134 T02280156 53007
14926KSTC STC20030730085509907/30/03 08:55:31  5-MIN KSTC 301455Z AUTO 23005KT 10SM CLR 23/16 A2992 1030 63 2300 230/05 RMK AO2
14926KSTC STC20030730090009907/30/03 09:00:31  5-MIN KSTC 301500Z AUTO VRB05KT 10SM CLR 23/17 A2992 1030 68 2200 VRB/05 RMK AO2
14926KSTC STC20030730090509907/30/03 09:05:31  5-MIN KSTC 301505Z AUTO 25003KT 10SM CLR 23/17 A2992 1030 68 2200 250/03 RMK AO2
14926KSTC STC20030730091009907/30/03 09:10:31  5-MIN KSTC 301510Z AUTO 21007KT 10SM CLR 24/17 A2992 1030 66 2300 200/07 RMK AO2
14926KSTC STC20030730091509907/30/03 09:15:31  5-MIN KSTC 301515Z AUTO 23005KT 10SM CLR 23/17 A2992 1030 66 2300 230/05 RMK AO2
14926KSTC STC20030730092009907/30/03 09:20:31  5-MIN KSTC 301520Z AUTO 25006KT 10SM CLR 24/16 A2992 1030 59 2400 250/06 RMK AO2
14926KSTC STC20030730092509907/30/03 09:25:31  5-MIN KSTC 301525Z AUTO 25005KT 10SM CLR 24/16 A2992 1030 57 2400 250/05 RMK AO2
14926KSTC STC20030730093009907/30/03 09:30:31  5-MIN KSTC 301530Z AUTO 22007KT 10SM CLR 24/17 A2992 1030 61 2400 220/07 RMK AO2
14926KSTC STC20030730093509907/30/03 09:35:31  5-MIN KSTC 301535Z AUTO 22007KT 10SM CLR 24/17 A2992 1030 63 2400 220/07 RMK AO2
14926KSTC STC20030730094009907/30/03 09:40:31  5-MIN KSTC 301540Z AUTO 22007KT 10SM CLR 24/17 A2992 1030 63 2400 220/07 RMK AO2
14926KSTC STC20030730094509907/30/03 09:45:31  5-MIN KSTC 301545Z AUTO 21005KT 10SM CLR 25/17 A2992 1030 59 2500 210/05 RMK AO2
14926KSTC STC20030730095011607/30/03 09:50:31  5-MIN KSTC 301550Z AUTO 24007KT 10SM CLR 26/16 A2992 1030 55 2500 240/07 RMK AO2 SLP132 T02560161
14926KSTC STC20030730095509907/30/03 09:55:31  5-MIN KSTC 301555Z AUTO 22008KT 10SM CLR 26/16 A2992 1030 53 2600 220/08 RMK AO2
14926KSTC STC20030730100009907/30/03 10:00:31  5-MIN KSTC 301600Z AUTO 24007KT 10SM CLR 26/16 A2991 1030 55 2500 240/07 RMK AO2
14926KSTC STC20030730100509907/30/03 10:05:31  5-MIN KSTC 301605Z AUTO 22007KT 10SM CLR 26/17 A2991 1030 55 2600 220/07 RMK AO2
14926KSTC STC20030730101009907/30/03 10:10:31  5-MIN KSTC 301610Z AUTO 20007KT 10SM CLR 26/17 A2991 1030 55 2600 200/07 RMK AO2
14926KSTC STC20030730101509907/30/03 10:15:31  5-MIN KSTC 301615Z AUTO 25008KT 10SM CLR 27/16 A2991 1030 52 2700 250/08 RMK AO2
14926KSTC STC20030730102009907/30/03 10:20:31  5-MIN KSTC 301620Z AUTO 25009KT 10SM CLR 27/16 A2991 1030 52 2600 240/09 RMK AO2
14926KSTC STC20030730102509907/30/03 10:25:31  5-MIN KSTC 301625Z AUTO 26007KT 10SM CLR 27/17 A2991 1030 52 2700 250/07 RMK AO2
14926KSTC STC20030730103010507/30/03 10:30:31  5-MIN KSTC 301630Z AUTO 26011G15KT 10SM CLR 27/17 A2991 1030 52 2700 250/11G15 RMK AO2
14926KSTC STC20030730103510507/30/03 10:35:31  5-MIN KSTC 301635Z AUTO 25009G15KT 10SM CLR 27/16 A2991 1030 50 2700 240/09G15 RMK AO2
14926KSTC STC20030730104009907/30/03 10:40:31  5-MIN KSTC 301640Z AUTO 23009KT 10SM CLR 27/16 A2991 1030 50 2700 220/09 RMK AO2
14926KSTC STC20030730104509907/30/03 10:45:31  5-MIN KSTC 301645Z AUTO 26009KT 10SM CLR 27/16 A2991 1030 50 2700 260/09 RMK AO2
14926KSTC STC20030730105011607/30/03 10:50:31  5-MIN KSTC 301650Z AUTO 24009KT 10SM CLR 28/16 A2991 1040 48 2800 240/09 RMK AO2 SLP129 T02780161
14926KSTC STC20030730105510207/30/03 10:55:31  5-MIN KSTC 301655Z AUTO 24010KT 10SM FEW100 28/16 A2991 1040 48 2800 240/10 RMK AO2
14926KSTC STC20030730110010207/30/03 11:00:31  5-MIN KSTC 301700Z AUTO 24010KT 10SM FEW100 28/16 A2991 1040 48 2800 240/10 RMK AO2
14926KSTC STC20030730110509907/30/03 11:05:31  5-MIN KSTC 301705Z AUTO 24011KT 10SM CLR 28/16 A2991 1040 47 2800 240/11 RMK AO2
14926KSTC STC20030730111009907/30/03 11:10:31  5-MIN KSTC 301710Z AUTO 26008KT 10SM CLR 28/16 A2991 1040 45 2800 250/08 RMK AO2
14926KSTC STC20030730111509907/30/03 11:15:31  5-MIN KSTC 301715Z AUTO 25009KT 10SM CLR 28/16 A2991 1040 45 2800 240/09 RMK AO2
14926KSTC STC20030730112012107/30/03 11:20:31  5-MIN KSTC 301720Z AUTO 27012G16KT 230V300 10SM CLR 28/16 A2990 1040 45 2800 260/12G16 230V300 RMK AO2
14926KSTC STC20030730112510507/30/03 11:25:31  5-MIN KSTC 301725Z AUTO 25013G16KT 10SM CLR 28/15 A2990 1040 43 2800 250/13G16 RMK AO2
14926KSTC STC20030730113010507/30/03 11:30:31  5-MIN KSTC 301730Z AUTO 24012G17KT 10SM CLR 28/16 A2990 1040 45 2800 230/12G17 RMK AO2
14926KSTC STC20030730113510507/30/03 11:35:31  5-MIN KSTC 301735Z AUTO 25010G17KT 10SM CLR 29/14 A2990 1050 40 2900 250/10G17 RMK AO2
14926KSTC STC20030730114010807/30/03 11:40:31  5-MIN KSTC 301740Z AUTO 24013G17KT 10SM FEW095 29/14 A2990 1050 39 2900 240/13G17 RMK AO2
14926KSTC STC20030730114510807/30/03 11:45:31  5-MIN KSTC 301745Z AUTO 25009G17KT 10SM FEW100 29/14 A2990 1050 39 2900 240/09G17 RMK AO2
14926KSTC STC20030730115013707/30/03 11:50:31  5-MIN KSTC 301750Z AUTO 24011KT 10SM FEW055 29/14 A2990 1050 38 3000 240/11 RMK AO2 SLP125 T02940139 10294 20161 50004
14926KSTC STC20030730115510507/30/03 11:55:31  5-MIN KSTC 301755Z AUTO 25014G17KT 10SM CLR 29/14 A2990 1050 38 3000 240/14G17 RMK AO2
14926KSTC STC20030730120010507/30/03 12:00:31  5-MIN KSTC 301800Z AUTO 26014G18KT 10SM CLR 29/13 A2990 1050 38 2900 260/14G18 RMK AO2
14926KSTC STC20030730120510507/30/03 12:05:31  5-MIN KSTC 301805Z AUTO 27011G18KT 10SM CLR 29/13 A2990 1050 38 2900 270/11G18 RMK AO2
14926KSTC STC20030730121010207/30/03 12:10:31  5-MIN KSTC 301810Z AUTO 24012KT 10SM FEW060 28/13 A2990 1050 39 2900 240/12 RMK AO2
14926KSTC STC20030730121511507/30/03 12:15:31  5-MIN KSTC 301815Z AUTO 26014G19KT 10SM FEW060 SCT090 29/13 A2990 1050 35 3000 250/14G19 RMK AO2
14926KSTC STC20030730122011507/30/03 12:20:31  5-MIN KSTC 301820Z AUTO 26013G19KT 10SM FEW070 SCT090 28/13 A2990 1050 37 2900 260/13G19 RMK AO2
14926KSTC STC20030730122510907/30/03 12:25:31  5-MIN KSTC 301825Z AUTO 27014KT 10SM FEW070 SCT090 29/12 A2990 1050 34 3000 260/14 RMK AO2
14926KSTC STC20030730123010907/30/03 12:30:31  5-MIN KSTC 301830Z AUTO 28016KT 10SM FEW065 SCT090 29/11 A2990 1050 31 3000 280/16 RMK AO2
14926KSTC STC20030730123510907/30/03 12:35:31  5-MIN KSTC 301835Z AUTO 27013KT 10SM FEW065 SCT095 29/12 A2989 1050 33 3000 270/13 RMK AO2
14926KSTC STC20030730124010207/30/03 12:40:31  5-MIN KSTC 301840Z AUTO 28013KT 10SM FEW080 30/12 A2990 1050 31 3000 280/13 RMK AO2
14926KSTC STC20030730124510807/30/03 12:45:31  5-MIN KSTC 301845Z AUTO 25016G22KT 10SM FEW080 29/12 A2989 1050 34 3000 250/16G22 RMK AO2
14926KSTC STC20030730125012507/30/03 12:50:31  5-MIN KSTC 301850Z AUTO 27014G22KT 10SM FEW095 29/12 A2989 1050 33 3000 260/14G22 RMK AO2 SLP124 T02940117
14926KSTC STC20030730125510807/30/03 12:55:31  5-MIN KSTC 301855Z AUTO 25015G19KT 10SM SCT090 30/12 A2989 1050 31 3000 250/15G19 RMK AO2
14926KSTC STC20030730130010907/30/03 13:00:31  5-MIN KSTC 301900Z AUTO 26016KT 10SM FEW085 SCT110 29/12 A2990 1050 33 3000 260/16 RMK AO2
14926KSTC STC20030730130510207/30/03 13:05:31  5-MIN KSTC 301905Z AUTO 28014KT 10SM SCT090 28/11 A2989 1050 33 2900 280/14 RMK AO2
14926KSTC STC20030730131010807/30/03 13:10:31  5-MIN KSTC 301910Z AUTO 27017G20KT 10SM BKN095 29/12 A2989 1050 33 3000 270/17G20 RMK AO2
14926KSTC STC20030730131511507/30/03 13:15:31  5-MIN KSTC 301915Z AUTO 27012G20KT 10SM FEW070 BKN095 29/12 A2989 1050 34 3000 270/12G20 RMK AO2
14926KSTC STC20030730132010907/30/03 13:20:31  5-MIN KSTC 301920Z AUTO 26017KT 10SM FEW070 SCT090 30/12 A2989 1050 33 3000 260/17 RMK AO2
14926KSTC STC20030730132510907/30/03 13:25:31  5-MIN KSTC 301925Z AUTO 25016KT 10SM FEW065 SCT095 29/12 A2989 1050 34 2900 250/16 RMK AO2
14926KSTC STC20030730133010907/30/03 13:30:31  5-MIN KSTC 301930Z AUTO 25016KT 10SM FEW065 SCT095 30/12 A2989 1050 33 3000 250/16 RMK AO2
14926KSTC STC20030730133510907/30/03 13:35:31  5-MIN KSTC 301935Z AUTO 27010KT 10SM FEW070 SCT095 30/12 A2989 1050 31 3000 260/10 RMK AO2
14926KSTC STC20030730134010807/30/03 13:40:31  5-MIN KSTC 301940Z AUTO 27014G18KT 10SM SCT070 30/12 A2989 1050 31 3000 260/14G18 RMK AO2
14926KSTC STC20030730134510807/30/03 13:45:31  5-MIN KSTC 301945Z AUTO 27016G19KT 10SM SCT070 31/12 A2989 1050 30 3100 270/16G19 RMK AO2
14926KSTC STC20030730135013207/30/03 13:50:31  5-MIN KSTC 301950Z AUTO 26015G20KT 10SM SCT070 SCT085 30/11 A2989 1050 30 3000 260/15G20 RMK AO2 SLP122 T03000111
14926KSTC STC20030730135510807/30/03 13:55:31  5-MIN KSTC 301955Z AUTO 27015G20KT 10SM FEW070 31/11 A2989 1050 29 3100 270/15G20 RMK AO2
14926KSTC STC20030730140010207/30/03 14:00:31  5-MIN KSTC 302000Z AUTO 27013KT 10SM FEW070 30/11 A2989 1060 30 3000 270/13 RMK AO2
14926KSTC STC20030730140510207/30/03 14:05:31  5-MIN KSTC 302005Z AUTO 25012KT 10SM FEW075 29/11 A2989 1060 31 3000 240/12 RMK AO2
14926KSTC STC20030730141010207/30/03 14:10:31  5-MIN KSTC 302010Z AUTO 27016KT 10SM SCT075 30/12 A2989 1060 31 3000 270/16 RMK AO2
14926KSTC STC20030730141510907/30/03 14:15:31  5-MIN KSTC 302015Z AUTO 24016KT 10SM SCT070 SCT085 30/11 A2989 1050 30 3000 240/16 RMK AO2
14926KSTC STC20030730142010207/30/03 14:20:31  5-MIN KSTC 302020Z AUTO 25014KT 10SM SCT070 29/12 A2989 1060 33 3000 250/14 RMK AO2
14926KSTC STC20030730142510807/30/03 14:25:31  5-MIN KSTC 302025Z AUTO 27013G20KT 10SM SCT070 30/11 A2989 1060 30 3100 260/13G20 RMK AO2
14926KSTC STC20030730143010807/30/03 14:30:31  5-MIN KSTC 302030Z AUTO 25014G20KT 10SM SCT070 29/12 A2989 1060 33 3000 250/14G20 RMK AO2
14926KSTC STC20030730143510807/30/03 14:35:31  5-MIN KSTC 302035Z AUTO 25015G22KT 10SM SCT070 30/11 A2988 1060 30 3100 250/15G22 RMK AO2
14926KSTC STC20030730144010807/30/03 14:40:31  5-MIN KSTC 302040Z AUTO 24012G22KT 10SM FEW070 30/12 A2988 1060 31 3100 240/12G22 RMK AO2
14926KSTC STC20030730144510807/30/03 14:45:31  5-MIN KSTC 302045Z AUTO 26014G20KT 10SM FEW070 30/12 A2988 1060 33 3100 260/14G20 RMK AO2
14926KSTC STC20030730145013107/30/03 14:50:31  5-MIN KSTC 302050Z AUTO 24016G22KT 10SM FEW070 30/11 A2988 1060 30 3100 240/16G22 RMK AO2 SLP120 T03000111 58006
14926KSTC STC20030730145510807/30/03 14:55:31  5-MIN KSTC 302055Z AUTO 25015G22KT 10SM FEW070 30/12 A2988 1060 31 3100 250/15G22 RMK AO2
14926KSTC STC20030730150010807/30/03 15:00:31  5-MIN KSTC 302100Z AUTO 26016G22KT 10SM FEW070 29/12 A2988 1060 33 3000 260/16G22 RMK AO2
14926KSTC STC20030730150510807/30/03 15:05:31  5-MIN KSTC 302105Z AUTO 27016G21KT 10SM FEW070 30/12 A2988 1060 31 3100 270/16G21 RMK AO2
14926KSTC STC20030730151010807/30/03 15:10:31  5-MIN KSTC 302110Z AUTO 27013G21KT 10SM FEW070 30/12 A2988 1060 31 3100 270/13G21 RMK AO2
14926KSTC STC20030730151510207/30/03 15:15:31  5-MIN KSTC 302115Z AUTO 26013KT 10SM FEW070 30/12 A2988 1070 33 3100 260/13 RMK AO2
14926KSTC STC20030730152010507/30/03 15:20:31  5-MIN KSTC 302120Z AUTO 27016G19KT 10SM CLR 30/12 A2988 1070 33 3100 260/16G19 RMK AO2
14926KSTC STC20030730152510207/30/03 15:25:31  5-MIN KSTC 302125Z AUTO 26015KT 10SM FEW070 29/12 A2987 1070 33 3000 260/15 RMK AO2
14926KSTC STC20030730153010207/30/03 15:30:31  5-MIN KSTC 302130Z AUTO 26016KT 10SM FEW070 29/12 A2988 1070 33 3000 260/16 RMK AO2
14926KSTC STC20030730153509907/30/03 15:35:31  5-MIN KSTC 302135Z AUTO 26015KT 10SM CLR 30/12 A2987 1070 31 3100 260/15 RMK AO2
14926KSTC STC20030730154010207/30/03 15:40:31  5-MIN KSTC 302140Z AUTO 26013KT 10SM FEW070 30/12 A2987 1070 31 3100 260/13 RMK AO2
14926KSTC STC20030730154510207/30/03 15:45:31  5-MIN KSTC 302145Z AUTO 26013KT 10SM FEW070 29/12 A2987 1070 33 3000 260/13 RMK AO2
14926KSTC STC20030730155011607/30/03 15:50:31  5-MIN KSTC 302150Z AUTO 28014KT 10SM CLR 30/12 A2987 1070 31 3100 280/14 RMK AO2 SLP118 T03000117
14926KSTC STC20030730155509907/30/03 15:55:31  5-MIN KSTC 302155Z AUTO 26012KT 10SM CLR 29/12 A2987 1070 34 3000 250/12 RMK AO2
14926KSTC STC20030730160009907/30/03 16:00:31  5-MIN KSTC 302200Z AUTO 25015KT 10SM CLR 29/12 A2987 1070 33 3000 250/15 RMK AO2
14926KSTC STC20030730160509907/30/03 16:05:31  5-MIN KSTC 302205Z AUTO 27012KT 10SM CLR 29/12 A2987 1070 33 3000 260/12 RMK AO2
14926KSTC STC20030730161009907/30/03 16:10:31  5-MIN KSTC 302210Z AUTO 25014KT 10SM CLR 29/12 A2987 1070 34 3000 250/14 RMK AO2
14926KSTC STC20030730161509907/30/03 16:15:31  5-MIN KSTC 302215Z AUTO 26014KT 10SM CLR 29/12 A2987 1070 33 3000 260/14 RMK AO2
14926KSTC STC20030730162009907/30/03 16:20:31  5-MIN KSTC 302220Z AUTO 27013KT 10SM CLR 29/12 A2987 1080 33 3000 270/13 RMK AO2
14926KSTC STC20030730162509907/30/03 16:25:31  5-MIN KSTC 302225Z AUTO 27012KT 10SM CLR 29/12 A2987 1080 33 3000 260/12 RMK AO2
14926KSTC STC20030730163009907/30/03 16:30:31  5-MIN KSTC 302230Z AUTO 26010KT 10SM CLR 29/12 A2987 1080 35 3000 250/10 RMK AO2
14926KSTC STC20030730163509907/30/03 16:35:31  5-MIN KSTC 302235Z AUTO 25012KT 10SM CLR 29/12 A2987 1080 34 3000 250/12 RMK AO2
14926KSTC STC20030730164010207/30/03 16:40:31  5-MIN KSTC 302240Z AUTO 24012KT 10SM FEW070 28/12 A2987 1080 36 2900 240/12 RMK AO2
14926KSTC STC20030730164510207/30/03 16:45:31  5-MIN KSTC 302245Z AUTO 24013KT 10SM SCT070 28/13 A2987 1080 37 2900 240/13 RMK AO2
14926KSTC STC20030730165011907/30/03 16:50:31  5-MIN KSTC 302250Z AUTO 24013KT 10SM SCT070 28/13 A2986 1080 39 2800 240/13 RMK AO2 SLP116 T02780128
14926KSTC STC20030730165510907/30/03 16:55:31  5-MIN KSTC 302255Z AUTO 24011KT 10SM FEW070 SCT110 27/13 A2987 1080 40 2800 230/11 RMK AO2
14926KSTC STC20030730170010907/30/03 17:00:31  5-MIN KSTC 302300Z AUTO 24010KT 10SM FEW070 BKN110 27/13 A2987 1080 42 2800 240/10 RMK AO2
14926KSTC STC20030730170510907/30/03 17:05:31  5-MIN KSTC 302305Z AUTO 24011KT 10SM FEW070 BKN110 27/13 A2987 1080 43 2700 240/11 RMK AO2
14926KSTC STC20030730171010907/30/03 17:10:31  5-MIN KSTC 302310Z AUTO 24007KT 10SM FEW070 BKN100 27/13 A2987 1080 43 2700 240/07 RMK AO2
14926KSTC STC20030730171511607/30/03 17:15:31  5-MIN KSTC 302315Z AUTO 26007KT 10SM SCT070 BKN095 BKN110 27/14 A2987 1070 45 2700 250/07 RMK AO2
14926KSTC STC20030730172012507/30/03 17:20:31  5-MIN KSTC 302320Z AUTO 27007KT 10SM -RA SCT070 BKN100 26/14 A2987 1080 48 2600 270/07 RMK AO2 RAB18 P0000
14926KSTC STC20030730172513207/30/03 17:25:31  5-MIN KSTC 302325Z AUTO 27005KT 10SM -RA SCT070 SCT090 BKN110 26/15 A2987 1080 50 2600 270/05 RMK AO2 RAB18 P0000
14926KSTC STC20030730173012507/30/03 17:30:31  5-MIN KSTC 302330Z AUTO 28007KT 10SM -RA SCT070 BKN100 26/15 A2987 1080 50 2600 280/07 RMK AO2 RAB18 P0000
14926KSTC STC20030730173512507/30/03 17:35:31  5-MIN KSTC 302335Z AUTO 30006KT 10SM -RA BKN075 BKN095 26/15 A2987 1080 51 2600 290/06 RMK AO2 RAB18 P0000
14926KSTC STC20030730174013807/30/03 17:40:31  5-MIN KSTC 302340Z AUTO 32014G17KT 10SM -RA BKN070 BKN080 BKN095 24/16 A2987 1070 57 2400 320/14G17 RMK AO2 RAB18 P0000
14926KSTC STC20030730174513807/30/03 17:45:31  5-MIN KSTC 302345Z AUTO 33008G17KT 10SM -RA FEW027 BKN065 BKN095 22/16 A2987 1070 68 2200 330/08G17 RMK AO2 RAB18 P0000
14926KSTC STC20030730175017307/30/03 17:50:31  5-MIN KSTC 302350Z AUTO 33008KT 10SM -RA FEW023 SCT070 BKN095 22/17 A2987 1070 70 2200 330/08 RMK AO2 RAB18 SLP120 P0000 60000 T02220167 10306 20222 58005
14926KSTC STC20030730175512107/30/03 17:55:31  5-MIN KSTC 302355Z AUTO VRB04KT 10SM SCT070 SCT100 23/16 A2986 1080 65 2300 VRB/04 RMK AO2 RAE55 P0000
14926KSTC STC20030730180012307/30/03 18:00:31  5-MIN KSTC 310000Z AUTO 34004KT 10SM SCT070 BKN100 23/17 A2987 1080 68 2300 340/04 RMK AO2 RAE2355 P0000
14926KSTC STC20030730180513007/30/03 18:05:31  5-MIN KSTC 310005Z AUTO 36003KT 10SM FEW060 SCT075 BKN100 23/17 A2986 1080 68 2300 360/03 RMK AO2 RAE2355 P0000
14926KSTC STC20030730181012307/30/03 18:10:31  5-MIN KSTC 310010Z AUTO 36003KT 10SM FEW075 SCT100 23/17 A2986 1080 68 2300 360/03 RMK AO2 RAE2355 P0000
14926KSTC STC20030730181511607/30/03 18:15:31  5-MIN KSTC 310015Z AUTO 00000KT 10SM SCT090 23/17 A2986 1080 68 2300 000/00 RMK AO2 RAE2355 P0000
14926KSTC STC20030730182011607/30/03 18:20:31  5-MIN KSTC 310020Z AUTO 00000KT 10SM BKN090 23/17 A2986 1080 68 2300 000/00 RMK AO2 RAE2355 P0000
14926KSTC STC20030730182511607/30/03 18:25:31  5-MIN KSTC 310025Z AUTO 00000KT 10SM BKN090 23/17 A2986 1080 68 2300 000/00 RMK AO2 RAE2355 P0000
14926KSTC STC20030730183011607/30/03 18:30:31  5-MIN KSTC 310030Z AUTO 00000KT 10SM BKN090 23/16 A2987 1080 65 2300 000/00 RMK AO2 RAE2355 P0000
14926KSTC STC20030730183511607/30/03 18:35:31  5-MIN KSTC 310035Z AUTO 34003KT 10SM BKN090 23/17 A2987 1080 68 2300 340/03 RMK AO2 RAE2355 P0000
14926KSTC STC20030730184012307/30/03 18:40:31  5-MIN KSTC 310040Z AUTO 00000KT 10SM SCT090 BKN110 23/16 A2986 1080 65 2300 000/00 RMK AO2 RAE2355 P0000
14926KSTC STC20030730184512307/30/03 18:45:31  5-MIN KSTC 310045Z AUTO 00000KT 10SM SCT090 SCT110 23/16 A2986 1080 63 2300 000/00 RMK AO2 RAE2355 P0000
14926KSTC STC20030730185013307/30/03 18:50:31  5-MIN KSTC 310050Z AUTO 00000KT 10SM SCT100 22/17 A2986 1080 70 2200 000/00 RMK AO2 RAE2355 SLP116 P0000 T02220167
14926KSTC STC20030730185510207/30/03 18:55:31  5-MIN KSTC 310055Z AUTO 00000KT 10SM BKN100 23/16 A2986 1080 65 2300 000/00 RMK AO2
14926KSTC STC20030730190010207/30/03 19:00:31  5-MIN KSTC 310100Z AUTO 00000KT 10SM BKN100 23/16 A2986 1080 65 2300 000/00 RMK AO2
14926KSTC STC20030730190510207/30/03 19:05:31  5-MIN KSTC 310105Z AUTO 00000KT 10SM BKN110 22/17 A2986 1080 70 2200 000/00 RMK AO2
14926KSTC STC20030730191010207/30/03 19:10:31  5-MIN KSTC 310110Z AUTO 15003KT 10SM BKN100 22/17 A2986 1080 73 2100 150/03 RMK AO2
14926KSTC STC20030730191510207/30/03 19:15:31  5-MIN KSTC 310115Z AUTO 16003KT 10SM OVC100 22/16 A2986 1080 70 2100 160/03 RMK AO2
14926KSTC STC20030730192010207/30/03 19:20:31  5-MIN KSTC 310120Z AUTO 00000KT 10SM OVC100 22/16 A2986 1080 68 2200 000/00 RMK AO2
14926KSTC STC20030730192510207/30/03 19:25:31  5-MIN KSTC 310125Z AUTO 14003KT 10SM OVC110 22/17 A2986 1080 73 2100 140/03 RMK AO2
14926KSTC STC20030730193010207/30/03 19:30:31  5-MIN KSTC 310130Z AUTO 16004KT 10SM OVC100 22/16 A2986 1090 70 2200 160/04 RMK AO2
14926KSTC STC20030730193510207/30/03 19:35:31  5-MIN KSTC 310135Z AUTO 17004KT 10SM BKN100 22/16 A2986 1090 70 2200 170/04 RMK AO2
14926KSTC STC20030730194010207/30/03 19:40:31  5-MIN KSTC 310140Z AUTO 18003KT 10SM BKN100 21/16 A2985 1090 73 2100 170/03 RMK AO2
14926KSTC STC20030730194511107/30/03 19:45:31  5-MIN KSTC 310145Z AUTO 18003KT 10SM TS SCT100 21/17 A2985 1090 75 2100 170/03 RMK AO2 TSB45
14926KSTC STC20030730195013507/30/03 19:50:31  5-MIN KSTC 310150Z AUTO 00000KT 10SM TS FEW090 SCT110 21/17 A2986 1090 78 2100 000/00 RMK AO2 TSB45 SLP114 T02110172
14926KSTC STC20030730195511207/30/03 19:55:31  5-MIN KSTC 310155Z AUTO 00000KT 10SM TS SCT090 BKN110 21/17 A2986 1090 78 2100 000/00 RMK AO2
14926KSTC STC20030730200011707/30/03 20:00:31  5-MIN KSTC 310200Z AUTO 00000KT 10SM FEW065 BKN090 21/17 A2986 1090 78 2000 000/00 RMK AO2 TSE0159
14926KSTC STC20030730200513907/30/03 20:05:31  5-MIN KSTC 310205Z AUTO 00000KT 10SM -RA FEW060 BKN090 BKN110 21/17 A2985 1090 78 2000 000/00 RMK AO2 TSE0159RAB03 P0000
14926KSTC STC20030730201014407/30/03 20:10:31  5-MIN KSTC 310210Z AUTO 00000KT 10SM -TSRA FEW060 SCT090 BKN110 21/17 A2985 1090 78 2000 000/00 RMK AO2 TSE0159B07RAB03 P0000
14926KSTC STC20030730201514407/30/03 20:15:31  5-MIN KSTC 310215Z AUTO 00000KT 10SM TS FEW060 BKN095 BKN120 21/17 A2986 1080 75 2100 000/00 RMK AO2 TSE0159B07RAB03E12 P0000
14926KSTC STC20030730202015107/30/03 20:20:31  5-MIN KSTC 310220Z AUTO 26005KT 10SM TS FEW060 BKN090 OVC120 21/17 A2988 1060 75 2100 260/05 RMK AO2 TSE0159B07RAB03E12 PRESRR P0000
14926KSTC STC20030730202515607/30/03 20:25:31  5-MIN KSTC 310225Z AUTO 26010KT 9SM -TSRA FEW055 BKN100 OVC120 21/18 A2989 1060 81 2100 250/10 RMK AO2 TSE0159B07E21B23RAB03 PRESRR P0000
14926KSTC STC20030730203014207/30/03 20:30:31  5-MIN KSTC 310230Z AUTO 27006KT 9SM -TSRA FEW075 OVC100 21/17 A2989 1060 78 2100 270/06 RMK AO2 TSE0159B07E21B23RAB03 P0000
14926KSTC STC20030730203515007/30/03 20:35:31  5-MIN KSTC 310235Z AUTO 36007KT 10SM -TSRA FEW070 BKN095 OVC110 21/17 A2990 1050 81 2000 350/07 RMK AO2 TSE0159B07E21B23RAB03 P0000
14926KSTC STC20030730204015007/30/03 20:40:31  5-MIN KSTC 310240Z AUTO 35006KT 10SM TS FEW075 BKN100 BKN120 21/17 A2989 1050 78 2000 350/06 RMK AO2 TSE0159B07E21B23RAB03E37 P0000
14926KSTC STC20030730204515007/30/03 20:45:31  5-MIN KSTC 310245Z AUTO 34004KT 10SM TS FEW075 BKN100 BKN120 21/16 A2990 1050 70 2000 340/04 RMK AO2 TSE0159B07E21B23RAB03E37 P0000
14926KSTC STC20030730205017207/30/03 20:50:31  5-MIN KSTC 310250Z AUTO 36007KT 10SM TS SCT100 BKN120 21/16 A2990 1050 75 2000 360/07 RMK AO2 TSE0159B07E21B23RAB03E37 SLP128 P0000 60000 T02060161 55005
14926KSTC STC20030730205510507/30/03 20:55:31  5-MIN KSTC 310255Z AUTO 01004KT 10SM TS BKN110 20/16 A2990 1050 78 1900 010/04 RMK AO2
14926KSTC STC20030730210011207/30/03 21:00:31  5-MIN KSTC 310300Z AUTO 02004KT 10SM TS SCT100 SCT120 19/16 A2990 1050 81 1900 010/04 RMK AO2
14926KSTC STC20030730210510507/30/03 21:05:31  5-MIN KSTC 310305Z AUTO 02005KT 10SM TS FEW095 19/16 A2989 1050 81 1900 020/05 RMK AO2
14926KSTC STC20030730211010507/30/03 21:10:31  5-MIN KSTC 310310Z AUTO 03004KT 10SM TS FEW110 19/16 A2989 1050 84 1800 030/04 RMK AO2
14926KSTC STC20030730211510507/30/03 21:15:31  5-MIN KSTC 310315Z AUTO VRB03KT 10SM TS FEW090 19/16 A2989 1050 84 1800 VRB/03 RMK AO2
14926KSTC STC20030730212010507/30/03 21:20:31  5-MIN KSTC 310320Z AUTO 00000KT 10SM TS FEW090 19/16 A2989 1050 84 1800 000/00 RMK AO2
14926KSTC STC20030730212510507/30/03 21:25:31  5-MIN KSTC 310325Z AUTO 01004KT 10SM TS FEW085 19/16 A2989 1050 84 1800 010/04 RMK AO2
14926KSTC STC20030730213010807/30/03 21:30:31  5-MIN KSTC 310330Z AUTO 36004KT 10SM SCT090 18/16 A2989 1050 90 1700 360/04 RMK AO2 TSE26
14926KSTC STC20030730213511507/30/03 21:35:31  5-MIN KSTC 310335Z AUTO 01003KT 10SM SCT090 BKN100 18/16 A2989 1050 90 1700 360/03 RMK AO2 TSE26
14926KSTC STC20030730214011507/30/03 21:40:31  5-MIN KSTC 310340Z AUTO 00000KT 10SM BKN090 BKN110 18/16 A2989 1050 87 1700 000/00 RMK AO2 TSE26
14926KSTC STC20030730214511507/30/03 21:45:31  5-MIN KSTC 310345Z AUTO 00000KT 10SM SCT085 BKN110 18/16 A2989 1050 87 1700 000/00 RMK AO2 TSE26
14926KSTC STC20030730215013207/30/03 21:50:31  5-MIN KSTC 310350Z AUTO 00000KT 10SM SCT085 SCT100 18/16 A2989 1060 90 1700 000/00 RMK AO2 TSE26 SLP125 T01780161
14926KSTC STC20030730215510907/30/03 21:55:31  5-MIN KSTC 310355Z AUTO 00000KT 10SM SCT085 SCT100 18/16 A2989 1060 90 1700 000/00 RMK AO2
14926KSTC STC20030730220010207/30/03 22:00:31  5-MIN KSTC 310400Z AUTO 16003KT 10SM FEW085 17/16 A2989 1060 90 1600 160/03 RMK AO2
14926KSTC STC20030730220510207/30/03 22:05:31  5-MIN KSTC 310405Z AUTO 17005KT 10SM FEW085 17/16 A2988 1060 96 1500 160/05 RMK AO2
14926KSTC STC20030730221010207/30/03 22:10:31  5-MIN KSTC 310410Z AUTO 14004KT 10SM FEW080 17/16 A2988 1060 96 1500 130/04 RMK AO2
14926KSTC STC20030730221509907/30/03 22:15:31  5-MIN KSTC 310415Z AUTO 14004KT 10SM CLR 17/16 A2988 1060 93 1600 140/04 RMK AO2
14926KSTC STC20030730222009907/30/03 22:20:31  5-MIN KSTC 310420Z AUTO 14004KT 10SM CLR 17/16 A2988 1070 93 1600 140/04 RMK AO2
14926KSTC STC20030730222509907/30/03 22:25:31  5-MIN KSTC 310425Z AUTO 15004KT 10SM CLR 17/16 A2988 1060 96 1500 150/04 RMK AO2
14926KSTC STC20030730223009807/30/03 22:30:31  5-MIN KSTC 310430Z AUTO 15004KT 9SM CLR 17/16 A2988 1060 96 1500 140/04 RMK AO2
14926KSTC STC20030730223509807/30/03 22:35:31  5-MIN KSTC 310435Z AUTO 15003KT 8SM CLR 17/16 A2988 1060 96 1500 150/03 RMK AO2
14926KSTC STC20030730224009807/30/03 22:40:31  5-MIN KSTC 310440Z AUTO 00000KT 8SM CLR 17/16 A2988 1060 96 1500 000/00 RMK AO2
14926KSTC STC20030730224509807/30/03 22:45:31  5-MIN KSTC 310445Z AUTO 00000KT 8SM CLR 17/16 A2988 1060 96 1500 000/00 RMK AO2
14926KSTC STC20030730225011507/30/03 22:50:31  5-MIN KSTC 310450Z AUTO 00000KT 9SM CLR 16/16 A2988 1060 96 1500 000/00 RMK AO2 SLP121 T01610156
14926KSTC STC20030730225509907/30/03 22:55:31  5-MIN KSTC 310455Z AUTO 00000KT 10SM CLR 16/15 A2988 1060 96 1400 000/00 RMK AO2
14926KSTC STC20030730230009907/30/03 23:00:31  5-MIN KSTC 310500Z AUTO 00000KT 10SM CLR 16/16 A2988 1060 96 1500 000/00 RMK AO2
14926KSTC STC20030730230510107/30/03 23:05:31  5-MIN KSTC 310505Z AUTO 00000KT 9SM FEW090 16/15 A2989 1060 96 1400 000/00 RMK AO2
14926KSTC STC20030730231010107/30/03 23:10:31  5-MIN KSTC 310510Z AUTO 00000KT 9SM SCT095 16/15 A2988 1060 96 1400 000/00 RMK AO2
14926KSTC STC20030730231510107/30/03 23:15:31  5-MIN KSTC 310515Z AUTO 00000KT 9SM SCT095 16/16 A2989 1060 96 1500 000/00 RMK AO2
14926KSTC STC20030730232010107/30/03 23:20:31  5-MIN KSTC 310520Z AUTO 00000KT 9SM FEW095 16/16 A2988 1060 96 1500 000/00 RMK AO2
14926KSTC STC20030730232510207/30/03 23:25:31  5-MIN KSTC 310525Z AUTO 00000KT 10SM FEW095 16/16 A2988 1060 96 1500 000/00 RMK AO2
14926KSTC STC20030730233010207/30/03 23:30:31  5-MIN KSTC 310530Z AUTO 00000KT 10SM FEW095 16/16 A2988 1060 96 1500 000/00 RMK AO2
14926KSTC STC20030730233510207/30/03 23:35:31  5-MIN KSTC 310535Z AUTO 00000KT 10SM FEW100 16/16 A2988 1060 96 1500 000/00 RMK AO2
14926KSTC STC20030730234010207/30/03 23:40:31  5-MIN KSTC 310540Z AUTO 18003KT 10SM SCT090 16/16 A2988 1060 96 1500 180/03 RMK AO2
14926KSTC STC20030730234510907/30/03 23:45:31  5-MIN KSTC 310545Z AUTO 00000KT 10SM SCT090 BKN110 17/16 A2989 1060 96 1500 000/00 RMK AO2
14926KSTC STC20030730235017607/30/03 23:50:31  5-MIN KSTC 310550Z AUTO 00000KT 10SM -RA FEW070 BKN100 17/16 A2989 1060 96 1500 000/00 RMK AO2 RAB48 SLP124 P0000 60000 T01670161 10228 20156 403060156 53009
14926KSTC STC20030730235511907/30/03 23:55:31  5-MIN KSTC 310555Z AUTO 00000KT 10SM -RA FEW065 BKN100 17/17 A2989 1060 96 1600 000/00 RMK AO2 P0000
14926KSTC STC20030731000011207/31/03 00:00:31  5-MIN KSTC 310600Z AUTO 00000KT 10SM -RA OVC100 17/17 A2989 1060 96 1600 000/00 RMK AO2 P0000
14926KSTC STC20030731000511407/31/03 00:05:31  5-MIN KSTC 310605Z AUTO 00000KT 10SM OVC100 17/17 A2988 1060 96 1600 000/00 RMK AO2 RAE04 P0000
14926KSTC STC20030731001011407/31/03 00:10:31  5-MIN KSTC 310610Z AUTO 00000KT 10SM OVC100 17/17 A2988 1060 96 1600 000/00 RMK AO2 RAE04 P0000
14926KSTC STC20030731001511407/31/03 00:15:31  5-MIN KSTC 310615Z AUTO 00000KT 10SM OVC100 17/17 A2988 1060 96 1600 000/00 RMK AO2 RAE04 P0000
14926KSTC STC20030731002011407/31/03 00:20:31  5-MIN KSTC 310620Z AUTO 00000KT 10SM OVC100 17/17 A2988 1060 96 1600 000/00 RMK AO2 RAE04 P0000
14926KSTC STC20030731002511407/31/03 00:25:31  5-MIN KSTC 310625Z AUTO 00000KT 10SM OVC100 17/17 A2988 1060 96 1600 000/00 RMK AO2 RAE04 P0000
14926KSTC STC20030731003011407/31/03 00:30:31  5-MIN KSTC 310630Z AUTO 00000KT 10SM OVC100 17/17 A2988 1060 96 1600 000/00 RMK AO2 RAE04 P0000
14926KSTC STC20030731003511407/31/03 00:35:31  5-MIN KSTC 310635Z AUTO 00000KT 10SM OVC100 17/17 A2988 1060 96 1600 000/00 RMK AO2 RAE04 P0000
14926KSTC STC20030731004011407/31/03 00:40:31  5-MIN KSTC 310640Z AUTO 01005KT 10SM OVC100 17/17 A2988 1060 96 1600 010/05 RMK AO2 RAE04 P0000
14926KSTC STC20030731004511407/31/03 00:45:31  5-MIN KSTC 310645Z AUTO 36003KT 10SM OVC100 17/17 A2988 1060 96 1600 360/03 RMK AO2 RAE04 P0000
14926KSTC STC20030731005013107/31/03 00:50:31  5-MIN KSTC 310650Z AUTO 01004KT 10SM OVC110 17/17 A2988 1070 96 1600 010/04 RMK AO2 RAE04 SLP120 P0000 T01720167
14926KSTC STC20030731005510207/31/03 00:55:31  5-MIN KSTC 310655Z AUTO 00000KT 10SM OVC110 17/17 A2988 1070 96 1600 000/00 RMK AO2
14926KSTC STC20030731010010207/31/03 01:00:31  5-MIN KSTC 310700Z AUTO 00000KT 10SM BKN100 17/17 A2988 1060 96 1600 000/00 RMK AO2
14926KSTC STC20030731010510207/31/03 01:05:31  5-MIN KSTC 310705Z AUTO 00000KT 10SM BKN100 17/17 A2988 1070 96 1600 000/00 RMK AO2
14926KSTC STC20030731011010207/31/03 01:10:31  5-MIN KSTC 310710Z AUTO 00000KT 10SM BKN100 17/17 A2988 1060 96 1600 000/00 RMK AO2
14926KSTC STC20030731011510907/31/03 01:15:31  5-MIN KSTC 310715Z AUTO 00000KT 10SM BKN100 BKN120 17/17 A2988 1060 96 1600 000/00 RMK AO2
14926KSTC STC20030731012012507/31/03 01:20:31  5-MIN KSTC 310720Z AUTO 00000KT 10SM -RA FEW055 BKN100 17/17 A2988 1060 96 1600 000/00 RMK AO2 RAB18 P0000
14926KSTC STC20030731012512507/31/03 01:25:31  5-MIN KSTC 310725Z AUTO 00000KT 10SM -RA SCT055 BKN100 17/17 A2988 1060 96 1600 000/00 RMK AO2 RAB18 P0000
14926KSTC STC20030731013012507/31/03 01:30:31  5-MIN KSTC 310730Z AUTO 00000KT 9SM -RA SCT055 OVC100 17/17 A2988 1060 100 1500 000/00 RMK AO2 RAB18 P0000
14926KSTC STC20030731013512707/31/03 01:35:31  5-MIN KSTC 310735Z AUTO 00000KT 6SM -RA BR BKN048 OVC100 17/17 A2988 1070 96 1600 000/00 RMK AO2 RAB18 P0001
14926KSTC STC20030731014012807/31/03 01:40:31  5-MIN KSTC 310740Z AUTO 00000KT 6SM -RA BR BKN055 OVC100 17/17 A2987 1070 100 1600 000/00 RMK AO2 RAB18 P0001
14926KSTC STC20030731014512507/31/03 01:45:31  5-MIN KSTC 310745Z AUTO 00000KT 8SM -RA BKN060 OVC100 17/17 A2986 1080 100 1600 000/00 RMK AO2 RAB18 P0001
14926KSTC STC20030731015014907/31/03 01:50:31  5-MIN KSTC 310750Z AUTO 00000KT 8SM -RA BKN055 OVC100 17/17 A2985 1090 100 1600 000/00 RMK AO2 RAB18 PRESFR SLP111 P0002 T01720172
14926KSTC STC20030731015512607/31/03 01:55:31  5-MIN KSTC 310755Z AUTO 13003KT 8SM -RA BKN055 BKN100 OVC110 17/17 A2985 1090 100 1600 120/03 RMK AO2 P0000
14926KSTC STC20030731020011907/31/03 02:00:31  5-MIN KSTC 310800Z AUTO 00000KT 10SM -RA SCT055 BKN100 17/17 A2985 1090 96 1600 000/00 RMK AO2 P0000
14926KSTC STC20030731020512207/31/03 02:05:31  5-MIN KSTC 310805Z AUTO 19003KT 10SM FEW065 BKN100 17/17 A2986 1080 100 1600 190/03 RMK AO2 RAE02 P0000
14926KSTC STC20030731021012207/31/03 02:10:31  5-MIN KSTC 310810Z AUTO 00000KT 10SM FEW055 SCT100 17/17 A2986 1080 100 1600 000/00 RMK AO2 RAE02 P0000
14926KSTC STC20030731021512107/31/03 02:15:31  5-MIN KSTC 310815Z AUTO 00000KT 10SM FEW048 SCT100 17/17 A2986 1080 96 1600 000/00 RMK AO2 RAE02 P0000
14926KSTC STC20030731022011307/31/03 02:20:31  5-MIN KSTC 310820Z AUTO 02003KT 9SM FEW100 17/17 A2986 1080 96 1600 010/03 RMK AO2 RAE02 P0000
14926KSTC STC20030731022511307/31/03 02:25:31  5-MIN KSTC 310825Z AUTO 00000KT 9SM FEW100 17/17 A2986 1080 96 1600 000/00 RMK AO2 RAE02 P0000
14926KSTC STC20030731023011307/31/03 02:30:31  5-MIN KSTC 310830Z AUTO 00000KT 8SM FEW120 17/17 A2986 1080 96 1600 000/00 RMK AO2 RAE02 P0000
14926KSTC STC20030731023511307/31/03 02:35:31  5-MIN KSTC 310835Z AUTO 00000KT 8SM SCT120 17/17 A2986 1080 96 1600 000/00 RMK AO2 RAE02 P0000
14926KSTC STC20030731024011307/31/03 02:40:31  5-MIN KSTC 310840Z AUTO 00000KT 7SM SCT120 17/17 A2986 1080 96 1600 000/00 RMK AO2 RAE02 P0000
14926KSTC STC20030731024511407/31/03 02:45:31  5-MIN KSTC 310845Z AUTO 00000KT 7SM BKN120 17/17 A2986 1080 100 1600 000/00 RMK AO2 RAE02 P0000
14926KSTC STC20030731025014307/31/03 02:50:31  5-MIN KSTC 310850Z AUTO 00000KT 7SM BKN120 17/17 A2987 1080 100 1600 000/00 RMK AO2 RAE02 SLP116 P0000 60002 T01670167 55002
14926KSTC STC20030731025510207/31/03 02:55:31  5-MIN KSTC 310855Z AUTO 00000KT 7SM BKN120 17/17 A2987 1080 100 1600 000/00 RMK AO2
14926KSTC STC20030731030010207/31/03 03:00:31  5-MIN KSTC 310900Z AUTO 00000KT 8SM BKN110 17/17 A2987 1070 100 1600 000/00 RMK AO2
14926KSTC STC20030731030510907/31/03 03:05:31  5-MIN KSTC 310905Z AUTO 00000KT 7SM SCT095 BKN120 17/17 A2987 1080 100 1600 000/00 RMK AO2
14926KSTC STC20030731031011207/31/03 03:10:31  5-MIN KSTC 310910Z AUTO 00000KT 6SM BR SCT095 SCT120 17/17 A2987 1080 100 1600 000/00 RMK AO2
14926KSTC STC20030731031511207/31/03 03:15:31  5-MIN KSTC 310915Z AUTO 00000KT 5SM BR SCT090 SCT120 17/17 A2987 1080 100 1600 000/00 RMK AO2
14926KSTC STC20030731032010507/31/03 03:20:31  5-MIN KSTC 310920Z AUTO 00000KT 4SM BR FEW095 16/16 A2987 1080 100 1500 000/00 RMK AO2
14926KSTC STC20030731032511207/31/03 03:25:31  5-MIN KSTC 310925Z AUTO 00000KT 3SM BR FEW090 SCT110 16/16 A2987 1080 100 1500 000/00 RMK AO2
14926KSTC STC20030731033011207/31/03 03:30:31  5-MIN KSTC 310930Z AUTO 00000KT 3SM BR FEW090 SCT110 16/16 A2987 1080 100 1500 000/00 RMK AO2
14926KSTC STC20030731033511207/31/03 03:35:31  5-MIN KSTC 310935Z AUTO 00000KT 4SM BR FEW085 SCT120 16/16 A2987 1080 100 1500 000/00 RMK AO2
14926KSTC STC20030731034010507/31/03 03:40:31  5-MIN KSTC 310940Z AUTO 00000KT 3SM BR BKN110 16/16 A2987 1080 100 1500 000/00 RMK AO2
14926KSTC STC20030731034510507/31/03 03:45:31  5-MIN KSTC 310945Z AUTO 31003KT 4SM BR BKN110 16/16 A2987 1070 100 1500 310/03 RMK AO2
14926KSTC STC20030731035012607/31/03 03:50:31  5-MIN KSTC 310950Z AUTO 31004KT 7SM FEW085 BKN110 16/16 A2987 1070 100 1500 300/04 RMK AO2 SLP119 T01610161
14926KSTC STC20030731035510907/31/03 03:55:31  5-MIN KSTC 310955Z AUTO 31004KT 8SM SCT085 BKN110 16/16 A2988 1070 100 1500 300/04 RMK AO2
14926KSTC STC20030731040014207/31/03 04:00:31  5-MIN KSTC 311000Z AUTO 32007KT 7SM -TSRA FEW060 BKN090 OVC120 17/16 A2988 1060 96 1500 310/07 RMK AO2 TSB0957RAB0956 P0000
14926KSTC STC20030731040514207/31/03 04:05:31  5-MIN KSTC 311005Z AUTO 32007KT 9SM -TSRA FEW060 BKN090 OVC110 17/17 A2988 1060 96 1600 320/07 RMK AO2 TSB0957RAB0956 P0000
14926KSTC STC20030731041013607/31/03 04:10:31  5-MIN KSTC 311010Z AUTO 34004KT 10SM -TSRA BKN080 OVC100 17/16 A2988 1070 93 1600 340/04 RMK AO2 TSB0957RAB0956 P0000
14926KSTC STC20030731041513607/31/03 04:15:31  5-MIN KSTC 311015Z AUTO 34005KT 10SM -TSRA BKN080 OVC100 17/16 A2988 1070 93 1600 330/05 RMK AO2 TSB0957RAB0956 P0001
14926KSTC STC20030731042013607/31/03 04:20:31  5-MIN KSTC 311020Z AUTO 32005KT 10SM -TSRA BKN080 OVC100 17/16 A2987 1070 90 1600 320/05 RMK AO2 TSB0957RAB0956 P0001
14926KSTC STC20030731042513607/31/03 04:25:31  5-MIN KSTC 311025Z AUTO 02003KT 10SM TS BKN080 OVC100 17/16 A2987 1080 90 1600 010/03 RMK AO2 TSB0957RAB0956E25 P0001
14926KSTC STC20030731043012907/31/03 04:30:31  5-MIN KSTC 311030Z AUTO 32005KT 10SM -TSRA OVC080 17/16 A2988 1070 90 1600 320/05 RMK AO2 TSB0957RAB0956 P0001
14926KSTC STC20030731043512907/31/03 04:35:31  5-MIN KSTC 311035Z AUTO 31005KT 10SM -TSRA OVC080 17/16 A2988 1060 90 1600 310/05 RMK AO2 TSB0957RAB0956 P0001
14926KSTC STC20030731044013507/31/03 04:40:31  5-MIN KSTC 311040Z AUTO 30005KT 8SM -TSRA FEW036 OVC080 17/16 A2988 1070 90 1600 300/05 RMK AO2 TSB0957RAB0956 P0002
14926KSTC STC20030731044513707/31/03 04:45:31  5-MIN KSTC 311045Z AUTO 31007KT 5SM TSRA BR SCT032 OVC080 17/16 A2988 1060 96 1500 300/07 RMK AO2 TSB0957RAB0956 P0004
14926KSTC STC20030731045016707/31/03 04:50:31  5-MIN KSTC 311050Z AUTO 29012G16KT 4SM TSRA BR BKN032 BKN070 OVC080 17/16 A2989 1050 93 1600 290/12G16 RMK AO2 TSB0957RAB0956 SLP125 P0005 T01720161
14926KSTC STC20030731045511507/31/03 04:55:31  5-MIN KSTC 311055Z AUTO VRB06KT +TSRA 17/16 A2988 1070 90 1600 VRB/06 RMK AO2 TSB52RAB53 P0009 $
14926KSTC STC20030731050011907/31/03 05:00:31  5-MIN KSTC 311100Z AUTO 26006KT -TSRA 17/16 A2988 1060 93 1500 260/06 RMK AO2 TSB1052RAB1053 P0010 $
14926KSTC STC20030731050512607/31/03 05:05:31  5-MIN KSTC 311105Z AUTO 30006KT 5SM -TSRA BR 17/16 A2988 1060 93 1500 300/06 RMK AO2 TSB1052RAB1053 P0010 $
14926KSTC STC20030731051010307/31/03 05:10:31  5-MIN KSTC 311110Z AUTO 31004KT -TSRA M M M 310/04 RMK AO2 TSB08RAB09 P0011 FZRANO $
14926KSTC STC20030731051511507/31/03 05:15:31  5-MIN KSTC 311115Z AUTO 26003KT -TSRA 17/16 A2988 1070 90 1600 260/03 RMK AO2 TSB08RAB09 P0011 $
14926KSTC STC20030731052012007/31/03 05:20:31  5-MIN KSTC 311120Z AUTO 22006KT 10SM -TSRA 17/16 A2988 1060 96 1500 220/06 RMK AO2 TSB08RAB09 P0011 $
14926KSTC STC20030731052512007/31/03 05:25:31  5-MIN KSTC 311125Z AUTO 21006KT 10SM -TSRA 17/16 A2988 1060 96 1500 210/06 RMK AO2 TSB08RAB09 P0011 $
14926KSTC STC20030731053012007/31/03 05:30:31  5-MIN KSTC 311130Z AUTO 21006KT 10SM -TSRA 17/16 A2988 1060 96 1500 200/06 RMK AO2 TSB08RAB09 P0011 $
14926KSTC STC20030731053512007/31/03 05:35:31  5-MIN KSTC 311135Z AUTO VRB05KT 10SM -TSRA 17/16 A2988 1070 96 1500 VRB/05 RMK AO2 TSB08RAB09 P0011 $
14926KSTC STC20030731054013407/31/03 05:40:31  5-MIN KSTC 311140Z AUTO VRB03KT 10SM -TSRA FEW055 OVC100 17/16 A2987 1070 90 1600 VRB/03 RMK AO2 TSB08RAB09 P0011 $
14926KSTC STC20030731054513207/31/03 05:45:31  5-MIN KSTC 311145Z AUTO VRB03KT 10SM TS SCT060 OVC095 17/16 A2987 1070 90 1600 VRB/03 RMK AO2 TSB08RAB09E42 P0011
14926KSTC STC20030731065017307/31/03 06:50:31  5-MIN KSTC 311150Z AUTO 36003KT 10SM -TSRA FEW060 OVC090 17/16 A2987 1080 93 1600 360/03 RMK AO2 TSB08RAB09 SLP119 P0011 60013 70013 T01720161 10172 20156
14926KSTC STC20030731065512107/31/03 06:55:31  5-MIN KSTC 311155Z AUTO 30004KT 10SM -TSRA FEW070 OVC090 17/16 A2988 1070 93 1600 300/04 RMK AO2 P0000
14926KSTC STC20030731070012807/31/03 07:00:31  5-MIN KSTC 311200Z AUTO 27008KT 10SM TS FEW055 OVC085 17/16 A2989 1060 93 1600 270/08 RMK AO2 RAE1158 P0000 $
14926KSTC STC20030731071011507/31/03 07:10:31  5-MIN KSTC 311210Z AUTO 29010KT -TSRA 17/16 A2989 1050 93 1600 290/10 RMK AO2 TSB06RAB07 P0001 $
14926KSTC STC20030731071512207/31/03 07:15:31  5-MIN KSTC 311215Z AUTO 27011KT 3SM +TSRA BR 17/16 A2990 1040 93 1600 270/11 RMK AO2 TSB06RAB07 P0003 $
14926KSTC STC20030731072012107/31/03 07:20:31  5-MIN KSTC 311220Z AUTO 29012KT 3SM TSRA BR 17/16 A2989 1050 93 1600 280/12 RMK AO2 TSB06RAB07 P0004 $
14926KSTC STC20030731072512207/31/03 07:25:31  5-MIN KSTC 311225Z AUTO 31013KT 4SM -TSRA BR 17/16 A2989 1050 90 1600 310/13 RMK AO2 TSB06RAB07 P0006 $
14926KSTC STC20030731073012807/31/03 07:30:31  5-MIN KSTC 311230Z AUTO 31009G17KT 3SM +TSRA BR 17/16 A2989 1060 93 1500 310/09G17 RMK AO2 TSB06RAB07 P0009 $
14926KSTC STC20030731074011507/31/03 07:40:31  5-MIN KSTC 311240Z AUTO 30006KT -TSRA 17/16 A2988 1070 96 1500 300/06 RMK AO2 TSB36RAB37 P0010 $
14926KSTC STC20030731074511407/31/03 07:45:31  5-MIN KSTC 311245Z AUTO 30005KT TSRA 17/16 A2988 1070 96 1500 290/05 RMK AO2 TSB36RAB37 P0011 $
14926KSTC STC20030731075015907/31/03 07:50:31  5-MIN KSTC 311250Z AUTO VRB03KT 1 3/4SM +TSRA BR 17/16 A2986 1080 96 1600 VRB/03 RMK AO2 VIS 1 1/4V2 1/2 TSB36RAB37 SLP118 P0014 T01670161 $
14926KSTC STC20030731075511507/31/03 07:55:31  5-MIN KSTC 311255Z AUTO VRB03KT 2 1/2SM -TSRA BR 17/16 A2988 1070 96 1500 VRB/03 RMK AO2 P0001 $
14926KSTC STC20030731080010807/31/03 08:00:31  5-MIN KSTC 311300Z AUTO 33005KT 7SM -TSRA 17/16 A2987 1070 96 1600 330/05 RMK AO2 P0001 $
14926KSTC STC20030731080510807/31/03 08:05:31  5-MIN KSTC 311305Z AUTO 30007KT 9SM -TSRA 17/16 A2989 1050 96 1500 300/07 RMK AO2 P0001 $
14926KSTC STC20030731081012507/31/03 08:10:31  5-MIN KSTC 311310Z AUTO 02006KT 3SM +TSRA BR SCT025 OVC085 17/16 A2987 1070 96 1600 020/06 RMK AO2 P0004 $
14926KSTC STC20030731081514007/31/03 08:15:31  5-MIN KSTC 311315Z AUTO 35005KT 2 1/2SM TSRA BR SCT025 OVC085 17/16 A2988 1070 96 1600 350/05 RMK AO2 VIS 1 1/2V5 P0006 $
14926KSTC STC20030731082013107/31/03 08:20:31  5-MIN KSTC 311320Z AUTO VRB04KT 3SM TSRA BR SCT025 BKN080 OVC095 17/16 A2988 1070 96 1600 VRB/04 RMK AO2 P0008 $
14926KSTC STC20030731082513207/31/03 08:25:31  5-MIN KSTC 311325Z AUTO 36004KT 6SM -TSRA BR SCT029 BKN080 BKN090 17/16 A2987 1070 96 1600 350/04 RMK AO2 P0008 $
14926KSTC STC20030731083012307/31/03 08:30:31  5-MIN KSTC 311330Z AUTO 01004KT 10SM -TSRA SCT029 BKN080 17/16 A2988 1070 93 1600 360/04 RMK AO2 P0008 $
14926KSTC STC20030731083512607/31/03 08:35:31  5-MIN KSTC 311335Z AUTO 35005KT 10SM TS FEW028 BKN080 17/16 A2988 1060 93 1600 350/05 RMK AO2 RAE35 P0008 $
14926KSTC STC20030731084012607/31/03 08:40:31  5-MIN KSTC 311340Z AUTO 36005KT 10SM TS FEW039 OVC075 17/16 A2988 1070 93 1600 360/05 RMK AO2 RAE35 P0008 $
14926KSTC STC20030731084512607/31/03 08:45:31  5-MIN KSTC 311345Z AUTO VRB05KT 10SM TS FEW060 OVC080 17/16 A2987 1070 93 1600 VRB/05 RMK AO2 RAE35 P0008 $
14926KSTC STC20030731085014307/31/03 08:50:31  5-MIN KSTC 311350Z AUTO 02005KT 10SM TS FEW065 OVC080 17/16 A2987 1070 93 1600 020/05 RMK AO2 RAE35 SLP121 P0008 T01720161 $
14926KSTC STC20030731085511607/31/03 08:55:31  5-MIN KSTC 311355Z AUTO 35004KT 10SM -TSRA OVC075 17/16 A2988 1070 93 1600 340/04 RMK AO2 P0000 $
14926KSTC STC20030731090012307/31/03 09:00:31  5-MIN KSTC 311400Z AUTO 34004KT 10SM -TSRA FEW065 BKN080 17/16 A2988 1060 93 1600 340/04 RMK AO2 P0000 $
14926KSTC STC20030731090512607/31/03 09:05:31  5-MIN KSTC 311405Z AUTO 32007KT 10SM TS SCT060 BKN080 17/16 A2989 1050 93 1600 310/07 RMK AO2 RAE02 P0000 $
14926KSTC STC20030731091012607/31/03 09:10:31  5-MIN KSTC 311410Z AUTO 33007KT 10SM TS BKN060 OVC080 17/16 A2989 1050 93 1600 320/07 RMK AO2 RAE02 P0000 $
14926KSTC STC20030731091512407/31/03 09:15:31  5-MIN KSTC 311415Z AUTO 34007KT 10SM TS BKN060 OVC080 17/16 A2990 1050 93 1600 340/07 RMK AO2 RAE02 P0000
14926KSTC STC20030731092013007/31/03 09:20:31  5-MIN KSTC 311420Z AUTO 32007KT 3SM -TSRA BR FEW038 BKN060 OVC080 17/16 A2991 1040 93 1600 310/07 RMK AO2 P0004
14926KSTC STC20030731092513407/31/03 09:25:31  5-MIN KSTC 311425Z AUTO 29006KT 1 1/4SM +TSRA BR SCT022 OVC060 17/16 A2992 1030 96 1500 290/06 RMK AO2 PRESRR P0011
14926KSTC STC20030731093011507/31/03 09:30:31  5-MIN KSTC 311430Z AUTO 25008KT -TSRA 17/17 A2992 1020 96 1600 250/08 RMK AO2 TSB27RAB29 P0011 $
14926KSTC STC20030731093511507/31/03 09:35:31  5-MIN KSTC 311435Z AUTO 25006KT TSRA 17/17 A2991 1030 100 1500 250/06 RMK AO2 TSB27RAB29 P0013 $
14926KSTC STC20030731094012207/31/03 09:40:31  5-MIN KSTC 311440Z AUTO VRB03KT 2SM TSRA BR 17/17 A2990 1040 100 1500 VRB/03 RMK AO2 TSB27RAB29 P0015 $
14926KSTC STC20030731094512507/31/03 09:45:31  5-MIN KSTC 311445Z AUTO 00000KT 2 1/2SM TSRA BR 17/16 A2989 1050 93 1600 000/00 RMK AO2 TSB27RAB29 P0015 $
14926KSTC STC20030731095014607/31/03 09:50:31  5-MIN KSTC 311450Z AUTO 00000KT 4SM -TSRA BR 17/17 A2989 1050 100 1500 000/00 RMK AO2 TSB27RAB29 SLP128 P0016 60038 T01670167 $
14926KSTC STC20030731095511107/31/03 09:55:31  5-MIN KSTC 311455Z AUTO 00000KT 5SM -TSRA BR 17/17 A2989 1050 96 1600 000/00 RMK AO2 P0001 $
14926KSTC STC20030731100012207/31/03 10:00:31  5-MIN KSTC 311500Z AUTO 00000KT 7SM -TSRA BKN022 OVC095 17/17 A2989 1060 96 1600 000/00 RMK AO2 P0001 $
14926KSTC STC20030731100512207/31/03 10:05:31  5-MIN KSTC 311505Z AUTO 00000KT 9SM -TSRA BKN030 OVC095 17/17 A2989 1060 96 1600 000/00 RMK AO2 P0001 $
14926KSTC STC20030731101012307/31/03 10:10:31  5-MIN KSTC 311510Z AUTO 00000KT 10SM -TSRA BKN038 BKN095 18/17 A2989 1060 93 1700 000/00 RMK AO2 P0001 $
14926KSTC STC20030731101513307/31/03 10:15:31  5-MIN KSTC 311515Z AUTO 00000KT 10SM TS SCT033 BKN070 BKN100 18/17 A2989 1060 93 1700 000/00 RMK AO2 RAE12 P0001 $
14926KSTC STC20030731102013307/31/03 10:20:31  5-MIN KSTC 311520Z AUTO 00000KT 10SM TS SCT033 BKN070 OVC100 18/17 A2989 1060 93 1700 000/00 RMK AO2 RAE12 P0001 $
14926KSTC STC20030731102513507/31/03 10:25:31  5-MIN KSTC 311525Z AUTO 21003KT 10SM FEW048 BKN070 OVC100 18/17 A2989 1050 93 1700 200/03 RMK AO2 TSE25RAE12 P0001 $
14926KSTC STC20030731103013507/31/03 10:30:31  5-MIN KSTC 311530Z AUTO 19003KT 10SM -RA BKN070 BKN100 18/17 A2989 1060 93 1700 180/03 RMK AO2 TSE25RAE12B28 P0001 $
14926KSTC STC20030731103512807/31/03 10:35:31  5-MIN KSTC 311535Z AUTO 19003KT 10SM -RA BKN065 18/17 A2989 1050 93 1700 190/03 RMK AO2 TSE25RAE12B28 P0001 $
14926KSTC STC20030731104013307/31/03 10:40:31  5-MIN KSTC 311540Z AUTO 20003KT 10SM -TSRA OVC065 18/17 A2989 1050 93 1700 200/03 RMK AO2 TSE25B38RAE12B28 P0001 $
14926KSTC STC20030731104513307/31/03 10:45:31  5-MIN KSTC 311545Z AUTO 21004KT 10SM TS BKN065 18/17 A2989 1050 96 1700 210/04 RMK AO2 TSE25B38RAE12B28E44 P0001 $
14926KSTC STC20030731105014807/31/03 10:50:31  5-MIN KSTC 311550Z AUTO 21004KT 10SM TS BKN065 18/17 A2989 1050 93 1700 210/04 RMK AO2 TSE25B38RAE12B28E44 SLP127 P0001 T01830172
14926KSTC STC20030731105510907/31/03 10:55:31  5-MIN KSTC 311555Z AUTO VRB03KT 10SM SCT065 BKN095 18/17 A2989 1060 93 1700 VRB/03 RMK AO2
14926KSTC STC20030731110010907/31/03 11:00:31  5-MIN KSTC 311600Z AUTO 00000KT 10SM SCT065 BKN090 18/17 A2989 1060 93 1700 000/00 RMK AO2
14926KSTC STC20030731110510907/31/03 11:05:31  5-MIN KSTC 311605Z AUTO 00000KT 10SM FEW065 SCT090 18/17 A2989 1060 90 1700 000/00 RMK AO2
14926KSTC STC20030731111010907/31/03 11:10:31  5-MIN KSTC 311610Z AUTO VRB03KT 10SM FEW008 SCT090 19/17 A2989 1060 87 1800 VRB/03 RMK AO2
14926KSTC STC20030731111510207/31/03 11:15:31  5-MIN KSTC 311615Z AUTO VRB03KT 10SM FEW008 19/17 A2989 1060 90 1800 VRB/03 RMK AO2
14926KSTC STC20030731112010207/31/03 11:20:31  5-MIN KSTC 311620Z AUTO VRB03KT 10SM FEW090 19/17 A2989 1060 87 1900 VRB/03 RMK AO2
14926KSTC STC20030731112510207/31/03 11:25:31  5-MIN KSTC 311625Z AUTO VRB04KT 10SM FEW090 19/17 A2989 1060 87 1900 VRB/04 RMK AO2
14926KSTC STC20030731113009907/31/03 11:30:31  5-MIN KSTC 311630Z AUTO 29003KT 10SM CLR 19/17 A2989 1050 84 1900 290/03 RMK AO2
14926KSTC STC20030731113509907/31/03 11:35:31  5-MIN KSTC 311635Z AUTO 00000KT 10SM CLR 19/17 A2989 1050 84 1900 000/00 RMK AO2
14926KSTC STC20030731114009907/31/03 11:40:31  5-MIN KSTC 311640Z AUTO 00000KT 10SM CLR 20/17 A2989 1060 81 1900 000/00 RMK AO2
14926KSTC STC20030731114509907/31/03 11:45:31  5-MIN KSTC 311645Z AUTO VRB03KT 10SM CLR 21/17 A2989 1060 78 2000 VRB/03 RMK AO2
14926KSTC STC20030731115011607/31/03 11:50:31  5-MIN KSTC 311650Z AUTO VRB03KT 10SM CLR 21/17 A2989 1060 78 2000 VRB/03 RMK AO2 SLP127 T02060167
14926KSTC STC20030731115509907/31/03 11:55:31  5-MIN KSTC 311655Z AUTO VRB03KT 10SM CLR 21/17 A2989 1060 78 2000 VRB/03 RMK AO2
14926KSTC STC20030731120009907/31/03 12:00:31  5-MIN KSTC 311700Z AUTO 29004KT 10SM CLR 21/16 A2989 1060 73 2100 280/04 RMK AO2
14926KSTC STC20030731120509907/31/03 12:05:31  5-MIN KSTC 311705Z AUTO 00000KT 10SM CLR 21/16 A2989 1060 70 2000 000/00 RMK AO2
14926KSTC STC20030731121009907/31/03 12:10:31  5-MIN KSTC 311710Z AUTO VRB03KT 10SM CLR 22/16 A2989 1060 70 2100 VRB/03 RMK AO2
14926KSTC STC20030731121509907/31/03 12:15:31  5-MIN KSTC 311715Z AUTO 00000KT 10SM CLR 22/16 A2989 1060 68 2200 000/00 RMK AO2
14926KSTC STC20030731122010207/31/03 12:20:31  5-MIN KSTC 311720Z AUTO 00000KT 10SM FEW021 22/17 A2989 1060 73 2100 000/00 RMK AO2
14926KSTC STC20030731122510207/31/03 12:25:31  5-MIN KSTC 311725Z AUTO VRB04KT 10SM FEW021 22/17 A2988 1060 75 2100 VRB/04 RMK AO2
14926KSTC STC20030731123010207/31/03 12:30:31  5-MIN KSTC 311730Z AUTO 00000KT 10SM FEW021 23/17 A2988 1060 70 2200 000/00 RMK AO2
14926KSTC STC20030731123510207/31/03 12:35:31  5-MIN KSTC 311735Z AUTO VRB03KT 10SM FEW021 22/17 A2988 1060 73 2200 VRB/03 RMK AO2
14926KSTC STC20030731124010207/31/03 12:40:31  5-MIN KSTC 311740Z AUTO VRB03KT 10SM FEW021 22/17 A2988 1060 70 2200 VRB/03 RMK AO2
14926KSTC STC20030731124510207/31/03 12:45:31  5-MIN KSTC 311745Z AUTO 00000KT 10SM FEW021 22/17 A2988 1060 70 2200 000/00 RMK AO2
14926KSTC STC20030731125013407/31/03 12:50:31  5-MIN KSTC 311750Z AUTO 29007KT 10SM CLR 23/17 A2988 1060 68 2300 280/07 RMK AO2 SLP123 60039 T02330172 10233 20167
14926KSTC STC20030731125510207/31/03 12:55:31  5-MIN KSTC 311755Z AUTO 00000KT 10SM FEW024 22/17 A2988 1060 70 2200 000/00 RMK AO2
14926KSTC STC20030731130010207/31/03 13:00:31  5-MIN KSTC 311800Z AUTO 00000KT 10SM FEW024 23/17 A2988 1070 68 2300 000/00 RMK AO2
14926KSTC STC20030731130509907/31/03 13:05:31  5-MIN KSTC 311805Z AUTO VRB03KT 10SM CLR 23/17 A2988 1060 68 2200 VRB/03 RMK AO2
14926KSTC STC20030731131009907/31/03 13:10:31  5-MIN KSTC 311810Z AUTO VRB04KT 10SM CLR 23/17 A2988 1070 66 2300 VRB/04 RMK AO2
14926KSTC STC20030731131509907/31/03 13:15:31  5-MIN KSTC 311815Z AUTO 32005KT 10SM CLR 23/16 A2988 1070 63 2300 310/05 RMK AO2
14926KSTC STC20030731132009907/31/03 13:20:31  5-MIN KSTC 311820Z AUTO 01003KT 10SM CLR 24/16 A2988 1070 61 2400 010/03 RMK AO2
14926KSTC STC20030731132509907/31/03 13:25:31  5-MIN KSTC 311825Z AUTO 00000KT 10SM CLR 24/16 A2988 1070 61 2400 000/00 RMK AO2
14926KSTC STC20030731133009907/31/03 13:30:31  5-MIN KSTC 311830Z AUTO VRB04KT 10SM CLR 23/16 A2987 1070 63 2300 VRB/04 RMK AO2
14926KSTC STC20030731133509907/31/03 13:35:31  5-MIN KSTC 311835Z AUTO 00000KT 10SM CLR 24/16 A2987 1070 61 2400 000/00 RMK AO2
14926KSTC STC20030731134009907/31/03 13:40:31  5-MIN KSTC 311840Z AUTO 00000KT 10SM CLR 23/16 A2987 1070 63 2300 000/00 RMK AO2
14926KSTC STC20030731134509907/31/03 13:45:31  5-MIN KSTC 311845Z AUTO VRB05KT 10SM CLR 24/17 A2987 1070 63 2400 VRB/05 RMK AO2
14926KSTC STC20030731135011607/31/03 13:50:31  5-MIN KSTC 311850Z AUTO VRB03KT 10SM CLR 24/16 A2987 1070 61 2400 VRB/03 RMK AO2 SLP120 T02390161
14926KSTC STC20030731135509907/31/03 13:55:31  5-MIN KSTC 311855Z AUTO VRB06KT 10SM CLR 24/16 A2987 1070 61 2400 VRB/06 RMK AO2
14926KSTC STC20030731140009907/31/03 14:00:31  5-MIN KSTC 311900Z AUTO 22007KT 10SM CLR 24/17 A2987 1070 63 2400 220/07 RMK AO2
14926KSTC STC20030731140510207/31/03 14:05:31  5-MIN KSTC 311905Z AUTO 18006KT 10SM FEW040 24/18 A2987 1070 71 2400 180/06 RMK AO2
14926KSTC STC20030731141010207/31/03 14:10:31  5-MIN KSTC 311910Z AUTO 22009KT 10SM FEW037 24/18 A2987 1070 68 2400 210/09 RMK AO2
14926KSTC STC20030731141510207/31/03 14:15:31  5-MIN KSTC 311915Z AUTO 20008KT 10SM FEW037 23/18 A2987 1070 70 2300 190/08 RMK AO2
14926KSTC STC20030731142010207/31/03 14:20:31  5-MIN KSTC 311920Z AUTO 21007KT 10SM FEW037 23/17 A2987 1080 68 2300 210/07 RMK AO2
14926KSTC STC20030731142510207/31/03 14:25:31  5-MIN KSTC 311925Z AUTO 21008KT 10SM FEW037 23/18 A2987 1080 70 2300 210/08 RMK AO2
14926KSTC STC20030731143009907/31/03 14:30:31  5-MIN KSTC 311930Z AUTO 20007KT 10SM CLR 24/18 A2987 1080 68 2400 200/07 RMK AO2
14926KSTC STC20030731143510207/31/03 14:35:31  5-MIN KSTC 311935Z AUTO 19007KT 10SM FEW070 24/17 A2987 1080 66 2400 190/07 RMK AO2
14926KSTC STC20030731144010207/31/03 14:40:31  5-MIN KSTC 311940Z AUTO 19007KT 10SM FEW070 23/17 A2987 1080 70 2300 190/07 RMK AO2
14926KSTC STC20030731144510207/31/03 14:45:31  5-MIN KSTC 311945Z AUTO 21007KT 10SM FEW070 23/17 A2987 1070 70 2300 200/07 RMK AO2
14926KSTC STC20030731145012607/31/03 14:50:31  5-MIN KSTC 311950Z AUTO 22008KT 10SM FEW029 SCT090 23/17 A2987 1070 70 2300 220/08 RMK AO2 SLP120 T02280172
14926KSTC STC20030731145511607/31/03 14:55:31  5-MIN KSTC 311955Z AUTO 21008KT 10SM FEW029 SCT065 BKN100 23/17 A2987 1070 68 2300 210/08 RMK AO2
14926KSTC STC20030731150011607/31/03 15:00:31  5-MIN KSTC 312000Z AUTO 20007KT 10SM FEW029 SCT065 BKN110 22/17 A2987 1070 73 2200 200/07 RMK AO2
14926KSTC STC20030731150512507/31/03 15:05:31  5-MIN KSTC 312005Z AUTO 23007KT 10SM TS FEW029 SCT065 BKN110 22/17 A2988 1070 70 2200 230/07 RMK AO2 TSB01
14926KSTC STC20030731151012507/31/03 15:10:31  5-MIN KSTC 312010Z AUTO 25005KT 10SM TS FEW029 SCT065 BKN100 22/17 A2988 1070 73 2200 240/05 RMK AO2 TSB01
14926KSTC STC20030731151513907/31/03 15:15:31  5-MIN KSTC 312015Z AUTO 27006KT 10SM -TSRA FEW029 BKN060 BKN110 22/17 A2988 1060 73 2200 270/06 RMK AO2 TSB01RAB12 P0000
14926KSTC STC20030731152014507/31/03 15:20:31  5-MIN KSTC 312020Z AUTO 34011G15KT 10SM -TSRA FEW039 SCT050 BKN060 22/17 A2988 1060 75 2100 340/11G15 RMK AO2 TSB01RAB12 P0000
14926KSTC STC20030731152514507/31/03 15:25:31  5-MIN KSTC 312025Z AUTO 32008G15KT 10SM -TSRA SCT037 BKN049 OVC110 20/17 A2988 1060 84 1900 320/08G15 RMK AO2 TSB01RAB12 P0000
14926KSTC STC20030731153014007/31/03 15:30:31  5-MIN KSTC 312030Z AUTO 31009KT 5SM TSRA BR FEW027 BKN037 OVC065 19/17 A2988 1060 87 1900 310/09 RMK AO2 TSB01RAB12 P0002
14926KSTC STC20030731153515207/31/03 15:35:31  5-MIN KSTC 312035Z AUTO 28008KT 2 1/2SM TSRA BR SCT019 BKN035 OVC050 19/18 A2989 1060 93 1800 280/08 RMK AO2 VIS 1V5 TSB01RAB12 P0004
14926KSTC STC20030731154014207/31/03 15:40:31  5-MIN KSTC 312040Z AUTO 28008KT 3SM -RA BR SCT027 BKN036 OVC055 19/17 A2989 1060 90 1800 280/08 RMK AO2 TSB01E37RAB12 P0004
14926KSTC STC20030731154514507/31/03 15:45:31  5-MIN KSTC 312045Z AUTO 27007KT 10SM -TSRA BKN034 BKN044 OVC090 19/16 A2988 1060 84 1800 260/07 RMK AO2 TSB01E37B41RAB12 P0004
14926KSTC STC20030731155016707/31/03 15:50:31  5-MIN KSTC 312050Z AUTO 24006KT 10SM -TSRA BKN036 OVC090 19/17 A2988 1060 87 1800 230/06 RMK AO2 TSB01E37B41RAB12 SLP125 P0004 60004 T01890167 58004
14926KSTC STC20030731155512807/31/03 15:55:31  5-MIN KSTC 312055Z AUTO 22009KT 10SM -TSRA SCT032 BKN080 OVC090 19/17 A2988 1060 90 1800 220/09 RMK AO2 P0000
14926KSTC STC20030731160012807/31/03 16:00:31  5-MIN KSTC 312100Z AUTO 24010KT 10SM -TSRA SCT043 BKN080 OVC090 18/17 A2988 1060 90 1700 240/10 RMK AO2 P0000
14926KSTC STC20030731160512807/31/03 16:05:31  5-MIN KSTC 312105Z AUTO 23009KT 10SM -TSRA SCT050 BKN080 OVC090 18/17 A2988 1070 90 1700 230/09 RMK AO2 P0000
14926KSTC STC20030731161012707/31/03 16:10:31  5-MIN KSTC 312110Z AUTO 23008KT 7SM -TSRA BKN042 BKN080 OVC090 19/17 A2987 1070 87 1800 230/08 RMK AO2 P0001
14926KSTC STC20030731161512707/31/03 16:15:31  5-MIN KSTC 312115Z AUTO 23009KT 6SM -RA BR BKN034 OVC075 19/17 A2988 1070 90 1800 230/09 RMK AO2 TSE11 P0001
14926KSTC STC20030731162012407/31/03 16:20:31  5-MIN KSTC 312120Z AUTO 25007KT 8SM -RA BKN036 OVC075 19/17 A2988 1070 87 1800 250/07 RMK AO2 TSE11 P0001
14926KSTC STC20030731162512507/31/03 16:25:31  5-MIN KSTC 312125Z AUTO 26008KT 10SM -RA SCT041 OVC075 19/17 A2988 1070 90 1800 260/08 RMK AO2 TSE11 P0001
14926KSTC STC20030731163012607/31/03 16:30:31  5-MIN KSTC 312130Z AUTO 25008KT 10SM BKN041 OVC075 19/17 A2988 1070 90 1800 250/08 RMK AO2 TSE11RAE28 P0001
14926KSTC STC20030731163513107/31/03 16:35:31  5-MIN KSTC 312135Z AUTO 22007KT 9SM -RA BKN037 BKN048 OVC080 18/17 A2987 1070 93 1700 220/07 RMK AO2 TSE11 P0002
14926KSTC STC20030731164012407/31/03 16:40:31  5-MIN KSTC 312140Z AUTO 23007KT 9SM -RA SCT035 OVC080 18/17 A2987 1070 93 1700 230/07 RMK AO2 TSE11 P0002
14926KSTC STC20030731164512507/31/03 16:45:31  5-MIN KSTC 312145Z AUTO 22006KT 10SM -RA FEW043 OVC080 19/17 A2987 1070 90 1800 220/06 RMK AO2 TSE11 P0002
14926KSTC STC20030731165014207/31/03 16:50:31  5-MIN KSTC 312150Z AUTO 22004KT 10SM -RA SCT046 OVC080 19/17 A2987 1070 90 1800 220/04 RMK AO2 TSE11 SLP121 P0002 T01890172
14926KSTC STC20030731165512707/31/03 16:55:31  5-MIN KSTC 312155Z AUTO 23004KT 10SM -TSRA SCT044 OVC080 19/17 A2987 1080 90 1800 220/04 RMK AO2 TSB55 P0000
14926KSTC STC20030731170012907/31/03 17:00:31  5-MIN KSTC 312200Z AUTO 23006KT 10SM -TSRA FEW037 OVC080 19/18 A2986 1080 93 1800 220/06 RMK AO2 TSB2155 P0000
14926KSTC STC20030731170513107/31/03 17:05:31  5-MIN KSTC 312205Z AUTO 22005KT 10SM TS FEW050 BKN080 19/17 A2986 1080 90 1800 220/05 RMK AO2 TSB2155RAE01 P0000
14926KSTC STC20030731171013107/31/03 17:10:31  5-MIN KSTC 312210Z AUTO 23004KT 10SM TS FEW055 BKN085 19/17 A2986 1080 87 1900 230/04 RMK AO2 TSB2155RAE01 P0000
14926KSTC STC20030731171513107/31/03 17:15:31  5-MIN KSTC 312215Z AUTO 23008KT 10SM BKN080 BKN100 19/18 A2986 1080 90 1900 220/08 RMK AO2 TSB2155E13RAE01 P0000
14926KSTC STC20030731172013107/31/03 17:20:31  5-MIN KSTC 312220Z AUTO 22008KT 10SM SCT085 BKN100 20/17 A2986 1080 84 2000 220/08 RMK AO2 TSB2155E13RAE01 P0000
14926KSTC STC20030731173009807/31/03 17:30:31  5-MIN KSTC 312230Z AUTO 24007KT 21/17 A2986 1080 78 2100 240/07 RMK AO2 P0000 $
14926KSTC STC20030731173511207/31/03 17:35:31  5-MIN KSTC 312235Z AUTO 25007KT 10SM TS 21/18 A2986 1080 81 2100 240/07 RMK AO2 TSB35 P0000 $
14926KSTC STC20030731174011207/31/03 17:40:31  5-MIN KSTC 312240Z AUTO 24007KT 10SM TS 21/18 A2986 1080 81 2100 230/07 RMK AO2 TSB35 P0000 $
14926KSTC STC20030731174511207/31/03 17:45:31  5-MIN KSTC 312245Z AUTO 24010KT 10SM TS 22/18 A2986 1080 78 2100 230/10 RMK AO2 TSB35 P0000 $
14926KSTC STC20030731175012907/31/03 17:50:31  5-MIN KSTC 312250Z AUTO 24009KT 10SM TS 22/18 A2986 1080 78 2100 230/09 RMK AO2 TSB35 SLP117 P0000 T02170178 $
14926KSTC STC20030731175509707/31/03 17:55:31  5-MIN KSTC 312255Z AUTO 23009KT 10SM 22/18 A2986 1080 78 2100 230/09 RMK AO2 $
14926KSTC STC20030731180010407/31/03 18:00:31  5-MIN KSTC 312300Z AUTO 23007KT 10SM SCT110 22/18 A2987 1080 78 2100 230/07 RMK AO2 $
14926KSTC STC20030731180510407/31/03 18:05:31  5-MIN KSTC 312305Z AUTO 25006KT 10SM SCT110 22/18 A2987 1080 75 2200 240/06 RMK AO2 $
14926KSTC STC20030731181010407/31/03 18:10:31  5-MIN KSTC 312310Z AUTO 23005KT 10SM SCT110 22/18 A2986 1080 75 2200 230/05 RMK AO2 $
14926KSTC STC20030731181510407/31/03 18:15:31  5-MIN KSTC 312315Z AUTO 24005KT 10SM SCT100 22/17 A2986 1080 73 2200 240/05 RMK AO2 $
14926KSTC STC20030731182010407/31/03 18:20:31  5-MIN KSTC 312320Z AUTO 25004KT 10SM FEW100 22/17 A2987 1080 73 2200 240/04 RMK AO2 $
14926KSTC STC20030731182511107/31/03 18:25:31  5-MIN KSTC 312325Z AUTO 25004KT 10SM FEW090 SCT110 23/17 A2987 1070 70 2300 250/04 RMK AO2 $
14926KSTC STC20030731183011107/31/03 18:30:31  5-MIN KSTC 312330Z AUTO 26004KT 10SM FEW080 SCT095 22/17 A2987 1080 73 2200 260/04 RMK AO2 $
14926KSTC STC20030731183511107/31/03 18:35:31  5-MIN KSTC 312335Z AUTO 25004KT 10SM FEW075 BKN095 22/17 A2987 1070 75 2100 250/04 RMK AO2 $
14926KSTC STC20030731184011107/31/03 18:40:31  5-MIN KSTC 312340Z AUTO 00000KT 10SM FEW075 BKN095 22/17 A2987 1070 75 2100 000/00 RMK AO2 $
14926KSTC STC20030731184511107/31/03 18:45:31  5-MIN KSTC 312345Z AUTO 00000KT 10SM FEW070 SCT095 22/17 A2987 1070 73 2200 000/00 RMK AO2 $
14926KSTC STC20030731185014607/31/03 18:50:31  5-MIN KSTC 312350Z AUTO 00000KT 10SM FEW075 SCT095 23/17 A2987 1070 70 2300 000/00 RMK AO2 SLP119 60006 T02280172 10244 20183 $
14926KSTC STC20030731185511107/31/03 18:55:31  5-MIN KSTC 312355Z AUTO 01004KT 10SM FEW075 SCT095 23/17 A2987 1070 70 2300 360/04 RMK AO2 $
14926KSTC STC20030731190010407/31/03 19:00:31  5-MIN KSTC 010000Z AUTO 01004KT 10SM FEW070 23/18 A2987 1070 73 2300 360/04 RMK AO2 $
14926KSTC STC20030731190510407/31/03 19:05:31  5-MIN KSTC 010005Z AUTO 02009KT 10SM FEW090 23/18 A2987 1070 73 2300 020/09 RMK AO2 $
14926KSTC STC20030731191010407/31/03 19:10:31  5-MIN KSTC 010010Z AUTO 03005KT 10SM FEW090 22/17 A2987 1070 73 2200 020/05 RMK AO2 $
14926KSTC STC20030731191510407/31/03 19:15:31  5-MIN KSTC 010015Z AUTO 03005KT 10SM FEW090 22/17 A2987 1070 73 2200 020/05 RMK AO2 $
14926KSTC STC20030731192010407/31/03 19:20:31  5-MIN KSTC 010020Z AUTO 01006KT 10SM FEW090 22/16 A2987 1070 68 2200 360/06 RMK AO2 $
14926KSTC STC20030731192510407/31/03 19:25:31  5-MIN KSTC 010025Z AUTO 01005KT 10SM FEW090 22/16 A2987 1070 70 2100 010/05 RMK AO2 $
14926KSTC STC20030731193010407/31/03 19:30:31  5-MIN KSTC 010030Z AUTO 36004KT 10SM FEW090 21/17 A2987 1070 75 2100 360/04 RMK AO2 $
14926KSTC STC20030731193510107/31/03 19:35:31  5-MIN KSTC 010035Z AUTO 35003KT 10SM CLR 21/17 A2987 1070 78 2000 340/03 RMK AO2 $
14926KSTC STC20030731194010107/31/03 19:40:31  5-MIN KSTC 010040Z AUTO 34004KT 10SM CLR 21/17 A2987 1070 78 2000 340/04 RMK AO2 $
14926KSTC STC20030731194510407/31/03 19:45:31  5-MIN KSTC 010045Z AUTO 34004KT 10SM FEW055 21/17 A2987 1070 81 2000 340/04 RMK AO2 $
14926KSTC STC20030731195015107/31/03 19:50:31  5-MIN KSTC 010050Z AUTO 33005KT 10SM -RA FEW055 SCT075 SCT090 20/17 A2987 1070 84 1900 330/05 RMK AO2 RAB48 SLP122 P0000 T02000172 $
14926KSTC STC20030731195512807/31/03 19:55:31  5-MIN KSTC 010055Z AUTO 34003KT 10SM -RA FEW060 SCT080 BKN090 20/17 A2987 1070 84 1900 340/03 RMK AO2 P0000 $
14926KSTC STC20030731200012107/31/03 20:00:31  5-MIN KSTC 010100Z AUTO 34005KT 10SM -RA FEW060 BKN090 20/17 A2987 1070 84 1900 330/05 RMK AO2 P0000 $
14926KSTC STC20030731200512307/31/03 20:05:31  5-MIN KSTC 010105Z AUTO 35004KT 10SM FEW060 BKN095 20/17 A2987 1070 84 1900 350/04 RMK AO2 RAE05 P0000 $
14926KSTC STC20030731201012307/31/03 20:10:31  5-MIN KSTC 010110Z AUTO VRB03KT 10SM FEW060 BKN095 21/17 A2987 1070 81 2000 VRB/03 RMK AO2 RAE05 P0000 $
14926KSTC STC20030731201512307/31/03 20:15:31  5-MIN KSTC 010115Z AUTO 00000KT 10SM FEW060 BKN100 21/18 A2987 1070 84 2000 000/00 RMK AO2 RAE05 P0000 $
14926KSTC STC20030731202013007/31/03 20:20:31  5-MIN KSTC 010120Z AUTO 27003KT 10SM FEW060 BKN095 BKN110 21/18 A2987 1070 84 2000 260/03 RMK AO2 RAE05 P0000 $
14926KSTC STC20030731202512307/31/03 20:25:31  5-MIN KSTC 010125Z AUTO 00000KT 10SM SCT090 BKN110 21/18 A2987 1070 84 2000 000/00 RMK AO2 RAE05 P0000 $
14926KSTC STC20030731203012307/31/03 20:30:31  5-MIN KSTC 010130Z AUTO 00000KT 10SM SCT100 BKN110 21/18 A2987 1070 84 2000 000/00 RMK AO2 RAE05 P0000 $
14926KSTC STC20030731203511607/31/03 20:35:31  5-MIN KSTC 010135Z AUTO 00000KT 10SM BKN110 20/18 A2987 1070 90 1900 000/00 RMK AO2 RAE05 P0000 $
14926KSTC STC20030731204012307/31/03 20:40:31  5-MIN KSTC 010140Z AUTO 00000KT 10SM FEW080 BKN110 20/18 A2987 1070 90 1900 000/00 RMK AO2 RAE05 P0000 $
14926KSTC STC20030731204511607/31/03 20:45:31  5-MIN KSTC 010145Z AUTO 00000KT 10SM SCT110 20/18 A2987 1070 90 1900 000/00 RMK AO2 RAE05 P0000 $
14926KSTC STC20030731205013307/31/03 20:50:31  5-MIN KSTC 010150Z AUTO 00000KT 10SM SCT120 19/18 A2987 1070 93 1900 000/00 RMK AO2 RAE05 SLP122 P0000 T01940183 $
14926KSTC STC20030731205510407/31/03 20:55:31  5-MIN KSTC 010155Z AUTO 00000KT 10SM FEW120 19/18 A2987 1070 93 1900 000/00 RMK AO2 $
14926KSTC STC20030731210010407/31/03 21:00:31  5-MIN KSTC 010200Z AUTO 00000KT 10SM FEW120 19/18 A2987 1070 90 1900 000/00 RMK AO2 $
14926KSTC STC20030731210510107/31/03 21:05:31  5-MIN KSTC 010205Z AUTO 00000KT 10SM CLR 19/18 A2987 1070 93 1800 000/00 RMK AO2 $
14926KSTC STC20030731211010107/31/03 21:10:31  5-MIN KSTC 010210Z AUTO 00000KT 10SM CLR 18/18 A2987 1070 96 1700 000/00 RMK AO2 $
14926KSTC STC20030731211510407/31/03 21:15:31  5-MIN KSTC 010215Z AUTO 00000KT 10SM FEW070 18/18 A2988 1070 96 1700 000/00 RMK AO2 $
14926KSTC STC20030731212010107/31/03 21:20:31  5-MIN KSTC 010220Z AUTO 00000KT 10SM CLR 18/18 A2988 1070 96 1700 000/00 RMK AO2 $
14926KSTC STC20030731212510107/31/03 21:25:31  5-MIN KSTC 010225Z AUTO 00000KT 10SM CLR 18/18 A2988 1070 96 1700 000/00 RMK AO2 $
14926KSTC STC20030731213010107/31/03 21:30:31  5-MIN KSTC 010230Z AUTO 00000KT 10SM CLR 18/18 A2988 1060 96 1700 000/00 RMK AO2 $
14926KSTC STC20030731213510207/31/03 21:35:31  5-MIN KSTC 010235Z AUTO 00000KT 10SM CLR 17/17 A2988 1060 100 1600 000/00 RMK AO2 $
14926KSTC STC20030731214010207/31/03 21:40:31  5-MIN KSTC 010240Z AUTO 00000KT 10SM CLR 17/17 A2988 1060 100 1600 000/00 RMK AO2 $
14926KSTC STC20030731214510107/31/03 21:45:31  5-MIN KSTC 010245Z AUTO 00000KT 10SM CLR 18/17 A2988 1060 96 1700 000/00 RMK AO2 $
14926KSTC STC20030731215012407/31/03 21:50:31  5-MIN KSTC 010250Z AUTO 00000KT 10SM CLR 18/17 A2988 1060 96 1700 000/00 RMK AO2 SLP127 60000 T01780172 $
14926KSTC STC20030731215510107/31/03 21:55:31  5-MIN KSTC 010255Z AUTO 00000KT 10SM CLR 18/17 A2988 1060 96 1700 000/00 RMK AO2 $
14926KSTC STC20030731220010207/31/03 22:00:31  5-MIN KSTC 010300Z AUTO 00000KT 10SM CLR 17/17 A2988 1060 100 1600 000/00 RMK AO2 $
14926KSTC STC20030731220510207/31/03 22:05:31  5-MIN KSTC 010305Z AUTO 31003KT 10SM CLR 17/17 A2988 1060 100 1600 310/03 RMK AO2 $
14926KSTC STC20030731221010207/31/03 22:10:31  5-MIN KSTC 010310Z AUTO 31003KT 10SM CLR 17/17 A2988 1060 100 1500 310/03 RMK AO2 $
14926KSTC STC20030731221510207/31/03 22:15:31  5-MIN KSTC 010315Z AUTO 30003KT 10SM CLR 17/17 A2989 1060 100 1500 300/03 RMK AO2 $
14926KSTC STC20030731222010107/31/03 22:20:31  5-MIN KSTC 010320Z AUTO 00000KT 10SM CLR 17/17 A2988 1060 96 1600 000/00 RMK AO2 $
14926KSTC STC20030731222510107/31/03 22:25:31  5-MIN KSTC 010325Z AUTO 00000KT 10SM CLR 17/17 A2988 1060 96 1600 000/00 RMK AO2 $
14926KSTC STC20030731223010107/31/03 22:30:31  5-MIN KSTC 010330Z AUTO 00000KT 10SM CLR 17/17 A2988 1060 96 1600 000/00 RMK AO2 $
14926KSTC STC20030731223510107/31/03 22:35:31  5-MIN KSTC 010335Z AUTO 00000KT 10SM CLR 17/17 A2988 1060 96 1600 000/00 RMK AO2 $
14926KSTC STC20030731224010107/31/03 22:40:31  5-MIN KSTC 010340Z AUTO 00000KT 10SM CLR 17/17 A2989 1060 96 1600 000/00 RMK AO2 $
14926KSTC STC20030731224510207/31/03 22:45:31  5-MIN KSTC 010345Z AUTO 00000KT 10SM CLR 17/17 A2989 1060 100 1500 000/00 RMK AO2 $
14926KSTC STC20030731225011907/31/03 22:50:31  5-MIN KSTC 010350Z AUTO 00000KT 10SM CLR 17/17 A2989 1060 100 1500 000/00 RMK AO2 SLP127 T01670167 $
14926KSTC STC20030731225510107/31/03 22:55:31  5-MIN KSTC 010355Z AUTO 00000KT 10SM CLR 17/16 A2989 1060 96 1500 000/00 RMK AO2 $
14926KSTC STC20030731230010107/31/03 23:00:31  5-MIN KSTC 010400Z AUTO 00000KT 10SM CLR 17/16 A2989 1060 96 1500 000/00 RMK AO2 $
14926KSTC STC20030731230510207/31/03 23:05:31  5-MIN KSTC 010405Z AUTO 00000KT 10SM CLR 16/16 A2988 1060 100 1500 000/00 RMK AO2 $
14926KSTC STC20030731231010207/31/03 23:10:31  5-MIN KSTC 010410Z AUTO 31003KT 10SM CLR 16/16 A2988 1060 100 1500 310/03 RMK AO2 $
14926KSTC STC20030731231510107/31/03 23:15:31  5-MIN KSTC 010415Z AUTO 00000KT 10SM CLR 17/16 A2988 1060 96 1500 000/00 RMK AO2 $
14926KSTC STC20030731232010007/31/03 23:20:31  5-MIN KSTC 010420Z AUTO 00000KT 9SM CLR 17/16 A2988 1060 96 1500 000/00 RMK AO2 $
14926KSTC STC20030731232510007/31/03 23:25:31  5-MIN KSTC 010425Z AUTO 00000KT 9SM CLR 17/16 A2988 1060 96 1500 000/00 RMK AO2 $
14926KSTC STC20030731233010107/31/03 23:30:31  5-MIN KSTC 010430Z AUTO 00000KT 10SM CLR 17/16 A2988 1060 96 1500 000/00 RMK AO2 $
14926KSTC STC20030731233510207/31/03 23:35:31  5-MIN KSTC 010435Z AUTO 25003KT 10SM CLR 16/16 A2988 1060 100 1500 250/03 RMK AO2 $
14926KSTC STC20030731234010107/31/03 23:40:31  5-MIN KSTC 010440Z AUTO 26003KT 10SM CLR 16/16 A2989 1060 96 1500 260/03 RMK AO2 $
14926KSTC STC20030731234510107/31/03 23:45:31  5-MIN KSTC 010445Z AUTO 26003KT 10SM CLR 17/16 A2988 1060 96 1500 250/03 RMK AO2 $
14926KSTC STC20030731235012807/31/03 23:50:31  5-MIN KSTC 010450Z AUTO 00000KT 10SM CLR 17/16 A2988 1060 96 1500 000/00 RMK AO2 SLP126 T01670161 402440161 $
14926KSTC STC20030731235510207/31/03 23:55:31  5-MIN KSTC 010455Z AUTO 00000KT 10SM CLR 16/16 A2988 1060 100 1500 000/00 RMK AO2 $
