14926KSTC STC20120601000009706/01/12 00:00:35  5-MIN KSTC 010600Z AUTO 00000KT 10SM CLR 07/06 A2998 970 93 200 000/00 RMK AO2
14926KSTC STC20120601000509706/01/12 00:05:31  5-MIN KSTC 010605Z AUTO 00000KT 10SM CLR 07/06 A2998 970 93 200 000/00 RMK AO2
14926KSTC STC20120601001009706/01/12 00:10:31  5-MIN KSTC 010610Z AUTO 00000KT 10SM CLR 06/05 A2998 970 93 200 000/00 RMK AO2
14926KSTC STC20120601001509706/01/12 00:15:31  5-MIN KSTC 010615Z AUTO 00000KT 10SM CLR 06/05 A2998 970 93 200 000/00 RMK AO2
14926KSTC STC20120601002009706/01/12 00:20:31  5-MIN KSTC 010620Z AUTO 00000KT 10SM CLR 07/06 A2998 970 93 200 000/00 RMK AO2
14926KSTC STC20120601002509706/01/12 00:25:31  5-MIN KSTC 010625Z AUTO 00000KT 10SM CLR 07/06 A2997 980 93 200 000/00 RMK AO2
14926KSTC STC20120601003009706/01/12 00:30:31  5-MIN KSTC 010630Z AUTO 00000KT 10SM CLR 06/05 A2997 980 93 200 000/00 RMK AO2
14926KSTC STC20120601003509706/01/12 00:35:31  5-MIN KSTC 010635Z AUTO 00000KT 10SM CLR 06/05 A2997 980 93 200 000/00 RMK AO2
14926KSTC STC20120601004009606/01/12 00:40:31  5-MIN KSTC 010640Z AUTO 00000KT 9SM CLR 06/05 A2997 980 96 100 000/00 RMK AO2
14926KSTC STC20120601004509606/01/12 00:45:31  5-MIN KSTC 010645Z AUTO 00000KT 9SM CLR 06/04 A2997 980 89 200 000/00 RMK AO2
14926KSTC STC20120601005011406/01/12 00:50:31  5-MIN KSTC 010650Z AUTO 00000KT 10SM CLR 06/06 A2997 980 96 200 000/00 RMK AO2 SLP160 T00610056
14926KSTC STC20120601005509706/01/12 00:55:31  5-MIN KSTC 010655Z AUTO 00000KT 10SM CLR 06/06 A2997 980 96 200 000/00 RMK AO2
14926KSTC STC20120601010009706/01/12 01:00:31  5-MIN KSTC 010700Z AUTO 00000KT 10SM CLR 06/05 A2996 990 93 200 000/00 RMK AO2
14926KSTC STC20120601010509706/01/12 01:05:31  5-MIN KSTC 010705Z AUTO 00000KT 10SM CLR 06/05 A2996 990 96 100 000/00 RMK AO2
14926KSTC STC20120601011009706/01/12 01:10:31  5-MIN KSTC 010710Z AUTO 00000KT 10SM CLR 06/05 A2996 990 93 200 000/00 RMK AO2
14926KSTC STC20120601011509706/01/12 01:15:31  5-MIN KSTC 010715Z AUTO 00000KT 10SM CLR 06/04 A2996 990 92 100 000/00 RMK AO2
14926KSTC STC20120601012009706/01/12 01:20:31  5-MIN KSTC 010720Z AUTO 00000KT 10SM CLR 06/05 A2996 990 96 100 000/00 RMK AO2
14926KSTC STC20120601012509706/01/12 01:25:31  5-MIN KSTC 010725Z AUTO 00000KT 10SM CLR 06/05 A2996 990 96 100 000/00 RMK AO2
14926KSTC STC20120601013009706/01/12 01:30:31  5-MIN KSTC 010730Z AUTO 00000KT 10SM CLR 06/05 A2996 990 93 200 000/00 RMK AO2
14926KSTC STC20120601013509706/01/12 01:35:31  5-MIN KSTC 010735Z AUTO 00000KT 10SM CLR 06/04 A2996 990 92 100 000/00 RMK AO2
14926KSTC STC20120601014009706/01/12 01:40:31  5-MIN KSTC 010740Z AUTO 00000KT 10SM CLR 05/04 A2996 990 96 100 000/00 RMK AO2
14926KSTC STC20120601014509706/01/12 01:45:31  5-MIN KSTC 010745Z AUTO 00000KT 10SM CLR 05/04 A2996 990 96 100 000/00 RMK AO2
14926KSTC STC20120601015011406/01/12 01:50:31  5-MIN KSTC 010750Z AUTO 00000KT 10SM CLR 05/04 A2996 990 92 100 000/00 RMK AO2 SLP156 T00500039
14926KSTC STC20120601015509706/01/12 01:55:31  5-MIN KSTC 010755Z AUTO 00000KT 10SM CLR 05/04 A2996 990 92 100 000/00 RMK AO2
14926KSTC STC20120601020009706/01/12 02:00:31  5-MIN KSTC 010800Z AUTO 16003KT 10SM CLR 06/04 A2996 990 89 200 150/03 RMK AO2
14926KSTC STC20120601020509606/01/12 02:05:31  5-MIN KSTC 010805Z AUTO 16003KT 8SM CLR 05/04 A2996 990 96 100 160/03 RMK AO2
14926KSTC STC20120601021009606/01/12 02:10:31  5-MIN KSTC 010810Z AUTO 00000KT 8SM CLR 05/04 A2996 990 96 100 000/00 RMK AO2
14926KSTC STC20120601021509506/01/12 02:15:31  5-MIN KSTC 010815Z AUTO 00000KT 9SM CLR 04/04 A2995 1000 96 0 000/00 RMK AO2
14926KSTC STC20120601022009706/01/12 02:20:31  5-MIN KSTC 010820Z AUTO 00000KT 9SM CLR 05/04 A2995 1000 96 100 000/00 RMK AO2
14926KSTC STC20120601022509806/01/12 02:25:31  5-MIN KSTC 010825Z AUTO 00000KT 10SM CLR 05/04 A2995 1000 92 100 000/00 RMK AO2
14926KSTC STC20120601023009806/01/12 02:30:31  5-MIN KSTC 010830Z AUTO 00000KT 6SM BR CLR 04/04 A2995 1000 96 0 000/00 RMK AO2
14926KSTC STC20120601023509806/01/12 02:35:31  5-MIN KSTC 010835Z AUTO 00000KT 6SM BR CLR 04/04 A2995 1000 96 0 000/00 RMK AO2
14926KSTC STC20120601024009706/01/12 02:40:31  5-MIN KSTC 010840Z AUTO 00000KT 8SM CLR 05/04 A2995 1000 92 100 000/00 RMK AO2
14926KSTC STC20120601024509506/01/12 02:45:31  5-MIN KSTC 010845Z AUTO 00000KT 9SM CLR 04/03 A2995 1000 92 0 000/00 RMK AO2
14926KSTC STC20120601025011806/01/12 02:50:31  5-MIN KSTC 010850Z AUTO 06003KT 9SM CLR 04/03 A2995 1000 92 0 060/03 RMK AO2 SLP154 T00440033 58004
14926KSTC STC20120601025509506/01/12 02:55:31  5-MIN KSTC 010855Z AUTO 00000KT 9SM CLR 04/03 A2995 1000 92 0 000/00 RMK AO2
14926KSTC STC20120601030009506/01/12 03:00:31  5-MIN KSTC 010900Z AUTO 00000KT 8SM CLR 04/03 A2995 1000 92 0 000/00 RMK AO2
14926KSTC STC20120601030509506/01/12 03:05:31  5-MIN KSTC 010905Z AUTO 00000KT 7SM CLR 04/03 A2995 1000 92 0 000/00 RMK AO2
14926KSTC STC20120601031009706/01/12 03:10:31  5-MIN KSTC 010910Z AUTO 00000KT 7SM CLR 05/04 A2995 1000 92 100 000/00 RMK AO2
14926KSTC STC20120601031509506/01/12 03:15:31  5-MIN KSTC 010915Z AUTO 00000KT 8SM CLR 04/04 A2995 1000 96 0 000/00 RMK AO2
14926KSTC STC20120601032009706/01/12 03:20:31  5-MIN KSTC 010920Z AUTO 00000KT 8SM CLR 05/04 A2995 1000 96 100 000/00 RMK AO2
14926KSTC STC20120601032509806/01/12 03:25:31  5-MIN KSTC 010925Z AUTO 00000KT 4SM BR CLR 04/03 A2995 1000 96 0 000/00 RMK AO2
14926KSTC STC20120601033009806/01/12 03:30:31  5-MIN KSTC 010930Z AUTO 00000KT 3SM BR CLR 04/03 A2995 1000 92 0 000/00 RMK AO2
14926KSTC STC20120601033509806/01/12 03:35:31  5-MIN KSTC 010935Z AUTO 00000KT 5SM BR CLR 04/03 A2995 1000 92 0 000/00 RMK AO2
14926KSTC STC20120601034009506/01/12 03:40:31  5-MIN KSTC 010940Z AUTO 00000KT 8SM CLR 04/03 A2995 1000 92 0 000/00 RMK AO2
14926KSTC STC20120601034509506/01/12 03:45:31  5-MIN KSTC 010945Z AUTO 00000KT 9SM CLR 04/03 A2995 1000 92 0 000/00 RMK AO2
14926KSTC STC20120601035011306/01/12 03:50:31  5-MIN KSTC 010950Z AUTO 00000KT 10SM CLR 04/03 A2994 1000 92 0 000/00 RMK AO2 SLP151 T00440033
14926KSTC STC20120601035509506/01/12 03:55:31  5-MIN KSTC 010955Z AUTO 00000KT 8SM CLR 04/03 A2994 1000 96 0 000/00 RMK AO2
14926KSTC STC20120601040009506/01/12 04:00:31  5-MIN KSTC 011000Z AUTO 00000KT 7SM CLR 04/04 A2994 1010 96 0 000/00 RMK AO2
14926KSTC STC20120601040509806/01/12 04:05:31  5-MIN KSTC 011005Z AUTO 00000KT 6SM BR CLR 04/03 A2994 1010 96 0 000/00 RMK AO2
14926KSTC STC20120601041009806/01/12 04:10:31  5-MIN KSTC 011010Z AUTO 00000KT 5SM BR CLR 04/03 A2994 1010 92 0 000/00 RMK AO2
14926KSTC STC20120601041509806/01/12 04:15:31  5-MIN KSTC 011015Z AUTO 00000KT 6SM BR CLR 04/04 A2994 1010 96 0 000/00 RMK AO2
14926KSTC STC20120601042009506/01/12 04:20:31  5-MIN KSTC 011020Z AUTO 31003KT 7SM CLR 04/03 A2994 1010 96 0 310/03 RMK AO2
14926KSTC STC20120601042509506/01/12 04:25:31  5-MIN KSTC 011025Z AUTO 29003KT 9SM CLR 04/03 A2994 1010 96 0 290/03 RMK AO2
14926KSTC STC20120601043009606/01/12 04:30:31  5-MIN KSTC 011030Z AUTO 00000KT 10SM CLR 04/03 A2994 1010 96 0 000/00 RMK AO2
14926KSTC STC20120601043509606/01/12 04:35:31  5-MIN KSTC 011035Z AUTO 00000KT 10SM CLR 04/03 A2994 1010 92 0 000/00 RMK AO2
14926KSTC STC20120601044009506/01/12 04:40:31  5-MIN KSTC 011040Z AUTO 00000KT 9SM CLR 04/03 A2994 1000 92 0 000/00 RMK AO2
14926KSTC STC20120601044509506/01/12 04:45:31  5-MIN KSTC 011045Z AUTO 00000KT 9SM CLR 04/03 A2994 1010 92 0 000/00 RMK AO2
14926KSTC STC20120601045011506/01/12 04:50:31  5-MIN KSTC 011050Z AUTO 00000KT 8SM CLR 03/03 A2994 1010 96 -100 000/00 RMK AO2 SLP151 T00330028
14926KSTC STC20120601045509506/01/12 04:55:31  5-MIN KSTC 011055Z AUTO 00000KT 7SM CLR 04/03 A2994 1000 92 0 000/00 RMK AO2
14926KSTC STC20120601050009506/01/12 05:00:31  5-MIN KSTC 011100Z AUTO 00000KT 7SM CLR 04/04 A2994 1000 96 0 000/00 RMK AO2
14926KSTC STC20120601050509806/01/12 05:05:31  5-MIN KSTC 011105Z AUTO 00000KT 5SM BR CLR 04/03 A2994 1000 96 0 000/00 RMK AO2
14926KSTC STC20120601051009806/01/12 05:10:31  5-MIN KSTC 011110Z AUTO 00000KT 5SM BR CLR 04/03 A2994 1000 92 0 000/00 RMK AO2
14926KSTC STC20120601051509706/01/12 05:15:31  5-MIN KSTC 011115Z AUTO 00000KT 7SM CLR 05/04 A2994 1000 92 100 000/00 RMK AO2
14926KSTC STC20120601052009706/01/12 05:20:31  5-MIN KSTC 011120Z AUTO 00000KT 9SM CLR 05/04 A2994 1000 96 100 000/00 RMK AO2
14926KSTC STC20120601052509706/01/12 05:25:31  5-MIN KSTC 011125Z AUTO 00000KT 9SM CLR 06/05 A2994 1000 93 200 000/00 RMK AO2
14926KSTC STC20120601053009706/01/12 05:30:31  5-MIN KSTC 011130Z AUTO 00000KT 7SM CLR 06/05 A2995 1000 93 200 000/00 RMK AO2
14926KSTC STC20120601053509706/01/12 05:35:31  5-MIN KSTC 011135Z AUTO 00000KT 8SM CLR 07/06 A2995 1000 93 300 000/00 RMK AO2
14926KSTC STC20120601054009806/01/12 05:40:31  5-MIN KSTC 011140Z AUTO 00000KT 10SM CLR 07/06 A2995 1000 93 300 000/00 RMK AO2
14926KSTC STC20120601054509806/01/12 05:45:31  5-MIN KSTC 011145Z AUTO 00000KT 10SM CLR 07/06 A2995 1000 89 300 000/00 RMK AO2
14926KSTC STC20120601055013306/01/12 05:50:31  5-MIN KSTC 011150Z AUTO 00000KT 10SM CLR 08/06 A2995 1000 86 500 000/00 RMK AO2 SLP151 T00830061 10083 20033 56009
14926KSTC STC20120601055509306/01/12 05:55:31  5-MIN KSTC 011155Z 00000KT 10SM CLR 08/07 A2995 1000 89 500 000/00 RMK AO2
14926KSTC STC20120601060009306/01/12 06:00:31  5-MIN KSTC 011200Z 00000KT 10SM CLR 09/07 A2995 1000 86 500 000/00 RMK AO2
14926KSTC STC20120601060509306/01/12 06:05:31  5-MIN KSTC 011205Z 00000KT 10SM CLR 09/07 A2995 1000 83 600 000/00 RMK AO2
14926KSTC STC20120601061009306/01/12 06:10:31  5-MIN KSTC 011210Z 00000KT 10SM CLR 09/07 A2995 1000 86 600 000/00 RMK AO2
14926KSTC STC20120601061509306/01/12 06:15:31  5-MIN KSTC 011215Z 00000KT 10SM CLR 10/07 A2995 1000 83 700 000/00 RMK AO2
14926KSTC STC20120601062009306/01/12 06:20:31  5-MIN KSTC 011220Z 00000KT 10SM CLR 11/08 A2995 1000 83 700 000/00 RMK AO2
14926KSTC STC20120601062509306/01/12 06:25:31  5-MIN KSTC 011225Z 31003KT 10SM CLR 11/08 A2995 1000 83 700 310/03 RMK AO2
14926KSTC STC20120601063009306/01/12 06:30:31  5-MIN KSTC 011230Z 31003KT 10SM CLR 11/08 A2995 1000 80 800 310/03 RMK AO2
14926KSTC STC20120601063509306/01/12 06:35:31  5-MIN KSTC 011235Z 32003KT 10SM CLR 11/08 A2995 1000 80 800 320/03 RMK AO2
14926KSTC STC20120601064009306/01/12 06:40:31  5-MIN KSTC 011240Z 33004KT 10SM CLR 12/08 A2995 1000 77 900 320/04 RMK AO2
14926KSTC STC20120601064509306/01/12 06:45:31  5-MIN KSTC 011245Z 32004KT 10SM CLR 12/08 A2995 1000 77 900 320/04 RMK AO2
14926KSTC STC20120601065011006/01/12 06:50:31  5-MIN KSTC 011250Z 32003KT 10SM CLR 12/08 A2995 1000 74 900 320/03 RMK AO2 SLP150 T01220078
14926KSTC STC20120601065509406/01/12 06:55:31  5-MIN KSTC 011255Z 31003KT 10SM CLR 13/09 A2995 1000 77 1000 310/03 RMK AO2
14926KSTC STC20120601070009406/01/12 07:00:31  5-MIN KSTC 011300Z 33004KT 10SM CLR 13/08 A2995 1000 71 1100 330/04 RMK AO2
14926KSTC STC20120601070509406/01/12 07:05:31  5-MIN KSTC 011305Z 32003KT 10SM CLR 13/08 A2994 1000 71 1100 320/03 RMK AO2
14926KSTC STC20120601071009406/01/12 07:10:31  5-MIN KSTC 011310Z 33004KT 10SM CLR 14/08 A2994 1000 69 1100 320/04 RMK AO2
14926KSTC STC20120601071509406/01/12 07:15:31  5-MIN KSTC 011315Z 33003KT 10SM CLR 14/08 A2994 1010 64 1200 330/03 RMK AO2
14926KSTC STC20120601072009406/01/12 07:20:31  5-MIN KSTC 011320Z 32004KT 10SM CLR 15/08 A2994 1010 62 1300 320/04 RMK AO2
14926KSTC STC20120601072509406/01/12 07:25:31  5-MIN KSTC 011325Z 31006KT 10SM CLR 15/07 A2994 1010 59 1300 310/06 RMK AO2
14926KSTC STC20120601073009406/01/12 07:30:31  5-MIN KSTC 011330Z 30005KT 10SM CLR 15/07 A2994 1010 57 1300 300/05 RMK AO2
14926KSTC STC20120601073509406/01/12 07:35:31  5-MIN KSTC 011335Z 31004KT 10SM CLR 16/06 A2994 1010 53 1300 310/04 RMK AO2
14926KSTC STC20120601074009406/01/12 07:40:31  5-MIN KSTC 011340Z 32003KT 10SM CLR 16/06 A2994 1010 51 1400 320/03 RMK AO2
14926KSTC STC20120601074509406/01/12 07:45:31  5-MIN KSTC 011345Z 32004KT 10SM CLR 16/07 A2994 1010 53 1400 320/04 RMK AO2
14926KSTC STC20120601075011106/01/12 07:50:31  5-MIN KSTC 011350Z 32004KT 10SM CLR 17/06 A2994 1010 49 1500 320/04 RMK AO2 SLP147 T01670061
14926KSTC STC20120601075509406/01/12 07:55:31  5-MIN KSTC 011355Z 31004KT 10SM CLR 17/06 A2994 1010 49 1500 310/04 RMK AO2
14926KSTC STC20120601080009406/01/12 08:00:31  5-MIN KSTC 011400Z 32004KT 10SM CLR 17/06 A2994 1010 46 1500 320/04 RMK AO2
14926KSTC STC20120601080509406/01/12 08:05:31  5-MIN KSTC 011405Z 31003KT 10SM CLR 18/06 A2994 1010 46 1600 310/03 RMK AO2
14926KSTC STC20120601081009406/01/12 08:10:31  5-MIN KSTC 011410Z 30006KT 10SM CLR 18/06 A2994 1010 44 1600 300/06 RMK AO2
14926KSTC STC20120601081509406/01/12 08:15:31  5-MIN KSTC 011415Z 30005KT 10SM CLR 18/05 A2993 1010 42 1600 300/05 RMK AO2
14926KSTC STC20120601082009406/01/12 08:20:31  5-MIN KSTC 011420Z 31005KT 10SM CLR 18/04 A2993 1010 41 1600 310/05 RMK AO2
14926KSTC STC20120601082509406/01/12 08:25:31  5-MIN KSTC 011425Z 31005KT 10SM CLR 18/04 A2993 1020 41 1600 310/05 RMK AO2
14926KSTC STC20120601083009406/01/12 08:30:31  5-MIN KSTC 011430Z 30005KT 10SM CLR 18/04 A2993 1020 38 1700 290/05 RMK AO2
14926KSTC STC20120601083509406/01/12 08:35:31  5-MIN KSTC 011435Z 32005KT 10SM CLR 18/04 A2993 1020 39 1700 320/05 RMK AO2
14926KSTC STC20120601084009406/01/12 08:40:31  5-MIN KSTC 011440Z 32005KT 10SM CLR 18/03 A2993 1020 36 1700 310/05 RMK AO2
14926KSTC STC20120601084509406/01/12 08:45:31  5-MIN KSTC 011445Z VRB04KT 10SM CLR 19/04 A2993 1020 36 1800 VRB/04 RMK AO2
14926KSTC STC20120601085011706/01/12 08:50:31  5-MIN KSTC 011450Z 33004KT 10SM CLR 18/03 A2992 1020 36 1700 330/04 RMK AO2 SLP142 T01830033 55001
14926KSTC STC20120601085509406/01/12 08:55:31  5-MIN KSTC 011455Z 32004KT 10SM CLR 18/04 A2992 1030 39 1700 320/04 RMK AO2
14926KSTC STC20120601090009406/01/12 09:00:31  5-MIN KSTC 011500Z 31005KT 10SM CLR 18/03 A2992 1030 36 1700 310/05 RMK AO2
14926KSTC STC20120601090509406/01/12 09:05:31  5-MIN KSTC 011505Z 30004KT 10SM CLR 18/02 A2992 1030 34 1700 300/04 RMK AO2
14926KSTC STC20120601091009406/01/12 09:10:31  5-MIN KSTC 011510Z 00000KT 10SM CLR 19/02 A2992 1030 31 1800 000/00 RMK AO2
14926KSTC STC20120601091509406/01/12 09:15:31  5-MIN KSTC 011515Z 26004KT 10SM CLR 19/02 A2992 1030 32 1800 260/04 RMK AO2
14926KSTC STC20120601092009406/01/12 09:20:31  5-MIN KSTC 011520Z 00000KT 10SM CLR 19/01 A2992 1030 29 1800 000/00 RMK AO2
14926KSTC STC20120601092509406/01/12 09:25:31  5-MIN KSTC 011525Z VRB04KT 10SM CLR 19/02 A2992 1030 31 1800 VRB/04 RMK AO2
14926KSTC STC20120601093009406/01/12 09:30:31  5-MIN KSTC 011530Z 33005KT 10SM CLR 19/01 A2992 1030 29 1800 330/05 RMK AO2
14926KSTC STC20120601093509406/01/12 09:35:31  5-MIN KSTC 011535Z 34005KT 10SM CLR 19/01 A2992 1030 30 1800 340/05 RMK AO2
14926KSTC STC20120601094009406/01/12 09:40:31  5-MIN KSTC 011540Z 34005KT 10SM CLR 19/01 A2991 1030 29 1800 340/05 RMK AO2
14926KSTC STC20120601094509406/01/12 09:45:31  5-MIN KSTC 011545Z 00000KT 10SM CLR 19/00 A2991 1030 28 1800 000/00 RMK AO2
14926KSTC STC20120601095011106/01/12 09:50:31  5-MIN KSTC 011550Z 00000KT 10SM CLR 19/01 A2991 1030 28 1800 000/00 RMK AO2 SLP139 T01940006
14926KSTC STC20120601095509406/01/12 09:55:31  5-MIN KSTC 011555Z 00000KT 10SM CLR 19/01 A2991 1030 28 1800 000/00 RMK AO2
14926KSTC STC20120601100009506/01/12 10:00:31  5-MIN KSTC 011600Z 00000KT 10SM CLR 19/M01 A2991 1030 26 1800 000/00 RMK AO2
14926KSTC STC20120601100509406/01/12 10:05:31  5-MIN KSTC 011605Z VRB04KT 10SM CLR 20/01 A2991 1030 27 1900 VRB/04 RMK AO2
14926KSTC STC20120601101009406/01/12 10:10:31  5-MIN KSTC 011610Z 27006KT 10SM CLR 20/01 A2991 1030 28 1900 260/06 RMK AO2
14926KSTC STC20120601101509406/01/12 10:15:31  5-MIN KSTC 011615Z VRB03KT 10SM CLR 21/02 A2991 1030 29 2000 VRB/03 RMK AO2
14926KSTC STC20120601102009406/01/12 10:20:31  5-MIN KSTC 011620Z VRB05KT 10SM CLR 20/02 A2991 1040 29 1900 VRB/05 RMK AO2
14926KSTC STC20120601102509406/01/12 10:25:31  5-MIN KSTC 011625Z 00000KT 10SM CLR 19/01 A2991 1040 28 1800 000/00 RMK AO2
14926KSTC STC20120601103009406/01/12 10:30:31  5-MIN KSTC 011630Z 25004KT 10SM CLR 19/00 A2991 1040 27 1800 250/04 RMK AO2
14926KSTC STC20120601103509506/01/12 10:35:31  5-MIN KSTC 011635Z 00000KT 10SM CLR 19/M01 A2990 1040 25 1800 000/00 RMK AO2
14926KSTC STC20120601104009506/01/12 10:40:31  5-MIN KSTC 011640Z 00000KT 10SM CLR 20/M02 A2990 1040 23 1900 000/00 RMK AO2
14926KSTC STC20120601104509506/01/12 10:45:31  5-MIN KSTC 011645Z 22004KT 10SM CLR 20/M01 A2990 1040 25 1900 220/04 RMK AO2
14926KSTC STC20120601105011206/01/12 10:50:31  5-MIN KSTC 011650Z 00000KT 10SM CLR 19/M01 A2990 1040 25 1800 000/00 RMK AO2 SLP136 T01941011
14926KSTC STC20120601105509506/01/12 10:55:31  5-MIN KSTC 011655Z VRB03KT 10SM CLR 20/M02 A2990 1050 23 1900 VRB/03 RMK AO2
14926KSTC STC20120601110009506/01/12 11:00:31  5-MIN KSTC 011700Z 00000KT 10SM CLR 20/M01 A2990 1050 25 1900 000/00 RMK AO2
14926KSTC STC20120601110509506/01/12 11:05:31  5-MIN KSTC 011705Z VRB04KT 10SM CLR 21/M01 A2990 1050 24 2000 VRB/04 RMK AO2
14926KSTC STC20120601111009406/01/12 11:10:31  5-MIN KSTC 011710Z 28005KT 10SM CLR 20/01 A2990 1050 27 1900 280/05 RMK AO2
14926KSTC STC20120601111509406/01/12 11:15:31  5-MIN KSTC 011715Z VRB03KT 10SM CLR 20/01 A2989 1050 27 1900 VRB/03 RMK AO2
14926KSTC STC20120601112009406/01/12 11:20:31  5-MIN KSTC 011720Z 32004KT 10SM CLR 21/01 A2989 1050 26 2000 320/04 RMK AO2
14926KSTC STC20120601112509406/01/12 11:25:31  5-MIN KSTC 011725Z 00000KT 10SM CLR 21/00 A2989 1060 25 2000 000/00 RMK AO2
14926KSTC STC20120601113009406/01/12 11:30:31  5-MIN KSTC 011730Z VRB03KT 10SM CLR 21/01 A2989 1060 25 2100 VRB/03 RMK AO2
14926KSTC STC20120601113511006/01/12 11:35:31  5-MIN KSTC 011735Z 23009KT 210V270 10SM CLR 21/01 A2988 1060 27 2000 230/09 210V270 RMK AO2
14926KSTC STC20120601114009406/01/12 11:40:31  5-MIN KSTC 011740Z 21007KT 10SM CLR 20/01 A2988 1060 28 1900 210/07 RMK AO2
14926KSTC STC20120601114509406/01/12 11:45:31  5-MIN KSTC 011745Z VRB05KT 10SM CLR 19/01 A2988 1060 28 1900 VRB/05 RMK AO2
14926KSTC STC20120601115012906/01/12 11:50:31  5-MIN KSTC 011750Z 23007KT 10SM CLR 20/02 A2988 1060 29 1900 230/07 RMK AO2 SLP128 T02000017 10211 20083 58008
14926KSTC STC20120601115509406/01/12 11:55:31  5-MIN KSTC 011755Z VRB03KT 10SM CLR 19/01 A2988 1060 28 1900 VRB/03 RMK AO2
14926KSTC STC20120601120009406/01/12 12:00:31  5-MIN KSTC 011800Z 20005KT 10SM CLR 19/01 A2988 1070 28 1900 200/05 RMK AO2
14926KSTC STC20120601120509406/01/12 12:05:31  5-MIN KSTC 011805Z 25008KT 10SM CLR 21/02 A2988 1070 28 2000 250/08 RMK AO2
14926KSTC STC20120601121009406/01/12 12:10:31  5-MIN KSTC 011810Z 24005KT 10SM CLR 20/01 A2988 1070 28 1900 230/05 RMK AO2
14926KSTC STC20120601121509406/01/12 12:15:31  5-MIN KSTC 011815Z 25003KT 10SM CLR 21/01 A2987 1070 27 2000 250/03 RMK AO2
14926KSTC STC20120601122009406/01/12 12:20:31  5-MIN KSTC 011820Z 24007KT 10SM CLR 21/00 A2987 1070 25 2000 240/07 RMK AO2
14926KSTC STC20120601122509406/01/12 12:25:31  5-MIN KSTC 011825Z 23005KT 10SM CLR 21/00 A2987 1070 25 2000 230/05 RMK AO2
14926KSTC STC20120601123009406/01/12 12:30:31  5-MIN KSTC 011830Z 24006KT 10SM CLR 21/00 A2987 1070 25 2000 230/06 RMK AO2
14926KSTC STC20120601123509506/01/12 12:35:31  5-MIN KSTC 011835Z VRB05KT 10SM CLR 21/M01 A2987 1070 24 2000 VRB/05 RMK AO2
14926KSTC STC20120601124009506/01/12 12:40:31  5-MIN KSTC 011840Z 00000KT 10SM CLR 21/M01 A2987 1080 23 2000 000/00 RMK AO2
14926KSTC STC20120601124509506/01/12 12:45:31  5-MIN KSTC 011845Z VRB03KT 10SM CLR 21/M01 A2987 1080 23 2100 VRB/03 RMK AO2
14926KSTC STC20120601125011106/01/12 12:50:31  5-MIN KSTC 011850Z 34006KT 10SM CLR 22/01 A2986 1080 24 2100 330/06 RMK AO2 SLP122 T02170006
14926KSTC STC20120601125509406/01/12 12:55:31  5-MIN KSTC 011855Z VRB04KT 10SM CLR 21/01 A2986 1080 25 2100 VRB/04 RMK AO2
14926KSTC STC20120601130009406/01/12 13:00:31  5-MIN KSTC 011900Z VRB06KT 10SM CLR 22/02 A2986 1080 26 2100 VRB/06 RMK AO2
14926KSTC STC20120601130509406/01/12 13:05:31  5-MIN KSTC 011905Z VRB03KT 10SM CLR 21/01 A2986 1080 26 2100 VRB/03 RMK AO2
14926KSTC STC20120601131009406/01/12 13:10:31  5-MIN KSTC 011910Z 25008KT 10SM CLR 21/01 A2985 1090 25 2100 250/08 RMK AO2
14926KSTC STC20120601131509406/01/12 13:15:31  5-MIN KSTC 011915Z VRB05KT 10SM CLR 21/00 A2985 1090 24 2100 VRB/05 RMK AO2
14926KSTC STC20120601132009406/01/12 13:20:31  5-MIN KSTC 011920Z VRB03KT 10SM CLR 21/01 A2985 1090 26 2000 VRB/03 RMK AO2
14926KSTC STC20120601132509406/01/12 13:25:31  5-MIN KSTC 011925Z VRB03KT 10SM CLR 21/01 A2985 1090 25 2100 VRB/03 RMK AO2
14926KSTC STC20120601133009506/01/12 13:30:31  5-MIN KSTC 011930Z VRB03KT 10SM CLR 20/M01 A2985 1090 25 2000 VRB/03 RMK AO2
14926KSTC STC20120601133509406/01/12 13:35:31  5-MIN KSTC 011935Z 31006KT 10SM CLR 21/01 A2984 1100 25 2100 310/06 RMK AO2
14926KSTC STC20120601134009406/01/12 13:40:31  5-MIN KSTC 011940Z 00000KT 10SM CLR 21/01 A2984 1100 26 2000 000/00 RMK AO2
14926KSTC STC20120601134509406/01/12 13:45:31  5-MIN KSTC 011945Z 00000KT 10SM CLR 21/01 A2984 1100 25 2100 000/00 RMK AO2
14926KSTC STC20120601135011106/01/12 13:50:31  5-MIN KSTC 011950Z 23008KT 10SM CLR 21/00 A2984 1100 24 2100 230/08 RMK AO2 SLP114 T02110000
14926KSTC STC20120601135509506/01/12 13:55:31  5-MIN KSTC 011955Z 23008KT 10SM CLR 21/M01 A2984 1100 23 2100 230/08 RMK AO2
14926KSTC STC20120601140009506/01/12 14:00:31  5-MIN KSTC 012000Z VRB04KT 10SM CLR 21/M02 A2984 1100 21 2100 VRB/04 RMK AO2
14926KSTC STC20120601140509506/01/12 14:05:31  5-MIN KSTC 012005Z VRB04KT 10SM CLR 21/M01 A2984 1100 23 2000 VRB/04 RMK AO2
14926KSTC STC20120601141009506/01/12 14:10:31  5-MIN KSTC 012010Z 00000KT 10SM CLR 21/M02 A2983 1110 21 2100 000/00 RMK AO2
14926KSTC STC20120601141509506/01/12 14:15:31  5-MIN KSTC 012015Z VRB04KT 10SM CLR 21/M01 A2983 1110 23 2000 VRB/04 RMK AO2
14926KSTC STC20120601142009506/01/12 14:20:31  5-MIN KSTC 012020Z 00000KT 10SM CLR 21/M02 A2983 1110 21 2100 000/00 RMK AO2
14926KSTC STC20120601142509506/01/12 14:25:31  5-MIN KSTC 012025Z 00000KT 10SM CLR 22/M02 A2983 1110 20 2200 000/00 RMK AO2
14926KSTC STC20120601143009506/01/12 14:30:31  5-MIN KSTC 012030Z 00000KT 10SM CLR 21/M02 A2983 1110 21 2100 000/00 RMK AO2
14926KSTC STC20120601143509506/01/12 14:35:31  5-MIN KSTC 012035Z 00000KT 10SM CLR 22/M01 A2983 1110 21 2200 000/00 RMK AO2
14926KSTC STC20120601144009406/01/12 14:40:31  5-MIN KSTC 012040Z VRB03KT 10SM CLR 22/00 A2983 1110 23 2200 VRB/03 RMK AO2
14926KSTC STC20120601144509406/01/12 14:45:31  5-MIN KSTC 012045Z 24008KT 10SM CLR 22/00 A2982 1120 23 2200 240/08 RMK AO2
14926KSTC STC20120601145011806/01/12 14:50:31  5-MIN KSTC 012050Z 26004KT 10SM CLR 21/M01 A2982 1120 24 2100 260/04 RMK AO2 SLP108 T02061006 58014
14926KSTC STC20120601145509406/01/12 14:55:31  5-MIN KSTC 012055Z 23008KT 10SM CLR 22/01 A2982 1120 24 2200 230/08 RMK AO2
14926KSTC STC20120601150009406/01/12 15:00:31  5-MIN KSTC 012100Z 27008KT 10SM CLR 21/01 A2982 1120 25 2100 270/08 RMK AO2
14926KSTC STC20120601150509406/01/12 15:05:31  5-MIN KSTC 012105Z 00000KT 10SM CLR 21/00 A2982 1120 24 2100 000/00 RMK AO2
14926KSTC STC20120601151009406/01/12 15:10:31  5-MIN KSTC 012110Z 28007KT 10SM CLR 22/01 A2982 1120 25 2200 280/07 RMK AO2
14926KSTC STC20120601151509406/01/12 15:15:31  5-MIN KSTC 012115Z 27005KT 10SM CLR 22/03 A2981 1120 27 2300 270/05 RMK AO2
14926KSTC STC20120601152009406/01/12 15:20:31  5-MIN KSTC 012120Z 00000KT 10SM CLR 22/01 A2981 1130 25 2200 000/00 RMK AO2
14926KSTC STC20120601152509406/01/12 15:25:31  5-MIN KSTC 012125Z 00000KT 10SM CLR 22/01 A2981 1130 24 2200 000/00 RMK AO2
14926KSTC STC20120601153009406/01/12 15:30:31  5-MIN KSTC 012130Z 00000KT 10SM CLR 22/01 A2981 1130 23 2300 000/00 RMK AO2
14926KSTC STC20120601153511006/01/12 15:35:31  5-MIN KSTC 012135Z 26007KT 230V300 10SM CLR 22/02 A2981 1130 26 2200 260/07 230V300 RMK AO2
14926KSTC STC20120601154009406/01/12 15:40:31  5-MIN KSTC 012140Z VRB06KT 10SM CLR 22/02 A2981 1130 26 2200 VRB/06 RMK AO2
14926KSTC STC20120601154509406/01/12 15:45:31  5-MIN KSTC 012145Z 27006KT 10SM CLR 22/02 A2981 1130 27 2200 270/06 RMK AO2
14926KSTC STC20120601155011106/01/12 15:50:31  5-MIN KSTC 012150Z 28009KT 10SM CLR 22/03 A2981 1130 28 2300 280/09 RMK AO2 SLP103 T02220033
14926KSTC STC20120601155509406/01/12 15:55:31  5-MIN KSTC 012155Z 28009KT 10SM CLR 22/03 A2981 1130 29 2200 280/09 RMK AO2
14926KSTC STC20120601160009406/01/12 16:00:31  5-MIN KSTC 012200Z 28006KT 10SM CLR 22/03 A2980 1140 29 2200 280/06 RMK AO2
14926KSTC STC20120601160509406/01/12 16:05:31  5-MIN KSTC 012205Z 28006KT 10SM CLR 22/03 A2980 1140 28 2200 280/06 RMK AO2
14926KSTC STC20120601161009406/01/12 16:10:31  5-MIN KSTC 012210Z 26005KT 10SM CLR 21/03 A2980 1140 30 2100 260/05 RMK AO2
14926KSTC STC20120601161509406/01/12 16:15:31  5-MIN KSTC 012215Z VRB03KT 10SM CLR 22/03 A2980 1140 28 2200 VRB/03 RMK AO2
14926KSTC STC20120601162009406/01/12 16:20:31  5-MIN KSTC 012220Z 33003KT 10SM CLR 22/03 A2980 1140 28 2200 330/03 RMK AO2
14926KSTC STC20120601162509406/01/12 16:25:31  5-MIN KSTC 012225Z 00000KT 10SM CLR 21/02 A2980 1140 27 2200 000/00 RMK AO2
14926KSTC STC20120601163009406/01/12 16:30:31  5-MIN KSTC 012230Z 27005KT 10SM CLR 20/02 A2980 1140 30 2000 270/05 RMK AO2
14926KSTC STC20120601163509406/01/12 16:35:31  5-MIN KSTC 012235Z 23006KT 10SM CLR 21/03 A2980 1140 30 2100 230/06 RMK AO2
14926KSTC STC20120601164009406/01/12 16:40:31  5-MIN KSTC 012240Z 27005KT 10SM CLR 21/02 A2979 1140 28 2100 270/05 RMK AO2
14926KSTC STC20120601164509406/01/12 16:45:31  5-MIN KSTC 012245Z 26005KT 10SM CLR 22/02 A2979 1150 26 2200 260/05 RMK AO2
14926KSTC STC20120601165011106/01/12 16:50:31  5-MIN KSTC 012250Z 24006KT 10SM CLR 22/02 A2979 1150 26 2200 240/06 RMK AO2 SLP098 T02170017
14926KSTC STC20120601165511306/01/12 16:55:31  5-MIN KSTC 012255Z 22007KT 190V260 10SM FEW080 22/02 A2979 1150 26 2200 220/07 190V260 RMK AO2
14926KSTC STC20120601170009706/01/12 17:00:31  5-MIN KSTC 012300Z 26008KT 10SM SCT080 22/02 A2979 1150 26 2200 260/08 RMK AO2
14926KSTC STC20120601170509706/01/12 17:05:31  5-MIN KSTC 012305Z 25008KT 10SM SCT080 21/01 A2979 1150 26 2200 250/08 RMK AO2
14926KSTC STC20120601171009706/01/12 17:10:31  5-MIN KSTC 012310Z 25006KT 10SM FEW080 21/01 A2979 1150 26 2200 250/06 RMK AO2
14926KSTC STC20120601171509706/01/12 17:15:31  5-MIN KSTC 012315Z 26007KT 10SM FEW080 21/02 A2979 1150 28 2200 260/07 RMK AO2
14926KSTC STC20120601172009706/01/12 17:20:31  5-MIN KSTC 012320Z 27006KT 10SM FEW080 21/01 A2979 1150 26 2200 270/06 RMK AO2
14926KSTC STC20120601172509706/01/12 17:25:31  5-MIN KSTC 012325Z 24004KT 10SM FEW080 21/01 A2979 1150 25 2200 240/04 RMK AO2
14926KSTC STC20120601173009406/01/12 17:30:31  5-MIN KSTC 012330Z 00000KT 10SM CLR 21/02 A2979 1150 27 2200 000/00 RMK AO2
14926KSTC STC20120601173509406/01/12 17:35:31  5-MIN KSTC 012335Z VRB04KT 10SM CLR 22/02 A2979 1150 26 2200 VRB/04 RMK AO2
14926KSTC STC20120601174009406/01/12 17:40:31  5-MIN KSTC 012340Z 24005KT 10SM CLR 21/02 A2979 1150 28 2100 240/05 RMK AO2
14926KSTC STC20120601174509406/01/12 17:45:31  5-MIN KSTC 012345Z 24007KT 10SM CLR 21/02 A2979 1150 28 2100 240/07 RMK AO2
14926KSTC STC20120601175012906/01/12 17:50:31  5-MIN KSTC 012350Z 24004KT 10SM CLR 21/02 A2979 1150 28 2100 240/04 RMK AO2 SLP095 T02060017 10222 20194 56019
14926KSTC STC20120601175509406/01/12 17:55:31  5-MIN KSTC 012355Z 24005KT 10SM CLR 20/01 A2979 1150 28 2000 230/05 RMK AO2
14926KSTC STC20120601180009406/01/12 18:00:31  5-MIN KSTC 020000Z 26005KT 10SM CLR 21/01 A2978 1150 27 2100 260/05 RMK AO2
14926KSTC STC20120601180509406/01/12 18:05:31  5-MIN KSTC 020005Z 26005KT 10SM CLR 20/01 A2979 1150 28 2000 260/05 RMK AO2
14926KSTC STC20120601181009406/01/12 18:10:31  5-MIN KSTC 020010Z 25004KT 10SM CLR 19/02 A2979 1150 31 2000 250/04 RMK AO2
14926KSTC STC20120601181509406/01/12 18:15:31  5-MIN KSTC 020015Z 26005KT 10SM CLR 20/02 A2979 1150 30 2000 260/05 RMK AO2
14926KSTC STC20120601182009406/01/12 18:20:31  5-MIN KSTC 020020Z 26003KT 10SM CLR 20/01 A2979 1150 28 2000 250/03 RMK AO2
14926KSTC STC20120601182509406/01/12 18:25:31  5-MIN KSTC 020025Z 26004KT 10SM CLR 20/02 A2978 1150 29 2000 260/04 RMK AO2
14926KSTC STC20120601183009406/01/12 18:30:31  5-MIN KSTC 020030Z 24003KT 10SM CLR 20/01 A2978 1150 28 2000 240/03 RMK AO2
14926KSTC STC20120601183509406/01/12 18:35:31  5-MIN KSTC 020035Z 22003KT 10SM CLR 20/01 A2978 1150 28 2000 220/03 RMK AO2
14926KSTC STC20120601184009406/01/12 18:40:31  5-MIN KSTC 020040Z 23003KT 10SM CLR 19/03 A2978 1160 33 2000 230/03 RMK AO2
14926KSTC STC20120601184509406/01/12 18:45:31  5-MIN KSTC 020045Z 25003KT 10SM CLR 19/02 A2978 1160 31 2000 250/03 RMK AO2
14926KSTC STC20120601185011106/01/12 18:50:31  5-MIN KSTC 020050Z 00000KT 10SM CLR 20/02 A2978 1160 29 2000 000/00 RMK AO2 SLP092 T02000017
14926KSTC STC20120601185509406/01/12 18:55:31  5-MIN KSTC 020055Z 26003KT 10SM CLR 19/03 A2978 1160 33 2000 260/03 RMK AO2
14926KSTC STC20120601190009406/01/12 19:00:31  5-MIN KSTC 020100Z 27003KT 10SM CLR 19/03 A2978 1160 33 2000 270/03 RMK AO2
14926KSTC STC20120601190509406/01/12 19:05:31  5-MIN KSTC 020105Z 26004KT 10SM CLR 19/03 A2978 1160 35 1900 260/04 RMK AO2
14926KSTC STC20120601191009406/01/12 19:10:31  5-MIN KSTC 020110Z 24003KT 10SM CLR 18/04 A2978 1160 39 1900 240/03 RMK AO2
14926KSTC STC20120601191509406/01/12 19:15:31  5-MIN KSTC 020115Z 00000KT 10SM CLR 18/04 A2978 1160 39 1900 000/00 RMK AO2
14926KSTC STC20120601192009706/01/12 19:20:31  5-MIN KSTC 020120Z 23003KT 10SM FEW085 18/04 A2978 1160 38 1900 230/03 RMK AO2
14926KSTC STC20120601192509706/01/12 19:25:31  5-MIN KSTC 020125Z 23004KT 10SM SCT080 18/04 A2978 1160 39 1800 230/04 RMK AO2
14926KSTC STC20120601193009706/01/12 19:30:31  5-MIN KSTC 020130Z 22004KT 10SM SCT080 17/04 A2978 1160 41 1700 220/04 RMK AO2
14926KSTC STC20120601193509706/01/12 19:35:31  5-MIN KSTC 020135Z 23003KT 10SM SCT080 17/04 A2978 1160 42 1700 230/03 RMK AO2
14926KSTC STC20120601194009706/01/12 19:40:31  5-MIN KSTC 020140Z 00000KT 10SM SCT080 16/07 A2978 1160 57 1500 000/00 RMK AO2
14926KSTC STC20120601194509706/01/12 19:45:31  5-MIN KSTC 020145Z 00000KT 10SM SCT080 16/08 A2978 1150 62 1500 000/00 RMK AO2
14926KSTC STC20120601195011406/01/12 19:50:31  5-MIN KSTC 020150Z 00000KT 10SM SCT080 15/08 A2978 1150 62 1500 000/00 RMK AO2 SLP093 T01500078
14926KSTC STC20120601195509706/01/12 19:55:31  5-MIN KSTC 020155Z 00000KT 10SM FEW080 14/08 A2978 1150 64 1400 000/00 RMK AO2
14926KSTC STC20120601200009706/01/12 20:00:31  5-MIN KSTC 020200Z 00000KT 10SM FEW085 15/06 A2978 1160 55 1500 000/00 RMK AO2
14926KSTC STC20120601200509706/01/12 20:05:31  5-MIN KSTC 020205Z 00000KT 10SM FEW080 14/06 A2978 1160 57 1400 000/00 RMK AO2
14926KSTC STC20120601201009706/01/12 20:10:31  5-MIN KSTC 020210Z 00000KT 10SM SCT080 14/06 A2978 1160 59 1300 000/00 RMK AO2
14926KSTC STC20120601201509706/01/12 20:15:31  5-MIN KSTC 020215Z 00000KT 10SM FEW080 14/06 A2978 1160 59 1300 000/00 RMK AO2
14926KSTC STC20120601202009706/01/12 20:20:31  5-MIN KSTC 020220Z 00000KT 10SM FEW080 13/07 A2978 1160 64 1300 000/00 RMK AO2
14926KSTC STC20120601202509706/01/12 20:25:31  5-MIN KSTC 020225Z 00000KT 10SM FEW080 13/07 A2978 1150 64 1300 000/00 RMK AO2
14926KSTC STC20120601203009706/01/12 20:30:31  5-MIN KSTC 020230Z 00000KT 10SM FEW085 12/07 A2978 1150 68 1100 000/00 RMK AO2
14926KSTC STC20120601203509706/01/12 20:35:31  5-MIN KSTC 020235Z 00000KT 10SM SCT090 13/07 A2978 1150 66 1200 000/00 RMK AO2
14926KSTC STC20120601204009706/01/12 20:40:31  5-MIN KSTC 020240Z 00000KT 10SM FEW090 13/06 A2978 1150 63 1200 000/00 RMK AO2
14926KSTC STC20120601204509706/01/12 20:45:31  5-MIN KSTC 020245Z 00000KT 10SM FEW090 12/07 A2978 1150 68 1100 000/00 RMK AO2
14926KSTC STC20120601205012006/01/12 20:50:31  5-MIN KSTC 020250Z 00000KT 10SM SCT090 12/06 A2978 1150 66 1100 000/00 RMK AO2 SLP093 T01220061 56012
14926KSTC STC20120601205509706/01/12 20:55:31  5-MIN KSTC 020255Z 00000KT 10SM SCT090 12/06 A2978 1150 66 1100 000/00 RMK AO2
14926KSTC STC20120601210009706/01/12 21:00:31  5-MIN KSTC 020300Z 00000KT 10SM FEW090 12/06 A2978 1150 68 1100 000/00 RMK AO2
14926KSTC STC20120601210509706/01/12 21:05:31  5-MIN KSTC 020305Z 00000KT 10SM FEW090 12/06 A2978 1150 68 1100 000/00 RMK AO2
14926KSTC STC20120601211009706/01/12 21:10:31  5-MIN KSTC 020310Z 00000KT 10SM FEW090 12/07 A2978 1150 71 1100 000/00 RMK AO2
14926KSTC STC20120601211509606/01/12 21:15:31  5-MIN KSTC 020315Z 00000KT 10SM FEW090 11/07 A2978 1150 80 900 000/00 RMK AO2
14926KSTC STC20120601212009706/01/12 21:20:31  5-MIN KSTC 020320Z 00000KT 10SM FEW090 11/07 A2978 1150 77 1000 000/00 RMK AO2
14926KSTC STC20120601212509306/01/12 21:25:31  5-MIN KSTC 020325Z 00000KT 10SM CLR 11/07 A2978 1150 80 900 000/00 RMK AO2
14926KSTC STC20120601213009306/01/12 21:30:31  5-MIN KSTC 020330Z 00000KT 10SM CLR 11/07 A2978 1150 80 900 000/00 RMK AO2
14926KSTC STC20120601213509306/01/12 21:35:31  5-MIN KSTC 020335Z 00000KT 10SM CLR 10/07 A2978 1150 83 900 000/00 RMK AO2
14926KSTC STC20120601214009306/01/12 21:40:31  5-MIN KSTC 020340Z 00000KT 10SM CLR 11/07 A2978 1150 80 900 000/00 RMK AO2
14926KSTC STC20120601214509306/01/12 21:45:31  5-MIN KSTC 020345Z 00000KT 10SM CLR 11/07 A2978 1150 80 900 000/00 RMK AO2
14926KSTC STC20120601215011006/01/12 21:50:31  5-MIN KSTC 020350Z 00000KT 10SM CLR 11/07 A2978 1150 80 900 000/00 RMK AO2 SLP094 T01060072
14926KSTC STC20120601215509806/01/12 21:55:31  5-MIN KSTC 020355Z AUTO 00000KT 10SM CLR 11/07 A2978 1150 77 900 000/00 RMK AO2
14926KSTC STC20120601220009906/01/12 22:00:31  5-MIN KSTC 020400Z AUTO 00000KT 10SM CLR 12/07 A2978 1150 71 1100 000/00 RMK AO2
14926KSTC STC20120601220509806/01/12 22:05:31  5-MIN KSTC 020405Z AUTO 00000KT 10SM CLR 11/07 A2978 1150 80 900 000/00 RMK AO2
14926KSTC STC20120601221009806/01/12 22:10:31  5-MIN KSTC 020410Z AUTO 00000KT 10SM CLR 11/07 A2978 1150 80 900 000/00 RMK AO2
14926KSTC STC20120601221509806/01/12 22:15:31  5-MIN KSTC 020415Z AUTO 00000KT 10SM CLR 11/07 A2978 1160 80 900 000/00 RMK AO2
14926KSTC STC20120601222009806/01/12 22:20:31  5-MIN KSTC 020420Z AUTO 00000KT 10SM CLR 11/07 A2978 1160 80 900 000/00 RMK AO2
14926KSTC STC20120601222509806/01/12 22:25:31  5-MIN KSTC 020425Z AUTO 00000KT 10SM CLR 10/07 A2978 1160 83 900 000/00 RMK AO2
14926KSTC STC20120601223009806/01/12 22:30:31  5-MIN KSTC 020430Z AUTO 00000KT 10SM CLR 10/07 A2978 1160 83 900 000/00 RMK AO2
14926KSTC STC20120601223509806/01/12 22:35:31  5-MIN KSTC 020435Z AUTO 00000KT 10SM CLR 10/07 A2978 1160 80 900 000/00 RMK AO2
14926KSTC STC20120601224009806/01/12 22:40:31  5-MIN KSTC 020440Z AUTO 00000KT 10SM CLR 11/07 A2978 1160 80 900 000/00 RMK AO2
14926KSTC STC20120601224509806/01/12 22:45:31  5-MIN KSTC 020445Z AUTO 00000KT 10SM CLR 11/07 A2978 1160 80 900 000/00 RMK AO2
14926KSTC STC20120601225011506/01/12 22:50:31  5-MIN KSTC 020450Z AUTO 00000KT 10SM CLR 11/08 A2978 1160 83 900 000/00 RMK AO2 SLP093 T01060078
14926KSTC STC20120601225509806/01/12 22:55:31  5-MIN KSTC 020455Z AUTO 00000KT 10SM CLR 11/08 A2978 1160 83 900 000/00 RMK AO2
14926KSTC STC20120601230009806/01/12 23:00:31  5-MIN KSTC 020500Z AUTO 00000KT 10SM CLR 11/08 A2978 1160 83 900 000/00 RMK AO2
14926KSTC STC20120601230509906/01/12 23:05:31  5-MIN KSTC 020505Z AUTO 00000KT 10SM CLR 11/08 A2978 1160 83 1000 000/00 RMK AO2
14926KSTC STC20120601231009906/01/12 23:10:31  5-MIN KSTC 020510Z AUTO 00000KT 10SM CLR 11/08 A2978 1160 83 1000 000/00 RMK AO2
14926KSTC STC20120601231509906/01/12 23:15:31  5-MIN KSTC 020515Z AUTO 00000KT 10SM CLR 11/08 A2978 1160 83 1000 000/00 RMK AO2
14926KSTC STC20120601232009806/01/12 23:20:31  5-MIN KSTC 020520Z AUTO 00000KT 10SM CLR 11/08 A2978 1160 83 900 000/00 RMK AO2
14926KSTC STC20120601232509806/01/12 23:25:31  5-MIN KSTC 020525Z AUTO 00000KT 10SM CLR 11/08 A2977 1160 83 900 000/00 RMK AO2
14926KSTC STC20120601233009806/01/12 23:30:31  5-MIN KSTC 020530Z AUTO 00000KT 10SM CLR 11/08 A2977 1160 83 900 000/00 RMK AO2
14926KSTC STC20120601233509906/01/12 23:35:31  5-MIN KSTC 020535Z AUTO 00000KT 10SM CLR 11/08 A2977 1160 80 1000 000/00 RMK AO2
14926KSTC STC20120601234009806/01/12 23:40:31  5-MIN KSTC 020540Z AUTO 00000KT 10SM CLR 11/08 A2977 1160 83 900 000/00 RMK AO2
14926KSTC STC20120601234509806/01/12 23:45:31  5-MIN KSTC 020545Z AUTO 00000KT 10SM CLR 11/08 A2977 1170 83 900 000/00 RMK AO2
14926KSTC STC20120601235014406/01/12 23:50:31  5-MIN KSTC 020550Z AUTO 00000KT 10SM CLR 11/08 A2977 1170 83 1000 000/00 RMK AO2 SLP088 T01060078 10206 20100 402220033 55001
14926KSTC STC20120601235509906/01/12 23:55:31  5-MIN KSTC 020555Z AUTO 00000KT 10SM CLR 11/08 A2977 1170 83 1000 000/00 RMK AO2
14926KSTC STC20120602000009906/02/12 00:00:32  5-MIN KSTC 020600Z AUTO 00000KT 10SM CLR 11/08 A2977 1170 83 1000 000/00 RMK AO2
14926KSTC STC20120602000509906/02/12 00:05:31  5-MIN KSTC 020605Z AUTO 00000KT 10SM CLR 11/08 A2977 1170 83 1000 000/00 RMK AO2
14926KSTC STC20120602001009906/02/12 00:10:31  5-MIN KSTC 020610Z AUTO 00000KT 10SM CLR 11/08 A2977 1170 80 1000 000/00 RMK AO2
14926KSTC STC20120602001509906/02/12 00:15:31  5-MIN KSTC 020615Z AUTO 00000KT 10SM CLR 11/08 A2977 1170 83 1000 000/00 RMK AO2
14926KSTC STC20120602002009906/02/12 00:20:31  5-MIN KSTC 020620Z AUTO 00000KT 10SM CLR 11/08 A2977 1170 83 1000 000/00 RMK AO2
14926KSTC STC20120602002509906/02/12 00:25:31  5-MIN KSTC 020625Z AUTO 00000KT 10SM CLR 11/07 A2977 1170 80 1000 000/00 RMK AO2
14926KSTC STC20120602003009906/02/12 00:30:31  5-MIN KSTC 020630Z AUTO 00000KT 10SM CLR 11/08 A2977 1170 83 1000 000/00 RMK AO2
14926KSTC STC20120602003509806/02/12 00:35:31  5-MIN KSTC 020635Z AUTO 00000KT 10SM CLR 10/08 A2977 1170 86 900 000/00 RMK AO2
14926KSTC STC20120602004009906/02/12 00:40:31  5-MIN KSTC 020640Z AUTO 00000KT 10SM CLR 11/08 A2976 1170 83 1000 000/00 RMK AO2
14926KSTC STC20120602004509806/02/12 00:45:31  5-MIN KSTC 020645Z AUTO 00000KT 10SM CLR 10/08 A2976 1170 86 900 000/00 RMK AO2
14926KSTC STC20120602005011606/02/12 00:50:31  5-MIN KSTC 020650Z AUTO 00000KT 10SM CLR 11/08 A2976 1170 86 1000 000/00 RMK AO2 SLP086 T01060083
14926KSTC STC20120602005509906/02/12 00:55:31  5-MIN KSTC 020655Z AUTO 00000KT 10SM CLR 11/08 A2976 1170 83 1000 000/00 RMK AO2
14926KSTC STC20120602010009906/02/12 01:00:31  5-MIN KSTC 020700Z AUTO 00000KT 10SM CLR 11/08 A2976 1180 83 1000 000/00 RMK AO2
14926KSTC STC20120602010509906/02/12 01:05:31  5-MIN KSTC 020705Z AUTO 00000KT 10SM CLR 11/08 A2976 1180 86 1000 000/00 RMK AO2
14926KSTC STC20120602011009906/02/12 01:10:31  5-MIN KSTC 020710Z AUTO 00000KT 10SM CLR 11/08 A2976 1180 83 1000 000/00 RMK AO2
14926KSTC STC20120602011509906/02/12 01:15:31  5-MIN KSTC 020715Z AUTO 00000KT 10SM CLR 11/08 A2976 1180 83 1000 000/00 RMK AO2
14926KSTC STC20120602012009906/02/12 01:20:31  5-MIN KSTC 020720Z AUTO 00000KT 10SM CLR 11/08 A2976 1180 83 1000 000/00 RMK AO2
14926KSTC STC20120602012509906/02/12 01:25:31  5-MIN KSTC 020725Z AUTO 00000KT 10SM CLR 11/08 A2976 1180 83 1000 000/00 RMK AO2
14926KSTC STC20120602013009806/02/12 01:30:31  5-MIN KSTC 020730Z AUTO 00000KT 10SM CLR 10/08 A2975 1180 86 900 000/00 RMK AO2
14926KSTC STC20120602013509806/02/12 01:35:31  5-MIN KSTC 020735Z AUTO 00000KT 10SM CLR 10/08 A2976 1180 86 900 000/00 RMK AO2
14926KSTC STC20120602014009906/02/12 01:40:31  5-MIN KSTC 020740Z AUTO 00000KT 10SM CLR 11/08 A2975 1180 83 1000 000/00 RMK AO2
14926KSTC STC20120602014509806/02/12 01:45:31  5-MIN KSTC 020745Z AUTO 00000KT 10SM CLR 10/08 A2975 1180 86 900 000/00 RMK AO2
14926KSTC STC20120602015011506/02/12 01:50:31  5-MIN KSTC 020750Z AUTO 00000KT 10SM CLR 10/07 A2976 1180 83 900 000/00 RMK AO2 SLP083 T01000072
14926KSTC STC20120602015509806/02/12 01:55:31  5-MIN KSTC 020755Z AUTO 00000KT 10SM CLR 10/07 A2976 1180 83 900 000/00 RMK AO2
14926KSTC STC20120602020009806/02/12 02:00:31  5-MIN KSTC 020800Z AUTO 00000KT 10SM CLR 10/07 A2976 1180 83 900 000/00 RMK AO2
14926KSTC STC20120602020509806/02/12 02:05:31  5-MIN KSTC 020805Z AUTO 00000KT 10SM CLR 09/07 A2975 1180 86 800 000/00 RMK AO2
14926KSTC STC20120602021009806/02/12 02:10:31  5-MIN KSTC 020810Z AUTO 33003KT 10SM CLR 09/07 A2975 1180 86 800 330/03 RMK AO2
14926KSTC STC20120602021509806/02/12 02:15:31  5-MIN KSTC 020815Z AUTO 33003KT 10SM CLR 09/07 A2975 1180 89 800 330/03 RMK AO2
14926KSTC STC20120602022009806/02/12 02:20:31  5-MIN KSTC 020820Z AUTO 33003KT 10SM CLR 10/07 A2975 1180 83 900 330/03 RMK AO2
14926KSTC STC20120602022509806/02/12 02:25:31  5-MIN KSTC 020825Z AUTO 00000KT 10SM CLR 10/07 A2975 1180 83 900 000/00 RMK AO2
14926KSTC STC20120602023009806/02/12 02:30:31  5-MIN KSTC 020830Z AUTO 34003KT 10SM CLR 09/07 A2975 1180 86 800 330/03 RMK AO2
14926KSTC STC20120602023509806/02/12 02:35:31  5-MIN KSTC 020835Z AUTO 00000KT 10SM CLR 09/07 A2975 1180 86 800 000/00 RMK AO2
14926KSTC STC20120602024009806/02/12 02:40:31  5-MIN KSTC 020840Z AUTO 00000KT 10SM CLR 09/07 A2975 1180 83 800 000/00 RMK AO2
14926KSTC STC20120602024509806/02/12 02:45:31  5-MIN KSTC 020845Z AUTO 33003KT 10SM CLR 10/07 A2975 1180 83 900 320/03 RMK AO2
14926KSTC STC20120602025012106/02/12 02:50:31  5-MIN KSTC 020850Z AUTO 33003KT 10SM CLR 10/07 A2975 1180 83 900 330/03 RMK AO2 SLP082 T01000072 58005
14926KSTC STC20120602025509806/02/12 02:55:31  5-MIN KSTC 020855Z AUTO 34003KT 10SM CLR 10/07 A2975 1190 83 900 330/03 RMK AO2
14926KSTC STC20120602030009806/02/12 03:00:31  5-MIN KSTC 020900Z AUTO 34003KT 10SM CLR 09/07 A2975 1180 86 800 340/03 RMK AO2
14926KSTC STC20120602030509806/02/12 03:05:31  5-MIN KSTC 020905Z AUTO 34003KT 10SM CLR 10/08 A2975 1180 86 900 340/03 RMK AO2
14926KSTC STC20120602031009806/02/12 03:10:31  5-MIN KSTC 020910Z AUTO 34003KT 10SM CLR 10/08 A2975 1180 86 900 330/03 RMK AO2
14926KSTC STC20120602031509806/02/12 03:15:31  5-MIN KSTC 020915Z AUTO 32003KT 10SM CLR 10/08 A2975 1180 86 900 320/03 RMK AO2
14926KSTC STC20120602032009806/02/12 03:20:31  5-MIN KSTC 020920Z AUTO 28003KT 10SM CLR 10/07 A2975 1180 83 900 280/03 RMK AO2
14926KSTC STC20120602032509806/02/12 03:25:31  5-MIN KSTC 020925Z AUTO 26003KT 10SM CLR 09/07 A2975 1180 86 800 260/03 RMK AO2
14926KSTC STC20120602033009806/02/12 03:30:31  5-MIN KSTC 020930Z AUTO 24004KT 10SM CLR 09/07 A2975 1180 86 800 240/04 RMK AO2
14926KSTC STC20120602033509806/02/12 03:35:31  5-MIN KSTC 020935Z AUTO 24005KT 10SM CLR 09/07 A2975 1180 86 800 240/05 RMK AO2
14926KSTC STC20120602034009806/02/12 03:40:31  5-MIN KSTC 020940Z AUTO 24005KT 10SM CLR 09/07 A2975 1180 86 800 240/05 RMK AO2
14926KSTC STC20120602034509806/02/12 03:45:31  5-MIN KSTC 020945Z AUTO 24004KT 10SM CLR 09/08 A2975 1180 89 800 240/04 RMK AO2
14926KSTC STC20120602035011506/02/12 03:50:31  5-MIN KSTC 020950Z AUTO 26004KT 10SM CLR 09/07 A2975 1190 86 800 260/04 RMK AO2 SLP081 T00940072
14926KSTC STC20120602035509806/02/12 03:55:31  5-MIN KSTC 020955Z AUTO 28004KT 10SM CLR 09/07 A2975 1190 89 800 270/04 RMK AO2
14926KSTC STC20120602040009806/02/12 04:00:31  5-MIN KSTC 021000Z AUTO 29003KT 10SM CLR 09/07 A2975 1190 89 800 290/03 RMK AO2
14926KSTC STC20120602040509806/02/12 04:05:31  5-MIN KSTC 021005Z AUTO 31003KT 10SM CLR 09/07 A2975 1180 86 800 300/03 RMK AO2
14926KSTC STC20120602041009806/02/12 04:10:31  5-MIN KSTC 021010Z AUTO 30003KT 10SM CLR 09/07 A2975 1180 86 800 300/03 RMK AO2
14926KSTC STC20120602041509806/02/12 04:15:31  5-MIN KSTC 021015Z AUTO 00000KT 10SM CLR 09/07 A2975 1180 89 800 000/00 RMK AO2
14926KSTC STC20120602042009806/02/12 04:20:31  5-MIN KSTC 021020Z AUTO 00000KT 10SM CLR 09/07 A2975 1180 89 800 000/00 RMK AO2
14926KSTC STC20120602042509806/02/12 04:25:31  5-MIN KSTC 021025Z AUTO 32003KT 10SM CLR 09/08 A2975 1180 89 800 320/03 RMK AO2
14926KSTC STC20120602043009806/02/12 04:30:31  5-MIN KSTC 021030Z AUTO 00000KT 10SM CLR 09/08 A2975 1180 93 800 000/00 RMK AO2
14926KSTC STC20120602043509806/02/12 04:35:31  5-MIN KSTC 021035Z AUTO 33003KT 10SM CLR 08/07 A2975 1180 93 700 330/03 RMK AO2
14926KSTC STC20120602044009806/02/12 04:40:31  5-MIN KSTC 021040Z AUTO 32003KT 10SM CLR 09/07 A2975 1180 89 800 320/03 RMK AO2
14926KSTC STC20120602044509806/02/12 04:45:31  5-MIN KSTC 021045Z AUTO 32004KT 10SM CLR 09/07 A2976 1180 89 800 320/04 RMK AO2
14926KSTC STC20120602045011506/02/12 04:50:31  5-MIN KSTC 021050Z AUTO 32004KT 10SM CLR 09/08 A2976 1180 89 800 310/04 RMK AO2 SLP085 T00940078
14926KSTC STC20120602045509806/02/12 04:55:31  5-MIN KSTC 021055Z AUTO 32004KT 10SM CLR 09/07 A2976 1180 89 800 320/04 RMK AO2
14926KSTC STC20120602050009806/02/12 05:00:31  5-MIN KSTC 021100Z AUTO 31003KT 10SM CLR 09/07 A2976 1180 86 800 310/03 RMK AO2
14926KSTC STC20120602050509806/02/12 05:05:31  5-MIN KSTC 021105Z AUTO 32003KT 10SM CLR 09/08 A2976 1170 89 800 320/03 RMK AO2
14926KSTC STC20120602051009806/02/12 05:10:31  5-MIN KSTC 021110Z AUTO 32003KT 10SM CLR 10/08 A2976 1170 86 900 320/03 RMK AO2
14926KSTC STC20120602051509806/02/12 05:15:31  5-MIN KSTC 021115Z AUTO 32003KT 10SM CLR 10/08 A2976 1170 86 900 320/03 RMK AO2
14926KSTC STC20120602052009806/02/12 05:20:31  5-MIN KSTC 021120Z AUTO 32003KT 10SM CLR 10/08 A2976 1170 86 900 320/03 RMK AO2
14926KSTC STC20120602052509806/02/12 05:25:31  5-MIN KSTC 021125Z AUTO 32003KT 10SM CLR 10/08 A2977 1170 89 900 320/03 RMK AO2
14926KSTC STC20120602053009806/02/12 05:30:31  5-MIN KSTC 021130Z AUTO 32004KT 10SM CLR 10/08 A2977 1170 89 900 320/04 RMK AO2
14926KSTC STC20120602053509906/02/12 05:35:31  5-MIN KSTC 021135Z AUTO 32004KT 10SM CLR 11/08 A2977 1170 86 1000 320/04 RMK AO2
14926KSTC STC20120602054009906/02/12 05:40:31  5-MIN KSTC 021140Z AUTO 32005KT 10SM CLR 11/09 A2977 1170 89 1000 320/05 RMK AO2
14926KSTC STC20120602054509906/02/12 05:45:31  5-MIN KSTC 021145Z AUTO 32005KT 10SM CLR 11/09 A2977 1170 86 1000 320/05 RMK AO2
14926KSTC STC20120602055012906/02/12 05:50:31  5-MIN KSTC 021150Z 32005KT 10SM CLR 11/09 A2977 1170 86 1000 320/05 RMK AO2 SLP088 T01110089 10111 20083 56006
14926KSTC STC20120602055509406/02/12 05:55:31  5-MIN KSTC 021155Z 32005KT 10SM CLR 11/09 A2977 1170 89 1000 320/05 RMK AO2
14926KSTC STC20120602060009406/02/12 06:00:31  5-MIN KSTC 021200Z 32004KT 10SM CLR 12/09 A2977 1170 86 1100 320/04 RMK AO2
14926KSTC STC20120602060509406/02/12 06:05:31  5-MIN KSTC 021205Z 33004KT 10SM CLR 12/09 A2977 1170 86 1100 330/04 RMK AO2
14926KSTC STC20120602061009406/02/12 06:10:31  5-MIN KSTC 021210Z 33004KT 10SM CLR 12/10 A2977 1170 86 1200 330/04 RMK AO2
14926KSTC STC20120602061509406/02/12 06:15:31  5-MIN KSTC 021215Z 33005KT 10SM CLR 12/10 A2977 1170 86 1100 330/05 RMK AO2
14926KSTC STC20120602062009406/02/12 06:20:31  5-MIN KSTC 021220Z 34004KT 10SM CLR 13/10 A2977 1160 83 1200 340/04 RMK AO2
14926KSTC STC20120602062509406/02/12 06:25:31  5-MIN KSTC 021225Z 34004KT 10SM CLR 13/10 A2977 1160 83 1200 340/04 RMK AO2
14926KSTC STC20120602063009406/02/12 06:30:31  5-MIN KSTC 021230Z 33005KT 10SM CLR 13/10 A2977 1160 83 1200 330/05 RMK AO2
14926KSTC STC20120602063509406/02/12 06:35:31  5-MIN KSTC 021235Z 33004KT 10SM CLR 13/10 A2977 1160 80 1300 330/04 RMK AO2
14926KSTC STC20120602064009406/02/12 06:40:31  5-MIN KSTC 021240Z 33006KT 10SM CLR 13/10 A2978 1160 80 1300 330/06 RMK AO2
14926KSTC STC20120602064509406/02/12 06:45:31  5-MIN KSTC 021245Z 33006KT 10SM CLR 13/10 A2978 1160 80 1300 330/06 RMK AO2
14926KSTC STC20120602065011106/02/12 06:50:31  5-MIN KSTC 021250Z 33006KT 10SM CLR 14/10 A2978 1160 77 1300 330/06 RMK AO2 SLP090 T01390100
14926KSTC STC20120602065509406/02/12 06:55:31  5-MIN KSTC 021255Z 32005KT 10SM CLR 14/10 A2978 1160 77 1300 320/05 RMK AO2
14926KSTC STC20120602070009406/02/12 07:00:31  5-MIN KSTC 021300Z 33005KT 10SM CLR 14/10 A2978 1160 77 1300 330/05 RMK AO2
14926KSTC STC20120602070509406/02/12 07:05:31  5-MIN KSTC 021305Z 33005KT 10SM CLR 14/09 A2978 1160 72 1400 330/05 RMK AO2
14926KSTC STC20120602071009406/02/12 07:10:31  5-MIN KSTC 021310Z 34005KT 10SM CLR 15/10 A2978 1160 72 1500 340/05 RMK AO2
14926KSTC STC20120602071509406/02/12 07:15:31  5-MIN KSTC 021315Z 33005KT 10SM CLR 15/09 A2978 1160 69 1500 330/05 RMK AO2
14926KSTC STC20120602072009406/02/12 07:20:31  5-MIN KSTC 021320Z 33004KT 10SM CLR 15/10 A2978 1160 72 1500 330/04 RMK AO2
14926KSTC STC20120602072509406/02/12 07:25:31  5-MIN KSTC 021325Z 34004KT 10SM CLR 16/10 A2978 1150 69 1500 340/04 RMK AO2
14926KSTC STC20120602073009406/02/12 07:30:31  5-MIN KSTC 021330Z 33004KT 10SM CLR 16/09 A2978 1150 64 1600 330/04 RMK AO2
14926KSTC STC20120602073509406/02/12 07:35:31  5-MIN KSTC 021335Z 35003KT 10SM CLR 16/10 A2978 1150 67 1600 350/03 RMK AO2
14926KSTC STC20120602074009406/02/12 07:40:31  5-MIN KSTC 021340Z 32005KT 10SM CLR 17/10 A2979 1150 64 1700 320/05 RMK AO2
14926KSTC STC20120602074509406/02/12 07:45:31  5-MIN KSTC 021345Z 35005KT 10SM CLR 17/10 A2979 1150 64 1700 340/05 RMK AO2
14926KSTC STC20120602075011106/02/12 07:50:31  5-MIN KSTC 021350Z VRB04KT 10SM CLR 17/09 A2979 1150 62 1700 VRB/04 RMK AO2 SLP094 T01670094
14926KSTC STC20120602075509406/02/12 07:55:31  5-MIN KSTC 021355Z 32005KT 10SM CLR 17/10 A2979 1150 62 1700 320/05 RMK AO2
14926KSTC STC20120602080009406/02/12 08:00:31  5-MIN KSTC 021400Z 33006KT 10SM CLR 17/09 A2979 1150 62 1700 330/06 RMK AO2
14926KSTC STC20120602080509406/02/12 08:05:31  5-MIN KSTC 021405Z 33005KT 10SM CLR 17/09 A2979 1150 60 1700 330/05 RMK AO2
14926KSTC STC20120602081009406/02/12 08:10:31  5-MIN KSTC 021410Z 34006KT 10SM CLR 17/09 A2979 1150 60 1700 340/06 RMK AO2
14926KSTC STC20120602081509406/02/12 08:15:31  5-MIN KSTC 021415Z 33006KT 10SM CLR 18/10 A2979 1150 60 1800 330/06 RMK AO2
14926KSTC STC20120602082009406/02/12 08:20:31  5-MIN KSTC 021420Z 35005KT 10SM CLR 18/09 A2979 1150 58 1800 350/05 RMK AO2
14926KSTC STC20120602082509406/02/12 08:25:31  5-MIN KSTC 021425Z 34005KT 10SM CLR 18/09 A2979 1150 58 1800 340/05 RMK AO2
14926KSTC STC20120602083009406/02/12 08:30:31  5-MIN KSTC 021430Z 33005KT 10SM CLR 18/10 A2979 1150 58 1800 330/05 RMK AO2
14926KSTC STC20120602083509406/02/12 08:35:31  5-MIN KSTC 021435Z VRB04KT 10SM CLR 18/09 A2979 1150 56 1800 VRB/04 RMK AO2
14926KSTC STC20120602084009406/02/12 08:40:31  5-MIN KSTC 021440Z 00000KT 10SM CLR 18/09 A2979 1150 56 1800 000/00 RMK AO2
14926KSTC STC20120602084509406/02/12 08:45:31  5-MIN KSTC 021445Z 33003KT 10SM CLR 18/09 A2979 1150 56 1800 330/03 RMK AO2
14926KSTC STC20120602085011706/02/12 08:50:31  5-MIN KSTC 021450Z VRB03KT 10SM CLR 19/09 A2979 1150 54 1900 VRB/03 RMK AO2 SLP094 T01890094 53006
14926KSTC STC20120602085509406/02/12 08:55:31  5-MIN KSTC 021455Z 34005KT 10SM CLR 19/09 A2979 1150 54 1900 340/05 RMK AO2
14926KSTC STC20120602090009406/02/12 09:00:31  5-MIN KSTC 021500Z 36004KT 10SM CLR 19/09 A2978 1150 54 1900 360/04 RMK AO2
14926KSTC STC20120602090509406/02/12 09:05:31  5-MIN KSTC 021505Z 35005KT 10SM CLR 19/09 A2978 1150 52 2000 350/05 RMK AO2
14926KSTC STC20120602091009406/02/12 09:10:31  5-MIN KSTC 021510Z 03004KT 10SM CLR 19/09 A2978 1150 50 2000 030/04 RMK AO2
14926KSTC STC20120602091509406/02/12 09:15:31  5-MIN KSTC 021515Z 33005KT 10SM CLR 20/09 A2978 1150 50 2000 330/05 RMK AO2
14926KSTC STC20120602092009406/02/12 09:20:31  5-MIN KSTC 021520Z 32005KT 10SM CLR 20/09 A2978 1150 48 2000 320/05 RMK AO2
14926KSTC STC20120602092509406/02/12 09:25:31  5-MIN KSTC 021525Z 31005KT 10SM CLR 19/09 A2978 1150 50 2000 310/05 RMK AO2
14926KSTC STC20120602093009406/02/12 09:30:31  5-MIN KSTC 021530Z 33005KT 10SM CLR 20/08 A2978 1150 46 2000 330/05 RMK AO2
14926KSTC STC20120602093509406/02/12 09:35:31  5-MIN KSTC 021535Z 36005KT 10SM CLR 20/08 A2978 1160 46 2000 360/05 RMK AO2
14926KSTC STC20120602094009406/02/12 09:40:31  5-MIN KSTC 021540Z 01005KT 10SM CLR 21/08 A2978 1150 45 2100 010/05 RMK AO2
14926KSTC STC20120602094509406/02/12 09:45:31  5-MIN KSTC 021545Z 00000KT 10SM CLR 21/07 A2978 1150 41 2100 000/00 RMK AO2
14926KSTC STC20120602095011106/02/12 09:50:31  5-MIN KSTC 021550Z VRB05KT 10SM CLR 21/08 A2978 1150 43 2100 VRB/05 RMK AO2 SLP093 T02060078
14926KSTC STC20120602095509406/02/12 09:55:31  5-MIN KSTC 021555Z 32008KT 10SM CLR 21/08 A2978 1160 43 2100 320/08 RMK AO2
14926KSTC STC20120602100009406/02/12 10:00:31  5-MIN KSTC 021600Z 34007KT 10SM CLR 21/08 A2978 1160 43 2100 340/07 RMK AO2
14926KSTC STC20120602100509406/02/12 10:05:31  5-MIN KSTC 021605Z 03005KT 10SM CLR 21/07 A2978 1160 40 2200 020/05 RMK AO2
14926KSTC STC20120602101009406/02/12 10:10:31  5-MIN KSTC 021610Z 32006KT 10SM CLR 21/07 A2978 1160 40 2200 320/06 RMK AO2
14926KSTC STC20120602101509406/02/12 10:15:31  5-MIN KSTC 021615Z VRB05KT 10SM CLR 21/08 A2978 1160 42 2200 VRB/05 RMK AO2
14926KSTC STC20120602102009406/02/12 10:20:31  5-MIN KSTC 021620Z VRB05KT 10SM CLR 21/07 A2978 1160 40 2200 VRB/05 RMK AO2
14926KSTC STC20120602102509406/02/12 10:25:31  5-MIN KSTC 021625Z VRB04KT 10SM CLR 21/07 A2978 1160 40 2200 VRB/04 RMK AO2
14926KSTC STC20120602103009406/02/12 10:30:31  5-MIN KSTC 021630Z 33006KT 10SM CLR 22/07 A2978 1150 37 2200 330/06 RMK AO2
14926KSTC STC20120602103509406/02/12 10:35:31  5-MIN KSTC 021635Z 32005KT 10SM CLR 21/06 A2978 1160 37 2200 320/05 RMK AO2
14926KSTC STC20120602104009406/02/12 10:40:31  5-MIN KSTC 021640Z VRB04KT 10SM CLR 22/06 A2978 1160 36 2200 VRB/04 RMK AO2
14926KSTC STC20120602104509406/02/12 10:45:31  5-MIN KSTC 021645Z VRB05KT 10SM CLR 22/06 A2978 1160 36 2200 VRB/05 RMK AO2
14926KSTC STC20120602105011106/02/12 10:50:31  5-MIN KSTC 021650Z 02006KT 10SM CLR 22/06 A2978 1160 34 2200 010/06 RMK AO2 SLP092 T02170056
14926KSTC STC20120602105509406/02/12 10:55:31  5-MIN KSTC 021655Z 31007KT 10SM CLR 22/06 A2978 1160 36 2200 300/07 RMK AO2
14926KSTC STC20120602110009406/02/12 11:00:31  5-MIN KSTC 021700Z 36006KT 10SM CLR 22/06 A2978 1160 36 2200 360/06 RMK AO2
14926KSTC STC20120602110509706/02/12 11:05:31  5-MIN KSTC 021705Z VRB05KT 10SM FEW060 22/06 A2978 1160 35 2300 VRB/05 RMK AO2
14926KSTC STC20120602111009706/02/12 11:10:31  5-MIN KSTC 021710Z 29010KT 10SM SCT060 21/06 A2978 1160 36 2200 290/10 RMK AO2
14926KSTC STC20120602111509706/02/12 11:15:31  5-MIN KSTC 021715Z 30007KT 10SM SCT060 21/07 A2978 1160 38 2200 300/07 RMK AO2
14926KSTC STC20120602112009706/02/12 11:20:31  5-MIN KSTC 021720Z 30007KT 10SM FEW060 22/06 A2978 1160 34 2200 300/07 RMK AO2
14926KSTC STC20120602112509706/02/12 11:25:31  5-MIN KSTC 021725Z 32006KT 10SM FEW060 22/06 A2978 1160 33 2300 310/06 RMK AO2
14926KSTC STC20120602113009706/02/12 11:30:31  5-MIN KSTC 021730Z 33006KT 10SM FEW060 22/06 A2978 1160 33 2300 330/06 RMK AO2
14926KSTC STC20120602113509706/02/12 11:35:31  5-MIN KSTC 021735Z 35008KT 10SM SCT065 22/06 A2978 1160 33 2300 350/08 RMK AO2
14926KSTC STC20120602114010306/02/12 11:40:31  5-MIN KSTC 021740Z 31012G15KT 10SM FEW065 22/06 A2978 1160 36 2200 310/12G15 RMK AO2
14926KSTC STC20120602114510306/02/12 11:45:31  5-MIN KSTC 021745Z 33005G15KT 10SM SCT070 23/06 A2978 1160 33 2400 330/05G15 RMK AO2
14926KSTC STC20120602115013206/02/12 11:50:31  5-MIN KSTC 021750Z 32006KT 10SM SCT070 22/06 A2978 1160 33 2300 320/06 RMK AO2 SLP089 T02220056 10228 20111 50006
14926KSTC STC20120602115509706/02/12 11:55:31  5-MIN KSTC 021755Z 30004KT 10SM SCT065 23/06 A2978 1160 32 2400 300/04 RMK AO2
14926KSTC STC20120602120009706/02/12 12:00:31  5-MIN KSTC 021800Z 27008KT 10SM SCT065 22/05 A2977 1160 32 2300 270/08 RMK AO2
14926KSTC STC20120602120509706/02/12 12:05:31  5-MIN KSTC 021805Z 30006KT 10SM FEW070 22/05 A2977 1160 32 2300 300/06 RMK AO2
14926KSTC STC20120602121009706/02/12 12:10:31  5-MIN KSTC 021810Z 33008KT 10SM FEW070 23/05 A2977 1160 31 2400 330/08 RMK AO2
14926KSTC STC20120602121509406/02/12 12:15:31  5-MIN KSTC 021815Z 29005KT 10SM CLR 23/04 A2977 1160 30 2400 290/05 RMK AO2
14926KSTC STC20120602122009706/02/12 12:20:31  5-MIN KSTC 021820Z VRB06KT 10SM FEW070 23/06 A2977 1160 32 2400 VRB/06 RMK AO2
14926KSTC STC20120602122510306/02/12 12:25:31  5-MIN KSTC 021825Z 30012G15KT 10SM FEW070 23/05 A2978 1160 30 2400 300/12G15 RMK AO2
14926KSTC STC20120602123011906/02/12 12:30:31  5-MIN KSTC 021830Z 30007G15KT 280V350 10SM FEW070 23/06 A2978 1160 32 2400 300/07G15 280V350 RMK AO2
14926KSTC STC20120602123509706/02/12 12:35:31  5-MIN KSTC 021835Z 27006KT 10SM FEW070 23/04 A2977 1160 30 2400 270/06 RMK AO2
14926KSTC STC20120602124009706/02/12 12:40:31  5-MIN KSTC 021840Z 31004KT 10SM SCT070 24/06 A2977 1160 30 2500 310/04 RMK AO2
14926KSTC STC20120602124510306/02/12 12:45:31  5-MIN KSTC 021845Z 30009G14KT 10SM SCT070 23/06 A2977 1160 31 2400 300/09G14 RMK AO2
14926KSTC STC20120602125013606/02/12 12:50:31  5-MIN KSTC 021850Z 30007G14KT 270V330 10SM FEW070 23/05 A2977 1160 31 2400 300/07G14 270V330 RMK AO2 SLP089 T02280050
14926KSTC STC20120602125509706/02/12 12:55:31  5-MIN KSTC 021855Z 32008KT 10SM FEW070 23/06 A2977 1160 31 2400 320/08 RMK AO2
14926KSTC STC20120602130010306/02/12 13:00:31  5-MIN KSTC 021900Z 29010G18KT 10SM FEW070 23/06 A2977 1160 31 2400 290/10G18 RMK AO2
14926KSTC STC20120602130510306/02/12 13:05:31  5-MIN KSTC 021905Z 29008G18KT 10SM FEW070 23/05 A2977 1170 30 2400 290/08G18 RMK AO2
14926KSTC STC20120602131009406/02/12 13:10:31  5-MIN KSTC 021910Z 30004KT 10SM CLR 23/05 A2977 1170 30 2400 300/04 RMK AO2
14926KSTC STC20120602131510306/02/12 13:15:31  5-MIN KSTC 021915Z 29010G14KT 10SM FEW070 23/06 A2977 1170 31 2400 280/10G14 RMK AO2
14926KSTC STC20120602132010306/02/12 13:20:31  5-MIN KSTC 021920Z 28010G16KT 10SM SCT070 23/06 A2976 1170 32 2400 280/10G16 RMK AO2
14926KSTC STC20120602132510306/02/12 13:25:31  5-MIN KSTC 021925Z 28006G16KT 10SM FEW070 23/06 A2976 1170 32 2400 280/06G16 RMK AO2
14926KSTC STC20120602133009706/02/12 13:30:31  5-MIN KSTC 021930Z 31007KT 10SM FEW070 23/06 A2976 1170 33 2400 310/07 RMK AO2
14926KSTC STC20120602133509706/02/12 13:35:31  5-MIN KSTC 021935Z 31007KT 10SM FEW070 22/07 A2976 1170 37 2300 310/07 RMK AO2
14926KSTC STC20120602134009706/02/12 13:40:31  5-MIN KSTC 021940Z VRB06KT 10SM FEW070 22/07 A2976 1170 36 2300 VRB/06 RMK AO2
14926KSTC STC20120602134509706/02/12 13:45:31  5-MIN KSTC 021945Z 33008KT 10SM FEW065 23/07 A2976 1180 35 2400 320/08 RMK AO2
14926KSTC STC20120602135011406/02/12 13:50:31  5-MIN KSTC 021950Z 29009KT 10SM SCT070 23/07 A2976 1170 35 2400 290/09 RMK AO2 SLP084 T02280067
14926KSTC STC20120602135509706/02/12 13:55:31  5-MIN KSTC 021955Z 30010KT 10SM SCT070 24/08 A2976 1170 35 2500 300/10 RMK AO2
14926KSTC STC20120602140009706/02/12 14:00:31  5-MIN KSTC 022000Z VRB05KT 10SM FEW070 23/07 A2976 1180 33 2500 VRB/05 RMK AO2
14926KSTC STC20120602140509706/02/12 14:05:31  5-MIN KSTC 022005Z 31009KT 10SM SCT070 23/07 A2976 1180 35 2500 310/09 RMK AO2
14926KSTC STC20120602141009706/02/12 14:10:31  5-MIN KSTC 022010Z VRB04KT 10SM SCT070 23/07 A2976 1180 33 2500 VRB/04 RMK AO2
14926KSTC STC20120602141510306/02/12 14:15:31  5-MIN KSTC 022015Z 29009G14KT 10SM SCT070 23/07 A2976 1180 35 2500 290/09G14 RMK AO2
14926KSTC STC20120602142010306/02/12 14:20:31  5-MIN KSTC 022020Z 25007G14KT 10SM FEW070 22/07 A2976 1180 36 2300 250/07G14 RMK AO2
14926KSTC STC20120602142509706/02/12 14:25:31  5-MIN KSTC 022025Z 33005KT 10SM SCT065 22/07 A2975 1180 37 2300 320/05 RMK AO2
14926KSTC STC20120602143009706/02/12 14:30:31  5-MIN KSTC 022030Z VRB06KT 10SM SCT065 23/07 A2975 1180 35 2500 VRB/06 RMK AO2
14926KSTC STC20120602143509706/02/12 14:35:31  5-MIN KSTC 022035Z 31005KT 10SM SCT065 23/07 A2975 1180 35 2500 310/05 RMK AO2
14926KSTC STC20120602144010306/02/12 14:40:31  5-MIN KSTC 022040Z 31006G14KT 10SM SCT065 24/08 A2975 1180 35 2500 310/06G14 RMK AO2
14926KSTC STC20120602144510306/02/12 14:45:31  5-MIN KSTC 022045Z 32006G14KT 10SM SCT070 24/08 A2975 1180 35 2500 320/06G14 RMK AO2
14926KSTC STC20120602145012606/02/12 14:50:31  5-MIN KSTC 022050Z 27012G17KT 10SM SCT070 24/08 A2975 1180 35 2600 270/12G17 RMK AO2 SLP082 T02440083 56003
14926KSTC STC20120602145510306/02/12 14:55:31  5-MIN KSTC 022055Z 28006G17KT 10SM SCT070 23/07 A2975 1180 35 2500 280/06G17 RMK AO2
14926KSTC STC20120602150009706/02/12 15:00:31  5-MIN KSTC 022100Z VRB03KT 10SM SCT070 23/07 A2975 1180 36 2400 VRB/03 RMK AO2
14926KSTC STC20120602150509706/02/12 15:05:31  5-MIN KSTC 022105Z 32008KT 10SM BKN065 23/08 A2975 1180 37 2400 310/08 RMK AO2
14926KSTC STC20120602151009706/02/12 15:10:31  5-MIN KSTC 022110Z 31008KT 10SM BKN065 23/09 A2975 1180 39 2500 310/08 RMK AO2
14926KSTC STC20120602151509706/02/12 15:15:31  5-MIN KSTC 022115Z 28009KT 10SM BKN065 24/08 A2975 1180 36 2500 280/09 RMK AO2
14926KSTC STC20120602152010406/02/12 15:20:31  5-MIN KSTC 022120Z 30008KT 10SM BKN065 BKN080 24/08 A2975 1180 36 2500 300/08 RMK AO2
14926KSTC STC20120602152510406/02/12 15:25:31  5-MIN KSTC 022125Z 31009KT 10SM BKN070 BKN080 23/08 A2975 1180 38 2500 310/09 RMK AO2
14926KSTC STC20120602153010406/02/12 15:30:31  5-MIN KSTC 022130Z 30007KT 10SM FEW065 BKN080 22/08 A2975 1180 40 2300 300/07 RMK AO2
14926KSTC STC20120602153510406/02/12 15:35:31  5-MIN KSTC 022135Z 30005KT 10SM SCT060 BKN080 22/08 A2975 1180 40 2300 300/05 RMK AO2
14926KSTC STC20120602154010406/02/12 15:40:31  5-MIN KSTC 022140Z 31009KT 10SM SCT060 BKN080 24/09 A2975 1180 38 2500 310/09 RMK AO2
14926KSTC STC20120602154510406/02/12 15:45:31  5-MIN KSTC 022145Z 28008KT 10SM SCT060 BKN080 24/08 A2975 1180 36 2500 280/08 RMK AO2
14926KSTC STC20120602155012106/02/12 15:50:31  5-MIN KSTC 022150Z 32009KT 10SM FEW060 BKN080 23/08 A2975 1180 38 2500 320/09 RMK AO2 SLP080 T02330083
14926KSTC STC20120602155510406/02/12 15:55:31  5-MIN KSTC 022155Z 31006KT 10SM FEW060 BKN080 24/08 A2975 1190 35 2500 310/06 RMK AO2
14926KSTC STC20120602160010406/02/12 16:00:31  5-MIN KSTC 022200Z VRB04KT 10SM SCT060 BKN080 24/08 A2975 1190 36 2500 VRB/04 RMK AO2
14926KSTC STC20120602160510406/02/12 16:05:31  5-MIN KSTC 022205Z 29008KT 10SM BKN060 BKN080 24/08 A2975 1190 35 2600 290/08 RMK AO2
14926KSTC STC20120602161011006/02/12 16:10:31  5-MIN KSTC 022210Z 32011G15KT 10SM BKN060 BKN080 24/08 A2975 1180 36 2500 320/11G15 RMK AO2
14926KSTC STC20120602161511006/02/12 16:15:31  5-MIN KSTC 022215Z 32008G15KT 10SM BKN060 BKN085 22/09 A2975 1190 42 2300 320/08G15 RMK AO2
14926KSTC STC20120602162010406/02/12 16:20:31  5-MIN KSTC 022220Z 32006KT 10SM SCT060 BKN080 22/08 A2975 1190 40 2300 320/06 RMK AO2
14926KSTC STC20120602162510406/02/12 16:25:31  5-MIN KSTC 022225Z 33007KT 10SM SCT060 BKN080 24/08 A2975 1190 36 2500 320/07 RMK AO2
14926KSTC STC20120602163010406/02/12 16:30:31  5-MIN KSTC 022230Z 30008KT 10SM SCT060 BKN080 24/08 A2975 1190 36 2500 300/08 RMK AO2
14926KSTC STC20120602163511006/02/12 16:35:31  5-MIN KSTC 022235Z 30010G15KT 10SM SCT060 BKN080 23/08 A2975 1180 36 2500 300/10G15 RMK AO2
14926KSTC STC20120602164010406/02/12 16:40:31  5-MIN KSTC 022240Z 31008KT 10SM FEW060 BKN080 23/08 A2975 1190 38 2500 310/08 RMK AO2
14926KSTC STC20120602164510406/02/12 16:45:31  5-MIN KSTC 022245Z 31006KT 10SM FEW060 BKN080 24/08 A2975 1190 36 2500 310/06 RMK AO2
14926KSTC STC20120602165012106/02/12 16:50:31  5-MIN KSTC 022250Z 31009KT 10SM FEW060 BKN080 24/08 A2975 1190 36 2500 300/09 RMK AO2 SLP079 T02390083
14926KSTC STC20120602165510406/02/12 16:55:31  5-MIN KSTC 022255Z 31010KT 10SM FEW060 BKN080 24/08 A2975 1190 36 2500 310/10 RMK AO2
14926KSTC STC20120602170009706/02/12 17:00:31  5-MIN KSTC 022300Z 30008KT 10SM SCT080 24/08 A2975 1190 36 2500 300/08 RMK AO2
14926KSTC STC20120602170509706/02/12 17:05:31  5-MIN KSTC 022305Z 30009KT 10SM BKN080 24/08 A2974 1190 36 2500 300/09 RMK AO2
14926KSTC STC20120602171009706/02/12 17:10:31  5-MIN KSTC 022310Z 31009KT 10SM BKN080 23/08 A2974 1190 36 2500 300/09 RMK AO2
14926KSTC STC20120602171510306/02/12 17:15:31  5-MIN KSTC 022315Z 31007G15KT 10SM FEW080 23/08 A2974 1190 38 2500 310/07G15 RMK AO2
14926KSTC STC20120602172009706/02/12 17:20:31  5-MIN KSTC 022320Z 30009KT 10SM SCT070 24/08 A2974 1190 36 2500 300/09 RMK AO2
14926KSTC STC20120602172511006/02/12 17:25:31  5-MIN KSTC 022325Z 29010G14KT 10SM SCT065 BKN080 23/08 A2974 1190 36 2500 290/10G14 RMK AO2
14926KSTC STC20120602173010406/02/12 17:30:31  5-MIN KSTC 022330Z 31009KT 10SM SCT065 BKN080 23/08 A2974 1190 37 2400 310/09 RMK AO2
14926KSTC STC20120602173509706/02/12 17:35:31  5-MIN KSTC 022335Z 30009KT 10SM BKN065 23/08 A2974 1190 38 2500 300/09 RMK AO2
14926KSTC STC20120602174009706/02/12 17:40:31  5-MIN KSTC 022340Z 30006KT 10SM BKN065 23/08 A2974 1190 36 2500 300/06 RMK AO2
14926KSTC STC20120602174509706/02/12 17:45:31  5-MIN KSTC 022345Z 32008KT 10SM SCT065 24/08 A2974 1190 36 2500 320/08 RMK AO2
14926KSTC STC20120602175013206/02/12 17:50:31  5-MIN KSTC 022350Z 30007KT 10SM SCT065 23/08 A2975 1190 38 2500 300/07 RMK AO2 SLP079 T02330083 10244 20217 58008
14926KSTC STC20120602175509706/02/12 17:55:31  5-MIN KSTC 022355Z 30009KT 10SM FEW065 23/08 A2975 1190 38 2500 300/09 RMK AO2
14926KSTC STC20120602180009706/02/12 18:00:31  5-MIN KSTC 030000Z 30009KT 10SM FEW065 23/08 A2975 1190 38 2500 300/09 RMK AO2
14926KSTC STC20120602180509406/02/12 18:05:31  5-MIN KSTC 030005Z 31006KT 10SM CLR 23/08 A2975 1190 38 2500 310/06 RMK AO2
14926KSTC STC20120602181009406/02/12 18:10:31  5-MIN KSTC 030010Z 31007KT 10SM CLR 23/08 A2975 1190 39 2400 310/07 RMK AO2
14926KSTC STC20120602181509406/02/12 18:15:31  5-MIN KSTC 030015Z 31007KT 10SM CLR 23/08 A2975 1190 39 2400 310/07 RMK AO2
14926KSTC STC20120602182009406/02/12 18:20:31  5-MIN KSTC 030020Z 31010KT 10SM CLR 23/09 A2975 1190 40 2400 310/10 RMK AO2
14926KSTC STC20120602182509406/02/12 18:25:31  5-MIN KSTC 030025Z 31007KT 10SM CLR 23/09 A2975 1190 40 2400 300/07 RMK AO2
14926KSTC STC20120602183009406/02/12 18:30:31  5-MIN KSTC 030030Z 31007KT 10SM CLR 23/08 A2975 1190 39 2400 310/07 RMK AO2
14926KSTC STC20120602183509406/02/12 18:35:31  5-MIN KSTC 030035Z 32006KT 10SM CLR 22/09 A2975 1190 42 2300 320/06 RMK AO2
14926KSTC STC20120602184009406/02/12 18:40:31  5-MIN KSTC 030040Z 31007KT 10SM CLR 22/08 A2975 1190 40 2300 310/07 RMK AO2
14926KSTC STC20120602184509406/02/12 18:45:31  5-MIN KSTC 030045Z 32007KT 10SM CLR 22/09 A2975 1180 42 2300 320/07 RMK AO2
14926KSTC STC20120602185011106/02/12 18:50:31  5-MIN KSTC 030050Z 31006KT 10SM CLR 22/09 A2975 1190 43 2300 310/06 RMK AO2 SLP080 T02170089
14926KSTC STC20120602185509406/02/12 18:55:31  5-MIN KSTC 030055Z 31005KT 10SM CLR 22/09 A2975 1180 43 2300 310/05 RMK AO2
14926KSTC STC20120602190009406/02/12 19:00:31  5-MIN KSTC 030100Z 31005KT 10SM CLR 22/09 A2975 1180 45 2300 310/05 RMK AO2
14926KSTC STC20120602190509406/02/12 19:05:31  5-MIN KSTC 030105Z 31005KT 10SM CLR 21/10 A2975 1190 48 2200 310/05 RMK AO2
14926KSTC STC20120602191009406/02/12 19:10:31  5-MIN KSTC 030110Z 31004KT 10SM CLR 21/10 A2975 1190 48 2200 310/04 RMK AO2
14926KSTC STC20120602191509406/02/12 19:15:31  5-MIN KSTC 030115Z 31004KT 10SM CLR 21/09 A2975 1190 48 2100 310/04 RMK AO2
14926KSTC STC20120602192009406/02/12 19:20:31  5-MIN KSTC 030120Z 31004KT 10SM CLR 21/10 A2975 1190 50 2100 300/04 RMK AO2
14926KSTC STC20120602192509406/02/12 19:25:31  5-MIN KSTC 030125Z 30004KT 10SM CLR 20/11 A2975 1190 54 2100 300/04 RMK AO2
14926KSTC STC20120602193009406/02/12 19:30:31  5-MIN KSTC 030130Z 29004KT 10SM CLR 20/11 A2975 1190 54 2100 290/04 RMK AO2
14926KSTC STC20120602193509406/02/12 19:35:31  5-MIN KSTC 030135Z 28003KT 10SM CLR 20/11 A2975 1180 54 2100 280/03 RMK AO2
14926KSTC STC20120602194009406/02/12 19:40:31  5-MIN KSTC 030140Z 26003KT 10SM CLR 19/11 A2975 1180 56 2000 260/03 RMK AO2
14926KSTC STC20120602194509406/02/12 19:45:31  5-MIN KSTC 030145Z 26003KT 10SM CLR 19/10 A2975 1180 54 2000 260/03 RMK AO2
14926KSTC STC20120602195011106/02/12 19:50:31  5-MIN KSTC 030150Z 00000KT 10SM CLR 19/10 A2975 1180 56 2000 000/00 RMK AO2 SLP081 T01890100
14926KSTC STC20120602195509406/02/12 19:55:31  5-MIN KSTC 030155Z 26003KT 10SM CLR 18/09 A2975 1180 56 1900 260/03 RMK AO2
14926KSTC STC20120602200009406/02/12 20:00:31  5-MIN KSTC 030200Z 00000KT 10SM CLR 18/10 A2975 1180 58 1900 000/00 RMK AO2
14926KSTC STC20120602200509406/02/12 20:05:31  5-MIN KSTC 030205Z 00000KT 10SM CLR 18/10 A2975 1180 58 1900 000/00 RMK AO2
14926KSTC STC20120602201009406/02/12 20:10:31  5-MIN KSTC 030210Z 00000KT 10SM CLR 18/10 A2975 1180 60 1800 000/00 RMK AO2
14926KSTC STC20120602201509406/02/12 20:15:31  5-MIN KSTC 030215Z 00000KT 10SM CLR 17/11 A2975 1180 67 1700 000/00 RMK AO2
14926KSTC STC20120602202009406/02/12 20:20:31  5-MIN KSTC 030220Z 00000KT 10SM CLR 16/11 A2975 1180 69 1600 000/00 RMK AO2
14926KSTC STC20120602202509406/02/12 20:25:31  5-MIN KSTC 030225Z 00000KT 10SM CLR 16/11 A2975 1180 69 1600 000/00 RMK AO2
14926KSTC STC20120602203009406/02/12 20:30:31  5-MIN KSTC 030230Z 00000KT 10SM CLR 16/10 A2976 1180 67 1600 000/00 RMK AO2
14926KSTC STC20120602203509406/02/12 20:35:31  5-MIN KSTC 030235Z 00000KT 10SM CLR 16/11 A2976 1180 72 1600 000/00 RMK AO2
14926KSTC STC20120602204009406/02/12 20:40:31  5-MIN KSTC 030240Z 00000KT 10SM CLR 14/11 A2976 1170 77 1400 000/00 RMK AO2
14926KSTC STC20120602204509406/02/12 20:45:31  5-MIN KSTC 030245Z 00000KT 10SM CLR 14/11 A2976 1170 77 1400 000/00 RMK AO2
14926KSTC STC20120602205011706/02/12 20:50:31  5-MIN KSTC 030250Z 00000KT 10SM CLR 14/11 A2976 1170 77 1400 000/00 RMK AO2 SLP085 T01440106 56003
14926KSTC STC20120602205509406/02/12 20:55:31  5-MIN KSTC 030255Z 00000KT 10SM CLR 14/10 A2977 1170 74 1400 000/00 RMK AO2
14926KSTC STC20120602210009406/02/12 21:00:31  5-MIN KSTC 030300Z 00000KT 10SM CLR 14/10 A2977 1170 74 1400 000/00 RMK AO2
14926KSTC STC20120602210509406/02/12 21:05:31  5-MIN KSTC 030305Z 00000KT 10SM CLR 14/10 A2977 1170 74 1400 000/00 RMK AO2
14926KSTC STC20120602211009406/02/12 21:10:31  5-MIN KSTC 030310Z 00000KT 10SM CLR 14/10 A2977 1160 74 1400 000/00 RMK AO2
14926KSTC STC20120602211509406/02/12 21:15:31  5-MIN KSTC 030315Z 00000KT 10SM CLR 15/10 A2977 1160 72 1500 000/00 RMK AO2
14926KSTC STC20120602212009406/02/12 21:20:31  5-MIN KSTC 030320Z 00000KT 10SM CLR 16/09 A2977 1160 67 1500 000/00 RMK AO2
14926KSTC STC20120602212509406/02/12 21:25:31  5-MIN KSTC 030325Z 00000KT 10SM CLR 15/09 A2977 1170 69 1500 000/00 RMK AO2
14926KSTC STC20120602213009406/02/12 21:30:31  5-MIN KSTC 030330Z 00000KT 10SM CLR 14/09 A2977 1170 74 1300 000/00 RMK AO2
14926KSTC STC20120602213509406/02/12 21:35:31  5-MIN KSTC 030335Z 00000KT 10SM CLR 14/09 A2977 1170 74 1300 000/00 RMK AO2
14926KSTC STC20120602214009406/02/12 21:40:31  5-MIN KSTC 030340Z 00000KT 10SM CLR 13/09 A2977 1170 77 1300 000/00 RMK AO2
14926KSTC STC20120602214509406/02/12 21:45:31  5-MIN KSTC 030345Z 00000KT 10SM CLR 14/09 A2977 1170 74 1300 000/00 RMK AO2
14926KSTC STC20120602215011106/02/12 21:50:31  5-MIN KSTC 030350Z 00000KT 10SM CLR 13/09 A2977 1170 77 1300 000/00 RMK AO2 SLP087 T01330094
14926KSTC STC20120602215509906/02/12 21:55:31  5-MIN KSTC 030355Z AUTO 00000KT 10SM CLR 13/09 A2977 1170 77 1300 000/00 RMK AO2
14926KSTC STC20120602220009906/02/12 22:00:31  5-MIN KSTC 030400Z AUTO 00000KT 10SM CLR 13/09 A2977 1170 80 1200 000/00 RMK AO2
14926KSTC STC20120602220509906/02/12 22:05:31  5-MIN KSTC 030405Z AUTO 00000KT 10SM CLR 13/09 A2977 1170 80 1200 000/00 RMK AO2
14926KSTC STC20120602221009906/02/12 22:10:31  5-MIN KSTC 030410Z AUTO 00000KT 10SM CLR 12/09 A2976 1170 83 1200 000/00 RMK AO2
14926KSTC STC20120602221509906/02/12 22:15:31  5-MIN KSTC 030415Z AUTO 00000KT 10SM CLR 12/09 A2976 1170 83 1200 000/00 RMK AO2
14926KSTC STC20120602222009906/02/12 22:20:31  5-MIN KSTC 030420Z AUTO 00000KT 10SM CLR 13/09 A2976 1170 80 1200 000/00 RMK AO2
14926KSTC STC20120602222509906/02/12 22:25:31  5-MIN KSTC 030425Z AUTO 00000KT 10SM CLR 12/09 A2977 1170 83 1200 000/00 RMK AO2
14926KSTC STC20120602223009906/02/12 22:30:31  5-MIN KSTC 030430Z AUTO 00000KT 10SM CLR 13/09 A2977 1170 80 1200 000/00 RMK AO2
14926KSTC STC20120602223509906/02/12 22:35:31  5-MIN KSTC 030435Z AUTO 00000KT 10SM CLR 13/09 A2977 1170 80 1200 000/00 RMK AO2
14926KSTC STC20120602224009906/02/12 22:40:31  5-MIN KSTC 030440Z AUTO 00000KT 10SM CLR 13/10 A2977 1170 83 1200 000/00 RMK AO2
14926KSTC STC20120602224509906/02/12 22:45:31  5-MIN KSTC 030445Z AUTO 00000KT 10SM CLR 12/09 A2977 1160 83 1100 000/00 RMK AO2
14926KSTC STC20120602225011606/02/12 22:50:31  5-MIN KSTC 030450Z AUTO 00000KT 10SM CLR 12/09 A2977 1160 83 1100 000/00 RMK AO2 SLP088 T01220094
14926KSTC STC20120602225509906/02/12 22:55:31  5-MIN KSTC 030455Z AUTO 00000KT 10SM CLR 12/09 A2977 1160 86 1100 000/00 RMK AO2
14926KSTC STC20120602230009906/02/12 23:00:31  5-MIN KSTC 030500Z AUTO 00000KT 10SM CLR 12/09 A2977 1160 86 1100 000/00 RMK AO2
14926KSTC STC20120602230509906/02/12 23:05:31  5-MIN KSTC 030505Z AUTO 00000KT 10SM CLR 12/09 A2977 1170 86 1100 000/00 RMK AO2
14926KSTC STC20120602231009906/02/12 23:10:31  5-MIN KSTC 030510Z AUTO 00000KT 10SM CLR 12/09 A2977 1160 86 1100 000/00 RMK AO2
14926KSTC STC20120602231509906/02/12 23:15:31  5-MIN KSTC 030515Z AUTO 00000KT 10SM CLR 12/09 A2977 1160 83 1100 000/00 RMK AO2
14926KSTC STC20120602232009906/02/12 23:20:31  5-MIN KSTC 030520Z AUTO 00000KT 10SM CLR 12/09 A2977 1160 86 1100 000/00 RMK AO2
14926KSTC STC20120602232509906/02/12 23:25:31  5-MIN KSTC 030525Z AUTO 00000KT 10SM CLR 12/09 A2977 1170 86 1100 000/00 RMK AO2
14926KSTC STC20120602233009906/02/12 23:30:31  5-MIN KSTC 030530Z AUTO 00000KT 10SM CLR 12/09 A2977 1160 86 1100 000/00 RMK AO2
14926KSTC STC20120602233509906/02/12 23:35:31  5-MIN KSTC 030535Z AUTO 00000KT 10SM CLR 12/09 A2977 1160 86 1100 000/00 RMK AO2
14926KSTC STC20120602234009906/02/12 23:40:31  5-MIN KSTC 030540Z AUTO 00000KT 10SM CLR 12/09 A2978 1160 86 1100 000/00 RMK AO2
14926KSTC STC20120602234509906/02/12 23:45:31  5-MIN KSTC 030545Z AUTO 00000KT 10SM CLR 12/09 A2978 1160 86 1100 000/00 RMK AO2
14926KSTC STC20120602235014406/02/12 23:50:31  5-MIN KSTC 030550Z AUTO 00000KT 10SM CLR 11/09 A2978 1160 89 1000 000/00 RMK AO2 SLP090 T01110094 10233 20111 402440083 53006
14926KSTC STC20120602235509906/02/12 23:55:31  5-MIN KSTC 030555Z AUTO 00000KT 10SM CLR 11/09 A2978 1160 89 1000 000/00 RMK AO2
14926KSTC STC20120603000009906/03/12 00:00:32  5-MIN KSTC 030600Z AUTO 00000KT 10SM CLR 12/09 A2978 1160 86 1100 000/00 RMK AO2
14926KSTC STC20120603000509906/03/12 00:05:31  5-MIN KSTC 030605Z AUTO 00000KT 10SM CLR 11/09 A2978 1150 89 1000 000/00 RMK AO2
14926KSTC STC20120603001009906/03/12 00:10:31  5-MIN KSTC 030610Z AUTO 00000KT 10SM CLR 11/09 A2978 1150 89 1000 000/00 RMK AO2
14926KSTC STC20120603001509806/03/12 00:15:31  5-MIN KSTC 030615Z AUTO 00000KT 10SM CLR 11/09 A2978 1150 93 900 000/00 RMK AO2
14926KSTC STC20120603002009906/03/12 00:20:31  5-MIN KSTC 030620Z AUTO 00000KT 10SM CLR 11/09 A2978 1150 89 1000 000/00 RMK AO2
14926KSTC STC20120603002509906/03/12 00:25:31  5-MIN KSTC 030625Z AUTO 00000KT 10SM CLR 11/09 A2978 1150 89 1000 000/00 RMK AO2
14926KSTC STC20120603003009906/03/12 00:30:31  5-MIN KSTC 030630Z AUTO 00000KT 10SM CLR 11/09 A2978 1160 89 1000 000/00 RMK AO2
14926KSTC STC20120603003509806/03/12 00:35:31  5-MIN KSTC 030635Z AUTO 00000KT 10SM CLR 11/09 A2978 1160 93 900 000/00 RMK AO2
14926KSTC STC20120603004009806/03/12 00:40:31  5-MIN KSTC 030640Z AUTO 00000KT 10SM CLR 11/09 A2978 1160 93 900 000/00 RMK AO2
14926KSTC STC20120603004509806/03/12 00:45:31  5-MIN KSTC 030645Z AUTO 00000KT 10SM CLR 11/09 A2978 1160 89 900 000/00 RMK AO2
14926KSTC STC20120603005011506/03/12 00:50:31  5-MIN KSTC 030650Z AUTO 00000KT 10SM CLR 11/09 A2977 1160 89 900 000/00 RMK AO2 SLP089 T01060089
14926KSTC STC20120603005509806/03/12 00:55:31  5-MIN KSTC 030655Z AUTO 00000KT 10SM CLR 11/09 A2977 1160 89 900 000/00 RMK AO2
14926KSTC STC20120603010009806/03/12 01:00:31  5-MIN KSTC 030700Z AUTO 00000KT 10SM CLR 11/09 A2978 1160 89 900 000/00 RMK AO2
14926KSTC STC20120603010509806/03/12 01:05:31  5-MIN KSTC 030705Z AUTO 00000KT 10SM CLR 11/09 A2978 1160 89 900 000/00 RMK AO2
14926KSTC STC20120603011009806/03/12 01:10:31  5-MIN KSTC 030710Z AUTO 00000KT 10SM CLR 10/09 A2978 1150 93 900 000/00 RMK AO2
14926KSTC STC20120603011509806/03/12 01:15:31  5-MIN KSTC 030715Z AUTO 00000KT 10SM CLR 10/08 A2978 1150 89 900 000/00 RMK AO2
14926KSTC STC20120603012009806/03/12 01:20:31  5-MIN KSTC 030720Z AUTO 00000KT 10SM CLR 11/09 A2978 1150 89 900 000/00 RMK AO2
14926KSTC STC20120603012509806/03/12 01:25:31  5-MIN KSTC 030725Z AUTO 00000KT 10SM CLR 10/09 A2978 1150 93 900 000/00 RMK AO2
14926KSTC STC20120603013009806/03/12 01:30:31  5-MIN KSTC 030730Z AUTO 00000KT 10SM CLR 10/08 A2979 1150 89 900 000/00 RMK AO2
14926KSTC STC20120603013509806/03/12 01:35:31  5-MIN KSTC 030735Z AUTO 00000KT 10SM CLR 10/09 A2978 1150 93 900 000/00 RMK AO2
14926KSTC STC20120603014009806/03/12 01:40:31  5-MIN KSTC 030740Z AUTO 00000KT 10SM CLR 10/09 A2978 1150 93 900 000/00 RMK AO2
14926KSTC STC20120603014509806/03/12 01:45:31  5-MIN KSTC 030745Z AUTO 00000KT 10SM CLR 11/09 A2979 1150 89 900 000/00 RMK AO2
14926KSTC STC20120603015011506/03/12 01:50:31  5-MIN KSTC 030750Z AUTO 21003KT 10SM CLR 11/09 A2979 1150 93 900 210/03 RMK AO2 SLP093 T01060094
14926KSTC STC20120603015509806/03/12 01:55:31  5-MIN KSTC 030755Z AUTO 00000KT 10SM CLR 11/09 A2979 1150 93 900 000/00 RMK AO2
14926KSTC STC20120603020009806/03/12 02:00:31  5-MIN KSTC 030800Z AUTO 00000KT 10SM CLR 10/09 A2978 1150 93 900 000/00 RMK AO2
14926KSTC STC20120603020509806/03/12 02:05:31  5-MIN KSTC 030805Z AUTO 00000KT 10SM CLR 10/09 A2978 1150 93 900 000/00 RMK AO2
14926KSTC STC20120603021009806/03/12 02:10:31  5-MIN KSTC 030810Z AUTO 00000KT 10SM CLR 11/09 A2978 1150 89 900 000/00 RMK AO2
14926KSTC STC20120603021509806/03/12 02:15:31  5-MIN KSTC 030815Z AUTO 00000KT 10SM CLR 11/09 A2978 1150 89 900 000/00 RMK AO2
14926KSTC STC20120603022009806/03/12 02:20:31  5-MIN KSTC 030820Z AUTO 00000KT 10SM CLR 10/09 A2978 1150 93 900 000/00 RMK AO2
14926KSTC STC20120603022509806/03/12 02:25:31  5-MIN KSTC 030825Z AUTO 00000KT 10SM CLR 10/09 A2978 1160 93 900 000/00 RMK AO2
14926KSTC STC20120603023009806/03/12 02:30:31  5-MIN KSTC 030830Z AUTO 00000KT 10SM CLR 09/08 A2978 1160 93 800 000/00 RMK AO2
14926KSTC STC20120603023509806/03/12 02:35:31  5-MIN KSTC 030835Z AUTO 00000KT 10SM CLR 09/08 A2977 1160 93 800 000/00 RMK AO2
14926KSTC STC20120603024009806/03/12 02:40:31  5-MIN KSTC 030840Z AUTO 00000KT 10SM CLR 09/08 A2977 1160 93 800 000/00 RMK AO2
14926KSTC STC20120603024509706/03/12 02:45:31  5-MIN KSTC 030845Z AUTO 00000KT 9SM CLR 09/08 A2977 1160 93 800 000/00 RMK AO2
14926KSTC STC20120603025012006/03/12 02:50:31  5-MIN KSTC 030850Z AUTO 00000KT 9SM CLR 09/08 A2977 1170 93 800 000/00 RMK AO2 SLP087 T00940083 53005
14926KSTC STC20120603025509706/03/12 02:55:31  5-MIN KSTC 030855Z AUTO 00000KT 8SM CLR 09/08 A2977 1170 89 800 000/00 RMK AO2
14926KSTC STC20120603030009706/03/12 03:00:31  5-MIN KSTC 030900Z AUTO 00000KT 8SM CLR 09/08 A2977 1160 93 800 000/00 RMK AO2
14926KSTC STC20120603030509706/03/12 03:05:31  5-MIN KSTC 030905Z AUTO 00000KT 9SM CLR 09/08 A2977 1160 93 800 000/00 RMK AO2
14926KSTC STC20120603031009806/03/12 03:10:31  5-MIN KSTC 030910Z AUTO 00000KT 10SM CLR 09/08 A2977 1160 93 800 000/00 RMK AO2
14926KSTC STC20120603031509706/03/12 03:15:31  5-MIN KSTC 030915Z AUTO 00000KT 9SM CLR 09/08 A2978 1160 93 800 000/00 RMK AO2
14926KSTC STC20120603032009706/03/12 03:20:31  5-MIN KSTC 030920Z AUTO 00000KT 8SM CLR 09/08 A2978 1160 93 800 000/00 RMK AO2
14926KSTC STC20120603032509706/03/12 03:25:31  5-MIN KSTC 030925Z AUTO 00000KT 8SM CLR 09/08 A2978 1160 93 700 000/00 RMK AO2
14926KSTC STC20120603033010006/03/12 03:30:31  5-MIN KSTC 030930Z AUTO 00000KT 6SM BR CLR 09/08 A2978 1160 93 700 000/00 RMK AO2
14926KSTC STC20120603033510006/03/12 03:35:31  5-MIN KSTC 030935Z AUTO 00000KT 6SM BR CLR 09/08 A2978 1160 93 800 000/00 RMK AO2
14926KSTC STC20120603034009706/03/12 03:40:31  5-MIN KSTC 030940Z AUTO 00000KT 9SM CLR 09/08 A2978 1160 93 700 000/00 RMK AO2
14926KSTC STC20120603034509706/03/12 03:45:31  5-MIN KSTC 030945Z AUTO 00000KT 8SM CLR 09/08 A2978 1160 93 800 000/00 RMK AO2
14926KSTC STC20120603035011406/03/12 03:50:31  5-MIN KSTC 030950Z AUTO 00000KT 7SM CLR 09/08 A2978 1160 93 700 000/00 RMK AO2 SLP091 T00890078
14926KSTC STC20120603035509706/03/12 03:55:31  5-MIN KSTC 030955Z AUTO 00000KT 8SM CLR 09/08 A2978 1160 93 700 000/00 RMK AO2
14926KSTC STC20120603040009706/03/12 04:00:31  5-MIN KSTC 031000Z AUTO 00000KT 9SM CLR 09/08 A2978 1160 93 700 000/00 RMK AO2
14926KSTC STC20120603040509706/03/12 04:05:31  5-MIN KSTC 031005Z AUTO 00000KT 8SM CLR 09/08 A2978 1160 96 700 000/00 RMK AO2
14926KSTC STC20120603041009706/03/12 04:10:31  5-MIN KSTC 031010Z AUTO 00000KT 7SM CLR 08/08 A2978 1160 96 700 000/00 RMK AO2
14926KSTC STC20120603041510006/03/12 04:15:31  5-MIN KSTC 031015Z AUTO 00000KT 6SM BR CLR 09/08 A2978 1150 93 700 000/00 RMK AO2
14926KSTC STC20120603042009706/03/12 04:20:31  5-MIN KSTC 031020Z AUTO 00000KT 7SM CLR 09/08 A2979 1150 96 700 000/00 RMK AO2
14926KSTC STC20120603042510006/03/12 04:25:31  5-MIN KSTC 031025Z AUTO 00000KT 6SM BR CLR 09/08 A2979 1150 96 700 000/00 RMK AO2
14926KSTC STC20120603043011406/03/12 04:30:31  5-MIN KSTC 031030Z AUTO 00000KT 1 3/4SM BR CLR 09/08 A2979 1150 93 700 000/00 RMK AO2 VIS 3/4V5
14926KSTC STC20120603043510406/03/12 04:35:31  5-MIN KSTC 031035Z AUTO 00000KT 1 3/4SM BR CLR 09/08 A2979 1150 96 700 000/00 RMK AO2
14926KSTC STC20120603044010006/03/12 04:40:31  5-MIN KSTC 031040Z AUTO 00000KT 6SM BR CLR 09/08 A2979 1150 93 800 000/00 RMK AO2
14926KSTC STC20120603044509706/03/12 04:45:31  5-MIN KSTC 031045Z AUTO 00000KT 8SM CLR 09/08 A2979 1150 96 700 000/00 RMK AO2
14926KSTC STC20120603045011706/03/12 04:50:31  5-MIN KSTC 031050Z AUTO 00000KT 3SM BR CLR 09/08 A2979 1150 93 800 000/00 RMK AO2 SLP094 T00940083
14926KSTC STC20120603045510406/03/12 04:55:31  5-MIN KSTC 031055Z AUTO 00000KT 1 3/4SM BR CLR 09/08 A2979 1150 96 700 000/00 RMK AO2
14926KSTC STC20120603050010406/03/12 05:00:31  5-MIN KSTC 031100Z AUTO 00000KT 2 1/2SM BR CLR 09/08 A2979 1150 96 700 000/00 RMK AO2
14926KSTC STC20120603050510006/03/12 05:05:31  5-MIN KSTC 031105Z AUTO 00000KT 6SM BR CLR 09/08 A2979 1150 93 800 000/00 RMK AO2
14926KSTC STC20120603051009706/03/12 05:10:31  5-MIN KSTC 031110Z AUTO 00000KT 8SM CLR 10/08 A2979 1140 89 900 000/00 RMK AO2
14926KSTC STC20120603051509706/03/12 05:15:31  5-MIN KSTC 031115Z AUTO 00000KT 8SM CLR 10/09 A2979 1140 93 900 000/00 RMK AO2
14926KSTC STC20120603052009706/03/12 05:20:31  5-MIN KSTC 031120Z AUTO 00000KT 8SM CLR 11/09 A2979 1150 93 900 000/00 RMK AO2
14926KSTC STC20120603052509806/03/12 05:25:31  5-MIN KSTC 031125Z AUTO 00000KT 9SM CLR 11/09 A2979 1150 89 1000 000/00 RMK AO2
14926KSTC STC20120603053009806/03/12 05:30:31  5-MIN KSTC 031130Z AUTO 00000KT 9SM CLR 12/10 A2979 1140 89 1100 000/00 RMK AO2
14926KSTC STC20120603053509806/03/12 05:35:31  5-MIN KSTC 031135Z AUTO 00000KT 9SM CLR 12/11 A2979 1150 93 1100 000/00 RMK AO2
14926KSTC STC20120603054009806/03/12 05:40:31  5-MIN KSTC 031140Z AUTO 00000KT 9SM CLR 12/11 A2979 1140 89 1100 000/00 RMK AO2
14926KSTC STC20120603054509806/03/12 05:45:31  5-MIN KSTC 031145Z AUTO 00000KT 9SM CLR 13/11 A2979 1150 89 1200 000/00 RMK AO2
14926KSTC STC20120603055012906/03/12 05:50:31  5-MIN KSTC 031150Z 00000KT 10SM CLR 13/11 A2979 1150 89 1200 000/00 RMK AO2 SLP094 T01280111 10128 20083 58003
14926KSTC STC20120603055509406/03/12 05:55:31  5-MIN KSTC 031155Z 00000KT 10SM CLR 13/11 A2979 1150 89 1200 000/00 RMK AO2
14926KSTC STC20120603060009406/03/12 06:00:31  5-MIN KSTC 031200Z 00000KT 10SM CLR 13/12 A2979 1150 89 1300 000/00 RMK AO2
14926KSTC STC20120603060509406/03/12 06:05:31  5-MIN KSTC 031205Z 00000KT 10SM CLR 14/12 A2979 1140 86 1300 000/00 RMK AO2
14926KSTC STC20120603061009406/03/12 06:10:31  5-MIN KSTC 031210Z 00000KT 10SM CLR 14/12 A2979 1150 86 1300 000/00 RMK AO2
14926KSTC STC20120603061509406/03/12 06:15:31  5-MIN KSTC 031215Z 00000KT 10SM CLR 14/12 A2979 1140 90 1300 000/00 RMK AO2
14926KSTC STC20120603062009406/03/12 06:20:31  5-MIN KSTC 031220Z 00000KT 10SM CLR 14/12 A2979 1150 83 1400 000/00 RMK AO2
14926KSTC STC20120603062509406/03/12 06:25:31  5-MIN KSTC 031225Z 00000KT 10SM CLR 14/12 A2978 1150 83 1400 000/00 RMK AO2
14926KSTC STC20120603063009406/03/12 06:30:31  5-MIN KSTC 031230Z 00000KT 10SM CLR 15/12 A2978 1150 80 1500 000/00 RMK AO2
14926KSTC STC20120603063509406/03/12 06:35:31  5-MIN KSTC 031235Z 00000KT 10SM CLR 16/11 A2978 1150 72 1600 000/00 RMK AO2
14926KSTC STC20120603064009406/03/12 06:40:31  5-MIN KSTC 031240Z 00000KT 10SM CLR 16/11 A2979 1150 69 1600 000/00 RMK AO2
14926KSTC STC20120603064509406/03/12 06:45:31  5-MIN KSTC 031245Z 00000KT 10SM CLR 16/11 A2979 1150 69 1600 000/00 RMK AO2
14926KSTC STC20120603065011106/03/12 06:50:31  5-MIN KSTC 031250Z 00000KT 10SM CLR 17/12 A2979 1150 72 1600 000/00 RMK AO2 SLP093 T01670117
14926KSTC STC20120603065509406/03/12 06:55:31  5-MIN KSTC 031255Z 00000KT 10SM CLR 17/11 A2979 1140 67 1700 000/00 RMK AO2
14926KSTC STC20120603070009406/03/12 07:00:31  5-MIN KSTC 031300Z 00000KT 10SM CLR 17/11 A2980 1140 67 1700 000/00 RMK AO2
14926KSTC STC20120603070509406/03/12 07:05:31  5-MIN KSTC 031305Z 00000KT 10SM CLR 18/11 A2980 1140 64 1800 000/00 RMK AO2
14926KSTC STC20120603071009406/03/12 07:10:31  5-MIN KSTC 031310Z 00000KT 10SM CLR 18/11 A2980 1140 62 1800 000/00 RMK AO2
14926KSTC STC20120603071509406/03/12 07:15:31  5-MIN KSTC 031315Z 23003KT 10SM CLR 18/11 A2980 1140 64 1800 230/03 RMK AO2
14926KSTC STC20120603072009406/03/12 07:20:31  5-MIN KSTC 031320Z 00000KT 10SM CLR 18/11 A2980 1130 62 1800 000/00 RMK AO2
14926KSTC STC20120603072509406/03/12 07:25:31  5-MIN KSTC 031325Z 24003KT 10SM CLR 18/11 A2981 1130 60 1800 240/03 RMK AO2
14926KSTC STC20120603073009406/03/12 07:30:31  5-MIN KSTC 031330Z 25003KT 10SM CLR 19/11 A2981 1130 58 1900 250/03 RMK AO2
14926KSTC STC20120603073509406/03/12 07:35:31  5-MIN KSTC 031335Z 22003KT 10SM CLR 19/11 A2981 1130 58 1900 220/03 RMK AO2
14926KSTC STC20120603074009406/03/12 07:40:31  5-MIN KSTC 031340Z 00000KT 10SM CLR 19/11 A2981 1130 58 2000 000/00 RMK AO2
14926KSTC STC20120603074509406/03/12 07:45:31  5-MIN KSTC 031345Z 25004KT 10SM CLR 19/11 A2981 1130 56 2000 240/04 RMK AO2
14926KSTC STC20120603075011106/03/12 07:50:31  5-MIN KSTC 031350Z 00000KT 10SM CLR 19/11 A2981 1130 56 2000 000/00 RMK AO2 SLP098 T01940106
14926KSTC STC20120603075509406/03/12 07:55:31  5-MIN KSTC 031355Z 00000KT 10SM CLR 19/11 A2981 1130 58 1900 000/00 RMK AO2
14926KSTC STC20120603080009406/03/12 08:00:31  5-MIN KSTC 031400Z 00000KT 10SM CLR 21/11 A2981 1130 54 2100 000/00 RMK AO2
14926KSTC STC20120603080509406/03/12 08:05:31  5-MIN KSTC 031405Z 23003KT 10SM CLR 19/11 A2981 1130 58 2000 220/03 RMK AO2
14926KSTC STC20120603081009406/03/12 08:10:31  5-MIN KSTC 031410Z 23003KT 10SM CLR 20/11 A2981 1130 56 2000 230/03 RMK AO2
14926KSTC STC20120603081509406/03/12 08:15:31  5-MIN KSTC 031415Z 00000KT 10SM CLR 20/11 A2981 1130 54 2000 000/00 RMK AO2
14926KSTC STC20120603082009406/03/12 08:20:31  5-MIN KSTC 031420Z 00000KT 10SM CLR 21/11 A2980 1130 52 2100 000/00 RMK AO2
14926KSTC STC20120603082509406/03/12 08:25:31  5-MIN KSTC 031425Z 00000KT 10SM CLR 22/11 A2980 1130 49 2200 000/00 RMK AO2
14926KSTC STC20120603083009406/03/12 08:30:31  5-MIN KSTC 031430Z 00000KT 10SM CLR 22/11 A2981 1130 50 2200 000/00 RMK AO2
14926KSTC STC20120603083509406/03/12 08:35:31  5-MIN KSTC 031435Z 24003KT 10SM CLR 22/11 A2981 1130 50 2200 240/03 RMK AO2
14926KSTC STC20120603084009406/03/12 08:40:31  5-MIN KSTC 031440Z 25004KT 10SM CLR 22/11 A2981 1130 49 2300 250/04 RMK AO2
14926KSTC STC20120603084509406/03/12 08:45:31  5-MIN KSTC 031445Z 24003KT 10SM CLR 22/11 A2981 1130 50 2200 240/03 RMK AO2
14926KSTC STC20120603085011706/03/12 08:50:31  5-MIN KSTC 031450Z 25004KT 10SM CLR 22/11 A2981 1130 50 2200 240/04 RMK AO2 SLP100 T02170111 50006
14926KSTC STC20120603085509406/03/12 08:55:31  5-MIN KSTC 031455Z 26004KT 10SM CLR 22/11 A2981 1130 50 2200 260/04 RMK AO2
14926KSTC STC20120603090009406/03/12 09:00:31  5-MIN KSTC 031500Z 24003KT 10SM CLR 22/11 A2981 1130 49 2300 240/03 RMK AO2
14926KSTC STC20120603090509406/03/12 09:05:31  5-MIN KSTC 031505Z 24003KT 10SM CLR 23/11 A2981 1130 47 2300 240/03 RMK AO2
14926KSTC STC20120603091009406/03/12 09:10:31  5-MIN KSTC 031510Z 25003KT 10SM CLR 23/11 A2981 1130 47 2300 240/03 RMK AO2
14926KSTC STC20120603091509406/03/12 09:15:31  5-MIN KSTC 031515Z 24003KT 10SM CLR 23/12 A2981 1130 49 2300 240/03 RMK AO2
14926KSTC STC20120603092009406/03/12 09:20:31  5-MIN KSTC 031520Z 21006KT 10SM CLR 24/12 A2980 1130 46 2500 210/06 RMK AO2
14926KSTC STC20120603092509406/03/12 09:25:31  5-MIN KSTC 031525Z VRB04KT 10SM CLR 23/11 A2980 1140 44 2400 VRB/04 RMK AO2
14926KSTC STC20120603093009406/03/12 09:30:31  5-MIN KSTC 031530Z 21006KT 10SM CLR 23/10 A2980 1140 42 2400 210/06 RMK AO2
14926KSTC STC20120603093509406/03/12 09:35:31  5-MIN KSTC 031535Z 23006KT 10SM CLR 23/10 A2980 1140 42 2400 230/06 RMK AO2
14926KSTC STC20120603094009406/03/12 09:40:31  5-MIN KSTC 031540Z 23005KT 10SM CLR 23/09 A2980 1140 41 2400 230/05 RMK AO2
14926KSTC STC20120603094509406/03/12 09:45:31  5-MIN KSTC 031545Z 23004KT 10SM CLR 24/10 A2980 1140 41 2500 220/04 RMK AO2
14926KSTC STC20120603095011106/03/12 09:50:31  5-MIN KSTC 031550Z 24004KT 10SM CLR 24/10 A2980 1140 41 2500 240/04 RMK AO2 SLP096 T02390100
14926KSTC STC20120603095509406/03/12 09:55:31  5-MIN KSTC 031555Z 21005KT 10SM CLR 23/09 A2980 1140 41 2400 210/05 RMK AO2
14926KSTC STC20120603100009406/03/12 10:00:31  5-MIN KSTC 031600Z 21008KT 10SM CLR 23/09 A2980 1140 41 2400 210/08 RMK AO2
14926KSTC STC20120603100509406/03/12 10:05:31  5-MIN KSTC 031605Z 21009KT 10SM CLR 23/09 A2980 1140 39 2400 210/09 RMK AO2
14926KSTC STC20120603101009406/03/12 10:10:31  5-MIN KSTC 031610Z 23007KT 10SM CLR 23/08 A2980 1140 39 2300 230/07 RMK AO2
14926KSTC STC20120603101509706/03/12 10:15:31  5-MIN KSTC 031615Z 24008KT 10SM SCT120 23/09 A2980 1140 42 2300 240/08 RMK AO2
14926KSTC STC20120603102009706/03/12 10:20:31  5-MIN KSTC 031620Z 25006KT 10SM SCT120 23/10 A2980 1140 44 2300 250/06 RMK AO2
14926KSTC STC20120603102509706/03/12 10:25:31  5-MIN KSTC 031625Z 25004KT 10SM FEW120 23/11 A2980 1130 45 2300 240/04 RMK AO2
14926KSTC STC20120603103009706/03/12 10:30:31  5-MIN KSTC 031630Z 26004KT 10SM SCT110 23/11 A2981 1130 47 2300 260/04 RMK AO2
14926KSTC STC20120603103509706/03/12 10:35:31  5-MIN KSTC 031635Z 27005KT 10SM SCT110 23/12 A2981 1130 47 2400 270/05 RMK AO2
14926KSTC STC20120603104009706/03/12 10:40:31  5-MIN KSTC 031640Z 26006KT 10SM SCT120 23/12 A2981 1130 49 2300 260/06 RMK AO2
14926KSTC STC20120603104509706/03/12 10:45:31  5-MIN KSTC 031645Z 26005KT 10SM BKN120 23/12 A2981 1120 49 2300 250/05 RMK AO2
14926KSTC STC20120603105011406/03/12 10:50:31  5-MIN KSTC 031650Z 25007KT 10SM BKN120 23/12 A2982 1120 49 2300 250/07 RMK AO2 SLP103 T02280117
14926KSTC STC20120603105509706/03/12 10:55:31  5-MIN KSTC 031655Z 24006KT 10SM BKN120 23/11 A2982 1120 45 2300 240/06 RMK AO2
14926KSTC STC20120603110009706/03/12 11:00:31  5-MIN KSTC 031700Z 24007KT 10SM BKN120 23/11 A2982 1120 47 2300 240/07 RMK AO2
14926KSTC STC20120603110509706/03/12 11:05:31  5-MIN KSTC 031705Z 23006KT 10SM BKN110 23/11 A2981 1130 47 2300 220/06 RMK AO2
14926KSTC STC20120603111010406/03/12 11:10:31  5-MIN KSTC 031710Z 23006KT 10SM SCT095 BKN120 22/11 A2981 1130 47 2300 230/06 RMK AO2
14926KSTC STC20120603111511106/03/12 11:15:31  5-MIN KSTC 031715Z 24006KT 10SM FEW055 SCT090 BKN120 22/11 A2981 1120 47 2300 240/06 RMK AO2
14926KSTC STC20120603112011106/03/12 11:20:31  5-MIN KSTC 031720Z 23008KT 10SM FEW055 SCT090 BKN110 22/11 A2982 1120 49 2300 230/08 RMK AO2
14926KSTC STC20120603112510406/03/12 11:25:31  5-MIN KSTC 031725Z 22010KT 10SM FEW090 BKN110 22/11 A2982 1120 49 2300 220/10 RMK AO2
14926KSTC STC20120603113010406/03/12 11:30:31  5-MIN KSTC 031730Z 22010KT 10SM FEW090 BKN110 22/11 A2982 1120 47 2300 220/10 RMK AO2
14926KSTC STC20120603113510406/03/12 11:35:31  5-MIN KSTC 031735Z 22009KT 10SM FEW085 OVC110 22/11 A2982 1120 49 2200 220/09 RMK AO2
14926KSTC STC20120603114009706/03/12 11:40:31  5-MIN KSTC 031740Z 23008KT 10SM OVC100 22/11 A2983 1110 49 2200 230/08 RMK AO2
14926KSTC STC20120603114509706/03/12 11:45:31  5-MIN KSTC 031745Z 23008KT 10SM OVC100 21/11 A2983 1110 50 2100 230/08 RMK AO2
14926KSTC STC20120603115013206/03/12 11:50:31  5-MIN KSTC 031750Z 23007KT 10SM OVC100 21/11 A2982 1120 50 2100 230/07 RMK AO2 SLP107 T02110106 10239 20128 51006
14926KSTC STC20120603115509706/03/12 11:55:31  5-MIN KSTC 031755Z 23006KT 10SM OVC100 21/11 A2982 1120 50 2100 230/06 RMK AO2
14926KSTC STC20120603120009706/03/12 12:00:31  5-MIN KSTC 031800Z 24004KT 10SM OVC100 21/11 A2982 1120 50 2100 240/04 RMK AO2
14926KSTC STC20120603120509706/03/12 12:05:31  5-MIN KSTC 031805Z 23006KT 10SM OVC100 21/11 A2982 1120 50 2100 230/06 RMK AO2
14926KSTC STC20120603121009706/03/12 12:10:31  5-MIN KSTC 031810Z 23006KT 10SM OVC100 21/11 A2982 1120 50 2100 230/06 RMK AO2
14926KSTC STC20120603121509706/03/12 12:15:31  5-MIN KSTC 031815Z 21006KT 10SM OVC100 21/11 A2982 1120 52 2100 210/06 RMK AO2
14926KSTC STC20120603122009706/03/12 12:20:31  5-MIN KSTC 031820Z 22005KT 10SM OVC100 21/11 A2982 1120 52 2100 220/05 RMK AO2
14926KSTC STC20120603122509706/03/12 12:25:31  5-MIN KSTC 031825Z 22005KT 10SM OVC100 21/11 A2982 1120 50 2100 210/05 RMK AO2
14926KSTC STC20120603123009706/03/12 12:30:31  5-MIN KSTC 031830Z 21004KT 10SM OVC100 22/11 A2982 1120 50 2200 210/04 RMK AO2
14926KSTC STC20120603123509706/03/12 12:35:31  5-MIN KSTC 031835Z 21006KT 10SM OVC100 22/11 A2982 1120 49 2200 200/06 RMK AO2
14926KSTC STC20120603124009706/03/12 12:40:31  5-MIN KSTC 031840Z 23005KT 10SM OVC100 22/11 A2981 1120 49 2200 230/05 RMK AO2
14926KSTC STC20120603124509706/03/12 12:45:31  5-MIN KSTC 031845Z 19005KT 10SM OVC100 22/11 A2981 1130 49 2300 190/05 RMK AO2
14926KSTC STC20120603125011406/03/12 12:50:31  5-MIN KSTC 031850Z 19003KT 10SM OVC100 22/11 A2981 1130 47 2300 190/03 RMK AO2 SLP101 T02220106
14926KSTC STC20120603125509706/03/12 12:55:31  5-MIN KSTC 031855Z 18004KT 10SM OVC100 22/11 A2981 1130 47 2300 180/04 RMK AO2
14926KSTC STC20120603130009706/03/12 13:00:31  5-MIN KSTC 031900Z 15005KT 10SM OVC100 22/12 A2980 1140 51 2300 140/05 RMK AO2
14926KSTC STC20120603130509706/03/12 13:05:31  5-MIN KSTC 031905Z 17004KT 10SM BKN100 23/12 A2980 1140 47 2400 170/04 RMK AO2
14926KSTC STC20120603131009706/03/12 13:10:31  5-MIN KSTC 031910Z 18007KT 10SM BKN110 23/11 A2980 1140 45 2400 180/07 RMK AO2
14926KSTC STC20120603131509706/03/12 13:15:31  5-MIN KSTC 031915Z 19005KT 10SM BKN110 23/11 A2980 1140 45 2300 190/05 RMK AO2
14926KSTC STC20120603132010406/03/12 13:20:31  5-MIN KSTC 031920Z 17007KT 10SM FEW100 BKN120 23/11 A2980 1140 45 2400 170/07 RMK AO2
14926KSTC STC20120603140509706/03/12 14:05:31  5-MIN KSTC 032005Z 21005KT 10SM OVC090 24/10 A2980 1140 41 2500 200/05 RMK AO2
14926KSTC STC20120603141009706/03/12 14:10:31  5-MIN KSTC 032010Z 11005KT 10SM OVC090 24/09 A2980 1140 39 2500 110/05 RMK AO2
14926KSTC STC20120603141509706/03/12 14:15:31  5-MIN KSTC 032015Z 12005KT 10SM OVC090 24/10 A2980 1140 41 2500 120/05 RMK AO2
14926KSTC STC20120603142009706/03/12 14:20:31  5-MIN KSTC 032020Z VRB03KT 10SM OVC085 24/10 A2980 1140 41 2500 VRB/03 RMK AO2
14926KSTC STC20120603142509706/03/12 14:25:31  5-MIN KSTC 032025Z VRB05KT 10SM OVC085 24/10 A2980 1140 41 2500 VRB/05 RMK AO2
14926KSTC STC20120603143009706/03/12 14:30:31  5-MIN KSTC 032030Z 16006KT 10SM OVC085 24/11 A2980 1140 42 2500 160/06 RMK AO2
14926KSTC STC20120603143509706/03/12 14:35:31  5-MIN KSTC 032035Z 18006KT 10SM OVC085 24/11 A2980 1140 42 2500 180/06 RMK AO2
14926KSTC STC20120603144009706/03/12 14:40:31  5-MIN KSTC 032040Z 16006KT 10SM OVC085 24/11 A2980 1140 42 2500 160/06 RMK AO2
14926KSTC STC20120603144509706/03/12 14:45:31  5-MIN KSTC 032045Z 14007KT 10SM OVC085 24/10 A2980 1140 41 2500 140/07 RMK AO2
14926KSTC STC20120603145012006/03/12 14:50:31  5-MIN KSTC 032050Z 18004KT 10SM OVC090 24/09 A2980 1140 39 2500 180/04 RMK AO2 SLP097 T02390094 53005
14926KSTC STC20120603145509706/03/12 14:55:31  5-MIN KSTC 032055Z 18005KT 10SM OVC090 24/10 A2980 1140 41 2500 180/05 RMK AO2
14926KSTC STC20120603150009706/03/12 15:00:31  5-MIN KSTC 032100Z 16005KT 10SM OVC090 24/09 A2980 1140 39 2500 160/05 RMK AO2
14926KSTC STC20120603150509706/03/12 15:05:31  5-MIN KSTC 032105Z 17007KT 10SM OVC090 24/09 A2980 1140 39 2500 170/07 RMK AO2
14926KSTC STC20120603151009706/03/12 15:10:31  5-MIN KSTC 032110Z 20003KT 10SM OVC095 24/09 A2980 1140 39 2500 200/03 RMK AO2
14926KSTC STC20120603151510406/03/12 15:15:31  5-MIN KSTC 032115Z 15005KT 10SM FEW080 OVC095 24/10 A2980 1140 41 2500 150/05 RMK AO2
14926KSTC STC20120603152010406/03/12 15:20:31  5-MIN KSTC 032120Z 17003KT 10SM FEW080 OVC095 23/09 A2980 1140 41 2400 170/03 RMK AO2
14926KSTC STC20120603152510406/03/12 15:25:31  5-MIN KSTC 032125Z 16005KT 10SM FEW080 OVC095 24/10 A2980 1140 41 2500 160/05 RMK AO2
14926KSTC STC20120603153010406/03/12 15:30:31  5-MIN KSTC 032130Z 15004KT 10SM FEW080 OVC095 24/09 A2979 1150 39 2500 150/04 RMK AO2
14926KSTC STC20120603153510406/03/12 15:35:31  5-MIN KSTC 032135Z VRB05KT 10SM FEW080 BKN095 25/09 A2979 1150 37 2600 VRB/05 RMK AO2
14926KSTC STC20120603154010406/03/12 15:40:31  5-MIN KSTC 032140Z 11007KT 10SM FEW080 BKN095 25/09 A2979 1150 37 2600 110/07 RMK AO2
14926KSTC STC20120603154509706/03/12 15:45:31  5-MIN KSTC 032145Z 13005KT 10SM SCT095 24/10 A2979 1150 39 2500 130/05 RMK AO2
14926KSTC STC20120603155011406/03/12 15:50:31  5-MIN KSTC 032150Z 14004KT 10SM SCT095 24/10 A2979 1150 41 2500 140/04 RMK AO2 SLP094 T02390100
14926KSTC STC20120603155509706/03/12 15:55:31  5-MIN KSTC 032155Z 11004KT 10SM FEW095 24/09 A2979 1150 39 2500 110/04 RMK AO2
14926KSTC STC20120603160009406/03/12 16:00:31  5-MIN KSTC 032200Z 14005KT 10SM CLR 24/10 A2978 1150 39 2500 130/05 RMK AO2
14926KSTC STC20120603160509406/03/12 16:05:31  5-MIN KSTC 032205Z 16006KT 10SM CLR 25/10 A2978 1150 38 2600 160/06 RMK AO2
14926KSTC STC20120603161009406/03/12 16:10:31  5-MIN KSTC 032210Z 17008KT 10SM CLR 25/09 A2978 1150 37 2600 170/08 RMK AO2
14926KSTC STC20120603161509406/03/12 16:15:31  5-MIN KSTC 032215Z 17006KT 10SM CLR 25/09 A2978 1150 37 2600 170/06 RMK AO2
14926KSTC STC20120603162009406/03/12 16:20:31  5-MIN KSTC 032220Z 14008KT 10SM CLR 25/09 A2978 1150 35 2600 140/08 RMK AO2
14926KSTC STC20120603162509406/03/12 16:25:31  5-MIN KSTC 032225Z VRB06KT 10SM CLR 26/09 A2979 1150 34 2700 VRB/06 RMK AO2
14926KSTC STC20120603163009406/03/12 16:30:31  5-MIN KSTC 032230Z 12006KT 10SM CLR 25/09 A2979 1150 35 2600 110/06 RMK AO2
14926KSTC STC20120603163509406/03/12 16:35:31  5-MIN KSTC 032235Z 12006KT 10SM CLR 26/08 A2979 1150 33 2700 120/06 RMK AO2
14926KSTC STC20120603164009406/03/12 16:40:31  5-MIN KSTC 032240Z VRB04KT 10SM CLR 25/09 A2979 1150 35 2600 VRB/04 RMK AO2
14926KSTC STC20120603164509406/03/12 16:45:31  5-MIN KSTC 032245Z 14004KT 10SM CLR 25/09 A2979 1150 37 2600 140/04 RMK AO2
14926KSTC STC20120603165011106/03/12 16:50:31  5-MIN KSTC 032250Z 16004KT 10SM CLR 26/10 A2979 1150 37 2700 150/04 RMK AO2 SLP094 T02560100
14926KSTC STC20120603165509706/03/12 16:55:31  5-MIN KSTC 032255Z VRB04KT 10SM FEW120 24/09 A2979 1150 36 2500 VRB/04 RMK AO2
14926KSTC STC20120603170009706/03/12 17:00:31  5-MIN KSTC 032300Z 12005KT 10SM FEW120 25/09 A2979 1140 37 2600 120/05 RMK AO2
14926KSTC STC20120603170509706/03/12 17:05:31  5-MIN KSTC 032305Z 16005KT 10SM SCT120 26/09 A2979 1140 35 2700 160/05 RMK AO2
14926KSTC STC20120603171009706/03/12 17:10:31  5-MIN KSTC 032310Z VRB05KT 10SM SCT110 25/09 A2979 1140 35 2600 VRB/05 RMK AO2
14926KSTC STC20120603171509706/03/12 17:15:31  5-MIN KSTC 032315Z VRB03KT 10SM FEW110 25/09 A2979 1140 37 2600 VRB/03 RMK AO2
14926KSTC STC20120603172009706/03/12 17:20:31  5-MIN KSTC 032320Z VRB06KT 10SM FEW110 26/10 A2979 1140 37 2700 VRB/06 RMK AO2
14926KSTC STC20120603172509706/03/12 17:25:31  5-MIN KSTC 032325Z 15005KT 10SM FEW110 24/09 A2979 1150 38 2500 150/05 RMK AO2
14926KSTC STC20120603173009706/03/12 17:30:31  5-MIN KSTC 032330Z 15005KT 10SM FEW110 24/09 A2980 1140 38 2500 150/05 RMK AO2
14926KSTC STC20120603173509406/03/12 17:35:31  5-MIN KSTC 032335Z 13005KT 10SM CLR 24/09 A2980 1140 38 2500 130/05 RMK AO2
14926KSTC STC20120603174009406/03/12 17:40:31  5-MIN KSTC 032340Z 13003KT 10SM CLR 24/10 A2980 1140 41 2500 130/03 RMK AO2
14926KSTC STC20120603174509406/03/12 17:45:31  5-MIN KSTC 032345Z 12005KT 10SM CLR 24/10 A2980 1140 39 2500 120/05 RMK AO2
14926KSTC STC20120603175012906/03/12 17:50:31  5-MIN KSTC 032350Z 14005KT 10SM CLR 24/09 A2979 1140 38 2500 140/05 RMK AO2 SLP095 T02440094 10256 20211 55008
14926KSTC STC20120603175509406/03/12 17:55:31  5-MIN KSTC 032355Z 14005KT 10SM CLR 24/09 A2979 1150 38 2500 140/05 RMK AO2
14926KSTC STC20120603180009406/03/12 18:00:31  5-MIN KSTC 040000Z 13005KT 10SM CLR 24/09 A2979 1150 38 2500 130/05 RMK AO2
14926KSTC STC20120603180509406/03/12 18:05:31  5-MIN KSTC 040005Z 13006KT 10SM CLR 23/09 A2979 1140 41 2400 130/06 RMK AO2
14926KSTC STC20120603181009706/03/12 18:10:31  5-MIN KSTC 040010Z 13004KT 10SM FEW110 23/09 A2980 1140 39 2400 130/04 RMK AO2
14926KSTC STC20120603181509706/03/12 18:15:31  5-MIN KSTC 040015Z 13005KT 10SM BKN110 23/09 A2980 1140 39 2400 130/05 RMK AO2
14926KSTC STC20120603182009706/03/12 18:20:31  5-MIN KSTC 040020Z 11004KT 10SM BKN110 23/09 A2980 1140 39 2400 110/04 RMK AO2
14926KSTC STC20120603182509706/03/12 18:25:31  5-MIN KSTC 040025Z 12005KT 10SM BKN110 23/08 A2980 1140 38 2400 120/05 RMK AO2
14926KSTC STC20120603183009706/03/12 18:30:31  5-MIN KSTC 040030Z 13005KT 10SM SCT110 23/09 A2980 1140 39 2400 130/05 RMK AO2
14926KSTC STC20120603183509706/03/12 18:35:31  5-MIN KSTC 040035Z 13005KT 10SM SCT100 23/09 A2980 1140 39 2400 130/05 RMK AO2
14926KSTC STC20120603184009706/03/12 18:40:31  5-MIN KSTC 040040Z 13003KT 10SM SCT100 23/09 A2980 1140 42 2300 130/03 RMK AO2
14926KSTC STC20120603184509706/03/12 18:45:31  5-MIN KSTC 040045Z 13003KT 10SM SCT110 23/10 A2980 1140 44 2300 130/03 RMK AO2
14926KSTC STC20120603185011406/03/12 18:50:31  5-MIN KSTC 040050Z 00000KT 10SM BKN110 23/10 A2980 1140 44 2300 000/00 RMK AO2 SLP095 T02280100
14926KSTC STC20120603185509706/03/12 18:55:31  5-MIN KSTC 040055Z 13003KT 10SM BKN110 23/10 A2980 1140 44 2300 130/03 RMK AO2
14926KSTC STC20120603190009706/03/12 19:00:31  5-MIN KSTC 040100Z 13004KT 10SM BKN110 23/10 A2980 1140 44 2300 130/04 RMK AO2
14926KSTC STC20120603190509706/03/12 19:05:31  5-MIN KSTC 040105Z 12004KT 10SM BKN110 23/09 A2980 1140 42 2300 120/04 RMK AO2
14926KSTC STC20120603191009706/03/12 19:10:31  5-MIN KSTC 040110Z 12003KT 10SM BKN110 23/09 A2980 1140 42 2300 120/03 RMK AO2
14926KSTC STC20120603191509706/03/12 19:15:31  5-MIN KSTC 040115Z 12004KT 10SM OVC120 23/10 A2980 1140 44 2300 120/04 RMK AO2
14926KSTC STC20120603192009706/03/12 19:20:31  5-MIN KSTC 040120Z 11003KT 10SM BKN110 23/10 A2980 1140 44 2300 110/03 RMK AO2
14926KSTC STC20120603192509706/03/12 19:25:31  5-MIN KSTC 040125Z 00000KT 10SM OVC110 23/10 A2980 1130 44 2300 000/00 RMK AO2
14926KSTC STC20120603193009706/03/12 19:30:31  5-MIN KSTC 040130Z 00000KT 10SM OVC110 23/11 A2981 1130 45 2300 000/00 RMK AO2
14926KSTC STC20120603193509706/03/12 19:35:31  5-MIN KSTC 040135Z 00000KT 10SM OVC110 23/11 A2981 1130 45 2300 000/00 RMK AO2
14926KSTC STC20120603194009706/03/12 19:40:31  5-MIN KSTC 040140Z 00000KT 10SM OVC110 22/12 A2981 1130 51 2300 000/00 RMK AO2
14926KSTC STC20120603194509706/03/12 19:45:31  5-MIN KSTC 040145Z 10003KT 10SM OVC110 22/12 A2981 1130 54 2200 100/03 RMK AO2
14926KSTC STC20120603195011406/03/12 19:50:31  5-MIN KSTC 040150Z 09003KT 10SM OVC110 22/12 A2981 1130 52 2200 090/03 RMK AO2 SLP098 T02170117
14926KSTC STC20120603195509706/03/12 19:55:31  5-MIN KSTC 040155Z 09003KT 10SM OVC110 22/12 A2981 1130 52 2200 090/03 RMK AO2
14926KSTC STC20120603200009706/03/12 20:00:31  5-MIN KSTC 040200Z 10003KT 10SM OVC110 21/11 A2981 1130 52 2100 100/03 RMK AO2
14926KSTC STC20120603200509706/03/12 20:05:31  5-MIN KSTC 040205Z 00000KT 10SM OVC120 21/12 A2981 1130 54 2100 000/00 RMK AO2
14926KSTC STC20120603201009706/03/12 20:10:31  5-MIN KSTC 040210Z 11003KT 10SM BKN120 21/12 A2982 1120 54 2100 110/03 RMK AO2
14926KSTC STC20120603201509706/03/12 20:15:31  5-MIN KSTC 040215Z 12003KT 10SM BKN120 19/12 A2981 1120 60 1900 120/03 RMK AO2
14926KSTC STC20120603202009706/03/12 20:20:31  5-MIN KSTC 040220Z 12003KT 10SM SCT120 19/12 A2982 1120 60 1900 120/03 RMK AO2
14926KSTC STC20120603202509706/03/12 20:25:31  5-MIN KSTC 040225Z 11003KT 10SM FEW120 19/11 A2982 1120 58 1900 110/03 RMK AO2
14926KSTC STC20120603203009706/03/12 20:30:31  5-MIN KSTC 040230Z 11003KT 10SM SCT110 19/11 A2983 1110 58 1900 110/03 RMK AO2
14926KSTC STC20120603203509706/03/12 20:35:31  5-MIN KSTC 040235Z 11003KT 10SM SCT100 18/12 A2983 1110 67 1800 110/03 RMK AO2
14926KSTC STC20120603204009706/03/12 20:40:31  5-MIN KSTC 040240Z 11003KT 10SM SCT100 18/12 A2983 1110 69 1700 110/03 RMK AO2
14926KSTC STC20120603204509706/03/12 20:45:31  5-MIN KSTC 040245Z 00000KT 10SM BKN100 18/12 A2983 1110 69 1700 000/00 RMK AO2
14926KSTC STC20120603205012006/03/12 20:50:31  5-MIN KSTC 040250Z 12003KT 10SM BKN100 18/12 A2983 1110 67 1800 120/03 RMK AO2 SLP106 T01830122 55002
14926KSTC STC20120603205509706/03/12 20:55:31  5-MIN KSTC 040255Z 12003KT 10SM BKN100 18/12 A2983 1110 69 1700 120/03 RMK AO2
14926KSTC STC20120603210009706/03/12 21:00:31  5-MIN KSTC 040300Z 13003KT 10SM BKN100 18/12 A2983 1110 67 1700 130/03 RMK AO2
14926KSTC STC20120603210509706/03/12 21:05:31  5-MIN KSTC 040305Z 12003KT 10SM SCT100 18/12 A2983 1110 67 1700 120/03 RMK AO2
14926KSTC STC20120603211009706/03/12 21:10:31  5-MIN KSTC 040310Z 12003KT 10SM SCT100 17/12 A2983 1110 69 1700 120/03 RMK AO2
14926KSTC STC20120603211509706/03/12 21:15:31  5-MIN KSTC 040315Z 11003KT 10SM FEW100 17/12 A2983 1110 69 1700 110/03 RMK AO2
14926KSTC STC20120603212009406/03/12 21:20:31  5-MIN KSTC 040320Z 00000KT 10SM CLR 16/12 A2983 1110 75 1500 000/00 RMK AO2
14926KSTC STC20120603212509406/03/12 21:25:31  5-MIN KSTC 040325Z 00000KT 10SM CLR 16/12 A2984 1100 77 1500 000/00 RMK AO2
14926KSTC STC20120603213009406/03/12 21:30:31  5-MIN KSTC 040330Z 00000KT 10SM CLR 16/12 A2984 1100 80 1500 000/00 RMK AO2
14926KSTC STC20120603213509406/03/12 21:35:31  5-MIN KSTC 040335Z 00000KT 10SM CLR 16/12 A2984 1100 77 1500 000/00 RMK AO2
14926KSTC STC20120603214009406/03/12 21:40:31  5-MIN KSTC 040340Z 00000KT 10SM CLR 16/12 A2983 1110 77 1500 000/00 RMK AO2
14926KSTC STC20120603214509406/03/12 21:45:31  5-MIN KSTC 040345Z 00000KT 10SM CLR 16/12 A2984 1100 77 1500 000/00 RMK AO2
14926KSTC STC20120603215011106/03/12 21:50:31  5-MIN KSTC 040350Z 00000KT 10SM CLR 16/12 A2984 1100 80 1500 000/00 RMK AO2 SLP109 T01560122
14926KSTC STC20120603215509406/03/12 21:55:31  5-MIN KSTC 040355Z 00000KT 10SM CLR 16/12 A2984 1100 80 1500 000/00 RMK AO2
14926KSTC STC20120603220009906/03/12 22:00:31  5-MIN KSTC 040400Z AUTO 00000KT 10SM CLR 15/12 A2985 1100 83 1400 000/00 RMK AO2
14926KSTC STC20120603220509906/03/12 22:05:31  5-MIN KSTC 040405Z AUTO 00000KT 10SM CLR 15/12 A2984 1100 83 1400 000/00 RMK AO2
14926KSTC STC20120603221009906/03/12 22:10:31  5-MIN KSTC 040410Z AUTO 00000KT 10SM CLR 14/12 A2984 1100 83 1300 000/00 RMK AO2
14926KSTC STC20120603221509906/03/12 22:15:31  5-MIN KSTC 040415Z AUTO 13003KT 10SM CLR 15/12 A2984 1100 80 1400 130/03 RMK AO2
14926KSTC STC20120603222009906/03/12 22:20:31  5-MIN KSTC 040420Z AUTO 00000KT 10SM CLR 15/12 A2984 1100 83 1400 000/00 RMK AO2
14926KSTC STC20120603222509906/03/12 22:25:31  5-MIN KSTC 040425Z AUTO 00000KT 10SM CLR 14/12 A2983 1110 86 1300 000/00 RMK AO2
14926KSTC STC20120603223009906/03/12 22:30:31  5-MIN KSTC 040430Z AUTO 00000KT 10SM CLR 14/12 A2983 1110 83 1300 000/00 RMK AO2
14926KSTC STC20120603223509906/03/12 22:35:31  5-MIN KSTC 040435Z AUTO 18003KT 10SM CLR 14/12 A2983 1110 86 1300 180/03 RMK AO2
14926KSTC STC20120603224009906/03/12 22:40:31  5-MIN KSTC 040440Z AUTO 00000KT 10SM CLR 14/12 A2983 1110 86 1300 000/00 RMK AO2
14926KSTC STC20120603224509906/03/12 22:45:31  5-MIN KSTC 040445Z AUTO 00000KT 10SM CLR 16/12 A2983 1110 80 1500 000/00 RMK AO2
14926KSTC STC20120603225011606/03/12 22:50:31  5-MIN KSTC 040450Z AUTO 00000KT 10SM CLR 14/12 A2984 1100 83 1300 000/00 RMK AO2 SLP111 T01440117
14926KSTC STC20120603225509906/03/12 22:55:31  5-MIN KSTC 040455Z AUTO 00000KT 10SM CLR 14/12 A2985 1090 86 1300 000/00 RMK AO2
14926KSTC STC20120603230009906/03/12 23:00:31  5-MIN KSTC 040500Z AUTO 00000KT 10SM CLR 14/12 A2985 1090 86 1300 000/00 RMK AO2
14926KSTC STC20120603230509906/03/12 23:05:31  5-MIN KSTC 040505Z AUTO 00000KT 10SM CLR 14/12 A2985 1090 86 1300 000/00 RMK AO2
14926KSTC STC20120603231009906/03/12 23:10:31  5-MIN KSTC 040510Z AUTO 00000KT 10SM CLR 14/12 A2985 1090 86 1300 000/00 RMK AO2
14926KSTC STC20120603231509906/03/12 23:15:31  5-MIN KSTC 040515Z AUTO 00000KT 10SM CLR 14/12 A2985 1100 86 1300 000/00 RMK AO2
14926KSTC STC20120603232009906/03/12 23:20:31  5-MIN KSTC 040520Z AUTO 00000KT 10SM CLR 14/12 A2984 1100 86 1300 000/00 RMK AO2
14926KSTC STC20120603232509906/03/12 23:25:31  5-MIN KSTC 040525Z AUTO 00000KT 10SM CLR 14/12 A2984 1100 86 1300 000/00 RMK AO2
14926KSTC STC20120603233009906/03/12 23:30:31  5-MIN KSTC 040530Z AUTO 00000KT 10SM CLR 14/12 A2984 1100 90 1300 000/00 RMK AO2
14926KSTC STC20120603233509906/03/12 23:35:31  5-MIN KSTC 040535Z AUTO 00000KT 10SM CLR 14/12 A2984 1100 86 1300 000/00 RMK AO2
14926KSTC STC20120603234010206/03/12 23:40:31  5-MIN KSTC 040540Z AUTO 00000KT 10SM FEW100 14/12 A2984 1100 86 1300 000/00 RMK AO2
14926KSTC STC20120603234510206/03/12 23:45:31  5-MIN KSTC 040545Z AUTO 00000KT 10SM FEW100 13/12 A2984 1100 89 1200 000/00 RMK AO2
14926KSTC STC20120603235014706/03/12 23:50:31  5-MIN KSTC 040550Z AUTO 00000KT 10SM FEW100 13/12 A2984 1100 89 1200 000/00 RMK AO2 SLP111 T01330117 10244 20133 402560083 53012
14926KSTC STC20120603235510206/03/12 23:55:31  5-MIN KSTC 040555Z AUTO 00000KT 10SM FEW100 13/12 A2984 1100 93 1100 000/00 RMK AO2
14926KSTC STC20120604000010206/04/12 00:00:32  5-MIN KSTC 040600Z AUTO 00000KT 10SM FEW100 13/11 A2983 1110 89 1100 000/00 RMK AO2
14926KSTC STC20120604000510206/04/12 00:05:31  5-MIN KSTC 040605Z AUTO 00000KT 10SM FEW100 12/11 A2983 1110 93 1100 000/00 RMK AO2
14926KSTC STC20120604001010206/04/12 00:10:31  5-MIN KSTC 040610Z AUTO 00000KT 10SM FEW100 13/12 A2983 1110 93 1100 000/00 RMK AO2
14926KSTC STC20120604001509906/04/12 00:15:31  5-MIN KSTC 040615Z AUTO 00000KT 10SM CLR 13/12 A2983 1110 93 1100 000/00 RMK AO2
14926KSTC STC20120604002009906/04/12 00:20:31  5-MIN KSTC 040620Z AUTO 00000KT 10SM CLR 13/12 A2984 1100 89 1200 000/00 RMK AO2
14926KSTC STC20120604002510206/04/12 00:25:31  5-MIN KSTC 040625Z AUTO 00000KT 10SM FEW100 13/12 A2984 1100 89 1200 000/00 RMK AO2
14926KSTC STC20120604003010206/04/12 00:30:31  5-MIN KSTC 040630Z AUTO 00000KT 10SM SCT100 13/12 A2985 1100 89 1200 000/00 RMK AO2
14926KSTC STC20120604003510206/04/12 00:35:31  5-MIN KSTC 040635Z AUTO 00000KT 10SM BKN100 13/12 A2984 1100 89 1200 000/00 RMK AO2
14926KSTC STC20120604004010206/04/12 00:40:31  5-MIN KSTC 040640Z AUTO 00000KT 10SM SCT100 13/12 A2984 1100 93 1100 000/00 RMK AO2
14926KSTC STC20120604004510206/04/12 00:45:31  5-MIN KSTC 040645Z AUTO 00000KT 10SM SCT100 13/12 A2984 1100 89 1200 000/00 RMK AO2
14926KSTC STC20120604005011906/04/12 00:50:31  5-MIN KSTC 040650Z AUTO 00000KT 10SM SCT100 13/12 A2984 1100 93 1100 000/00 RMK AO2 SLP113 T01280117
14926KSTC STC20120604005510206/04/12 00:55:31  5-MIN KSTC 040655Z AUTO 00000KT 10SM FEW100 13/12 A2984 1100 93 1100 000/00 RMK AO2
14926KSTC STC20120604010010206/04/12 01:00:31  5-MIN KSTC 040700Z AUTO 00000KT 10SM FEW100 13/12 A2984 1100 93 1100 000/00 RMK AO2
14926KSTC STC20120604010509906/04/12 01:05:31  5-MIN KSTC 040705Z AUTO 00000KT 10SM CLR 13/12 A2984 1100 93 1100 000/00 RMK AO2
14926KSTC STC20120604011009906/04/12 01:10:31  5-MIN KSTC 040710Z AUTO 00000KT 10SM CLR 13/12 A2984 1100 89 1200 000/00 RMK AO2
14926KSTC STC20120604011509906/04/12 01:15:31  5-MIN KSTC 040715Z AUTO 00000KT 10SM CLR 13/12 A2984 1100 93 1100 000/00 RMK AO2
14926KSTC STC20120604012009906/04/12 01:20:31  5-MIN KSTC 040720Z AUTO 00000KT 10SM CLR 13/11 A2984 1100 89 1100 000/00 RMK AO2
14926KSTC STC20120604012509906/04/12 01:25:31  5-MIN KSTC 040725Z AUTO 00000KT 10SM CLR 13/12 A2984 1100 93 1100 000/00 RMK AO2
14926KSTC STC20120604013009906/04/12 01:30:31  5-MIN KSTC 040730Z AUTO 00000KT 10SM CLR 13/12 A2984 1100 93 1100 000/00 RMK AO2
14926KSTC STC20120604013509906/04/12 01:35:31  5-MIN KSTC 040735Z AUTO 00000KT 10SM CLR 13/12 A2984 1100 89 1200 000/00 RMK AO2
14926KSTC STC20120604014009906/04/12 01:40:31  5-MIN KSTC 040740Z AUTO 00000KT 10SM CLR 12/11 A2984 1100 93 1100 000/00 RMK AO2
14926KSTC STC20120604014509906/04/12 01:45:31  5-MIN KSTC 040745Z AUTO 00000KT 10SM CLR 12/11 A2984 1100 93 1100 000/00 RMK AO2
14926KSTC STC20120604015011606/04/12 01:50:31  5-MIN KSTC 040750Z AUTO 00000KT 10SM CLR 12/11 A2984 1100 93 1100 000/00 RMK AO2 SLP112 T01220111
14926KSTC STC20120604015509906/04/12 01:55:31  5-MIN KSTC 040755Z AUTO 00000KT 10SM CLR 12/12 A2984 1100 96 1100 000/00 RMK AO2
14926KSTC STC20120604020009906/04/12 02:00:31  5-MIN KSTC 040800Z AUTO 00000KT 10SM CLR 12/12 A2984 1100 96 1100 000/00 RMK AO2
14926KSTC STC20120604020509806/04/12 02:05:31  5-MIN KSTC 040805Z AUTO 00000KT 9SM CLR 12/11 A2984 1100 93 1100 000/00 RMK AO2
14926KSTC STC20120604021009806/04/12 02:10:31  5-MIN KSTC 040810Z AUTO 00000KT 8SM CLR 12/11 A2984 1100 93 1100 000/00 RMK AO2
14926KSTC STC20120604021509806/04/12 02:15:31  5-MIN KSTC 040815Z AUTO 00000KT 9SM CLR 12/11 A2985 1100 93 1100 000/00 RMK AO2
14926KSTC STC20120604022009806/04/12 02:20:31  5-MIN KSTC 040820Z AUTO 00000KT 9SM CLR 12/11 A2985 1090 93 1100 000/00 RMK AO2
14926KSTC STC20120604022509806/04/12 02:25:31  5-MIN KSTC 040825Z AUTO 00000KT 8SM CLR 12/11 A2985 1090 93 1100 000/00 RMK AO2
14926KSTC STC20120604023009806/04/12 02:30:31  5-MIN KSTC 040830Z AUTO 00000KT 7SM CLR 12/11 A2985 1090 96 1000 000/00 RMK AO2
14926KSTC STC20120604023509806/04/12 02:35:31  5-MIN KSTC 040835Z AUTO 00000KT 7SM CLR 12/11 A2985 1090 96 1000 000/00 RMK AO2
14926KSTC STC20120604024010106/04/12 02:40:31  5-MIN KSTC 040840Z AUTO 00000KT 6SM BR CLR 12/12 A2985 1090 96 1100 000/00 RMK AO2
14926KSTC STC20120604024510106/04/12 02:45:31  5-MIN KSTC 040845Z AUTO 00000KT 7SM FEW120 12/12 A2985 1090 96 1100 000/00 RMK AO2
14926KSTC STC20120604025012406/04/12 02:50:31  5-MIN KSTC 040850Z AUTO 00000KT 9SM SCT120 12/11 A2985 1090 96 1000 000/00 RMK AO2 SLP116 T01170111 50002
14926KSTC STC20120604025510106/04/12 02:55:31  5-MIN KSTC 040855Z AUTO 00000KT 8SM BKN120 12/11 A2986 1080 93 1000 000/00 RMK AO2
14926KSTC STC20120604030010806/04/12 03:00:31  5-MIN KSTC 040900Z AUTO 00000KT 7SM SCT070 BKN120 12/11 A2986 1080 93 1000 000/00 RMK AO2
14926KSTC STC20120604030510806/04/12 03:05:31  5-MIN KSTC 040905Z AUTO 00000KT 8SM BKN070 BKN120 12/11 A2986 1090 93 1100 000/00 RMK AO2
14926KSTC STC20120604031010806/04/12 03:10:31  5-MIN KSTC 040910Z AUTO 00000KT 9SM BKN070 BKN120 12/11 A2985 1090 93 1100 000/00 RMK AO2
14926KSTC STC20120604031510806/04/12 03:15:31  5-MIN KSTC 040915Z AUTO 00000KT 9SM SCT070 BKN120 12/11 A2985 1090 93 1100 000/00 RMK AO2
14926KSTC STC20120604032010806/04/12 03:20:31  5-MIN KSTC 040920Z AUTO 00000KT 9SM SCT070 BKN110 12/11 A2985 1090 93 1100 000/00 RMK AO2
14926KSTC STC20120604032510806/04/12 03:25:31  5-MIN KSTC 040925Z AUTO 00000KT 9SM SCT070 BKN110 12/11 A2986 1080 93 1000 000/00 RMK AO2
14926KSTC STC20120604033010806/04/12 03:30:31  5-MIN KSTC 040930Z AUTO 00000KT 9SM FEW070 BKN110 12/11 A2986 1080 93 1000 000/00 RMK AO2
14926KSTC STC20120604033510806/04/12 03:35:31  5-MIN KSTC 040935Z AUTO 00000KT 9SM FEW065 BKN110 12/11 A2986 1080 93 1000 000/00 RMK AO2
14926KSTC STC20120604034010806/04/12 03:40:31  5-MIN KSTC 040940Z AUTO 00000KT 9SM SCT070 BKN110 12/11 A2987 1080 93 1000 000/00 RMK AO2
14926KSTC STC20120604034510806/04/12 03:45:31  5-MIN KSTC 040945Z AUTO 00000KT 9SM BKN065 BKN110 12/11 A2987 1070 93 1000 000/00 RMK AO2
14926KSTC STC20120604035012506/04/12 03:50:31  5-MIN KSTC 040950Z AUTO 30004KT 9SM BKN065 BKN110 13/12 A2987 1070 93 1100 300/04 RMK AO2 SLP121 T01280117
14926KSTC STC20120604035510206/04/12 03:55:31  5-MIN KSTC 040955Z AUTO 00000KT 10SM BKN065 13/12 A2988 1070 89 1200 000/00 RMK AO2
14926KSTC STC20120604040010206/04/12 04:00:31  5-MIN KSTC 041000Z AUTO 30003KT 10SM OVC065 13/12 A2988 1070 93 1200 300/03 RMK AO2
14926KSTC STC20120604040510906/04/12 04:05:31  5-MIN KSTC 041005Z AUTO 30003KT 10SM BKN070 OVC085 13/12 A2988 1060 93 1200 300/03 RMK AO2
14926KSTC STC20120604041010906/04/12 04:10:31  5-MIN KSTC 041010Z AUTO 00000KT 10SM BKN070 OVC085 14/12 A2988 1070 90 1200 000/00 RMK AO2
14926KSTC STC20120604041511606/04/12 04:15:31  5-MIN KSTC 041015Z AUTO 00000KT 10SM BKN070 BKN085 OVC110 14/12 A2988 1060 90 1200 000/00 RMK AO2
14926KSTC STC20120604042011606/04/12 04:20:31  5-MIN KSTC 041020Z AUTO 00000KT 10SM BKN070 BKN085 OVC110 14/12 A2988 1060 90 1200 000/00 RMK AO2
14926KSTC STC20120604042511606/04/12 04:25:31  5-MIN KSTC 041025Z AUTO 00000KT 10SM BKN070 BKN085 OVC110 14/12 A2988 1070 90 1200 000/00 RMK AO2
14926KSTC STC20120604043011506/04/12 04:30:31  5-MIN KSTC 041030Z AUTO 00000KT 9SM SCT070 BKN085 BKN110 13/12 A2988 1070 93 1200 000/00 RMK AO2
14926KSTC STC20120604043511506/04/12 04:35:31  5-MIN KSTC 041035Z AUTO 00000KT 9SM SCT070 SCT085 BKN110 13/12 A2988 1060 93 1200 000/00 RMK AO2
14926KSTC STC20120604044011506/04/12 04:40:31  5-MIN KSTC 041040Z AUTO 00000KT 8SM SCT070 BKN090 BKN110 13/12 A2988 1060 93 1200 000/00 RMK AO2
14926KSTC STC20120604044510806/04/12 04:45:31  5-MIN KSTC 041045Z AUTO 00000KT 8SM SCT070 BKN090 13/12 A2988 1060 93 1200 000/00 RMK AO2
14926KSTC STC20120604045012506/04/12 04:50:31  5-MIN KSTC 041050Z AUTO 00000KT 8SM FEW070 BKN090 13/12 A2988 1060 93 1100 000/00 RMK AO2 SLP125 T01330122
14926KSTC STC20120604045510806/04/12 04:55:31  5-MIN KSTC 041055Z AUTO 00000KT 8SM FEW070 BKN090 13/12 A2988 1060 93 1100 000/00 RMK AO2
14926KSTC STC20120604050010106/04/12 05:00:31  5-MIN KSTC 041100Z AUTO 00000KT 7SM BKN090 13/12 A2988 1060 93 1200 000/00 RMK AO2
14926KSTC STC20120604050510106/04/12 05:05:31  5-MIN KSTC 041105Z AUTO 00000KT 8SM BKN080 14/12 A2988 1060 90 1200 000/00 RMK AO2
14926KSTC STC20120604051010106/04/12 05:10:31  5-MIN KSTC 041110Z AUTO 00000KT 9SM OVC085 14/13 A2988 1060 93 1200 000/00 RMK AO2
14926KSTC STC20120604051510106/04/12 05:15:31  5-MIN KSTC 041115Z AUTO 00000KT 9SM OVC085 14/13 A2989 1060 93 1200 000/00 RMK AO2
14926KSTC STC20120604052010106/04/12 05:20:31  5-MIN KSTC 041120Z AUTO 00000KT 9SM OVC090 14/13 A2989 1060 93 1200 000/00 RMK AO2
14926KSTC STC20120604052510806/04/12 05:25:31  5-MIN KSTC 041125Z AUTO 00000KT 8SM BKN080 OVC095 14/13 A2989 1050 93 1200 000/00 RMK AO2
14926KSTC STC20120604053010806/04/12 05:30:31  5-MIN KSTC 041130Z AUTO 00000KT 8SM BKN070 OVC090 14/13 A2989 1050 93 1200 000/00 RMK AO2
14926KSTC STC20120604053510806/04/12 05:35:31  5-MIN KSTC 041135Z AUTO 00000KT 9SM BKN070 OVC090 14/13 A2989 1050 90 1300 000/00 RMK AO2
14926KSTC STC20120604054010806/04/12 05:40:31  5-MIN KSTC 041140Z AUTO 00000KT 8SM BKN070 OVC090 14/13 A2989 1050 93 1300 000/00 RMK AO2
14926KSTC STC20120604054510306/04/12 05:45:31  5-MIN KSTC 041145Z 00000KT 8SM BKN070 OVC090 14/13 A2990 1050 93 1300 000/00 RMK AO2
14926KSTC STC20120604055013106/04/12 05:50:31  5-MIN KSTC 041150Z 00000KT 8SM OVC070 15/13 A2990 1050 90 1300 000/00 RMK AO2 SLP129 T01500133 10150 20117 53006
14926KSTC STC20120604055509606/04/12 05:55:31  5-MIN KSTC 041155Z 00000KT 9SM OVC070 15/13 A2990 1050 90 1300 000/00 RMK AO2
14926KSTC STC20120604060010306/04/12 06:00:31  5-MIN KSTC 041200Z 00000KT 9SM BKN070 OVC090 16/14 A2990 1040 90 1400 000/00 RMK AO2
14926KSTC STC20120604060510306/04/12 06:05:31  5-MIN KSTC 041205Z 00000KT 9SM BKN070 OVC085 16/14 A2990 1040 90 1400 000/00 RMK AO2
14926KSTC STC20120604061010306/04/12 06:10:31  5-MIN KSTC 041210Z 00000KT 9SM SCT070 OVC080 16/14 A2990 1040 90 1400 000/00 RMK AO2
14926KSTC STC20120604061510306/04/12 06:15:31  5-MIN KSTC 041215Z 00000KT 9SM FEW070 BKN080 16/14 A2990 1040 86 1500 000/00 RMK AO2
14926KSTC STC20120604062010406/04/12 06:20:31  5-MIN KSTC 041220Z 00000KT 10SM SCT075 BKN090 16/14 A2990 1040 86 1500 000/00 RMK AO2
14926KSTC STC20120604062510406/04/12 06:25:31  5-MIN KSTC 041225Z 00000KT 10SM FEW070 BKN085 16/14 A2991 1040 90 1500 000/00 RMK AO2
14926KSTC STC20120604063010406/04/12 06:30:31  5-MIN KSTC 041230Z 00000KT 10SM SCT080 BKN090 17/14 A2991 1040 86 1500 000/00 RMK AO2
14926KSTC STC20120604063510406/04/12 06:35:31  5-MIN KSTC 041235Z 00000KT 10SM FEW080 BKN090 17/14 A2991 1030 86 1500 000/00 RMK AO2
14926KSTC STC20120604064010406/04/12 06:40:31  5-MIN KSTC 041240Z 00000KT 10SM FEW080 BKN090 17/14 A2991 1030 83 1600 000/00 RMK AO2
14926KSTC STC20120604064510406/04/12 06:45:31  5-MIN KSTC 041245Z 00000KT 10SM FEW070 BKN090 17/15 A2992 1030 87 1600 000/00 RMK AO2
14926KSTC STC20120604065012106/04/12 06:50:31  5-MIN KSTC 041250Z 00000KT 10SM SCT070 OVC090 17/14 A2992 1030 83 1600 000/00 RMK AO2 SLP135 T01720144
14926KSTC STC20120604065510406/04/12 06:55:31  5-MIN KSTC 041255Z 00000KT 10SM BKN070 OVC090 18/14 A2992 1030 81 1600 000/00 RMK AO2
14926KSTC STC20120604070010406/04/12 07:00:31  5-MIN KSTC 041300Z 00000KT 10SM BKN070 OVC090 19/14 A2991 1030 72 1800 000/00 RMK AO2
14926KSTC STC20120604070510406/04/12 07:05:31  5-MIN KSTC 041305Z 00000KT 10SM BKN070 OVC095 19/14 A2991 1030 72 1800 000/00 RMK AO2
14926KSTC STC20120604071010406/04/12 07:10:31  5-MIN KSTC 041310Z 00000KT 10SM BKN070 OVC095 19/13 A2992 1030 67 1800 000/00 RMK AO2
14926KSTC STC20120604071510406/04/12 07:15:31  5-MIN KSTC 041315Z 00000KT 10SM SCT070 OVC095 20/13 A2992 1030 65 1900 000/00 RMK AO2
14926KSTC STC20120604072010406/04/12 07:20:31  5-MIN KSTC 041320Z 26003KT 10SM SCT070 OVC095 20/13 A2992 1030 63 1900 260/03 RMK AO2
14926KSTC STC20120604072510406/04/12 07:25:31  5-MIN KSTC 041325Z 25003KT 10SM FEW070 OVC095 20/13 A2992 1020 63 1900 250/03 RMK AO2
14926KSTC STC20120604073009706/04/12 07:30:31  5-MIN KSTC 041330Z 25003KT 10SM OVC095 19/13 A2992 1020 65 1800 250/03 RMK AO2
14926KSTC STC20120604073510406/04/12 07:35:31  5-MIN KSTC 041335Z 00000KT 10SM FEW060 OVC095 19/13 A2993 1020 65 1800 000/00 RMK AO2
14926KSTC STC20120604074010406/04/12 07:40:31  5-MIN KSTC 041340Z 00000KT 10SM SCT060 OVC095 20/13 A2993 1020 65 1900 000/00 RMK AO2
14926KSTC STC20120604074510406/04/12 07:45:31  5-MIN KSTC 041345Z 00000KT 10SM BKN060 OVC095 20/13 A2993 1020 65 1900 000/00 RMK AO2
14926KSTC STC20120604075012106/04/12 07:50:31  5-MIN KSTC 041350Z 00000KT 10SM BKN060 OVC095 20/13 A2994 1010 65 1900 000/00 RMK AO2 SLP142 T02000133
14926KSTC STC20120604075510406/04/12 07:55:31  5-MIN KSTC 041355Z 00000KT 10SM BKN060 OVC095 21/13 A2994 1010 60 1900 000/00 RMK AO2
14926KSTC STC20120604080009706/04/12 08:00:31  5-MIN KSTC 041400Z 00000KT 10SM OVC060 21/13 A2994 1010 63 1900 000/00 RMK AO2
14926KSTC STC20120604080509706/04/12 08:05:31  5-MIN KSTC 041405Z 00000KT 10SM OVC060 21/13 A2994 1010 58 2000 000/00 RMK AO2
14926KSTC STC20120604081009706/04/12 08:10:31  5-MIN KSTC 041410Z 00000KT 10SM OVC060 21/13 A2994 1010 58 2000 000/00 RMK AO2
14926KSTC STC20120604081509706/04/12 08:15:31  5-MIN KSTC 041415Z 00000KT 10SM OVC060 21/13 A2993 1010 60 1900 000/00 RMK AO2
14926KSTC STC20120604082009706/04/12 08:20:31  5-MIN KSTC 041420Z 00000KT 10SM BKN060 21/13 A2993 1020 60 1900 000/00 RMK AO2
14926KSTC STC20120604082509706/04/12 08:25:31  5-MIN KSTC 041425Z 00000KT 10SM BKN060 21/13 A2993 1010 58 2000 000/00 RMK AO2
14926KSTC STC20120604083009706/04/12 08:30:31  5-MIN KSTC 041430Z 00000KT 10SM SCT060 21/12 A2993 1010 56 2000 000/00 RMK AO2
14926KSTC STC20120604083509706/04/12 08:35:31  5-MIN KSTC 041435Z 00000KT 10SM SCT060 22/13 A2993 1010 54 2100 000/00 RMK AO2
14926KSTC STC20120604084009706/04/12 08:40:31  5-MIN KSTC 041440Z 00000KT 10SM FEW060 22/12 A2993 1020 52 2100 000/00 RMK AO2
14926KSTC STC20120604084509406/04/12 08:45:31  5-MIN KSTC 041445Z 26003KT 10SM CLR 23/12 A2993 1020 51 2200 260/03 RMK AO2
14926KSTC STC20120604085011706/04/12 08:50:31  5-MIN KSTC 041450Z 00000KT 10SM CLR 22/12 A2993 1020 52 2100 000/00 RMK AO2 SLP139 T02220122 51014
14926KSTC STC20120604085509706/04/12 08:55:31  5-MIN KSTC 041455Z 23005KT 10SM FEW095 23/12 A2993 1020 51 2200 230/05 RMK AO2
14926KSTC STC20120604090009706/04/12 09:00:31  5-MIN KSTC 041500Z 24004KT 10SM FEW095 23/12 A2993 1020 51 2200 240/04 RMK AO2
14926KSTC STC20120604090509706/04/12 09:05:31  5-MIN KSTC 041505Z 23006KT 10SM SCT090 22/12 A2993 1020 52 2100 230/06 RMK AO2
14926KSTC STC20120604091009706/04/12 09:10:31  5-MIN KSTC 041510Z 24005KT 10SM BKN090 22/12 A2993 1020 52 2100 240/05 RMK AO2
14926KSTC STC20120604091509706/04/12 09:15:31  5-MIN KSTC 041515Z 22003KT 10SM BKN085 22/12 A2993 1020 52 2100 220/03 RMK AO2
14926KSTC STC20120604092009706/04/12 09:20:31  5-MIN KSTC 041520Z 24005KT 10SM BKN085 22/13 A2993 1020 54 2100 240/05 RMK AO2
14926KSTC STC20120604092509706/04/12 09:25:31  5-MIN KSTC 041525Z 24005KT 10SM BKN090 22/12 A2993 1020 52 2100 240/05 RMK AO2
14926KSTC STC20120604093009706/04/12 09:30:31  5-MIN KSTC 041530Z 22004KT 10SM BKN085 23/13 A2993 1020 53 2300 220/04 RMK AO2
14926KSTC STC20120604093509706/04/12 09:35:31  5-MIN KSTC 041535Z VRB03KT 10SM BKN085 23/13 A2993 1020 51 2300 VRB/03 RMK AO2
14926KSTC STC20120604094009706/04/12 09:40:31  5-MIN KSTC 041540Z 24003KT 10SM BKN085 23/13 A2993 1020 53 2200 240/03 RMK AO2
14926KSTC STC20120604094509706/04/12 09:45:31  5-MIN KSTC 041545Z 22003KT 10SM BKN085 23/13 A2993 1020 53 2200 220/03 RMK AO2
14926KSTC STC20120604095011406/04/12 09:50:31  5-MIN KSTC 041550Z 26003KT 10SM SCT085 23/13 A2993 1020 51 2300 250/03 RMK AO2 SLP140 T02330128
14926KSTC STC20120604095509706/04/12 09:55:31  5-MIN KSTC 041555Z 23004KT 10SM SCT085 24/13 A2993 1020 49 2300 230/04 RMK AO2
14926KSTC STC20120604100009706/04/12 10:00:31  5-MIN KSTC 041600Z 00000KT 10SM SCT085 24/13 A2993 1020 51 2300 000/00 RMK AO2
14926KSTC STC20120604100509706/04/12 10:05:31  5-MIN KSTC 041605Z 00000KT 10SM FEW085 25/13 A2993 1020 46 2400 000/00 RMK AO2
14926KSTC STC20120604101009706/04/12 10:10:31  5-MIN KSTC 041610Z 23003KT 10SM FEW085 24/13 A2993 1020 49 2300 230/03 RMK AO2
14926KSTC STC20120604101509706/04/12 10:15:31  5-MIN KSTC 041615Z 00000KT 10SM FEW085 24/13 A2993 1020 49 2300 000/00 RMK AO2
14926KSTC STC20120604102009706/04/12 10:20:31  5-MIN KSTC 041620Z 00000KT 10SM FEW090 24/12 A2993 1020 46 2400 000/00 RMK AO2
14926KSTC STC20120604102509406/04/12 10:25:31  5-MIN KSTC 041625Z 29003KT 10SM CLR 25/13 A2993 1020 46 2400 290/03 RMK AO2
14926KSTC STC20120604103009406/04/12 10:30:31  5-MIN KSTC 041630Z 35003KT 10SM CLR 25/13 A2993 1020 46 2400 350/03 RMK AO2
14926KSTC STC20120604103509406/04/12 10:35:31  5-MIN KSTC 041635Z 00000KT 10SM CLR 25/12 A2993 1010 44 2400 000/00 RMK AO2
14926KSTC STC20120604104009406/04/12 10:40:31  5-MIN KSTC 041640Z 31004KT 10SM CLR 25/13 A2993 1020 46 2400 310/04 RMK AO2
14926KSTC STC20120604104509406/04/12 10:45:31  5-MIN KSTC 041645Z 00000KT 10SM CLR 25/12 A2993 1020 44 2400 000/00 RMK AO2
14926KSTC STC20120604105011106/04/12 10:50:31  5-MIN KSTC 041650Z 00000KT 10SM CLR 25/13 A2993 1020 46 2400 000/00 RMK AO2 SLP141 T02500128
14926KSTC STC20120604105509406/04/12 10:55:31  5-MIN KSTC 041655Z VRB03KT 10SM CLR 26/13 A2993 1020 44 2500 VRB/03 RMK AO2
14926KSTC STC20120604110009406/04/12 11:00:31  5-MIN KSTC 041700Z 08003KT 10SM CLR 26/13 A2993 1020 43 2600 080/03 RMK AO2
14926KSTC STC20120604110509406/04/12 11:05:31  5-MIN KSTC 041705Z 23003KT 10SM CLR 26/13 A2993 1020 44 2500 230/03 RMK AO2
14926KSTC STC20120604111009406/04/12 11:10:31  5-MIN KSTC 041710Z 21003KT 10SM CLR 26/13 A2993 1020 43 2600 210/03 RMK AO2
14926KSTC STC20120604111509406/04/12 11:15:31  5-MIN KSTC 041715Z VRB04KT 10SM CLR 26/13 A2993 1020 43 2600 VRB/04 RMK AO2
14926KSTC STC20120604112009406/04/12 11:20:31  5-MIN KSTC 041720Z 01003KT 10SM CLR 27/12 A2993 1020 40 2600 010/03 RMK AO2
14926KSTC STC20120604112509406/04/12 11:25:31  5-MIN KSTC 041725Z VRB03KT 10SM CLR 27/12 A2993 1010 38 2600 VRB/03 RMK AO2
14926KSTC STC20120604113009406/04/12 11:30:31  5-MIN KSTC 041730Z 30003KT 10SM CLR 27/12 A2993 1010 40 2600 300/03 RMK AO2
14926KSTC STC20120604113509406/04/12 11:35:31  5-MIN KSTC 041735Z 00000KT 10SM CLR 27/12 A2993 1010 38 2600 000/00 RMK AO2
14926KSTC STC20120604114009406/04/12 11:40:31  5-MIN KSTC 041740Z 00000KT 10SM CLR 26/12 A2993 1020 40 2600 000/00 RMK AO2
14926KSTC STC20120604114509406/04/12 11:45:31  5-MIN KSTC 041745Z 00000KT 10SM CLR 27/12 A2993 1020 40 2600 000/00 RMK AO2
14926KSTC STC20120604115012906/04/12 11:50:31  5-MIN KSTC 041750Z VRB03KT 10SM CLR 27/12 A2993 1020 40 2600 VRB/03 RMK AO2 SLP140 T02670122 10272 20150 50010
14926KSTC STC20120604115509406/04/12 11:55:31  5-MIN KSTC 041755Z 00000KT 10SM CLR 27/12 A2993 1020 40 2600 000/00 RMK AO2
14926KSTC STC20120604120009406/04/12 12:00:31  5-MIN KSTC 041800Z 26003KT 10SM CLR 27/12 A2993 1020 40 2600 260/03 RMK AO2
14926KSTC STC20120604120509406/04/12 12:05:31  5-MIN KSTC 041805Z VRB03KT 10SM CLR 27/13 A2993 1020 40 2700 VRB/03 RMK AO2
14926KSTC STC20120604121009406/04/12 12:10:31  5-MIN KSTC 041810Z 00000KT 10SM CLR 26/12 A2993 1020 41 2600 000/00 RMK AO2
14926KSTC STC20120604121509406/04/12 12:15:31  5-MIN KSTC 041815Z 00000KT 10SM CLR 27/12 A2993 1020 39 2700 000/00 RMK AO2
14926KSTC STC20120604122009406/04/12 12:20:31  5-MIN KSTC 041820Z 00000KT 10SM CLR 27/12 A2993 1020 39 2700 000/00 RMK AO2
14926KSTC STC20120604122509406/04/12 12:25:31  5-MIN KSTC 041825Z VRB05KT 10SM CLR 28/13 A2993 1020 40 2800 VRB/05 RMK AO2
14926KSTC STC20120604123009406/04/12 12:30:31  5-MIN KSTC 041830Z 00000KT 10SM CLR 27/13 A2993 1020 40 2700 000/00 RMK AO2
14926KSTC STC20120604123509406/04/12 12:35:31  5-MIN KSTC 041835Z 34003KT 10SM CLR 27/12 A2993 1020 39 2700 340/03 RMK AO2
14926KSTC STC20120604124009406/04/12 12:40:31  5-MIN KSTC 041840Z 00000KT 10SM CLR 28/13 A2993 1020 39 2800 000/00 RMK AO2
14926KSTC STC20120604124509406/04/12 12:45:31  5-MIN KSTC 041845Z VRB03KT 10SM CLR 28/12 A2993 1020 37 2800 VRB/03 RMK AO2
14926KSTC STC20120604125011406/04/12 12:50:31  5-MIN KSTC 041850Z 24004KT 10SM FEW090 27/12 A2993 1020 39 2700 240/04 RMK AO2 SLP140 T02720122
14926KSTC STC20120604125509706/04/12 12:55:31  5-MIN KSTC 041855Z 00000KT 10SM FEW085 27/12 A2993 1020 39 2700 000/00 RMK AO2
14926KSTC STC20120604130010406/04/12 13:00:31  5-MIN KSTC 041900Z VRB04KT 10SM FEW055 SCT085 27/13 A2993 1020 41 2600 VRB/04 RMK AO2
14926KSTC STC20120604130510406/04/12 13:05:31  5-MIN KSTC 041905Z 25004KT 10SM FEW055 SCT085 27/13 A2993 1020 40 2700 250/04 RMK AO2
14926KSTC STC20120604131009706/04/12 13:10:31  5-MIN KSTC 041910Z 00000KT 10SM FEW055 28/13 A2992 1020 39 2800 000/00 RMK AO2
14926KSTC STC20120604131509706/04/12 13:15:31  5-MIN KSTC 041915Z 00000KT 10SM FEW055 28/13 A2992 1030 37 2800 000/00 RMK AO2
14926KSTC STC20120604132010406/04/12 13:20:31  5-MIN KSTC 041920Z VRB03KT 10SM FEW055 SCT100 29/13 A2992 1030 36 2900 VRB/03 RMK AO2
14926KSTC STC20120604132510406/04/12 13:25:31  5-MIN KSTC 041925Z 20003KT 10SM FEW055 BKN100 28/13 A2992 1030 40 2800 200/03 RMK AO2
14926KSTC STC20120604133009706/04/12 13:30:31  5-MIN KSTC 041930Z 24003KT 10SM SCT100 27/12 A2992 1030 39 2700 240/03 RMK AO2
14926KSTC STC20120604133509706/04/12 13:35:31  5-MIN KSTC 041935Z 00000KT 10SM SCT100 28/12 A2992 1030 35 2800 000/00 RMK AO2
14926KSTC STC20120604134010406/04/12 13:40:31  5-MIN KSTC 041940Z VRB03KT 10SM FEW060 SCT100 28/12 A2992 1030 35 2800 VRB/03 RMK AO2
14926KSTC STC20120604134510406/04/12 13:45:31  5-MIN KSTC 041945Z 00000KT 10SM SCT060 BKN100 27/13 A2992 1030 40 2700 000/00 RMK AO2
14926KSTC STC20120604135012106/04/12 13:50:31  5-MIN KSTC 041950Z 28004KT 10SM SCT060 BKN100 27/13 A2992 1030 41 2600 280/04 RMK AO2 SLP136 T02670128
14926KSTC STC20120604135510406/04/12 13:55:31  5-MIN KSTC 041955Z 00000KT 10SM SCT060 BKN100 27/12 A2991 1030 40 2600 000/00 RMK AO2
14926KSTC STC20120604140011106/04/12 14:00:31  5-MIN KSTC 042000Z 00000KT 10SM SCT060 SCT075 BKN100 27/13 A2992 1030 40 2700 000/00 RMK AO2
14926KSTC STC20120604140511106/04/12 14:05:31  5-MIN KSTC 042005Z 33003KT 10SM BKN060 BKN075 OVC100 27/13 A2991 1030 42 2700 330/03 RMK AO2
14926KSTC STC20120604141011106/04/12 14:10:31  5-MIN KSTC 042010Z 00000KT 10SM BKN060 BKN080 OVC100 27/13 A2991 1030 41 2700 000/00 RMK AO2
14926KSTC STC20120604141511106/04/12 14:15:31  5-MIN KSTC 042015Z 00000KT 10SM BKN060 BKN075 OVC100 27/12 A2991 1030 39 2700 000/00 RMK AO2
14926KSTC STC20120604142011106/04/12 14:20:31  5-MIN KSTC 042020Z 02006KT 10SM BKN060 BKN075 OVC100 27/14 A2992 1030 45 2600 020/06 RMK AO2
14926KSTC STC20120604142510406/04/12 14:25:31  5-MIN KSTC 042025Z 02004KT 10SM BKN060 OVC085 27/14 A2992 1030 45 2600 020/04 RMK AO2
14926KSTC STC20120604143010406/04/12 14:30:31  5-MIN KSTC 042030Z 03003KT 10SM BKN060 BKN085 27/14 A2992 1030 45 2600 030/03 RMK AO2
14926KSTC STC20120604143510406/04/12 14:35:31  5-MIN KSTC 042035Z VRB03KT 10SM SCT060 BKN085 28/14 A2992 1030 43 2800 VRB/03 RMK AO2
14926KSTC STC20120604144011106/04/12 14:40:31  5-MIN KSTC 042040Z 04003KT 10SM SCT060 SCT075 BKN090 28/14 A2991 1030 40 2800 040/03 RMK AO2
14926KSTC STC20120604144510406/04/12 14:45:31  5-MIN KSTC 042045Z 35003KT 10SM FEW060 BKN090 28/13 A2991 1040 39 2800 350/03 RMK AO2
14926KSTC STC20120604145012006/04/12 14:50:31  5-MIN KSTC 042050Z 00000KT 10SM SCT090 28/13 A2991 1040 37 2800 000/00 RMK AO2 SLP133 T02830128 52000
14926KSTC STC20120604145509706/04/12 14:55:31  5-MIN KSTC 042055Z 00000KT 10SM FEW090 28/13 A2991 1040 39 2800 000/00 RMK AO2
14926KSTC STC20120604150009706/04/12 15:00:31  5-MIN KSTC 042100Z 00000KT 10SM FEW090 29/13 A2991 1040 36 2900 000/00 RMK AO2
14926KSTC STC20120604150509706/04/12 15:05:31  5-MIN KSTC 042105Z VRB03KT 10SM FEW090 29/13 A2991 1040 38 2900 VRB/03 RMK AO2
14926KSTC STC20120604151009406/04/12 15:10:31  5-MIN KSTC 042110Z 32005KT 10SM CLR 29/13 A2991 1040 36 2900 320/05 RMK AO2
14926KSTC STC20120604151509406/04/12 15:15:31  5-MIN KSTC 042115Z 00000KT 10SM CLR 29/12 A2990 1040 35 2900 000/00 RMK AO2
14926KSTC STC20120604152009406/04/12 15:20:31  5-MIN KSTC 042120Z VRB06KT 10SM CLR 28/12 A2990 1040 36 2800 VRB/06 RMK AO2
14926KSTC STC20120604152509406/04/12 15:25:31  5-MIN KSTC 042125Z VRB04KT 10SM CLR 28/13 A2990 1040 39 2800 VRB/04 RMK AO2
14926KSTC STC20120604153009706/04/12 15:30:31  5-MIN KSTC 042130Z 35008KT 10SM FEW075 28/13 A2990 1040 39 2800 350/08 RMK AO2
14926KSTC STC20120604153509706/04/12 15:35:31  5-MIN KSTC 042135Z 01008KT 10SM SCT075 28/13 A2990 1040 37 2800 010/08 RMK AO2
14926KSTC STC20120604154009706/04/12 15:40:31  5-MIN KSTC 042140Z 36008KT 10SM SCT075 28/12 A2990 1040 36 2800 360/08 RMK AO2
14926KSTC STC20120604154510406/04/12 15:45:31  5-MIN KSTC 042145Z 01006KT 10SM FEW070 SCT080 29/12 A2990 1040 35 2900 010/06 RMK AO2
14926KSTC STC20120604155011406/04/12 15:50:31  5-MIN KSTC 042150Z 01007KT 10SM FEW070 28/12 A2990 1040 36 2800 010/07 RMK AO2 SLP130 T02830122
14926KSTC STC20120604155509706/04/12 15:55:31  5-MIN KSTC 042155Z 02006KT 10SM FEW075 29/12 A2990 1040 34 2900 020/06 RMK AO2
14926KSTC STC20120604160009706/04/12 16:00:31  5-MIN KSTC 042200Z 33005KT 10SM FEW070 28/12 A2990 1040 35 2800 330/05 RMK AO2
14926KSTC STC20120604160509406/04/12 16:05:31  5-MIN KSTC 042205Z 36005KT 10SM CLR 29/11 A2990 1040 32 2900 350/05 RMK AO2
14926KSTC STC20120604161009406/04/12 16:10:31  5-MIN KSTC 042210Z VRB05KT 10SM CLR 28/11 A2991 1040 33 2800 VRB/05 RMK AO2
14926KSTC STC20120604161509406/04/12 16:15:31  5-MIN KSTC 042215Z 01006KT 10SM CLR 28/11 A2991 1040 33 2800 010/06 RMK AO2
14926KSTC STC20120604162009406/04/12 16:20:31  5-MIN KSTC 042220Z 33006KT 10SM CLR 29/11 A2990 1040 31 2900 330/06 RMK AO2
14926KSTC STC20120604162509406/04/12 16:25:31  5-MIN KSTC 042225Z 32006KT 10SM CLR 29/11 A2990 1040 31 2900 320/06 RMK AO2
14926KSTC STC20120604163009406/04/12 16:30:31  5-MIN KSTC 042230Z 32007KT 10SM CLR 28/09 A2990 1040 30 2900 320/07 RMK AO2
14926KSTC STC20120604163509406/04/12 16:35:31  5-MIN KSTC 042235Z 34009KT 10SM CLR 29/09 A2990 1040 29 2900 340/09 RMK AO2
14926KSTC STC20120604164009406/04/12 16:40:31  5-MIN KSTC 042240Z 33005KT 10SM CLR 28/09 A2990 1040 30 2800 330/05 RMK AO2
14926KSTC STC20120604164509406/04/12 16:45:31  5-MIN KSTC 042245Z 31009KT 10SM CLR 28/10 A2990 1040 31 2800 310/09 RMK AO2
14926KSTC STC20120604165011106/04/12 16:50:31  5-MIN KSTC 042250Z 32009KT 10SM CLR 28/09 A2990 1040 29 2800 320/09 RMK AO2 SLP130 T02830089
14926KSTC STC20120604165509406/04/12 16:55:31  5-MIN KSTC 042255Z 32006KT 10SM CLR 28/09 A2990 1040 30 2800 320/06 RMK AO2
14926KSTC STC20120604170009406/04/12 17:00:31  5-MIN KSTC 042300Z 33009KT 10SM CLR 28/09 A2990 1040 30 2800 330/09 RMK AO2
14926KSTC STC20120604170509406/04/12 17:05:31  5-MIN KSTC 042305Z 32010KT 10SM CLR 28/08 A2990 1040 29 2800 320/10 RMK AO2
14926KSTC STC20120604171009406/04/12 17:10:31  5-MIN KSTC 042310Z 32007KT 10SM CLR 28/09 A2990 1040 30 2800 320/07 RMK AO2
14926KSTC STC20120604171510006/04/12 17:15:31  5-MIN KSTC 042315Z 33010G15KT 10SM CLR 28/08 A2990 1040 29 2800 330/10G15 RMK AO2
14926KSTC STC20120604172010006/04/12 17:20:31  5-MIN KSTC 042320Z 36005G15KT 10SM CLR 28/09 A2990 1040 30 2800 350/05G15 RMK AO2
14926KSTC STC20120604172509406/04/12 17:25:31  5-MIN KSTC 042325Z 36009KT 10SM CLR 28/09 A2991 1040 29 2800 350/09 RMK AO2
14926KSTC STC20120604173009406/04/12 17:30:31  5-MIN KSTC 042330Z 35007KT 10SM CLR 28/09 A2991 1040 29 2800 350/07 RMK AO2
14926KSTC STC20120604173509406/04/12 17:35:31  5-MIN KSTC 042335Z 35006KT 10SM CLR 28/09 A2991 1040 29 2800 350/06 RMK AO2
14926KSTC STC20120604174009406/04/12 17:40:31  5-MIN KSTC 042340Z 34007KT 10SM CLR 28/09 A2991 1040 30 2800 340/07 RMK AO2
14926KSTC STC20120604174509406/04/12 17:45:31  5-MIN KSTC 042345Z 34006KT 10SM CLR 28/08 A2991 1040 29 2800 340/06 RMK AO2
14926KSTC STC20120604175012906/04/12 17:50:31  5-MIN KSTC 042350Z 36007KT 10SM CLR 28/09 A2991 1040 30 2800 360/07 RMK AO2 SLP132 T02780089 10289 20261 58007
14926KSTC STC20120604175509406/04/12 17:55:31  5-MIN KSTC 042355Z 36006KT 10SM CLR 28/08 A2991 1030 29 2800 360/06 RMK AO2
14926KSTC STC20120604180009406/04/12 18:00:31  5-MIN KSTC 050000Z 36006KT 10SM CLR 28/08 A2991 1030 29 2800 350/06 RMK AO2
14926KSTC STC20120604180509406/04/12 18:05:31  5-MIN KSTC 050005Z 36007KT 10SM CLR 27/08 A2992 1030 30 2700 360/07 RMK AO2
14926KSTC STC20120604181009406/04/12 18:10:31  5-MIN KSTC 050010Z 36006KT 10SM CLR 27/08 A2992 1030 29 2700 360/06 RMK AO2
14926KSTC STC20120604181509406/04/12 18:15:31  5-MIN KSTC 050015Z 01007KT 10SM CLR 27/08 A2992 1030 29 2700 010/07 RMK AO2
14926KSTC STC20120604182009406/04/12 18:20:31  5-MIN KSTC 050020Z 36006KT 10SM CLR 27/08 A2992 1030 29 2700 360/06 RMK AO2
14926KSTC STC20120604182509406/04/12 18:25:31  5-MIN KSTC 050025Z 01005KT 10SM CLR 27/08 A2992 1020 31 2600 010/05 RMK AO2
14926KSTC STC20120604183009406/04/12 18:30:31  5-MIN KSTC 050030Z 01006KT 10SM CLR 27/08 A2993 1020 31 2600 010/06 RMK AO2
14926KSTC STC20120604183509406/04/12 18:35:31  5-MIN KSTC 050035Z 01004KT 10SM CLR 27/09 A2993 1020 32 2600 010/04 RMK AO2
14926KSTC STC20120604184009406/04/12 18:40:31  5-MIN KSTC 050040Z 36005KT 10SM CLR 26/09 A2992 1020 33 2600 360/05 RMK AO2
14926KSTC STC20120604184509406/04/12 18:45:31  5-MIN KSTC 050045Z 36004KT 10SM CLR 26/09 A2992 1020 33 2600 360/04 RMK AO2
14926KSTC STC20120604185011106/04/12 18:50:31  5-MIN KSTC 050050Z 01005KT 10SM CLR 26/08 A2993 1020 32 2600 010/05 RMK AO2 SLP138 T02610083
14926KSTC STC20120604185509406/04/12 18:55:31  5-MIN KSTC 050055Z 36004KT 10SM CLR 26/09 A2993 1020 34 2500 360/04 RMK AO2
14926KSTC STC20120604190009406/04/12 19:00:31  5-MIN KSTC 050100Z 01003KT 10SM CLR 26/09 A2993 1020 34 2500 010/03 RMK AO2
14926KSTC STC20120604190509406/04/12 19:05:31  5-MIN KSTC 050105Z 01004KT 10SM CLR 26/09 A2993 1020 34 2500 010/04 RMK AO2
14926KSTC STC20120604191009406/04/12 19:10:31  5-MIN KSTC 050110Z 36005KT 10SM CLR 24/09 A2993 1020 38 2400 360/05 RMK AO2
14926KSTC STC20120604191509406/04/12 19:15:31  5-MIN KSTC 050115Z 01004KT 10SM CLR 25/09 A2993 1020 37 2400 360/04 RMK AO2
14926KSTC STC20120604192009406/04/12 19:20:31  5-MIN KSTC 050120Z 02005KT 10SM CLR 24/09 A2993 1020 38 2400 020/05 RMK AO2
14926KSTC STC20120604192509406/04/12 19:25:31  5-MIN KSTC 050125Z 01005KT 10SM CLR 24/09 A2993 1020 36 2400 010/05 RMK AO2
14926KSTC STC20120604193009406/04/12 19:30:31  5-MIN KSTC 050130Z 01004KT 10SM CLR 24/09 A2993 1010 39 2300 010/04 RMK AO2
14926KSTC STC20120604193509406/04/12 19:35:31  5-MIN KSTC 050135Z 01004KT 10SM CLR 23/09 A2993 1020 41 2300 010/04 RMK AO2
14926KSTC STC20120604194009406/04/12 19:40:31  5-MIN KSTC 050140Z 01005KT 10SM CLR 23/09 A2993 1020 41 2300 010/05 RMK AO2
14926KSTC STC20120604194509406/04/12 19:45:31  5-MIN KSTC 050145Z 01005KT 10SM CLR 23/09 A2993 1010 41 2300 010/05 RMK AO2
14926KSTC STC20120604195011106/04/12 19:50:31  5-MIN KSTC 050150Z 02005KT 10SM CLR 23/09 A2993 1010 41 2300 010/05 RMK AO2 SLP141 T02330094
14926KSTC STC20120604195509406/04/12 19:55:31  5-MIN KSTC 050155Z 02005KT 10SM CLR 23/09 A2993 1010 40 2200 020/05 RMK AO2
14926KSTC STC20120604200009406/04/12 20:00:31  5-MIN KSTC 050200Z 01004KT 10SM CLR 23/09 A2994 1010 42 2200 010/04 RMK AO2
14926KSTC STC20120604200509406/04/12 20:05:31  5-MIN KSTC 050205Z 01004KT 10SM CLR 22/09 A2994 1010 43 2100 010/04 RMK AO2
14926KSTC STC20120604201009406/04/12 20:10:31  5-MIN KSTC 050210Z 01004KT 10SM CLR 22/09 A2994 1010 45 2100 010/04 RMK AO2
14926KSTC STC20120604201509406/04/12 20:15:31  5-MIN KSTC 050215Z 01005KT 10SM CLR 22/09 A2994 1010 45 2100 010/05 RMK AO2
14926KSTC STC20120604202009406/04/12 20:20:31  5-MIN KSTC 050220Z 01004KT 10SM CLR 22/09 A2994 1010 45 2100 010/04 RMK AO2
14926KSTC STC20120604202509406/04/12 20:25:31  5-MIN KSTC 050225Z 02004KT 10SM CLR 21/09 A2994 1010 47 2000 020/04 RMK AO2
14926KSTC STC20120604203009406/04/12 20:30:31  5-MIN KSTC 050230Z 03004KT 10SM CLR 21/09 A2994 1010 47 2000 030/04 RMK AO2
14926KSTC STC20120604203509406/04/12 20:35:31  5-MIN KSTC 050235Z 02004KT 10SM CLR 21/09 A2994 1010 45 2000 020/04 RMK AO2
14926KSTC STC20120604204009406/04/12 20:40:31  5-MIN KSTC 050240Z 02004KT 10SM CLR 21/09 A2994 1000 46 1900 020/04 RMK AO2
14926KSTC STC20120604204509406/04/12 20:45:31  5-MIN KSTC 050245Z 01003KT 10SM CLR 21/09 A2994 1000 46 1900 010/03 RMK AO2
14926KSTC STC20120604205011706/04/12 20:50:31  5-MIN KSTC 050250Z 01003KT 10SM CLR 21/09 A2994 1000 45 2000 010/03 RMK AO2 SLP144 T02110089 53001
14926KSTC STC20120604205509406/04/12 20:55:31  5-MIN KSTC 050255Z 36003KT 10SM CLR 21/09 A2995 1000 48 1900 360/03 RMK AO2
14926KSTC STC20120604210009406/04/12 21:00:31  5-MIN KSTC 050300Z 01003KT 10SM CLR 20/09 A2994 1000 50 1900 010/03 RMK AO2
14926KSTC STC20120604210509406/04/12 21:05:31  5-MIN KSTC 050305Z 02003KT 10SM CLR 19/09 A2994 1010 52 1800 020/03 RMK AO2
14926KSTC STC20120604211009406/04/12 21:10:31  5-MIN KSTC 050310Z 02003KT 10SM CLR 19/09 A2994 1010 54 1700 010/03 RMK AO2
14926KSTC STC20120604211509406/04/12 21:15:31  5-MIN KSTC 050315Z 02004KT 10SM CLR 19/09 A2994 1010 54 1700 020/04 RMK AO2
14926KSTC STC20120604212009406/04/12 21:20:31  5-MIN KSTC 050320Z 02003KT 10SM CLR 19/09 A2994 1010 52 1800 020/03 RMK AO2
14926KSTC STC20120604212509406/04/12 21:25:31  5-MIN KSTC 050325Z 04004KT 10SM CLR 19/09 A2994 1010 52 1800 030/04 RMK AO2
14926KSTC STC20120604213009406/04/12 21:30:31  5-MIN KSTC 050330Z 04005KT 10SM CLR 19/09 A2994 1010 54 1700 040/05 RMK AO2
14926KSTC STC20120604213509406/04/12 21:35:31  5-MIN KSTC 050335Z 04004KT 10SM CLR 18/09 A2994 1010 56 1700 040/04 RMK AO2
14926KSTC STC20120604214009406/04/12 21:40:31  5-MIN KSTC 050340Z 03003KT 10SM CLR 19/09 A2994 1010 52 1700 030/03 RMK AO2
14926KSTC STC20120604214509406/04/12 21:45:31  5-MIN KSTC 050345Z 04004KT 10SM CLR 19/09 A2994 1000 52 1700 040/04 RMK AO2
14926KSTC STC20120604215011106/04/12 21:50:31  5-MIN KSTC 050350Z 03003KT 10SM CLR 19/09 A2995 1000 52 1700 030/03 RMK AO2 SLP144 T01890089
14926KSTC STC20120604215509406/04/12 21:55:31  5-MIN KSTC 050355Z 03003KT 10SM CLR 19/09 A2995 1000 52 1700 030/03 RMK AO2
14926KSTC STC20120604220009906/04/12 22:00:31  5-MIN KSTC 050400Z AUTO 00000KT 10SM CLR 19/09 A2995 1000 52 1700 000/00 RMK AO2
14926KSTC STC20120604220509906/04/12 22:05:31  5-MIN KSTC 050405Z AUTO 00000KT 10SM CLR 18/09 A2995 1000 54 1700 000/00 RMK AO2
14926KSTC STC20120604221009906/04/12 22:10:31  5-MIN KSTC 050410Z AUTO 00000KT 10SM CLR 18/09 A2995 1000 56 1700 000/00 RMK AO2
14926KSTC STC20120604221509906/04/12 22:15:31  5-MIN KSTC 050415Z AUTO 00000KT 10SM CLR 18/09 A2995 1000 56 1700 000/00 RMK AO2
14926KSTC STC20120604222009906/04/12 22:20:31  5-MIN KSTC 050420Z AUTO 00000KT 10SM CLR 18/09 A2995 1000 58 1600 000/00 RMK AO2
14926KSTC STC20120604222509906/04/12 22:25:31  5-MIN KSTC 050425Z AUTO 00000KT 10SM CLR 18/10 A2995 1000 58 1700 000/00 RMK AO2
14926KSTC STC20120604223009906/04/12 22:30:31  5-MIN KSTC 050430Z AUTO 00000KT 10SM CLR 17/10 A2995 1000 62 1500 000/00 RMK AO2
14926KSTC STC20120604223509906/04/12 22:35:31  5-MIN KSTC 050435Z AUTO 00000KT 10SM CLR 16/10 A2995 1000 67 1400 000/00 RMK AO2
14926KSTC STC20120604224009906/04/12 22:40:31  5-MIN KSTC 050440Z AUTO 00000KT 10SM CLR 16/10 A2995 1000 69 1300 000/00 RMK AO2
14926KSTC STC20120604224509906/04/12 22:45:31  5-MIN KSTC 050445Z AUTO 00000KT 10SM CLR 15/11 A2995 1000 74 1300 000/00 RMK AO2
14926KSTC STC20120604225011606/04/12 22:50:31  5-MIN KSTC 050450Z AUTO 00000KT 10SM CLR 16/11 A2995 1000 72 1300 000/00 RMK AO2 SLP147 T01560106
14926KSTC STC20120604225509906/04/12 22:55:31  5-MIN KSTC 050455Z AUTO 00000KT 10SM CLR 16/11 A2995 1000 69 1400 000/00 RMK AO2
14926KSTC STC20120604230009806/04/12 23:00:31  5-MIN KSTC 050500Z AUTO 00000KT 10SM CLR 15/11 A2995 990 77 1300 000/00 RMK AO2
14926KSTC STC20120604230509806/04/12 23:05:31  5-MIN KSTC 050505Z AUTO 00000KT 10SM CLR 14/11 A2996 990 80 1100 000/00 RMK AO2
14926KSTC STC20120604231009806/04/12 23:10:31  5-MIN KSTC 050510Z AUTO 00000KT 10SM CLR 14/11 A2996 990 80 1100 000/00 RMK AO2
14926KSTC STC20120604231509806/04/12 23:15:31  5-MIN KSTC 050515Z AUTO 00000KT 10SM CLR 14/11 A2996 990 83 1100 000/00 RMK AO2
14926KSTC STC20120604232009806/04/12 23:20:31  5-MIN KSTC 050520Z AUTO 00000KT 10SM CLR 14/11 A2996 990 80 1200 000/00 RMK AO2
14926KSTC STC20120604232509806/04/12 23:25:31  5-MIN KSTC 050525Z AUTO 00000KT 10SM CLR 15/11 A2996 990 77 1300 000/00 RMK AO2
14926KSTC STC20120604233009806/04/12 23:30:31  5-MIN KSTC 050530Z AUTO 00000KT 10SM CLR 14/11 A2996 990 83 1100 000/00 RMK AO2
14926KSTC STC20120604233509806/04/12 23:35:31  5-MIN KSTC 050535Z AUTO 00000KT 10SM CLR 13/11 A2996 990 86 1100 000/00 RMK AO2
14926KSTC STC20120604234009806/04/12 23:40:31  5-MIN KSTC 050540Z AUTO 00000KT 10SM CLR 14/11 A2996 990 83 1100 000/00 RMK AO2
14926KSTC STC20120604234509806/04/12 23:45:31  5-MIN KSTC 050545Z AUTO 00000KT 10SM CLR 15/12 A2996 990 80 1300 000/00 RMK AO2
14926KSTC STC20120604235014306/04/12 23:50:31  5-MIN KSTC 050550Z AUTO 00000KT 10SM CLR 13/11 A2996 990 86 1100 000/00 RMK AO2 SLP151 T01330111 10278 20133 402890117 51011
14926KSTC STC20120604235509806/04/12 23:55:31  5-MIN KSTC 050555Z AUTO 00000KT 10SM CLR 13/11 A2996 990 89 1000 000/00 RMK AO2
14926KSTC STC20120605000009806/05/12 00:00:32  5-MIN KSTC 050600Z AUTO 00000KT 10SM CLR 13/12 A2996 990 93 1000 000/00 RMK AO2
14926KSTC STC20120605000509806/05/12 00:05:31  5-MIN KSTC 050605Z AUTO 00000KT 10SM CLR 13/12 A2996 990 93 1000 000/00 RMK AO2
14926KSTC STC20120605001009806/05/12 00:10:31  5-MIN KSTC 050610Z AUTO 00000KT 10SM CLR 13/12 A2996 990 93 1000 000/00 RMK AO2
14926KSTC STC20120605001509806/05/12 00:15:31  5-MIN KSTC 050615Z AUTO 00000KT 10SM CLR 13/12 A2996 990 89 1100 000/00 RMK AO2
14926KSTC STC20120605002009806/05/12 00:20:31  5-MIN KSTC 050620Z AUTO 00000KT 10SM CLR 13/12 A2996 990 89 1100 000/00 RMK AO2
14926KSTC STC20120605002509706/05/12 00:25:31  5-MIN KSTC 050625Z AUTO 33003KT 10SM CLR 12/11 A2996 990 93 900 330/03 RMK AO2
14926KSTC STC20120605003009706/05/12 00:30:31  5-MIN KSTC 050630Z AUTO 00000KT 10SM CLR 12/11 A2996 990 93 900 000/00 RMK AO2
14926KSTC STC20120605003509806/05/12 00:35:31  5-MIN KSTC 050635Z AUTO 00000KT 10SM CLR 13/12 A2996 990 93 1000 000/00 RMK AO2
14926KSTC STC20120605004009706/05/12 00:40:31  5-MIN KSTC 050640Z AUTO 03004KT 10SM CLR 12/11 A2996 990 93 900 030/04 RMK AO2
14926KSTC STC20120605004509806/05/12 00:45:31  5-MIN KSTC 050645Z AUTO 02003KT 10SM CLR 13/12 A2997 980 89 1100 020/03 RMK AO2
14926KSTC STC20120605005011506/05/12 00:50:31  5-MIN KSTC 050650Z AUTO 00000KT 10SM CLR 13/12 A2997 980 89 1000 000/00 RMK AO2 SLP154 T01330117
14926KSTC STC20120605005509806/05/12 00:55:31  5-MIN KSTC 050655Z AUTO 00000KT 10SM CLR 14/12 A2997 980 90 1100 000/00 RMK AO2
14926KSTC STC20120605010009806/05/12 01:00:31  5-MIN KSTC 050700Z AUTO 36003KT 10SM CLR 13/12 A2998 970 93 1000 360/03 RMK AO2
14926KSTC STC20120605010509806/05/12 01:05:31  5-MIN KSTC 050705Z AUTO 00000KT 10SM CLR 13/12 A2998 970 89 1000 000/00 RMK AO2
14926KSTC STC20120605011009806/05/12 01:10:31  5-MIN KSTC 050710Z AUTO 00000KT 10SM CLR 14/12 A2998 970 90 1100 000/00 RMK AO2
14926KSTC STC20120605011509806/05/12 01:15:31  5-MIN KSTC 050715Z AUTO 00000KT 10SM CLR 13/12 A2998 970 93 1000 000/00 RMK AO2
14926KSTC STC20120605012009806/05/12 01:20:31  5-MIN KSTC 050720Z AUTO 00000KT 10SM CLR 13/12 A2998 970 93 1000 000/00 RMK AO2
14926KSTC STC20120605012509806/05/12 01:25:31  5-MIN KSTC 050725Z AUTO 00000KT 10SM CLR 13/12 A2998 970 93 1000 000/00 RMK AO2
14926KSTC STC20120605013009806/05/12 01:30:31  5-MIN KSTC 050730Z AUTO 00000KT 10SM CLR 13/12 A2998 970 93 1000 000/00 RMK AO2
14926KSTC STC20120605013509606/05/12 01:35:31  5-MIN KSTC 050735Z AUTO 00000KT 9SM CLR 12/11 A2998 970 93 900 000/00 RMK AO2
14926KSTC STC20120605014009606/05/12 01:40:31  5-MIN KSTC 050740Z AUTO 00000KT 9SM CLR 12/11 A2998 970 93 900 000/00 RMK AO2
14926KSTC STC20120605014509706/05/12 01:45:31  5-MIN KSTC 050745Z AUTO 00000KT 10SM CLR 12/12 A2998 970 96 900 000/00 RMK AO2
14926KSTC STC20120605015011506/05/12 01:50:31  5-MIN KSTC 050750Z AUTO 06003KT 10SM CLR 13/12 A2998 970 93 1000 060/03 RMK AO2 SLP157 T01280117
14926KSTC STC20120605015509806/05/12 01:55:31  5-MIN KSTC 050755Z AUTO 05003KT 10SM CLR 13/12 A2998 970 93 1000 050/03 RMK AO2
14926KSTC STC20120605020009806/05/12 02:00:31  5-MIN KSTC 050800Z AUTO 05003KT 10SM CLR 13/12 A2998 970 93 1000 050/03 RMK AO2
14926KSTC STC20120605020509706/05/12 02:05:31  5-MIN KSTC 050805Z AUTO 00000KT 10SM CLR 12/12 A2998 970 96 900 000/00 RMK AO2
14926KSTC STC20120605021009706/05/12 02:10:31  5-MIN KSTC 050810Z AUTO 00000KT 10SM CLR 12/11 A2998 970 93 800 000/00 RMK AO2
14926KSTC STC20120605021509606/05/12 02:15:31  5-MIN KSTC 050815Z AUTO 00000KT 8SM CLR 12/11 A2998 970 93 800 000/00 RMK AO2
14926KSTC STC20120605022009906/05/12 02:20:31  5-MIN KSTC 050820Z AUTO 00000KT 6SM BR CLR 12/11 A2998 970 93 800 000/00 RMK AO2
14926KSTC STC20120605022509906/05/12 02:25:31  5-MIN KSTC 050825Z AUTO 00000KT 6SM BR CLR 12/11 A2999 970 93 800 000/00 RMK AO2
14926KSTC STC20120605023009706/05/12 02:30:31  5-MIN KSTC 050830Z AUTO 00000KT 9SM CLR 13/12 A2999 960 93 1000 000/00 RMK AO2
14926KSTC STC20120605023509706/05/12 02:35:31  5-MIN KSTC 050835Z AUTO 00000KT 10SM CLR 12/11 A2999 960 93 900 000/00 RMK AO2
14926KSTC STC20120605024009606/05/12 02:40:31  5-MIN KSTC 050840Z AUTO 00000KT 9SM CLR 12/12 A2999 960 96 900 000/00 RMK AO2
14926KSTC STC20120605024509606/05/12 02:45:31  5-MIN KSTC 050845Z AUTO 00000KT 9SM CLR 12/12 A2999 960 96 900 000/00 RMK AO2
14926KSTC STC20120605025011906/05/12 02:50:31  5-MIN KSTC 050850Z AUTO 00000KT 7SM CLR 12/11 A2999 960 96 800 000/00 RMK AO2 SLP161 T01170111 53005
14926KSTC STC20120605025509906/05/12 02:55:31  5-MIN KSTC 050855Z AUTO 01003KT 5SM BR CLR 12/12 A2999 960 96 900 010/03 RMK AO2
14926KSTC STC20120605030009906/05/12 03:00:31  5-MIN KSTC 050900Z AUTO 00000KT 6SM BR CLR 12/12 A2999 960 96 900 000/00 RMK AO2
14926KSTC STC20120605030509606/05/12 03:05:31  5-MIN KSTC 050905Z AUTO 36003KT 7SM CLR 12/11 A2999 960 93 900 360/03 RMK AO2
14926KSTC STC20120605031009906/05/12 03:10:31  5-MIN KSTC 050910Z AUTO 01003KT 3SM BR CLR 12/11 A2999 960 96 800 010/03 RMK AO2
14926KSTC STC20120605031510306/05/12 03:15:31  5-MIN KSTC 050915Z AUTO 00000KT 2 1/2SM BR CLR 12/11 A2999 960 96 800 000/00 RMK AO2
14926KSTC STC20120605032010006/05/12 03:20:31  5-MIN KSTC 050920Z AUTO 00000KT 5SM BR CLR 13/12 A3000 960 93 1000 000/00 RMK AO2
14926KSTC STC20120605032509906/05/12 03:25:31  5-MIN KSTC 050925Z AUTO 01003KT 6SM BR CLR 12/11 A3000 960 93 900 010/03 RMK AO2
14926KSTC STC20120605033009906/05/12 03:30:31  5-MIN KSTC 050930Z AUTO 00000KT 6SM BR CLR 12/12 A3000 960 96 900 000/00 RMK AO2
14926KSTC STC20120605033509906/05/12 03:35:31  5-MIN KSTC 050935Z AUTO 00000KT 6SM BR CLR 12/12 A3000 960 96 900 000/00 RMK AO2
14926KSTC STC20120605034010006/05/12 03:40:31  5-MIN KSTC 050940Z AUTO 00000KT 6SM BR CLR 13/12 A3000 960 93 1000 000/00 RMK AO2
14926KSTC STC20120605034509906/05/12 03:45:31  5-MIN KSTC 050945Z AUTO 00000KT 6SM BR CLR 12/12 A3000 960 96 900 000/00 RMK AO2
14926KSTC STC20120605035011606/05/12 03:50:31  5-MIN KSTC 050950Z AUTO 00000KT 4SM BR CLR 12/12 A3000 960 96 900 000/00 RMK AO2 SLP162 T01220117
14926KSTC STC20120605035509906/05/12 03:55:31  5-MIN KSTC 050955Z AUTO 00000KT 3SM BR CLR 12/12 A3000 960 96 900 000/00 RMK AO2
14926KSTC STC20120605040009906/05/12 04:00:31  5-MIN KSTC 051000Z AUTO 05003KT 4SM BR CLR 12/12 A3000 960 96 900 050/03 RMK AO2
14926KSTC STC20120605040510006/05/12 04:05:31  5-MIN KSTC 051005Z AUTO 00000KT 5SM BR CLR 13/12 A3000 960 96 1000 000/00 RMK AO2
14926KSTC STC20120605041009906/05/12 04:10:31  5-MIN KSTC 051010Z AUTO 00000KT 5SM BR CLR 12/12 A3000 950 96 900 000/00 RMK AO2
14926KSTC STC20120605041509906/05/12 04:15:31  5-MIN KSTC 051015Z AUTO 00000KT 4SM BR CLR 11/11 A3000 950 96 800 000/00 RMK AO2
14926KSTC STC20120605042011206/05/12 04:20:31  5-MIN KSTC 051020Z AUTO 00000KT 1/2SM FG CLR 11/11 A3000 950 96 800 000/00 RMK AO2 VIS M1/4V5
14926KSTC STC20120605042510106/05/12 04:25:31  5-MIN KSTC 051025Z AUTO 00000KT 1/4SM FG CLR 11/11 A3000 960 96 800 000/00 RMK AO2
14926KSTC STC20120605043010106/05/12 04:30:31  5-MIN KSTC 051030Z AUTO 00000KT 1/4SM FG CLR 11/11 A3000 950 96 800 000/00 RMK AO2
14926KSTC STC20120605043510106/05/12 04:35:31  5-MIN KSTC 051035Z AUTO 00000KT 1/4SM FG CLR 11/11 A3000 950 96 800 000/00 RMK AO2
14926KSTC STC20120605044010406/05/12 04:40:31  5-MIN KSTC 051040Z AUTO 00000KT M1/4SM FG VV002 12/11 A3000 950 96 800 000/00 RMK AO2
14926KSTC STC20120605044510406/05/12 04:45:31  5-MIN KSTC 051045Z AUTO 00000KT M1/4SM FG VV002 12/11 A3000 950 96 800 000/00 RMK AO2
14926KSTC STC20120605045012006/05/12 04:50:31  5-MIN KSTC 051050Z AUTO 00000KT 1/4SM FG VV002 12/11 A3000 950 96 800 000/00 RMK AO2 SLP165 T01170111
14926KSTC STC20120605045510306/05/12 04:55:31  5-MIN KSTC 051055Z AUTO 00000KT 1/4SM FG VV002 11/11 A3000 950 96 800 000/00 RMK AO2
14926KSTC STC20120605050010406/05/12 05:00:31  5-MIN KSTC 051100Z AUTO 00000KT M1/4SM FG VV002 11/10 A3000 950 96 700 000/00 RMK AO2
14926KSTC STC20120605050510506/05/12 05:05:31  5-MIN KSTC 051105Z AUTO 00000KT M1/4SM FG VV002 11/11 A3001 950 100 700 000/00 RMK AO2
14926KSTC STC20120605051010506/05/12 05:10:31  5-MIN KSTC 051110Z AUTO 00000KT M1/4SM FG VV002 12/12 A3001 950 100 800 000/00 RMK AO2
14926KSTC STC20120605051510306/05/12 05:15:31  5-MIN KSTC 051115Z AUTO 00000KT 1/4SM FG VV002 12/11 A3001 950 96 800 000/00 RMK AO2
14926KSTC STC20120605052010306/05/12 05:20:31  5-MIN KSTC 051120Z AUTO 00000KT 1/4SM FG VV002 12/12 A3001 950 96 900 000/00 RMK AO2
14926KSTC STC20120605052510306/05/12 05:25:31  5-MIN KSTC 051125Z AUTO 00000KT 1/4SM FG VV002 12/12 A3001 950 96 900 000/00 RMK AO2
14926KSTC STC20120605053011406/05/12 05:30:31  5-MIN KSTC 051130Z AUTO 00000KT 3/4SM BR VV002 13/12 A3001 950 93 900 000/00 RMK AO2 VIS M1/4V3
14926KSTC STC20120605053511406/05/12 05:35:31  5-MIN KSTC 051135Z AUTO 00000KT 1 3/4SM BR CLR 13/12 A3000 950 93 1000 000/00 RMK AO2 VIS 3/4V3
14926KSTC STC20120605054010006/05/12 05:40:31  5-MIN KSTC 051140Z AUTO 00000KT 2SM BR CLR 14/13 A3000 950 93 1100 000/00 RMK AO2
14926KSTC STC20120605054510006/05/12 05:45:31  5-MIN KSTC 051145Z AUTO 00000KT 3SM BR CLR 14/13 A3001 950 96 1100 000/00 RMK AO2
14926KSTC STC20120605055013006/05/12 05:50:31  5-MIN KSTC 051150Z 00000KT 4SM BR CLR 14/13 A3000 950 93 1100 000/00 RMK AO2 SLP165 T01440133 10144 20106 51004
14926KSTC STC20120605055509506/05/12 05:55:31  5-MIN KSTC 051155Z 00000KT 5SM BR CLR 15/14 A3000 950 93 1200 000/00 RMK AO2
14926KSTC STC20120605060009206/05/12 06:00:31  5-MIN KSTC 051200Z 00000KT 7SM CLR 15/14 A3000 950 93 1200 000/00 RMK AO2
14926KSTC STC20120605060509206/05/12 06:05:31  5-MIN KSTC 051205Z 00000KT 8SM CLR 16/14 A3000 950 90 1300 000/00 RMK AO2
14926KSTC STC20120605061009206/05/12 06:10:31  5-MIN KSTC 051210Z 00000KT 9SM CLR 16/14 A3000 950 90 1300 000/00 RMK AO2
14926KSTC STC20120605061509306/05/12 06:15:31  5-MIN KSTC 051215Z VRB03KT 10SM CLR 16/14 A3000 950 90 1300 VRB/03 RMK AO2
14926KSTC STC20120605062009306/05/12 06:20:31  5-MIN KSTC 051220Z 09004KT 10SM CLR 16/14 A3000 950 90 1300 090/04 RMK AO2
14926KSTC STC20120605062509306/05/12 06:25:31  5-MIN KSTC 051225Z 10004KT 10SM CLR 17/14 A3001 950 86 1400 100/04 RMK AO2
14926KSTC STC20120605063009306/05/12 06:30:31  5-MIN KSTC 051230Z 09003KT 10SM CLR 17/14 A3001 940 86 1400 090/03 RMK AO2
14926KSTC STC20120605063509306/05/12 06:35:31  5-MIN KSTC 051235Z 10003KT 10SM CLR 17/14 A3002 940 86 1400 090/03 RMK AO2
14926KSTC STC20120605064009306/05/12 06:40:31  5-MIN KSTC 051240Z 09003KT 10SM CLR 17/14 A3002 930 83 1500 090/03 RMK AO2
14926KSTC STC20120605064509306/05/12 06:45:31  5-MIN KSTC 051245Z 10003KT 10SM CLR 17/14 A3002 930 83 1500 100/03 RMK AO2
14926KSTC STC20120605065011006/05/12 06:50:31  5-MIN KSTC 051250Z 10005KT 10SM CLR 17/14 A3002 930 83 1500 100/05 RMK AO2 SLP170 T01720144
14926KSTC STC20120605065509306/05/12 06:55:31  5-MIN KSTC 051255Z VRB04KT 10SM CLR 18/14 A3002 930 81 1500 VRB/04 RMK AO2
14926KSTC STC20120605070009306/05/12 07:00:31  5-MIN KSTC 051300Z 00000KT 10SM CLR 18/15 A3002 930 81 1600 000/00 RMK AO2
14926KSTC STC20120605070509306/05/12 07:05:31  5-MIN KSTC 051305Z 09005KT 10SM CLR 18/15 A3002 930 81 1600 090/05 RMK AO2
14926KSTC STC20120605071009306/05/12 07:10:31  5-MIN KSTC 051310Z 13004KT 10SM CLR 18/14 A3002 930 78 1600 130/04 RMK AO2
14926KSTC STC20120605071509306/05/12 07:15:31  5-MIN KSTC 051315Z 10004KT 10SM CLR 18/14 A3002 930 78 1600 100/04 RMK AO2
14926KSTC STC20120605072009306/05/12 07:20:31  5-MIN KSTC 051320Z 12005KT 10SM CLR 18/14 A3002 930 78 1600 120/05 RMK AO2
14926KSTC STC20120605072509306/05/12 07:25:31  5-MIN KSTC 051325Z VRB03KT 10SM CLR 19/14 A3002 930 75 1600 VRB/03 RMK AO2
14926KSTC STC20120605073009306/05/12 07:30:31  5-MIN KSTC 051330Z 09003KT 10SM CLR 19/14 A3002 930 75 1600 090/03 RMK AO2
14926KSTC STC20120605073509306/05/12 07:35:31  5-MIN KSTC 051335Z 00000KT 10SM CLR 19/14 A3002 930 72 1700 000/00 RMK AO2
14926KSTC STC20120605074009306/05/12 07:40:31  5-MIN KSTC 051340Z VRB04KT 10SM CLR 19/14 A3002 930 72 1700 VRB/04 RMK AO2
14926KSTC STC20120605074509306/05/12 07:45:31  5-MIN KSTC 051345Z 09003KT 10SM CLR 19/14 A3002 930 72 1700 080/03 RMK AO2
14926KSTC STC20120605075011006/05/12 07:50:31  5-MIN KSTC 051350Z 11005KT 10SM CLR 20/14 A3003 930 70 1800 110/05 RMK AO2 SLP172 T02000144
14926KSTC STC20120605075509306/05/12 07:55:31  5-MIN KSTC 051355Z 09003KT 10SM CLR 20/14 A3003 930 70 1800 090/03 RMK AO2
14926KSTC STC20120605080009306/05/12 08:00:31  5-MIN KSTC 051400Z 00000KT 10SM CLR 21/14 A3003 930 67 1800 000/00 RMK AO2
14926KSTC STC20120605080509306/05/12 08:05:31  5-MIN KSTC 051405Z 00000KT 10SM CLR 21/14 A3003 930 67 1800 000/00 RMK AO2
14926KSTC STC20120605081009306/05/12 08:10:31  5-MIN KSTC 051410Z 00000KT 10SM CLR 21/14 A3003 930 67 1800 000/00 RMK AO2
14926KSTC STC20120605081509306/05/12 08:15:31  5-MIN KSTC 051415Z 00000KT 10SM CLR 21/14 A3002 930 65 1900 000/00 RMK AO2
14926KSTC STC20120605082009306/05/12 08:20:31  5-MIN KSTC 051420Z 09003KT 10SM CLR 22/14 A3003 930 63 2000 090/03 RMK AO2
14926KSTC STC20120605082509306/05/12 08:25:31  5-MIN KSTC 051425Z 09004KT 10SM CLR 22/14 A3003 930 63 2000 090/04 RMK AO2
14926KSTC STC20120605083009306/05/12 08:30:31  5-MIN KSTC 051430Z 13003KT 10SM CLR 22/14 A3003 930 63 2000 130/03 RMK AO2
14926KSTC STC20120605083509306/05/12 08:35:31  5-MIN KSTC 051435Z VRB05KT 10SM CLR 22/14 A3003 930 63 2000 VRB/05 RMK AO2
14926KSTC STC20120605084009306/05/12 08:40:31  5-MIN KSTC 051440Z VRB04KT 10SM CLR 22/14 A3003 930 61 2000 VRB/04 RMK AO2
14926KSTC STC20120605084509306/05/12 08:45:31  5-MIN KSTC 051445Z 12004KT 10SM CLR 22/14 A3003 930 61 2000 120/04 RMK AO2
14926KSTC STC20120605085011606/05/12 08:50:31  5-MIN KSTC 051450Z VRB04KT 10SM CLR 23/14 A3003 930 59 2100 VRB/04 RMK AO2 SLP172 T02280144 51003
14926KSTC STC20120605085509306/05/12 08:55:31  5-MIN KSTC 051455Z 00000KT 10SM CLR 23/14 A3003 920 59 2100 000/00 RMK AO2
14926KSTC STC20120605090009306/05/12 09:00:31  5-MIN KSTC 051500Z 00000KT 10SM CLR 23/14 A3003 920 59 2100 000/00 RMK AO2
14926KSTC STC20120605090509306/05/12 09:05:31  5-MIN KSTC 051505Z 14003KT 10SM CLR 23/14 A3003 920 57 2100 140/03 RMK AO2
14926KSTC STC20120605091009306/05/12 09:10:31  5-MIN KSTC 051510Z 15004KT 10SM CLR 23/14 A3003 920 55 2100 150/04 RMK AO2
14926KSTC STC20120605091509306/05/12 09:15:31  5-MIN KSTC 051515Z 13005KT 10SM CLR 23/14 A3003 930 55 2100 130/05 RMK AO2
14926KSTC STC20120605092009306/05/12 09:20:31  5-MIN KSTC 051520Z 13005KT 10SM CLR 23/14 A3003 930 55 2100 130/05 RMK AO2
14926KSTC STC20120605092509306/05/12 09:25:31  5-MIN KSTC 051525Z 00000KT 10SM CLR 23/13 A3002 930 53 2100 000/00 RMK AO2
14926KSTC STC20120605093009306/05/12 09:30:31  5-MIN KSTC 051530Z 11003KT 10SM CLR 24/14 A3002 930 53 2200 110/03 RMK AO2
14926KSTC STC20120605093509306/05/12 09:35:31  5-MIN KSTC 051535Z VRB03KT 10SM CLR 24/14 A3002 930 51 2300 VRB/03 RMK AO2
14926KSTC STC20120605094009306/05/12 09:40:31  5-MIN KSTC 051540Z VRB04KT 10SM CLR 24/14 A3002 930 51 2300 VRB/04 RMK AO2
14926KSTC STC20120611053509806/11/12 05:35:31  5-MIN KSTC 111135Z AUTO 19008KT 9SM CLR 16/14 A2968 1250 93 1600 190/08 RMK AO2
14926KSTC STC20120611054009806/11/12 05:40:31  5-MIN KSTC 111140Z AUTO 20008KT 9SM CLR 16/14 A2968 1250 93 1600 200/08 RMK AO2
14926KSTC STC20120611054509806/11/12 05:45:31  5-MIN KSTC 111145Z AUTO 20008KT 9SM CLR 16/14 A2968 1250 93 1600 200/08 RMK AO2
14926KSTC STC20120611055013406/11/12 05:50:31  5-MIN KSTC 111150Z 20008KT 9SM CLR 16/14 A2968 1250 93 1600 200/08 RMK AO2 SLP056 70059 T01560144 10161 20139 56023
14926KSTC STC20120611055509306/11/12 05:55:31  5-MIN KSTC 111155Z 20008KT 9SM CLR 16/14 A2968 1250 93 1600 200/08 RMK AO2
14926KSTC STC20120611060009306/11/12 06:00:31  5-MIN KSTC 111200Z 20008KT 9SM CLR 16/14 A2968 1250 90 1700 200/08 RMK AO2
14926KSTC STC20120611060509306/11/12 06:05:31  5-MIN KSTC 111205Z 19008KT 9SM CLR 16/14 A2969 1240 90 1700 190/08 RMK AO2
14926KSTC STC20120611061009406/11/12 06:10:31  5-MIN KSTC 111210Z 20009KT 10SM CLR 16/15 A2969 1240 93 1700 200/09 RMK AO2
14926KSTC STC20120611061509406/11/12 06:15:31  5-MIN KSTC 111215Z 20010KT 10SM CLR 17/15 A2969 1240 90 1800 200/10 RMK AO2
14926KSTC STC20120611062009406/11/12 06:20:31  5-MIN KSTC 111220Z 22009KT 10SM CLR 17/15 A2970 1230 90 1700 210/09 RMK AO2
14926KSTC STC20120611062510106/11/12 06:25:31  5-MIN KSTC 111225Z 24012KT 10SM CLR 17/15 A2972 1210 90 1700 240/12 RMK AO2 PRESRR
14926KSTC STC20120611063009406/11/12 06:30:31  5-MIN KSTC 111230Z 24011KT 10SM CLR 17/15 A2972 1210 90 1700 240/11 RMK AO2
14926KSTC STC20120611063510006/11/12 06:35:31  5-MIN KSTC 111235Z 23011G17KT 10SM CLR 17/15 A2972 1210 87 1800 230/11G17 RMK AO2
14926KSTC STC20120611064010006/11/12 06:40:31  5-MIN KSTC 111240Z 23011G17KT 10SM CLR 17/15 A2972 1210 87 1800 230/11G17 RMK AO2
14926KSTC STC20120611064509406/11/12 06:45:31  5-MIN KSTC 111245Z 22011KT 10SM CLR 17/15 A2972 1210 87 1800 220/11 RMK AO2
14926KSTC STC20120611065011106/11/12 06:50:31  5-MIN KSTC 111250Z 22011KT 10SM CLR 18/15 A2972 1220 83 1900 220/11 RMK AO2 SLP067 T01780150
14926KSTC STC20120611065509406/11/12 06:55:31  5-MIN KSTC 111255Z 22012KT 10SM CLR 18/15 A2972 1220 83 1900 220/12 RMK AO2
14926KSTC STC20120611070009406/11/12 07:00:31  5-MIN KSTC 111300Z 21012KT 10SM CLR 18/15 A2971 1220 83 1900 210/12 RMK AO2
14926KSTC STC20120611070509406/11/12 07:05:31  5-MIN KSTC 111305Z 21011KT 10SM CLR 18/15 A2971 1220 83 1900 210/11 RMK AO2
14926KSTC STC20120611071009406/11/12 07:10:31  5-MIN KSTC 111310Z 21011KT 10SM CLR 18/15 A2971 1220 81 1900 210/11 RMK AO2
14926KSTC STC20120611071509406/11/12 07:15:31  5-MIN KSTC 111315Z 22011KT 10SM CLR 18/15 A2971 1230 81 1900 210/11 RMK AO2
14926KSTC STC20120611072009406/11/12 07:20:31  5-MIN KSTC 111320Z 21011KT 10SM CLR 18/14 A2970 1230 78 1900 210/11 RMK AO2
14926KSTC STC20120611072509406/11/12 07:25:31  5-MIN KSTC 111325Z 21012KT 10SM CLR 19/14 A2970 1230 75 2000 210/12 RMK AO2
14926KSTC STC20120611073010006/11/12 07:30:31  5-MIN KSTC 111330Z 21012G17KT 10SM CLR 19/15 A2970 1230 78 2000 200/12G17 RMK AO2
14926KSTC STC20120611073510006/11/12 07:35:31  5-MIN KSTC 111335Z 20010G17KT 10SM CLR 19/15 A2970 1230 75 2100 200/10G17 RMK AO2
14926KSTC STC20120611074010006/11/12 07:40:31  5-MIN KSTC 111340Z 21013G18KT 10SM CLR 19/14 A2970 1230 72 2100 210/13G18 RMK AO2
14926KSTC STC20120611074509406/11/12 07:45:31  5-MIN KSTC 111345Z 21012KT 10SM CLR 20/14 A2970 1230 70 2100 210/12 RMK AO2
14926KSTC STC20120611075011106/11/12 07:50:31  5-MIN KSTC 111350Z 22010KT 10SM CLR 20/14 A2970 1230 70 2100 220/10 RMK AO2 SLP063 T02000144
14926KSTC STC20120611075510006/11/12 07:55:31  5-MIN KSTC 111355Z 22011G19KT 10SM CLR 20/14 A2970 1230 70 2100 220/11G19 RMK AO2
14926KSTC STC20120611080010006/11/12 08:00:31  5-MIN KSTC 111400Z 23015G21KT 10SM CLR 21/14 A2970 1230 67 2200 230/15G21 RMK AO2
14926KSTC STC20120611080510006/11/12 08:05:31  5-MIN KSTC 111405Z 23014G22KT 10SM CLR 20/14 A2970 1230 67 2100 230/14G22 RMK AO2
14926KSTC STC20120611081010006/11/12 08:10:31  5-MIN KSTC 111410Z 23019G24KT 10SM CLR 20/13 A2971 1230 65 2100 230/19G24 RMK AO2
14926KSTC STC20120611081510006/11/12 08:15:31  5-MIN KSTC 111415Z 23015G24KT 10SM CLR 19/13 A2970 1230 65 2100 230/15G24 RMK AO2
14926KSTC STC20120611082009406/11/12 08:20:31  5-MIN KSTC 111420Z 23012KT 10SM CLR 20/13 A2970 1230 65 2100 230/12 RMK AO2
14926KSTC STC20120611082510006/11/12 08:25:31  5-MIN KSTC 111425Z 24016G22KT 10SM CLR 20/13 A2970 1230 63 2100 240/16G22 RMK AO2
14926KSTC STC20120611083010006/11/12 08:30:31  5-MIN KSTC 111430Z 24014G22KT 10SM CLR 20/12 A2971 1220 60 2100 240/14G22 RMK AO2
14926KSTC STC20120611083510006/11/12 08:35:31  5-MIN KSTC 111435Z 24017G22KT 10SM CLR 20/12 A2971 1220 58 2100 230/17G22 RMK AO2
14926KSTC STC20120611084010006/11/12 08:40:31  5-MIN KSTC 111440Z 26014G22KT 10SM CLR 20/12 A2971 1220 60 2100 250/14G22 RMK AO2
14926KSTC STC20120611084510006/11/12 08:45:31  5-MIN KSTC 111445Z 25014G22KT 10SM CLR 20/12 A2971 1220 58 2100 250/14G22 RMK AO2
14926KSTC STC20120611085012306/11/12 08:50:31  5-MIN KSTC 111450Z 26019G24KT 10SM CLR 20/11 A2971 1220 56 2100 260/19G24 RMK AO2 SLP067 T02000111 53002
14926KSTC STC20120611085510006/11/12 08:55:31  5-MIN KSTC 111455Z 26017G24KT 10SM CLR 19/11 A2971 1220 58 2100 260/17G24 RMK AO2
14926KSTC STC20120611090010006/11/12 09:00:31  5-MIN KSTC 111500Z 25017G23KT 10SM CLR 19/11 A2971 1220 58 2100 250/17G23 RMK AO2
14926KSTC STC20120611090510006/11/12 09:05:31  5-MIN KSTC 111505Z 25012G22KT 10SM CLR 20/12 A2972 1220 58 2100 250/12G22 RMK AO2
14926KSTC STC20120611091010006/11/12 09:10:31  5-MIN KSTC 111510Z 25016G21KT 10SM CLR 20/12 A2972 1220 58 2100 250/16G21 RMK AO2
14926KSTC STC20120611091510306/11/12 09:15:31  5-MIN KSTC 111515Z 25017G22KT 10SM FEW035 20/11 A2972 1210 56 2100 250/17G22 RMK AO2
14926KSTC STC20120611092010306/11/12 09:20:31  5-MIN KSTC 111520Z 25014G22KT 10SM FEW033 19/12 A2972 1210 60 2000 250/14G22 RMK AO2
14926KSTC STC20120611092509706/11/12 09:25:31  5-MIN KSTC 111525Z 27016KT 10SM SCT033 20/12 A2972 1210 60 2100 260/16 RMK AO2
14926KSTC STC20120611093012106/11/12 09:30:31  5-MIN KSTC 111530Z 25019G27KT 10SM SCT033 20/12 A2973 1210 58 2100 250/19G27 RMK AO2 PK WND 24027/1530
14926KSTC STC20120611093512106/11/12 09:35:31  5-MIN KSTC 111535Z 25018G27KT 10SM SCT033 20/12 A2973 1200 58 2100 250/18G27 RMK AO2 PK WND 24027/1530
14926KSTC STC20120611094012106/11/12 09:40:31  5-MIN KSTC 111540Z 26013G25KT 10SM BKN033 19/12 A2973 1200 60 2000 260/13G25 RMK AO2 PK WND 24027/1530
14926KSTC STC20120611094512106/11/12 09:45:31  5-MIN KSTC 111545Z 26019G24KT 10SM BKN033 19/11 A2973 1200 58 2000 260/19G24 RMK AO2 PK WND 24027/1530
14926KSTC STC20120611095014506/11/12 09:50:31  5-MIN KSTC 111550Z 28018G25KT 10SM SCT033 SCT041 19/11 A2974 1200 58 2000 280/18G25 RMK AO2 PK WND 24027/1530 SLP075 T01940111
14926KSTC STC20120611095510306/11/12 09:55:31  5-MIN KSTC 111555Z 26016G25KT 10SM BKN036 19/11 A2974 1190 58 2000 260/16G25 RMK AO2
14926KSTC STC20120611100011006/11/12 10:00:31  5-MIN KSTC 111600Z 26017G25KT 10SM BKN036 BKN043 19/11 A2974 1190 60 2000 260/17G25 RMK AO2
14926KSTC STC20120611100511006/11/12 10:05:31  5-MIN KSTC 111605Z 27015G23KT 10SM FEW032 BKN040 19/11 A2974 1190 58 2000 260/15G23 RMK AO2
14926KSTC STC20120611101011006/11/12 10:10:31  5-MIN KSTC 111610Z 25017G23KT 10SM BKN038 BKN046 20/12 A2974 1190 58 2100 250/17G23 RMK AO2
14926KSTC STC20120611101511006/11/12 10:15:31  5-MIN KSTC 111615Z 27014G22KT 10SM BKN038 BKN046 19/11 A2975 1190 60 2000 270/14G22 RMK AO2
14926KSTC STC20120611102011006/11/12 10:20:31  5-MIN KSTC 111620Z 27015G21KT 10SM SCT033 BKN042 19/11 A2975 1190 60 2000 270/15G21 RMK AO2
14926KSTC STC20120611102511006/11/12 10:25:31  5-MIN KSTC 111625Z 27017G22KT 10SM FEW033 BKN042 19/11 A2975 1180 56 2000 260/17G22 RMK AO2
14926KSTC STC20120611103011006/11/12 10:30:31  5-MIN KSTC 111630Z 27017G24KT 10SM FEW035 SCT043 20/11 A2975 1180 54 2100 260/17G24 RMK AO2
14926KSTC STC20120611103511006/11/12 10:35:31  5-MIN KSTC 111635Z 26019G25KT 10SM SCT037 BKN045 20/11 A2975 1180 56 2100 260/19G25 RMK AO2
14926KSTC STC20120611104011006/11/12 10:40:31  5-MIN KSTC 111640Z 27014G25KT 10SM FEW035 BKN047 19/11 A2975 1180 56 2000 270/14G25 RMK AO2
14926KSTC STC20120611104511006/11/12 10:45:31  5-MIN KSTC 111645Z 27012G20KT 10SM FEW035 BKN045 19/11 A2975 1180 56 2000 270/12G20 RMK AO2
14926KSTC STC20120611105012006/11/12 10:50:31  5-MIN KSTC 111650Z 27011G19KT 10SM BKN044 21/11 A2975 1180 52 2100 270/11G19 RMK AO2 SLP081 T02060106
14926KSTC STC20120611105511006/11/12 10:55:31  5-MIN KSTC 111655Z 26016G22KT 10SM BKN041 BKN050 21/11 A2976 1180 52 2200 260/16G22 RMK AO2
14926KSTC STC20120611110010306/11/12 11:00:31  5-MIN KSTC 111700Z 28014G22KT 10SM BKN045 21/10 A2976 1170 50 2100 280/14G22 RMK AO2
14926KSTC STC20120611110510306/11/12 11:05:31  5-MIN KSTC 111705Z 28016G23KT 10SM BKN045 20/09 A2976 1170 50 2100 280/16G23 RMK AO2
14926KSTC STC20120611111010306/11/12 11:10:31  5-MIN KSTC 111710Z 27018G24KT 10SM BKN045 21/10 A2977 1170 50 2100 270/18G24 RMK AO2
14926KSTC STC20120611111510306/11/12 11:15:31  5-MIN KSTC 111715Z 26014G24KT 10SM BKN045 20/09 A2977 1170 50 2100 260/14G24 RMK AO2
14926KSTC STC20120611112011006/11/12 11:20:31  5-MIN KSTC 111720Z 25014G23KT 10SM BKN045 BKN055 20/09 A2977 1170 50 2100 250/14G23 RMK AO2
14926KSTC STC20120611112512806/11/12 11:25:31  5-MIN KSTC 111725Z 27017G27KT 10SM BKN047 BKN055 19/09 A2977 1160 50 2000 260/17G27 RMK AO2 PK WND 27027/1722
14926KSTC STC20120611113012106/11/12 11:30:31  5-MIN KSTC 111730Z 26012G27KT 10SM BKN050 21/09 A2977 1160 48 2100 260/12G27 RMK AO2 PK WND 27027/1722
14926KSTC STC20120611113512106/11/12 11:35:31  5-MIN KSTC 111735Z 26019G26KT 10SM BKN050 20/09 A2978 1160 50 2000 260/19G26 RMK AO2 PK WND 27027/1722
14926KSTC STC20120611114012106/11/12 11:40:31  5-MIN KSTC 111740Z 26016G26KT 10SM BKN050 21/09 A2978 1160 46 2100 260/16G26 RMK AO2 PK WND 27027/1722
14926KSTC STC20120611114512106/11/12 11:45:31  5-MIN KSTC 111745Z 25017G22KT 10SM BKN050 21/09 A2978 1160 47 2200 250/17G22 RMK AO2 PK WND 27027/1722
14926KSTC STC20120611115015606/11/12 11:50:31  5-MIN KSTC 111750Z 26014G22KT 10SM BKN050 21/10 A2978 1160 48 2200 260/14G22 RMK AO2 PK WND 27027/1722 SLP089 T02110100 10211 20156 51011
14926KSTC STC20120611115511006/11/12 11:55:31  5-MIN KSTC 111755Z 25014G23KT 10SM BKN047 BKN055 22/10 A2977 1160 47 2200 250/14G23 RMK AO2
14926KSTC STC20120611120010306/11/12 12:00:31  5-MIN KSTC 111800Z 27015G23KT 10SM SCT049 22/10 A2977 1160 47 2200 270/15G23 RMK AO2
14926KSTC STC20120611120510306/11/12 12:05:31  5-MIN KSTC 111805Z 29014G21KT 10SM FEW047 22/09 A2977 1160 43 2300 290/14G21 RMK AO2
14926KSTC STC20120611121010406/11/12 12:10:31  5-MIN KSTC 111810Z 27014KT 10SM FEW047 SCT065 21/09 A2977 1160 45 2200 270/14 RMK AO2
14926KSTC STC20120611121510406/11/12 12:15:31  5-MIN KSTC 111815Z 27012KT 10SM SCT049 BKN065 21/09 A2977 1160 47 2200 260/12 RMK AO2
14926KSTC STC20120611122011006/11/12 12:20:31  5-MIN KSTC 111820Z 27017G22KT 10SM SCT049 BKN070 22/09 A2977 1160 45 2200 270/17G22 RMK AO2
14926KSTC STC20120611122511006/11/12 12:25:31  5-MIN KSTC 111825Z 26015G22KT 10SM SCT049 BKN070 22/09 A2977 1160 45 2200 260/15G22 RMK AO2
14926KSTC STC20120611123011006/11/12 12:30:31  5-MIN KSTC 111830Z 26017G23KT 10SM SCT049 BKN070 21/09 A2977 1160 45 2200 260/17G23 RMK AO2
14926KSTC STC20120611123511006/11/12 12:35:31  5-MIN KSTC 111835Z 28016G23KT 10SM BKN049 OVC070 22/09 A2978 1160 45 2200 280/16G23 RMK AO2
14926KSTC STC20120611124011006/11/12 12:40:31  5-MIN KSTC 111840Z 28018G24KT 10SM BKN049 OVC070 21/09 A2978 1160 45 2200 280/18G24 RMK AO2
14926KSTC STC20120611124511006/11/12 12:45:31  5-MIN KSTC 111845Z 28017G24KT 10SM BKN049 OVC070 21/09 A2978 1160 46 2100 280/17G24 RMK AO2
14926KSTC STC20120611125012706/11/12 12:50:31  5-MIN KSTC 111850Z 28015G24KT 10SM BKN049 OVC070 20/09 A2978 1150 48 2000 280/15G24 RMK AO2 SLP092 T02000089
14926KSTC STC20120611125511706/11/12 12:55:31  5-MIN KSTC 111855Z 28017G24KT 10SM BKN047 BKN055 OVC070 20/09 A2978 1150 50 2000 280/17G24 RMK AO2
14926KSTC STC20120611130011006/11/12 13:00:31  5-MIN KSTC 111900Z 27011G24KT 10SM SCT047 OVC055 20/09 A2978 1150 50 2000 270/11G24 RMK AO2
14926KSTC STC20120611130511706/11/12 13:05:31  5-MIN KSTC 111905Z 25015G21KT 10SM SCT047 BKN060 OVC070 21/10 A2979 1150 50 2100 250/15G21 RMK AO2
14926KSTC STC20120611131011706/11/12 13:10:31  5-MIN KSTC 111910Z 26016G21KT 10SM BKN047 BKN055 OVC070 21/11 A2979 1150 50 2200 260/16G21 RMK AO2
14926KSTC STC20120611131511006/11/12 13:15:31  5-MIN KSTC 111915Z 25015G21KT 10SM BKN045 OVC060 21/10 A2979 1150 50 2100 250/15G21 RMK AO2
14926KSTC STC20120611132011706/11/12 13:20:31  5-MIN KSTC 111920Z 26014G20KT 10SM BKN043 BKN055 OVC075 20/11 A2979 1150 54 2000 260/14G20 RMK AO2
14926KSTC STC20120611132511706/11/12 13:25:31  5-MIN KSTC 111925Z 27012G19KT 10SM BKN043 BKN055 OVC075 21/11 A2979 1140 52 2100 260/12G19 RMK AO2
14926KSTC STC20120611133011006/11/12 13:30:31  5-MIN KSTC 111930Z 27009G18KT 10SM BKN042 OVC055 20/11 A2979 1140 54 2000 270/09G18 RMK AO2
14926KSTC STC20120611133511006/11/12 13:35:31  5-MIN KSTC 111935Z 27014G20KT 10SM BKN040 OVC049 19/11 A2979 1140 56 2000 270/14G20 RMK AO2
14926KSTC STC20120611134011706/11/12 13:40:31  5-MIN KSTC 111940Z 28015G23KT 10SM SCT040 BKN046 OVC060 20/11 A2980 1140 54 2000 280/15G23 RMK AO2
14926KSTC STC20120611134511706/11/12 13:45:31  5-MIN KSTC 111945Z 27017G23KT 10SM SCT040 BKN060 OVC075 21/11 A2980 1140 50 2200 270/17G23 RMK AO2
14926KSTC STC20120611135013406/11/12 13:50:31  5-MIN KSTC 111950Z 28012G22KT 10SM SCT040 BKN050 OVC070 21/10 A2979 1140 50 2100 270/12G22 RMK AO2 SLP095 T02060100
14926KSTC STC20120611135511706/11/12 13:55:31  5-MIN KSTC 111955Z 26013G20KT 10SM SCT040 BKN050 OVC070 20/10 A2980 1140 52 2000 260/13G20 RMK AO2
14926KSTC STC20120611140011706/11/12 14:00:31  5-MIN KSTC 112000Z 26017G22KT 10SM SCT042 BKN050 OVC070 20/11 A2980 1140 54 2000 260/17G22 RMK AO2
14926KSTC STC20120611140511706/11/12 14:05:31  5-MIN KSTC 112005Z 27017G24KT 10SM SCT042 SCT055 OVC070 20/11 A2980 1140 54 2000 270/17G24 RMK AO2
14926KSTC STC20120611141011006/11/12 14:10:31  5-MIN KSTC 112010Z 27018G25KT 10SM SCT042 OVC070 21/11 A2980 1140 52 2100 270/18G25 RMK AO2
14926KSTC STC20120611141511006/11/12 14:15:31  5-MIN KSTC 112015Z 28017G25KT 10SM SCT042 OVC070 21/10 A2980 1130 50 2100 280/17G25 RMK AO2
14926KSTC STC20120611142011006/11/12 14:20:31  5-MIN KSTC 112020Z 26019G25KT 10SM SCT042 OVC070 21/11 A2981 1130 50 2100 260/19G25 RMK AO2
14926KSTC STC20120611142512806/11/12 14:25:31  5-MIN KSTC 112025Z 26019G26KT 10SM SCT042 OVC070 21/11 A2981 1130 52 2100 260/19G26 RMK AO2 PK WND 26026/2023
14926KSTC STC20120611143012806/11/12 14:30:31  5-MIN KSTC 112030Z 29020G32KT 10SM BKN042 OVC070 21/10 A2981 1130 50 2100 290/20G32 RMK AO2 PK WND 29032/2030
14926KSTC STC20120611143512806/11/12 14:35:31  5-MIN KSTC 112035Z 28019G32KT 10SM BKN042 BKN070 21/10 A2982 1120 50 2100 280/19G32 RMK AO2 PK WND 29032/2030
14926KSTC STC20120611144012806/11/12 14:40:31  5-MIN KSTC 112040Z 27017G31KT 10SM BKN042 BKN070 21/10 A2982 1120 50 2100 270/17G31 RMK AO2 PK WND 29032/2030
14926KSTC STC20120611144512806/11/12 14:45:31  5-MIN KSTC 112045Z 28014G27KT 10SM BKN042 BKN070 21/10 A2982 1120 50 2100 280/14G27 RMK AO2 PK WND 29032/2030
14926KSTC STC20120611145015106/11/12 14:50:31  5-MIN KSTC 112050Z 29017G27KT 10SM BKN040 OVC070 20/10 A2982 1120 52 2000 290/17G27 RMK AO2 PK WND 29032/2030 SLP105 T02000100 51021
14926KSTC STC20120611145511006/11/12 14:55:31  5-MIN KSTC 112055Z 28019G25KT 10SM BKN040 OVC065 20/09 A2983 1110 50 2000 280/19G25 RMK AO2
14926KSTC STC20120611150011006/11/12 15:00:31  5-MIN KSTC 112100Z 27017G25KT 10SM BKN040 OVC065 21/10 A2983 1110 48 2100 270/17G25 RMK AO2
14926KSTC STC20120611150512806/11/12 15:05:31  5-MIN KSTC 112105Z 27022G29KT 10SM BKN042 BKN065 21/09 A2983 1110 47 2100 260/22G29 RMK AO2 PK WND 28029/2105
14926KSTC STC20120611151012806/11/12 15:10:31  5-MIN KSTC 112110Z 28018G30KT 10SM BKN042 BKN060 21/09 A2983 1110 46 2000 280/18G30 RMK AO2 PK WND 27030/2106
14926KSTC STC20120611151512106/11/12 15:15:31  5-MIN KSTC 112115Z 28018G30KT 10SM SCT042 21/09 A2984 1100 46 2000 280/18G30 RMK AO2 PK WND 27030/2106
14926KSTC STC20120611152012806/11/12 15:20:31  5-MIN KSTC 112120Z 28016G24KT 10SM SCT044 SCT060 20/09 A2984 1100 48 2000 280/16G24 RMK AO2 PK WND 27030/2106
14926KSTC STC20120611152512806/11/12 15:25:31  5-MIN KSTC 112125Z 28019G25KT 10SM SCT044 SCT055 20/08 A2984 1100 46 2000 270/19G25 RMK AO2 PK WND 27030/2106
14926KSTC STC20120611153012806/11/12 15:30:31  5-MIN KSTC 112130Z 26018G27KT 10SM FEW044 SCT055 19/08 A2985 1090 46 1900 260/18G27 RMK AO2 PK WND 27030/2106
14926KSTC STC20120611153512806/11/12 15:35:31  5-MIN KSTC 112135Z 27021G29KT 10SM SCT049 BKN055 19/08 A2985 1090 46 1900 270/21G29 RMK AO2 PK WND 27030/2106
14926KSTC STC20120611154012806/11/12 15:40:31  5-MIN KSTC 112140Z 27018G29KT 10SM BKN049 BKN055 19/08 A2985 1090 48 1800 270/18G29 RMK AO2 PK WND 27030/2106
14926KSTC STC20120611154512806/11/12 15:45:31  5-MIN KSTC 112145Z 28016G27KT 10SM BKN049 BKN055 19/08 A2986 1080 48 1800 280/16G27 RMK AO2 PK WND 27030/2106
14926KSTC STC20120611155014506/11/12 15:50:31  5-MIN KSTC 112150Z 28021G26KT 10SM BKN049 BKN055 19/07 A2986 1080 44 1800 280/21G26 RMK AO2 PK WND 27030/2106 SLP119 T01890067
14926KSTC STC20120611155512806/11/12 15:55:31  5-MIN KSTC 112155Z 30017G26KT 10SM SCT049 BKN055 19/07 A2986 1080 43 1900 300/17G26 RMK AO2 PK WND 31026/2154
14926KSTC STC20120611160012106/11/12 16:00:31  5-MIN KSTC 112200Z 29015G26KT 10SM SCT049 19/07 A2987 1080 44 1900 280/15G26 RMK AO2 PK WND 31026/2154
14926KSTC STC20120611160512806/11/12 16:05:31  5-MIN KSTC 112205Z 28015G22KT 10SM SCT049 BKN060 19/07 A2987 1080 44 1900 270/15G22 RMK AO2 PK WND 31026/2154
14926KSTC STC20120611161012106/11/12 16:10:31  5-MIN KSTC 112210Z 28019G24KT 10SM BKN050 19/07 A2987 1070 43 1900 280/19G24 RMK AO2 PK WND 31026/2154
14926KSTC STC20120611161512106/11/12 16:15:31  5-MIN KSTC 112215Z 29015G24KT 10SM BKN055 19/07 A2987 1070 44 1800 290/15G24 RMK AO2 PK WND 31026/2154
14926KSTC STC20120611162012106/11/12 16:20:31  5-MIN KSTC 112220Z 28019G26KT 10SM BKN055 19/07 A2988 1070 43 1900 280/19G26 RMK AO2 PK WND 28026/2220
14926KSTC STC20120611162512106/11/12 16:25:31  5-MIN KSTC 112225Z 29011G26KT 10SM BKN055 19/07 A2988 1070 43 1900 290/11G26 RMK AO2 PK WND 28026/2220
14926KSTC STC20120611163012106/11/12 16:30:31  5-MIN KSTC 112230Z 28016G23KT 10SM BKN055 19/07 A2988 1060 44 1800 280/16G23 RMK AO2 PK WND 28026/2220
14926KSTC STC20120611163512106/11/12 16:35:31  5-MIN KSTC 112235Z 29012G23KT 10SM BKN055 19/07 A2988 1060 44 1800 290/12G23 RMK AO2 PK WND 28026/2220
14926KSTC STC20120611164012106/11/12 16:40:31  5-MIN KSTC 112240Z 29013G19KT 10SM BKN055 18/06 A2988 1060 44 1700 290/13G19 RMK AO2 PK WND 28026/2220
14926KSTC STC20120611164512106/11/12 16:45:31  5-MIN KSTC 112245Z 29015G19KT 10SM BKN055 18/06 A2988 1060 44 1700 290/15G19 RMK AO2 PK WND 28026/2220
14926KSTC STC20120611165013806/11/12 16:50:31  5-MIN KSTC 112250Z 30012G20KT 10SM BKN055 19/06 A2988 1060 43 1800 290/12G20 RMK AO2 PK WND 28026/2220 SLP126 T01890061
14926KSTC STC20120611165510306/11/12 16:55:31  5-MIN KSTC 112255Z 30013G24KT 10SM BKN055 19/06 A2988 1060 43 1800 290/13G24 RMK AO2
14926KSTC STC20120611170010306/11/12 17:00:31  5-MIN KSTC 112300Z 29014G24KT 10SM BKN055 18/06 A2988 1060 42 1700 290/14G24 RMK AO2
14926KSTC STC20120611170510306/11/12 17:05:31  5-MIN KSTC 112305Z 28012G21KT 10SM BKN055 18/06 A2989 1060 44 1700 280/12G21 RMK AO2
14926KSTC STC20120611171010306/11/12 17:10:31  5-MIN KSTC 112310Z 29018G24KT 10SM BKN060 18/06 A2989 1060 44 1700 290/18G24 RMK AO2
14926KSTC STC20120611171510306/11/12 17:15:31  5-MIN KSTC 112315Z 28015G24KT 10SM BKN060 18/06 A2989 1060 42 1700 270/15G24 RMK AO2
14926KSTC STC20120611172010306/11/12 17:20:31  5-MIN KSTC 112320Z 29012G22KT 10SM OVC060 18/06 A2989 1050 42 1700 290/12G22 RMK AO2
14926KSTC STC20120611172510306/11/12 17:25:31  5-MIN KSTC 112325Z 29017G22KT 10SM OVC065 18/06 A2989 1050 42 1700 290/17G22 RMK AO2
14926KSTC STC20120611173012106/11/12 17:30:31  5-MIN KSTC 112330Z 29020G26KT 10SM OVC065 18/06 A2989 1050 44 1700 280/20G26 RMK AO2 PK WND 30026/2330
14926KSTC STC20120611173512106/11/12 17:35:31  5-MIN KSTC 112335Z 28016G29KT 10SM OVC060 18/06 A2990 1050 44 1700 280/16G29 RMK AO2 PK WND 28029/2331
14926KSTC STC20120611174012106/11/12 17:40:31  5-MIN KSTC 112340Z 30017G29KT 10SM OVC065 18/06 A2990 1050 44 1700 300/17G29 RMK AO2 PK WND 28029/2331
14926KSTC STC20120611174512106/11/12 17:45:31  5-MIN KSTC 112345Z 29019G27KT 10SM OVC065 18/06 A2991 1040 46 1600 290/19G27 RMK AO2 PK WND 28029/2331
14926KSTC STC20120611175015606/11/12 17:50:31  5-MIN KSTC 112350Z 30017G27KT 10SM OVC065 19/06 A2991 1040 43 1800 300/17G27 RMK AO2 PK WND 28029/2331 SLP134 T01890061 10222 20178 53016
14926KSTC STC20120611175512106/11/12 17:55:31  5-MIN KSTC 112355Z 30020G31KT 10SM OVC065 18/05 A2991 1040 42 1600 300/20G31 RMK AO2 PK WND 31026/2354
14926KSTC STC20120611180012106/11/12 18:00:31  5-MIN KSTC 120000Z 29018G31KT 10SM OVC065 18/05 A2991 1040 42 1600 290/18G31 RMK AO2 PK WND 30026/2357
14926KSTC STC20120611180512106/11/12 18:05:31  5-MIN KSTC 120005Z 30013G26KT 10SM OVC065 18/05 A2991 1040 42 1600 300/13G26 RMK AO2 PK WND 30026/2357
14926KSTC STC20120611181012106/11/12 18:10:31  5-MIN KSTC 120010Z 29014G23KT 10SM OVC065 17/06 A2991 1040 46 1600 290/14G23 RMK AO2 PK WND 30026/2357
14926KSTC STC20120611181512106/11/12 18:15:31  5-MIN KSTC 120015Z 30014G23KT 10SM OVC065 17/05 A2991 1040 44 1600 300/14G23 RMK AO2 PK WND 30026/2357
14926KSTC STC20120611182012106/11/12 18:20:31  5-MIN KSTC 120020Z 30015G23KT 10SM OVC065 17/05 A2991 1030 45 1500 300/15G23 RMK AO2 PK WND 30026/2357
14926KSTC STC20120611182512106/11/12 18:25:31  5-MIN KSTC 120025Z 29015G24KT 10SM OVC065 17/04 A2991 1030 44 1500 290/15G24 RMK AO2 PK WND 30026/2357
14926KSTC STC20120611183012106/11/12 18:30:31  5-MIN KSTC 120030Z 31013G24KT 10SM OVC065 17/05 A2991 1030 45 1500 300/13G24 RMK AO2 PK WND 30026/2357
14926KSTC STC20120611183512106/11/12 18:35:31  5-MIN KSTC 120035Z 30015G19KT 10SM OVC065 17/05 A2991 1030 45 1500 300/15G19 RMK AO2 PK WND 30026/2357
14926KSTC STC20120611184012106/11/12 18:40:31  5-MIN KSTC 120040Z 30012G19KT 10SM OVC065 16/05 A2992 1030 47 1400 300/12G19 RMK AO2 PK WND 30026/2357
14926KSTC STC20120611184512106/11/12 18:45:31  5-MIN KSTC 120045Z 30012G18KT 10SM OVC070 16/05 A2992 1030 47 1400 300/12G18 RMK AO2 PK WND 30026/2357
14926KSTC STC20120611185013806/11/12 18:50:31  5-MIN KSTC 120050Z 31015G21KT 10SM OVC070 16/05 A2992 1030 47 1400 310/15G21 RMK AO2 PK WND 30026/2357 SLP137 T01610050
14926KSTC STC20120611185510306/11/12 18:55:31  5-MIN KSTC 120055Z 30014G21KT 10SM OVC070 16/05 A2992 1030 47 1400 300/14G21 RMK AO2
14926KSTC STC20120611190010306/11/12 19:00:31  5-MIN KSTC 120100Z 30017G23KT 10SM OVC070 16/05 A2992 1030 47 1400 300/17G23 RMK AO2
14926KSTC STC20120611190510306/11/12 19:05:31  5-MIN KSTC 120105Z 30013G23KT 10SM OVC065 16/05 A2992 1030 47 1400 300/13G23 RMK AO2
14926KSTC STC20120611191010406/11/12 19:10:31  5-MIN KSTC 120110Z 31015KT 10SM FEW055 OVC070 16/05 A2992 1030 47 1400 300/15 RMK AO2
14926KSTC STC20120611191511006/11/12 19:15:31  5-MIN KSTC 120115Z 29018G23KT 10SM FEW050 OVC070 16/06 A2992 1020 49 1400 290/18G23 RMK AO2
14926KSTC STC20120611192011006/11/12 19:20:31  5-MIN KSTC 120120Z 28013G23KT 10SM FEW050 OVC065 16/05 A2992 1020 49 1400 280/13G23 RMK AO2
14926KSTC STC20120611192511006/11/12 19:25:31  5-MIN KSTC 120125Z 29012G21KT 10SM FEW050 BKN065 16/05 A2993 1020 49 1400 290/12G21 RMK AO2
14926KSTC STC20120611193010306/11/12 19:30:31  5-MIN KSTC 120130Z 29017G24KT 10SM BKN065 16/05 A2993 1020 49 1400 290/17G24 RMK AO2
14926KSTC STC20120611193511006/11/12 19:35:31  5-MIN KSTC 120135Z 30013G24KT 10SM FEW049 BKN065 16/05 A2993 1020 49 1400 300/13G24 RMK AO2
14926KSTC STC20120611194012806/11/12 19:40:31  5-MIN KSTC 120140Z 29016G27KT 10SM FEW049 BKN065 16/05 A2993 1020 49 1400 290/16G27 RMK AO2 PK WND 30027/0140
14926KSTC STC20120611194512806/11/12 19:45:31  5-MIN KSTC 120145Z 29012G27KT 10SM FEW049 BKN070 16/05 A2993 1020 49 1400 290/12G27 RMK AO2 PK WND 30027/0140
14926KSTC STC20120611195014506/11/12 19:50:31  5-MIN KSTC 120150Z 30013G21KT 10SM FEW049 BKN065 15/05 A2994 1010 51 1300 300/13G21 RMK AO2 PK WND 30027/0140 SLP144 T01500050
14926KSTC STC20120611195511006/11/12 19:55:31  5-MIN KSTC 120155Z 29017G26KT 10SM FEW049 SCT070 15/04 A2994 1010 49 1300 290/17G26 RMK AO2
14926KSTC STC20120611200010306/11/12 20:00:31  5-MIN KSTC 120200Z 30016G26KT 10SM FEW049 14/04 A2994 1010 51 1200 300/16G26 RMK AO2
14926KSTC STC20120611200510306/11/12 20:05:31  5-MIN KSTC 120205Z 30018G24KT 10SM FEW049 14/04 A2994 1010 49 1200 300/18G24 RMK AO2
14926KSTC STC20120611201010306/11/12 20:10:31  5-MIN KSTC 120210Z 30017G24KT 10SM FEW049 14/04 A2994 1010 49 1200 300/17G24 RMK AO2
14926KSTC STC20120611201510006/11/12 20:15:31  5-MIN KSTC 120215Z 29013G22KT 10SM CLR 14/04 A2995 1000 50 1100 290/13G22 RMK AO2
14926KSTC STC20120611202010006/11/12 20:20:31  5-MIN KSTC 120220Z 30013G22KT 10SM CLR 14/04 A2995 1000 50 1100 300/13G22 RMK AO2
14926KSTC STC20120611202510006/11/12 20:25:31  5-MIN KSTC 120225Z 29008G19KT 10SM CLR 14/04 A2995 1000 52 1100 290/08G19 RMK AO2
14926KSTC STC20120611203010006/11/12 20:30:31  5-MIN KSTC 120230Z 30009G19KT 10SM CLR 13/04 A2995 1000 54 1100 300/09G19 RMK AO2
14926KSTC STC20120611203509306/11/12 20:35:31  5-MIN KSTC 120235Z 30010KT 10SM CLR 13/04 A2996 990 54 1100 300/10 RMK AO2
14926KSTC STC20120611204010206/11/12 20:40:31  5-MIN KSTC 120240Z 29012G20KT 10SM FEW049 13/04 A2997 980 52 1100 290/12G20 RMK AO2
14926KSTC STC20120611204510206/11/12 20:45:31  5-MIN KSTC 120245Z 30011G20KT 10SM SCT049 13/04 A2997 980 52 1100 290/11G20 RMK AO2
14926KSTC STC20120611205011906/11/12 20:50:31  5-MIN KSTC 120250Z 30012KT 10SM BKN049 13/04 A2997 980 52 1000 300/12 RMK AO2 SLP157 T01330039 51028
14926KSTC STC20120611205510206/11/12 20:55:31  5-MIN KSTC 120255Z 30010G19KT 10SM BKN049 13/04 A2997 980 52 1000 300/10G19 RMK AO2
14926KSTC STC20120611210010206/11/12 21:00:31  5-MIN KSTC 120300Z 29014G20KT 10SM BKN049 13/03 A2998 970 50 1000 290/14G20 RMK AO2
14926KSTC STC20120611210510206/11/12 21:05:31  5-MIN KSTC 120305Z 29014G20KT 10SM OVC047 14/04 A2998 970 50 1100 290/14G20 RMK AO2
14926KSTC STC20120611211010206/11/12 21:10:31  5-MIN KSTC 120310Z 29014G19KT 10SM OVC047 14/04 A2998 970 50 1100 290/14G19 RMK AO2
14926KSTC STC20120611211510206/11/12 21:15:31  5-MIN KSTC 120315Z 30013G19KT 10SM OVC045 13/04 A2998 970 52 1000 290/13G19 RMK AO2
14926KSTC STC20120611212010206/11/12 21:20:31  5-MIN KSTC 120320Z 30012G19KT 10SM OVC045 13/04 A2998 970 52 1000 300/12G19 RMK AO2
14926KSTC STC20120611212509606/11/12 21:25:31  5-MIN KSTC 120325Z 29014KT 10SM OVC045 13/04 A2998 970 52 1000 290/14 RMK AO2
14926KSTC STC20120611213009606/11/12 21:30:31  5-MIN KSTC 120330Z 30013KT 10SM OVC043 13/04 A2999 970 52 1000 300/13 RMK AO2
14926KSTC STC20120611213510206/11/12 21:35:31  5-MIN KSTC 120335Z 30016G20KT 10SM OVC043 13/04 A2999 960 52 1000 300/16G20 RMK AO2
14926KSTC STC20120611214010206/11/12 21:40:31  5-MIN KSTC 120340Z 30015G24KT 10SM OVC043 13/04 A2999 960 52 1000 300/15G24 RMK AO2
14926KSTC STC20120611214510206/11/12 21:45:31  5-MIN KSTC 120345Z 31017G24KT 10SM OVC043 13/04 A2999 960 54 1000 310/17G24 RMK AO2
14926KSTC STC20120611215011906/11/12 21:50:31  5-MIN KSTC 120350Z 31013G24KT 10SM OVC043 13/04 A2999 960 54 1000 310/13G24 RMK AO2 SLP162 T01330044
14926KSTC STC20120611215510206/11/12 21:55:31  5-MIN KSTC 120355Z 31011G21KT 10SM OVC041 13/04 A2999 960 56 1000 310/11G21 RMK AO2
14926KSTC STC20120611220010706/11/12 22:00:31  5-MIN KSTC 120400Z AUTO 31013G21KT 10SM OVC041 13/04 A2999 960 56 1000 310/13G21 RMK AO2
14926KSTC STC20120611220510106/11/12 22:05:31  5-MIN KSTC 120405Z AUTO 30013KT 10SM OVC041 13/05 A2999 960 59 1000 300/13 RMK AO2
14926KSTC STC20120611221010106/11/12 22:10:31  5-MIN KSTC 120410Z AUTO 31012KT 10SM OVC041 13/05 A2999 960 59 1000 310/12 RMK AO2
14926KSTC STC20120611221510106/11/12 22:15:31  5-MIN KSTC 120415Z AUTO 31012KT 10SM OVC041 13/05 A3000 950 59 1000 310/12 RMK AO2
14926KSTC STC20120611222010106/11/12 22:20:31  5-MIN KSTC 120420Z AUTO 32012KT 10SM OVC041 13/06 A3000 950 61 1000 320/12 RMK AO2
14926KSTC STC20120611222510606/11/12 22:25:31  5-MIN KSTC 120425Z AUTO 31014G19KT 10SM OVC041 12/06 A3000 950 63 900 310/14G19 RMK AO2
14926KSTC STC20120611223010606/11/12 22:30:31  5-MIN KSTC 120430Z AUTO 32009G19KT 10SM OVC041 12/06 A3000 950 63 900 320/09G19 RMK AO2
14926KSTC STC20120611223510606/11/12 22:35:31  5-MIN KSTC 120435Z AUTO 32016G21KT 10SM OVC039 12/06 A3000 950 63 900 320/16G21 RMK AO2
14926KSTC STC20120611224010606/11/12 22:40:31  5-MIN KSTC 120440Z AUTO 32015G21KT 10SM OVC039 12/06 A3000 950 66 800 320/15G21 RMK AO2
14926KSTC STC20120611224510606/11/12 22:45:31  5-MIN KSTC 120445Z AUTO 31012G19KT 10SM OVC039 12/06 A3000 950 66 800 310/12G19 RMK AO2
14926KSTC STC20120611225012306/11/12 22:50:31  5-MIN KSTC 120450Z AUTO 31012G19KT 10SM OVC039 12/06 A3000 950 68 800 310/12G19 RMK AO2 SLP168 T01170061
14926KSTC STC20120611225510606/11/12 22:55:31  5-MIN KSTC 120455Z AUTO 32014G19KT 10SM BKN039 12/06 A3000 950 68 800 320/14G19 RMK AO2
14926KSTC STC20120611230010606/11/12 23:00:31  5-MIN KSTC 120500Z AUTO 32014G19KT 10SM SCT039 11/06 A3000 950 71 700 320/14G19 RMK AO2
14926KSTC STC20120611230510606/11/12 23:05:31  5-MIN KSTC 120505Z AUTO 32009G18KT 10SM SCT039 11/06 A3001 950 71 700 320/09G18 RMK AO2
14926KSTC STC20120611231010606/11/12 23:10:31  5-MIN KSTC 120510Z AUTO 32011G18KT 10SM SCT039 11/06 A3001 950 71 700 320/11G18 RMK AO2
14926KSTC STC20120611231510606/11/12 23:15:31  5-MIN KSTC 120515Z AUTO 33010G18KT 10SM SCT039 11/06 A3001 940 71 700 320/10G18 RMK AO2
14926KSTC STC20120611232010606/11/12 23:20:31  5-MIN KSTC 120520Z AUTO 32011G20KT 10SM BKN039 11/06 A3001 940 71 700 320/11G20 RMK AO2
14926KSTC STC20120611232510606/11/12 23:25:31  5-MIN KSTC 120525Z AUTO 31013G21KT 10SM BKN037 11/07 A3001 940 74 700 310/13G21 RMK AO2
14926KSTC STC20120611233010606/11/12 23:30:31  5-MIN KSTC 120530Z AUTO 31016G21KT 10SM BKN037 11/07 A3001 940 74 700 310/16G21 RMK AO2
14926KSTC STC20120611233510606/11/12 23:35:31  5-MIN KSTC 120535Z AUTO 31013G21KT 10SM OVC037 11/07 A3001 940 74 700 310/13G21 RMK AO2
14926KSTC STC20120611234010606/11/12 23:40:31  5-MIN KSTC 120540Z AUTO 31015G23KT 10SM OVC039 11/06 A3002 940 71 700 310/15G23 RMK AO2
14926KSTC STC20120611234510606/11/12 23:45:31  5-MIN KSTC 120545Z AUTO 31012G23KT 10SM BKN039 11/07 A3002 940 77 700 310/12G23 RMK AO2
14926KSTC STC20120611235015206/11/12 23:50:31  5-MIN KSTC 120550Z AUTO 31012KT 10SM FEW028 BKN039 11/07 A3002 940 77 700 310/12 RMK AO2 SLP172 T01060067 10178 20106 402220106 53021
14926KSTC STC20120611235510706/11/12 23:55:31  5-MIN KSTC 120555Z AUTO 31010KT 10SM FEW028 BKN039 11/07 A3002 940 77 700 310/10 RMK AO2
14926KSTC STC20120612000011306/12/12 00:00:32  5-MIN KSTC 120600Z AUTO 32010G17KT 10SM SCT032 BKN039 10/07 A3002 940 80 600 310/10G17 RMK AO2
14926KSTC STC20120612000511306/12/12 00:05:31  5-MIN KSTC 120605Z AUTO 32012G19KT 10SM SCT032 BKN041 11/07 A3002 940 77 700 320/12G19 RMK AO2
14926KSTC STC20120612001011306/12/12 00:10:31  5-MIN KSTC 120610Z AUTO 32014G21KT 10SM FEW029 BKN036 11/07 A3002 930 77 700 320/14G21 RMK AO2
14926KSTC STC20120612001510606/12/12 00:15:31  5-MIN KSTC 120615Z AUTO 33013G21KT 10SM BKN034 11/07 A3003 930 77 700 330/13G21 RMK AO2
14926KSTC STC20120612002010606/12/12 00:20:31  5-MIN KSTC 120620Z AUTO 32012G21KT 10SM BKN034 10/07 A3003 930 80 600 320/12G21 RMK AO2
14926KSTC STC20120612002511206/12/12 00:25:31  5-MIN KSTC 120625Z AUTO 32014G22KT 8SM SCT029 OVC034 10/07 A3003 920 80 600 320/14G22 RMK AO2
14926KSTC STC20120612003012806/12/12 00:30:31  5-MIN KSTC 120630Z AUTO 32011G22KT 7SM -RA SCT025 OVC032 09/07 A3003 920 86 500 320/11G22 RMK AO2 RAB28 P0000
14926KSTC STC20120612003513806/12/12 00:35:31  5-MIN KSTC 120635Z AUTO 32014G18KT 6SM -RA BR SCT022 BKN030 OVC035 09/07 A3003 920 86 500 320/14G18 RMK AO2 RAB28 P0000
14926KSTC STC20120612004013106/12/12 00:40:31  5-MIN KSTC 120640Z AUTO 32013G19KT 6SM -RA BR SCT023 OVC030 09/07 A3004 920 86 500 320/13G19 RMK AO2 RAB28 P0000
14926KSTC STC20120612004512806/12/12 00:45:31  5-MIN KSTC 120645Z AUTO 31012G19KT 9SM -RA SCT022 OVC032 09/07 A3004 910 86 500 310/12G19 RMK AO2 RAB28 P0000
14926KSTC STC20120612005013506/12/12 00:50:31  5-MIN KSTC 120650Z AUTO 32013G17KT 10SM SCT022 BKN028 OVC032 09/07 A3004 920 86 500 310/13G17 RMK AO2 RAB28E47 P0000
14926KSTC STC20120612005512006/12/12 00:55:31  5-MIN KSTC 120655Z AUTO 31009G17KT 10SM SCT020 BKN035 OVC042 09/07 A3004 910 86 500 310/09G17 RMK AO2
14926KSTC STC20120612010011406/12/12 01:00:31  5-MIN KSTC 120700Z AUTO 31009KT 10SM FEW022 SCT027 OVC040 09/07 A3004 910 86 500 310/09 RMK AO2
14926KSTC STC20120612010511406/12/12 01:05:31  5-MIN KSTC 120705Z AUTO 31009KT 10SM FEW020 SCT032 OVC040 09/07 A3004 910 86 500 310/09 RMK AO2
14926KSTC STC20120612011010706/12/12 01:10:31  5-MIN KSTC 120710Z AUTO 31009KT 10SM FEW020 OVC040 09/07 A3004 910 86 500 310/09 RMK AO2
14926KSTC STC20120612011510706/12/12 01:15:31  5-MIN KSTC 120715Z AUTO 30010KT 10SM FEW020 OVC040 09/07 A3005 910 86 500 300/10 RMK AO2
14926KSTC STC20120612012010006/12/12 01:20:31  5-MIN KSTC 120720Z AUTO 31009KT 10SM OVC040 10/07 A3005 910 83 600 310/09 RMK AO2
14926KSTC STC20120612012510006/12/12 01:25:31  5-MIN KSTC 120725Z AUTO 32010KT 10SM OVC040 10/07 A3005 910 83 600 310/10 RMK AO2
14926KSTC STC20120612013010606/12/12 01:30:31  5-MIN KSTC 120730Z AUTO 31009G16KT 10SM OVC040 10/07 A3005 910 83 600 310/09G16 RMK AO2
14926KSTC STC20120612013510606/12/12 01:35:31  5-MIN KSTC 120735Z AUTO 31010G16KT 10SM OVC038 10/07 A3005 910 83 600 310/10G16 RMK AO2
14926KSTC STC20120612014010606/12/12 01:40:31  5-MIN KSTC 120740Z AUTO 31007G15KT 10SM OVC036 10/07 A3005 900 83 600 310/07G15 RMK AO2
14926KSTC STC20120612014510006/12/12 01:45:31  5-MIN KSTC 120745Z AUTO 31008KT 10SM OVC036 10/07 A3005 900 83 600 310/08 RMK AO2
14926KSTC STC20120612015011706/12/12 01:50:31  5-MIN KSTC 120750Z AUTO 32009KT 10SM OVC036 10/07 A3006 900 80 600 320/09 RMK AO2 SLP186 T01000067
14926KSTC STC20120612015511406/12/12 01:55:31  5-MIN KSTC 120755Z AUTO 31009KT 10SM FEW018 SCT024 OVC036 10/07 A3006 900 80 600 310/09 RMK AO2
14926KSTC STC20120612020011306/12/12 02:00:31  5-MIN KSTC 120800Z AUTO 31011KT 9SM FEW015 BKN024 OVC036 10/07 A3006 900 80 600 310/11 RMK AO2
14926KSTC STC20120612020513806/12/12 02:05:31  5-MIN KSTC 120805Z AUTO VRB06G14KT 6SM -RA BR SCT017 BKN024 OVC036 09/07 A3006 900 86 500 VRB/06G14 RMK AO2 RAB03 P0000
14926KSTC STC20120612021013206/12/12 02:10:31  5-MIN KSTC 120810Z AUTO 33008KT 5SM -RA BR FEW014 BKN024 OVC038 09/07 A3006 900 86 500 330/08 RMK AO2 RAB03 P0000
14926KSTC STC20120612021513206/12/12 02:15:31  5-MIN KSTC 120815Z AUTO 33009KT 5SM -RA BR FEW014 BKN021 OVC038 09/07 A3006 900 86 500 330/09 RMK AO2 RAB03 P0000
14926KSTC STC20120612022012806/12/12 02:20:31  5-MIN KSTC 120820Z AUTO 33006KT 7SM FEW014 BKN030 OVC040 09/07 A3006 900 89 400 330/06 RMK AO2 RAB03E19 P0000
14926KSTC STC20120612022512906/12/12 02:25:31  5-MIN KSTC 120825Z AUTO 32007KT 10SM FEW014 BKN030 OVC040 09/07 A3006 900 89 400 320/07 RMK AO2 RAB03E19 P0000
14926KSTC STC20120612023012906/12/12 02:30:31  5-MIN KSTC 120830Z AUTO 30008KT 10SM FEW014 SCT030 BKN040 09/07 A3006 900 86 400 300/08 RMK AO2 RAB03E19 P0000
14926KSTC STC20120612023512206/12/12 02:35:31  5-MIN KSTC 120835Z AUTO 31007KT 10SM FEW027 BKN038 09/07 A3006 900 86 400 310/07 RMK AO2 RAB03E19 P0000
14926KSTC STC20120612024011506/12/12 02:40:31  5-MIN KSTC 120840Z AUTO 32006KT 10SM BKN038 09/07 A3006 900 89 400 320/06 RMK AO2 RAB03E19 P0000
14926KSTC STC20120612024511506/12/12 02:45:31  5-MIN KSTC 120845Z AUTO 32005KT 10SM BKN036 09/07 A3006 890 83 500 320/05 RMK AO2 RAB03E19 P0000
14926KSTC STC20120612025014406/12/12 02:50:31  5-MIN KSTC 120850Z AUTO 31008KT 10SM BKN034 09/07 A3006 900 83 500 310/08 RMK AO2 RAB03E19 SLP189 P0000 60000 T00940067 51015
14926KSTC STC20120612025510006/12/12 02:55:31  5-MIN KSTC 120855Z AUTO 31008KT 10SM BKN034 09/07 A3006 890 83 500 310/08 RMK AO2
14926KSTC STC20120612030010006/12/12 03:00:31  5-MIN KSTC 120900Z AUTO 31010KT 10SM BKN034 09/07 A3006 890 86 400 310/10 RMK AO2
14926KSTC STC20120612030510006/12/12 03:05:31  5-MIN KSTC 120905Z AUTO 32011KT 10SM SCT034 09/06 A3007 890 83 400 320/11 RMK AO2
14926KSTC STC20120612031011306/12/12 03:10:31  5-MIN KSTC 120910Z AUTO 32010G15KT 10SM FEW032 SCT039 09/06 A3007 890 83 400 320/10G15 RMK AO2
14926KSTC STC20120612031510006/12/12 03:15:31  5-MIN KSTC 120915Z AUTO 31011KT 10SM FEW032 09/06 A3007 890 83 400 310/11 RMK AO2
14926KSTC STC20120612032009706/12/12 03:20:31  5-MIN KSTC 120920Z AUTO 31008KT 10SM CLR 09/06 A3008 880 83 400 310/08 RMK AO2
14926KSTC STC20120612032509706/12/12 03:25:31  5-MIN KSTC 120925Z AUTO 31009KT 10SM CLR 08/06 A3008 880 86 300 310/09 RMK AO2
14926KSTC STC20120612033009706/12/12 03:30:31  5-MIN KSTC 120930Z AUTO 31009KT 10SM CLR 08/06 A3008 880 82 300 310/09 RMK AO2
14926KSTC STC20120612033510006/12/12 03:35:31  5-MIN KSTC 120935Z AUTO 31008KT 10SM FEW025 08/06 A3008 880 82 300 310/08 RMK AO2
14926KSTC STC20120612034010006/12/12 03:40:31  5-MIN KSTC 120940Z AUTO 31010KT 10SM SCT025 08/06 A3008 880 82 300 310/10 RMK AO2
14926KSTC STC20120612034510006/12/12 03:45:31  5-MIN KSTC 120945Z AUTO 31008KT 10SM BKN025 09/06 A3008 870 79 400 310/08 RMK AO2
14926KSTC STC20120612035011706/12/12 03:50:31  5-MIN KSTC 120950Z AUTO 31009KT 10SM BKN025 09/06 A3008 880 79 400 310/09 RMK AO2 SLP198 T00890056
14926KSTC STC20120612035510006/12/12 03:55:31  5-MIN KSTC 120955Z AUTO 31009KT 10SM SCT025 08/06 A3009 870 82 300 310/09 RMK AO2
14926KSTC STC20120612040010006/12/12 04:00:31  5-MIN KSTC 121000Z AUTO 31009KT 10SM SCT025 08/06 A3009 870 82 300 310/09 RMK AO2
14926KSTC STC20120612040510006/12/12 04:05:31  5-MIN KSTC 121005Z AUTO 31007KT 10SM SCT025 08/06 A3009 870 82 300 310/07 RMK AO2
14926KSTC STC20120612041010006/12/12 04:10:31  5-MIN KSTC 121010Z AUTO 32006KT 10SM FEW025 08/06 A3009 870 86 200 320/06 RMK AO2
14926KSTC STC20120612041510006/12/12 04:15:31  5-MIN KSTC 121015Z AUTO 32006KT 10SM FEW025 08/06 A3010 860 86 200 310/06 RMK AO2
14926KSTC STC20120612042009706/12/12 04:20:31  5-MIN KSTC 121020Z AUTO 32006KT 10SM CLR 08/06 A3010 860 86 200 310/06 RMK AO2
14926KSTC STC20120612042509706/12/12 04:25:31  5-MIN KSTC 121025Z AUTO 32006KT 10SM CLR 08/06 A3010 860 86 200 320/06 RMK AO2
14926KSTC STC20120612043009706/12/12 04:30:31  5-MIN KSTC 121030Z AUTO 32006KT 10SM CLR 08/06 A3010 860 82 300 320/06 RMK AO2
14926KSTC STC20120612043509706/12/12 04:35:31  5-MIN KSTC 121035Z AUTO 32006KT 10SM CLR 08/06 A3010 860 82 300 320/06 RMK AO2
14926KSTC STC20120612044009706/12/12 04:40:31  5-MIN KSTC 121040Z AUTO 32007KT 10SM CLR 08/06 A3010 860 86 200 320/07 RMK AO2
14926KSTC STC20120612044509706/12/12 04:45:31  5-MIN KSTC 121045Z AUTO 31006KT 10SM CLR 08/06 A3010 860 86 200 310/06 RMK AO2
14926KSTC STC20120612045011406/12/12 04:50:31  5-MIN KSTC 121050Z AUTO 32007KT 10SM CLR 08/06 A3010 860 86 200 320/07 RMK AO2 SLP204 T00780056
14926KSTC STC20120612045509706/12/12 04:55:31  5-MIN KSTC 121055Z AUTO 31008KT 10SM CLR 08/06 A3010 860 86 200 310/08 RMK AO2
14926KSTC STC20120612050009706/12/12 05:00:31  5-MIN KSTC 121100Z AUTO 31008KT 10SM CLR 08/06 A3011 850 82 300 310/08 RMK AO2
14926KSTC STC20120612050509706/12/12 05:05:31  5-MIN KSTC 121105Z AUTO 32008KT 10SM CLR 08/06 A3011 850 82 300 310/08 RMK AO2
14926KSTC STC20120612051009706/12/12 05:10:31  5-MIN KSTC 121110Z AUTO 32008KT 10SM CLR 08/06 A3011 850 82 300 320/08 RMK AO2
14926KSTC STC20120612051510306/12/12 05:15:31  5-MIN KSTC 121115Z AUTO 32010G16KT 10SM CLR 08/06 A3011 850 82 300 320/10G16 RMK AO2
14926KSTC STC20120612052010306/12/12 05:20:31  5-MIN KSTC 121120Z AUTO 32011G16KT 10SM CLR 08/05 A3011 850 79 300 320/11G16 RMK AO2
14926KSTC STC20120612052509706/12/12 05:25:31  5-MIN KSTC 121125Z AUTO 32010KT 10SM CLR 09/05 A3011 850 76 400 320/10 RMK AO2
14926KSTC STC20120612053010306/12/12 05:30:31  5-MIN KSTC 121130Z AUTO 33008G15KT 10SM CLR 09/06 A3011 850 79 400 320/08G15 RMK AO2
14926KSTC STC20120612053509706/12/12 05:35:31  5-MIN KSTC 121135Z AUTO 32009KT 10SM CLR 09/06 A3011 850 79 400 320/09 RMK AO2
14926KSTC STC20120612054009706/12/12 05:40:31  5-MIN KSTC 121140Z AUTO 32009KT 10SM CLR 09/06 A3011 850 79 400 320/09 RMK AO2
14926KSTC STC20120612054510306/12/12 05:45:31  5-MIN KSTC 121145Z AUTO 32010G15KT 10SM CLR 09/05 A3011 850 76 400 320/10G15 RMK AO2
14926KSTC STC20120612055013306/12/12 05:50:31  5-MIN KSTC 121150Z 32010KT 10SM CLR 09/05 A3012 850 76 400 320/10 RMK AO2 SLP208 60000 T00890050 10106 20078 53007
14926KSTC STC20120612055509806/12/12 05:55:31  5-MIN KSTC 121155Z 32010G15KT 10SM CLR 09/05 A3012 840 76 400 320/10G15 RMK AO2
14926KSTC STC20120612060009806/12/12 06:00:31  5-MIN KSTC 121200Z 32009G15KT 10SM CLR 09/05 A3012 840 74 400 320/09G15 RMK AO2
14926KSTC STC20120612060509206/12/12 06:05:31  5-MIN KSTC 121205Z 32011KT 10SM CLR 09/05 A3012 840 74 400 320/11 RMK AO2
14926KSTC STC20120612061009206/12/12 06:10:31  5-MIN KSTC 121210Z 32008KT 10SM CLR 09/05 A3013 840 74 400 320/08 RMK AO2
14926KSTC STC20120612061509506/12/12 06:15:31  5-MIN KSTC 121215Z 33008KT 10SM FEW017 09/05 A3013 830 74 400 330/08 RMK AO2
14926KSTC STC20120612062010106/12/12 06:20:31  5-MIN KSTC 121220Z 33010G16KT 10SM FEW017 09/05 A3013 830 74 400 320/10G16 RMK AO2
14926KSTC STC20120612062510106/12/12 06:25:31  5-MIN KSTC 121225Z 32009G16KT 10SM FEW017 09/05 A3013 830 74 400 320/09G16 RMK AO2
14926KSTC STC20120612063009506/12/12 06:30:31  5-MIN KSTC 121230Z 33009KT 10SM FEW017 09/05 A3013 830 74 400 330/09 RMK AO2
14926KSTC STC20120612063509506/12/12 06:35:31  5-MIN KSTC 121235Z 33007KT 10SM FEW017 10/05 A3013 830 71 500 330/07 RMK AO2
14926KSTC STC20120612064010106/12/12 06:40:31  5-MIN KSTC 121240Z 33009G15KT 10SM FEW017 10/05 A3013 830 71 500 330/09G15 RMK AO2
14926KSTC STC20120612064510106/12/12 06:45:31  5-MIN KSTC 121245Z 33010G15KT 10SM FEW017 10/05 A3014 830 71 500 320/10G15 RMK AO2
14926KSTC STC20120612065011206/12/12 06:50:31  5-MIN KSTC 121250Z 32010KT 10SM SCT019 11/05 A3014 820 68 500 320/10 RMK AO2 SLP217 T01060050
14926KSTC STC20120612065510106/12/12 06:55:31  5-MIN KSTC 121255Z 31010G15KT 10SM SCT019 11/05 A3014 820 68 500 310/10G15 RMK AO2
14926KSTC STC20120612070009506/12/12 07:00:31  5-MIN KSTC 121300Z 32011KT 10SM BKN019 11/05 A3014 820 68 500 320/11 RMK AO2
14926KSTC STC20120612070510106/12/12 07:05:31  5-MIN KSTC 121305Z 34010G17KT 10SM BKN019 11/05 A3014 820 68 500 330/10G17 RMK AO2
14926KSTC STC20120612071010106/12/12 07:10:31  5-MIN KSTC 121310Z 35010G17KT 10SM BKN019 10/04 A3014 820 68 500 340/10G17 RMK AO2
14926KSTC STC20120612071510106/12/12 07:15:31  5-MIN KSTC 121315Z 34010G17KT 10SM SCT019 11/04 A3014 820 66 500 340/10G17 RMK AO2
14926KSTC STC20120612072010106/12/12 07:20:31  5-MIN KSTC 121320Z 35010G17KT 10SM SCT021 11/05 A3014 820 68 500 350/10G17 RMK AO2
14926KSTC STC20120612072510106/12/12 07:25:31  5-MIN KSTC 121325Z 35008G16KT 10SM SCT021 11/05 A3015 820 66 600 350/08G16 RMK AO2
14926KSTC STC20120612073010106/12/12 07:30:31  5-MIN KSTC 121330Z 34007G15KT 10SM FEW021 11/05 A3015 820 66 600 340/07G15 RMK AO2
14926KSTC STC20120612073510106/12/12 07:35:31  5-MIN KSTC 121335Z 33008G15KT 10SM SCT021 11/05 A3015 810 66 600 330/08G15 RMK AO2
14926KSTC STC20120612074010106/12/12 07:40:31  5-MIN KSTC 121340Z 32008G15KT 10SM SCT021 11/06 A3016 810 68 600 320/08G15 RMK AO2
14926KSTC STC20120612074510106/12/12 07:45:31  5-MIN KSTC 121345Z 31009G15KT 10SM BKN021 12/06 A3016 810 66 600 310/09G15 RMK AO2
14926KSTC STC20120612075011206/12/12 07:50:31  5-MIN KSTC 121350Z 31011KT 10SM SCT021 12/06 A3016 810 66 600 310/11 RMK AO2 SLP223 T01170056
14926KSTC STC20120612075509506/12/12 07:55:31  5-MIN KSTC 121355Z 31010KT 10SM SCT021 10/05 A3016 800 71 400 310/10 RMK AO2
14926KSTC STC20120612080009506/12/12 08:00:31  5-MIN KSTC 121400Z 34009KT 10SM SCT021 11/05 A3016 800 68 500 340/09 RMK AO2
14926KSTC STC20120612080509506/12/12 08:05:31  5-MIN KSTC 121405Z 33009KT 10SM SCT021 12/05 A3016 800 63 600 330/09 RMK AO2
14926KSTC STC20120612081009506/12/12 08:10:31  5-MIN KSTC 121410Z 33008KT 10SM SCT023 12/05 A3016 800 63 600 330/08 RMK AO2
14926KSTC STC20120612081510106/12/12 08:15:31  5-MIN KSTC 121415Z 33009G15KT 10SM FEW023 12/05 A3017 800 63 600 330/09G15 RMK AO2
14926KSTC STC20120612082009506/12/12 08:20:31  5-MIN KSTC 121420Z 34009KT 10SM FEW023 12/04 A3016 800 61 600 330/09 RMK AO2
14926KSTC STC20120612082509506/12/12 08:25:31  5-MIN KSTC 121425Z 34007KT 10SM FEW023 12/04 A3017 800 61 600 340/07 RMK AO2
14926KSTC STC20120612083010106/12/12 08:30:31  5-MIN KSTC 121430Z 34011G16KT 10SM SCT025 12/05 A3017 800 61 700 340/11G16 RMK AO2
14926KSTC STC20120612083510106/12/12 08:35:31  5-MIN KSTC 121435Z 33009G16KT 10SM FEW025 12/04 A3017 800 59 700 320/09G16 RMK AO2
14926KSTC STC20120612084009506/12/12 08:40:31  5-MIN KSTC 121440Z 36007KT 10SM FEW025 12/04 A3017 800 59 700 360/07 RMK AO2
14926KSTC STC20120612084509506/12/12 08:45:31  5-MIN KSTC 121445Z 32006KT 10SM FEW025 12/04 A3017 800 59 700 310/06 RMK AO2
14926KSTC STC20120612085011806/12/12 08:50:31  5-MIN KSTC 121450Z VRB06KT 10SM FEW025 13/06 A3017 800 61 800 VRB/06 RMK AO2 SLP226 T01280056 53010
14926KSTC STC20120612085509506/12/12 08:55:31  5-MIN KSTC 121455Z VRB05KT 10SM FEW025 13/05 A3017 800 59 800 VRB/05 RMK AO2
14926KSTC STC20120612090011106/12/12 09:00:31  5-MIN KSTC 121500Z 30007KT 260V320 10SM SCT025 13/06 A3017 800 59 800 300/07 260V320 RMK AO2
14926KSTC STC20120612090509506/12/12 09:05:31  5-MIN KSTC 121505Z 31009KT 10SM SCT025 13/05 A3017 800 59 800 310/09 RMK AO2
14926KSTC STC20120612091009506/12/12 09:10:31  5-MIN KSTC 121510Z VRB06KT 10SM FEW025 13/05 A3017 800 59 800 VRB/06 RMK AO2
14926KSTC STC20120612091509506/12/12 09:15:31  5-MIN KSTC 121515Z 34008KT 10SM FEW025 13/04 A3017 800 56 800 340/08 RMK AO2
14926KSTC STC20120612092009506/12/12 09:20:31  5-MIN KSTC 121520Z 33009KT 10SM FEW025 13/04 A3017 800 54 800 330/09 RMK AO2
14926KSTC STC20120612092509506/12/12 09:25:31  5-MIN KSTC 121525Z 31011KT 10SM FEW025 13/04 A3017 790 52 800 310/11 RMK AO2
14926KSTC STC20120612093009206/12/12 09:30:31  5-MIN KSTC 121530Z 30009KT 10SM CLR 13/04 A3017 790 52 800 300/09 RMK AO2
14926KSTC STC20120612093509806/12/12 09:35:31  5-MIN KSTC 121535Z 31011G15KT 10SM CLR 14/04 A3017 790 52 900 300/11G15 RMK AO2
14926KSTC STC20120612094009806/12/12 09:40:31  5-MIN KSTC 121540Z 31011G16KT 10SM CLR 14/03 A3017 790 47 900 310/11G16 RMK AO2
14926KSTC STC20120612094509906/12/12 09:45:31  5-MIN KSTC 121545Z 30009G16KT 10SM CLR 14/03 A3017 790 47 1000 300/09G16 RMK AO2
14926KSTC STC20120612095010906/12/12 09:50:31  5-MIN KSTC 121550Z 33007KT 10SM CLR 14/03 A3017 790 48 900 330/07 RMK AO2 SLP228 T01390033
14926KSTC STC20120612095509206/12/12 09:55:31  5-MIN KSTC 121555Z 32008KT 10SM CLR 14/04 A3018 790 50 900 320/08 RMK AO2
14926KSTC STC20120612100009206/12/12 10:00:31  5-MIN KSTC 121600Z 32007KT 10SM CLR 14/04 A3018 790 52 900 320/07 RMK AO2
14926KSTC STC20120612100509206/12/12 10:05:31  5-MIN KSTC 121605Z 33007KT 10SM CLR 14/04 A3018 790 51 900 330/07 RMK AO2
14926KSTC STC20120612101009206/12/12 10:10:31  5-MIN KSTC 121610Z 35003KT 10SM CLR 14/04 A3018 790 49 900 350/03 RMK AO2
14926KSTC STC20120612101509206/12/12 10:15:31  5-MIN KSTC 121615Z 33006KT 10SM CLR 14/04 A3018 790 49 900 330/06 RMK AO2
14926KSTC STC20120612102009206/12/12 10:20:31  5-MIN KSTC 121620Z VRB06KT 10SM CLR 14/04 A3018 780 49 900 VRB/06 RMK AO2
14926KSTC STC20120612102509306/12/12 10:25:31  5-MIN KSTC 121625Z VRB06KT 10SM CLR 15/04 A3018 780 47 1000 VRB/06 RMK AO2
14926KSTC STC20120612103009306/12/12 10:30:31  5-MIN KSTC 121630Z 32006KT 10SM CLR 15/04 A3019 780 47 1000 320/06 RMK AO2
14926KSTC STC20120612103510906/12/12 10:35:31  5-MIN KSTC 121635Z 31007KT 290V350 10SM CLR 15/03 A3019 780 45 1000 310/07 290V350 RMK AO2
14926KSTC STC20120612104009906/12/12 10:40:31  5-MIN KSTC 121640Z 31009G16KT 10SM CLR 16/04 A3019 780 45 1100 310/09G16 RMK AO2
14926KSTC STC20120612104509906/12/12 10:45:31  5-MIN KSTC 121645Z 31008G16KT 10SM CLR 16/04 A3018 780 45 1100 310/08G16 RMK AO2
14926KSTC STC20120612105012606/12/12 10:50:31  5-MIN KSTC 121650Z 31007KT 280V350 10SM CLR 16/03 A3018 790 43 1100 310/07 280V350 RMK AO2 SLP230 T01560033
14926KSTC STC20120612105509306/12/12 10:55:31  5-MIN KSTC 121655Z 36007KT 10SM CLR 16/04 A3018 790 45 1100 360/07 RMK AO2
14926KSTC STC20120612110009306/12/12 11:00:31  5-MIN KSTC 121700Z 32010KT 10SM CLR 16/04 A3018 790 44 1100 320/10 RMK AO2
14926KSTC STC20120612110509306/12/12 11:05:31  5-MIN KSTC 121705Z 35006KT 10SM CLR 16/03 A3018 790 42 1100 340/06 RMK AO2
14926KSTC STC20120612111009906/12/12 11:10:31  5-MIN KSTC 121710Z 33009G14KT 10SM CLR 16/03 A3018 790 42 1100 330/09G14 RMK AO2
14926KSTC STC20120612111509906/12/12 11:15:31  5-MIN KSTC 121715Z 30010G14KT 10SM CLR 16/03 A3018 790 42 1100 300/10G14 RMK AO2
14926KSTC STC20120612112009906/12/12 11:20:31  5-MIN KSTC 121720Z 32008G14KT 10SM CLR 16/03 A3018 790 40 1100 320/08G14 RMK AO2
14926KSTC STC20120612112509306/12/12 11:25:31  5-MIN KSTC 121725Z 29004KT 10SM CLR 16/03 A3018 790 42 1100 280/04 RMK AO2
14926KSTC STC20120612113009306/12/12 11:30:31  5-MIN KSTC 121730Z 31011KT 10SM CLR 16/03 A3018 790 42 1100 310/11 RMK AO2
14926KSTC STC20120612113509306/12/12 11:35:31  5-MIN KSTC 121735Z 33009KT 10SM CLR 16/03 A3018 790 40 1100 330/09 RMK AO2
14926KSTC STC20120612114009306/12/12 11:40:31  5-MIN KSTC 121740Z 34007KT 10SM CLR 16/03 A3018 790 40 1100 340/07 RMK AO2
14926KSTC STC20120612114509306/12/12 11:45:31  5-MIN KSTC 121745Z VRB06KT 10SM CLR 16/03 A3018 790 40 1100 VRB/06 RMK AO2
14926KSTC STC20120612115012806/12/12 11:50:31  5-MIN KSTC 121750Z 29009KT 10SM CLR 16/02 A3018 790 39 1100 290/09 RMK AO2 SLP229 T01610022 10167 20089 51017
14926KSTC STC20120612115510906/12/12 11:55:31  5-MIN KSTC 121755Z 29007KT 270V350 10SM CLR 16/02 A3018 790 39 1100 290/07 270V350 RMK AO2
14926KSTC STC20120612120009306/12/12 12:00:31  5-MIN KSTC 121800Z 33006KT 10SM CLR 17/03 A3017 790 39 1200 330/06 RMK AO2
14926KSTC STC20120612120509306/12/12 12:05:31  5-MIN KSTC 121805Z VRB03KT 10SM CLR 17/02 A3017 790 37 1200 VRB/03 RMK AO2
14926KSTC STC20120612121009906/12/12 12:10:31  5-MIN KSTC 121810Z 32010G15KT 10SM CLR 17/03 A3017 790 37 1300 320/10G15 RMK AO2
14926KSTC STC20120612121509906/12/12 12:15:31  5-MIN KSTC 121815Z 30007G15KT 10SM CLR 17/02 A3017 790 37 1200 300/07G15 RMK AO2
14926KSTC STC20120612122009906/12/12 12:20:31  5-MIN KSTC 121820Z 30005G15KT 10SM CLR 17/02 A3017 790 36 1300 300/05G15 RMK AO2
14926KSTC STC20120612122509306/12/12 12:25:31  5-MIN KSTC 121825Z VRB05KT 10SM CLR 17/02 A3017 800 36 1200 VRB/05 RMK AO2
14926KSTC STC20120612123010906/12/12 12:30:31  5-MIN KSTC 121830Z 34007KT 310V050 10SM CLR 17/02 A3017 800 36 1300 340/07 310V050 RMK AO2
14926KSTC STC20120612123509306/12/12 12:35:31  5-MIN KSTC 121835Z 31007KT 10SM CLR 17/02 A3017 800 36 1300 310/07 RMK AO2
14926KSTC STC20120612124009306/12/12 12:40:31  5-MIN KSTC 121840Z VRB06KT 10SM CLR 17/02 A3016 800 36 1300 VRB/06 RMK AO2
14926KSTC STC20120612124509306/12/12 12:45:31  5-MIN KSTC 121845Z 30008KT 10SM CLR 18/03 A3017 800 35 1400 300/08 RMK AO2
14926KSTC STC20120612125011606/12/12 12:50:31  5-MIN KSTC 121850Z 31010G16KT 10SM CLR 18/03 A3016 800 36 1400 310/10G16 RMK AO2 SLP225 T01780028
14926KSTC STC20120612125511506/12/12 12:55:31  5-MIN KSTC 121855Z 34007G16KT 290V020 10SM CLR 18/03 A3016 800 36 1400 340/07G16 290V020 RMK AO2
14926KSTC STC20120612130009306/12/12 13:00:31  5-MIN KSTC 121900Z 00000KT 10SM CLR 18/03 A3016 810 36 1400 000/00 RMK AO2
14926KSTC STC20120612130509306/12/12 13:05:31  5-MIN KSTC 121905Z VRB05KT 10SM CLR 18/03 A3016 810 38 1400 VRB/05 RMK AO2
14926KSTC STC20120612131009306/12/12 13:10:31  5-MIN KSTC 121910Z 34006KT 10SM CLR 18/03 A3016 800 38 1400 340/06 RMK AO2
14926KSTC STC20120612131509306/12/12 13:15:31  5-MIN KSTC 121915Z 32006KT 10SM CLR 18/04 A3016 800 38 1400 320/06 RMK AO2
14926KSTC STC20120612132009306/12/12 13:20:31  5-MIN KSTC 121920Z VRB05KT 10SM CLR 18/03 A3016 800 38 1400 VRB/05 RMK AO2
14926KSTC STC20120612132509306/12/12 13:25:31  5-MIN KSTC 121925Z 28007KT 10SM CLR 18/03 A3016 810 36 1400 280/07 RMK AO2
14926KSTC STC20120612133009306/12/12 13:30:31  5-MIN KSTC 121930Z 29007KT 10SM CLR 18/03 A3016 810 36 1400 290/07 RMK AO2
14926KSTC STC20120612133509306/12/12 13:35:31  5-MIN KSTC 121935Z 00000KT 10SM CLR 18/03 A3016 810 35 1400 000/00 RMK AO2
14926KSTC STC20120612134009306/12/12 13:40:31  5-MIN KSTC 121940Z VRB04KT 10SM CLR 18/03 A3016 810 35 1400 VRB/04 RMK AO2
14926KSTC STC20120612134509306/12/12 13:45:31  5-MIN KSTC 121945Z 34005KT 10SM CLR 18/03 A3016 810 36 1400 330/05 RMK AO2
14926KSTC STC20120612135011006/12/12 13:50:31  5-MIN KSTC 121950Z VRB05KT 10SM CLR 19/04 A3016 810 35 1600 VRB/05 RMK AO2 SLP222 T01940039
14926KSTC STC20120612135509306/12/12 13:55:31  5-MIN KSTC 121955Z 34007KT 10SM CLR 19/02 A3016 810 32 1500 330/07 RMK AO2
14926KSTC STC20120612140009306/12/12 14:00:31  5-MIN KSTC 122000Z VRB04KT 10SM CLR 19/02 A3016 810 32 1500 VRB/04 RMK AO2
14926KSTC STC20120612140509306/12/12 14:05:31  5-MIN KSTC 122005Z 31007KT 10SM CLR 19/02 A3016 800 32 1500 310/07 RMK AO2
14926KSTC STC20120612141009306/12/12 14:10:31  5-MIN KSTC 122010Z VRB03KT 10SM CLR 19/02 A3016 810 32 1500 VRB/03 RMK AO2
14926KSTC STC20120612141509306/12/12 14:15:31  5-MIN KSTC 122015Z VRB03KT 10SM CLR 19/02 A3016 810 32 1500 VRB/03 RMK AO2
14926KSTC STC20120612142010906/12/12 14:20:31  5-MIN KSTC 122020Z 32008KT 280V350 10SM CLR 19/02 A3016 810 31 1600 320/08 280V350 RMK AO2
14926KSTC STC20120612142509306/12/12 14:25:31  5-MIN KSTC 122025Z 34006KT 10SM CLR 19/02 A3015 810 32 1500 340/06 RMK AO2
14926KSTC STC20120612143009306/12/12 14:30:31  5-MIN KSTC 122030Z 30005KT 10SM CLR 19/03 A3015 820 33 1600 300/05 RMK AO2
14926KSTC STC20120612143509306/12/12 14:35:31  5-MIN KSTC 122035Z VRB04KT 10SM CLR 19/02 A3015 820 31 1600 VRB/04 RMK AO2
14926KSTC STC20120612144009306/12/12 14:40:31  5-MIN KSTC 122040Z 30003KT 10SM CLR 19/02 A3015 820 31 1600 300/03 RMK AO2
14926KSTC STC20120612144509306/12/12 14:45:31  5-MIN KSTC 122045Z 26005KT 10SM CLR 19/03 A3015 820 33 1600 260/05 RMK AO2
14926KSTC STC20120612145011606/12/12 14:50:31  5-MIN KSTC 122050Z 32007KT 10SM CLR 20/03 A3015 820 31 1600 320/07 RMK AO2 SLP218 T02000028 50003
14926KSTC STC20120612145509306/12/12 14:55:31  5-MIN KSTC 122055Z 31009KT 10SM CLR 19/03 A3015 820 34 1600 310/09 RMK AO2
14926KSTC STC20120612150009306/12/12 15:00:31  5-MIN KSTC 122100Z VRB03KT 10SM CLR 19/03 A3015 820 34 1600 VRB/03 RMK AO2
14926KSTC STC20120612150510906/12/12 15:05:31  5-MIN KSTC 122105Z 31007KT 280V340 10SM CLR 20/03 A3015 820 33 1600 310/07 280V340 RMK AO2
14926KSTC STC20120612151009306/12/12 15:10:31  5-MIN KSTC 122110Z 25008KT 10SM CLR 19/03 A3015 820 33 1600 240/08 RMK AO2
14926KSTC STC20120612151509306/12/12 15:15:31  5-MIN KSTC 122115Z 24006KT 10SM CLR 19/03 A3015 820 33 1600 240/06 RMK AO2
14926KSTC STC20120612152009306/12/12 15:20:31  5-MIN KSTC 122120Z 24007KT 10SM CLR 19/03 A3014 820 33 1600 230/07 RMK AO2
14926KSTC STC20120612152509306/12/12 15:25:31  5-MIN KSTC 122125Z VRB04KT 10SM CLR 19/03 A3014 820 34 1600 VRB/04 RMK AO2
14926KSTC STC20120612153009306/12/12 15:30:31  5-MIN KSTC 122130Z 19005KT 10SM CLR 19/03 A3014 820 34 1600 190/05 RMK AO2
14926KSTC STC20120612153509306/12/12 15:35:31  5-MIN KSTC 122135Z 21004KT 10SM CLR 19/03 A3014 830 34 1600 210/04 RMK AO2
14926KSTC STC20120612154009306/12/12 15:40:31  5-MIN KSTC 122140Z VRB03KT 10SM CLR 19/03 A3013 830 34 1500 VRB/03 RMK AO2
14926KSTC STC20120612154509306/12/12 15:45:31  5-MIN KSTC 122145Z VRB04KT 10SM CLR 20/03 A3013 830 33 1600 VRB/04 RMK AO2
14926KSTC STC20120612155011006/12/12 15:50:31  5-MIN KSTC 122150Z 00000KT 10SM CLR 21/04 A3013 830 33 1700 000/00 RMK AO2 SLP213 T02060039
14926KSTC STC20120612155509306/12/12 15:55:31  5-MIN KSTC 122155Z 22004KT 10SM CLR 20/03 A3013 830 33 1600 220/04 RMK AO2
14926KSTC STC20120612160009306/12/12 16:00:31  5-MIN KSTC 122200Z VRB04KT 10SM CLR 19/03 A3013 830 34 1600 VRB/04 RMK AO2
14926KSTC STC20120612160509306/12/12 16:05:31  5-MIN KSTC 122205Z 25007KT 10SM CLR 20/04 A3013 830 34 1600 250/07 RMK AO2
14926KSTC STC20120612161009306/12/12 16:10:31  5-MIN KSTC 122210Z 27008KT 10SM CLR 20/03 A3013 830 33 1600 270/08 RMK AO2
14926KSTC STC20120612161509306/12/12 16:15:31  5-MIN KSTC 122215Z 25008KT 10SM CLR 20/03 A3013 830 31 1700 250/08 RMK AO2
14926KSTC STC20120612162009306/12/12 16:20:31  5-MIN KSTC 122220Z 26006KT 10SM CLR 20/03 A3013 840 33 1700 260/06 RMK AO2
14926KSTC STC20120612162509306/12/12 16:25:31  5-MIN KSTC 122225Z 24005KT 10SM CLR 19/03 A3012 840 33 1600 240/05 RMK AO2
14926KSTC STC20120612163009306/12/12 16:30:31  5-MIN KSTC 122230Z 23004KT 10SM CLR 19/03 A3013 840 34 1600 230/04 RMK AO2
14926KSTC STC20120612163509306/12/12 16:35:31  5-MIN KSTC 122235Z VRB04KT 10SM CLR 19/03 A3013 840 33 1600 VRB/04 RMK AO2
14926KSTC STC20120612164009306/12/12 16:40:31  5-MIN KSTC 122240Z 27007KT 10SM CLR 20/03 A3012 840 33 1700 270/07 RMK AO2
14926KSTC STC20120612164509306/12/12 16:45:31  5-MIN KSTC 122245Z 23005KT 10SM CLR 19/03 A3012 840 34 1600 230/05 RMK AO2
14926KSTC STC20120612165011006/12/12 16:50:31  5-MIN KSTC 122250Z 31003KT 10SM CLR 19/03 A3012 840 33 1600 310/03 RMK AO2 SLP210 T01940028
14926KSTC STC20120612165509306/12/12 16:55:31  5-MIN KSTC 122255Z 23007KT 10SM CLR 20/03 A3012 840 33 1700 230/07 RMK AO2
14926KSTC STC20120612170009306/12/12 17:00:31  5-MIN KSTC 122300Z 27006KT 10SM CLR 20/04 A3012 840 34 1700 270/06 RMK AO2
14926KSTC STC20120612170509306/12/12 17:05:31  5-MIN KSTC 122305Z 23007KT 10SM CLR 20/03 A3012 840 33 1700 230/07 RMK AO2
14926KSTC STC20120612171009306/12/12 17:10:31  5-MIN KSTC 122310Z 22005KT 10SM CLR 19/03 A3012 850 34 1600 220/05 RMK AO2
14926KSTC STC20120612171509306/12/12 17:15:31  5-MIN KSTC 122315Z 21006KT 10SM CLR 19/03 A3012 850 33 1600 210/06 RMK AO2
14926KSTC STC20120612172009306/12/12 17:20:31  5-MIN KSTC 122320Z 24008KT 10SM CLR 19/03 A3012 850 34 1600 240/08 RMK AO2
14926KSTC STC20120612172509306/12/12 17:25:31  5-MIN KSTC 122325Z 25006KT 10SM CLR 20/03 A3011 850 31 1700 250/06 RMK AO2
14926KSTC STC20120612173009306/12/12 17:30:31  5-MIN KSTC 122330Z 24008KT 10SM CLR 19/02 A3011 850 31 1600 240/08 RMK AO2
14926KSTC STC20120612173509306/12/12 17:35:31  5-MIN KSTC 122335Z 23007KT 10SM CLR 19/03 A3011 850 33 1600 230/07 RMK AO2
14926KSTC STC20120612174009306/12/12 17:40:31  5-MIN KSTC 122340Z 25007KT 10SM CLR 20/02 A3011 850 30 1700 250/07 RMK AO2
14926KSTC STC20120612174509306/12/12 17:45:31  5-MIN KSTC 122345Z 27007KT 10SM CLR 19/03 A3011 850 33 1600 270/07 RMK AO2
14926KSTC STC20120612175012806/12/12 17:50:31  5-MIN KSTC 122350Z 25004KT 10SM CLR 19/03 A3011 850 33 1600 250/04 RMK AO2 SLP206 T01940028 10206 20161 56009
14926KSTC STC20120612175509306/12/12 17:55:31  5-MIN KSTC 122355Z 25007KT 10SM CLR 20/03 A3011 850 31 1700 250/07 RMK AO2
14926KSTC STC20120612180009306/12/12 18:00:31  5-MIN KSTC 130000Z 24008KT 10SM CLR 19/03 A3011 850 33 1600 240/08 RMK AO2
14926KSTC STC20120612180509306/12/12 18:05:31  5-MIN KSTC 130005Z 25005KT 10SM CLR 19/03 A3011 850 33 1600 250/05 RMK AO2
14926KSTC STC20120612181009306/12/12 18:10:31  5-MIN KSTC 130010Z 26005KT 10SM CLR 19/03 A3011 850 34 1600 260/05 RMK AO2
14926KSTC STC20120612181509306/12/12 18:15:31  5-MIN KSTC 130015Z 24006KT 10SM CLR 19/03 A3011 850 34 1600 240/06 RMK AO2
14926KSTC STC20120612182009306/12/12 18:20:31  5-MIN KSTC 130020Z 24004KT 10SM CLR 19/03 A3011 850 33 1600 240/04 RMK AO2
14926KSTC STC20120612182509306/12/12 18:25:31  5-MIN KSTC 130025Z 26007KT 10SM CLR 19/03 A3011 850 34 1600 250/07 RMK AO2
14926KSTC STC20120612183009306/12/12 18:30:31  5-MIN KSTC 130030Z 23006KT 10SM CLR 19/03 A3011 850 34 1600 230/06 RMK AO2
14926KSTC STC20120612183510906/12/12 18:35:31  5-MIN KSTC 130035Z 26008KT 210V290 10SM CLR 19/03 A3011 850 35 1500 260/08 210V290 RMK AO2
14926KSTC STC20120612184009306/12/12 18:40:31  5-MIN KSTC 130040Z 25007KT 10SM CLR 19/03 A3011 850 35 1500 250/07 RMK AO2
14926KSTC STC20120612184509306/12/12 18:45:31  5-MIN KSTC 130045Z 25004KT 10SM CLR 19/04 A3011 850 36 1500 250/04 RMK AO2
14926KSTC STC20120612185011006/12/12 18:50:31  5-MIN KSTC 130050Z 26004KT 10SM CLR 19/04 A3011 860 36 1500 260/04 RMK AO2 SLP204 T01890039
14926KSTC STC20120612185509306/12/12 18:55:31  5-MIN KSTC 130055Z 25005KT 10SM CLR 19/03 A3010 860 35 1500 250/05 RMK AO2
14926KSTC STC20120612190009306/12/12 19:00:31  5-MIN KSTC 130100Z 25004KT 10SM CLR 18/04 A3010 860 38 1500 250/04 RMK AO2
14926KSTC STC20120612190509306/12/12 19:05:31  5-MIN KSTC 130105Z 23004KT 10SM CLR 18/04 A3010 860 39 1500 230/04 RMK AO2
14926KSTC STC20120612191009306/12/12 19:10:31  5-MIN KSTC 130110Z 24004KT 10SM CLR 18/04 A3010 860 38 1500 240/04 RMK AO2
14926KSTC STC20120612191509306/12/12 19:15:31  5-MIN KSTC 130115Z 00000KT 10SM CLR 18/04 A3010 860 41 1400 000/00 RMK AO2
14926KSTC STC20120612192009306/12/12 19:20:31  5-MIN KSTC 130120Z 00000KT 10SM CLR 18/04 A3010 860 41 1400 000/00 RMK AO2
14926KSTC STC20120612192509306/12/12 19:25:31  5-MIN KSTC 130125Z 00000KT 10SM CLR 18/04 A3010 860 39 1400 000/00 RMK AO2
14926KSTC STC20120612193009306/12/12 19:30:31  5-MIN KSTC 130130Z 24003KT 10SM CLR 18/05 A3010 860 42 1400 240/03 RMK AO2
14926KSTC STC20120612193509306/12/12 19:35:31  5-MIN KSTC 130135Z 00000KT 10SM CLR 17/05 A3010 860 44 1400 000/00 RMK AO2
14926KSTC STC20120612194009306/12/12 19:40:31  5-MIN KSTC 130140Z 00000KT 10SM CLR 17/06 A3009 870 46 1400 000/00 RMK AO2
14926KSTC STC20120612194509306/12/12 19:45:31  5-MIN KSTC 130145Z 00000KT 10SM CLR 16/09 A3009 870 64 1200 000/00 RMK AO2
14926KSTC STC20120612195011006/12/12 19:50:31  5-MIN KSTC 130150Z 00000KT 10SM CLR 14/08 A3009 870 64 1000 000/00 RMK AO2 SLP199 T01440078
14926KSTC STC20120612195509306/12/12 19:55:31  5-MIN KSTC 130155Z 00000KT 10SM CLR 15/07 A3009 870 59 1100 000/00 RMK AO2
14926KSTC STC20120612200009306/12/12 20:00:31  5-MIN KSTC 130200Z 00000KT 10SM CLR 14/08 A3009 870 66 1000 000/00 RMK AO2
14926KSTC STC20120612200509306/12/12 20:05:31  5-MIN KSTC 130205Z 00000KT 10SM CLR 14/08 A3009 870 69 1000 000/00 RMK AO2
14926KSTC STC20120612201009306/12/12 20:10:31  5-MIN KSTC 130210Z 00000KT 10SM CLR 14/08 A3009 870 69 1000 000/00 RMK AO2
14926KSTC STC20120612201509206/12/12 20:15:31  5-MIN KSTC 130215Z 00000KT 10SM CLR 13/09 A3009 870 74 900 000/00 RMK AO2
14926KSTC STC20120612202009206/12/12 20:20:31  5-MIN KSTC 130220Z 00000KT 10SM CLR 13/08 A3009 870 71 900 000/00 RMK AO2
14926KSTC STC20120612202509206/12/12 20:25:31  5-MIN KSTC 130225Z 00000KT 10SM CLR 13/08 A3010 860 74 800 000/00 RMK AO2
14926KSTC STC20120612203009206/12/12 20:30:31  5-MIN KSTC 130230Z 00000KT 10SM CLR 13/08 A3010 860 71 800 000/00 RMK AO2
14926KSTC STC20120612203509206/12/12 20:35:31  5-MIN KSTC 130235Z 00000KT 10SM CLR 12/08 A3010 860 74 800 000/00 RMK AO2
14926KSTC STC20120612204009206/12/12 20:40:31  5-MIN KSTC 130240Z 00000KT 10SM CLR 12/08 A3010 860 74 800 000/00 RMK AO2
14926KSTC STC20120612204509206/12/12 20:45:31  5-MIN KSTC 130245Z 00000KT 10SM CLR 12/08 A3010 860 80 700 000/00 RMK AO2
14926KSTC STC20120612205011506/12/12 20:50:31  5-MIN KSTC 130250Z 00000KT 10SM CLR 11/08 A3010 860 80 600 000/00 RMK AO2 SLP206 T01110078 56012
14926KSTC STC20120612205509206/12/12 20:55:31  5-MIN KSTC 130255Z 00000KT 10SM CLR 11/08 A3010 860 83 600 000/00 RMK AO2
14926KSTC STC20120612210009206/12/12 21:00:31  5-MIN KSTC 130300Z 00000KT 10SM CLR 11/08 A3011 860 83 600 000/00 RMK AO2
14926KSTC STC20120612210509206/12/12 21:05:31  5-MIN KSTC 130305Z 00000KT 10SM CLR 11/08 A3010 860 83 600 000/00 RMK AO2
14926KSTC STC20120612211009206/12/12 21:10:31  5-MIN KSTC 130310Z 00000KT 10SM CLR 11/08 A3011 860 80 600 000/00 RMK AO2
14926KSTC STC20120612211509206/12/12 21:15:31  5-MIN KSTC 130315Z 00000KT 10SM CLR 11/08 A3011 850 80 600 000/00 RMK AO2
14926KSTC STC20120612212009206/12/12 21:20:31  5-MIN KSTC 130320Z 00000KT 10SM CLR 11/08 A3011 850 80 600 000/00 RMK AO2
14926KSTC STC20120612212509206/12/12 21:25:31  5-MIN KSTC 130325Z 00000KT 10SM CLR 11/08 A3011 850 80 600 000/00 RMK AO2
14926KSTC STC20120612213009206/12/12 21:30:31  5-MIN KSTC 130330Z 00000KT 10SM CLR 11/08 A3010 860 80 600 000/00 RMK AO2
14926KSTC STC20120612213509206/12/12 21:35:31  5-MIN KSTC 130335Z 00000KT 10SM CLR 11/08 A3010 860 83 600 000/00 RMK AO2
14926KSTC STC20120612214009206/12/12 21:40:31  5-MIN KSTC 130340Z 00000KT 10SM CLR 11/08 A3010 860 83 600 000/00 RMK AO2
14926KSTC STC20120612214509206/12/12 21:45:31  5-MIN KSTC 130345Z 00000KT 10SM CLR 11/08 A3010 860 86 600 000/00 RMK AO2
14926KSTC STC20120612215010906/12/12 21:50:31  5-MIN KSTC 130350Z 00000KT 10SM CLR 11/08 A3011 860 86 600 000/00 RMK AO2 SLP206 T01060083
14926KSTC STC20120612215509206/12/12 21:55:31  5-MIN KSTC 130355Z 00000KT 10SM CLR 11/08 A3011 860 86 600 000/00 RMK AO2
14926KSTC STC20120612220009706/12/12 22:00:31  5-MIN KSTC 130400Z AUTO 00000KT 10SM CLR 11/08 A3011 860 86 600 000/00 RMK AO2
14926KSTC STC20120612220509706/12/12 22:05:31  5-MIN KSTC 130405Z AUTO 00000KT 10SM CLR 11/09 A3011 860 89 600 000/00 RMK AO2
14926KSTC STC20120612221009706/12/12 22:10:31  5-MIN KSTC 130410Z AUTO 00000KT 10SM CLR 11/09 A3010 860 89 600 000/00 RMK AO2
14926KSTC STC20120612221509706/12/12 22:15:31  5-MIN KSTC 130415Z AUTO 00000KT 10SM CLR 11/09 A3011 860 89 600 000/00 RMK AO2
14926KSTC STC20120612222009706/12/12 22:20:31  5-MIN KSTC 130420Z AUTO 00000KT 10SM CLR 11/08 A3011 860 86 600 000/00 RMK AO2
14926KSTC STC20120612222509706/12/12 22:25:31  5-MIN KSTC 130425Z AUTO 00000KT 10SM CLR 11/08 A3011 850 86 600 000/00 RMK AO2
14926KSTC STC20120612223009706/12/12 22:30:31  5-MIN KSTC 130430Z AUTO 00000KT 10SM CLR 10/08 A3011 850 89 500 000/00 RMK AO2
14926KSTC STC20120612223509706/12/12 22:35:31  5-MIN KSTC 130435Z AUTO 00000KT 10SM CLR 10/08 A3011 860 86 500 000/00 RMK AO2
14926KSTC STC20120612224009706/12/12 22:40:31  5-MIN KSTC 130440Z AUTO 00000KT 10SM CLR 09/08 A3010 860 89 400 000/00 RMK AO2
14926KSTC STC20120612224509706/12/12 22:45:31  5-MIN KSTC 130445Z AUTO 00000KT 10SM CLR 10/08 A3010 860 86 500 000/00 RMK AO2
14926KSTC STC20120612225011406/12/12 22:50:31  5-MIN KSTC 130450Z AUTO 00000KT 10SM CLR 09/08 A3010 860 89 400 000/00 RMK AO2 SLP204 T00940078
14926KSTC STC20120612225509706/12/12 22:55:31  5-MIN KSTC 130455Z AUTO 00000KT 10SM CLR 10/08 A3011 860 86 500 000/00 RMK AO2
14926KSTC STC20120612230009706/12/12 23:00:31  5-MIN KSTC 130500Z AUTO 00000KT 10SM CLR 10/08 A3010 860 89 500 000/00 RMK AO2
14926KSTC STC20120612230509706/12/12 23:05:31  5-MIN KSTC 130505Z AUTO 00000KT 10SM CLR 10/08 A3010 860 89 500 000/00 RMK AO2
14926KSTC STC20120612231009706/12/12 23:10:31  5-MIN KSTC 130510Z AUTO 00000KT 10SM CLR 10/08 A3010 860 89 500 000/00 RMK AO2
14926KSTC STC20120612231509706/12/12 23:15:31  5-MIN KSTC 130515Z AUTO 00000KT 10SM CLR 09/08 A3010 860 93 400 000/00 RMK AO2
14926KSTC STC20120612232009706/12/12 23:20:31  5-MIN KSTC 130520Z AUTO 00000KT 10SM CLR 09/08 A3010 860 93 400 000/00 RMK AO2
14926KSTC STC20120612232509706/12/12 23:25:31  5-MIN KSTC 130525Z AUTO 00000KT 10SM CLR 09/08 A3010 860 93 400 000/00 RMK AO2
14926KSTC STC20120612233009706/12/12 23:30:31  5-MIN KSTC 130530Z AUTO 00000KT 10SM CLR 10/08 A3010 860 89 500 000/00 RMK AO2
14926KSTC STC20120612233509706/12/12 23:35:31  5-MIN KSTC 130535Z AUTO 00000KT 10SM CLR 09/08 A3010 860 93 400 000/00 RMK AO2
14926KSTC STC20120612234009706/12/12 23:40:31  5-MIN KSTC 130540Z AUTO 00000KT 10SM CLR 09/08 A3010 860 93 400 000/00 RMK AO2
14926KSTC STC20120612234509706/12/12 23:45:31  5-MIN KSTC 130545Z AUTO 00000KT 10SM CLR 09/08 A3010 860 93 400 000/00 RMK AO2
14926KSTC STC20120612235014206/12/12 23:50:31  5-MIN KSTC 130550Z AUTO 00000KT 10SM CLR 09/08 A3010 860 89 400 000/00 RMK AO2 SLP204 T00940078 10200 20094 402060078 55002
14926KSTC STC20120612235509706/12/12 23:55:31  5-MIN KSTC 130555Z AUTO 00000KT 10SM CLR 09/08 A3010 860 89 400 000/00 RMK AO2
14926KSTC STC20120613000009706/13/12 00:00:32  5-MIN KSTC 130600Z AUTO 00000KT 10SM CLR 09/08 A3010 860 89 400 000/00 RMK AO2
14926KSTC STC20120613000509706/13/12 00:05:31  5-MIN KSTC 130605Z AUTO 00000KT 10SM CLR 09/08 A3010 860 93 400 000/00 RMK AO2
14926KSTC STC20120613001009706/13/12 00:10:31  5-MIN KSTC 130610Z AUTO 00000KT 10SM CLR 09/08 A3010 860 89 400 000/00 RMK AO2
14926KSTC STC20120613001509706/13/12 00:15:31  5-MIN KSTC 130615Z AUTO 00000KT 10SM CLR 09/08 A3010 860 89 400 000/00 RMK AO2
14926KSTC STC20120613002009706/13/12 00:20:31  5-MIN KSTC 130620Z AUTO 00000KT 10SM CLR 09/08 A3011 850 89 400 000/00 RMK AO2
14926KSTC STC20120613002509706/13/12 00:25:31  5-MIN KSTC 130625Z AUTO 00000KT 10SM CLR 09/08 A3011 850 89 400 000/00 RMK AO2
14926KSTC STC20120613003009706/13/12 00:30:31  5-MIN KSTC 130630Z AUTO 00000KT 10SM CLR 09/08 A3011 850 89 400 000/00 RMK AO2
14926KSTC STC20120613003509706/13/12 00:35:31  5-MIN KSTC 130635Z AUTO 00000KT 10SM CLR 10/08 A3011 850 89 500 000/00 RMK AO2
14926KSTC STC20120613004009706/13/12 00:40:31  5-MIN KSTC 130640Z AUTO 00000KT 10SM CLR 09/08 A3011 850 93 400 000/00 RMK AO2
14926KSTC STC20120613004509706/13/12 00:45:31  5-MIN KSTC 130645Z AUTO 00000KT 10SM CLR 10/08 A3011 850 89 500 000/00 RMK AO2
14926KSTC STC20120613005011406/13/12 00:50:31  5-MIN KSTC 130650Z AUTO 00000KT 10SM CLR 10/08 A3011 850 89 500 000/00 RMK AO2 SLP207 T01000083
14926KSTC STC20120613005509706/13/12 00:55:31  5-MIN KSTC 130655Z AUTO 00000KT 10SM CLR 09/08 A3011 850 93 400 000/00 RMK AO2
14926KSTC STC20120613010009706/13/12 01:00:31  5-MIN KSTC 130700Z AUTO 00000KT 10SM CLR 09/08 A3011 850 93 400 000/00 RMK AO2
14926KSTC STC20120613010509706/13/12 01:05:31  5-MIN KSTC 130705Z AUTO 00000KT 10SM CLR 09/08 A3011 850 89 400 000/00 RMK AO2
14926KSTC STC20120613011009706/13/12 01:10:31  5-MIN KSTC 130710Z AUTO 00000KT 10SM CLR 09/08 A3011 850 93 400 000/00 RMK AO2
14926KSTC STC20120613011509706/13/12 01:15:31  5-MIN KSTC 130715Z AUTO 00000KT 10SM CLR 09/08 A3011 850 93 400 000/00 RMK AO2
14926KSTC STC20120613012009706/13/12 01:20:31  5-MIN KSTC 130720Z AUTO 00000KT 10SM CLR 09/08 A3011 860 93 400 000/00 RMK AO2
14926KSTC STC20120613012509706/13/12 01:25:31  5-MIN KSTC 130725Z AUTO 00000KT 10SM CLR 09/08 A3010 860 89 400 000/00 RMK AO2
14926KSTC STC20120613013009706/13/12 01:30:31  5-MIN KSTC 130730Z AUTO 00000KT 10SM CLR 09/08 A3010 860 89 400 000/00 RMK AO2
14926KSTC STC20120613013509706/13/12 01:35:31  5-MIN KSTC 130735Z AUTO 00000KT 10SM CLR 09/08 A3010 860 93 400 000/00 RMK AO2
14926KSTC STC20120613014009706/13/12 01:40:31  5-MIN KSTC 130740Z AUTO 00000KT 10SM CLR 09/08 A3010 860 93 400 000/00 RMK AO2
14926KSTC STC20120613014509706/13/12 01:45:31  5-MIN KSTC 130745Z AUTO 00000KT 10SM CLR 09/08 A3010 860 93 400 000/00 RMK AO2
14926KSTC STC20120613015011406/13/12 01:50:31  5-MIN KSTC 130750Z AUTO 00000KT 10SM CLR 09/08 A3010 860 93 400 000/00 RMK AO2 SLP202 T00940083
14926KSTC STC20120613015509706/13/12 01:55:31  5-MIN KSTC 130755Z AUTO 00000KT 10SM CLR 09/08 A3010 860 89 400 000/00 RMK AO2
14926KSTC STC20120613020009706/13/12 02:00:31  5-MIN KSTC 130800Z AUTO 00000KT 10SM CLR 09/08 A3010 860 89 400 000/00 RMK AO2
14926KSTC STC20120613020509706/13/12 02:05:31  5-MIN KSTC 130805Z AUTO 00000KT 10SM CLR 10/08 A3009 870 89 500 000/00 RMK AO2
14926KSTC STC20120613021009706/13/12 02:10:31  5-MIN KSTC 130810Z AUTO 00000KT 10SM CLR 10/08 A3009 870 89 500 000/00 RMK AO2
14926KSTC STC20120613021509706/13/12 02:15:31  5-MIN KSTC 130815Z AUTO 00000KT 10SM CLR 09/08 A3009 870 93 400 000/00 RMK AO2
14926KSTC STC20120613022009706/13/12 02:20:31  5-MIN KSTC 130820Z AUTO 00000KT 10SM CLR 09/08 A3009 870 93 500 000/00 RMK AO2
14926KSTC STC20120613022509706/13/12 02:25:31  5-MIN KSTC 130825Z AUTO 00000KT 10SM CLR 09/08 A3009 870 93 500 000/00 RMK AO2
14926KSTC STC20120613023009706/13/12 02:30:31  5-MIN KSTC 130830Z AUTO 00000KT 10SM CLR 09/08 A3009 870 89 500 000/00 RMK AO2
14926KSTC STC20120613023509706/13/12 02:35:31  5-MIN KSTC 130835Z AUTO 00000KT 10SM CLR 09/08 A3009 870 89 500 000/00 RMK AO2
14926KSTC STC20120613024009706/13/12 02:40:31  5-MIN KSTC 130840Z AUTO 00000KT 10SM CLR 09/08 A3008 880 89 500 000/00 RMK AO2
14926KSTC STC20120613024509706/13/12 02:45:31  5-MIN KSTC 130845Z AUTO 00000KT 10SM CLR 09/08 A3008 880 93 500 000/00 RMK AO2
14926KSTC STC20120613025012006/13/12 02:50:31  5-MIN KSTC 130850Z AUTO 00000KT 10SM CLR 09/08 A3008 880 93 500 000/00 RMK AO2 SLP196 T00940083 58001
14926KSTC STC20120613025509706/13/12 02:55:31  5-MIN KSTC 130855Z AUTO 00000KT 10SM CLR 10/08 A3008 880 89 500 000/00 RMK AO2
14926KSTC STC20120613030009706/13/12 03:00:31  5-MIN KSTC 130900Z AUTO 13003KT 10SM CLR 10/08 A3008 880 89 500 130/03 RMK AO2
14926KSTC STC20120613030509706/13/12 03:05:31  5-MIN KSTC 130905Z AUTO 00000KT 10SM CLR 09/08 A3008 880 89 500 000/00 RMK AO2
14926KSTC STC20120613031009706/13/12 03:10:31  5-MIN KSTC 130910Z AUTO 00000KT 10SM CLR 09/08 A3008 880 89 500 000/00 RMK AO2
14926KSTC STC20120613031509706/13/12 03:15:31  5-MIN KSTC 130915Z AUTO 00000KT 10SM CLR 09/08 A3007 880 89 500 000/00 RMK AO2
14926KSTC STC20120613032009706/13/12 03:20:31  5-MIN KSTC 130920Z AUTO 00000KT 10SM CLR 09/08 A3007 890 89 500 000/00 RMK AO2
14926KSTC STC20120613032509706/13/12 03:25:31  5-MIN KSTC 130925Z AUTO 12003KT 10SM CLR 09/08 A3007 890 89 500 120/03 RMK AO2
14926KSTC STC20120613033009706/13/12 03:30:31  5-MIN KSTC 130930Z AUTO 12003KT 10SM CLR 09/08 A3007 890 89 500 120/03 RMK AO2
14926KSTC STC20120613033509706/13/12 03:35:31  5-MIN KSTC 130935Z AUTO 13003KT 10SM CLR 10/08 A3007 890 86 500 130/03 RMK AO2
14926KSTC STC20120613034009706/13/12 03:40:31  5-MIN KSTC 130940Z AUTO 13003KT 10SM CLR 10/08 A3007 890 86 500 130/03 RMK AO2
14926KSTC STC20120613034509706/13/12 03:45:31  5-MIN KSTC 130945Z AUTO 11003KT 10SM CLR 10/08 A3007 890 89 500 110/03 RMK AO2
14926KSTC STC20120613035011406/13/12 03:50:31  5-MIN KSTC 130950Z AUTO 12003KT 10SM CLR 10/08 A3007 890 86 500 120/03 RMK AO2 SLP190 T01000078
14926KSTC STC20120613035509706/13/12 03:55:31  5-MIN KSTC 130955Z AUTO 13004KT 10SM CLR 11/08 A3007 890 86 600 130/04 RMK AO2
14926KSTC STC20120613040009706/13/12 04:00:31  5-MIN KSTC 131000Z AUTO 13003KT 10SM CLR 11/08 A3006 890 83 700 130/03 RMK AO2
14926KSTC STC20120613040509706/13/12 04:05:31  5-MIN KSTC 131005Z AUTO 14004KT 10SM CLR 11/08 A3007 890 86 600 130/04 RMK AO2
14926KSTC STC20120613041009706/13/12 04:10:31  5-MIN KSTC 131010Z AUTO 13004KT 10SM CLR 11/08 A3007 890 86 600 130/04 RMK AO2
14926KSTC STC20120613041509706/13/12 04:15:31  5-MIN KSTC 131015Z AUTO 12004KT 10SM CLR 11/08 A3007 890 83 700 120/04 RMK AO2
14926KSTC STC20120613042009706/13/12 04:20:31  5-MIN KSTC 131020Z AUTO 14003KT 10SM CLR 11/08 A3007 890 83 700 140/03 RMK AO2
14926KSTC STC20120613042509706/13/12 04:25:31  5-MIN KSTC 131025Z AUTO 14003KT 10SM CLR 11/08 A3007 890 86 600 140/03 RMK AO2
14926KSTC STC20120613043009706/13/12 04:30:31  5-MIN KSTC 131030Z AUTO 13003KT 10SM CLR 11/09 A3007 890 89 600 130/03 RMK AO2
14926KSTC STC20120613043509706/13/12 04:35:31  5-MIN KSTC 131035Z AUTO 13003KT 10SM CLR 11/09 A3007 890 86 700 130/03 RMK AO2
14926KSTC STC20120613044010006/13/12 04:40:31  5-MIN KSTC 131040Z AUTO 14003KT 10SM FEW120 11/09 A3007 890 86 700 140/03 RMK AO2
14926KSTC STC20120613044510006/13/12 04:45:31  5-MIN KSTC 131045Z AUTO 14004KT 10SM SCT120 12/09 A3007 890 83 700 140/04 RMK AO2
14926KSTC STC20120613045011706/13/12 04:50:31  5-MIN KSTC 131050Z AUTO 14004KT 10SM SCT120 12/09 A3008 880 86 700 140/04 RMK AO2 SLP193 T01170094
14926KSTC STC20120613045510006/13/12 04:55:31  5-MIN KSTC 131055Z AUTO 13004KT 10SM SCT120 12/09 A3007 890 86 700 130/04 RMK AO2
14926KSTC STC20120613050010006/13/12 05:00:31  5-MIN KSTC 131100Z AUTO 14005KT 10SM SCT120 12/09 A3008 880 80 800 140/05 RMK AO2
14926KSTC STC20120613050510006/13/12 05:05:31  5-MIN KSTC 131105Z AUTO 14004KT 10SM SCT120 12/09 A3008 880 86 700 140/04 RMK AO2
14926KSTC STC20120613051010006/13/12 05:10:31  5-MIN KSTC 131110Z AUTO 14005KT 10SM SCT120 12/09 A3008 880 86 700 140/05 RMK AO2
14926KSTC STC20120613051510006/13/12 05:15:31  5-MIN KSTC 131115Z AUTO 14005KT 10SM FEW120 12/09 A3008 880 86 700 140/05 RMK AO2
14926KSTC STC20120613052010006/13/12 05:20:31  5-MIN KSTC 131120Z AUTO 15004KT 10SM FEW120 12/09 A3008 880 86 700 140/04 RMK AO2
14926KSTC STC20120613052510006/13/12 05:25:31  5-MIN KSTC 131125Z AUTO 15004KT 10SM FEW120 12/09 A3008 880 86 700 150/04 RMK AO2
14926KSTC STC20120613053009706/13/12 05:30:31  5-MIN KSTC 131130Z AUTO 15004KT 10SM CLR 12/10 A3008 880 89 700 150/04 RMK AO2
14926KSTC STC20120613053509706/13/12 05:35:31  5-MIN KSTC 131135Z AUTO 14004KT 10SM CLR 12/10 A3008 880 86 800 140/04 RMK AO2
14926KSTC STC20120613054010006/13/12 05:40:31  5-MIN KSTC 131140Z AUTO 16003KT 10SM FEW120 12/10 A3008 880 86 800 160/03 RMK AO2
14926KSTC STC20120613054510006/13/12 05:45:31  5-MIN KSTC 131145Z AUTO 17004KT 10SM FEW120 13/10 A3009 870 83 900 160/04 RMK AO2
14926KSTC STC20120613055012706/13/12 05:50:31  5-MIN KSTC 131150Z 00000KT 10SM CLR 13/11 A3009 870 86 900 000/00 RMK AO2 SLP197 T01280106 10128 20089 58007
14926KSTC STC20120613055509206/13/12 05:55:31  5-MIN KSTC 131155Z 00000KT 10SM CLR 13/11 A3009 870 83 900 000/00 RMK AO2
14926KSTC STC20120613060009206/13/12 06:00:31  5-MIN KSTC 131200Z 19003KT 10SM CLR 13/10 A3009 870 80 900 180/03 RMK AO2
14926KSTC STC20120613060509206/13/12 06:05:31  5-MIN KSTC 131205Z 18004KT 10SM CLR 13/11 A3009 870 83 900 180/04 RMK AO2
14926KSTC STC20120613061009206/13/12 06:10:31  5-MIN KSTC 131210Z 19006KT 10SM CLR 13/10 A3009 870 80 900 180/06 RMK AO2
14926KSTC STC20120613061509306/13/12 06:15:31  5-MIN KSTC 131215Z 18004KT 10SM CLR 14/10 A3009 870 77 1000 180/04 RMK AO2
14926KSTC STC20120613062009306/13/12 06:20:31  5-MIN KSTC 131220Z 19005KT 10SM CLR 14/10 A3009 870 74 1000 190/05 RMK AO2
14926KSTC STC20120613062509306/13/12 06:25:31  5-MIN KSTC 131225Z 18005KT 10SM CLR 14/10 A3009 870 74 1000 180/05 RMK AO2
14926KSTC STC20120613063009306/13/12 06:30:31  5-MIN KSTC 131230Z 18005KT 10SM CLR 15/10 A3009 870 72 1100 180/05 RMK AO2
14926KSTC STC20120613063509306/13/12 06:35:31  5-MIN KSTC 131235Z 18007KT 10SM CLR 15/09 A3009 870 69 1100 180/07 RMK AO2
14926KSTC STC20120613064009306/13/12 06:40:31  5-MIN KSTC 131240Z 18005KT 10SM CLR 15/09 A3009 870 69 1100 180/05 RMK AO2
14926KSTC STC20120613064509306/13/12 06:45:31  5-MIN KSTC 131245Z 17006KT 10SM CLR 15/09 A3009 870 69 1100 170/06 RMK AO2
14926KSTC STC20120613065011006/13/12 06:50:31  5-MIN KSTC 131250Z 16005KT 10SM CLR 16/09 A3009 870 67 1200 160/05 RMK AO2 SLP196 T01560094
14926KSTC STC20120613065509306/13/12 06:55:31  5-MIN KSTC 131255Z 17006KT 10SM CLR 16/09 A3009 870 64 1200 170/06 RMK AO2
14926KSTC STC20120613070009306/13/12 07:00:31  5-MIN KSTC 131300Z 17006KT 10SM CLR 16/09 A3009 870 62 1200 170/06 RMK AO2
14926KSTC STC20120613070509306/13/12 07:05:31  5-MIN KSTC 131305Z 17007KT 10SM CLR 17/09 A3009 870 60 1300 170/07 RMK AO2
14926KSTC STC20120613071009306/13/12 07:10:31  5-MIN KSTC 131310Z 18007KT 10SM CLR 17/09 A3008 880 60 1300 180/07 RMK AO2
14926KSTC STC20120613071509906/13/12 07:15:31  5-MIN KSTC 131315Z 19010G14KT 10SM CLR 17/08 A3008 880 55 1400 190/10G14 RMK AO2
14926KSTC STC20120613072009306/13/12 07:20:31  5-MIN KSTC 131320Z 17009KT 10SM CLR 17/08 A3008 880 55 1400 170/09 RMK AO2
14926KSTC STC20120613072509306/13/12 07:25:31  5-MIN KSTC 131325Z 17006KT 10SM CLR 17/08 A3008 880 55 1400 170/06 RMK AO2
14926KSTC STC20120613073009306/13/12 07:30:31  5-MIN KSTC 131330Z 17006KT 10SM CLR 17/08 A3007 880 57 1300 170/06 RMK AO2
14926KSTC STC20120613073509306/13/12 07:35:31  5-MIN KSTC 131335Z 16007KT 10SM CLR 17/08 A3007 890 57 1300 150/07 RMK AO2
14926KSTC STC20120613074009306/13/12 07:40:31  5-MIN KSTC 131340Z 16006KT 10SM CLR 17/08 A3007 890 57 1300 150/06 RMK AO2
14926KSTC STC20120613074509306/13/12 07:45:31  5-MIN KSTC 131345Z 16006KT 10SM CLR 17/08 A3007 880 57 1300 150/06 RMK AO2
14926KSTC STC20120613075011006/13/12 07:50:31  5-MIN KSTC 131350Z 16006KT 10SM CLR 17/09 A3008 880 60 1300 160/06 RMK AO2 SLP194 T01670089
14926KSTC STC20120613075509306/13/12 07:55:31  5-MIN KSTC 131355Z 17005KT 10SM CLR 17/09 A3008 880 60 1300 170/05 RMK AO2
14926KSTC STC20120613080009306/13/12 08:00:31  5-MIN KSTC 131400Z 16006KT 10SM CLR 17/09 A3008 880 60 1300 160/06 RMK AO2
14926KSTC STC20120613080509306/13/12 08:05:31  5-MIN KSTC 131405Z 17007KT 10SM CLR 17/09 A3008 880 60 1300 170/07 RMK AO2
14926KSTC STC20120613081009606/13/12 08:10:31  5-MIN KSTC 131410Z 17006KT 10SM FEW120 17/08 A3008 880 57 1300 170/06 RMK AO2
14926KSTC STC20120613081509606/13/12 08:15:31  5-MIN KSTC 131415Z 16007KT 10SM FEW120 17/09 A3008 880 60 1300 160/07 RMK AO2
14926KSTC STC20120613082009606/13/12 08:20:31  5-MIN KSTC 131420Z 16007KT 10SM FEW120 17/08 A3008 880 57 1300 160/07 RMK AO2
14926KSTC STC20120613082509606/13/12 08:25:31  5-MIN KSTC 131425Z 16008KT 10SM FEW120 17/08 A3008 880 57 1300 160/08 RMK AO2
14926KSTC STC20120613083009606/13/12 08:30:31  5-MIN KSTC 131430Z 17007KT 10SM FEW120 17/08 A3008 880 55 1400 170/07 RMK AO2
14926KSTC STC20120613083509606/13/12 08:35:31  5-MIN KSTC 131435Z 17008KT 10SM FEW110 17/09 A3008 880 57 1400 170/08 RMK AO2
14926KSTC STC20120613084009606/13/12 08:40:31  5-MIN KSTC 131440Z 17006KT 10SM FEW110 17/09 A3008 880 57 1400 170/06 RMK AO2
14926KSTC STC20120613084509306/13/12 08:45:31  5-MIN KSTC 131445Z 17008KT 10SM CLR 17/09 A3008 880 57 1400 170/08 RMK AO2
14926KSTC STC20120613085011606/13/12 08:50:31  5-MIN KSTC 131450Z 18010KT 10SM CLR 17/09 A3007 880 57 1400 180/10 RMK AO2 SLP194 T01720089 53003
14926KSTC STC20120613085509306/13/12 08:55:31  5-MIN KSTC 131455Z 18009KT 10SM CLR 18/09 A3008 880 55 1500 170/09 RMK AO2
14926KSTC STC20120613090009606/13/12 09:00:31  5-MIN KSTC 131500Z 19012KT 10SM FEW075 18/09 A3007 880 55 1500 190/12 RMK AO2
14926KSTC STC20120613090510306/13/12 09:05:31  5-MIN KSTC 131505Z 18008KT 10SM FEW055 SCT095 18/09 A3007 890 55 1500 180/08 RMK AO2
14926KSTC STC20120613091011006/13/12 09:10:31  5-MIN KSTC 131510Z 18011KT 10SM FEW055 SCT070 BKN100 18/09 A3007 890 55 1500 180/11 RMK AO2
14926KSTC STC20120613091511006/13/12 09:15:31  5-MIN KSTC 131515Z 18009KT 10SM FEW060 SCT075 BKN095 18/09 A3007 890 55 1500 180/09 RMK AO2
14926KSTC STC20120613092010306/13/12 09:20:31  5-MIN KSTC 131520Z 18012KT 10SM SCT075 BKN095 17/09 A3007 890 57 1400 180/12 RMK AO2
14926KSTC STC20120613092510306/13/12 09:25:31  5-MIN KSTC 131525Z 18009KT 10SM SCT080 OVC095 17/09 A3007 890 57 1400 170/09 RMK AO2
14926KSTC STC20120613093010306/13/12 09:30:31  5-MIN KSTC 131530Z 17011KT 10SM SCT075 OVC095 17/09 A3007 890 60 1400 170/11 RMK AO2
14926KSTC STC20120613093510306/13/12 09:35:31  5-MIN KSTC 131535Z 18009KT 10SM FEW080 OVC090 17/09 A3007 890 60 1400 180/09 RMK AO2
14926KSTC STC20120613094009606/13/12 09:40:31  5-MIN KSTC 131540Z 17007KT 10SM OVC090 17/10 A3007 890 62 1400 170/07 RMK AO2
14926KSTC STC20120613094511206/13/12 09:45:31  5-MIN KSTC 131545Z 18008KT 10SM -RA OVC090 17/10 A3007 890 64 1300 170/08 RMK AO2 RAB43 P0000
14926KSTC STC20120613095013606/13/12 09:50:31  5-MIN KSTC 131550Z 17009KT 10SM -RA SCT075 OVC090 17/11 A3007 890 67 1300 170/09 RMK AO2 RAB43 SLP192 P0000 T01670106
14926KSTC STC20120613095511306/13/12 09:55:31  5-MIN KSTC 131555Z 17010KT 10SM -RA SCT075 OVC090 16/11 A3007 890 69 1300 170/10 RMK AO2 P0000
14926KSTC STC20120613100010606/13/12 10:00:31  5-MIN KSTC 131600Z 18008KT 10SM -RA OVC090 16/11 A3007 890 72 1200 180/08 RMK AO2 P0000
14926KSTC STC20120613100510606/13/12 10:05:31  5-MIN KSTC 131605Z 18007KT 10SM -RA OVC090 16/11 A3007 890 74 1200 180/07 RMK AO2 P0000
14926KSTC STC20120613101011306/13/12 10:10:31  5-MIN KSTC 131610Z 16008KT 10SM -RA FEW075 OVC090 15/11 A3007 890 77 1100 160/08 RMK AO2 P0001
14926KSTC STC20120613101511306/13/12 10:15:31  5-MIN KSTC 131615Z 16008KT 10SM -RA FEW075 OVC090 15/11 A3006 890 77 1100 160/08 RMK AO2 P0001
14926KSTC STC20120613102010606/13/12 10:20:31  5-MIN KSTC 131620Z 17010KT 10SM -RA OVC095 15/11 A3007 890 77 1100 170/10 RMK AO2 P0001
14926KSTC STC20120613102510606/13/12 10:25:31  5-MIN KSTC 131625Z 18007KT 10SM -RA OVC095 15/11 A3007 890 77 1100 180/07 RMK AO2 P0001
14926KSTC STC20120613103010606/13/12 10:30:31  5-MIN KSTC 131630Z 17008KT 10SM -RA OVC095 15/11 A3006 890 77 1100 170/08 RMK AO2 P0001
14926KSTC STC20120613103510606/13/12 10:35:31  5-MIN KSTC 131635Z 16007KT 10SM -RA OVC095 14/11 A3006 900 80 1100 160/07 RMK AO2 P0001
14926KSTC STC20120613104010606/13/12 10:40:31  5-MIN KSTC 131640Z 16007KT 10SM -RA OVC095 14/12 A3005 900 83 1100 160/07 RMK AO2 P0001
14926KSTC STC20120613104510606/13/12 10:45:31  5-MIN KSTC 131645Z 16005KT 10SM -RA OVC095 14/12 A3006 900 83 1100 150/05 RMK AO2 P0001
14926KSTC STC20120613105012306/13/12 10:50:31  5-MIN KSTC 131650Z 15008KT 10SM -RA OVC095 14/12 A3006 900 83 1100 150/08 RMK AO2 SLP190 P0002 T01440117
14926KSTC STC20120613105510606/13/12 10:55:31  5-MIN KSTC 131655Z 16007KT 10SM -RA OVC090 14/12 A3006 900 83 1100 160/07 RMK AO2 P0000
14926KSTC STC20120613110010606/13/12 11:00:31  5-MIN KSTC 131700Z 16007KT 10SM -RA OVC090 14/12 A3006 900 83 1100 150/07 RMK AO2 P0000
14926KSTC STC20120613110510606/13/12 11:05:31  5-MIN KSTC 131705Z 13007KT 10SM -RA OVC095 14/12 A3005 910 83 1100 130/07 RMK AO2 P0000
14926KSTC STC20120613111010606/13/12 11:10:31  5-MIN KSTC 131710Z 13005KT 10SM -RA OVC095 14/12 A3005 910 83 1100 130/05 RMK AO2 P0000
14926KSTC STC20120613111510506/13/12 11:15:31  5-MIN KSTC 131715Z 14005KT 9SM -RA OVC095 15/12 A3004 910 83 1200 140/05 RMK AO2 P0001
14926KSTC STC20120613112010506/13/12 11:20:31  5-MIN KSTC 131720Z 12006KT 9SM -RA OVC095 15/12 A3004 920 80 1200 120/06 RMK AO2 P0001
14926KSTC STC20120613112510606/13/12 11:25:31  5-MIN KSTC 131725Z 13004KT 10SM -RA OVC100 14/12 A3004 920 83 1100 120/04 RMK AO2 P0001
14926KSTC STC20120613113010606/13/12 11:30:31  5-MIN KSTC 131730Z 12006KT 10SM -RA OVC100 14/12 A3004 920 83 1100 120/06 RMK AO2 P0001
14926KSTC STC20120613113510606/13/12 11:35:31  5-MIN KSTC 131735Z 13006KT 10SM -RA OVC100 14/11 A3004 910 80 1100 130/06 RMK AO2 P0001
14926KSTC STC20120613114010606/13/12 11:40:31  5-MIN KSTC 131740Z 13005KT 10SM -RA OVC100 14/11 A3004 910 80 1100 130/05 RMK AO2 P0001
14926KSTC STC20120613114510606/13/12 11:45:31  5-MIN KSTC 131745Z 00000KT 10SM -RA OVC100 14/12 A3005 910 83 1100 000/00 RMK AO2 P0001
14926KSTC STC20120613115014706/13/12 11:50:31  5-MIN KSTC 131750Z 10003KT 10SM -RA OVC100 15/12 A3004 910 80 1200 100/03 RMK AO2 SLP185 P0001 60003 T01500117 10178 20133 58004
14926KSTC STC20120613115509606/13/12 11:55:31  5-MIN KSTC 131755Z 09003KT 10SM OVC100 15/12 A3004 920 80 1200 090/03 RMK AO2
14926KSTC STC20120613120009606/13/12 12:00:31  5-MIN KSTC 131800Z 09003KT 10SM OVC095 15/12 A3004 920 80 1200 090/03 RMK AO2
14926KSTC STC20120613120509606/13/12 12:05:31  5-MIN KSTC 131805Z 09004KT 10SM OVC090 15/12 A3003 920 83 1200 090/04 RMK AO2
14926KSTC STC20120613121009606/13/12 12:10:31  5-MIN KSTC 131810Z 09005KT 10SM OVC090 15/12 A3003 930 83 1200 090/05 RMK AO2
14926KSTC STC20120613121509606/13/12 12:15:31  5-MIN KSTC 131815Z 09006KT 10SM OVC090 15/12 A3002 930 83 1200 090/06 RMK AO2
14926KSTC STC20120613122009606/13/12 12:20:31  5-MIN KSTC 131820Z 09007KT 10SM OVC090 15/12 A3002 940 83 1200 090/07 RMK AO2
14926KSTC STC20120613122509606/13/12 12:25:31  5-MIN KSTC 131825Z 09007KT 10SM OVC090 15/12 A3001 940 83 1200 090/07 RMK AO2
14926KSTC STC20120613123009606/13/12 12:30:31  5-MIN KSTC 131830Z 09007KT 10SM OVC090 15/12 A3001 940 80 1200 090/07 RMK AO2
14926KSTC STC20120613123510306/13/12 12:35:31  5-MIN KSTC 131835Z 10007KT 10SM FEW047 OVC090 15/12 A3000 950 83 1200 100/07 RMK AO2
14926KSTC STC20120613124011006/13/12 12:40:31  5-MIN KSTC 131840Z 10008KT 10SM FEW049 OVC095 15/12 A3000 960 80 1200 100/08 RMK AO2 PRESFR
14926KSTC STC20120613124509606/13/12 12:45:31  5-MIN KSTC 131845Z 10007KT 10SM OVC100 15/12 A2999 960 83 1200 100/07 RMK AO2
14926KSTC STC20120613125013606/13/12 12:50:31  5-MIN KSTC 131850Z 10007KT 10SM -RA FEW050 OVC095 16/12 A2999 960 80 1300 100/07 RMK AO2 RAB48 SLP167 P0000 T01560122
14926KSTC STC20120613125511306/13/12 12:55:31  5-MIN KSTC 131855Z 11006KT 10SM -RA FEW050 OVC100 16/12 A2999 960 80 1300 110/06 RMK AO2 P0000
14926KSTC STC20120613130011706/13/12 13:00:31  5-MIN KSTC 131900Z 10007KT 10SM FEW050 OVC100 16/12 A2999 970 80 1300 100/07 RMK AO2 RAE1858 P0000
14926KSTC STC20120613130511006/13/12 13:05:31  5-MIN KSTC 131905Z 11006KT 10SM BKN095 16/12 A2998 970 77 1400 110/06 RMK AO2 RAE1858 P0000
14926KSTC STC20120613131011006/13/12 13:10:31  5-MIN KSTC 131910Z 11006KT 10SM BKN095 16/12 A2998 970 77 1400 110/06 RMK AO2 RAE1858 P0000
14926KSTC STC20120613131511006/13/12 13:15:31  5-MIN KSTC 131915Z 11009KT 10SM SCT095 17/12 A2997 980 75 1400 110/09 RMK AO2 RAE1858 P0000
14926KSTC STC20120613132011006/13/12 13:20:31  5-MIN KSTC 131920Z 11009KT 10SM BKN090 17/12 A2997 980 72 1400 100/09 RMK AO2 RAE1858 P0000
14926KSTC STC20120613132511006/13/12 13:25:31  5-MIN KSTC 131925Z 10008KT 10SM BKN090 17/12 A2997 980 75 1400 100/08 RMK AO2 RAE1858 P0000
14926KSTC STC20120613133011006/13/12 13:30:31  5-MIN KSTC 131930Z 11007KT 10SM BKN090 17/12 A2997 980 72 1400 100/07 RMK AO2 RAE1858 P0000
14926KSTC STC20120613133511006/13/12 13:35:31  5-MIN KSTC 131935Z 11007KT 10SM BKN090 17/12 A2997 980 75 1400 110/07 RMK AO2 RAE1858 P0000
14926KSTC STC20120613134011006/13/12 13:40:31  5-MIN KSTC 131940Z 13008KT 10SM OVC090 17/12 A2996 990 69 1500 120/08 RMK AO2 RAE1858 P0000
14926KSTC STC20120613134511606/13/12 13:45:31  5-MIN KSTC 131945Z 13008G17KT 10SM OVC090 17/12 A2996 990 69 1500 120/08G17 RMK AO2 RAE1858 P0000
14926KSTC STC20120613135013306/13/12 13:50:31  5-MIN KSTC 131950Z 12009G17KT 10SM OVC090 18/12 A2996 990 67 1600 120/09G17 RMK AO2 RAE1858 SLP156 P0000 T01780117
14926KSTC STC20120613135510206/13/12 13:55:31  5-MIN KSTC 131955Z 13010G16KT 10SM OVC090 17/11 A2996 990 67 1500 120/10G16 RMK AO2
14926KSTC STC20120613140010206/13/12 14:00:31  5-MIN KSTC 132000Z 12009G17KT 10SM OVC085 17/11 A2995 990 67 1500 120/09G17 RMK AO2
14926KSTC STC20120613140510306/13/12 14:05:31  5-MIN KSTC 132005Z 12008G17KT 10SM OVC085 17/11 A2995 1000 67 1500 120/08G17 RMK AO2
14926KSTC STC20120613141009706/13/12 14:10:31  5-MIN KSTC 132010Z 12008KT 10SM OVC085 17/11 A2995 1000 67 1500 120/08 RMK AO2
14926KSTC STC20120613141509706/13/12 14:15:31  5-MIN KSTC 132015Z 12008KT 10SM OVC080 18/11 A2995 1000 64 1600 120/08 RMK AO2
14926KSTC STC20120613142009706/13/12 14:20:31  5-MIN KSTC 132020Z 12009KT 10SM OVC080 18/11 A2995 1000 64 1600 120/09 RMK AO2
14926KSTC STC20120613142509706/13/12 14:25:31  5-MIN KSTC 132025Z 12007KT 10SM OVC080 18/11 A2994 1010 64 1600 110/07 RMK AO2
14926KSTC STC20120613143009706/13/12 14:30:31  5-MIN KSTC 132030Z 12008KT 10SM OVC080 18/11 A2994 1010 62 1700 120/08 RMK AO2
14926KSTC STC20120613143510306/13/12 14:35:31  5-MIN KSTC 132035Z 11010G15KT 10SM OVC080 19/11 A2994 1010 60 1700 110/10G15 RMK AO2
14926KSTC STC20120613144011006/13/12 14:40:31  5-MIN KSTC 132040Z 12010G16KT 10SM BKN080 OVC100 19/11 A2994 1010 58 1700 120/10G16 RMK AO2
14926KSTC STC20120613144510306/13/12 14:45:31  5-MIN KSTC 132045Z 12008G16KT 10SM OVC080 19/11 A2994 1010 60 1700 120/08G16 RMK AO2
14926KSTC STC20120613145013206/13/12 14:50:31  5-MIN KSTC 132050Z 12007G17KT 10SM OVC080 19/11 A2994 1010 60 1700 120/07G17 RMK AO2 SLP146 60000 T01890111 58010
14926KSTC STC20120613145510306/13/12 14:55:31  5-MIN KSTC 132055Z 12008G17KT 10SM OVC080 19/11 A2993 1020 58 1700 110/08G17 RMK AO2
14926KSTC STC20120613150010306/13/12 15:00:31  5-MIN KSTC 132100Z 12007G16KT 10SM OVC080 19/11 A2993 1020 60 1700 120/07G16 RMK AO2
14926KSTC STC20120613150511906/13/12 15:05:31  5-MIN KSTC 132105Z 12008G15KT 080V140 10SM OVC085 19/11 A2993 1020 58 1800 120/08G15 080V140 RMK AO2
14926KSTC STC20120613151010306/13/12 15:10:31  5-MIN KSTC 132110Z 12009G15KT 10SM OVC085 19/11 A2993 1020 56 1800 120/09G15 RMK AO2
14926KSTC STC20120613151509706/13/12 15:15:31  5-MIN KSTC 132115Z 12009KT 10SM OVC090 20/11 A2992 1020 56 1900 120/09 RMK AO2
14926KSTC STC20120613152010306/13/12 15:20:31  5-MIN KSTC 132120Z 12010G16KT 10SM OVC085 21/11 A2992 1030 54 2000 120/10G16 RMK AO2
14926KSTC STC20120613152510306/13/12 15:25:31  5-MIN KSTC 132125Z 12010G18KT 10SM BKN090 21/11 A2992 1030 50 2000 120/10G18 RMK AO2
14926KSTC STC20120613153010306/13/12 15:30:31  5-MIN KSTC 132130Z 14011G18KT 10SM BKN090 21/11 A2991 1030 52 2000 130/11G18 RMK AO2
14926KSTC STC20120613153510306/13/12 15:35:31  5-MIN KSTC 132135Z 14013G22KT 10SM SCT090 21/11 A2991 1040 50 2000 130/13G22 RMK AO2
14926KSTC STC20120613154010306/13/12 15:40:31  5-MIN KSTC 132140Z 13012G22KT 10SM FEW090 21/11 A2991 1040 50 2000 130/12G22 RMK AO2
14926KSTC STC20120613154510306/13/12 15:45:31  5-MIN KSTC 132145Z 13013G20KT 10SM FEW090 21/11 A2991 1040 50 2000 120/13G20 RMK AO2
14926KSTC STC20120613155011706/13/12 15:50:31  5-MIN KSTC 132150Z 13014G20KT 10SM CLR 22/11 A2991 1040 49 2100 130/14G20 RMK AO2 SLP136 T02170106
14926KSTC STC20120613155510006/13/12 15:55:31  5-MIN KSTC 132155Z 13011G20KT 10SM CLR 22/11 A2991 1040 49 2100 120/11G20 RMK AO2
14926KSTC STC20120613160010006/13/12 16:00:31  5-MIN KSTC 132200Z 14013G18KT 10SM CLR 22/11 A2991 1040 49 2100 140/13G18 RMK AO2
14926KSTC STC20120613160510006/13/12 16:05:31  5-MIN KSTC 132205Z 13015G19KT 10SM CLR 22/11 A2990 1040 47 2200 130/15G19 RMK AO2
14926KSTC STC20120613161010006/13/12 16:10:31  5-MIN KSTC 132210Z 12013G19KT 10SM CLR 22/11 A2990 1050 47 2200 120/13G19 RMK AO2
14926KSTC STC20120613161510006/13/12 16:15:31  5-MIN KSTC 132215Z 13011G18KT 10SM CLR 22/11 A2990 1040 47 2200 130/11G18 RMK AO2
14926KSTC STC20120613162010006/13/12 16:20:31  5-MIN KSTC 132220Z 14013G21KT 10SM CLR 22/11 A2990 1050 47 2200 130/13G21 RMK AO2
14926KSTC STC20120613162510306/13/12 16:25:31  5-MIN KSTC 132225Z 13011G21KT 10SM FEW080 22/11 A2990 1040 49 2200 130/11G21 RMK AO2
14926KSTC STC20120613163010306/13/12 16:30:31  5-MIN KSTC 132230Z 13007G17KT 10SM SCT080 22/11 A2990 1040 49 2200 130/07G17 RMK AO2
14926KSTC STC20120613163510306/13/12 16:35:31  5-MIN KSTC 132235Z 12010G15KT 10SM BKN080 22/11 A2990 1040 50 2100 120/10G15 RMK AO2
14926KSTC STC20120613164010306/13/12 16:40:31  5-MIN KSTC 132240Z 13009G15KT 10SM BKN085 22/11 A2990 1050 49 2200 130/09G15 RMK AO2
14926KSTC STC20120613164511006/13/12 16:45:31  5-MIN KSTC 132245Z 14011G17KT 10SM BKN080 BKN100 22/11 A2990 1050 49 2200 140/11G17 RMK AO2
14926KSTC STC20120613165012006/13/12 16:50:31  5-MIN KSTC 132250Z 14009G17KT 10SM BKN085 22/11 A2990 1050 49 2200 140/09G17 RMK AO2 SLP131 T02220111
14926KSTC STC20120613165510306/13/12 16:55:31  5-MIN KSTC 132255Z 13008G15KT 10SM OVC085 22/12 A2990 1050 51 2200 130/08G15 RMK AO2
14926KSTC STC20120613170011006/13/12 17:00:31  5-MIN KSTC 132300Z 14009G15KT 10SM BKN080 OVC095 23/12 A2989 1050 49 2200 140/09G15 RMK AO2
14926KSTC STC20120613170509706/13/12 17:05:31  5-MIN KSTC 132305Z 15009KT 10SM OVC085 22/12 A2989 1050 51 2200 150/09 RMK AO2
14926KSTC STC20120613171010406/13/12 17:10:31  5-MIN KSTC 132310Z 16008KT 10SM BKN080 OVC095 22/12 A2989 1050 51 2200 160/08 RMK AO2
14926KSTC STC20120613171510406/13/12 17:15:31  5-MIN KSTC 132315Z 16012KT 10SM BKN080 OVC095 23/11 A2989 1050 47 2200 160/12 RMK AO2
14926KSTC STC20120613172011006/13/12 17:20:31  5-MIN KSTC 132320Z 17014G20KT 10SM BKN080 OVC095 23/11 A2989 1050 45 2200 170/14G20 RMK AO2
14926KSTC STC20120613172510306/13/12 17:25:31  5-MIN KSTC 132325Z 17010G20KT 10SM OVC080 22/11 A2989 1050 47 2200 160/10G20 RMK AO2
14926KSTC STC20120613173010406/13/12 17:30:31  5-MIN KSTC 132330Z 17009KT 10SM BKN075 OVC090 22/11 A2989 1050 49 2200 170/09 RMK AO2
14926KSTC STC20120613173509706/13/12 17:35:31  5-MIN KSTC 132335Z 17009KT 10SM OVC075 22/11 A2989 1050 49 2200 160/09 RMK AO2
14926KSTC STC20120613174009706/13/12 17:40:31  5-MIN KSTC 132340Z 17009KT 10SM OVC075 22/11 A2989 1050 49 2200 160/09 RMK AO2
14926KSTC STC20120613174509706/13/12 17:45:31  5-MIN KSTC 132345Z 17010KT 10SM OVC075 22/11 A2989 1060 49 2200 170/10 RMK AO2
14926KSTC STC20120613175015106/13/12 17:50:31  5-MIN KSTC 132350Z 17010G16KT 10SM BKN075 OVC090 22/11 A2989 1060 47 2200 170/10G16 RMK AO2 SLP128 60000 T02220106 10228 20150 56036
14926KSTC STC20120613175510406/13/12 17:55:31  5-MIN KSTC 132355Z 17010KT 10SM BKN075 OVC090 22/11 A2989 1050 47 2200 170/10 RMK AO2
14926KSTC STC20120613180010306/13/12 18:00:31  5-MIN KSTC 140000Z 17011G16KT 10SM OVC075 22/10 A2989 1050 47 2100 170/11G16 RMK AO2
14926KSTC STC20120613180510306/13/12 18:05:31  5-MIN KSTC 140005Z 17009G16KT 10SM OVC075 22/10 A2989 1060 47 2100 170/09G16 RMK AO2
14926KSTC STC20120613181009706/13/12 18:10:31  5-MIN KSTC 140010Z 17010KT 10SM OVC075 22/10 A2989 1050 47 2100 170/10 RMK AO2
14926KSTC STC20120613181509706/13/12 18:15:31  5-MIN KSTC 140015Z 17009KT 10SM OVC075 22/10 A2989 1050 47 2100 170/09 RMK AO2
14926KSTC STC20120613182009706/13/12 18:20:31  5-MIN KSTC 140020Z 16008KT 10SM OVC070 22/10 A2989 1050 47 2100 160/08 RMK AO2
14926KSTC STC20120613182509706/13/12 18:25:31  5-MIN KSTC 140025Z 16010KT 10SM OVC070 22/11 A2989 1050 49 2100 160/10 RMK AO2
14926KSTC STC20120613183010306/13/12 18:30:31  5-MIN KSTC 140030Z 16011G16KT 10SM OVC070 22/10 A2989 1050 47 2100 160/11G16 RMK AO2
14926KSTC STC20120613183509706/13/12 18:35:31  5-MIN KSTC 140035Z 16012KT 10SM OVC070 22/10 A2989 1060 47 2100 160/12 RMK AO2
14926KSTC STC20120613184009706/13/12 18:40:31  5-MIN KSTC 140040Z 16011KT 10SM OVC070 21/10 A2989 1050 48 2000 160/11 RMK AO2
14926KSTC STC20120613184509706/13/12 18:45:31  5-MIN KSTC 140045Z 15009KT 10SM OVC070 21/10 A2989 1050 48 2000 150/09 RMK AO2
14926KSTC STC20120613185011406/13/12 18:50:31  5-MIN KSTC 140050Z 15008KT 10SM OVC070 21/10 A2989 1050 48 2000 150/08 RMK AO2 SLP128 T02110100
14926KSTC STC20120613185509706/13/12 18:55:31  5-MIN KSTC 140055Z 15008KT 10SM OVC070 21/11 A2989 1050 50 2000 150/08 RMK AO2
14926KSTC STC20120613190009706/13/12 19:00:31  5-MIN KSTC 140100Z 15008KT 10SM OVC070 21/11 A2989 1050 50 2000 150/08 RMK AO2
14926KSTC STC20120613190509706/13/12 19:05:31  5-MIN KSTC 140105Z 14006KT 10SM OVC070 21/11 A2989 1060 50 2000 140/06 RMK AO2
14926KSTC STC20120613191009706/13/12 19:10:31  5-MIN KSTC 140110Z 14007KT 10SM OVC070 21/11 A2989 1060 52 2000 140/07 RMK AO2
14926KSTC STC20120613191509706/13/12 19:15:31  5-MIN KSTC 140115Z 14007KT 10SM OVC070 21/11 A2989 1060 52 2000 140/07 RMK AO2
14926KSTC STC20120613192009706/13/12 19:20:31  5-MIN KSTC 140120Z 14006KT 10SM OVC070 21/11 A2989 1060 54 2000 140/06 RMK AO2
14926KSTC STC20120613192509706/13/12 19:25:31  5-MIN KSTC 140125Z 14006KT 10SM OVC070 21/11 A2989 1060 52 2000 140/06 RMK AO2
14926KSTC STC20120613193009706/13/12 19:30:31  5-MIN KSTC 140130Z 14005KT 10SM OVC070 21/11 A2989 1060 54 2000 130/05 RMK AO2
14926KSTC STC20120613193510406/13/12 19:35:31  5-MIN KSTC 140135Z 14006KT 10SM BKN070 OVC080 21/11 A2989 1050 54 2000 140/06 RMK AO2
14926KSTC STC20120613194009706/13/12 19:40:31  5-MIN KSTC 140140Z 14007KT 10SM OVC075 21/11 A2989 1050 54 2000 140/07 RMK AO2
14926KSTC STC20120613194509706/13/12 19:45:31  5-MIN KSTC 140145Z 14007KT 10SM OVC075 21/11 A2989 1050 54 2000 140/07 RMK AO2
14926KSTC STC20120613195011406/13/12 19:50:31  5-MIN KSTC 140150Z 14007KT 10SM OVC080 21/11 A2989 1050 54 2000 140/07 RMK AO2 SLP128 T02060111
14926KSTC STC20120613195509706/13/12 19:55:31  5-MIN KSTC 140155Z 14008KT 10SM OVC075 21/11 A2990 1050 54 2000 140/08 RMK AO2
14926KSTC STC20120613200009706/13/12 20:00:31  5-MIN KSTC 140200Z 14008KT 10SM OVC075 21/11 A2989 1050 54 2000 140/08 RMK AO2
14926KSTC STC20120613200509706/13/12 20:05:31  5-MIN KSTC 140205Z 14010KT 10SM OVC080 21/11 A2990 1050 52 2000 140/10 RMK AO2
14926KSTC STC20120613201010406/13/12 20:10:31  5-MIN KSTC 140210Z 14010KT 10SM FEW070 OVC085 21/11 A2990 1050 52 2000 140/10 RMK AO2
14926KSTC STC20120613201511006/13/12 20:15:31  5-MIN KSTC 140215Z 15011G16KT 10SM SCT070 BKN085 21/11 A2990 1050 52 2000 150/11G16 RMK AO2
14926KSTC STC20120613202011006/13/12 20:20:31  5-MIN KSTC 140220Z 15009G16KT 10SM SCT070 OVC085 21/10 A2990 1050 50 2000 150/09G16 RMK AO2
14926KSTC STC20120613202510406/13/12 20:25:31  5-MIN KSTC 140225Z 15008KT 10SM BKN070 OVC085 21/10 A2990 1050 50 2000 150/08 RMK AO2
14926KSTC STC20120613203010406/13/12 20:30:31  5-MIN KSTC 140230Z 15009KT 10SM BKN070 OVC085 21/10 A2990 1040 50 2000 140/09 RMK AO2
14926KSTC STC20120613203511006/13/12 20:35:31  5-MIN KSTC 140235Z 14009G16KT 10SM BKN070 OVC090 21/10 A2990 1040 50 2000 140/09G16 RMK AO2
14926KSTC STC20120613204010406/13/12 20:40:31  5-MIN KSTC 140240Z 14008KT 10SM BKN070 OVC090 21/09 A2990 1040 48 2000 140/08 RMK AO2
14926KSTC STC20120613204510406/13/12 20:45:31  5-MIN KSTC 140245Z 13010KT 10SM BKN070 OVC090 21/09 A2990 1050 48 2000 130/10 RMK AO2
14926KSTC STC20120613205012706/13/12 20:50:31  5-MIN KSTC 140250Z 13009KT 10SM BKN070 OVC090 21/09 A2990 1050 48 2000 130/09 RMK AO2 SLP131 T02060094 56014
14926KSTC STC20120613205510406/13/12 20:55:31  5-MIN KSTC 140255Z 13010KT 10SM SCT075 BKN090 21/10 A2990 1040 50 2000 130/10 RMK AO2
14926KSTC STC20120613210010406/13/12 21:00:31  5-MIN KSTC 140300Z 13010KT 10SM SCT075 BKN090 21/10 A2990 1050 50 2000 130/10 RMK AO2
14926KSTC STC20120613210510406/13/12 21:05:31  5-MIN KSTC 140305Z 14011KT 10SM SCT075 BKN090 21/10 A2990 1050 50 2000 140/11 RMK AO2
14926KSTC STC20120613211011006/13/12 21:10:31  5-MIN KSTC 140310Z 13013G18KT 10SM FEW075 BKN090 21/09 A2989 1050 48 2000 130/13G18 RMK AO2
14926KSTC STC20120613211510306/13/12 21:15:31  5-MIN KSTC 140315Z 13010G18KT 10SM BKN085 21/09 A2989 1050 46 2000 130/10G18 RMK AO2
14926KSTC STC20120613212010306/13/12 21:20:31  5-MIN KSTC 140320Z 14010G17KT 10SM BKN085 21/09 A2989 1050 46 2000 140/10G17 RMK AO2
14926KSTC STC20120613212510306/13/12 21:25:31  5-MIN KSTC 140325Z 14009G18KT 10SM BKN085 21/09 A2989 1050 46 2000 140/09G18 RMK AO2
14926KSTC STC20120613213010306/13/12 21:30:31  5-MIN KSTC 140330Z 14010G18KT 10SM BKN085 21/09 A2990 1050 46 2000 140/10G18 RMK AO2
14926KSTC STC20120613213509706/13/12 21:35:31  5-MIN KSTC 140335Z 13010KT 10SM OVC080 21/09 A2990 1050 46 2000 130/10 RMK AO2
14926KSTC STC20120613214009706/13/12 21:40:31  5-MIN KSTC 140340Z 14009KT 10SM OVC080 21/09 A2990 1050 46 2000 140/09 RMK AO2
14926KSTC STC20120613214510306/13/12 21:45:31  5-MIN KSTC 140345Z 14010G15KT 10SM OVC080 20/09 A2990 1050 48 1900 140/10G15 RMK AO2
14926KSTC STC20120613215012506/13/12 21:50:31  5-MIN KSTC 140350Z AUTO 13010G15KT 10SM OVC080 21/09 A2990 1050 46 2000 130/10G15 RMK AO2 SLP131 T02060089
14926KSTC STC20120613215510206/13/12 21:55:31  5-MIN KSTC 140355Z AUTO 13010KT 10SM OVC080 20/09 A2990 1050 48 1900 130/10 RMK AO2
14926KSTC STC20120613220010206/13/12 22:00:31  5-MIN KSTC 140400Z AUTO 14009KT 10SM OVC080 20/09 A2990 1050 50 1900 140/09 RMK AO2
14926KSTC STC20120613220510206/13/12 22:05:31  5-MIN KSTC 140405Z AUTO 14011KT 10SM BKN080 20/09 A2990 1050 50 1900 140/11 RMK AO2
14926KSTC STC20120613221010206/13/12 22:10:31  5-MIN KSTC 140410Z AUTO 14010KT 10SM BKN080 20/09 A2990 1050 50 1900 140/10 RMK AO2
14926KSTC STC20120613221510206/13/12 22:15:31  5-MIN KSTC 140415Z AUTO 14008KT 10SM SCT080 19/09 A2990 1050 52 1800 140/08 RMK AO2
14926KSTC STC20120613222010206/13/12 22:20:31  5-MIN KSTC 140420Z AUTO 13009KT 10SM FEW080 19/09 A2990 1050 52 1800 130/09 RMK AO2
14926KSTC STC20120613222510206/13/12 22:25:31  5-MIN KSTC 140425Z AUTO 14010KT 10SM FEW080 19/09 A2990 1050 52 1800 140/10 RMK AO2
14926KSTC STC20120613223009906/13/12 22:30:31  5-MIN KSTC 140430Z AUTO 13008KT 10SM CLR 19/09 A2989 1050 52 1900 130/08 RMK AO2
14926KSTC STC20120613223509906/13/12 22:35:31  5-MIN KSTC 140435Z AUTO 14010KT 10SM CLR 19/09 A2989 1050 52 1900 140/10 RMK AO2
14926KSTC STC20120613224009906/13/12 22:40:31  5-MIN KSTC 140440Z AUTO 13011KT 10SM CLR 19/09 A2989 1050 52 1900 130/11 RMK AO2
14926KSTC STC20120613224510506/13/12 22:45:31  5-MIN KSTC 140445Z AUTO 13010G17KT 10SM CLR 19/09 A2989 1060 52 1900 130/10G17 RMK AO2
14926KSTC STC20120613225012206/13/12 22:50:31  5-MIN KSTC 140450Z AUTO 13010G17KT 10SM CLR 19/09 A2988 1060 52 1900 130/10G17 RMK AO2 SLP126 T01940094
14926KSTC STC20120613225509906/13/12 22:55:31  5-MIN KSTC 140455Z AUTO 13010KT 10SM CLR 19/09 A2988 1060 52 1900 130/10 RMK AO2
14926KSTC STC20120613230009906/13/12 23:00:31  5-MIN KSTC 140500Z AUTO 13009KT 10SM CLR 19/09 A2988 1060 52 1900 130/09 RMK AO2
14926KSTC STC20120613230509906/13/12 23:05:31  5-MIN KSTC 140505Z AUTO 14009KT 10SM CLR 19/09 A2988 1070 52 1900 140/09 RMK AO2
14926KSTC STC20120613231009906/13/12 23:10:31  5-MIN KSTC 140510Z AUTO 13008KT 10SM CLR 19/09 A2988 1070 52 1900 130/08 RMK AO2
14926KSTC STC20120613231509906/13/12 23:15:31  5-MIN KSTC 140515Z AUTO 13009KT 10SM CLR 19/09 A2987 1070 52 1900 130/09 RMK AO2
14926KSTC STC20120613232009906/13/12 23:20:31  5-MIN KSTC 140520Z AUTO 13009KT 10SM CLR 19/09 A2987 1070 54 1800 130/09 RMK AO2
14926KSTC STC20120613232509906/13/12 23:25:31  5-MIN KSTC 140525Z AUTO 13010KT 10SM CLR 19/09 A2987 1070 54 1800 130/10 RMK AO2
14926KSTC STC20120613233009906/13/12 23:30:31  5-MIN KSTC 140530Z AUTO 13008KT 10SM CLR 19/09 A2987 1070 54 1800 130/08 RMK AO2
14926KSTC STC20120613233509906/13/12 23:35:31  5-MIN KSTC 140535Z AUTO 14009KT 10SM CLR 19/09 A2987 1070 54 1800 140/09 RMK AO2
14926KSTC STC20120613234009906/13/12 23:40:31  5-MIN KSTC 140540Z AUTO 14010KT 10SM CLR 19/09 A2987 1070 54 1800 130/10 RMK AO2
14926KSTC STC20120613234509906/13/12 23:45:31  5-MIN KSTC 140545Z AUTO 14009KT 10SM CLR 19/09 A2987 1080 54 1800 140/09 RMK AO2
14926KSTC STC20120613235014406/13/12 23:50:31  5-MIN KSTC 140550Z AUTO 14009KT 10SM CLR 19/09 A2987 1080 54 1800 140/09 RMK AO2 SLP120 T01890094 10222 20189 402280089 53003
14926KSTC STC20120613235510506/13/12 23:55:31  5-MIN KSTC 140555Z AUTO 14012G17KT 10SM CLR 19/09 A2986 1080 54 1800 140/12G17 RMK AO2
14926KSTC STC20120614000009906/14/12 00:00:32  5-MIN KSTC 140600Z AUTO 14011KT 10SM CLR 19/09 A2986 1080 54 1800 140/11 RMK AO2
14926KSTC STC20120614000510506/14/12 00:05:31  5-MIN KSTC 140605Z AUTO 14010G17KT 10SM CLR 19/09 A2986 1080 54 1800 140/10G17 RMK AO2
14926KSTC STC20120614001010506/14/12 00:10:31  5-MIN KSTC 140610Z AUTO 14009G16KT 10SM CLR 19/09 A2986 1080 54 1800 140/09G16 RMK AO2
14926KSTC STC20120614001509906/14/12 00:15:31  5-MIN KSTC 140615Z AUTO 14009KT 10SM CLR 19/09 A2986 1080 54 1800 140/09 RMK AO2
14926KSTC STC20120614002009906/14/12 00:20:31  5-MIN KSTC 140620Z AUTO 14009KT 10SM CLR 19/09 A2987 1080 54 1800 140/09 RMK AO2
14926KSTC STC20120614002509906/14/12 00:25:31  5-MIN KSTC 140625Z AUTO 15010KT 10SM CLR 19/09 A2987 1070 54 1800 150/10 RMK AO2
14926KSTC STC20120614003009906/14/12 00:30:31  5-MIN KSTC 140630Z AUTO 15010KT 10SM CLR 19/09 A2987 1080 54 1800 140/10 RMK AO2
14926KSTC STC20120614003509906/14/12 00:35:31  5-MIN KSTC 140635Z AUTO 15009KT 10SM CLR 19/09 A2987 1080 54 1800 150/09 RMK AO2
14926KSTC STC20120614004010506/14/12 00:40:31  5-MIN KSTC 140640Z AUTO 15011G16KT 10SM CLR 19/09 A2987 1080 54 1800 150/11G16 RMK AO2
14926KSTC STC20120614004510506/14/12 00:45:31  5-MIN KSTC 140645Z AUTO 15011G17KT 10SM CLR 19/09 A2986 1080 54 1800 150/11G17 RMK AO2
14926KSTC STC20120614005012206/14/12 00:50:31  5-MIN KSTC 140650Z AUTO 15010G17KT 10SM CLR 19/09 A2986 1080 54 1800 150/10G17 RMK AO2 SLP119 T01890094
14926KSTC STC20120614005509906/14/12 00:55:31  5-MIN KSTC 140655Z AUTO 15010KT 10SM CLR 19/09 A2986 1080 54 1800 140/10 RMK AO2
14926KSTC STC20120614010010506/14/12 01:00:31  5-MIN KSTC 140700Z AUTO 14009G17KT 10SM CLR 19/09 A2986 1080 54 1800 140/09G17 RMK AO2
14926KSTC STC20120614010510506/14/12 01:05:31  5-MIN KSTC 140705Z AUTO 15011G17KT 10SM CLR 19/09 A2986 1090 54 1800 150/11G17 RMK AO2
14926KSTC STC20120614011010506/14/12 01:10:31  5-MIN KSTC 140710Z AUTO 14010G17KT 10SM CLR 18/09 A2985 1090 56 1800 140/10G17 RMK AO2
14926KSTC STC20120614011509906/14/12 01:15:31  5-MIN KSTC 140715Z AUTO 14010KT 10SM CLR 18/09 A2984 1100 56 1800 140/10 RMK AO2
14926KSTC STC20120614012009906/14/12 01:20:31  5-MIN KSTC 140720Z AUTO 14011KT 10SM CLR 18/09 A2984 1100 56 1800 140/11 RMK AO2
14926KSTC STC20120614012510506/14/12 01:25:31  5-MIN KSTC 140725Z AUTO 14009G17KT 10SM CLR 18/10 A2983 1110 58 1800 140/09G17 RMK AO2
14926KSTC STC20120614013010506/14/12 01:30:31  5-MIN KSTC 140730Z AUTO 13010G17KT 10SM CLR 18/10 A2983 1110 58 1800 130/10G17 RMK AO2
14926KSTC STC20120614013509906/14/12 01:35:31  5-MIN KSTC 140735Z AUTO 15010KT 10SM CLR 18/10 A2982 1120 60 1700 150/10 RMK AO2
14926KSTC STC20120614014010506/14/12 01:40:31  5-MIN KSTC 140740Z AUTO 14012G15KT 10SM CLR 18/10 A2982 1120 58 1800 140/12G15 RMK AO2
14926KSTC STC20120614014509906/14/12 01:45:31  5-MIN KSTC 140745Z AUTO 14012KT 10SM CLR 18/10 A2982 1120 58 1800 140/12 RMK AO2
14926KSTC STC20120614015011606/14/12 01:50:31  5-MIN KSTC 140750Z AUTO 14011KT 10SM CLR 18/10 A2982 1120 58 1800 140/11 RMK AO2 SLP104 T01830100
14926KSTC STC20120614015510506/14/12 01:55:31  5-MIN KSTC 140755Z AUTO 14010G17KT 10SM CLR 18/10 A2982 1120 60 1700 140/10G17 RMK AO2
14926KSTC STC20120614020010806/14/12 02:00:31  5-MIN KSTC 140800Z AUTO 14010G16KT 10SM FEW075 18/10 A2982 1110 58 1800 140/10G16 RMK AO2
14926KSTC STC20120614020510806/14/12 02:05:31  5-MIN KSTC 140805Z AUTO 14011G16KT 10SM SCT075 18/10 A2982 1120 58 1800 140/11G16 RMK AO2
14926KSTC STC20120614021010806/14/12 02:10:31  5-MIN KSTC 140810Z AUTO 14011G16KT 10SM BKN075 18/10 A2982 1120 58 1800 140/11G16 RMK AO2
14926KSTC STC20120614021510806/14/12 02:15:31  5-MIN KSTC 140815Z AUTO 14009G17KT 10SM BKN080 18/10 A2981 1120 58 1800 140/09G17 RMK AO2
14926KSTC STC20120614022011506/14/12 02:20:31  5-MIN KSTC 140820Z AUTO 15010G18KT 10SM BKN075 BKN090 19/10 A2981 1130 56 1900 140/10G18 RMK AO2
14926KSTC STC20120614022511506/14/12 02:25:31  5-MIN KSTC 140825Z AUTO 14011G18KT 10SM BKN075 BKN090 18/10 A2981 1130 58 1800 140/11G18 RMK AO2
14926KSTC STC20120614023010206/14/12 02:30:31  5-MIN KSTC 140830Z AUTO 14012KT 10SM BKN075 18/10 A2981 1130 58 1800 140/12 RMK AO2
14926KSTC STC20120614023510206/14/12 02:35:31  5-MIN KSTC 140835Z AUTO 14011KT 10SM BKN080 18/10 A2980 1140 58 1800 140/11 RMK AO2
14926KSTC STC20120614024011506/14/12 02:40:31  5-MIN KSTC 140840Z AUTO 13010G16KT 10SM SCT075 BKN085 18/10 A2980 1140 58 1800 130/10G16 RMK AO2
14926KSTC STC20120614024510806/14/12 02:45:31  5-MIN KSTC 140845Z AUTO 14011G16KT 10SM BKN080 18/10 A2980 1140 58 1800 140/11G16 RMK AO2
14926KSTC STC20120614025013206/14/12 02:50:31  5-MIN KSTC 140850Z AUTO 13009KT 10SM FEW070 SCT085 18/10 A2979 1150 60 1800 130/09 RMK AO2 SLP094 T01780100 58012
14926KSTC STC20120614025511506/14/12 02:55:31  5-MIN KSTC 140855Z AUTO 13011G17KT 10SM SCT080 BKN090 18/10 A2979 1150 60 1800 130/11G17 RMK AO2
14926KSTC STC20120614030011506/14/12 03:00:31  5-MIN KSTC 140900Z AUTO 14012G17KT 10SM SCT080 SCT090 18/10 A2978 1150 60 1800 140/12G17 RMK AO2
14926KSTC STC20120614030510806/14/12 03:05:31  5-MIN KSTC 140905Z AUTO 14011G17KT 10SM SCT080 18/10 A2978 1160 60 1800 130/11G17 RMK AO2
14926KSTC STC20120614031010806/14/12 03:10:31  5-MIN KSTC 140910Z AUTO 13009G20KT 10SM FEW080 18/10 A2979 1150 60 1800 130/09G20 RMK AO2
14926KSTC STC20120614031510806/14/12 03:15:31  5-MIN KSTC 140915Z AUTO 14009G20KT 10SM FEW080 18/10 A2979 1150 60 1800 140/09G20 RMK AO2
14926KSTC STC20120614032010806/14/12 03:20:31  5-MIN KSTC 140920Z AUTO 14009G20KT 10SM FEW080 17/10 A2980 1140 62 1700 140/09G20 RMK AO2
14926KSTC STC20120614032512106/14/12 03:25:31  5-MIN KSTC 140925Z AUTO 14008KT 10SM SCT085 17/10 A2981 1130 62 1700 140/08 RMK AO2 LTG DSNT SE PRESRR
14926KSTC STC20120614033012006/14/12 03:30:31  5-MIN KSTC 140930Z AUTO 13007KT 10SM BKN085 17/10 A2981 1130 62 1700 130/07 RMK AO2 LTG DSNT E AND SE
14926KSTC STC20120614033512006/14/12 03:35:31  5-MIN KSTC 140935Z AUTO 13008KT 10SM BKN085 18/10 A2981 1130 60 1800 130/08 RMK AO2 LTG DSNT E AND SE
14926KSTC STC20120614034012006/14/12 03:40:31  5-MIN KSTC 140940Z AUTO 13009KT 10SM BKN085 18/10 A2980 1140 60 1800 130/09 RMK AO2 LTG DSNT E AND SE
14926KSTC STC20120614034511306/14/12 03:45:31  5-MIN KSTC 140945Z AUTO 12007KT 10SM SCT085 18/10 A2980 1140 60 1800 120/07 RMK AO2 LTG DSNT E
14926KSTC STC20120614035013706/14/12 03:50:31  5-MIN KSTC 140950Z AUTO 13008KT 10SM SCT085 17/10 A2978 1150 62 1700 130/08 RMK AO2 LTG DSNT E PRESFR SLP090 T01720100
14926KSTC STC20120614035512006/14/12 03:55:31  5-MIN KSTC 140955Z AUTO 13009KT 10SM SCT085 17/10 A2977 1160 62 1700 130/09 RMK AO2 LTG DSNT E PRESFR
14926KSTC STC20120614040011306/14/12 04:00:31  5-MIN KSTC 141000Z AUTO 13008KT 10SM FEW090 17/10 A2979 1150 62 1700 130/08 RMK AO2 LTG DSNT E
14926KSTC STC20120614040511006/14/12 04:05:31  5-MIN KSTC 141005Z AUTO 14007KT 10SM CLR 17/10 A2980 1140 62 1700 130/07 RMK AO2 LTG DSNT E
14926KSTC STC20120614041011006/14/12 04:10:31  5-MIN KSTC 141010Z AUTO 14007KT 10SM CLR 17/11 A2979 1150 64 1700 140/07 RMK AO2 LTG DSNT E
14926KSTC STC20120614041509906/14/12 04:15:31  5-MIN KSTC 141015Z AUTO 14007KT 10SM CLR 17/10 A2978 1160 62 1700 140/07 RMK AO2
14926KSTC STC20120614042009906/14/12 04:20:31  5-MIN KSTC 141020Z AUTO 13008KT 10SM CLR 17/11 A2977 1170 64 1700 130/08 RMK AO2
14926KSTC STC20120614042509906/14/12 04:25:31  5-MIN KSTC 141025Z AUTO 14009KT 10SM CLR 17/11 A2977 1170 64 1700 140/09 RMK AO2
14926KSTC STC20120614043009906/14/12 04:30:31  5-MIN KSTC 141030Z AUTO 13007KT 10SM CLR 17/11 A2976 1170 64 1700 130/07 RMK AO2
14926KSTC STC20120614043509906/14/12 04:35:31  5-MIN KSTC 141035Z AUTO 13008KT 10SM CLR 17/11 A2976 1170 64 1700 130/08 RMK AO2
14926KSTC STC20120614044009906/14/12 04:40:31  5-MIN KSTC 141040Z AUTO 14006KT 10SM CLR 18/11 A2977 1170 62 1800 130/06 RMK AO2
14926KSTC STC20120614044509906/14/12 04:45:31  5-MIN KSTC 141045Z AUTO 12008KT 10SM CLR 18/11 A2976 1170 62 1800 120/08 RMK AO2
14926KSTC STC20120614045011606/14/12 04:50:31  5-MIN KSTC 141050Z AUTO 11007KT 10SM CLR 18/11 A2976 1180 62 1800 110/07 RMK AO2 SLP081 T01780106
14926KSTC STC20120614045511006/14/12 04:55:31  5-MIN KSTC 141055Z AUTO 10006KT 10SM CLR 18/11 A2977 1170 62 1800 100/06 RMK AO2 LTG DSNT W
14926KSTC STC20120614050011706/14/12 05:00:31  5-MIN KSTC 141100Z AUTO 09008KT 10SM CLR 18/11 A2976 1170 62 1800 090/08 RMK AO2 LTG DSNT SW AND W
14926KSTC STC20120614050512106/14/12 05:05:31  5-MIN KSTC 141105Z AUTO 10009KT 10SM CLR 18/11 A2974 1190 62 1800 100/09 RMK AO2 LTG DSNT SW-NW PRESFR
14926KSTC STC20120614051011406/14/12 05:10:31  5-MIN KSTC 141110Z AUTO 11008KT 10SM CLR 18/11 A2975 1180 62 1800 110/08 RMK AO2 LTG DSNT SW-NW
14926KSTC STC20120614051512006/14/12 05:15:31  5-MIN KSTC 141115Z AUTO 12007G15KT 10SM CLR 18/11 A2978 1160 62 1800 120/07G15 RMK AO2 LTG DSNT SW-NW
14926KSTC STC20120614052011706/14/12 05:20:31  5-MIN KSTC 141120Z AUTO 10005KT 10SM SCT100 18/11 A2978 1160 62 1800 100/05 RMK AO2 LTG DSNT SW-NW
14926KSTC STC20120614052512406/14/12 05:25:31  5-MIN KSTC 141125Z AUTO 09005KT 10SM SCT100 18/11 A2980 1140 62 1800 090/05 RMK AO2 LTG DSNT SW-NW PRESRR
14926KSTC STC20120614053011606/14/12 05:30:31  5-MIN KSTC 141130Z AUTO 10007KT 10SM FEW100 18/11 A2978 1150 62 1800 090/07 RMK AO2 LTG DSNT SW-N
14926KSTC STC20120614053511606/14/12 05:35:31  5-MIN KSTC 141135Z AUTO 10007KT 10SM FEW100 18/10 A2980 1140 60 1800 100/07 RMK AO2 LTG DSNT SW-N
14926KSTC STC20120614054012706/14/12 05:40:31  5-MIN KSTC 141140Z AUTO VRB04KT 10SM VCTS SCT095 18/10 A2984 1100 60 1700 VRB/04 RMK AO2 LTG DSNT SW-N TSB38
14926KSTC STC20120614054514006/14/12 05:45:31  5-MIN KSTC 141145Z AUTO 32014G21KT 10SM VCTS FEW042 BKN095 17/11 A2985 1090 64 1600 320/14G21 RMK AO2 LTG DSNT SW-N TSB38
14926KSTC STC20120614055018106/14/12 05:50:31  5-MIN KSTC 141150Z AUTO 33012G22KT 10SM VCTS SCT042 BKN090 18/11 A2986 1090 62 1700 330/12G22 RMK AO2 LTG DSNT SW-N TSB38 SLP115 70003 T01780106 10194 20172 58025
14926KSTC STC20120614055512906/14/12 05:55:31  5-MIN KSTC 141155Z 01009G22KT 10SM VCTS BKN042 BKN090 18/11 A2984 1100 62 1700 010/09G22 RMK AO2 LTG DSNT SW-N
14926KSTC STC20120614060014806/14/12 06:00:31  5-MIN KSTC 141200Z 01009G16KT 10SM VCTS -RA BKN042 OVC090 18/11 A2985 1090 62 1700 010/09G16 RMK AO2 LTG DSNT ALQDS RAB1159 P0000
14926KSTC STC20120614060514206/14/12 06:05:31  5-MIN KSTC 141205Z 36008KT 10SM VCTS -RA BKN042 OVC090 17/11 A2985 1100 67 1600 360/08 RMK AO2 LTG DSNT ALQDS RAB1159 P0000
14926KSTC STC20120614061013206/14/12 06:10:31  5-MIN KSTC 141210Z 36008KT 10SM -TSRA OVC040 17/12 A2986 1080 72 1600 360/08 RMK AO2 LTG DSNT ALQDS RAB1159 P0001
14926KSTC STC20120614061513906/14/12 06:15:31  5-MIN KSTC 141215Z 01006KT 10SM -TSRA OVC040 17/12 A2987 1070 72 1600 010/06 RMK AO2 LTG DSNT ALQDS RAB1159 PRESRR P0001
14926KSTC STC20120614062013206/14/12 06:20:31  5-MIN KSTC 141220Z 02006KT 10SM -TSRA OVC040 17/12 A2986 1080 75 1600 020/06 RMK AO2 LTG DSNT ALQDS RAB1159 P0002
14926KSTC STC20120614062513006/14/12 06:25:31  5-MIN KSTC 141225Z 10006KT 8SM TSRA OVC040 16/12 A2985 1090 77 1500 100/06 RMK AO2 LTG DSNT ALQDS RAB1159 P0003
14926KSTC STC20120614063013706/14/12 06:30:31  5-MIN KSTC 141230Z 03005KT 6SM TSRA BKN040 OVC075 16/13 A2985 1090 83 1500 030/05 RMK AO2 LTG DSNT ALQDS RAB1159 P0005
14926KSTC STC20120614063514506/14/12 06:35:31  5-MIN KSTC 141235Z VRB04KT 3SM +TSRA BKN042 OVC070 16/13 A2983 1110 83 1500 VRB/04 RMK AO2 LTG DSNT ALQDS RAB1159 PRESFR P0009
14926KSTC STC20120614064016506/14/12 06:40:31  5-MIN KSTC 141240Z 10010KT 2SM +TSRA BR BKN042 BKN070 OVC090 15/13 A2981 1120 86 1400 100/10 RMK AO2 VIS 1/2V4 LTG DSNT ALQDS RAB1159 PRESFR P0015
14926KSTC STC20120614064515806/14/12 06:45:31  5-MIN KSTC 141245Z 11009KT 1 3/4SM TSRA SCT043 BKN070 OVC090 16/13 A2983 1110 83 1500 110/09 RMK AO2 VIS 1/2V4 LTG DSNT ALQDS RAB1159 P0019
14926KSTC STC20120614065014106/14/12 06:50:31  5-MIN KSTC 141250Z 11010KT 2SM +TSRA BR SCT047 OVC070 15/13 A2983 1110 86 1400 110/10 RMK AO2 LTG DSNT ALQDS RAB1159 P0025
14926KSTC STC20120614065515006/14/12 06:55:31  5-MIN KSTC 141255Z 10009G16KT 2 1/2SM +TSRA BR SCT047 BKN070 OVC090 15/13 A2983 1110 86 1400 100/09G16 RMK AO2 LTG DSNT ALQDS P0002
14926KSTC STC20120614070016806/14/12 07:00:31  5-MIN KSTC 141300Z 02007G16KT 350V060 3SM TSRA BR FEW047 BKN070 OVC110 15/13 A2986 1080 86 1400 020/07G16 350V060 RMK AO2 LTG DSNT ALQDS PRESRR P0005
14926KSTC STC20120614070515206/14/12 07:05:31  5-MIN KSTC 141305Z 33013G19KT 4SM TSRA BR FEW032 BKN070 OVC110 15/13 A2991 1040 86 1300 330/13G19 RMK AO2 LTG DSNT ALQDS PRESRR P0007
14926KSTC STC20120614071018006/14/12 07:10:31  5-MIN KSTC 141310Z 01017G30KT 330V050 5SM -TSRA BR FEW015 BKN030 OVC110 15/13 A2990 1040 86 1300 010/17G30 330V050 RMK AO2 PK WND 34030/1309 LTG DSNT ALQDS P0008
14926KSTC STC20120614071516106/14/12 07:15:31  5-MIN KSTC 141315Z 07008G30KT 3SM +TSRA FEW016 BKN029 OVC110 16/13 A2988 1070 83 1400 060/08G30 RMK AO2 PK WND 34030/1309 LTG DSNT ALQDS P0010
14926KSTC STC20120614072016406/14/12 07:20:31  5-MIN KSTC 141320Z 07010G16KT 2SM +TSRA BR FEW016 BKN031 OVC110 15/13 A2985 1090 86 1400 070/10G16 RMK AO2 PK WND 34030/1309 LTG DSNT ALQDS P0020
14926KSTC STC20120614072516406/14/12 07:25:31  5-MIN KSTC 141325Z 07008G16KT 2SM +TSRA BR FEW016 BKN039 OVC110 15/13 A2987 1070 86 1400 060/08G16 RMK AO2 PK WND 34030/1309 LTG DSNT ALQDS P0027
14926KSTC STC20120614073016306/14/12 07:30:31  5-MIN KSTC 141330Z 09012G17KT 3SM TSRA BR SCT026 BKN041 OVC065 15/13 A2985 1100 86 1400 090/12G17 RMK AO2 PK WND 34030/1309 LTG DSNT ALQDS P0030
14926KSTC STC20120614073516306/14/12 07:35:31  5-MIN KSTC 141335Z 09014G23KT 4SM TSRA BR FEW024 BKN041 OVC070 15/13 A2980 1140 86 1400 090/14G23 RMK AO2 PK WND 34030/1309 LTG DSNT ALQDS P0031
14926KSTC STC20120614074016306/14/12 07:40:31  5-MIN KSTC 141340Z 12017G24KT 4SM TSRA BR FEW021 BKN060 OVC090 15/13 A2975 1180 86 1500 120/17G24 RMK AO2 PK WND 34030/1309 LTG DSNT ALQDS P0033
14926KSTC STC20120614074517506/14/12 07:45:31  5-MIN KSTC 141345Z 13016G28KT 3SM +TSRA BR SCT042 BKN060 OVC090 14/13 A2978 1150 90 1400 120/16G28 RMK AO2 PK WND 34030/1309 WSHFT 1330 LTG DSNT ALQDS P0036
14926KSTC STC20120614075019206/14/12 07:50:31  5-MIN KSTC 141350Z 12015G28KT 4SM -TSRA BR SCT044 BKN060 OVC085 14/13 A2978 1150 90 1400 110/15G28 RMK AO2 PK WND 34030/1309 WSHFT 1330 LTG DSNT ALQDS SLP093 P0037 T01440128
14926KSTC STC20120614075514706/14/12 07:55:31  5-MIN KSTC 141355Z 11015G22KT 10SM VCTS -RA FEW044 BKN080 OVC090 15/13 A2977 1160 86 1500 110/15G22 RMK AO2 LTG DSNT ALQDS P0001
14926KSTC STC20120614080014706/14/12 08:00:31  5-MIN KSTC 141400Z 13014G22KT 10SM VCTS FEW041 BKN060 OVC090 15/13 A2978 1150 86 1500 130/14G22 RMK AO2 LTG DSNT E-S RAE00 P0001
14926KSTC STC20120614080514706/14/12 08:05:31  5-MIN KSTC 141405Z 11013G21KT 10SM FEW041 BKN060 OVC080 15/13 A2975 1180 86 1500 110/13G21 RMK AO2 LTG DSNT E-S TSE02RAE00 P0001
14926KSTC STC20120614081014706/14/12 08:10:31  5-MIN KSTC 141410Z 13012G21KT 10SM FEW043 BKN060 OVC080 14/13 A2978 1150 90 1400 130/12G21 RMK AO2 LTG DSNT E-S TSE02RAE00 P0001
14926KSTC STC20120614081514006/14/12 08:15:31  5-MIN KSTC 141415Z 14014G21KT 10SM BKN060 OVC080 14/13 A2980 1140 90 1400 140/14G21 RMK AO2 LTG DSNT E-S TSE02RAE00 P0001
14926KSTC STC20120614082012706/14/12 08:20:31  5-MIN KSTC 141420Z 13014KT 10SM OVC060 15/13 A2979 1140 86 1500 130/14 RMK AO2 LTG DSNT E-S TSE02RAE00 P0001
14926KSTC STC20120614082513306/14/12 08:25:31  5-MIN KSTC 141425Z 13011G20KT 10SM OVC060 15/13 A2978 1160 86 1500 120/11G20 RMK AO2 LTG DSNT E-S TSE02RAE00 P0001
14926KSTC STC20120614083013206/14/12 08:30:31  5-MIN KSTC 141430Z 13013G20KT 10SM OVC055 15/13 A2979 1150 90 1500 130/13G20 RMK AO2 LTG DSNT SE TSE02RAE00 P0001
14926KSTC STC20120614083513206/14/12 08:35:31  5-MIN KSTC 141435Z 13014G20KT 10SM OVC055 15/13 A2980 1140 86 1400 130/14G20 RMK AO2 LTG DSNT SE TSE02RAE00 P0001
14926KSTC STC20120614084013206/14/12 08:40:31  5-MIN KSTC 141440Z 13011G20KT 10SM OVC050 15/13 A2979 1150 86 1500 130/11G20 RMK AO2 LTG DSNT SE TSE02RAE00 P0001
14926KSTC STC20120614084513206/14/12 08:45:31  5-MIN KSTC 141445Z 13010G17KT 10SM OVC050 15/13 A2978 1160 86 1500 130/10G17 RMK AO2 LTG DSNT SE TSE02RAE00 P0001
14926KSTC STC20120614085014906/14/12 08:50:31  5-MIN KSTC 141450Z 13008G16KT 10SM OVC050 15/13 A2978 1160 86 1500 130/08G16 RMK AO2 TSE02RAE00 SLP090 P0001 60066 T01500128 53017
14926KSTC STC20120614085510306/14/12 08:55:31  5-MIN KSTC 141455Z 14010G16KT 10SM OVC050 15/13 A2979 1150 90 1500 140/10G16 RMK AO2
14926KSTC STC20120614090009706/14/12 09:00:31  5-MIN KSTC 141500Z 13009KT 10SM OVC048 15/13 A2978 1160 90 1500 130/09 RMK AO2
14926KSTC STC20120614090509706/14/12 09:05:31  5-MIN KSTC 141505Z 13010KT 10SM OVC048 15/13 A2978 1160 90 1500 130/10 RMK AO2
14926KSTC STC20120614091010306/14/12 09:10:31  5-MIN KSTC 141510Z 13013G18KT 10SM OVC048 15/13 A2979 1150 90 1500 130/13G18 RMK AO2
14926KSTC STC20120614091509706/14/12 09:15:31  5-MIN KSTC 141515Z 13012KT 10SM OVC048 15/13 A2979 1150 90 1500 130/12 RMK AO2
14926KSTC STC20120614092010306/14/12 09:20:31  5-MIN KSTC 141520Z 13008G18KT 10SM OVC048 15/13 A2978 1160 90 1500 130/08G18 RMK AO2
14926KSTC STC20120614092510406/14/12 09:25:31  5-MIN KSTC 141525Z 14009KT 10SM BKN048 OVC060 15/13 A2979 1150 90 1500 140/09 RMK AO2
14926KSTC STC20120614093010406/14/12 09:30:31  5-MIN KSTC 141530Z 14012KT 10SM BKN048 OVC060 15/13 A2979 1150 90 1500 140/12 RMK AO2
14926KSTC STC20120614093511006/14/12 09:35:31  5-MIN KSTC 141535Z 15012G17KT 10SM BKN048 OVC060 15/13 A2979 1150 90 1500 150/12G17 RMK AO2
14926KSTC STC20120614094011006/14/12 09:40:31  5-MIN KSTC 141540Z 15011G18KT 10SM BKN046 OVC055 15/13 A2980 1140 90 1400 150/11G18 RMK AO2
14926KSTC STC20120614094511006/14/12 09:45:31  5-MIN KSTC 141545Z 13009G18KT 10SM BKN044 OVC060 15/14 A2977 1160 93 1500 130/09G18 RMK AO2
14926KSTC STC20120614095012106/14/12 09:50:31  5-MIN KSTC 141550Z 14010KT 10SM SCT044 BKN060 16/14 A2978 1160 90 1500 140/10 RMK AO2 SLP089 T01560139
14926KSTC STC20120614095511006/14/12 09:55:31  5-MIN KSTC 141555Z 14009G17KT 10SM SCT044 BKN060 16/14 A2978 1160 90 1500 140/09G17 RMK AO2
14926KSTC STC20120614100011006/14/12 10:00:31  5-MIN KSTC 141600Z 13010G17KT 10SM SCT044 BKN060 16/14 A2977 1160 90 1500 130/10G17 RMK AO2
14926KSTC STC20120614100511006/14/12 10:05:31  5-MIN KSTC 141605Z 13012G17KT 10SM SCT042 BKN060 16/14 A2976 1170 90 1500 130/12G17 RMK AO2
14926KSTC STC20120614101011006/14/12 10:10:31  5-MIN KSTC 141610Z 13015G20KT 10SM FEW042 SCT060 16/14 A2977 1170 86 1600 130/15G20 RMK AO2
14926KSTC STC20120614101511006/14/12 10:15:31  5-MIN KSTC 141615Z 14012G20KT 10SM FEW042 SCT060 16/14 A2978 1160 86 1600 140/12G20 RMK AO2
14926KSTC STC20120614102011006/14/12 10:20:31  5-MIN KSTC 141620Z 14015G20KT 10SM FEW042 BKN060 16/14 A2977 1170 90 1600 140/15G20 RMK AO2
14926KSTC STC20120614102510306/14/12 10:25:31  5-MIN KSTC 141625Z 14012G20KT 10SM BKN060 17/14 A2976 1170 86 1700 140/12G20 RMK AO2
14926KSTC STC20120614103010306/14/12 10:30:31  5-MIN KSTC 141630Z 15011G20KT 10SM SCT060 17/15 A2976 1170 90 1700 140/11G20 RMK AO2
14926KSTC STC20120614103510306/14/12 10:35:31  5-MIN KSTC 141635Z 15010G17KT 10SM FEW060 17/16 A2976 1170 90 1700 140/10G17 RMK AO2
14926KSTC STC20120614104010306/14/12 10:40:31  5-MIN KSTC 141640Z 15012G17KT 10SM FEW060 18/15 A2976 1170 83 1800 150/12G17 RMK AO2
14926KSTC STC20120614104512206/14/12 10:45:31  5-MIN KSTC 141645Z 14010G17KT 10SM FEW060 SCT075 18/16 A2976 1170 87 1800 140/10G17 RMK AO2 LTG DSNT NW
14926KSTC STC20120614105014506/14/12 10:50:31  5-MIN KSTC 141650Z 13009G20KT 10SM FEW040 SCT070 18/16 A2976 1180 87 1800 130/09G20 RMK AO2 LTG DSNT N AND NW SLP082 T01780156
14926KSTC STC20120614105512806/14/12 10:55:31  5-MIN KSTC 141655Z 13010G20KT 10SM SCT040 BKN070 18/16 A2977 1170 87 1800 130/10G20 RMK AO2 LTG DSNT N AND NW
14926KSTC STC20120614110010406/14/12 11:00:31  5-MIN KSTC 141700Z 14009KT 10SM SCT042 BKN070 17/15 A2977 1170 87 1700 140/09 RMK AO2
14926KSTC STC20120614110510406/14/12 11:05:31  5-MIN KSTC 141705Z 14009KT 10SM BKN042 BKN070 17/15 A2977 1160 87 1700 140/09 RMK AO2
14926KSTC STC20120614111010406/14/12 11:10:31  5-MIN KSTC 141710Z 13007KT 10SM BKN040 OVC070 17/16 A2977 1170 90 1700 120/07 RMK AO2
14926KSTC STC20120614111509706/14/12 11:15:31  5-MIN KSTC 141715Z 14008KT 10SM OVC040 17/16 A2976 1170 90 1700 140/08 RMK AO2
14926KSTC STC20120614112009706/14/12 11:20:31  5-MIN KSTC 141720Z 13011KT 10SM OVC040 17/16 A2975 1180 90 1800 130/11 RMK AO2
14926KSTC STC20120614112510306/14/12 11:25:31  5-MIN KSTC 141725Z 14011G16KT 10SM OVC040 18/16 A2976 1180 87 1800 140/11G16 RMK AO2
14926KSTC STC20120614113009706/14/12 11:30:31  5-MIN KSTC 141730Z 13011KT 10SM OVC038 18/16 A2976 1180 87 1800 130/11 RMK AO2
14926KSTC STC20120614113510306/14/12 11:35:31  5-MIN KSTC 141735Z 13010G16KT 10SM OVC036 18/16 A2976 1180 87 1800 130/10G16 RMK AO2
14926KSTC STC20120614114010306/14/12 11:40:31  5-MIN KSTC 141740Z 14008G16KT 10SM OVC034 18/16 A2977 1170 87 1800 140/08G16 RMK AO2
14926KSTC STC20120614114509706/14/12 11:45:31  5-MIN KSTC 141745Z 14010KT 10SM OVC034 18/16 A2977 1170 87 1800 140/10 RMK AO2
14926KSTC STC20120614115013806/14/12 11:50:31  5-MIN KSTC 141750Z 14010KT 10SM OVC034 18/16 A2977 1170 87 1800 130/10 RMK AO2 SLP087 60066 T01780156 10178 20144 55012
14926KSTC STC20120614115510306/14/12 11:55:31  5-MIN KSTC 141755Z 14009G16KT 10SM OVC034 18/16 A2978 1160 87 1800 130/09G16 RMK AO2
14926KSTC STC20120614120010306/14/12 12:00:31  5-MIN KSTC 141800Z 14010G16KT 10SM OVC034 18/16 A2978 1160 87 1800 140/10G16 RMK AO2
14926KSTC STC20120614120510406/14/12 12:05:31  5-MIN KSTC 141805Z 13010KT 10SM BKN034 OVC041 18/16 A2977 1170 87 1800 130/10 RMK AO2
14926KSTC STC20120614121010406/14/12 12:10:31  5-MIN KSTC 141810Z 13011KT 10SM BKN034 OVC043 18/16 A2976 1170 87 1800 130/11 RMK AO2
14926KSTC STC20120614121511006/14/12 12:15:31  5-MIN KSTC 141815Z 13009G16KT 10SM SCT034 OVC045 18/16 A2976 1170 84 1900 130/09G16 RMK AO2
14926KSTC STC20120614122011006/14/12 12:20:31  5-MIN KSTC 141820Z 13011G17KT 10SM SCT036 OVC045 18/16 A2976 1170 84 1900 130/11G17 RMK AO2
14926KSTC STC20120614122512606/14/12 12:25:31  5-MIN KSTC 141825Z 14013G17KT 10SM -RA FEW036 OVC045 18/16 A2977 1170 84 1900 140/13G17 RMK AO2 RAB21 P0000
14926KSTC STC20120614123011306/14/12 12:30:31  5-MIN KSTC 141830Z 14011KT 10SM -RA OVC045 18/16 A2977 1170 84 1900 140/11 RMK AO2 RAB21 P0000
14926KSTC STC20120614123511806/14/12 12:35:31  5-MIN KSTC 141835Z 14012G17KT 10SM OVC045 18/16 A2977 1170 84 1900 140/12G17 RMK AO2 RAB21E31 P0000
14926KSTC STC20120614124011806/14/12 12:40:31  5-MIN KSTC 141840Z 14013G19KT 10SM OVC045 18/16 A2976 1170 84 1900 140/13G19 RMK AO2 RAB21E31 P0000
14926KSTC STC20120614124511806/14/12 12:45:31  5-MIN KSTC 141845Z 14011G19KT 10SM OVC047 18/16 A2976 1170 87 1900 140/11G19 RMK AO2 RAB21E31 P0000
14926KSTC STC20120614125012906/14/12 12:50:31  5-MIN KSTC 141850Z 14011KT 10SM OVC047 18/16 A2976 1170 87 1900 140/11 RMK AO2 RAB21E31 SLP084 P0000 T01830161
14926KSTC STC20120614125510706/14/12 12:55:31  5-MIN KSTC 141855Z 13009KT 10SM -RA OVC047 18/16 A2976 1180 87 1900 130/09 RMK AO2 P0000
14926KSTC STC20120614130011306/14/12 13:00:31  5-MIN KSTC 141900Z 14012G18KT 10SM -RA OVC049 19/16 A2976 1180 84 1900 140/12G18 RMK AO2 P0000
14926KSTC STC20120614130512006/14/12 13:05:31  5-MIN KSTC 141905Z 14012G18KT 10SM -RA BKN049 OVC055 19/16 A2976 1180 84 1900 140/12G18 RMK AO2 P0000
14926KSTC STC20120614131012006/14/12 13:10:31  5-MIN KSTC 141910Z 15016G21KT 10SM -RA BKN049 OVC055 19/16 A2976 1180 81 2000 150/16G21 RMK AO2 P0000
14926KSTC STC20120614131512706/14/12 13:15:31  5-MIN KSTC 141915Z 14012G22KT 10SM -RA SCT040 BKN049 OVC055 19/16 A2976 1180 81 2000 140/12G22 RMK AO2 P0000
14926KSTC STC20120614132012006/14/12 13:20:31  5-MIN KSTC 141920Z 14012G22KT 10SM -RA SCT042 OVC049 19/16 A2976 1170 81 2000 140/12G22 RMK AO2 P0000
14926KSTC STC20120614132512006/14/12 13:25:31  5-MIN KSTC 141925Z 14010G18KT 10SM -RA SCT042 OVC049 19/16 A2976 1170 84 1900 140/10G18 RMK AO2 P0000
14926KSTC STC20120614133012006/14/12 13:30:31  5-MIN KSTC 141930Z 15013G19KT 10SM -RA FEW042 OVC049 19/16 A2976 1170 81 2000 150/13G19 RMK AO2 P0000
14926KSTC STC20120614133512006/14/12 13:35:31  5-MIN KSTC 141935Z 15011G19KT 10SM -RA FEW042 OVC049 19/16 A2976 1170 81 2000 150/11G19 RMK AO2 P0000
14926KSTC STC20120614134011306/14/12 13:40:31  5-MIN KSTC 141940Z 15014G21KT 10SM -RA OVC047 19/16 A2976 1170 81 2000 150/14G21 RMK AO2 P0000
14926KSTC STC20120614134512006/14/12 13:45:31  5-MIN KSTC 141945Z 15014G21KT 10SM -RA BKN047 OVC055 19/16 A2976 1180 81 2000 150/14G21 RMK AO2 P0000
14926KSTC STC20120614135013206/14/12 13:50:31  5-MIN KSTC 141950Z 15011G18KT 10SM OVC048 19/16 A2976 1180 81 2000 150/11G18 RMK AO2 RAE48 SLP082 P0000 T01940161
14926KSTC STC20120614135511006/14/12 13:55:31  5-MIN KSTC 141955Z 15012G18KT 10SM BKN048 OVC055 19/16 A2976 1180 81 2000 150/12G18 RMK AO2
14926KSTC STC20120614140011006/14/12 14:00:31  5-MIN KSTC 142000Z 16014G20KT 10SM BKN048 OVC060 19/16 A2977 1170 81 2000 150/14G20 RMK AO2
14926KSTC STC20120614140511006/14/12 14:05:31  5-MIN KSTC 142005Z 16010G20KT 10SM BKN048 OVC060 19/16 A2977 1160 81 2000 160/10G20 RMK AO2
14926KSTC STC20120614141010406/14/12 14:10:31  5-MIN KSTC 142010Z 15010KT 10SM BKN048 OVC060 19/16 A2976 1170 81 2000 150/10 RMK AO2
14926KSTC STC20120614141511706/14/12 14:15:31  5-MIN KSTC 142015Z 14011G18KT 10SM BKN048 BKN060 OVC070 19/16 A2975 1180 81 2000 140/11G18 RMK AO2
14926KSTC STC20120614142011706/14/12 14:20:31  5-MIN KSTC 142020Z 14011G18KT 10SM BKN048 BKN055 OVC070 19/16 A2976 1180 81 2000 140/11G18 RMK AO2
14926KSTC STC20120614142511006/14/12 14:25:31  5-MIN KSTC 142025Z 14009G17KT 10SM BKN048 OVC070 20/16 A2976 1180 78 2100 140/09G17 RMK AO2
14926KSTC STC20120614143011106/14/12 14:30:31  5-MIN KSTC 142030Z 15011KT 10SM SCT048 BKN060 OVC070 20/16 A2976 1180 78 2100 150/11 RMK AO2
14926KSTC STC20120614143511706/14/12 14:35:31  5-MIN KSTC 142035Z 15013G21KT 10SM FEW048 BKN060 OVC070 20/16 A2976 1170 78 2100 150/13G21 RMK AO2
14926KSTC STC20120614144011006/14/12 14:40:31  5-MIN KSTC 142040Z 15011G21KT 10SM BKN055 OVC070 20/16 A2976 1180 78 2100 150/11G21 RMK AO2
14926KSTC STC20120614144511006/14/12 14:45:31  5-MIN KSTC 142045Z 15010G19KT 10SM BKN055 BKN070 20/16 A2976 1180 78 2100 150/10G19 RMK AO2
14926KSTC STC20120614145013306/14/12 14:50:31  5-MIN KSTC 142050Z 15008KT 10SM BKN055 BKN070 20/16 A2976 1180 78 2100 150/08 RMK AO2 SLP081 60000 T02000161 55004
14926KSTC STC20120614145510406/14/12 14:55:31  5-MIN KSTC 142055Z 14010KT 10SM BKN055 BKN070 20/16 A2976 1180 78 2100 140/10 RMK AO2
14926KSTC STC20120614150010406/14/12 15:00:31  5-MIN KSTC 142100Z 15010KT 10SM BKN055 BKN070 20/16 A2976 1180 78 2100 150/10 RMK AO2
14926KSTC STC20120614150509706/14/12 15:05:31  5-MIN KSTC 142105Z 15010KT 10SM BKN050 20/16 A2976 1180 78 2100 150/10 RMK AO2
14926KSTC STC20120614151009706/14/12 15:10:31  5-MIN KSTC 142110Z 14009KT 10SM BKN050 20/16 A2976 1180 78 2100 140/09 RMK AO2
14926KSTC STC20120614151509706/14/12 15:15:31  5-MIN KSTC 142115Z 14009KT 10SM OVC050 20/16 A2976 1180 78 2100 140/09 RMK AO2
14926KSTC STC20120614152009706/14/12 15:20:31  5-MIN KSTC 142120Z 13009KT 10SM OVC050 20/16 A2975 1180 78 2100 130/09 RMK AO2
14926KSTC STC20120614152509706/14/12 15:25:31  5-MIN KSTC 142125Z 13008KT 10SM OVC050 20/16 A2975 1190 78 2100 130/08 RMK AO2
14926KSTC STC20120614153010306/14/12 15:30:31  5-MIN KSTC 142130Z 14009G14KT 10SM OVC050 20/16 A2975 1190 78 2100 140/09G14 RMK AO2
14926KSTC STC20120614153510306/14/12 15:35:31  5-MIN KSTC 142135Z 14010G14KT 10SM OVC050 21/16 A2975 1190 75 2100 140/10G14 RMK AO2
14926KSTC STC20120614154009706/14/12 15:40:31  5-MIN KSTC 142140Z 14011KT 10SM OVC050 21/16 A2975 1180 75 2100 140/11 RMK AO2
14926KSTC STC20120614154509706/14/12 15:45:31  5-MIN KSTC 142145Z 13010KT 10SM OVC050 21/17 A2975 1180 75 2200 130/10 RMK AO2
14926KSTC STC20120614155011406/14/12 15:50:31  5-MIN KSTC 142150Z 14010KT 10SM BKN050 21/17 A2975 1180 75 2200 140/10 RMK AO2 SLP080 T02110167
14926KSTC STC20120614155509706/14/12 15:55:31  5-MIN KSTC 142155Z 14010KT 10SM BKN050 22/17 A2975 1180 73 2300 140/10 RMK AO2
14926KSTC STC20120614160010306/14/12 16:00:31  5-MIN KSTC 142200Z 13011G17KT 10SM SCT050 21/17 A2975 1180 75 2200 130/11G17 RMK AO2
14926KSTC STC20120614160510306/14/12 16:05:31  5-MIN KSTC 142205Z 13011G17KT 10SM SCT048 21/17 A2975 1180 75 2200 130/11G17 RMK AO2
14926KSTC STC20120614161011006/14/12 16:10:31  5-MIN KSTC 142210Z 15013G17KT 10SM FEW018 SCT048 21/17 A2976 1180 75 2200 140/13G17 RMK AO2
14926KSTC STC20120614161511006/14/12 16:15:31  5-MIN KSTC 142215Z 13007G17KT 10SM FEW018 SCT048 21/17 A2975 1180 75 2200 130/07G17 RMK AO2
14926KSTC STC20120614162009706/14/12 16:20:31  5-MIN KSTC 142220Z 13007KT 10SM FEW048 21/17 A2975 1180 75 2200 130/07 RMK AO2
14926KSTC STC20120614162509706/14/12 16:25:31  5-MIN KSTC 142225Z 13008KT 10SM FEW048 21/17 A2975 1180 75 2200 130/08 RMK AO2
14926KSTC STC20120614163009706/14/12 16:30:31  5-MIN KSTC 142230Z 15009KT 10SM FEW048 22/17 A2975 1180 73 2300 150/09 RMK AO2
14926KSTC STC20120614163510306/14/12 16:35:31  5-MIN KSTC 142235Z 14010G15KT 10SM FEW048 22/17 A2975 1180 75 2300 140/10G15 RMK AO2
14926KSTC STC20120614164010006/14/12 16:40:31  5-MIN KSTC 142240Z 15013G19KT 10SM CLR 22/17 A2975 1180 73 2300 150/13G19 RMK AO2
14926KSTC STC20120614164510006/14/12 16:45:31  5-MIN KSTC 142245Z 13011G19KT 10SM CLR 22/17 A2975 1180 75 2300 130/11G19 RMK AO2
14926KSTC STC20120614165011106/14/12 16:50:31  5-MIN KSTC 142250Z 13010KT 10SM CLR 21/17 A2975 1180 78 2200 130/10 RMK AO2 SLP079 T02110172
14926KSTC STC20120614165510006/14/12 16:55:31  5-MIN KSTC 142255Z 14011G16KT 10SM CLR 21/17 A2975 1180 78 2200 140/11G16 RMK AO2
14926KSTC STC20120614170009406/14/12 17:00:31  5-MIN KSTC 142300Z 13009KT 10SM CLR 21/17 A2975 1180 78 2200 130/09 RMK AO2
14926KSTC STC20120614170509406/14/12 17:05:31  5-MIN KSTC 142305Z 13009KT 10SM CLR 21/17 A2975 1180 78 2200 130/09 RMK AO2
14926KSTC STC20120614171009706/14/12 17:10:31  5-MIN KSTC 142310Z 14010KT 10SM FEW015 21/17 A2975 1180 78 2200 130/10 RMK AO2
14926KSTC STC20120614171509706/14/12 17:15:31  5-MIN KSTC 142315Z 13011KT 10SM SCT015 21/17 A2976 1180 78 2200 130/11 RMK AO2
14926KSTC STC20120614172009706/14/12 17:20:31  5-MIN KSTC 142320Z 13009KT 10SM SCT015 21/17 A2976 1170 78 2200 130/09 RMK AO2
14926KSTC STC20120614172509706/14/12 17:25:31  5-MIN KSTC 142325Z 13008KT 10SM SCT013 21/17 A2976 1170 81 2100 130/08 RMK AO2
14926KSTC STC20120614173009706/14/12 17:30:31  5-MIN KSTC 142330Z 14007KT 10SM SCT013 21/17 A2976 1180 81 2100 140/07 RMK AO2
14926KSTC STC20120614173509706/14/12 17:35:31  5-MIN KSTC 142335Z 14009KT 10SM SCT013 21/17 A2976 1180 81 2100 140/09 RMK AO2
14926KSTC STC20120614174009706/14/12 17:40:31  5-MIN KSTC 142340Z 14007KT 10SM SCT013 21/17 A2977 1170 81 2100 140/07 RMK AO2
14926KSTC STC20120614174509706/14/12 17:45:31  5-MIN KSTC 142345Z 14008KT 10SM FEW013 21/17 A2976 1170 81 2100 140/08 RMK AO2
14926KSTC STC20120614175013806/14/12 17:50:31  5-MIN KSTC 142350Z 15007KT 10SM FEW013 21/17 A2976 1180 81 2100 150/07 RMK AO2 SLP081 60000 T02060172 10222 20178 55006
14926KSTC STC20120614175509706/14/12 17:55:31  5-MIN KSTC 142355Z 14009KT 10SM FEW013 21/17 A2976 1170 81 2100 140/09 RMK AO2
14926KSTC STC20120614180009706/14/12 18:00:31  5-MIN KSTC 150000Z 14008KT 10SM FEW013 21/18 A2976 1180 84 2100 140/08 RMK AO2
14926KSTC STC20120614180509706/14/12 18:05:31  5-MIN KSTC 150005Z 13008KT 10SM FEW013 21/18 A2976 1170 84 2100 130/08 RMK AO2
14926KSTC STC20120614181009406/14/12 18:10:31  5-MIN KSTC 150010Z 14005KT 10SM CLR 21/18 A2976 1180 84 2100 140/05 RMK AO2
14926KSTC STC20120614181509406/14/12 18:15:31  5-MIN KSTC 150015Z 13007KT 10SM CLR 21/18 A2976 1180 81 2200 130/07 RMK AO2
14926KSTC STC20120614182009706/14/12 18:20:31  5-MIN KSTC 150020Z 10004KT 10SM FEW012 21/18 A2976 1180 81 2200 100/04 RMK AO2
14926KSTC STC20120614182509706/14/12 18:25:31  5-MIN KSTC 150025Z 10004KT 10SM SCT012 21/18 A2976 1180 81 2200 100/04 RMK AO2
14926KSTC STC20120614183009706/14/12 18:30:31  5-MIN KSTC 150030Z 12006KT 10SM SCT012 21/18 A2976 1170 81 2200 120/06 RMK AO2
14926KSTC STC20120614183509706/14/12 18:35:31  5-MIN KSTC 150035Z 11005KT 10SM BKN012 21/18 A2977 1170 81 2200 110/05 RMK AO2
14926KSTC STC20120614184009706/14/12 18:40:31  5-MIN KSTC 150040Z 11005KT 10SM BKN012 21/18 A2977 1170 81 2200 110/05 RMK AO2
14926KSTC STC20120614184509706/14/12 18:45:31  5-MIN KSTC 150045Z VRB06KT 10SM BKN012 21/18 A2976 1180 84 2200 VRB/06 RMK AO2
14926KSTC STC20120614185012106/14/12 18:50:31  5-MIN KSTC 150050Z 12003KT 10SM BKN012 BKN024 21/18 A2975 1180 84 2200 120/03 RMK AO2 SLP080 T02110183
14926KSTC STC20120614185510406/14/12 18:55:31  5-MIN KSTC 150055Z 09004KT 10SM BKN012 BKN024 21/18 A2976 1180 84 2200 090/04 RMK AO2
14926KSTC STC20120614190010406/14/12 19:00:31  5-MIN KSTC 150100Z 09004KT 10SM BKN012 BKN024 21/18 A2976 1170 84 2200 090/04 RMK AO2
14926KSTC STC20120614190510406/14/12 19:05:31  5-MIN KSTC 150105Z 10005KT 10SM BKN012 OVC024 21/18 A2976 1180 84 2200 100/05 RMK AO2
14926KSTC STC20120614191010406/14/12 19:10:31  5-MIN KSTC 150110Z 11006KT 10SM BKN012 OVC024 21/18 A2976 1180 84 2200 110/06 RMK AO2
14926KSTC STC20120614191510406/14/12 19:15:31  5-MIN KSTC 150115Z 11004KT 10SM BKN012 OVC024 21/18 A2976 1170 84 2200 110/04 RMK AO2
14926KSTC STC20120614192010406/14/12 19:20:31  5-MIN KSTC 150120Z 12007KT 10SM BKN012 OVC024 21/18 A2977 1160 84 2200 120/07 RMK AO2
14926KSTC STC20120614192511106/14/12 19:25:31  5-MIN KSTC 150125Z 11004KT 10SM BKN012 OVC024 21/18 A2978 1160 84 2200 110/04 RMK AO2 PRESRR
14926KSTC STC20120614193011106/14/12 19:30:31  5-MIN KSTC 150130Z 12007KT 10SM BKN012 OVC024 21/18 A2979 1150 84 2200 120/07 RMK AO2 PRESRR
14926KSTC STC20120614193511106/14/12 19:35:31  5-MIN KSTC 150135Z 14006KT 10SM BKN012 OVC024 21/18 A2980 1140 84 2200 140/06 RMK AO2 PRESRR
14926KSTC STC20120614194011106/14/12 19:40:31  5-MIN KSTC 150140Z 14008KT 10SM SCT012 OVC024 21/18 A2980 1140 84 2100 140/08 RMK AO2 PRESRR
14926KSTC STC20120614194511106/14/12 19:45:31  5-MIN KSTC 150145Z 14006KT 10SM SCT012 OVC024 21/18 A2981 1130 84 2100 140/06 RMK AO2 PRESRR
14926KSTC STC20120614195012106/14/12 19:50:31  5-MIN KSTC 150150Z 14004KT 10SM FEW012 OVC024 21/18 A2981 1130 84 2100 140/04 RMK AO2 SLP102 T02110183
14926KSTC STC20120614195510406/14/12 19:55:31  5-MIN KSTC 150155Z 00000KT 10SM FEW012 OVC024 21/18 A2980 1140 87 2100 000/00 RMK AO2
14926KSTC STC20120614200011406/14/12 20:00:31  5-MIN KSTC 150200Z AUTO 14003KT 10SM SCT012 OVC024 21/18 A2980 1140 84 2200 140/03 RMK AO2 TSNO
14926KSTC STC20120614200511406/14/12 20:05:31  5-MIN KSTC 150205Z AUTO 12006KT 10SM SCT012 OVC024 21/18 A2979 1140 87 2100 120/06 RMK AO2 TSNO
14926KSTC STC20120614201011406/14/12 20:10:31  5-MIN KSTC 150210Z AUTO 11003KT 10SM FEW012 BKN024 21/18 A2980 1140 87 2100 110/03 RMK AO2 TSNO
14926KSTC STC20120614201511406/14/12 20:15:31  5-MIN KSTC 150215Z AUTO 00000KT 10SM FEW012 BKN024 21/18 A2980 1130 87 2100 000/00 RMK AO2 TSNO
14926KSTC STC20120614202011406/14/12 20:20:31  5-MIN KSTC 150220Z AUTO 00000KT 10SM SCT012 BKN024 21/18 A2980 1130 87 2100 000/00 RMK AO2 TSNO
14926KSTC STC20120614202511406/14/12 20:25:31  5-MIN KSTC 150225Z AUTO 13004KT 10SM FEW012 SCT026 20/18 A2980 1130 90 2000 120/04 RMK AO2 TSNO
14926KSTC STC20120614203011406/14/12 20:30:31  5-MIN KSTC 150230Z AUTO 12003KT 10SM FEW012 SCT026 20/18 A2981 1130 90 2000 120/03 RMK AO2 TSNO
14926KSTC STC20120614203510706/14/12 20:35:31  5-MIN KSTC 150235Z AUTO 15003KT 10SM FEW026 20/18 A2981 1130 87 2000 150/03 RMK AO2 TSNO
14926KSTC STC20120614204010706/14/12 20:40:31  5-MIN KSTC 150240Z AUTO 14003KT 10SM FEW026 19/18 A2981 1130 93 1900 140/03 RMK AO2 TSNO
14926KSTC STC20120614204510406/14/12 20:45:31  5-MIN KSTC 150245Z AUTO 00000KT 10SM CLR 19/18 A2982 1120 93 1900 000/00 RMK AO2 TSNO
14926KSTC STC20120614205012706/14/12 20:50:31  5-MIN KSTC 150250Z AUTO 00000KT 10SM CLR 19/18 A2982 1120 90 1900 000/00 RMK AO2 SLP106 T01940178 53001 TSNO
14926KSTC STC20120614205510406/14/12 20:55:31  5-MIN KSTC 150255Z AUTO 00000KT 10SM CLR 19/18 A2983 1110 90 1900 000/00 RMK AO2 TSNO
14926KSTC STC20120614210010406/14/12 21:00:31  5-MIN KSTC 150300Z AUTO 13004KT 10SM CLR 19/18 A2983 1110 93 1900 120/04 RMK AO2 TSNO
14926KSTC STC20120614210511106/14/12 21:05:31  5-MIN KSTC 150305Z AUTO 13005KT 10SM CLR 19/18 A2984 1100 90 1900 130/05 RMK AO2 PRESRR TSNO
14926KSTC STC20120614211010406/14/12 21:10:31  5-MIN KSTC 150310Z AUTO 13005KT 10SM CLR 19/18 A2985 1100 90 1900 130/05 RMK AO2 TSNO
14926KSTC STC20120614211509906/14/12 21:15:31  5-MIN KSTC 150315Z AUTO 13005KT 10SM CLR 19/18 A2985 1090 90 1900 130/05 RMK AO2
14926KSTC STC20120614212009906/14/12 21:20:31  5-MIN KSTC 150320Z AUTO 13005KT 10SM CLR 19/18 A2985 1090 90 1900 130/05 RMK AO2
14926KSTC STC20120614212509906/14/12 21:25:31  5-MIN KSTC 150325Z AUTO 13005KT 10SM CLR 19/18 A2985 1100 90 1900 130/05 RMK AO2
14926KSTC STC20120614213009806/14/12 21:30:31  5-MIN KSTC 150330Z AUTO 14005KT 9SM CLR 19/18 A2985 1100 90 1900 130/05 RMK AO2
14926KSTC STC20120614213509806/14/12 21:35:31  5-MIN KSTC 150335Z AUTO 14006KT 8SM CLR 19/18 A2985 1090 93 1800 140/06 RMK AO2
14926KSTC STC20120614214009806/14/12 21:40:31  5-MIN KSTC 150340Z AUTO 14004KT 8SM CLR 19/18 A2985 1090 93 1800 140/04 RMK AO2
14926KSTC STC20120614214509806/14/12 21:45:31  5-MIN KSTC 150345Z AUTO 15003KT 7SM CLR 19/18 A2985 1090 93 1800 150/03 RMK AO2
14926KSTC STC20120614215011806/14/12 21:50:31  5-MIN KSTC 150350Z AUTO 14004KT 6SM BR CLR 19/18 A2986 1090 93 1800 140/04 RMK AO2 SLP117 T01890178
14926KSTC STC20120614215510106/14/12 21:55:31  5-MIN KSTC 150355Z AUTO 15005KT 6SM BR CLR 18/18 A2986 1080 96 1800 150/05 RMK AO2
14926KSTC STC20120614220010106/14/12 22:00:31  5-MIN KSTC 150400Z AUTO 15005KT 6SM BR CLR 18/18 A2986 1080 96 1800 150/05 RMK AO2
14926KSTC STC20120614220510406/14/12 22:05:31  5-MIN KSTC 150405Z AUTO 17006KT 6SM BR SCT008 19/18 A2987 1070 93 1800 170/06 RMK AO2
14926KSTC STC20120614221010806/14/12 22:10:31  5-MIN KSTC 150410Z AUTO 16007KT 8SM SCT008 BKN024 19/18 A2987 1070 93 1900 160/07 RMK AO2
14926KSTC STC20120614221510806/14/12 22:15:31  5-MIN KSTC 150415Z AUTO 16006KT 9SM SCT008 BKN024 19/18 A2986 1080 93 1900 160/06 RMK AO2
14926KSTC STC20120614222010806/14/12 22:20:31  5-MIN KSTC 150420Z AUTO 16008KT 9SM SCT008 BKN024 19/18 A2986 1080 93 1900 160/08 RMK AO2
14926KSTC STC20120614222510906/14/12 22:25:31  5-MIN KSTC 150425Z AUTO 16004KT 10SM SCT008 BKN024 19/18 A2987 1080 93 1900 160/04 RMK AO2
14926KSTC STC20120614223010906/14/12 22:30:31  5-MIN KSTC 150430Z AUTO 15008KT 10SM SCT008 BKN024 19/18 A2987 1070 90 1900 150/08 RMK AO2
14926KSTC STC20120614223510906/14/12 22:35:31  5-MIN KSTC 150435Z AUTO 15007KT 10SM FEW008 SCT024 19/18 A2987 1070 90 1900 150/07 RMK AO2
14926KSTC STC20120614224010806/14/12 22:40:31  5-MIN KSTC 150440Z AUTO 16005G14KT 10SM FEW008 19/18 A2988 1070 90 1900 160/05G14 RMK AO2
14926KSTC STC20120614224510206/14/12 22:45:31  5-MIN KSTC 150445Z AUTO 16005KT 10SM FEW008 19/18 A2988 1070 93 1800 160/05 RMK AO2
14926KSTC STC20120614225011906/14/12 22:50:31  5-MIN KSTC 150450Z AUTO 16005KT 10SM FEW008 19/18 A2988 1070 93 1800 160/05 RMK AO2 SLP123 T01890178
14926KSTC STC20120614225509906/14/12 22:55:31  5-MIN KSTC 150455Z AUTO 17006KT 10SM CLR 19/18 A2988 1070 93 1800 170/06 RMK AO2
14926KSTC STC20120614230009906/14/12 23:00:31  5-MIN KSTC 150500Z AUTO 16007KT 10SM CLR 19/18 A2988 1060 93 1800 160/07 RMK AO2
14926KSTC STC20120614230509906/14/12 23:05:31  5-MIN KSTC 150505Z AUTO 17007KT 10SM CLR 19/18 A2989 1060 93 1800 170/07 RMK AO2
14926KSTC STC20120614231009906/14/12 23:10:31  5-MIN KSTC 150510Z AUTO 17007KT 10SM CLR 19/18 A2989 1060 93 1800 170/07 RMK AO2
14926KSTC STC20120614231509906/14/12 23:15:31  5-MIN KSTC 150515Z AUTO 17005KT 10SM CLR 19/18 A2989 1060 93 1800 170/05 RMK AO2
14926KSTC STC20120614232009906/14/12 23:20:31  5-MIN KSTC 150520Z AUTO 16005KT 10SM CLR 19/17 A2989 1050 90 1800 160/05 RMK AO2
14926KSTC STC20120614232509906/14/12 23:25:31  5-MIN KSTC 150525Z AUTO 16006KT 10SM CLR 18/17 A2989 1050 93 1700 160/06 RMK AO2
14926KSTC STC20120614233009906/14/12 23:30:31  5-MIN KSTC 150530Z AUTO 16005KT 10SM CLR 18/17 A2990 1050 93 1700 160/05 RMK AO2
14926KSTC STC20120614233509906/14/12 23:35:31  5-MIN KSTC 150535Z AUTO 17005KT 10SM CLR 18/17 A2990 1050 93 1700 170/05 RMK AO2
14926KSTC STC20120614234009906/14/12 23:40:31  5-MIN KSTC 150540Z AUTO 18004KT 10SM CLR 18/17 A2990 1040 93 1700 180/04 RMK AO2
14926KSTC STC20120614234509906/14/12 23:45:31  5-MIN KSTC 150545Z AUTO 17005KT 10SM CLR 18/17 A2990 1040 93 1700 170/05 RMK AO2
14926KSTC STC20120614235014406/14/12 23:50:31  5-MIN KSTC 150550Z AUTO 17005KT 10SM CLR 18/17 A2990 1040 93 1700 170/05 RMK AO2 SLP131 T01830172 10211 20183 402220144 53023
14926KSTC STC20120614235509906/14/12 23:55:31  5-MIN KSTC 150555Z AUTO 18005KT 10SM CLR 18/17 A2990 1040 93 1700 170/05 RMK AO2
14926KSTC STC20120615000009906/15/12 00:00:32  5-MIN KSTC 150600Z AUTO 17004KT 10SM CLR 18/17 A2990 1040 93 1700 170/04 RMK AO2
14926KSTC STC20120615000509906/15/12 00:05:31  5-MIN KSTC 150605Z AUTO 17005KT 10SM CLR 18/17 A2990 1040 90 1700 170/05 RMK AO2
14926KSTC STC20120615001009906/15/12 00:10:31  5-MIN KSTC 150610Z AUTO 18005KT 10SM CLR 18/17 A2990 1040 93 1600 180/05 RMK AO2
14926KSTC STC20120615001509906/15/12 00:15:31  5-MIN KSTC 150615Z AUTO 18004KT 10SM CLR 18/17 A2990 1040 93 1600 180/04 RMK AO2
14926KSTC STC20120615002009906/15/12 00:20:31  5-MIN KSTC 150620Z AUTO 18004KT 10SM CLR 18/17 A2990 1040 93 1600 180/04 RMK AO2
14926KSTC STC20120615002509906/15/12 00:25:31  5-MIN KSTC 150625Z AUTO 17004KT 10SM CLR 18/17 A2990 1040 93 1700 170/04 RMK AO2
14926KSTC STC20120615003009906/15/12 00:30:31  5-MIN KSTC 150630Z AUTO 17004KT 10SM CLR 18/17 A2990 1050 93 1700 170/04 RMK AO2
14926KSTC STC20120615003509906/15/12 00:35:31  5-MIN KSTC 150635Z AUTO 17004KT 10SM CLR 18/17 A2990 1050 93 1700 170/04 RMK AO2
14926KSTC STC20120615004009906/15/12 00:40:31  5-MIN KSTC 150640Z AUTO 17003KT 10SM CLR 17/16 A2989 1050 93 1600 170/03 RMK AO2
14926KSTC STC20120615004509906/15/12 00:45:31  5-MIN KSTC 150645Z AUTO 17004KT 10SM CLR 17/16 A2990 1050 93 1600 170/04 RMK AO2
14926KSTC STC20120615005011606/15/12 00:50:31  5-MIN KSTC 150650Z AUTO 17004KT 10SM CLR 17/16 A2990 1050 93 1600 170/04 RMK AO2 SLP131 T01720161
14926KSTC STC20120615005509906/15/12 00:55:31  5-MIN KSTC 150655Z AUTO 17003KT 10SM CLR 17/16 A2990 1040 93 1600 170/03 RMK AO2
14926KSTC STC20120615010009906/15/12 01:00:31  5-MIN KSTC 150700Z AUTO 17003KT 10SM CLR 17/16 A2990 1040 93 1600 170/03 RMK AO2
14926KSTC STC20120615010509906/15/12 01:05:31  5-MIN KSTC 150705Z AUTO 18003KT 10SM CLR 17/16 A2990 1040 93 1600 180/03 RMK AO2
14926KSTC STC20120615011009906/15/12 01:10:31  5-MIN KSTC 150710Z AUTO 00000KT 10SM CLR 17/16 A2990 1040 93 1600 000/00 RMK AO2
14926KSTC STC20120615011509806/15/12 01:15:31  5-MIN KSTC 150715Z AUTO 00000KT 9SM CLR 17/16 A2991 1040 93 1600 000/00 RMK AO2
14926KSTC STC20120615012009806/15/12 01:20:31  5-MIN KSTC 150720Z AUTO 00000KT 9SM CLR 17/16 A2991 1040 93 1500 000/00 RMK AO2
14926KSTC STC20120615012509806/15/12 01:25:31  5-MIN KSTC 150725Z AUTO 00000KT 8SM CLR 17/16 A2990 1040 96 1500 000/00 RMK AO2
14926KSTC STC20120615013009806/15/12 01:30:31  5-MIN KSTC 150730Z AUTO 00000KT 7SM CLR 17/16 A2991 1040 93 1500 000/00 RMK AO2
14926KSTC STC20120615013510106/15/12 01:35:31  5-MIN KSTC 150735Z AUTO 00000KT 5SM BR CLR 17/16 A2991 1040 93 1500 000/00 RMK AO2
14926KSTC STC20120615014010106/15/12 01:40:31  5-MIN KSTC 150740Z AUTO 00000KT 5SM BR CLR 17/16 A2991 1040 93 1500 000/00 RMK AO2
14926KSTC STC20120615014510106/15/12 01:45:31  5-MIN KSTC 150745Z AUTO 00000KT 4SM BR CLR 17/16 A2991 1040 93 1500 000/00 RMK AO2
14926KSTC STC20120615015011806/15/12 01:50:31  5-MIN KSTC 150750Z AUTO 00000KT 4SM BR CLR 17/16 A2991 1040 93 1500 000/00 RMK AO2 SLP135 T01670156
14926KSTC STC20120615015510106/15/12 01:55:31  5-MIN KSTC 150755Z AUTO 00000KT 4SM BR CLR 16/16 A2991 1030 96 1400 000/00 RMK AO2
14926KSTC STC20120615020010106/15/12 02:00:31  5-MIN KSTC 150800Z AUTO 00000KT 4SM BR CLR 17/16 A2991 1030 93 1500 000/00 RMK AO2
14926KSTC STC20120615020510106/15/12 02:05:31  5-MIN KSTC 150805Z AUTO 00000KT 3SM BR CLR 17/16 A2991 1040 93 1500 000/00 RMK AO2
14926KSTC STC20120615021010506/15/12 02:10:31  5-MIN KSTC 150810Z AUTO 15004KT 2 1/2SM BR CLR 16/16 A2991 1040 96 1400 150/04 RMK AO2
14926KSTC STC20120615021510506/15/12 02:15:31  5-MIN KSTC 150815Z AUTO 15005KT 2 1/2SM BR CLR 16/16 A2991 1040 96 1400 150/05 RMK AO2
14926KSTC STC20120615022010106/15/12 02:20:31  5-MIN KSTC 150820Z AUTO 14005KT 4SM BR CLR 16/16 A2991 1030 96 1400 140/05 RMK AO2
14926KSTC STC20120615022510106/15/12 02:25:31  5-MIN KSTC 150825Z AUTO 15004KT 4SM BR CLR 17/16 A2991 1040 93 1500 150/04 RMK AO2
14926KSTC STC20120615023010106/15/12 02:30:31  5-MIN KSTC 150830Z AUTO 16003KT 3SM BR CLR 16/16 A2991 1040 96 1500 160/03 RMK AO2
14926KSTC STC20120615023510506/15/12 02:35:31  5-MIN KSTC 150835Z AUTO 00000KT 1 1/2SM BR CLR 16/16 A2990 1040 96 1500 000/00 RMK AO2
14926KSTC STC20120615024010506/15/12 02:40:31  5-MIN KSTC 150840Z AUTO 15003KT 1/2SM FG VV006 16/16 A2990 1040 96 1500 150/03 RMK AO2
14926KSTC STC20120615024510506/15/12 02:45:31  5-MIN KSTC 150845Z AUTO 15003KT 3/4SM BR VV005 16/16 A2990 1040 96 1500 150/03 RMK AO2
14926KSTC STC20120615025010406/15/12 02:50:31  5-MIN KSTC 150850Z AUTO 00000KT 2SM BR FEW006 16/16 A2990 1040 96 1500 000/00 RMK AO2
14926KSTC STC20120615025510406/15/12 02:55:31  5-MIN KSTC 150855Z AUTO 00000KT 2SM BR FEW006 16/16 A2990 1040 96 1500 000/00 RMK AO2
14926KSTC STC20120615030010806/15/12 03:00:31  5-MIN KSTC 150900Z AUTO 00000KT 1 1/4SM BR FEW006 16/16 A2990 1040 96 1500 000/00 RMK AO2
14926KSTC STC20120615030510606/15/12 03:05:31  5-MIN KSTC 150905Z AUTO 00000KT 3/4SM BR VV005 16/16 A2990 1040 100 1400 000/00 RMK AO2
14926KSTC STC20120615031010306/15/12 03:10:31  5-MIN KSTC 150910Z AUTO 00000KT 1/2SM FG CLR 16/15 A2990 1040 96 1400 000/00 RMK AO2
14926KSTC STC20120615031510606/15/12 03:15:31  5-MIN KSTC 150915Z AUTO 00000KT 1/4SM FG VV003 15/15 A2990 1040 100 1300 000/00 RMK AO2
14926KSTC STC20120615032010506/15/12 03:20:31  5-MIN KSTC 150920Z AUTO 00000KT 1/4SM FG VV003 15/14 A2990 1040 93 1300 000/00 RMK AO2
14926KSTC STC20120615032510506/15/12 03:25:31  5-MIN KSTC 150925Z AUTO 00000KT 1/4SM FG VV002 15/14 A2990 1050 93 1300 000/00 RMK AO2
14926KSTC STC20120615033010506/15/12 03:30:31  5-MIN KSTC 150930Z AUTO 00000KT 1/4SM FG VV002 14/14 A2990 1050 96 1300 000/00 RMK AO2
14926KSTC STC20120615033510506/15/12 03:35:31  5-MIN KSTC 150935Z AUTO 00000KT 1/4SM FG VV002 14/14 A2990 1050 96 1300 000/00 RMK AO2
14926KSTC STC20120615034010506/15/12 03:40:31  5-MIN KSTC 150940Z AUTO 00000KT 1/4SM FG VV002 14/14 A2990 1040 96 1300 000/00 RMK AO2
14926KSTC STC20120615034510506/15/12 03:45:31  5-MIN KSTC 150945Z AUTO 00000KT 1/4SM FG VV002 15/14 A2990 1040 93 1300 000/00 RMK AO2
14926KSTC STC20120615035012306/15/12 03:50:31  5-MIN KSTC 150950Z AUTO 32003KT 1/4SM FG VV002 14/14 A2990 1040 100 1300 310/03 RMK AO2 SLP133 T01440144
14926KSTC STC20120615035510506/15/12 03:55:31  5-MIN KSTC 150955Z AUTO 00000KT 1/4SM FG VV001 14/13 A2990 1040 96 1200 000/00 RMK AO2
14926KSTC STC20120615040010506/15/12 04:00:31  5-MIN KSTC 151000Z AUTO 00000KT 1/4SM FG VV001 14/13 A2991 1040 96 1200 000/00 RMK AO2
14926KSTC STC20120615040510506/15/12 04:05:31  5-MIN KSTC 151005Z AUTO 00000KT 1/4SM FG VV001 14/14 A2991 1040 96 1300 000/00 RMK AO2
14926KSTC STC20120615041010506/15/12 04:10:31  5-MIN KSTC 151010Z AUTO 00000KT 1/4SM FG VV002 14/14 A2991 1040 96 1300 000/00 RMK AO2
14926KSTC STC20120615041510606/15/12 04:15:31  5-MIN KSTC 151015Z AUTO 00000KT M1/4SM FG VV002 14/13 A2991 1030 96 1200 000/00 RMK AO2
14926KSTC STC20120615042010606/15/12 04:20:31  5-MIN KSTC 151020Z AUTO 00000KT M1/4SM FG VV003 14/13 A2992 1030 93 1200 000/00 RMK AO2
14926KSTC STC20120615042510506/15/12 04:25:31  5-MIN KSTC 151025Z AUTO 14003KT 1/4SM FG VV003 14/14 A2992 1030 96 1200 140/03 RMK AO2
14926KSTC STC20120615043010506/15/12 04:30:31  5-MIN KSTC 151030Z AUTO 13003KT 1/4SM FG VV004 15/14 A2992 1030 96 1300 130/03 RMK AO2
14926KSTC STC20120615043510506/15/12 04:35:31  5-MIN KSTC 151035Z AUTO 00000KT 1/4SM FG VV004 16/15 A2992 1030 96 1400 000/00 RMK AO2
14926KSTC STC20120615044010506/15/12 04:40:31  5-MIN KSTC 151040Z AUTO 00000KT 1/4SM FG VV004 16/15 A2992 1030 96 1400 000/00 RMK AO2
14926KSTC STC20120615044510506/15/12 04:45:31  5-MIN KSTC 151045Z AUTO 00000KT 1/4SM FG VV004 16/16 A2992 1030 96 1400 000/00 RMK AO2
14926KSTC STC20120615045010606/15/12 04:50:31  5-MIN KSTC 151050Z AUTO 00000KT 3/4SM BR OVC003 16/16 A2992 1020 96 1400 000/00 RMK AO2
14926KSTC STC20120615045510606/15/12 04:55:31  5-MIN KSTC 151055Z AUTO 00000KT 3/4SM BR OVC003 16/16 A2992 1020 96 1400 000/00 RMK AO2
14926KSTC STC20120615050010606/15/12 05:00:31  5-MIN KSTC 151100Z AUTO 00000KT 1/2SM FG OVC003 16/16 A2992 1020 96 1400 000/00 RMK AO2
14926KSTC STC20120615050510606/15/12 05:05:31  5-MIN KSTC 151105Z AUTO 00000KT 1/2SM FG OVC003 16/16 A2992 1020 96 1400 000/00 RMK AO2
14926KSTC STC20120615051010506/15/12 05:10:31  5-MIN KSTC 151110Z AUTO 00000KT 1/2SM FG VV002 16/16 A2993 1020 96 1400 000/00 RMK AO2
14926KSTC STC20120615051510506/15/12 05:15:31  5-MIN KSTC 151115Z AUTO 00000KT 1/4SM FG VV002 16/16 A2993 1020 96 1400 000/00 RMK AO2
14926KSTC STC20120615052010506/15/12 05:20:31  5-MIN KSTC 151120Z AUTO 00000KT 1/4SM FG VV002 17/16 A2993 1010 96 1500 000/00 RMK AO2
14926KSTC STC20120615052510506/15/12 05:25:31  5-MIN KSTC 151125Z AUTO 00000KT 1/4SM FG VV002 17/16 A2993 1020 96 1500 000/00 RMK AO2
14926KSTC STC20120615053010506/15/12 05:30:31  5-MIN KSTC 151130Z AUTO 00000KT 1/4SM FG VV002 17/16 A2994 1010 96 1500 000/00 RMK AO2
14926KSTC STC20120615053510506/15/12 05:35:31  5-MIN KSTC 151135Z AUTO 00000KT 1/4SM FG VV002 17/16 A2994 1010 96 1500 000/00 RMK AO2
14926KSTC STC20120615054010506/15/12 05:40:31  5-MIN KSTC 151140Z AUTO 00000KT 1/4SM FG VV002 17/17 A2994 1010 96 1500 000/00 RMK AO2
14926KSTC STC20120615054510606/15/12 05:45:31  5-MIN KSTC 151145Z AUTO 00000KT M1/4SM FG VV002 17/17 A2995 1000 96 1500 000/00 RMK AO2
14926KSTC STC20120615055014706/15/12 05:50:31  5-MIN KSTC 151150Z AUTO 18003KT M1/4SM FG VV002 17/17 A2995 1000 96 1500 180/03 RMK AO2 SLP148 70066 T01720167 10183 20139 50000
14926KSTC STC20120615055510106/15/12 05:55:31  5-MIN KSTC 151155Z 19003KT M1/4SM FG VV002 18/17 A2995 1000 96 1600 190/03 RMK AO2
14926KSTC STC20120615060010006/15/12 06:00:31  5-MIN KSTC 151200Z 21003KT M1/4SM FG VV002 18/17 A2996 990 96 1600 200/03 RMK AO2
14926KSTC STC20120615060510006/15/12 06:05:31  5-MIN KSTC 151205Z 22003KT M1/4SM FG VV002 18/17 A2996 990 96 1600 220/03 RMK AO2
14926KSTC STC20120615061009906/15/12 06:10:31  5-MIN KSTC 151210Z 00000KT 1/4SM FG VV002 18/17 A2996 990 96 1600 000/00 RMK AO2
14926KSTC STC20120615061509906/15/12 06:15:31  5-MIN KSTC 151215Z 23003KT 1/4SM FG VV002 18/17 A2996 990 96 1600 230/03 RMK AO2
14926KSTC STC20120615062009906/15/12 06:20:31  5-MIN KSTC 151220Z 00000KT 1/4SM FG VV002 18/17 A2996 990 96 1600 000/00 RMK AO2
14926KSTC STC20120615062509906/15/12 06:25:31  5-MIN KSTC 151225Z 00000KT 1/4SM FG VV002 18/17 A2996 990 96 1600 000/00 RMK AO2
14926KSTC STC20120615063009906/15/12 06:30:31  5-MIN KSTC 151230Z 26003KT 1/2SM FG VV002 18/17 A2996 990 96 1600 250/03 RMK AO2
14926KSTC STC20120615063509906/15/12 06:35:31  5-MIN KSTC 151235Z 00000KT 1/2SM FG VV002 18/17 A2996 990 96 1600 000/00 RMK AO2
14926KSTC STC20120615064009906/15/12 06:40:31  5-MIN KSTC 151240Z 27003KT 1/4SM FG VV002 18/17 A2996 990 96 1600 270/03 RMK AO2
14926KSTC STC20120615064509906/15/12 06:45:31  5-MIN KSTC 151245Z 00000KT 1/4SM FG VV002 18/17 A2996 990 96 1600 000/00 RMK AO2
14926KSTC STC20120615065011606/15/12 06:50:31  5-MIN KSTC 151250Z 30003KT 1/4SM FG VV002 18/17 A2996 990 96 1600 300/03 RMK AO2 SLP151 T01780172
14926KSTC STC20120615065510006/15/12 06:55:31  5-MIN KSTC 151255Z 00000KT 3/4SM BR OVC002 18/17 A2996 990 96 1600 000/00 RMK AO2
14926KSTC STC20120615070010206/15/12 07:00:31  5-MIN KSTC 151300Z 00000KT 1 1/2SM BR OVC002 18/17 A2996 990 96 1600 000/00 RMK AO2
14926KSTC STC20120615070510206/15/12 07:05:31  5-MIN KSTC 151305Z 31003KT 1 1/4SM BR OVC002 18/17 A2997 980 93 1600 310/03 RMK AO2
14926KSTC STC20120615071010206/15/12 07:10:31  5-MIN KSTC 151310Z 31003KT 1 1/2SM BR OVC002 18/17 A2996 990 93 1600 310/03 RMK AO2
14926KSTC STC20120615071509806/15/12 07:15:31  5-MIN KSTC 151315Z 32004KT 3SM BR OVC002 18/17 A2996 990 96 1600 320/04 RMK AO2
14926KSTC STC20120615072009806/15/12 07:20:31  5-MIN KSTC 151320Z 31004KT 3SM BR OVC002 18/17 A2996 990 96 1600 310/04 RMK AO2
14926KSTC STC20120615080009806/15/12 08:00:31  5-MIN KSTC 151400Z 00000KT 5SM BR BKN004 19/18 A2998 970 90 1800 000/00 RMK AO2
14926KSTC STC20120615080509806/15/12 08:05:31  5-MIN KSTC 151405Z 33004KT 6SM HZ BKN004 20/17 A2998 970 84 1800 330/04 RMK AO2
14926KSTC STC20120615081009506/15/12 08:10:31  5-MIN KSTC 151410Z 33003KT 7SM SCT004 20/18 A2998 970 87 1800 330/03 RMK AO2
14926KSTC STC20120615081509506/15/12 08:15:31  5-MIN KSTC 151415Z 33004KT 7SM SCT004 21/18 A2998 970 84 1900 330/04 RMK AO2
14926KSTC STC20120615082009506/15/12 08:20:31  5-MIN KSTC 151420Z 32003KT 7SM FEW004 21/18 A2998 970 84 1900 320/03 RMK AO2
14926KSTC STC20120615082509506/15/12 08:25:31  5-MIN KSTC 151425Z 00000KT 7SM FEW004 21/18 A2999 960 84 1900 000/00 RMK AO2
14926KSTC STC20120615083009206/15/12 08:30:31  5-MIN KSTC 151430Z 00000KT 8SM CLR 21/18 A2999 960 81 1900 000/00 RMK AO2
14926KSTC STC20120615083509206/15/12 08:35:31  5-MIN KSTC 151435Z 00000KT 8SM CLR 21/18 A2999 960 81 1900 000/00 RMK AO2
14926KSTC STC20120615084009206/15/12 08:40:31  5-MIN KSTC 151440Z 00000KT 9SM CLR 21/18 A3000 950 81 1900 000/00 RMK AO2
14926KSTC STC20120615084509206/15/12 08:45:31  5-MIN KSTC 151445Z 00000KT 9SM CLR 21/18 A3000 950 81 1900 000/00 RMK AO2
14926KSTC STC20120615085011506/15/12 08:50:31  5-MIN KSTC 151450Z 00000KT 9SM CLR 21/17 A3000 950 78 1900 000/00 RMK AO2 SLP164 T02110172 53016
14926KSTC STC20120615085509306/15/12 08:55:31  5-MIN KSTC 151455Z 00000KT 10SM CLR 22/17 A3000 950 75 2000 000/00 RMK AO2
14926KSTC STC20120615090009306/15/12 09:00:31  5-MIN KSTC 151500Z 00000KT 10SM CLR 22/17 A3000 950 75 2000 000/00 RMK AO2
14926KSTC STC20120615090509306/15/12 09:05:31  5-MIN KSTC 151505Z 30003KT 10SM CLR 22/17 A3000 950 73 2000 300/03 RMK AO2
14926KSTC STC20120615091009306/15/12 09:10:31  5-MIN KSTC 151510Z VRB03KT 10SM CLR 22/17 A3000 950 70 2000 VRB/03 RMK AO2
14926KSTC STC20120615091509306/15/12 09:15:31  5-MIN KSTC 151515Z 33004KT 10SM CLR 23/17 A3000 950 68 2100 320/04 RMK AO2
14926KSTC STC20120615092009306/15/12 09:20:31  5-MIN KSTC 151520Z 32005KT 10SM CLR 23/17 A3000 950 68 2100 320/05 RMK AO2
14926KSTC STC20120615092509306/15/12 09:25:31  5-MIN KSTC 151525Z 33004KT 10SM CLR 23/17 A3000 950 68 2100 330/04 RMK AO2
14926KSTC STC20120615093009306/15/12 09:30:31  5-MIN KSTC 151530Z 35004KT 10SM CLR 23/17 A3000 950 66 2200 350/04 RMK AO2
14926KSTC STC20120615093509306/15/12 09:35:31  5-MIN KSTC 151535Z 33006KT 10SM CLR 23/16 A3000 950 63 2200 330/06 RMK AO2
14926KSTC STC20120615094009306/15/12 09:40:31  5-MIN KSTC 151540Z 34005KT 10SM CLR 23/16 A3000 950 63 2200 340/05 RMK AO2
14926KSTC STC20120615094509306/15/12 09:45:31  5-MIN KSTC 151545Z 33005KT 10SM CLR 23/16 A3000 950 63 2200 330/05 RMK AO2
14926KSTC STC20120615095011006/15/12 09:50:31  5-MIN KSTC 151550Z 34004KT 10SM CLR 24/17 A3000 950 63 2200 340/04 RMK AO2 SLP162 T02390167
14926KSTC STC20120615095509306/15/12 09:55:31  5-MIN KSTC 151555Z 33005KT 10SM CLR 23/16 A3000 960 61 2200 320/05 RMK AO2
14926KSTC STC20120615100009306/15/12 10:00:31  5-MIN KSTC 151600Z 33006KT 10SM CLR 23/16 A3000 950 61 2200 330/06 RMK AO2
14926KSTC STC20120615100509306/15/12 10:05:31  5-MIN KSTC 151605Z 33005KT 10SM CLR 24/17 A3000 950 63 2200 330/05 RMK AO2
14926KSTC STC20120615101009306/15/12 10:10:31  5-MIN KSTC 151610Z 31004KT 10SM CLR 24/16 A3000 950 61 2200 310/04 RMK AO2
14926KSTC STC20120615101509306/15/12 10:15:31  5-MIN KSTC 151615Z 34005KT 10SM CLR 24/16 A3000 950 59 2200 340/05 RMK AO2
14926KSTC STC20120615102009306/15/12 10:20:31  5-MIN KSTC 151620Z 36005KT 10SM CLR 24/16 A3000 950 59 2200 360/05 RMK AO2
14926KSTC STC20120615102509306/15/12 10:25:31  5-MIN KSTC 151625Z 01005KT 10SM CLR 24/16 A3000 950 59 2200 360/05 RMK AO2
14926KSTC STC20120615103009306/15/12 10:30:31  5-MIN KSTC 151630Z 35006KT 10SM CLR 24/16 A3000 950 61 2200 350/06 RMK AO2
14926KSTC STC20120615103509306/15/12 10:35:31  5-MIN KSTC 151635Z 34005KT 10SM CLR 24/16 A3000 950 59 2300 340/05 RMK AO2
14926KSTC STC20120615104009306/15/12 10:40:31  5-MIN KSTC 151640Z 01005KT 10SM CLR 24/16 A3000 950 61 2200 010/05 RMK AO2
14926KSTC STC20120615104509306/15/12 10:45:31  5-MIN KSTC 151645Z 01004KT 10SM CLR 24/16 A3000 950 57 2300 010/04 RMK AO2
14926KSTC STC20120615105011006/15/12 10:50:31  5-MIN KSTC 151650Z 01004KT 10SM CLR 24/16 A3000 950 59 2300 010/04 RMK AO2 SLP164 T02440161
14926KSTC STC20120615105509306/15/12 10:55:31  5-MIN KSTC 151655Z 34005KT 10SM CLR 24/16 A3000 950 59 2300 340/05 RMK AO2
14926KSTC STC20120615110009306/15/12 11:00:31  5-MIN KSTC 151700Z 36006KT 10SM CLR 24/16 A3000 950 57 2300 360/06 RMK AO2
14926KSTC STC20120615110509306/15/12 11:05:31  5-MIN KSTC 151705Z VRB04KT 10SM CLR 24/16 A3000 950 57 2300 VRB/04 RMK AO2
14926KSTC STC20120615111009306/15/12 11:10:31  5-MIN KSTC 151710Z 35003KT 10SM CLR 25/15 A3001 950 53 2400 350/03 RMK AO2
14926KSTC STC20120615111509306/15/12 11:15:31  5-MIN KSTC 151715Z VRB05KT 10SM CLR 25/15 A3000 950 53 2400 VRB/05 RMK AO2
14926KSTC STC20120615112009306/15/12 11:20:31  5-MIN KSTC 151720Z 36005KT 10SM CLR 25/15 A3000 950 53 2400 360/05 RMK AO2
14926KSTC STC20120615112509306/15/12 11:25:31  5-MIN KSTC 151725Z 01004KT 10SM CLR 26/15 A3000 950 51 2400 010/04 RMK AO2
14926KSTC STC20120615113009306/15/12 11:30:31  5-MIN KSTC 151730Z 35004KT 10SM CLR 25/15 A3000 950 53 2400 350/04 RMK AO2
14926KSTC STC20120615113509306/15/12 11:35:31  5-MIN KSTC 151735Z 33006KT 10SM CLR 26/14 A3000 950 49 2400 330/06 RMK AO2
14926KSTC STC20120615114009306/15/12 11:40:31  5-MIN KSTC 151740Z 36006KT 10SM CLR 26/14 A3000 950 48 2400 360/06 RMK AO2
14926KSTC STC20120615114509306/15/12 11:45:31  5-MIN KSTC 151745Z 36007KT 10SM CLR 26/14 A3000 950 49 2400 360/07 RMK AO2
14926KSTC STC20120615115012806/15/12 11:50:31  5-MIN KSTC 151750Z 36004KT 10SM CLR 26/14 A3000 960 49 2400 360/04 RMK AO2 SLP161 T02560144 10256 20172 53017
14926KSTC STC20120615115509306/15/12 11:55:31  5-MIN KSTC 151755Z 36006KT 10SM CLR 26/14 A3000 960 49 2400 360/06 RMK AO2
14926KSTC STC20120615120009306/15/12 12:00:31  5-MIN KSTC 151800Z 02004KT 10SM CLR 26/14 A3000 950 48 2400 020/04 RMK AO2
14926KSTC STC20120615120509306/15/12 12:05:31  5-MIN KSTC 151805Z 36003KT 10SM CLR 26/14 A3001 950 48 2400 360/03 RMK AO2
14926KSTC STC20120615121009306/15/12 12:10:31  5-MIN KSTC 151810Z 00000KT 10SM CLR 26/14 A3001 950 48 2500 000/00 RMK AO2
14926KSTC STC20120615121509306/15/12 12:15:31  5-MIN KSTC 151815Z VRB03KT 10SM CLR 26/14 A3001 940 46 2500 VRB/03 RMK AO2
14926KSTC STC20120615122009306/15/12 12:20:31  5-MIN KSTC 151820Z 00000KT 10SM CLR 26/12 A3001 940 41 2500 000/00 RMK AO2
14926KSTC STC20120615122509306/15/12 12:25:31  5-MIN KSTC 151825Z VRB03KT 10SM CLR 26/13 A3001 940 43 2500 VRB/03 RMK AO2
14926KSTC STC20120615123009306/15/12 12:30:31  5-MIN KSTC 151830Z 00000KT 10SM CLR 26/13 A3001 940 44 2500 000/00 RMK AO2
14926KSTC STC20120615123509306/15/12 12:35:31  5-MIN KSTC 151835Z 00000KT 10SM CLR 27/13 A3001 940 43 2500 000/00 RMK AO2
14926KSTC STC20120615124009306/15/12 12:40:31  5-MIN KSTC 151840Z 34003KT 10SM CLR 26/13 A3001 940 43 2500 340/03 RMK AO2
14926KSTC STC20120615124509306/15/12 12:45:31  5-MIN KSTC 151845Z 33003KT 10SM CLR 26/13 A3001 940 43 2500 330/03 RMK AO2
14926KSTC STC20120615125011006/15/12 12:50:31  5-MIN KSTC 151850Z 00000KT 10SM CLR 26/13 A3001 940 43 2500 000/00 RMK AO2 SLP167 T02610128
14926KSTC STC20120615125509306/15/12 12:55:31  5-MIN KSTC 151855Z VRB03KT 10SM CLR 27/13 A3001 940 41 2500 VRB/03 RMK AO2
14926KSTC STC20120615130009306/15/12 13:00:31  5-MIN KSTC 151900Z 35005KT 10SM CLR 26/13 A3001 940 43 2500 350/05 RMK AO2
14926KSTC STC20120615130509306/15/12 13:05:31  5-MIN KSTC 151905Z 36005KT 10SM CLR 27/13 A3001 940 41 2500 360/05 RMK AO2
14926KSTC STC20120615131009306/15/12 13:10:31  5-MIN KSTC 151910Z 31004KT 10SM CLR 27/13 A3001 940 41 2500 310/04 RMK AO2
14926KSTC STC20120615131509306/15/12 13:15:31  5-MIN KSTC 151915Z 00000KT 10SM CLR 27/13 A3001 940 41 2500 000/00 RMK AO2
14926KSTC STC20120615132009306/15/12 13:20:31  5-MIN KSTC 151920Z VRB05KT 10SM CLR 27/13 A3001 940 42 2600 VRB/05 RMK AO2
14926KSTC STC20120615132509306/15/12 13:25:31  5-MIN KSTC 151925Z 00000KT 10SM CLR 27/13 A3001 940 41 2500 000/00 RMK AO2
14926KSTC STC20120615133009306/15/12 13:30:31  5-MIN KSTC 151930Z 31004KT 10SM CLR 27/13 A3001 940 43 2500 310/04 RMK AO2
14926KSTC STC20120615133509306/15/12 13:35:31  5-MIN KSTC 151935Z 36003KT 10SM CLR 27/13 A3001 950 43 2500 350/03 RMK AO2
14926KSTC STC20120615134009306/15/12 13:40:31  5-MIN KSTC 151940Z 03004KT 10SM CLR 27/13 A3001 950 43 2500 030/04 RMK AO2
14926KSTC STC20120615134509306/15/12 13:45:31  5-MIN KSTC 151945Z 02004KT 10SM CLR 27/14 A3001 950 45 2500 020/04 RMK AO2
14926KSTC STC20120615135011006/15/12 13:50:31  5-MIN KSTC 151950Z 00000KT 10SM CLR 27/13 A3001 940 40 2600 000/00 RMK AO2 SLP166 T02720128
14926KSTC STC20120615135509306/15/12 13:55:31  5-MIN KSTC 151955Z 00000KT 10SM CLR 27/13 A3001 940 42 2600 000/00 RMK AO2
14926KSTC STC20120615140009306/15/12 14:00:31  5-MIN KSTC 152000Z 00000KT 10SM CLR 27/13 A3001 950 41 2500 000/00 RMK AO2
14926KSTC STC20120615140509306/15/12 14:05:31  5-MIN KSTC 152005Z 31003KT 10SM CLR 27/13 A3000 950 41 2600 310/03 RMK AO2
14926KSTC STC20120615141009306/15/12 14:10:31  5-MIN KSTC 152010Z 00000KT 10SM CLR 27/13 A3001 950 43 2500 000/00 RMK AO2
14926KSTC STC20120615141509306/15/12 14:15:31  5-MIN KSTC 152015Z VRB05KT 10SM CLR 27/13 A3001 950 40 2600 VRB/05 RMK AO2
14926KSTC STC20120615142009306/15/12 14:20:31  5-MIN KSTC 152020Z 00000KT 10SM CLR 27/13 A3001 950 41 2500 000/00 RMK AO2
14926KSTC STC20120615142509306/15/12 14:25:31  5-MIN KSTC 152025Z 00000KT 10SM CLR 27/13 A3000 950 41 2500 000/00 RMK AO2
14926KSTC STC20120615143009306/15/12 14:30:31  5-MIN KSTC 152030Z 01003KT 10SM CLR 27/13 A2999 960 43 2600 010/03 RMK AO2
14926KSTC STC20120615143509306/15/12 14:35:31  5-MIN KSTC 152035Z 36005KT 10SM CLR 27/13 A2999 960 43 2600 360/05 RMK AO2
14926KSTC STC20120615144009306/15/12 14:40:31  5-MIN KSTC 152040Z 00000KT 10SM CLR 27/13 A2999 960 41 2600 000/00 RMK AO2
14926KSTC STC20120615144509306/15/12 14:45:31  5-MIN KSTC 152045Z 00000KT 10SM CLR 27/13 A2999 960 43 2600 000/00 RMK AO2
14926KSTC STC20120615145011606/15/12 14:50:31  5-MIN KSTC 152050Z 00000KT 10SM CLR 27/13 A2999 960 43 2600 000/00 RMK AO2 SLP161 T02670133 58002
14926KSTC STC20120615145509306/15/12 14:55:31  5-MIN KSTC 152055Z 03003KT 10SM CLR 27/14 A2999 960 45 2600 030/03 RMK AO2
14926KSTC STC20120615150009306/15/12 15:00:31  5-MIN KSTC 152100Z 00000KT 10SM CLR 27/13 A3000 960 43 2600 000/00 RMK AO2
14926KSTC STC20120615150509306/15/12 15:05:31  5-MIN KSTC 152105Z 00000KT 10SM CLR 27/13 A3000 960 43 2600 000/00 RMK AO2
14926KSTC STC20120615151009306/15/12 15:10:31  5-MIN KSTC 152110Z 36004KT 10SM CLR 27/13 A2999 960 42 2600 360/04 RMK AO2
14926KSTC STC20120615151509306/15/12 15:15:31  5-MIN KSTC 152115Z 00000KT 10SM CLR 27/13 A2999 960 42 2600 000/00 RMK AO2
14926KSTC STC20120615152009306/15/12 15:20:31  5-MIN KSTC 152120Z 00000KT 10SM CLR 27/13 A2999 960 41 2600 000/00 RMK AO2
14926KSTC STC20120615152509306/15/12 15:25:31  5-MIN KSTC 152125Z VRB03KT 10SM CLR 27/13 A2999 960 42 2600 VRB/03 RMK AO2
14926KSTC STC20120615153009306/15/12 15:30:31  5-MIN KSTC 152130Z 00000KT 10SM CLR 27/13 A2999 960 43 2600 000/00 RMK AO2
14926KSTC STC20120615153509306/15/12 15:35:31  5-MIN KSTC 152135Z 00000KT 10SM CLR 27/13 A2999 960 41 2600 000/00 RMK AO2
14926KSTC STC20120615154009306/15/12 15:40:31  5-MIN KSTC 152140Z 03003KT 10SM CLR 27/14 A2999 970 43 2600 030/03 RMK AO2
14926KSTC STC20120615154509306/15/12 15:45:31  5-MIN KSTC 152145Z 00000KT 10SM CLR 27/14 A2998 970 43 2600 000/00 RMK AO2
14926KSTC STC20120615155011006/15/12 15:50:31  5-MIN KSTC 152150Z 08003KT 10SM CLR 27/13 A2998 970 40 2600 080/03 RMK AO2 SLP157 T02720128
14926KSTC STC20120615155509306/15/12 15:55:31  5-MIN KSTC 152155Z 09003KT 10SM CLR 27/13 A2998 970 42 2600 090/03 RMK AO2
14926KSTC STC20120615160009306/15/12 16:00:31  5-MIN KSTC 152200Z 08003KT 10SM CLR 27/13 A2998 970 41 2600 080/03 RMK AO2
14926KSTC STC20120615160509306/15/12 16:05:31  5-MIN KSTC 152205Z 06003KT 10SM CLR 27/13 A2998 970 42 2600 060/03 RMK AO2
14926KSTC STC20120615161009306/15/12 16:10:31  5-MIN KSTC 152210Z VRB03KT 10SM CLR 27/13 A2999 970 41 2600 VRB/03 RMK AO2
14926KSTC STC20120615161509306/15/12 16:15:31  5-MIN KSTC 152215Z 05004KT 10SM CLR 27/13 A2999 960 40 2600 050/04 RMK AO2
14926KSTC STC20120615162009306/15/12 16:20:31  5-MIN KSTC 152220Z VRB04KT 10SM CLR 27/13 A2999 970 42 2600 VRB/04 RMK AO2
14926KSTC STC20120615162509306/15/12 16:25:31  5-MIN KSTC 152225Z 15005KT 10SM CLR 27/14 A2999 970 45 2600 150/05 RMK AO2
14926KSTC STC20120615163009306/15/12 16:30:31  5-MIN KSTC 152230Z VRB03KT 10SM CLR 27/13 A2998 970 43 2600 VRB/03 RMK AO2
14926KSTC STC20120615163509306/15/12 16:35:31  5-MIN KSTC 152235Z 00000KT 10SM CLR 27/13 A2999 970 40 2600 000/00 RMK AO2
14926KSTC STC20120615164009306/15/12 16:40:31  5-MIN KSTC 152240Z 00000KT 10SM CLR 27/13 A2999 970 43 2600 000/00 RMK AO2
14926KSTC STC20120615164509306/15/12 16:45:31  5-MIN KSTC 152245Z 00000KT 10SM CLR 27/13 A2998 970 43 2600 000/00 RMK AO2
14926KSTC STC20120615165011006/15/12 16:50:31  5-MIN KSTC 152250Z 08004KT 10SM CLR 27/14 A2998 970 45 2600 080/04 RMK AO2 SLP157 T02670139
14926KSTC STC20120615165509306/15/12 16:55:31  5-MIN KSTC 152255Z VRB03KT 10SM CLR 27/14 A2998 970 45 2600 VRB/03 RMK AO2
14926KSTC STC20120615170009606/15/12 17:00:31  5-MIN KSTC 152300Z 14004KT 10SM FEW050 26/14 A2998 970 46 2500 140/04 RMK AO2
14926KSTC STC20120615170509606/15/12 17:05:31  5-MIN KSTC 152305Z 14005KT 10SM FEW050 26/14 A2998 970 48 2500 140/05 RMK AO2
14926KSTC STC20120615171009606/15/12 17:10:31  5-MIN KSTC 152310Z 11004KT 10SM FEW050 26/14 A2998 970 49 2400 110/04 RMK AO2
14926KSTC STC20120615171509606/15/12 17:15:31  5-MIN KSTC 152315Z 11003KT 10SM FEW050 26/14 A2998 970 48 2500 110/03 RMK AO2
14926KSTC STC20120615172009606/15/12 17:20:31  5-MIN KSTC 152320Z 11003KT 10SM FEW050 26/14 A2998 980 48 2500 110/03 RMK AO2
14926KSTC STC20120615172509606/15/12 17:25:31  5-MIN KSTC 152325Z 12004KT 10SM FEW050 26/14 A2998 970 48 2500 120/04 RMK AO2
14926KSTC STC20120615173009306/15/12 17:30:31  5-MIN KSTC 152330Z 11003KT 10SM CLR 26/14 A2998 970 48 2400 110/03 RMK AO2
14926KSTC STC20120615173509306/15/12 17:35:31  5-MIN KSTC 152335Z 12003KT 10SM CLR 26/14 A2998 970 49 2400 120/03 RMK AO2
14926KSTC STC20120615174009306/15/12 17:40:31  5-MIN KSTC 152340Z 11003KT 10SM CLR 26/14 A2998 970 49 2400 110/03 RMK AO2
14926KSTC STC20120615174509306/15/12 17:45:31  5-MIN KSTC 152345Z 12003KT 10SM CLR 26/14 A2998 970 49 2400 120/03 RMK AO2
14926KSTC STC20120615175012806/15/12 17:50:31  5-MIN KSTC 152350Z 13003KT 10SM CLR 26/14 A2998 970 49 2400 130/03 RMK AO2 SLP158 T02560144 10272 20256 58001
14926KSTC STC20120615175509306/15/12 17:55:31  5-MIN KSTC 152355Z 12003KT 10SM CLR 26/14 A2998 970 49 2400 120/03 RMK AO2
14926KSTC STC20120615180009306/15/12 18:00:31  5-MIN KSTC 160000Z 11003KT 10SM CLR 26/14 A2998 970 46 2500 100/03 RMK AO2
14926KSTC STC20120615180509306/15/12 18:05:31  5-MIN KSTC 160005Z 11004KT 10SM CLR 26/14 A2998 970 49 2400 110/04 RMK AO2
14926KSTC STC20120615181009306/15/12 18:10:31  5-MIN KSTC 160010Z 12004KT 10SM CLR 26/15 A2998 970 50 2500 120/04 RMK AO2
14926KSTC STC20120615181509306/15/12 18:15:31  5-MIN KSTC 160015Z 13005KT 10SM CLR 26/15 A2998 970 51 2400 130/05 RMK AO2
14926KSTC STC20120615182009306/15/12 18:20:31  5-MIN KSTC 160020Z 12004KT 10SM CLR 26/15 A2998 970 51 2400 120/04 RMK AO2
14926KSTC STC20120615182509306/15/12 18:25:31  5-MIN KSTC 160025Z 12004KT 10SM CLR 26/15 A2998 970 51 2400 120/04 RMK AO2
14926KSTC STC20120615183009306/15/12 18:30:31  5-MIN KSTC 160030Z 13003KT 10SM CLR 26/15 A2998 970 51 2400 130/03 RMK AO2
14926KSTC STC20120615183509306/15/12 18:35:31  5-MIN KSTC 160035Z 14004KT 10SM CLR 26/16 A2999 970 53 2400 140/04 RMK AO2
14926KSTC STC20120615184009306/15/12 18:40:31  5-MIN KSTC 160040Z 14004KT 10SM CLR 25/15 A2999 970 53 2400 140/04 RMK AO2
14926KSTC STC20120615184509306/15/12 18:45:31  5-MIN KSTC 160045Z 14004KT 10SM CLR 25/16 A2999 970 55 2400 140/04 RMK AO2
14926KSTC STC20120615185011006/15/12 18:50:31  5-MIN KSTC 160050Z 15005KT 10SM CLR 24/16 A2999 960 57 2300 140/05 RMK AO2 SLP159 T02440156
14926KSTC STC20120615185509306/15/12 18:55:31  5-MIN KSTC 160055Z 14005KT 10SM CLR 24/16 A2999 960 57 2300 140/05 RMK AO2
14926KSTC STC20120615190009306/15/12 19:00:31  5-MIN KSTC 160100Z 13004KT 10SM CLR 24/15 A2999 960 55 2300 130/04 RMK AO2
14926KSTC STC20120615190509306/15/12 19:05:31  5-MIN KSTC 160105Z 13003KT 10SM CLR 24/15 A2999 970 57 2300 130/03 RMK AO2
14926KSTC STC20120615191009306/15/12 19:10:31  5-MIN KSTC 160110Z 13003KT 10SM CLR 24/15 A2999 960 57 2300 130/03 RMK AO2
14926KSTC STC20120615191509306/15/12 19:15:31  5-MIN KSTC 160115Z 00000KT 10SM CLR 23/16 A2999 960 61 2200 000/00 RMK AO2
14926KSTC STC20120615192009306/15/12 19:20:31  5-MIN KSTC 160120Z 00000KT 10SM CLR 23/16 A2999 960 63 2200 000/00 RMK AO2
14926KSTC STC20120615192509306/15/12 19:25:31  5-MIN KSTC 160125Z 00000KT 10SM CLR 23/16 A2999 960 63 2200 000/00 RMK AO2
14926KSTC STC20120615193009306/15/12 19:30:31  5-MIN KSTC 160130Z 13003KT 10SM CLR 23/16 A2998 970 65 2100 130/03 RMK AO2
14926KSTC STC20120615193509306/15/12 19:35:31  5-MIN KSTC 160135Z 12004KT 10SM CLR 23/16 A2998 970 65 2100 120/04 RMK AO2
14926KSTC STC20120615194009306/15/12 19:40:31  5-MIN KSTC 160140Z 11005KT 10SM CLR 22/16 A2998 970 68 2100 110/05 RMK AO2
14926KSTC STC20120615194509306/15/12 19:45:31  5-MIN KSTC 160145Z 11004KT 10SM CLR 23/16 A2998 970 63 2100 110/04 RMK AO2
14926KSTC STC20120615195011006/15/12 19:50:31  5-MIN KSTC 160150Z 11003KT 10SM CLR 23/16 A2998 970 63 2100 110/03 RMK AO2 SLP156 T02280156
14926KSTC STC20120615195509306/15/12 19:55:31  5-MIN KSTC 160155Z 11004KT 10SM CLR 22/16 A2998 980 65 2100 110/04 RMK AO2
14926KSTC STC20120615200009306/15/12 20:00:31  5-MIN KSTC 160200Z 10004KT 10SM CLR 22/16 A2997 980 65 2100 100/04 RMK AO2
14926KSTC STC20120615200509306/15/12 20:05:31  5-MIN KSTC 160205Z 09003KT 10SM CLR 22/16 A2997 980 65 2100 080/03 RMK AO2
14926KSTC STC20120615201009306/15/12 20:10:31  5-MIN KSTC 160210Z 08003KT 10SM CLR 22/16 A2997 980 65 2100 080/03 RMK AO2
14926KSTC STC20120615201509306/15/12 20:15:31  5-MIN KSTC 160215Z 00000KT 10SM CLR 22/16 A2997 980 68 2000 000/00 RMK AO2
14926KSTC STC20120615202009306/15/12 20:20:31  5-MIN KSTC 160220Z 09003KT 10SM CLR 21/16 A2997 980 75 1900 090/03 RMK AO2
14926KSTC STC20120615202509306/15/12 20:25:31  5-MIN KSTC 160225Z 09004KT 10SM CLR 21/16 A2997 980 75 1900 080/04 RMK AO2
14926KSTC STC20120615203009306/15/12 20:30:31  5-MIN KSTC 160230Z 09003KT 10SM CLR 21/16 A2998 970 75 1900 090/03 RMK AO2
14926KSTC STC20120615203509306/15/12 20:35:31  5-MIN KSTC 160235Z 08003KT 10SM CLR 21/16 A2998 970 75 1900 070/03 RMK AO2
14926KSTC STC20120615204009306/15/12 20:40:31  5-MIN KSTC 160240Z 08003KT 10SM CLR 20/16 A2998 970 78 1800 080/03 RMK AO2
14926KSTC STC20120615204509306/15/12 20:45:31  5-MIN KSTC 160245Z 08003KT 10SM CLR 20/16 A2998 970 78 1800 080/03 RMK AO2
14926KSTC STC20120615205011606/15/12 20:50:31  5-MIN KSTC 160250Z 08003KT 10SM CLR 19/16 A2999 970 81 1700 080/03 RMK AO2 SLP158 T01940161 55004
14926KSTC STC20120615205509306/15/12 20:55:31  5-MIN KSTC 160255Z 00000KT 10SM CLR 19/16 A2999 960 81 1700 000/00 RMK AO2
14926KSTC STC20120615210009306/15/12 21:00:31  5-MIN KSTC 160300Z 00000KT 10SM CLR 19/17 A2999 960 87 1700 000/00 RMK AO2
14926KSTC STC20120615210509306/15/12 21:05:31  5-MIN KSTC 160305Z 00000KT 10SM CLR 19/17 A3000 960 87 1700 000/00 RMK AO2
14926KSTC STC20120615211009306/15/12 21:10:31  5-MIN KSTC 160310Z 00000KT 10SM CLR 19/16 A3000 960 81 1700 000/00 RMK AO2
14926KSTC STC20120615211509306/15/12 21:15:31  5-MIN KSTC 160315Z 00000KT 10SM CLR 19/16 A3000 950 81 1700 000/00 RMK AO2
14926KSTC STC20120615212009306/15/12 21:20:31  5-MIN KSTC 160320Z 00000KT 10SM CLR 18/16 A3000 950 87 1600 000/00 RMK AO2
14926KSTC STC20120615212509306/15/12 21:25:31  5-MIN KSTC 160325Z 00000KT 10SM CLR 18/16 A3000 960 87 1600 000/00 RMK AO2
14926KSTC STC20120615213009306/15/12 21:30:31  5-MIN KSTC 160330Z 00000KT 10SM CLR 18/16 A3000 950 87 1600 000/00 RMK AO2
14926KSTC STC20120615213509306/15/12 21:35:31  5-MIN KSTC 160335Z 36003KT 10SM CLR 19/16 A3000 960 84 1700 360/03 RMK AO2
14926KSTC STC20120615214009306/15/12 21:40:31  5-MIN KSTC 160340Z 00000KT 10SM CLR 18/16 A3000 950 87 1600 000/00 RMK AO2
14926KSTC STC20120615214509306/15/12 21:45:31  5-MIN KSTC 160345Z 01003KT 10SM CLR 18/16 A3000 950 87 1600 010/03 RMK AO2
14926KSTC STC20120615215011006/15/12 21:50:31  5-MIN KSTC 160350Z 01003KT 10SM CLR 18/16 A3000 960 90 1500 010/03 RMK AO2 SLP162 T01780161
14926KSTC STC20120615215509306/15/12 21:55:31  5-MIN KSTC 160355Z 00000KT 10SM CLR 18/16 A3000 960 90 1500 000/00 RMK AO2
14926KSTC STC20120615220009806/15/12 22:00:31  5-MIN KSTC 160400Z AUTO 00000KT 10SM CLR 18/16 A2999 960 87 1600 000/00 RMK AO2
14926KSTC STC20120615220509806/15/12 22:05:31  5-MIN KSTC 160405Z AUTO 00000KT 10SM CLR 18/16 A2999 960 90 1500 000/00 RMK AO2
14926KSTC STC20120615221009806/15/12 22:10:31  5-MIN KSTC 160410Z AUTO 09003KT 10SM CLR 18/16 A2999 960 90 1600 080/03 RMK AO2
14926KSTC STC20120615221509806/15/12 22:15:31  5-MIN KSTC 160415Z AUTO 08003KT 10SM CLR 18/16 A2998 970 90 1600 070/03 RMK AO2
14926KSTC STC20120615222009806/15/12 22:20:31  5-MIN KSTC 160420Z AUTO 09004KT 10SM CLR 18/16 A2999 970 87 1600 090/04 RMK AO2
14926KSTC STC20120615222509806/15/12 22:25:31  5-MIN KSTC 160425Z AUTO 09004KT 10SM CLR 18/16 A2998 970 87 1600 090/04 RMK AO2
14926KSTC STC20120615223009806/15/12 22:30:31  5-MIN KSTC 160430Z AUTO 10004KT 10SM CLR 18/16 A2998 970 87 1600 100/04 RMK AO2
14926KSTC STC20120615223509806/15/12 22:35:31  5-MIN KSTC 160435Z AUTO 10004KT 10SM CLR 18/16 A2998 970 84 1600 100/04 RMK AO2
14926KSTC STC20120615224009806/15/12 22:40:31  5-MIN KSTC 160440Z AUTO 10003KT 10SM CLR 18/16 A2998 970 84 1600 100/03 RMK AO2
14926KSTC STC20120615224509806/15/12 22:45:31  5-MIN KSTC 160445Z AUTO 00000KT 10SM CLR 17/16 A2998 970 90 1500 000/00 RMK AO2
14926KSTC STC20120615225011506/15/12 22:50:31  5-MIN KSTC 160450Z AUTO 00000KT 10SM CLR 17/16 A2998 970 93 1400 000/00 RMK AO2 SLP156 T01670156
14926KSTC STC20120615225509806/15/12 22:55:31  5-MIN KSTC 160455Z AUTO 04003KT 10SM CLR 16/15 A2998 970 93 1400 040/03 RMK AO2
14926KSTC STC20120615230009806/15/12 23:00:31  5-MIN KSTC 160500Z AUTO 00000KT 10SM CLR 16/15 A2998 980 93 1400 000/00 RMK AO2
14926KSTC STC20120615230509806/15/12 23:05:31  5-MIN KSTC 160505Z AUTO 02003KT 10SM CLR 16/15 A2997 980 93 1400 020/03 RMK AO2
14926KSTC STC20120615231009806/15/12 23:10:31  5-MIN KSTC 160510Z AUTO 02003KT 10SM CLR 17/15 A2997 980 90 1400 020/03 RMK AO2
14926KSTC STC20120615231509806/15/12 23:15:31  5-MIN KSTC 160515Z AUTO 05003KT 10SM CLR 17/15 A2997 980 90 1400 050/03 RMK AO2
14926KSTC STC20120615232009806/15/12 23:20:31  5-MIN KSTC 160520Z AUTO 00000KT 10SM CLR 17/15 A2997 980 90 1400 000/00 RMK AO2
14926KSTC STC20120615232509806/15/12 23:25:31  5-MIN KSTC 160525Z AUTO 00000KT 10SM CLR 17/16 A2997 980 90 1500 000/00 RMK AO2
14926KSTC STC20120615233009806/15/12 23:30:31  5-MIN KSTC 160530Z AUTO 00000KT 10SM CLR 17/15 A2997 980 90 1400 000/00 RMK AO2
14926KSTC STC20120615233509806/15/12 23:35:31  5-MIN KSTC 160535Z AUTO 00000KT 10SM CLR 16/15 A2997 980 93 1400 000/00 RMK AO2
14926KSTC STC20120615234009806/15/12 23:40:31  5-MIN KSTC 160540Z AUTO 00000KT 10SM CLR 16/15 A2998 970 93 1400 000/00 RMK AO2
14926KSTC STC20120615234509806/15/12 23:45:31  5-MIN KSTC 160545Z AUTO 00000KT 10SM CLR 17/15 A2998 970 90 1400 000/00 RMK AO2
14926KSTC STC20120615235014306/15/12 23:50:31  5-MIN KSTC 160550Z AUTO 00000KT 10SM CLR 16/15 A2998 970 93 1400 000/00 RMK AO2 SLP157 T01610150 10261 20161 402720139 53002
14926KSTC STC20120615235509806/15/12 23:55:31  5-MIN KSTC 160555Z AUTO 00000KT 10SM CLR 16/15 A2998 970 93 1400 000/00 RMK AO2
14926KSTC STC20120616000010106/16/12 00:00:32  5-MIN KSTC 160600Z AUTO 00000KT 10SM FEW075 16/15 A2999 970 93 1400 000/00 RMK AO2
14926KSTC STC20120616000510106/16/12 00:05:31  5-MIN KSTC 160605Z AUTO 00000KT 10SM FEW075 16/15 A2999 960 93 1400 000/00 RMK AO2
14926KSTC STC20120616001010106/16/12 00:10:31  5-MIN KSTC 160610Z AUTO 00000KT 10SM FEW075 16/15 A2999 960 93 1400 000/00 RMK AO2
14926KSTC STC20120616001510106/16/12 00:15:31  5-MIN KSTC 160615Z AUTO 00000KT 10SM SCT075 16/15 A2999 960 93 1400 000/00 RMK AO2
14926KSTC STC20120616002010106/16/12 00:20:31  5-MIN KSTC 160620Z AUTO 00000KT 10SM BKN075 16/14 A2999 960 90 1400 000/00 RMK AO2
14926KSTC STC20120616002510006/16/12 00:25:31  5-MIN KSTC 160625Z AUTO 00000KT 9SM BKN075 16/14 A2999 960 90 1400 000/00 RMK AO2
14926KSTC STC20120616003010006/16/12 00:30:31  5-MIN KSTC 160630Z AUTO 00000KT 9SM BKN075 16/15 A2998 970 93 1400 000/00 RMK AO2
14926KSTC STC20120616003510106/16/12 00:35:31  5-MIN KSTC 160635Z AUTO 00000KT 10SM BKN075 16/15 A2998 970 93 1400 000/00 RMK AO2
14926KSTC STC20120616004010106/16/12 00:40:31  5-MIN KSTC 160640Z AUTO 00000KT 10SM BKN075 16/15 A2998 970 93 1400 000/00 RMK AO2
14926KSTC STC20120616004510106/16/12 00:45:31  5-MIN KSTC 160645Z AUTO 00000KT 10SM BKN075 17/15 A2997 980 90 1400 000/00 RMK AO2
14926KSTC STC20120616005011806/16/12 00:50:31  5-MIN KSTC 160650Z AUTO 07003KT 10SM SCT075 17/16 A2998 980 90 1500 070/03 RMK AO2 SLP155 T01720156
14926KSTC STC20120616005510106/16/12 00:55:31  5-MIN KSTC 160655Z AUTO 07003KT 10SM FEW070 17/16 A2997 980 93 1400 070/03 RMK AO2
14926KSTC STC20120616010010106/16/12 01:00:31  5-MIN KSTC 160700Z AUTO 06003KT 10SM FEW070 17/15 A2997 980 90 1400 060/03 RMK AO2
14926KSTC STC20120616010510106/16/12 01:05:31  5-MIN KSTC 160705Z AUTO 06003KT 10SM FEW075 17/15 A2997 980 87 1500 060/03 RMK AO2
14926KSTC STC20120616011009806/16/12 01:10:31  5-MIN KSTC 160710Z AUTO 06003KT 10SM CLR 17/15 A2997 980 87 1500 060/03 RMK AO2
14926KSTC STC20120616011510106/16/12 01:15:31  5-MIN KSTC 160715Z AUTO 00000KT 10SM FEW055 17/15 A2997 980 87 1500 000/00 RMK AO2
14926KSTC STC20120616012010106/16/12 01:20:31  5-MIN KSTC 160720Z AUTO 00000KT 10SM FEW055 17/15 A2997 980 90 1400 000/00 RMK AO2
14926KSTC STC20120616012510106/16/12 01:25:31  5-MIN KSTC 160725Z AUTO 35003KT 10SM FEW050 17/15 A2997 980 90 1400 350/03 RMK AO2
14926KSTC STC20120616013010806/16/12 01:30:31  5-MIN KSTC 160730Z AUTO 01003KT 10SM FEW048 SCT060 17/15 A2997 980 90 1400 010/03 RMK AO2
14926KSTC STC20120616013510806/16/12 01:35:31  5-MIN KSTC 160735Z AUTO 02003KT 10SM FEW048 SCT060 17/15 A2996 990 87 1500 020/03 RMK AO2
14926KSTC STC20120616014010106/16/12 01:40:31  5-MIN KSTC 160740Z AUTO 02003KT 10SM FEW048 17/15 A2996 990 87 1500 020/03 RMK AO2
14926KSTC STC20120616014510106/16/12 01:45:31  5-MIN KSTC 160745Z AUTO 00000KT 10SM FEW048 17/15 A2996 990 87 1500 000/00 RMK AO2
14926KSTC STC20120616015011806/16/12 01:50:31  5-MIN KSTC 160750Z AUTO 03003KT 10SM FEW048 17/15 A2995 990 87 1500 030/03 RMK AO2 SLP147 T01720150
14926KSTC STC20120616015510206/16/12 01:55:31  5-MIN KSTC 160755Z AUTO 05003KT 10SM FEW046 17/15 A2995 1000 87 1500 050/03 RMK AO2
14926KSTC STC20120616020010206/16/12 02:00:31  5-MIN KSTC 160800Z AUTO 00000KT 10SM FEW044 18/15 A2995 1000 83 1600 000/00 RMK AO2
14926KSTC STC20120616020510206/16/12 02:05:31  5-MIN KSTC 160805Z AUTO 05003KT 10SM FEW044 17/15 A2995 1000 87 1500 040/03 RMK AO2
14926KSTC STC20120616021010206/16/12 02:10:31  5-MIN KSTC 160810Z AUTO 00000KT 10SM FEW044 18/15 A2995 1000 83 1600 000/00 RMK AO2
14926KSTC STC20120616021510206/16/12 02:15:31  5-MIN KSTC 160815Z AUTO 00000KT 10SM SCT044 18/15 A2995 1000 83 1600 000/00 RMK AO2
14926KSTC STC20120616022010206/16/12 02:20:31  5-MIN KSTC 160820Z AUTO 05003KT 10SM BKN044 18/15 A2995 1000 81 1700 050/03 RMK AO2
14926KSTC STC20120616022510206/16/12 02:25:31  5-MIN KSTC 160825Z AUTO 00000KT 10SM BKN044 18/15 A2995 1000 81 1700 000/00 RMK AO2
14926KSTC STC20120616023010906/16/12 02:30:31  5-MIN KSTC 160830Z AUTO 00000KT 10SM BKN042 BKN050 18/15 A2995 1000 81 1700 000/00 RMK AO2
14926KSTC STC20120616023510906/16/12 02:35:31  5-MIN KSTC 160835Z AUTO 00000KT 10SM BKN042 BKN050 18/16 A2995 1000 84 1700 000/00 RMK AO2
14926KSTC STC20120616024010906/16/12 02:40:31  5-MIN KSTC 160840Z AUTO 00000KT 10SM BKN040 OVC050 18/15 A2995 1000 81 1700 000/00 RMK AO2
14926KSTC STC20120616024510906/16/12 02:45:31  5-MIN KSTC 160845Z AUTO 00000KT 10SM BKN040 OVC050 18/15 A2995 1000 81 1700 000/00 RMK AO2
14926KSTC STC20120616025012506/16/12 02:50:31  5-MIN KSTC 160850Z AUTO 00000KT 10SM OVC040 18/15 A2995 1000 81 1700 000/00 RMK AO2 SLP144 T01830150 58002
14926KSTC STC20120616025510206/16/12 02:55:31  5-MIN KSTC 160855Z AUTO 01003KT 10SM BKN038 18/15 A2995 1000 83 1600 360/03 RMK AO2
14926KSTC STC20120616030010206/16/12 03:00:31  5-MIN KSTC 160900Z AUTO 35003KT 10SM BKN038 18/15 A2995 1000 83 1600 350/03 RMK AO2
14926KSTC STC20120616030510206/16/12 03:05:31  5-MIN KSTC 160905Z AUTO 35004KT 10SM SCT038 18/15 A2995 1000 83 1600 350/04 RMK AO2
14926KSTC STC20120616031010206/16/12 03:10:31  5-MIN KSTC 160910Z AUTO 01003KT 10SM FEW038 17/15 A2995 1000 87 1500 010/03 RMK AO2
14926KSTC STC20120616031510206/16/12 03:15:31  5-MIN KSTC 160915Z AUTO 35004KT 10SM FEW038 18/15 A2994 1000 83 1600 350/04 RMK AO2
14926KSTC STC20120616032009906/16/12 03:20:31  5-MIN KSTC 160920Z AUTO 35004KT 10SM CLR 17/15 A2994 1010 87 1500 350/04 RMK AO2
14926KSTC STC20120616032509906/16/12 03:25:31  5-MIN KSTC 160925Z AUTO 01003KT 10SM CLR 18/15 A2994 1010 83 1600 010/03 RMK AO2
14926KSTC STC20120616033009906/16/12 03:30:31  5-MIN KSTC 160930Z AUTO 35004KT 10SM CLR 17/15 A2993 1020 87 1600 350/04 RMK AO2
14926KSTC STC20120616033509906/16/12 03:35:31  5-MIN KSTC 160935Z AUTO 36004KT 10SM CLR 17/15 A2993 1020 87 1600 360/04 RMK AO2
14926KSTC STC20120616034009906/16/12 03:40:31  5-MIN KSTC 160940Z AUTO 06003KT 10SM CLR 18/15 A2993 1020 83 1600 060/03 RMK AO2
14926KSTC STC20120616034509906/16/12 03:45:31  5-MIN KSTC 160945Z AUTO 05003KT 10SM CLR 18/15 A2993 1020 83 1600 050/03 RMK AO2
14926KSTC STC20120616035011606/16/12 03:50:31  5-MIN KSTC 160950Z AUTO 04003KT 10SM CLR 18/15 A2993 1020 83 1600 040/03 RMK AO2 SLP137 T01780150
14926KSTC STC20120616035509906/16/12 03:55:31  5-MIN KSTC 160955Z AUTO 36003KT 10SM CLR 17/15 A2992 1030 87 1600 360/03 RMK AO2
14926KSTC STC20120616040009906/16/12 04:00:31  5-MIN KSTC 161000Z AUTO 34003KT 10SM CLR 17/14 A2992 1030 83 1600 340/03 RMK AO2
14926KSTC STC20120616040509906/16/12 04:05:31  5-MIN KSTC 161005Z AUTO 35004KT 10SM CLR 17/14 A2992 1030 83 1600 350/04 RMK AO2
14926KSTC STC20120616041009906/16/12 04:10:31  5-MIN KSTC 161010Z AUTO 00000KT 10SM CLR 17/15 A2992 1030 87 1600 000/00 RMK AO2
14926KSTC STC20120616041509906/16/12 04:15:31  5-MIN KSTC 161015Z AUTO 02003KT 10SM CLR 17/14 A2992 1020 83 1600 020/03 RMK AO2
14926KSTC STC20120616042009906/16/12 04:20:31  5-MIN KSTC 161020Z AUTO 00000KT 10SM CLR 17/14 A2993 1020 83 1600 000/00 RMK AO2
14926KSTC STC20120616042509906/16/12 04:25:31  5-MIN KSTC 161025Z AUTO 00000KT 10SM CLR 17/14 A2993 1020 83 1600 000/00 RMK AO2
14926KSTC STC20120616043009906/16/12 04:30:31  5-MIN KSTC 161030Z AUTO 00000KT 10SM CLR 17/14 A2993 1020 83 1600 000/00 RMK AO2
14926KSTC STC20120616043509906/16/12 04:35:31  5-MIN KSTC 161035Z AUTO 00000KT 10SM CLR 17/14 A2993 1020 83 1600 000/00 RMK AO2
14926KSTC STC20120616044010206/16/12 04:40:31  5-MIN KSTC 161040Z AUTO 00000KT 10SM FEW035 17/14 A2993 1020 83 1600 000/00 RMK AO2
14926KSTC STC20120616044510206/16/12 04:45:31  5-MIN KSTC 161045Z AUTO 05003KT 10SM FEW035 17/14 A2993 1020 86 1500 050/03 RMK AO2
14926KSTC STC20120616045011906/16/12 04:50:31  5-MIN KSTC 161050Z AUTO 06003KT 10SM FEW035 17/14 A2993 1020 86 1500 060/03 RMK AO2 SLP140 T01670144
14926KSTC STC20120616045510206/16/12 04:55:31  5-MIN KSTC 161055Z AUTO 06003KT 10SM SCT035 17/14 A2993 1020 86 1500 060/03 RMK AO2
14926KSTC STC20120616050010206/16/12 05:00:31  5-MIN KSTC 161100Z AUTO 00000KT 10SM SCT035 17/14 A2993 1020 83 1600 000/00 RMK AO2
14926KSTC STC20120616050510206/16/12 05:05:31  5-MIN KSTC 161105Z AUTO 00000KT 10SM SCT035 17/15 A2993 1020 87 1600 000/00 RMK AO2
14926KSTC STC20120616051010206/16/12 05:10:31  5-MIN KSTC 161110Z AUTO 00000KT 10SM BKN035 18/15 A2993 1020 83 1600 000/00 RMK AO2
14926KSTC STC20120616051510206/16/12 05:15:31  5-MIN KSTC 161115Z AUTO 00000KT 10SM BKN033 18/15 A2993 1020 83 1600 000/00 RMK AO2
14926KSTC STC20120616052010206/16/12 05:20:31  5-MIN KSTC 161120Z AUTO 08003KT 10SM BKN033 18/15 A2992 1020 83 1600 080/03 RMK AO2
14926KSTC STC20120616052510206/16/12 05:25:31  5-MIN KSTC 161125Z AUTO 08004KT 10SM BKN033 18/15 A2992 1030 83 1600 070/04 RMK AO2
14926KSTC STC20120616053010206/16/12 05:30:31  5-MIN KSTC 161130Z AUTO 07004KT 10SM BKN033 18/15 A2991 1030 81 1700 070/04 RMK AO2
14926KSTC STC20120616053510206/16/12 05:35:31  5-MIN KSTC 161135Z AUTO 07003KT 10SM SCT033 18/15 A2991 1040 81 1700 060/03 RMK AO2
14926KSTC STC20120616054010206/16/12 05:40:31  5-MIN KSTC 161140Z AUTO 00000KT 10SM SCT033 18/15 A2990 1040 81 1700 000/00 RMK AO2
14926KSTC STC20120616054510206/16/12 05:45:31  5-MIN KSTC 161145Z AUTO 00000KT 10SM FEW033 19/15 A2990 1040 78 1800 000/00 RMK AO2
14926KSTC STC20120616055013206/16/12 05:50:31  5-MIN KSTC 161150Z 36003KT 10SM FEW033 19/16 A2989 1050 81 1800 360/03 RMK AO2 SLP126 T01890156 10189 20161 57011
14926KSTC STC20120616055509406/16/12 05:55:31  5-MIN KSTC 161155Z 02003KT 10SM CLR 19/16 A2989 1050 81 1800 020/03 RMK AO2
14926KSTC STC20120616060009406/16/12 06:00:31  5-MIN KSTC 161200Z 03004KT 10SM CLR 19/16 A2989 1050 78 1900 030/04 RMK AO2
14926KSTC STC20120616060509406/16/12 06:05:31  5-MIN KSTC 161205Z 03003KT 10SM CLR 19/16 A2989 1060 78 1900 030/03 RMK AO2
14926KSTC STC20120616061009406/16/12 06:10:31  5-MIN KSTC 161210Z 01003KT 10SM CLR 19/16 A2989 1060 81 1900 010/03 RMK AO2
14926KSTC STC20120616061509406/16/12 06:15:31  5-MIN KSTC 161215Z 01003KT 10SM CLR 20/16 A2989 1060 78 1900 010/03 RMK AO2
14926KSTC STC20120616062009406/16/12 06:20:31  5-MIN KSTC 161220Z 01004KT 10SM CLR 21/17 A2989 1060 78 2000 360/04 RMK AO2
14926KSTC STC20120616062509406/16/12 06:25:31  5-MIN KSTC 161225Z 03004KT 10SM CLR 20/16 A2989 1060 78 1900 030/04 RMK AO2
14926KSTC STC20120616063009406/16/12 06:30:31  5-MIN KSTC 161230Z 04003KT 10SM CLR 21/16 A2989 1060 75 2000 040/03 RMK AO2
14926KSTC STC20120616063509406/16/12 06:35:31  5-MIN KSTC 161235Z 04005KT 10SM CLR 21/16 A2988 1060 75 2000 040/05 RMK AO2
14926KSTC STC20120616064009406/16/12 06:40:31  5-MIN KSTC 161240Z 04003KT 10SM CLR 21/16 A2988 1070 75 2000 040/03 RMK AO2
14926KSTC STC20120616064509406/16/12 06:45:31  5-MIN KSTC 161245Z 06004KT 10SM CLR 21/16 A2988 1070 75 2000 050/04 RMK AO2
14926KSTC STC20120616065011106/16/12 06:50:31  5-MIN KSTC 161250Z 05003KT 10SM CLR 21/17 A2988 1060 75 2100 050/03 RMK AO2 SLP123 T02110167
14926KSTC STC20120616065509406/16/12 06:55:31  5-MIN KSTC 161255Z 08004KT 10SM CLR 21/17 A2989 1060 75 2100 080/04 RMK AO2
14926KSTC STC20120616070009406/16/12 07:00:31  5-MIN KSTC 161300Z 00000KT 10SM CLR 21/17 A2989 1050 75 2000 000/00 RMK AO2
14926KSTC STC20120616070509406/16/12 07:05:31  5-MIN KSTC 161305Z 00000KT 10SM CLR 22/17 A2990 1050 73 2100 000/00 RMK AO2
14926KSTC STC20120616071009406/16/12 07:10:31  5-MIN KSTC 161310Z 00000KT 10SM CLR 22/17 A2990 1050 75 2100 000/00 RMK AO2
14926KSTC STC20120616071509406/16/12 07:15:31  5-MIN KSTC 161315Z 00000KT 10SM CLR 22/17 A2990 1040 73 2100 000/00 RMK AO2
14926KSTC STC20120616072009406/16/12 07:20:31  5-MIN KSTC 161320Z 00000KT 10SM CLR 22/17 A2991 1040 75 2100 000/00 RMK AO2
14926KSTC STC20120616072509406/16/12 07:25:31  5-MIN KSTC 161325Z 17003KT 10SM CLR 22/17 A2991 1040 75 2100 170/03 RMK AO2
14926KSTC STC20120616073009406/16/12 07:30:31  5-MIN KSTC 161330Z 15005KT 10SM CLR 22/17 A2991 1030 75 2100 150/05 RMK AO2
14926KSTC STC20120616073509406/16/12 07:35:31  5-MIN KSTC 161335Z 17005KT 10SM CLR 22/17 A2991 1030 73 2100 170/05 RMK AO2
14926KSTC STC20120616074009706/16/12 07:40:31  5-MIN KSTC 161340Z 18004KT 10SM SCT095 22/17 A2991 1030 73 2100 180/04 RMK AO2
14926KSTC STC20120616074509706/16/12 07:45:31  5-MIN KSTC 161345Z VRB03KT 10SM SCT095 22/17 A2991 1030 75 2100 VRB/03 RMK AO2
14926KSTC STC20120616075011406/16/12 07:50:31  5-MIN KSTC 161350Z 22003KT 10SM BKN100 22/17 A2991 1030 75 2100 220/03 RMK AO2 SLP132 T02170172
14926KSTC STC20120616075509706/16/12 07:55:31  5-MIN KSTC 161355Z 24003KT 10SM BKN100 22/17 A2991 1040 75 2100 240/03 RMK AO2
14926KSTC STC20120616080009706/16/12 08:00:31  5-MIN KSTC 161400Z 00000KT 10SM BKN100 22/17 A2991 1040 75 2100 000/00 RMK AO2
14926KSTC STC20120616080509706/16/12 08:05:31  5-MIN KSTC 161405Z 00000KT 10SM OVC100 22/17 A2990 1040 75 2100 000/00 RMK AO2
14926KSTC STC20120616081009706/16/12 08:10:31  5-MIN KSTC 161410Z 00000KT 10SM OVC100 22/17 A2990 1040 75 2100 000/00 RMK AO2
14926KSTC STC20120616081509706/16/12 08:15:31  5-MIN KSTC 161415Z 00000KT 10SM OVC100 22/17 A2990 1040 75 2100 000/00 RMK AO2
14926KSTC STC20120616082009706/16/12 08:20:31  5-MIN KSTC 161420Z 00000KT 10SM OVC100 22/17 A2990 1040 75 2100 000/00 RMK AO2
14926KSTC STC20120616082509706/16/12 08:25:31  5-MIN KSTC 161425Z 00000KT 10SM OVC100 22/18 A2990 1040 75 2200 000/00 RMK AO2
14926KSTC STC20120616083009706/16/12 08:30:31  5-MIN KSTC 161430Z 00000KT 10SM OVC095 22/18 A2990 1050 75 2200 000/00 RMK AO2
14926KSTC STC20120616083509706/16/12 08:35:31  5-MIN KSTC 161435Z 11003KT 10SM OVC095 22/18 A2990 1050 78 2100 110/03 RMK AO2
14926KSTC STC20120616084009706/16/12 08:40:31  5-MIN KSTC 161440Z 13003KT 10SM OVC095 22/18 A2990 1050 78 2100 130/03 RMK AO2
14926KSTC STC20120616084510406/16/12 08:45:31  5-MIN KSTC 161445Z 14005KT 10SM FEW055 OVC090 22/18 A2990 1040 78 2100 140/05 RMK AO2
14926KSTC STC20120616085012706/16/12 08:50:31  5-MIN KSTC 161450Z 12003KT 10SM FEW055 BKN090 22/18 A2990 1050 78 2100 120/03 RMK AO2 SLP129 T02170178 58018
14926KSTC STC20120616085510406/16/12 08:55:31  5-MIN KSTC 161455Z 00000KT 10SM FEW055 BKN095 22/18 A2990 1050 75 2200 000/00 RMK AO2
14926KSTC STC20120616090010406/16/12 09:00:31  5-MIN KSTC 161500Z 17003KT 10SM FEW055 BKN100 22/18 A2990 1050 78 2100 170/03 RMK AO2
14926KSTC STC20120616090510406/16/12 09:05:31  5-MIN KSTC 161505Z VRB03KT 10SM FEW055 BKN095 22/18 A2990 1050 78 2100 VRB/03 RMK AO2
14926KSTC STC20120616091010406/16/12 09:10:31  5-MIN KSTC 161510Z 00000KT 10SM FEW055 BKN100 22/18 A2990 1050 75 2200 000/00 RMK AO2
14926KSTC STC20120616091509706/16/12 09:15:31  5-MIN KSTC 161515Z 16004KT 10SM BKN100 22/18 A2989 1050 78 2100 160/04 RMK AO2
14926KSTC STC20120616092009706/16/12 09:20:31  5-MIN KSTC 161520Z 16003KT 10SM BKN100 22/18 A2990 1050 78 2100 150/03 RMK AO2
14926KSTC STC20120616092509706/16/12 09:25:31  5-MIN KSTC 161525Z 18003KT 10SM BKN095 22/18 A2990 1050 78 2100 180/03 RMK AO2
14926KSTC STC20120616093009706/16/12 09:30:31  5-MIN KSTC 161530Z 20003KT 10SM BKN095 22/18 A2990 1050 75 2200 200/03 RMK AO2
14926KSTC STC20120616093510406/16/12 09:35:31  5-MIN KSTC 161535Z 18007KT 10SM FEW055 BKN095 22/18 A2990 1050 78 2200 180/07 RMK AO2
14926KSTC STC20120616094011106/16/12 09:40:31  5-MIN KSTC 161540Z 18006KT 10SM SCT048 SCT055 BKN095 22/18 A2990 1050 78 2100 180/06 RMK AO2
14926KSTC STC20120616094510406/16/12 09:45:31  5-MIN KSTC 161545Z 18006KT 10SM BKN048 OVC095 22/18 A2989 1050 78 2100 180/06 RMK AO2
14926KSTC STC20120616095012806/16/12 09:50:31  5-MIN KSTC 161550Z 18005KT 10SM BKN046 BKN075 OVC095 22/18 A2989 1050 81 2100 180/05 RMK AO2 SLP127 T02170183
14926KSTC STC20120616095511106/16/12 09:55:31  5-MIN KSTC 161555Z 19003KT 10SM BKN046 BKN080 OVC095 22/18 A2989 1050 78 2100 190/03 RMK AO2
14926KSTC STC20120616100010406/16/12 10:00:31  5-MIN KSTC 161600Z 19004KT 10SM BKN045 OVC080 22/18 A2989 1060 78 2100 190/04 RMK AO2
14926KSTC STC20120616100510406/16/12 10:05:31  5-MIN KSTC 161605Z 17004KT 10SM SCT045 OVC080 22/18 A2989 1060 78 2100 170/04 RMK AO2
14926KSTC STC20120616101010406/16/12 10:10:31  5-MIN KSTC 161610Z 17004KT 10SM FEW045 OVC080 22/18 A2988 1060 78 2100 170/04 RMK AO2
14926KSTC STC20120616101511106/16/12 10:15:31  5-MIN KSTC 161615Z 17004KT 10SM FEW045 BKN080 OVC095 22/18 A2988 1060 81 2100 170/04 RMK AO2
14926KSTC STC20120616102010406/16/12 10:20:31  5-MIN KSTC 161620Z 19004KT 10SM FEW043 OVC090 22/18 A2988 1060 78 2200 190/04 RMK AO2
14926KSTC STC20120616102509706/16/12 10:25:31  5-MIN KSTC 161625Z 19004KT 10SM OVC090 22/18 A2988 1060 78 2200 190/04 RMK AO2
14926KSTC STC20120616103009706/16/12 10:30:31  5-MIN KSTC 161630Z 20005KT 10SM BKN090 23/18 A2988 1060 76 2200 200/05 RMK AO2
14926KSTC STC20120616103510406/16/12 10:35:31  5-MIN KSTC 161635Z 22006KT 10SM FEW055 OVC095 23/18 A2988 1060 76 2200 220/06 RMK AO2
14926KSTC STC20120616104010406/16/12 10:40:31  5-MIN KSTC 161640Z 24004KT 10SM SCT060 OVC095 23/18 A2988 1060 76 2200 230/04 RMK AO2
14926KSTC STC20120616104511106/16/12 10:45:31  5-MIN KSTC 161645Z 25005KT 10SM FEW050 BKN060 OVC095 23/18 A2988 1070 76 2300 250/05 RMK AO2
14926KSTC STC20120616105012806/16/12 10:50:31  5-MIN KSTC 161650Z VRB04KT 10SM FEW049 BKN060 OVC095 23/18 A2987 1070 73 2300 VRB/04 RMK AO2 SLP121 T02330183
14926KSTC STC20120616105511106/16/12 10:55:31  5-MIN KSTC 161655Z 26004KT 10SM BKN060 BKN070 OVC095 24/18 A2987 1070 71 2400 260/04 RMK AO2
14926KSTC STC20120616110011106/16/12 11:00:31  5-MIN KSTC 161700Z VRB03KT 10SM SCT060 BKN075 BKN100 24/18 A2987 1080 71 2400 VRB/03 RMK AO2
14926KSTC STC20120616110511106/16/12 11:05:31  5-MIN KSTC 161705Z VRB04KT 10SM SCT060 BKN075 BKN100 24/19 A2986 1080 71 2500 VRB/04 RMK AO2
14926KSTC STC20120616111011106/16/12 11:10:31  5-MIN KSTC 161710Z 20003KT 10SM FEW049 SCT075 BKN100 24/19 A2986 1080 71 2500 200/03 RMK AO2
14926KSTC STC20120616111511106/16/12 11:15:31  5-MIN KSTC 161715Z 26004KT 10SM FEW060 SCT075 BKN100 25/19 A2986 1080 68 2500 260/04 RMK AO2
14926KSTC STC20120616112010406/16/12 11:20:31  5-MIN KSTC 161720Z 21003KT 10SM FEW075 BKN100 25/19 A2986 1080 71 2500 210/03 RMK AO2
14926KSTC STC20120616112509706/16/12 11:25:31  5-MIN KSTC 161725Z 25003KT 10SM SCT095 26/19 A2986 1090 68 2600 250/03 RMK AO2
14926KSTC STC20120616113009706/16/12 11:30:31  5-MIN KSTC 161730Z VRB03KT 10SM SCT095 26/19 A2985 1090 68 2600 VRB/03 RMK AO2
14926KSTC STC20120616113509706/16/12 11:35:31  5-MIN KSTC 161735Z 00000KT 10SM SCT090 25/19 A2985 1100 71 2500 000/00 RMK AO2
14926KSTC STC20120616114009706/16/12 11:40:31  5-MIN KSTC 161740Z 00000KT 10SM SCT095 26/19 A2984 1100 68 2600 000/00 RMK AO2
14926KSTC STC20120616114509706/16/12 11:45:31  5-MIN KSTC 161745Z 25004KT 10SM FEW090 26/20 A2984 1100 71 2600 250/04 RMK AO2
14926KSTC STC20120616115013206/16/12 11:50:31  5-MIN KSTC 161750Z 25004KT 10SM FEW090 26/19 A2984 1100 66 2700 250/04 RMK AO2 SLP109 T02610194 10261 20189 50002
14926KSTC STC20120616115509706/16/12 11:55:31  5-MIN KSTC 161755Z 25006KT 10SM FEW090 27/20 A2984 1100 66 2700 240/06 RMK AO2
14926KSTC STC20120616120009406/16/12 12:00:31  5-MIN KSTC 161800Z 23004KT 10SM CLR 27/20 A2984 1100 66 2700 220/04 RMK AO2
14926KSTC STC20120616120509706/16/12 12:05:31  5-MIN KSTC 161805Z 25008KT 10SM FEW026 27/20 A2984 1110 66 2700 250/08 RMK AO2
14926KSTC STC20120616121009706/16/12 12:10:31  5-MIN KSTC 161810Z 24009KT 10SM FEW026 27/20 A2983 1110 66 2700 240/09 RMK AO2
14926KSTC STC20120616121509706/16/12 12:15:31  5-MIN KSTC 161815Z 26010KT 10SM SCT026 27/19 A2983 1110 62 2800 260/10 RMK AO2
14926KSTC STC20120616122010406/16/12 12:20:31  5-MIN KSTC 161820Z 25010KT 10SM SCT026 SCT034 26/19 A2983 1110 64 2700 250/10 RMK AO2
14926KSTC STC20120616122511106/16/12 12:25:31  5-MIN KSTC 161825Z 26007KT 10SM FEW026 SCT031 SCT039 27/19 A2983 1110 62 2700 260/07 RMK AO2
14926KSTC STC20120616123011706/16/12 12:30:31  5-MIN KSTC 161830Z 28008G16KT 10SM FEW026 BKN034 BKN048 26/18 A2983 1110 62 2700 280/08G16 RMK AO2
14926KSTC STC20120616123509706/16/12 12:35:31  5-MIN KSTC 161835Z 28011KT 10SM BKN034 27/19 A2983 1110 62 2700 270/11 RMK AO2
14926KSTC STC20120616124011706/16/12 12:40:31  5-MIN KSTC 161840Z 27013G16KT 10SM SCT031 BKN038 BKN047 27/18 A2983 1110 58 2800 270/13G16 RMK AO2
14926KSTC STC20120616124511706/16/12 12:45:31  5-MIN KSTC 161845Z 27011G16KT 10SM SCT034 SCT045 BKN055 27/18 A2983 1110 60 2700 270/11G16 RMK AO2
14926KSTC STC20120616125012106/16/12 12:50:31  5-MIN KSTC 161850Z 27011KT 10SM FEW034 SCT047 26/18 A2983 1110 59 2700 270/11 RMK AO2 SLP104 T02610178
14926KSTC STC20120616125510406/16/12 12:55:31  5-MIN KSTC 161855Z 28010KT 10SM FEW034 SCT055 27/18 A2982 1120 57 2800 280/10 RMK AO2
14926KSTC STC20120616130009706/16/12 13:00:31  5-MIN KSTC 161900Z 28009KT 10SM FEW034 28/18 A2982 1120 56 2900 280/09 RMK AO2
14926KSTC STC20120616130509706/16/12 13:05:31  5-MIN KSTC 161905Z 29010KT 10SM FEW034 28/18 A2982 1120 56 2900 290/10 RMK AO2
14926KSTC STC20120616131009706/16/12 13:10:31  5-MIN KSTC 161910Z 27013KT 10SM FEW034 28/18 A2982 1120 54 2900 270/13 RMK AO2
14926KSTC STC20120616131510306/16/12 13:15:31  5-MIN KSTC 161915Z 29014G19KT 10SM FEW034 27/17 A2983 1110 54 2800 290/14G19 RMK AO2
14926KSTC STC20120616132010306/16/12 13:20:31  5-MIN KSTC 161920Z 26014G19KT 10SM FEW037 27/17 A2983 1110 54 2800 260/14G19 RMK AO2
14926KSTC STC20120616132511006/16/12 13:25:31  5-MIN KSTC 161925Z 25014G20KT 10SM FEW037 SCT075 27/17 A2983 1110 55 2700 250/14G20 RMK AO2
14926KSTC STC20120616133011006/16/12 13:30:31  5-MIN KSTC 161930Z 26015G21KT 10SM FEW037 SCT075 27/17 A2983 1110 53 2700 260/15G21 RMK AO2
14926KSTC STC20120616133510306/16/12 13:35:31  5-MIN KSTC 161935Z 26016G22KT 10SM FEW041 27/17 A2983 1110 54 2800 260/16G22 RMK AO2
14926KSTC STC20120616134011006/16/12 13:40:31  5-MIN KSTC 161940Z 27017G22KT 10SM FEW041 SCT075 27/17 A2983 1110 55 2700 270/17G22 RMK AO2
14926KSTC STC20120616134510306/16/12 13:45:31  5-MIN KSTC 161945Z 27013G20KT 10SM FEW041 27/17 A2983 1110 55 2700 270/13G20 RMK AO2
14926KSTC STC20120616135012006/16/12 13:50:31  5-MIN KSTC 161950Z 28013G20KT 10SM FEW037 27/17 A2983 1110 54 2800 280/13G20 RMK AO2 SLP103 T02720172
14926KSTC STC20120616135510306/16/12 13:55:31  5-MIN KSTC 161955Z 28016G21KT 10SM SCT037 27/17 A2982 1110 55 2700 280/16G21 RMK AO2
14926KSTC STC20120616140011006/16/12 14:00:31  5-MIN KSTC 162000Z 28016G21KT 10SM SCT035 SCT044 26/17 A2982 1120 55 2700 280/16G21 RMK AO2
14926KSTC STC20120616140510306/16/12 14:05:31  5-MIN KSTC 162005Z 29017G23KT 10SM SCT037 26/16 A2982 1120 53 2700 290/17G23 RMK AO2
14926KSTC STC20120616141010306/16/12 14:10:31  5-MIN KSTC 162010Z 27014G23KT 10SM FEW037 25/16 A2982 1120 57 2600 270/14G23 RMK AO2
14926KSTC STC20120616141511006/16/12 14:15:31  5-MIN KSTC 162015Z 27013G21KT 10SM FEW037 SCT120 24/16 A2982 1120 59 2500 270/13G21 RMK AO2
14926KSTC STC20120616142013306/16/12 14:20:31  5-MIN KSTC 162020Z 27014G21KT 10SM -RA FEW037 SCT095 BKN120 24/16 A2982 1120 59 2500 270/14G21 RMK AO2 RAB19 P0000
14926KSTC STC20120616142512706/16/12 14:25:31  5-MIN KSTC 162025Z 27015KT 10SM -RA FEW037 SCT095 BKN120 24/17 A2982 1120 66 2400 270/15 RMK AO2 RAB19 P0000
14926KSTC STC20120616143013306/16/12 14:30:31  5-MIN KSTC 162030Z 29016G21KT 10SM -RA FEW030 SCT037 BKN120 24/17 A2981 1130 63 2500 290/16G21 RMK AO2 RAB19 P0000
14926KSTC STC20120616143513206/16/12 14:35:31  5-MIN KSTC 162035Z 29018G23KT 10SM SCT030 SCT095 BKN120 24/17 A2982 1120 66 2400 290/18G23 RMK AO2 RAB19E31 P0000
14926KSTC STC20120616144012506/16/12 14:40:31  5-MIN KSTC 162040Z 27014G23KT 10SM SCT032 OVC110 24/17 A2982 1120 63 2400 270/14G23 RMK AO2 RAB19E31 P0000
14926KSTC STC20120616144513206/16/12 14:45:31  5-MIN KSTC 162045Z 29017G22KT 10SM SCT027 SCT036 OVC100 24/17 A2982 1120 66 2400 290/17G22 RMK AO2 RAB19E31 P0000
14926KSTC STC20120616145016106/16/12 14:50:31  5-MIN KSTC 162050Z 29014G23KT 10SM FEW025 BKN031 OVC120 23/17 A2982 1120 68 2400 290/14G23 RMK AO2 RAB19E31 SLP101 P0000 60000 T02330172 58019
14926KSTC STC20120616145511706/16/12 14:55:31  5-MIN KSTC 162055Z 29017G23KT 10SM FEW025 BKN030 OVC100 23/17 A2982 1120 66 2400 290/17G23 RMK AO2
14926KSTC STC20120616150011706/16/12 15:00:31  5-MIN KSTC 162100Z 28015G21KT 10SM FEW023 SCT030 BKN100 24/17 A2981 1130 61 2500 280/15G21 RMK AO2
14926KSTC STC20120616150511706/16/12 15:05:31  5-MIN KSTC 162105Z 29017G24KT 10SM SCT025 SCT030 BKN100 24/16 A2981 1130 61 2500 290/17G24 RMK AO2
14926KSTC STC20120616151011006/16/12 15:10:31  5-MIN KSTC 162110Z 30015G24KT 10SM SCT025 BKN100 24/16 A2981 1130 61 2500 300/15G24 RMK AO2
14926KSTC STC20120616151511006/16/12 15:15:31  5-MIN KSTC 162115Z 29014G23KT 10SM FEW025 SCT100 23/16 A2981 1130 63 2400 290/14G23 RMK AO2
14926KSTC STC20120616152010306/16/12 15:20:31  5-MIN KSTC 162120Z 28017G21KT 10SM FEW025 23/16 A2981 1130 63 2400 280/17G21 RMK AO2
14926KSTC STC20120616152510306/16/12 15:25:31  5-MIN KSTC 162125Z 31016G21KT 10SM FEW025 23/16 A2981 1130 63 2400 310/16G21 RMK AO2
14926KSTC STC20120616153009706/16/12 15:30:31  5-MIN KSTC 162130Z 29016KT 10SM FEW025 23/16 A2981 1130 63 2400 290/16 RMK AO2
14926KSTC STC20120616153510306/16/12 15:35:31  5-MIN KSTC 162135Z 28017G21KT 10SM FEW027 24/16 A2982 1120 59 2400 280/17G21 RMK AO2
14926KSTC STC20120616154010306/16/12 15:40:31  5-MIN KSTC 162140Z 29018G24KT 10SM FEW027 24/15 A2982 1120 57 2400 290/18G24 RMK AO2
14926KSTC STC20120616154510006/16/12 15:45:31  5-MIN KSTC 162145Z 29015G24KT 10SM CLR 24/14 A2982 1120 55 2400 280/15G24 RMK AO2
14926KSTC STC20120616155011706/16/12 15:50:31  5-MIN KSTC 162150Z 30016G23KT 10SM CLR 24/15 A2982 1120 57 2400 300/16G23 RMK AO2 SLP100 T02390150
14926KSTC STC20120616155510006/16/12 15:55:31  5-MIN KSTC 162155Z 29015G24KT 10SM CLR 24/14 A2982 1120 55 2400 290/15G24 RMK AO2
14926KSTC STC20120616160010006/16/12 16:00:31  5-MIN KSTC 162200Z 30018G25KT 10SM CLR 23/14 A2982 1120 55 2400 300/18G25 RMK AO2
14926KSTC STC20120616160510006/16/12 16:05:31  5-MIN KSTC 162205Z 31019G25KT 10SM CLR 24/14 A2982 1120 53 2400 300/19G25 RMK AO2
14926KSTC STC20120616161010006/16/12 16:10:31  5-MIN KSTC 162210Z 29013G24KT 10SM CLR 23/14 A2982 1120 57 2400 290/13G24 RMK AO2
14926KSTC STC20120616161510006/16/12 16:15:31  5-MIN KSTC 162215Z 29014G22KT 10SM CLR 24/14 A2982 1120 55 2400 290/14G22 RMK AO2
14926KSTC STC20120616162010306/16/12 16:20:31  5-MIN KSTC 162220Z 29014G21KT 10SM FEW036 23/14 A2982 1120 57 2400 290/14G21 RMK AO2
14926KSTC STC20120616162510306/16/12 16:25:31  5-MIN KSTC 162225Z 29017G23KT 10SM FEW036 24/14 A2982 1120 53 2400 290/17G23 RMK AO2
14926KSTC STC20120616163010306/16/12 16:30:31  5-MIN KSTC 162230Z 30017G23KT 10SM FEW036 24/14 A2982 1120 53 2400 300/17G23 RMK AO2
14926KSTC STC20120616163510006/16/12 16:35:31  5-MIN KSTC 162235Z 30015G23KT 10SM CLR 24/14 A2981 1130 53 2500 300/15G23 RMK AO2
14926KSTC STC20120616164011806/16/12 16:40:31  5-MIN KSTC 162240Z 30014G26KT 10SM CLR 24/14 A2981 1130 53 2500 300/14G26 RMK AO2 PK WND 28026/2240
14926KSTC STC20120616164511806/16/12 16:45:31  5-MIN KSTC 162245Z 30015G26KT 10SM CLR 24/14 A2981 1130 53 2500 300/15G26 RMK AO2 PK WND 28026/2240
14926KSTC STC20120616165013506/16/12 16:50:31  5-MIN KSTC 162250Z 29015G21KT 10SM CLR 24/14 A2981 1130 53 2500 290/15G21 RMK AO2 PK WND 28026/2240 SLP098 T02390139
14926KSTC STC20120616165510006/16/12 16:55:31  5-MIN KSTC 162255Z 30013G21KT 10SM CLR 23/14 A2981 1130 55 2400 300/13G21 RMK AO2
14926KSTC STC20120616170010306/16/12 17:00:31  5-MIN KSTC 162300Z 29016G21KT 10SM FEW045 24/14 A2981 1130 53 2500 290/16G21 RMK AO2
14926KSTC STC20120616170510306/16/12 17:05:31  5-MIN KSTC 162305Z 30013G21KT 10SM FEW045 24/13 A2980 1130 51 2500 300/13G21 RMK AO2
14926KSTC STC20120616171010306/16/12 17:10:31  5-MIN KSTC 162310Z 30016G20KT 10SM FEW045 24/13 A2981 1130 49 2500 300/16G20 RMK AO2
14926KSTC STC20120616171510306/16/12 17:15:31  5-MIN KSTC 162315Z 30014G20KT 10SM FEW045 24/13 A2981 1130 47 2500 300/14G20 RMK AO2
14926KSTC STC20120616172010306/16/12 17:20:31  5-MIN KSTC 162320Z 29014G23KT 10SM FEW045 24/12 A2981 1130 47 2500 290/14G23 RMK AO2
14926KSTC STC20120616172510006/16/12 17:25:31  5-MIN KSTC 162325Z 30012G23KT 10SM CLR 24/12 A2981 1130 46 2500 300/12G23 RMK AO2
14926KSTC STC20120616173010006/16/12 17:30:31  5-MIN KSTC 162330Z 30013G21KT 10SM CLR 24/12 A2981 1130 46 2500 300/13G21 RMK AO2
14926KSTC STC20120616173510006/16/12 17:35:31  5-MIN KSTC 162335Z 29010G20KT 10SM CLR 24/12 A2981 1130 46 2500 290/10G20 RMK AO2
14926KSTC STC20120616174010006/16/12 17:40:31  5-MIN KSTC 162340Z 29012G18KT 10SM CLR 24/12 A2981 1130 46 2500 290/12G18 RMK AO2
14926KSTC STC20120616174510006/16/12 17:45:31  5-MIN KSTC 162345Z 29013G18KT 10SM CLR 24/12 A2981 1130 46 2500 290/13G18 RMK AO2
14926KSTC STC20120616175014106/16/12 17:50:31  5-MIN KSTC 162350Z 29009G21KT 10SM CLR 24/12 A2981 1130 46 2500 290/09G21 RMK AO2 SLP099 60000 T02390117 10278 20228 56008
14926KSTC STC20120616175510006/16/12 17:55:31  5-MIN KSTC 162355Z 29012G21KT 10SM CLR 24/11 A2981 1130 44 2500 290/12G21 RMK AO2
14926KSTC STC20120616180010006/16/12 18:00:31  5-MIN KSTC 170000Z 30009G20KT 10SM CLR 24/11 A2981 1130 44 2500 290/09G20 RMK AO2
14926KSTC STC20120616180510006/16/12 18:05:31  5-MIN KSTC 170005Z 30012G18KT 10SM CLR 24/11 A2981 1130 44 2500 300/12G18 RMK AO2
14926KSTC STC20120616181010006/16/12 18:10:31  5-MIN KSTC 170010Z 29010G18KT 10SM CLR 24/11 A2981 1130 44 2500 290/10G18 RMK AO2
14926KSTC STC20120616181510006/16/12 18:15:31  5-MIN KSTC 170015Z 29013G18KT 10SM CLR 24/11 A2981 1130 44 2500 290/13G18 RMK AO2
14926KSTC STC20120616182010006/16/12 18:20:31  5-MIN KSTC 170020Z 28010G18KT 10SM CLR 24/11 A2981 1130 44 2500 280/10G18 RMK AO2
14926KSTC STC20120616182509406/16/12 18:25:31  5-MIN KSTC 170025Z 29010KT 10SM CLR 24/11 A2981 1130 44 2500 290/10 RMK AO2
14926KSTC STC20120616183009406/16/12 18:30:31  5-MIN KSTC 170030Z 29008KT 10SM CLR 24/11 A2981 1130 44 2500 290/08 RMK AO2
14926KSTC STC20120616183509406/16/12 18:35:31  5-MIN KSTC 170035Z 30011KT 10SM CLR 24/11 A2981 1130 44 2500 300/11 RMK AO2
14926KSTC STC20120616184010006/16/12 18:40:31  5-MIN KSTC 170040Z 29016G21KT 10SM CLR 24/11 A2981 1130 42 2500 280/16G21 RMK AO2
14926KSTC STC20120616184510006/16/12 18:45:31  5-MIN KSTC 170045Z 28015G23KT 10SM CLR 23/10 A2982 1120 42 2400 280/15G23 RMK AO2
14926KSTC STC20120616185011706/16/12 18:50:31  5-MIN KSTC 170050Z 29013G23KT 10SM CLR 23/09 A2982 1120 41 2400 290/13G23 RMK AO2 SLP100 T02330094
14926KSTC STC20120616185510006/16/12 18:55:31  5-MIN KSTC 170055Z 29015G23KT 10SM CLR 23/09 A2982 1120 39 2400 290/15G23 RMK AO2
14926KSTC STC20120616190010006/16/12 19:00:31  5-MIN KSTC 170100Z 29014G21KT 10SM CLR 23/08 A2982 1120 38 2400 290/14G21 RMK AO2
14926KSTC STC20120616190510006/16/12 19:05:31  5-MIN KSTC 170105Z 29014G21KT 10SM CLR 23/09 A2982 1120 40 2300 290/14G21 RMK AO2
14926KSTC STC20120616191010006/16/12 19:10:31  5-MIN KSTC 170110Z 29013G21KT 10SM CLR 23/08 A2982 1120 39 2300 290/13G21 RMK AO2
14926KSTC STC20120616191510006/16/12 19:15:31  5-MIN KSTC 170115Z 30011G21KT 10SM CLR 23/09 A2982 1120 40 2300 300/11G21 RMK AO2
14926KSTC STC20120616192010006/16/12 19:20:31  5-MIN KSTC 170120Z 29009G17KT 10SM CLR 22/09 A2982 1120 42 2200 290/09G17 RMK AO2
14926KSTC STC20120616192510006/16/12 19:25:31  5-MIN KSTC 170125Z 29014G20KT 10SM CLR 22/08 A2982 1110 40 2200 290/14G20 RMK AO2
14926KSTC STC20120616193010006/16/12 19:30:31  5-MIN KSTC 170130Z 28011G20KT 10SM CLR 22/08 A2983 1110 40 2200 280/11G20 RMK AO2
14926KSTC STC20120616193510006/16/12 19:35:31  5-MIN KSTC 170135Z 28014G19KT 10SM CLR 22/08 A2983 1110 40 2200 280/14G19 RMK AO2
14926KSTC STC20120616194010006/16/12 19:40:31  5-MIN KSTC 170140Z 29013G19KT 10SM CLR 22/08 A2983 1110 40 2200 290/13G19 RMK AO2
14926KSTC STC20120616194510006/16/12 19:45:31  5-MIN KSTC 170145Z 29009G17KT 10SM CLR 22/08 A2983 1110 42 2200 290/09G17 RMK AO2
14926KSTC STC20120616195011106/16/12 19:50:31  5-MIN KSTC 170150Z 29010KT 10SM CLR 22/08 A2983 1110 42 2200 290/10 RMK AO2 SLP104 T02170083
14926KSTC STC20120616195510006/16/12 19:55:31  5-MIN KSTC 170155Z 29011G16KT 10SM CLR 21/08 A2983 1110 43 2100 290/11G16 RMK AO2
14926KSTC STC20120616200009406/16/12 20:00:31  5-MIN KSTC 170200Z 29008KT 10SM CLR 21/08 A2983 1110 43 2100 290/08 RMK AO2
14926KSTC STC20120616200509406/16/12 20:05:31  5-MIN KSTC 170205Z 29008KT 10SM CLR 21/08 A2983 1110 45 2100 280/08 RMK AO2
14926KSTC STC20120616201009406/16/12 20:10:31  5-MIN KSTC 170210Z 28007KT 10SM CLR 21/09 A2983 1110 46 2100 280/07 RMK AO2
14926KSTC STC20120616201509406/16/12 20:15:31  5-MIN KSTC 170215Z 28008KT 10SM CLR 21/09 A2983 1110 46 2100 280/08 RMK AO2
14926KSTC STC20120616202009406/16/12 20:20:31  5-MIN KSTC 170220Z 28008KT 10SM CLR 20/09 A2983 1110 48 2000 280/08 RMK AO2
14926KSTC STC20120616202509406/16/12 20:25:31  5-MIN KSTC 170225Z 28008KT 10SM CLR 20/09 A2983 1110 48 2000 280/08 RMK AO2
14926KSTC STC20120616203009406/16/12 20:30:31  5-MIN KSTC 170230Z 28007KT 10SM CLR 20/09 A2984 1100 48 2000 280/07 RMK AO2
14926KSTC STC20120616203509406/16/12 20:35:31  5-MIN KSTC 170235Z 28007KT 10SM CLR 20/09 A2984 1100 48 2000 280/07 RMK AO2
14926KSTC STC20120616204009406/16/12 20:40:31  5-MIN KSTC 170240Z 28010KT 10SM CLR 20/09 A2984 1100 48 2000 280/10 RMK AO2
14926KSTC STC20120616204509406/16/12 20:45:31  5-MIN KSTC 170245Z 28007KT 10SM CLR 20/09 A2985 1100 48 2000 280/07 RMK AO2
14926KSTC STC20120616205011706/16/12 20:50:31  5-MIN KSTC 170250Z 28009KT 10SM CLR 20/09 A2985 1090 48 2000 280/09 RMK AO2 SLP111 T02000089 55002
14926KSTC STC20120616205509406/16/12 20:55:31  5-MIN KSTC 170255Z 28008KT 10SM CLR 20/09 A2985 1090 48 2000 280/08 RMK AO2
14926KSTC STC20120616210009406/16/12 21:00:31  5-MIN KSTC 170300Z 27007KT 10SM CLR 19/09 A2985 1090 52 1900 270/07 RMK AO2
14926KSTC STC20120616210509406/16/12 21:05:31  5-MIN KSTC 170305Z 28009KT 10SM CLR 19/09 A2985 1090 52 1900 280/09 RMK AO2
14926KSTC STC20120616211009406/16/12 21:10:31  5-MIN KSTC 170310Z 28008KT 10SM CLR 19/09 A2986 1090 52 1900 280/08 RMK AO2
14926KSTC STC20120616211509406/16/12 21:15:31  5-MIN KSTC 170315Z 28008KT 10SM CLR 19/09 A2986 1090 52 1900 280/08 RMK AO2
14926KSTC STC20120616212009406/16/12 21:20:31  5-MIN KSTC 170320Z 27007KT 10SM CLR 19/09 A2986 1080 52 1900 270/07 RMK AO2
14926KSTC STC20120616212509406/16/12 21:25:31  5-MIN KSTC 170325Z 28008KT 10SM CLR 19/09 A2986 1080 54 1800 280/08 RMK AO2
14926KSTC STC20120616213009406/16/12 21:30:31  5-MIN KSTC 170330Z 28007KT 10SM CLR 19/09 A2986 1080 54 1800 280/07 RMK AO2
14926KSTC STC20120616213509406/16/12 21:35:31  5-MIN KSTC 170335Z 28006KT 10SM CLR 19/09 A2986 1080 54 1800 280/06 RMK AO2
14926KSTC STC20120616214009406/16/12 21:40:31  5-MIN KSTC 170340Z 28006KT 10SM CLR 18/09 A2986 1080 56 1800 280/06 RMK AO2
14926KSTC STC20120616214509406/16/12 21:45:31  5-MIN KSTC 170345Z 28007KT 10SM CLR 18/09 A2986 1090 56 1800 280/07 RMK AO2
14926KSTC STC20120616215011106/16/12 21:50:31  5-MIN KSTC 170350Z 28007KT 10SM CLR 18/10 A2986 1080 58 1800 280/07 RMK AO2 SLP116 T01830100
14926KSTC STC20120616215509906/16/12 21:55:31  5-MIN KSTC 170355Z AUTO 27006KT 10SM CLR 18/10 A2986 1080 60 1700 270/06 RMK AO2
14926KSTC STC20120616220009906/16/12 22:00:31  5-MIN KSTC 170400Z AUTO 27007KT 10SM CLR 18/10 A2986 1080 60 1700 270/07 RMK AO2
14926KSTC STC20120616220509906/16/12 22:05:31  5-MIN KSTC 170405Z AUTO 27006KT 10SM CLR 18/10 A2986 1080 60 1700 270/06 RMK AO2
14926KSTC STC20120616221009906/16/12 22:10:31  5-MIN KSTC 170410Z AUTO 27007KT 10SM CLR 17/10 A2986 1080 62 1600 270/07 RMK AO2
14926KSTC STC20120616221509906/16/12 22:15:31  5-MIN KSTC 170415Z AUTO 27006KT 10SM CLR 17/10 A2986 1080 62 1600 270/06 RMK AO2
14926KSTC STC20120616222009906/16/12 22:20:31  5-MIN KSTC 170420Z AUTO 27007KT 10SM CLR 17/10 A2986 1080 62 1600 270/07 RMK AO2
14926KSTC STC20120616222509906/16/12 22:25:31  5-MIN KSTC 170425Z AUTO 27006KT 10SM CLR 17/10 A2986 1080 62 1600 270/06 RMK AO2
14926KSTC STC20120616223009906/16/12 22:30:31  5-MIN KSTC 170430Z AUTO 27006KT 10SM CLR 17/10 A2986 1080 62 1600 270/06 RMK AO2
14926KSTC STC20120616223509906/16/12 22:35:31  5-MIN KSTC 170435Z AUTO 27005KT 10SM CLR 17/10 A2986 1080 64 1600 260/05 RMK AO2
14926KSTC STC20120616224009906/16/12 22:40:31  5-MIN KSTC 170440Z AUTO 27005KT 10SM CLR 17/10 A2987 1080 64 1600 260/05 RMK AO2
14926KSTC STC20120616224509906/16/12 22:45:31  5-MIN KSTC 170445Z AUTO 27006KT 10SM CLR 17/10 A2987 1080 64 1600 270/06 RMK AO2
14926KSTC STC20120616225011606/16/12 22:50:31  5-MIN KSTC 170450Z AUTO 27006KT 10SM CLR 17/10 A2986 1080 64 1600 270/06 RMK AO2 SLP118 T01670100
14926KSTC STC20120616225509906/16/12 22:55:31  5-MIN KSTC 170455Z AUTO 27007KT 10SM CLR 17/10 A2986 1080 64 1600 260/07 RMK AO2
14926KSTC STC20120616230009906/16/12 23:00:31  5-MIN KSTC 170500Z AUTO 26006KT 10SM CLR 17/10 A2986 1080 64 1600 260/06 RMK AO2
14926KSTC STC20120616230509906/16/12 23:05:31  5-MIN KSTC 170505Z AUTO 24006KT 10SM CLR 16/11 A2987 1080 69 1500 240/06 RMK AO2
14926KSTC STC20120616231009906/16/12 23:10:31  5-MIN KSTC 170510Z AUTO 23005KT 10SM CLR 16/11 A2987 1080 69 1500 230/05 RMK AO2
14926KSTC STC20120616231509906/16/12 23:15:31  5-MIN KSTC 170515Z AUTO 23005KT 10SM CLR 16/11 A2986 1080 69 1500 230/05 RMK AO2
14926KSTC STC20120616232009906/16/12 23:20:31  5-MIN KSTC 170520Z AUTO 23005KT 10SM CLR 16/11 A2986 1080 69 1500 230/05 RMK AO2
14926KSTC STC20120616232509906/16/12 23:25:31  5-MIN KSTC 170525Z AUTO 23006KT 10SM CLR 16/11 A2986 1080 69 1500 230/06 RMK AO2
14926KSTC STC20120616233009906/16/12 23:30:31  5-MIN KSTC 170530Z AUTO 23005KT 10SM CLR 16/11 A2986 1080 72 1400 230/05 RMK AO2
14926KSTC STC20120616233509906/16/12 23:35:31  5-MIN KSTC 170535Z AUTO 23005KT 10SM CLR 16/11 A2986 1080 72 1400 220/05 RMK AO2
14926KSTC STC20120616234009906/16/12 23:40:31  5-MIN KSTC 170540Z AUTO 22005KT 10SM CLR 16/11 A2986 1080 72 1400 220/05 RMK AO2
14926KSTC STC20120616234509906/16/12 23:45:31  5-MIN KSTC 170545Z AUTO 23005KT 10SM CLR 16/11 A2986 1080 72 1400 230/05 RMK AO2
14926KSTC STC20120616235014406/16/12 23:50:31  5-MIN KSTC 170550Z AUTO 24005KT 10SM CLR 15/11 A2986 1080 74 1400 240/05 RMK AO2 SLP116 T01500106 10239 20150 402780150 53013
14926KSTC STC20120616235509906/16/12 23:55:31  5-MIN KSTC 170555Z AUTO 24005KT 10SM CLR 14/11 A2986 1080 77 1300 240/05 RMK AO2
14926KSTC STC20120617000009906/17/12 00:00:32  5-MIN KSTC 170600Z AUTO 24005KT 10SM CLR 14/11 A2986 1090 77 1300 240/05 RMK AO2
14926KSTC STC20120617000509906/17/12 00:05:31  5-MIN KSTC 170605Z AUTO 23005KT 10SM CLR 14/11 A2985 1090 77 1300 230/05 RMK AO2
14926KSTC STC20120617001009906/17/12 00:10:31  5-MIN KSTC 170610Z AUTO 23005KT 10SM CLR 15/11 A2985 1090 74 1400 220/05 RMK AO2
14926KSTC STC20120617001509906/17/12 00:15:31  5-MIN KSTC 170615Z AUTO 22004KT 10SM CLR 15/11 A2985 1090 74 1400 220/04 RMK AO2
14926KSTC STC20120617002009906/17/12 00:20:31  5-MIN KSTC 170620Z AUTO 22004KT 10SM CLR 14/11 A2985 1090 77 1300 220/04 RMK AO2
14926KSTC STC20120617002509906/17/12 00:25:31  5-MIN KSTC 170625Z AUTO 22005KT 10SM CLR 14/11 A2985 1090 77 1300 220/05 RMK AO2
14926KSTC STC20120617003009906/17/12 00:30:31  5-MIN KSTC 170630Z AUTO 22005KT 10SM CLR 14/11 A2985 1090 77 1300 220/05 RMK AO2
14926KSTC STC20120617003509906/17/12 00:35:31  5-MIN KSTC 170635Z AUTO 22005KT 10SM CLR 15/11 A2985 1090 74 1400 220/05 RMK AO2
14926KSTC STC20120617004009906/17/12 00:40:31  5-MIN KSTC 170640Z AUTO 22005KT 10SM CLR 15/11 A2985 1090 74 1400 220/05 RMK AO2
14926KSTC STC20120617004509906/17/12 00:45:31  5-MIN KSTC 170645Z AUTO 23005KT 10SM CLR 14/11 A2985 1090 77 1300 230/05 RMK AO2
14926KSTC STC20120617005011606/17/12 00:50:31  5-MIN KSTC 170650Z AUTO 23004KT 10SM CLR 14/10 A2985 1100 74 1300 230/04 RMK AO2 SLP110 T01440100
14926KSTC STC20120617005509906/17/12 00:55:31  5-MIN KSTC 170655Z AUTO 23004KT 10SM CLR 14/10 A2985 1100 74 1300 230/04 RMK AO2
14926KSTC STC20120617010009906/17/12 01:00:31  5-MIN KSTC 170700Z AUTO 23004KT 10SM CLR 14/10 A2985 1100 74 1300 230/04 RMK AO2
14926KSTC STC20120617010509906/17/12 01:05:31  5-MIN KSTC 170705Z AUTO 23005KT 10SM CLR 14/10 A2984 1100 74 1300 230/05 RMK AO2
14926KSTC STC20120617011009906/17/12 01:10:31  5-MIN KSTC 170710Z AUTO 23004KT 10SM CLR 14/10 A2984 1100 74 1300 230/04 RMK AO2
14926KSTC STC20120617011509906/17/12 01:15:31  5-MIN KSTC 170715Z AUTO 24004KT 10SM CLR 14/10 A2984 1100 74 1300 240/04 RMK AO2
14926KSTC STC20120617012009906/17/12 01:20:31  5-MIN KSTC 170720Z AUTO 23004KT 10SM CLR 14/11 A2984 1100 77 1300 230/04 RMK AO2
14926KSTC STC20120617012509906/17/12 01:25:31  5-MIN KSTC 170725Z AUTO 22005KT 10SM CLR 14/11 A2985 1100 77 1300 220/05 RMK AO2
14926KSTC STC20120617013009906/17/12 01:30:31  5-MIN KSTC 170730Z AUTO 22005KT 10SM CLR 15/11 A2985 1100 74 1400 220/05 RMK AO2
14926KSTC STC20120617013509906/17/12 01:35:31  5-MIN KSTC 170735Z AUTO 23004KT 10SM CLR 15/11 A2984 1100 74 1400 230/04 RMK AO2
14926KSTC STC20120617014009906/17/12 01:40:31  5-MIN KSTC 170740Z AUTO 23004KT 10SM CLR 15/11 A2985 1100 74 1400 230/04 RMK AO2
14926KSTC STC20120617014509906/17/12 01:45:31  5-MIN KSTC 170745Z AUTO 23005KT 10SM CLR 14/11 A2985 1090 77 1300 230/05 RMK AO2
14926KSTC STC20120617015011606/17/12 01:50:31  5-MIN KSTC 170750Z AUTO 23005KT 10SM CLR 15/11 A2985 1100 74 1400 230/05 RMK AO2 SLP111 T01500106
14926KSTC STC20120617015509906/17/12 01:55:31  5-MIN KSTC 170755Z AUTO 23004KT 10SM CLR 15/10 A2985 1100 72 1400 230/04 RMK AO2
14926KSTC STC20120617020009906/17/12 02:00:31  5-MIN KSTC 170800Z AUTO 24004KT 10SM CLR 15/11 A2984 1100 74 1400 230/04 RMK AO2
14926KSTC STC20120617020509906/17/12 02:05:31  5-MIN KSTC 170805Z AUTO 24004KT 10SM CLR 14/11 A2984 1100 77 1300 240/04 RMK AO2
14926KSTC STC20120617021009906/17/12 02:10:31  5-MIN KSTC 170810Z AUTO 24003KT 10SM CLR 14/11 A2984 1100 77 1300 240/03 RMK AO2
14926KSTC STC20120617021509906/17/12 02:15:31  5-MIN KSTC 170815Z AUTO 25003KT 10SM CLR 14/11 A2984 1100 77 1300 250/03 RMK AO2
14926KSTC STC20120617022009906/17/12 02:20:31  5-MIN KSTC 170820Z AUTO 25003KT 10SM CLR 14/11 A2984 1100 77 1300 250/03 RMK AO2
14926KSTC STC20120617022509906/17/12 02:25:31  5-MIN KSTC 170825Z AUTO 25003KT 10SM CLR 14/11 A2984 1100 77 1300 250/03 RMK AO2
14926KSTC STC20120617023009906/17/12 02:30:31  5-MIN KSTC 170830Z AUTO 24003KT 10SM CLR 14/11 A2984 1110 77 1300 240/03 RMK AO2
14926KSTC STC20120617023509906/17/12 02:35:31  5-MIN KSTC 170835Z AUTO 23004KT 10SM CLR 14/11 A2983 1110 77 1300 230/04 RMK AO2
14926KSTC STC20120617024009906/17/12 02:40:31  5-MIN KSTC 170840Z AUTO 24005KT 10SM CLR 14/11 A2983 1110 77 1300 240/05 RMK AO2
14926KSTC STC20120617024509906/17/12 02:45:31  5-MIN KSTC 170845Z AUTO 26005KT 10SM CLR 15/11 A2983 1110 74 1400 250/05 RMK AO2
14926KSTC STC20120617025012206/17/12 02:50:31  5-MIN KSTC 170850Z AUTO 25005KT 10SM CLR 15/11 A2983 1110 74 1400 250/05 RMK AO2 SLP106 T01500106 50003
14926KSTC STC20120617025509906/17/12 02:55:31  5-MIN KSTC 170855Z AUTO 26005KT 10SM CLR 15/11 A2983 1110 74 1400 260/05 RMK AO2
14926KSTC STC20120617030009906/17/12 03:00:31  5-MIN KSTC 170900Z AUTO 25005KT 10SM CLR 15/11 A2983 1110 74 1400 250/05 RMK AO2
14926KSTC STC20120617030509906/17/12 03:05:31  5-MIN KSTC 170905Z AUTO 23005KT 10SM CLR 15/11 A2983 1110 74 1400 230/05 RMK AO2
14926KSTC STC20120617031009906/17/12 03:10:31  5-MIN KSTC 170910Z AUTO 22005KT 10SM CLR 15/11 A2984 1100 74 1400 220/05 RMK AO2
14926KSTC STC20120617031509906/17/12 03:15:31  5-MIN KSTC 170915Z AUTO 22005KT 10SM CLR 15/10 A2984 1100 72 1400 220/05 RMK AO2
14926KSTC STC20120617032009906/17/12 03:20:31  5-MIN KSTC 170920Z AUTO 23005KT 10SM CLR 15/10 A2984 1100 72 1400 220/05 RMK AO2
14926KSTC STC20120617032509906/17/12 03:25:31  5-MIN KSTC 170925Z AUTO 22005KT 10SM CLR 15/10 A2984 1110 72 1400 210/05 RMK AO2
14926KSTC STC20120617033009906/17/12 03:30:31  5-MIN KSTC 170930Z AUTO 21005KT 10SM CLR 15/10 A2984 1100 72 1400 210/05 RMK AO2
14926KSTC STC20120617033509906/17/12 03:35:31  5-MIN KSTC 170935Z AUTO 22005KT 10SM CLR 14/11 A2984 1100 77 1300 220/05 RMK AO2
14926KSTC STC20120617034009906/17/12 03:40:31  5-MIN KSTC 170940Z AUTO 23005KT 10SM CLR 14/11 A2984 1100 77 1300 230/05 RMK AO2
14926KSTC STC20120617034509906/17/12 03:45:31  5-MIN KSTC 170945Z AUTO 22005KT 10SM CLR 14/11 A2984 1100 80 1300 220/05 RMK AO2
14926KSTC STC20120617035011606/17/12 03:50:31  5-MIN KSTC 170950Z AUTO 22005KT 10SM CLR 14/11 A2984 1100 80 1300 220/05 RMK AO2 SLP110 T01390106
14926KSTC STC20120617035509906/17/12 03:55:31  5-MIN KSTC 170955Z AUTO 22005KT 10SM CLR 14/11 A2984 1100 80 1300 220/05 RMK AO2
14926KSTC STC20120617040009906/17/12 04:00:31  5-MIN KSTC 171000Z AUTO 23005KT 10SM CLR 14/11 A2984 1100 80 1300 230/05 RMK AO2
14926KSTC STC20120617040509906/17/12 04:05:31  5-MIN KSTC 171005Z AUTO 23005KT 10SM CLR 14/11 A2984 1100 80 1300 230/05 RMK AO2
14926KSTC STC20120617041009906/17/12 04:10:31  5-MIN KSTC 171010Z AUTO 23005KT 10SM CLR 14/11 A2984 1100 80 1300 230/05 RMK AO2
14926KSTC STC20120617041509906/17/12 04:15:31  5-MIN KSTC 171015Z AUTO 23005KT 10SM CLR 14/11 A2984 1100 80 1300 230/05 RMK AO2
14926KSTC STC20120617042009906/17/12 04:20:31  5-MIN KSTC 171020Z AUTO 23004KT 10SM CLR 14/11 A2983 1110 80 1300 230/04 RMK AO2
14926KSTC STC20120617042509906/17/12 04:25:31  5-MIN KSTC 171025Z AUTO 24004KT 10SM CLR 14/11 A2984 1100 80 1300 240/04 RMK AO2
14926KSTC STC20120617043009906/17/12 04:30:31  5-MIN KSTC 171030Z AUTO 24003KT 10SM CLR 13/11 A2984 1100 83 1200 240/03 RMK AO2
14926KSTC STC20120617043509906/17/12 04:35:31  5-MIN KSTC 171035Z AUTO 24003KT 10SM CLR 13/11 A2983 1110 83 1200 240/03 RMK AO2
14926KSTC STC20120617044009906/17/12 04:40:31  5-MIN KSTC 171040Z AUTO 23003KT 10SM CLR 13/11 A2983 1110 83 1200 230/03 RMK AO2
14926KSTC STC20120617044509906/17/12 04:45:31  5-MIN KSTC 171045Z AUTO 22003KT 10SM CLR 13/10 A2983 1110 80 1200 220/03 RMK AO2
14926KSTC STC20120617045011606/17/12 04:50:31  5-MIN KSTC 171050Z AUTO 23003KT 10SM CLR 13/10 A2983 1110 80 1200 230/03 RMK AO2 SLP108 T01330100
14926KSTC STC20120617045509906/17/12 04:55:31  5-MIN KSTC 171055Z AUTO 00000KT 10SM CLR 14/10 A2983 1110 77 1300 000/00 RMK AO2
14926KSTC STC20120617050009906/17/12 05:00:31  5-MIN KSTC 171100Z AUTO 00000KT 10SM CLR 13/11 A2983 1110 83 1200 000/00 RMK AO2
14926KSTC STC20120617050509906/17/12 05:05:31  5-MIN KSTC 171105Z AUTO 00000KT 10SM CLR 13/10 A2983 1110 83 1100 000/00 RMK AO2
14926KSTC STC20120617051009906/17/12 05:10:31  5-MIN KSTC 171110Z AUTO 00000KT 10SM CLR 13/11 A2983 1110 86 1100 000/00 RMK AO2
14926KSTC STC20120617051509906/17/12 05:15:31  5-MIN KSTC 171115Z AUTO 00000KT 10SM CLR 13/11 A2983 1110 86 1100 000/00 RMK AO2
14926KSTC STC20120617052009906/17/12 05:20:31  5-MIN KSTC 171120Z AUTO 00000KT 10SM CLR 13/11 A2983 1110 86 1100 000/00 RMK AO2
14926KSTC STC20120617052509906/17/12 05:25:31  5-MIN KSTC 171125Z AUTO 23003KT 10SM CLR 14/11 A2983 1110 83 1300 230/03 RMK AO2
14926KSTC STC20120617053009906/17/12 05:30:31  5-MIN KSTC 171130Z AUTO 00000KT 10SM CLR 14/11 A2983 1110 80 1300 000/00 RMK AO2
14926KSTC STC20120617053509906/17/12 05:35:31  5-MIN KSTC 171135Z AUTO 00000KT 10SM CLR 14/11 A2983 1110 80 1300 000/00 RMK AO2
14926KSTC STC20120617054009906/17/12 05:40:31  5-MIN KSTC 171140Z AUTO 23003KT 10SM CLR 15/11 A2983 1110 77 1400 230/03 RMK AO2
14926KSTC STC20120617054509406/17/12 05:45:31  5-MIN KSTC 171145Z 22003KT 10SM CLR 15/11 A2983 1110 77 1400 220/03 RMK AO2
14926KSTC STC20120617055012906/17/12 05:50:31  5-MIN KSTC 171150Z 23004KT 10SM CLR 15/11 A2983 1110 77 1400 230/04 RMK AO2 SLP107 T01500111 10150 20128 58009
14926KSTC STC20120617055509406/17/12 05:55:31  5-MIN KSTC 171155Z 24003KT 10SM CLR 16/11 A2983 1110 74 1500 240/03 RMK AO2
14926KSTC STC20120617060009406/17/12 06:00:31  5-MIN KSTC 171200Z 23003KT 10SM CLR 16/11 A2983 1110 74 1500 230/03 RMK AO2
14926KSTC STC20120617060509406/17/12 06:05:31  5-MIN KSTC 171205Z 23004KT 10SM CLR 16/11 A2983 1110 72 1500 230/04 RMK AO2
14926KSTC STC20120617061009406/17/12 06:10:31  5-MIN KSTC 171210Z 24004KT 10SM CLR 16/11 A2983 1110 72 1500 240/04 RMK AO2
14926KSTC STC20120617061509406/17/12 06:15:31  5-MIN KSTC 171215Z 23006KT 10SM CLR 17/11 A2983 1110 69 1600 230/06 RMK AO2
14926KSTC STC20120617062009406/17/12 06:20:31  5-MIN KSTC 171220Z 23005KT 10SM CLR 17/11 A2983 1110 69 1600 230/05 RMK AO2
14926KSTC STC20120617062509406/17/12 06:25:31  5-MIN KSTC 171225Z 24006KT 10SM CLR 17/11 A2983 1110 67 1700 240/06 RMK AO2
14926KSTC STC20120617063009406/17/12 06:30:31  5-MIN KSTC 171230Z 24006KT 10SM CLR 17/11 A2983 1110 64 1700 240/06 RMK AO2
14926KSTC STC20120617063509406/17/12 06:35:31  5-MIN KSTC 171235Z 24006KT 10SM CLR 18/11 A2983 1110 64 1700 240/06 RMK AO2
14926KSTC STC20120617064009406/17/12 06:40:31  5-MIN KSTC 171240Z 24006KT 10SM CLR 18/11 A2983 1110 62 1700 240/06 RMK AO2
14926KSTC STC20120617064509406/17/12 06:45:31  5-MIN KSTC 171245Z 24004KT 10SM CLR 18/11 A2983 1110 62 1800 240/04 RMK AO2
14926KSTC STC20120617065011406/17/12 06:50:31  5-MIN KSTC 171250Z 23005KT 10SM FEW120 18/11 A2983 1110 62 1800 230/05 RMK AO2 SLP106 T01830111
14926KSTC STC20120617065509706/17/12 06:55:31  5-MIN KSTC 171255Z 23006KT 10SM SCT120 19/11 A2983 1110 60 1900 230/06 RMK AO2
14926KSTC STC20120617070009706/17/12 07:00:31  5-MIN KSTC 171300Z 24005KT 10SM SCT120 19/11 A2983 1110 60 1900 240/05 RMK AO2
14926KSTC STC20120617070509706/17/12 07:05:31  5-MIN KSTC 171305Z 23007KT 10SM SCT120 19/11 A2983 1110 60 1900 230/07 RMK AO2
14926KSTC STC20120617071010406/17/12 07:10:31  5-MIN KSTC 171310Z 24004KT 10SM FEW100 BKN120 19/11 A2983 1110 58 1900 240/04 RMK AO2
14926KSTC STC20120617071510406/17/12 07:15:31  5-MIN KSTC 171315Z 22004KT 10SM FEW100 BKN120 19/11 A2983 1110 60 1900 220/04 RMK AO2
14926KSTC STC20120617072010406/17/12 07:20:31  5-MIN KSTC 171320Z 23005KT 10SM FEW100 BKN120 19/11 A2983 1110 58 1900 230/05 RMK AO2
14926KSTC STC20120617072510406/17/12 07:25:31  5-MIN KSTC 171325Z 24004KT 10SM FEW100 SCT120 19/11 A2983 1110 58 1900 240/04 RMK AO2
14926KSTC STC20120617073009706/17/12 07:30:31  5-MIN KSTC 171330Z 22004KT 10SM FEW100 19/11 A2982 1110 58 1900 220/04 RMK AO2
14926KSTC STC20120617073509706/17/12 07:35:31  5-MIN KSTC 171335Z 20003KT 10SM FEW100 19/11 A2982 1120 58 1900 200/03 RMK AO2
14926KSTC STC20120617074009706/17/12 07:40:31  5-MIN KSTC 171340Z 21004KT 10SM FEW120 19/11 A2982 1120 58 1900 210/04 RMK AO2
14926KSTC STC20120617074509706/17/12 07:45:31  5-MIN KSTC 171345Z 22004KT 10SM FEW120 20/11 A2982 1120 56 2000 220/04 RMK AO2
14926KSTC STC20120617075011406/17/12 07:50:31  5-MIN KSTC 171350Z 22005KT 10SM FEW120 21/11 A2982 1120 52 2100 220/05 RMK AO2 SLP100 T02060106
14926KSTC STC20120617075509706/17/12 07:55:31  5-MIN KSTC 171355Z 23003KT 10SM FEW120 21/11 A2981 1130 52 2100 230/03 RMK AO2
14926KSTC STC20120617080009706/17/12 08:00:31  5-MIN KSTC 171400Z 00000KT 10SM FEW120 21/11 A2981 1130 52 2100 000/00 RMK AO2
14926KSTC STC20120617080509706/17/12 08:05:31  5-MIN KSTC 171405Z 21004KT 10SM SCT120 21/11 A2981 1130 50 2100 210/04 RMK AO2
14926KSTC STC20120617081009706/17/12 08:10:31  5-MIN KSTC 171410Z 21005KT 10SM BKN120 21/11 A2981 1130 50 2100 210/05 RMK AO2
14926KSTC STC20120617081509706/17/12 08:15:31  5-MIN KSTC 171415Z 21004KT 10SM BKN120 21/11 A2981 1130 50 2100 210/04 RMK AO2
14926KSTC STC20120617082009706/17/12 08:20:31  5-MIN KSTC 171420Z 21006KT 10SM BKN120 22/11 A2981 1130 50 2200 210/06 RMK AO2
14926KSTC STC20120617082509706/17/12 08:25:31  5-MIN KSTC 171425Z 24005KT 10SM OVC120 21/11 A2981 1130 50 2100 240/05 RMK AO2
14926KSTC STC20120617083009706/17/12 08:30:31  5-MIN KSTC 171430Z 21004KT 10SM OVC120 22/11 A2981 1130 49 2200 210/04 RMK AO2
14926KSTC STC20120617083509706/17/12 08:35:31  5-MIN KSTC 171435Z 19005KT 10SM BKN120 22/11 A2981 1130 50 2200 190/05 RMK AO2
14926KSTC STC20120617084009706/17/12 08:40:31  5-MIN KSTC 171440Z 19006KT 10SM BKN120 22/12 A2980 1130 51 2300 190/06 RMK AO2
14926KSTC STC20120617084509706/17/12 08:45:31  5-MIN KSTC 171445Z 22006KT 10SM SCT120 22/12 A2980 1140 51 2300 220/06 RMK AO2
14926KSTC STC20120617085012006/17/12 08:50:31  5-MIN KSTC 171450Z 21007KT 10SM SCT120 23/11 A2980 1140 47 2300 210/07 RMK AO2 SLP094 T02280111 50001
14926KSTC STC20120617085509706/17/12 08:55:31  5-MIN KSTC 171455Z 21006KT 10SM SCT120 23/11 A2980 1140 47 2300 210/06 RMK AO2
14926KSTC STC20120617090009706/17/12 09:00:31  5-MIN KSTC 171500Z 21005KT 10SM SCT120 23/11 A2979 1140 47 2300 210/05 RMK AO2
14926KSTC STC20120617090509706/17/12 09:05:31  5-MIN KSTC 171505Z 20006KT 10SM SCT120 23/11 A2979 1150 47 2400 200/06 RMK AO2
14926KSTC STC20120617091009706/17/12 09:10:31  5-MIN KSTC 171510Z 21008KT 10SM SCT120 23/11 A2979 1150 45 2400 210/08 RMK AO2
14926KSTC STC20120617091509706/17/12 09:15:31  5-MIN KSTC 171515Z 21008KT 10SM SCT120 23/11 A2978 1150 45 2400 210/08 RMK AO2
14926KSTC STC20120617092009706/17/12 09:20:31  5-MIN KSTC 171520Z 21008KT 10SM SCT120 23/10 A2978 1160 42 2400 210/08 RMK AO2
14926KSTC STC20120617092509706/17/12 09:25:31  5-MIN KSTC 171525Z 20008KT 10SM FEW120 23/10 A2978 1160 42 2400 200/08 RMK AO2
14926KSTC STC20120617093009706/17/12 09:30:31  5-MIN KSTC 171530Z 21006KT 10SM FEW120 23/10 A2978 1160 42 2400 210/06 RMK AO2
14926KSTC STC20120617093509406/17/12 09:35:31  5-MIN KSTC 171535Z 18007KT 10SM CLR 24/10 A2977 1160 41 2500 180/07 RMK AO2
14926KSTC STC20120617094009406/17/12 09:40:31  5-MIN KSTC 171540Z 16008KT 10SM CLR 23/11 A2977 1160 44 2400 160/08 RMK AO2
14926KSTC STC20120617094509406/17/12 09:45:31  5-MIN KSTC 171545Z 19009KT 10SM CLR 23/11 A2977 1170 44 2400 180/09 RMK AO2
14926KSTC STC20120617095011106/17/12 09:50:31  5-MIN KSTC 171550Z 20006KT 10SM CLR 23/11 A2977 1160 44 2400 200/06 RMK AO2 SLP085 T02330106
14926KSTC STC20120617095509406/17/12 09:55:31  5-MIN KSTC 171555Z 17009KT 10SM CLR 23/11 A2977 1170 45 2400 170/09 RMK AO2
14926KSTC STC20120617100009406/17/12 10:00:31  5-MIN KSTC 171600Z 19009KT 10SM CLR 23/11 A2977 1170 47 2400 180/09 RMK AO2
14926KSTC STC20120617100509406/17/12 10:05:31  5-MIN KSTC 171605Z 17009KT 10SM CLR 23/11 A2976 1170 45 2400 170/09 RMK AO2
14926KSTC STC20120617101009406/17/12 10:10:31  5-MIN KSTC 171610Z 17008KT 10SM CLR 23/12 A2976 1180 47 2500 170/08 RMK AO2
14926KSTC STC20120617101509406/17/12 10:15:31  5-MIN KSTC 171615Z 18009KT 10SM CLR 23/12 A2975 1180 47 2500 180/09 RMK AO2
14926KSTC STC20120617102009406/17/12 10:20:31  5-MIN KSTC 171620Z 16008KT 10SM CLR 24/12 A2975 1190 46 2500 160/08 RMK AO2
14926KSTC STC20120617102509406/17/12 10:25:31  5-MIN KSTC 171625Z 18008KT 10SM CLR 24/12 A2975 1190 46 2600 180/08 RMK AO2
14926KSTC STC20120617103009406/17/12 10:30:31  5-MIN KSTC 171630Z 16007KT 10SM CLR 24/12 A2974 1190 46 2600 160/07 RMK AO2
14926KSTC STC20120617103509406/17/12 10:35:31  5-MIN KSTC 171635Z 19009KT 10SM CLR 24/12 A2974 1190 44 2600 190/09 RMK AO2
14926KSTC STC20120617104009406/17/12 10:40:31  5-MIN KSTC 171640Z 17009KT 10SM CLR 24/12 A2974 1200 44 2600 170/09 RMK AO2
14926KSTC STC20120617104509406/17/12 10:45:31  5-MIN KSTC 171645Z 16008KT 10SM CLR 24/12 A2973 1200 46 2500 160/08 RMK AO2
14926KSTC STC20120617105011106/17/12 10:50:31  5-MIN KSTC 171650Z 16009KT 10SM CLR 24/12 A2973 1200 44 2600 160/09 RMK AO2 SLP071 T02440117
14926KSTC STC20120617105509406/17/12 10:55:31  5-MIN KSTC 171655Z 16009KT 10SM CLR 24/12 A2973 1200 47 2500 160/09 RMK AO2
14926KSTC STC20120617110009406/17/12 11:00:31  5-MIN KSTC 171700Z 18007KT 10SM CLR 24/12 A2973 1210 44 2600 180/07 RMK AO2
14926KSTC STC20120617110509406/17/12 11:05:31  5-MIN KSTC 171705Z 17010KT 10SM CLR 24/11 A2973 1210 42 2600 170/10 RMK AO2
14926KSTC STC20120617111009706/17/12 11:10:31  5-MIN KSTC 171710Z 17007KT 10SM FEW075 23/12 A2972 1210 47 2500 160/07 RMK AO2
14926KSTC STC20120617111509706/17/12 11:15:31  5-MIN KSTC 171715Z 18010KT 10SM SCT075 23/11 A2973 1200 45 2500 170/10 RMK AO2
14926KSTC STC20120617112010406/17/12 11:20:31  5-MIN KSTC 171720Z 18009KT 10SM FEW060 BKN080 23/11 A2974 1190 47 2400 180/09 RMK AO2
14926KSTC STC20120617112511106/17/12 11:25:31  5-MIN KSTC 171725Z 20009KT 10SM SCT065 BKN080 22/12 A2976 1170 51 2300 200/09 RMK AO2 PRESRR
14926KSTC STC20120617113012006/17/12 11:30:31  5-MIN KSTC 171730Z 22009KT 10SM -RA BKN070 22/11 A2978 1160 49 2300 220/09 RMK AO2 RAB30 PRESRR P0000
14926KSTC STC20120617113511206/17/12 11:35:31  5-MIN KSTC 171735Z 21008KT 6SM -RA OVC070 21/12 A2978 1160 56 2200 210/08 RMK AO2 RAB30 P0000
14926KSTC STC20120617114012506/17/12 11:40:31  5-MIN KSTC 171740Z 18008KT 6SM RA SCT065 BKN080 OVC100 20/14 A2977 1170 67 2100 180/08 RMK AO2 RAB30 P0002
14926KSTC STC20120617114511906/17/12 11:45:31  5-MIN KSTC 171745Z 18006KT 6SM -RA BKN070 OVC100 19/14 A2976 1180 70 2000 180/06 RMK AO2 RAB30 P0002
14926KSTC STC20120617115016606/17/12 11:50:31  5-MIN KSTC 171750Z 17008KT 6SM RA SCT070 BKN090 OVC110 18/14 A2976 1170 75 1900 170/08 RMK AO2 RAB30 SLP085 P0003 60003 T01830139 10250 20156 58012
14926KSTC STC20120617115511306/17/12 11:55:31  5-MIN KSTC 171755Z 18009KT 4SM -RA BKN080 OVC100 18/14 A2976 1170 75 1900 180/09 RMK AO2 P0000
14926KSTC STC20120617120011306/17/12 12:00:31  5-MIN KSTC 171800Z 16006KT 3SM -RA SCT080 OVC100 18/14 A2976 1180 78 1800 150/06 RMK AO2 P0001
14926KSTC STC20120617120511206/17/12 12:05:31  5-MIN KSTC 171805Z 18004KT 3SM RA BKN090 OVC110 18/14 A2977 1170 81 1800 180/04 RMK AO2 P0002
14926KSTC STC20120617121010606/17/12 12:10:31  5-MIN KSTC 171810Z 18004KT 5SM -RA OVC100 18/14 A2976 1170 81 1800 180/04 RMK AO2 P0003
14926KSTC STC20120617121511306/17/12 12:15:31  5-MIN KSTC 171815Z 15005KT 6SM -RA FEW070 OVC100 18/15 A2975 1180 83 1800 150/05 RMK AO2 P0003
14926KSTC STC20120617122011206/17/12 12:20:31  5-MIN KSTC 171820Z 16009KT 4SM RA FEW070 OVC100 18/14 A2975 1190 81 1800 160/09 RMK AO2 P0004
14926KSTC STC20120617122512006/17/12 12:25:31  5-MIN KSTC 171825Z 16008KT 4SM -RA FEW075 OVC100 18/14 A2974 1190 81 1800 160/08 RMK AO2 PRESFR P0005
14926KSTC STC20120617123011306/17/12 12:30:31  5-MIN KSTC 171830Z 14005KT 5SM -RA FEW060 OVC100 18/15 A2974 1200 83 1800 140/05 RMK AO2 P0006
14926KSTC STC20120617123511306/17/12 12:35:31  5-MIN KSTC 171835Z 14004KT 8SM -RA SCT060 OVC100 18/16 A2973 1200 87 1800 130/04 RMK AO2 P0006
14926KSTC STC20120617124012306/17/12 12:40:31  5-MIN KSTC 171840Z 16010KT 10SM BKN060 BKN070 OVC095 19/16 A2973 1210 81 2000 160/10 RMK AO2 RAE40 P0006
14926KSTC STC20120617124512306/17/12 12:45:31  5-MIN KSTC 171845Z 15011KT 10SM BKN060 BKN100 19/16 A2972 1220 81 2000 150/11 RMK AO2 RAE40 PRESFR P0006
14926KSTC STC20120617125014006/17/12 12:50:31  5-MIN KSTC 171850Z 15010KT 10SM SCT060 BKN100 BKN120 19/16 A2971 1220 81 2000 150/10 RMK AO2 RAE40 SLP067 P0006 T01890156
14926KSTC STC20120617125511706/17/12 12:55:31  5-MIN KSTC 171855Z 15012G17KT 10SM SCT060 BKN095 BKN120 19/16 A2971 1220 78 2100 150/12G17 RMK AO2
14926KSTC STC20120617130011106/17/12 13:00:31  5-MIN KSTC 171900Z 16011KT 10SM SCT060 SCT095 BKN120 19/16 A2971 1220 78 2100 160/11 RMK AO2
14926KSTC STC20120617130510406/17/12 13:05:31  5-MIN KSTC 171905Z 15010KT 10SM FEW060 BKN120 19/16 A2970 1230 78 2100 150/10 RMK AO2
14926KSTC STC20120617131011706/17/12 13:10:31  5-MIN KSTC 171910Z 16014G18KT 10SM FEW095 BKN120 20/16 A2969 1240 75 2100 160/14G18 RMK AO2 PRESFR
14926KSTC STC20120617131511006/17/12 13:15:31  5-MIN KSTC 171915Z 16013G18KT 10SM FEW095 BKN120 20/15 A2969 1240 72 2200 160/13G18 RMK AO2
14926KSTC STC20120617132011006/17/12 13:20:31  5-MIN KSTC 171920Z 14012G19KT 10SM FEW095 SCT120 20/15 A2969 1240 72 2100 140/12G19 RMK AO2
14926KSTC STC20120617132510306/17/12 13:25:31  5-MIN KSTC 171925Z 15013G19KT 10SM FEW120 20/15 A2969 1240 72 2200 150/13G19 RMK AO2
14926KSTC STC20120617133009706/17/12 13:30:31  5-MIN KSTC 171930Z 15012KT 10SM FEW120 20/15 A2968 1250 72 2200 150/12 RMK AO2
14926KSTC STC20120617133510306/17/12 13:35:31  5-MIN KSTC 171935Z 15015G22KT 10SM FEW120 20/14 A2968 1250 70 2200 150/15G22 RMK AO2
14926KSTC STC20120617134010706/17/12 13:40:31  5-MIN KSTC 171940Z 16016G22KT 10SM CLR 20/14 A2967 1260 70 2200 160/16G22 RMK AO2 PRESFR
14926KSTC STC20120617134510006/17/12 13:45:31  5-MIN KSTC 171945Z 16016G22KT 10SM CLR 20/14 A2967 1260 67 2200 160/16G22 RMK AO2
14926KSTC STC20120617135011706/17/12 13:50:31  5-MIN KSTC 171950Z 16013G22KT 10SM CLR 19/14 A2967 1260 72 2100 160/13G22 RMK AO2 SLP054 T01940144
14926KSTC STC20120617135509406/17/12 13:55:31  5-MIN KSTC 171955Z 16013KT 10SM CLR 19/14 A2967 1260 72 2100 160/13 RMK AO2
14926KSTC STC20120617140010006/17/12 14:00:31  5-MIN KSTC 172000Z 15011G19KT 10SM CLR 19/14 A2966 1270 72 2100 150/11G19 RMK AO2
14926KSTC STC20120617140509406/17/12 14:05:31  5-MIN KSTC 172005Z 16011KT 10SM CLR 19/14 A2967 1260 72 2100 160/11 RMK AO2
14926KSTC STC20120617141010306/17/12 14:10:31  5-MIN KSTC 172010Z 16010G16KT 10SM FEW110 19/14 A2967 1260 72 2100 160/10G16 RMK AO2
14926KSTC STC20120617141510306/17/12 14:15:31  5-MIN KSTC 172015Z 17010G18KT 10SM FEW110 19/14 A2967 1260 72 2100 160/10G18 RMK AO2
14926KSTC STC20120617142010306/17/12 14:20:31  5-MIN KSTC 172020Z 15009G18KT 10SM FEW110 19/14 A2965 1280 72 2100 150/09G18 RMK AO2
14926KSTC STC20120617142511706/17/12 14:25:31  5-MIN KSTC 172025Z 16010G16KT 10SM FEW080 SCT110 19/14 A2965 1280 72 2100 150/10G16 RMK AO2 PRESFR
14926KSTC STC20120617143011006/17/12 14:30:31  5-MIN KSTC 172030Z 16010G17KT 10SM FEW080 BKN110 19/14 A2964 1280 72 2100 160/10G17 RMK AO2
14926KSTC STC20120617143511006/17/12 14:35:31  5-MIN KSTC 172035Z 15011G17KT 10SM FEW075 SCT110 20/14 A2964 1280 70 2200 150/11G17 RMK AO2
14926KSTC STC20120617144011006/17/12 14:40:31  5-MIN KSTC 172040Z 16011G16KT 10SM FEW080 SCT110 21/15 A2965 1280 70 2300 160/11G16 RMK AO2
14926KSTC STC20120617144511006/17/12 14:45:31  5-MIN KSTC 172045Z 17013G17KT 10SM FEW080 SCT110 20/14 A2965 1280 70 2200 170/13G17 RMK AO2
14926KSTC STC20120617145013906/17/12 14:50:31  5-MIN KSTC 172050Z 16011G20KT 10SM FEW080 SCT110 20/14 A2965 1280 70 2200 160/11G20 RMK AO2 SLP045 60006 T02000144 55010
14926KSTC STC20120617145510306/17/12 14:55:31  5-MIN KSTC 172055Z 16011G20KT 10SM FEW110 21/15 A2964 1280 68 2300 160/11G20 RMK AO2
14926KSTC STC20120617150010306/17/12 15:00:31  5-MIN KSTC 172100Z 15015G18KT 10SM FEW110 21/15 A2964 1290 70 2300 150/15G18 RMK AO2
14926KSTC STC20120617150510306/17/12 15:05:31  5-MIN KSTC 172105Z 16011G18KT 10SM FEW110 21/15 A2964 1290 68 2300 160/11G18 RMK AO2
14926KSTC STC20120617151010306/17/12 15:10:31  5-MIN KSTC 172110Z 16010G17KT 10SM FEW110 22/15 A2964 1290 65 2400 160/10G17 RMK AO2
14926KSTC STC20120617151510306/17/12 15:15:31  5-MIN KSTC 172115Z 17013G18KT 10SM FEW110 22/15 A2964 1290 65 2400 170/13G18 RMK AO2
14926KSTC STC20120617152010306/17/12 15:20:31  5-MIN KSTC 172120Z 17013G19KT 10SM FEW110 21/14 A2963 1300 65 2300 170/13G19 RMK AO2
14926KSTC STC20120617152510306/17/12 15:25:31  5-MIN KSTC 172125Z 16013G21KT 10SM FEW110 21/14 A2963 1300 63 2300 160/13G21 RMK AO2
14926KSTC STC20120617153010306/17/12 15:30:31  5-MIN KSTC 172130Z 16014G21KT 10SM FEW110 21/14 A2963 1300 63 2300 160/14G21 RMK AO2
14926KSTC STC20120617153510306/17/12 15:35:31  5-MIN KSTC 172135Z 16013G20KT 10SM FEW110 22/14 A2962 1300 63 2400 160/13G20 RMK AO2
14926KSTC STC20120617154010306/17/12 15:40:31  5-MIN KSTC 172140Z 16013G19KT 10SM FEW110 22/14 A2962 1310 63 2400 150/13G19 RMK AO2
14926KSTC STC20120617154510306/17/12 15:45:31  5-MIN KSTC 172145Z 16011G18KT 10SM FEW110 22/14 A2961 1310 63 2400 160/11G18 RMK AO2
14926KSTC STC20120617155012006/17/12 15:50:31  5-MIN KSTC 172150Z 15013G18KT 10SM FEW110 22/14 A2961 1320 61 2500 150/13G18 RMK AO2 SLP032 T02220144
14926KSTC STC20120617155510306/17/12 15:55:31  5-MIN KSTC 172155Z 15012G18KT 10SM FEW110 22/15 A2960 1320 63 2500 150/12G18 RMK AO2
14926KSTC STC20120617160010006/17/12 16:00:31  5-MIN KSTC 172200Z 15012G18KT 10SM CLR 23/14 A2960 1330 59 2600 150/12G18 RMK AO2
14926KSTC STC20120617160510006/17/12 16:05:31  5-MIN KSTC 172205Z 14013G19KT 10SM CLR 22/14 A2960 1330 61 2500 140/13G19 RMK AO2
14926KSTC STC20120617161010306/17/12 16:10:31  5-MIN KSTC 172210Z 15010G19KT 10SM FEW120 23/15 A2960 1330 61 2600 140/10G19 RMK AO2
14926KSTC STC20120617161510306/17/12 16:15:31  5-MIN KSTC 172215Z 15011G16KT 10SM FEW120 23/15 A2959 1330 61 2600 150/11G16 RMK AO2
14926KSTC STC20120617162010306/17/12 16:20:31  5-MIN KSTC 172220Z 16013G19KT 10SM FEW120 22/15 A2959 1330 63 2500 160/13G19 RMK AO2
14926KSTC STC20120617162510306/17/12 16:25:31  5-MIN KSTC 172225Z 16011G19KT 10SM FEW120 23/15 A2959 1330 61 2600 160/11G19 RMK AO2
14926KSTC STC20120617163009706/17/12 16:30:31  5-MIN KSTC 172230Z 15010KT 10SM FEW120 23/16 A2959 1340 63 2600 150/10 RMK AO2
14926KSTC STC20120617163509706/17/12 16:35:31  5-MIN KSTC 172235Z 16009KT 10SM FEW120 23/16 A2958 1340 61 2700 160/09 RMK AO2
14926KSTC STC20120617164010006/17/12 16:40:31  5-MIN KSTC 172240Z 15011G15KT 10SM CLR 23/16 A2958 1340 63 2600 150/11G15 RMK AO2
14926KSTC STC20120617164510006/17/12 16:45:31  5-MIN KSTC 172245Z 14008G15KT 10SM CLR 23/16 A2957 1350 63 2600 140/08G15 RMK AO2
14926KSTC STC20120617165011706/17/12 16:50:31  5-MIN KSTC 172250Z 16012G18KT 10SM CLR 23/15 A2957 1350 59 2700 150/12G18 RMK AO2 SLP019 T02330150
14926KSTC STC20120617165510006/17/12 16:55:31  5-MIN KSTC 172255Z 14010G18KT 10SM CLR 23/15 A2957 1350 59 2700 140/10G18 RMK AO2
14926KSTC STC20120617170010006/17/12 17:00:31  5-MIN KSTC 172300Z 15010G18KT 10SM CLR 23/14 A2957 1350 57 2700 150/10G18 RMK AO2
14926KSTC STC20120617170510006/17/12 17:05:31  5-MIN KSTC 172305Z 15015G21KT 10SM CLR 23/14 A2956 1360 57 2700 150/15G21 RMK AO2
14926KSTC STC20120617171010006/17/12 17:10:31  5-MIN KSTC 172310Z 16014G21KT 10SM CLR 23/14 A2956 1360 55 2700 160/14G21 RMK AO2
14926KSTC STC20120617171510006/17/12 17:15:31  5-MIN KSTC 172315Z 16013G20KT 10SM CLR 23/14 A2955 1370 55 2700 150/13G20 RMK AO2
14926KSTC STC20120617172010706/17/12 17:20:31  5-MIN KSTC 172320Z 16012G23KT 10SM CLR 23/14 A2954 1380 55 2700 150/12G23 RMK AO2 PRESFR
14926KSTC STC20120617172510706/17/12 17:25:31  5-MIN KSTC 172325Z 15016G23KT 10SM CLR 23/14 A2954 1380 55 2700 150/16G23 RMK AO2 PRESFR
14926KSTC STC20120617173010706/17/12 17:30:31  5-MIN KSTC 172330Z 15014G21KT 10SM CLR 23/14 A2953 1390 57 2700 150/14G21 RMK AO2 PRESFR
14926KSTC STC20120617173510706/17/12 17:35:31  5-MIN KSTC 172335Z 14013G21KT 10SM CLR 24/14 A2952 1400 55 2800 140/13G21 RMK AO2 PRESFR
14926KSTC STC20120617174010706/17/12 17:40:31  5-MIN KSTC 172340Z 14015G24KT 10SM CLR 24/14 A2951 1410 53 2800 140/15G24 RMK AO2 PRESFR
14926KSTC STC20120617174510006/17/12 17:45:31  5-MIN KSTC 172345Z 15014G24KT 10SM CLR 24/14 A2951 1410 53 2800 150/14G24 RMK AO2
14926KSTC STC20120617175014106/17/12 17:50:31  5-MIN KSTC 172350Z 15016G23KT 10SM CLR 23/13 A2950 1420 55 2700 150/16G23 RMK AO2 SLP995 60006 T02280133 10239 20178 56040
14926KSTC STC20120617175510706/17/12 17:55:31  5-MIN KSTC 172355Z 15015G24KT 10SM CLR 23/13 A2949 1430 55 2700 150/15G24 RMK AO2 PRESFR
14926KSTC STC20120617180011806/17/12 18:00:31  5-MIN KSTC 180000Z 16014G26KT 10SM CLR 23/13 A2949 1430 55 2700 160/14G26 RMK AO2 PK WND 16026/2357
14926KSTC STC20120617180511806/17/12 18:05:31  5-MIN KSTC 180005Z 16014G26KT 10SM CLR 23/13 A2949 1420 55 2700 150/14G26 RMK AO2 PK WND 16026/2357
14926KSTC STC20120617181011806/17/12 18:10:31  5-MIN KSTC 180010Z 15012G22KT 10SM CLR 22/14 A2949 1430 59 2600 150/12G22 RMK AO2 PK WND 16026/2357
14926KSTC STC20120617181511806/17/12 18:15:31  5-MIN KSTC 180015Z 15011G21KT 10SM CLR 22/14 A2948 1430 59 2600 150/11G21 RMK AO2 PK WND 16026/2357
14926KSTC STC20120617182011806/17/12 18:20:31  5-MIN KSTC 180020Z 15013G21KT 10SM CLR 22/14 A2948 1440 59 2600 150/13G21 RMK AO2 PK WND 16026/2357
14926KSTC STC20120617182511806/17/12 18:25:31  5-MIN KSTC 180025Z 15011G19KT 10SM CLR 22/14 A2948 1440 61 2600 140/11G19 RMK AO2 PK WND 16026/2357
14926KSTC STC20120617183011806/17/12 18:30:31  5-MIN KSTC 180030Z 15012G21KT 10SM CLR 22/14 A2949 1430 61 2600 150/12G21 RMK AO2 PK WND 16026/2357
14926KSTC STC20120617183511806/17/12 18:35:31  5-MIN KSTC 180035Z 15011G21KT 10SM CLR 22/14 A2949 1420 61 2600 150/11G21 RMK AO2 PK WND 16026/2357
14926KSTC STC20120617184011906/17/12 18:40:31  5-MIN KSTC 180040Z 15012KT 10SM CLR 22/14 A2950 1420 63 2600 150/12 RMK AO2 PK WND 16026/2357 PRESRR
14926KSTC STC20120617184511206/17/12 18:45:31  5-MIN KSTC 180045Z 15011KT 10SM CLR 22/14 A2950 1420 63 2600 150/11 RMK AO2 PK WND 16026/2357
14926KSTC STC20120617185013206/17/12 18:50:31  5-MIN KSTC 180050Z 15010KT 10SM FEW055 22/14 A2950 1420 63 2600 150/10 RMK AO2 PK WND 16026/2357 SLP993 T02170144
14926KSTC STC20120617185510306/17/12 18:55:31  5-MIN KSTC 180055Z 15010G16KT 10SM SCT055 22/14 A2950 1420 63 2600 140/10G16 RMK AO2
14926KSTC STC20120617190009706/17/12 19:00:31  5-MIN KSTC 180100Z 14009KT 10SM BKN055 22/14 A2950 1420 63 2600 140/09 RMK AO2
14926KSTC STC20120617190509706/17/12 19:05:31  5-MIN KSTC 180105Z 15011KT 10SM SCT055 22/14 A2949 1430 63 2600 150/11 RMK AO2
14926KSTC STC20120617191009706/17/12 19:10:31  5-MIN KSTC 180110Z 14008KT 10SM SCT055 22/14 A2948 1430 63 2600 140/08 RMK AO2
14926KSTC STC20120617191510406/17/12 19:15:31  5-MIN KSTC 180115Z 15011KT 10SM SCT055 21/14 A2947 1440 65 2500 150/11 RMK AO2 PRESFR
14926KSTC STC20120617192009706/17/12 19:20:31  5-MIN KSTC 180120Z 15011KT 10SM FEW055 21/14 A2947 1440 65 2500 150/11 RMK AO2
14926KSTC STC20120617192510306/17/12 19:25:31  5-MIN KSTC 180125Z 15010G18KT 10SM FEW055 22/14 A2946 1450 63 2600 150/10G18 RMK AO2
14926KSTC STC20120617193010306/17/12 19:30:31  5-MIN KSTC 180130Z 15012G18KT 10SM FEW100 22/14 A2946 1460 63 2600 140/12G18 RMK AO2
14926KSTC STC20120617193511706/17/12 19:35:31  5-MIN KSTC 180135Z 15011G16KT 10SM FEW055 SCT100 SCT110 22/14 A2946 1450 63 2600 150/11G16 RMK AO2
14926KSTC STC20120617194011706/17/12 19:40:31  5-MIN KSTC 180140Z 16011G17KT 10SM FEW060 SCT070 BKN110 22/14 A2946 1450 63 2600 160/11G17 RMK AO2
14926KSTC STC20120617194513306/17/12 19:45:31  5-MIN KSTC 180145Z 15010G17KT 10SM -RA FEW060 SCT090 BKN110 22/14 A2946 1450 63 2600 150/10G17 RMK AO2 RAB43 P0000
14926KSTC STC20120617195013706/17/12 19:50:31  5-MIN KSTC 180150Z 16011KT 10SM -RA FEW060 BKN110 21/15 A2946 1460 68 2500 160/11 RMK AO2 RAB43 SLP978 P0000 T02110150
14926KSTC STC20120617195511406/17/12 19:55:31  5-MIN KSTC 180155Z 16011KT 10SM -RA FEW060 BKN110 21/15 A2946 1460 68 2500 160/11 RMK AO2 P0000
14926KSTC STC20120617200012706/17/12 20:00:31  5-MIN KSTC 180200Z 16011G17KT 10SM -RA SCT055 SCT075 OVC110 21/16 A2945 1460 70 2500 150/11G17 RMK AO2 P0000
14926KSTC STC20120617200512706/17/12 20:05:31  5-MIN KSTC 180205Z 16009G16KT 10SM -RA FEW048 SCT060 OVC110 21/16 A2945 1460 70 2500 160/09G16 RMK AO2 P0001
14926KSTC STC20120617201011406/17/12 20:10:31  5-MIN KSTC 180210Z 14008KT 10SM -RA FEW048 BKN110 21/16 A2945 1460 73 2500 140/08 RMK AO2 P0001
14926KSTC STC20120617201511906/17/12 20:15:31  5-MIN KSTC 180215Z 16010G14KT 8SM -RA FEW050 BKN110 20/16 A2946 1460 78 2400 160/10G14 RMK AO2 P0002
14926KSTC STC20120617202012006/17/12 20:20:31  5-MIN KSTC 180220Z 16010KT 8SM -RA FEW050 SCT070 BKN110 20/16 A2946 1460 78 2400 160/10 RMK AO2 P0003
14926KSTC STC20120617202512606/17/12 20:25:31  5-MIN KSTC 180225Z 15014G20KT 4SM +RA SCT050 BKN090 OVC110 19/17 A2946 1450 84 2300 150/14G20 RMK AO2 P0006
14926KSTC STC20120617203012506/17/12 20:30:31  5-MIN KSTC 180230Z 14005G20KT 3SM RA SCT045 BKN090 OVC110 20/17 A2947 1450 81 2400 140/05G20 RMK AO2 P0009
14926KSTC STC20120617203512706/17/12 20:35:31  5-MIN KSTC 180235Z 14003KT 5SM -RA SCT043 BKN060 OVC110 20/17 A2948 1440 81 2400 140/03 RMK AO2 PRESRR P0012
14926KSTC STC20120617204012706/17/12 20:40:31  5-MIN KSTC 180240Z 23006KT 4SM -RA SCT040 BKN050 OVC110 20/17 A2953 1390 81 2300 230/06 RMK AO2 PRESRR P0014
14926KSTC STC20120617204514706/17/12 20:45:31  5-MIN KSTC 180245Z 26012G26KT 4SM -RA BR FEW031 BKN043 OVC090 19/17 A2952 1400 87 2300 260/12G26 RMK AO2 PK WND 26026/0243 P0014
14926KSTC STC20120617205018006/17/12 20:50:31  5-MIN KSTC 180250Z VRB06G26KT 1 3/4SM +RA BR SCT034 BKN043 OVC075 19/17 A2952 1400 87 2300 VRB/06G26 RMK AO2 PK WND 26026/0243 SLP999 P0022 60022 T01940172 58049
14926KSTC STC20120617205513206/17/12 20:55:31  5-MIN KSTC 180255Z 36011G15KT 1 3/4SM RA BR SCT034 BKN041 OVC085 19/17 A2950 1420 87 2300 360/11G15 RMK AO2 P0001
14926KSTC STC20120617210013606/17/12 21:00:31  5-MIN KSTC 180300Z 36018G25KT 5SM -RA BR FEW018 BKN048 OVC090 19/17 A2948 1440 87 2300 360/18G25 RMK AO2 PRESFR P0001
14926KSTC STC20120617210512606/17/12 21:05:31  5-MIN KSTC 180305Z VRB05G25KT 7SM -RA FEW018 BKN037 OVC120 21/17 A2949 1430 81 2400 VRB/05G25 RMK AO2 P0002
14926KSTC STC20120617211012706/17/12 21:10:31  5-MIN KSTC 180310Z 16006KT 9SM -RA SCT025 SCT085 BKN110 21/17 A2946 1450 81 2500 160/06 RMK AO2 PRESFR P0002
14926KSTC STC20120617211513406/17/12 21:15:31  5-MIN KSTC 180315Z 16010G14KT 10SM -RA FEW019 SCT085 BKN120 21/17 A2945 1460 81 2500 160/10G14 RMK AO2 PRESFR P0002
14926KSTC STC20120617212012706/17/12 21:20:31  5-MIN KSTC 180320Z 18011G23KT 10SM -RA FEW019 SCT090 SCT110 21/17 A2945 1460 81 2500 170/11G23 RMK AO2 P0002
14926KSTC STC20120617212511306/17/12 21:25:31  5-MIN KSTC 180325Z 20008G23KT 10SM -RA FEW019 21/17 A2950 1420 78 2400 200/08G23 RMK AO2 P0002
14926KSTC STC20120617213010706/17/12 21:30:31  5-MIN KSTC 180330Z 19007KT 10SM -RA FEW110 21/17 A2950 1420 81 2400 190/07 RMK AO2 P0002
14926KSTC STC20120617213510706/17/12 21:35:31  5-MIN KSTC 180335Z 17008KT 10SM -RA SCT120 20/17 A2949 1430 84 2400 170/08 RMK AO2 P0002
14926KSTC STC20120617214010706/17/12 21:40:31  5-MIN KSTC 180340Z 18005KT 10SM -RA SCT120 20/18 A2949 1430 87 2400 180/05 RMK AO2 P0002
14926KSTC STC20120617214510706/17/12 21:45:31  5-MIN KSTC 180345Z 20009KT 10SM -RA BKN110 20/18 A2950 1420 87 2400 190/09 RMK AO2 P0002
14926KSTC STC20120617215012406/17/12 21:50:31  5-MIN KSTC 180350Z 16009KT 10SM -RA BKN110 20/18 A2949 1430 87 2400 150/09 RMK AO2 SLP988 P0002 T02000178
14926KSTC STC20120617215513306/17/12 21:55:31  5-MIN KSTC 180355Z AUTO 15009KT 10SM -RA FEW090 SCT110 19/18 A2948 1430 90 2300 150/09 RMK AO2 LTG DSNT E-SW P0000
14926KSTC STC20120617220013306/17/12 22:00:31  5-MIN KSTC 180400Z AUTO 17011KT 10SM -RA FEW085 BKN110 20/18 A2948 1440 90 2400 170/11 RMK AO2 LTG DSNT E-SW P0001
14926KSTC STC20120617220513206/17/12 22:05:31  5-MIN KSTC 180405Z AUTO 18008KT 10SM -RA FEW080 SCT110 20/18 A2948 1440 90 2400 180/08 RMK AO2 LTG DSNT E-S P0001
14926KSTC STC20120617221015306/17/12 22:10:31  5-MIN KSTC 180410Z AUTO 18007KT 10SM FEW080 SCT095 SCT110 20/18 A2946 1450 90 2400 180/07 RMK AO2 LTG DSNT SE AND S RAE10 PRESFR P0001
14926KSTC STC20120617221514406/17/12 22:15:31  5-MIN KSTC 180415Z AUTO 18007KT 10SM -RA SCT085 SCT110 20/18 A2945 1460 90 2400 180/07 RMK AO2 LTG DSNT SE AND S PRESFR P0001
14926KSTC STC20120617222014406/17/12 22:20:31  5-MIN KSTC 180420Z AUTO 18009KT 10SM -RA FEW050 BKN090 20/18 A2945 1470 90 2400 180/09 RMK AO2 LTG DSNT SE AND S PRESFR P0001
14926KSTC STC20120617222515706/17/12 22:25:31  5-MIN KSTC 180425Z AUTO 17010G16KT 10SM -RA FEW050 SCT080 SCT100 20/18 A2944 1480 90 2400 170/10G16 RMK AO2 LTG DSNT SE AND S PRESFR P0001
14926KSTC STC20120617223013206/17/12 22:30:31  5-MIN KSTC 180430Z AUTO 19009KT 10SM FEW050 20/18 A2944 1470 90 2400 190/09 RMK AO2 LTG DSNT SE AND S RAE29 P0001
14926KSTC STC20120617223513206/17/12 22:35:31  5-MIN KSTC 180435Z AUTO 17010KT 10SM FEW050 20/18 A2944 1470 90 2400 170/10 RMK AO2 LTG DSNT SE AND S RAE29 P0001
14926KSTC STC20120617224011406/17/12 22:40:31  5-MIN KSTC 180440Z AUTO 17010KT 10SM FEW050 20/18 A2943 1480 90 2400 170/10 RMK AO2 RAE29 P0001
14926KSTC STC20120617224511106/17/12 22:45:31  5-MIN KSTC 180445Z AUTO 17009KT 10SM CLR 20/18 A2943 1480 90 2400 170/09 RMK AO2 RAE29 P0001
14926KSTC STC20120617225012806/17/12 22:50:31  5-MIN KSTC 180450Z AUTO 17008KT 10SM CLR 20/18 A2943 1480 87 2400 160/08 RMK AO2 RAE29 SLP968 P0001 T02000178
14926KSTC STC20120617225509906/17/12 22:55:31  5-MIN KSTC 180455Z AUTO 17007KT 10SM CLR 20/18 A2943 1480 87 2400 170/07 RMK AO2
14926KSTC STC20120617230009906/17/12 23:00:31  5-MIN KSTC 180500Z AUTO 17006KT 10SM CLR 20/18 A2943 1480 87 2400 170/06 RMK AO2
14926KSTC STC20120617230509906/17/12 23:05:31  5-MIN KSTC 180505Z AUTO 17008KT 10SM CLR 20/18 A2944 1480 87 2400 160/08 RMK AO2
14926KSTC STC20120617231011106/17/12 23:10:31  5-MIN KSTC 180510Z AUTO 16007KT 10SM CLR 20/18 A2943 1480 87 2400 160/07 RMK AO2 LTG DSNT SW
14926KSTC STC20120617231511106/17/12 23:15:31  5-MIN KSTC 180515Z AUTO 16007KT 10SM CLR 20/18 A2943 1490 87 2400 160/07 RMK AO2 LTG DSNT SW
14926KSTC STC20120617232011106/17/12 23:20:31  5-MIN KSTC 180520Z AUTO 15009KT 10SM CLR 20/18 A2942 1490 87 2500 150/09 RMK AO2 LTG DSNT SW
14926KSTC STC20120617232509906/17/12 23:25:31  5-MIN KSTC 180525Z AUTO 16009KT 10SM CLR 20/18 A2943 1490 90 2500 160/09 RMK AO2
14926KSTC STC20120617233009906/17/12 23:30:31  5-MIN KSTC 180530Z AUTO 16007KT 10SM CLR 20/18 A2942 1490 90 2500 160/07 RMK AO2
14926KSTC STC20120617233509906/17/12 23:35:31  5-MIN KSTC 180535Z AUTO 17007KT 10SM CLR 20/18 A2942 1490 90 2500 170/07 RMK AO2
14926KSTC STC20120617234009906/17/12 23:40:31  5-MIN KSTC 180540Z AUTO 18006KT 10SM CLR 20/18 A2942 1490 90 2500 180/06 RMK AO2
14926KSTC STC20120617234511006/17/12 23:45:31  5-MIN KSTC 180545Z AUTO 17005KT 10SM CLR 20/18 A2941 1500 90 2500 170/05 RMK AO2 LTG DSNT S
14926KSTC STC20120617235016106/17/12 23:50:31  5-MIN KSTC 180550Z AUTO 16005KT 10SM CLR 19/18 A2941 1500 93 2400 160/05 RMK AO2 LTG DSNT S SLP964 60027 T01940183 10228 20194 402500128 53008
14926KSTC STC20120617235511006/17/12 23:55:31  5-MIN KSTC 180555Z AUTO 16006KT 10SM CLR 19/18 A2941 1500 90 2400 160/06 RMK AO2 LTG DSNT S
14926KSTC STC20120618000009906/18/12 00:00:32  5-MIN KSTC 180600Z AUTO 16005KT 10SM CLR 19/18 A2941 1510 90 2400 160/05 RMK AO2
14926KSTC STC20120618000509906/18/12 00:05:31  5-MIN KSTC 180605Z AUTO 16005KT 10SM CLR 19/18 A2940 1510 90 2400 160/05 RMK AO2
14926KSTC STC20120618001009906/18/12 00:10:31  5-MIN KSTC 180610Z AUTO 16006KT 10SM CLR 19/18 A2940 1510 90 2400 160/06 RMK AO2
14926KSTC STC20120618001509906/18/12 00:15:31  5-MIN KSTC 180615Z AUTO 16006KT 10SM CLR 19/18 A2940 1510 90 2400 160/06 RMK AO2
14926KSTC STC20120618002009906/18/12 00:20:31  5-MIN KSTC 180620Z AUTO 15007KT 10SM CLR 19/18 A2940 1510 90 2400 150/07 RMK AO2
14926KSTC STC20120618002509906/18/12 00:25:31  5-MIN KSTC 180625Z AUTO 15006KT 10SM CLR 19/18 A2940 1510 93 2400 150/06 RMK AO2
14926KSTC STC20120618003009906/18/12 00:30:31  5-MIN KSTC 180630Z AUTO 16005KT 10SM CLR 19/18 A2941 1510 93 2300 160/05 RMK AO2
14926KSTC STC20120618003509906/18/12 00:35:31  5-MIN KSTC 180635Z AUTO 16005KT 10SM CLR 19/18 A2940 1510 93 2400 150/05 RMK AO2
14926KSTC STC20120618004009906/18/12 00:40:31  5-MIN KSTC 180640Z AUTO 15005KT 10SM CLR 19/18 A2940 1510 93 2400 150/05 RMK AO2
14926KSTC STC20120618004509906/18/12 00:45:31  5-MIN KSTC 180645Z AUTO 14005KT 10SM CLR 19/18 A2939 1520 93 2400 140/05 RMK AO2
14926KSTC STC20120618005011606/18/12 00:50:31  5-MIN KSTC 180650Z AUTO 14005KT 10SM CLR 19/18 A2940 1520 93 2400 140/05 RMK AO2 SLP959 T01890178
14926KSTC STC20120618005509906/18/12 00:55:31  5-MIN KSTC 180655Z AUTO 00000KT 10SM CLR 19/18 A2940 1510 93 2400 000/00 RMK AO2
14926KSTC STC20120618010009906/18/12 01:00:31  5-MIN KSTC 180700Z AUTO 12004KT 10SM CLR 19/18 A2940 1520 93 2400 120/04 RMK AO2
14926KSTC STC20120618010509906/18/12 01:05:31  5-MIN KSTC 180705Z AUTO 00000KT 10SM CLR 19/18 A2940 1510 93 2400 000/00 RMK AO2
14926KSTC STC20120618011009906/18/12 01:10:31  5-MIN KSTC 180710Z AUTO 14004KT 10SM CLR 18/17 A2940 1510 93 2300 140/04 RMK AO2
14926KSTC STC20120618011510206/18/12 01:15:31  5-MIN KSTC 180715Z AUTO 00000KT 10SM FEW038 19/18 A2940 1510 93 2400 000/00 RMK AO2
14926KSTC STC20120618012010206/18/12 01:20:31  5-MIN KSTC 180720Z AUTO 13003KT 10SM FEW038 18/17 A2940 1510 93 2300 130/03 RMK AO2
14926KSTC STC20120618012510206/18/12 01:25:31  5-MIN KSTC 180725Z AUTO 00000KT 10SM FEW040 19/17 A2941 1510 90 2300 000/00 RMK AO2
14926KSTC STC20120618013010206/18/12 01:30:31  5-MIN KSTC 180730Z AUTO 00000KT 10SM FEW040 19/17 A2940 1510 90 2400 000/00 RMK AO2
14926KSTC STC20120618013510206/18/12 01:35:31  5-MIN KSTC 180735Z AUTO 16003KT 10SM FEW040 18/17 A2940 1510 93 2300 160/03 RMK AO2
14926KSTC STC20120618014010206/18/12 01:40:31  5-MIN KSTC 180740Z AUTO 14003KT 10SM FEW040 18/17 A2940 1510 93 2300 140/03 RMK AO2
14926KSTC STC20120618014509906/18/12 01:45:31  5-MIN KSTC 180745Z AUTO 00000KT 10SM CLR 18/17 A2940 1510 93 2200 000/00 RMK AO2
14926KSTC STC20120618015011606/18/12 01:50:31  5-MIN KSTC 180750Z AUTO 00000KT 10SM CLR 18/17 A2940 1510 90 2300 000/00 RMK AO2 SLP962 T01830167
14926KSTC STC20120618015509906/18/12 01:55:31  5-MIN KSTC 180755Z AUTO 00000KT 10SM CLR 18/17 A2940 1510 93 2200 000/00 RMK AO2
14926KSTC STC20120618020009906/18/12 02:00:31  5-MIN KSTC 180800Z AUTO 00000KT 10SM CLR 18/17 A2940 1510 93 2200 000/00 RMK AO2
14926KSTC STC20120618020509806/18/12 02:05:31  5-MIN KSTC 180805Z AUTO 00000KT 9SM CLR 18/17 A2941 1500 93 2200 000/00 RMK AO2
14926KSTC STC20120618021009806/18/12 02:10:31  5-MIN KSTC 180810Z AUTO 00000KT 8SM CLR 18/17 A2942 1500 93 2200 000/00 RMK AO2
14926KSTC STC20120618021509806/18/12 02:15:31  5-MIN KSTC 180815Z AUTO 00000KT 7SM CLR 17/17 A2941 1500 96 2100 000/00 RMK AO2
14926KSTC STC20120618022010106/18/12 02:20:31  5-MIN KSTC 180820Z AUTO 00000KT 4SM BR CLR 17/16 A2941 1500 93 2200 000/00 RMK AO2
14926KSTC STC20120618022510106/18/12 02:25:31  5-MIN KSTC 180825Z AUTO 00000KT 4SM BR CLR 17/16 A2941 1500 96 2100 000/00 RMK AO2
14926KSTC STC20120618023010106/18/12 02:30:31  5-MIN KSTC 180830Z AUTO 00000KT 5SM BR CLR 17/16 A2941 1500 96 2100 000/00 RMK AO2
14926KSTC STC20120618023511506/18/12 02:35:31  5-MIN KSTC 180835Z AUTO 36005KT 1 3/4SM BR CLR 17/16 A2941 1500 93 2100 360/05 RMK AO2 VIS 3/4V5
14926KSTC STC20120618024010506/18/12 02:40:31  5-MIN KSTC 180840Z AUTO 00000KT 1 3/4SM BR CLR 17/16 A2942 1500 93 2100 000/00 RMK AO2
14926KSTC STC20120618024510106/18/12 02:45:31  5-MIN KSTC 180845Z AUTO 00000KT 6SM BR CLR 17/17 A2942 1500 96 2100 000/00 RMK AO2
14926KSTC STC20120618025012406/18/12 02:50:31  5-MIN KSTC 180850Z AUTO 00000KT 6SM BR CLR 17/17 A2942 1500 96 2100 000/00 RMK AO2 SLP966 T01720167 53003
14926KSTC STC20120618025510106/18/12 02:55:31  5-MIN KSTC 180855Z AUTO 00000KT 5SM BR CLR 17/17 A2942 1490 96 2100 000/00 RMK AO2
14926KSTC STC20120618030010106/18/12 03:00:31  5-MIN KSTC 180900Z AUTO 00000KT 6SM BR CLR 17/16 A2943 1480 93 2100 000/00 RMK AO2
14926KSTC STC20120618030510806/18/12 03:05:31  5-MIN KSTC 180905Z AUTO 30003KT 6SM BR CLR 17/16 A2944 1480 93 2100 300/03 RMK AO2 PRESRR
14926KSTC STC20120618031010106/18/12 03:10:31  5-MIN KSTC 180910Z AUTO 31005KT 6SM BR CLR 17/16 A2944 1470 93 2100 300/05 RMK AO2
14926KSTC STC20120618031509806/18/12 03:15:31  5-MIN KSTC 180915Z AUTO 31004KT 7SM CLR 17/16 A2945 1470 93 2100 310/04 RMK AO2
14926KSTC STC20120618032009806/18/12 03:20:31  5-MIN KSTC 180920Z AUTO 30004KT 7SM CLR 17/16 A2945 1470 93 2100 300/04 RMK AO2
14926KSTC STC20120618032509806/18/12 03:25:31  5-MIN KSTC 180925Z AUTO 00000KT 7SM CLR 17/17 A2944 1470 96 2100 000/00 RMK AO2
14926KSTC STC20120618033009806/18/12 03:30:31  5-MIN KSTC 180930Z AUTO 00000KT 9SM CLR 18/17 A2943 1480 93 2200 000/00 RMK AO2
14926KSTC STC20120618033509906/18/12 03:35:31  5-MIN KSTC 180935Z AUTO 00000KT 10SM CLR 18/17 A2943 1490 93 2200 000/00 RMK AO2
14926KSTC STC20120618034009806/18/12 03:40:31  5-MIN KSTC 180940Z AUTO 00000KT 8SM CLR 18/17 A2943 1480 93 2200 000/00 RMK AO2
14926KSTC STC20120618034510106/18/12 03:45:31  5-MIN KSTC 180945Z AUTO 16003KT 6SM BR CLR 17/16 A2943 1480 93 2100 160/03 RMK AO2
14926KSTC STC20120618035011806/18/12 03:50:31  5-MIN KSTC 180950Z AUTO 16005KT 6SM BR CLR 17/16 A2942 1490 93 2100 160/05 RMK AO2 SLP967 T01720161
14926KSTC STC20120618035509806/18/12 03:55:31  5-MIN KSTC 180955Z AUTO 00000KT 7SM CLR 17/17 A2943 1480 96 2100 000/00 RMK AO2
14926KSTC STC20120618040009806/18/12 04:00:31  5-MIN KSTC 181000Z AUTO 00000KT 8SM CLR 18/17 A2942 1490 93 2200 000/00 RMK AO2
14926KSTC STC20120618040509906/18/12 04:05:31  5-MIN KSTC 181005Z AUTO 18004KT 10SM CLR 18/17 A2942 1490 93 2200 180/04 RMK AO2
14926KSTC STC20120618041009906/18/12 04:10:31  5-MIN KSTC 181010Z AUTO 00000KT 10SM CLR 18/17 A2942 1490 93 2200 000/00 RMK AO2
14926KSTC STC20120618041509906/18/12 04:15:31  5-MIN KSTC 181015Z AUTO 00000KT 10SM CLR 18/17 A2943 1490 93 2200 000/00 RMK AO2
14926KSTC STC20120618042009806/18/12 04:20:31  5-MIN KSTC 181020Z AUTO 00000KT 9SM CLR 17/16 A2943 1480 93 2100 000/00 RMK AO2
14926KSTC STC20120618042509806/18/12 04:25:31  5-MIN KSTC 181025Z AUTO 00000KT 9SM CLR 17/16 A2943 1480 93 2100 000/00 RMK AO2
14926KSTC STC20120618043009806/18/12 04:30:31  5-MIN KSTC 181030Z AUTO 00000KT 9SM CLR 17/16 A2943 1480 93 2100 000/00 RMK AO2
14926KSTC STC20120618043509806/18/12 04:35:31  5-MIN KSTC 181035Z AUTO 00000KT 8SM CLR 17/16 A2942 1490 93 2100 000/00 RMK AO2
14926KSTC STC20120618044010106/18/12 04:40:31  5-MIN KSTC 181040Z AUTO 00000KT 5SM BR CLR 17/16 A2942 1500 93 2100 000/00 RMK AO2
14926KSTC STC20120618044510106/18/12 04:45:31  5-MIN KSTC 181045Z AUTO 00000KT 4SM BR CLR 17/17 A2941 1500 96 2100 000/00 RMK AO2
14926KSTC STC20120618045012506/18/12 04:50:31  5-MIN KSTC 181050Z AUTO 00000KT 4SM BR CLR 17/17 A2940 1510 96 2200 000/00 RMK AO2 PRESFR SLP959 T01720167
14926KSTC STC20120618045510806/18/12 04:55:31  5-MIN KSTC 181055Z AUTO 00000KT 5SM BR CLR 17/16 A2939 1520 93 2200 000/00 RMK AO2 PRESFR
14926KSTC STC20120618050010106/18/12 05:00:31  5-MIN KSTC 181100Z AUTO 00000KT 5SM BR CLR 17/17 A2940 1510 96 2200 000/00 RMK AO2
14926KSTC STC20120618050510106/18/12 05:05:31  5-MIN KSTC 181105Z AUTO 00000KT 5SM BR CLR 17/17 A2939 1520 96 2200 000/00 RMK AO2
14926KSTC STC20120618051010106/18/12 05:10:31  5-MIN KSTC 181110Z AUTO 00000KT 5SM BR CLR 17/17 A2941 1510 96 2200 000/00 RMK AO2
14926KSTC STC20120618051510806/18/12 05:15:31  5-MIN KSTC 181115Z AUTO 00000KT 5SM BR CLR 17/17 A2941 1500 96 2100 000/00 RMK AO2 PRESRR
14926KSTC STC20120618052010806/18/12 05:20:31  5-MIN KSTC 181120Z AUTO 00000KT 5SM BR CLR 18/17 A2942 1490 93 2200 000/00 RMK AO2 PRESRR
14926KSTC STC20120618052510106/18/12 05:25:31  5-MIN KSTC 181125Z AUTO 00000KT 5SM BR CLR 18/17 A2942 1500 93 2200 000/00 RMK AO2
14926KSTC STC20120618053010106/18/12 05:30:31  5-MIN KSTC 181130Z AUTO 17004KT 6SM BR CLR 18/17 A2942 1490 93 2200 170/04 RMK AO2
14926KSTC STC20120618053510106/18/12 05:35:31  5-MIN KSTC 181135Z AUTO 15004KT 5SM BR CLR 18/17 A2941 1500 93 2200 150/04 RMK AO2
14926KSTC STC20120618054010106/18/12 05:40:31  5-MIN KSTC 181140Z AUTO 15004KT 5SM BR CLR 18/17 A2941 1500 93 2200 150/04 RMK AO2
14926KSTC STC20120618054510106/18/12 05:45:31  5-MIN KSTC 181145Z AUTO 19004KT 6SM BR CLR 18/17 A2943 1480 96 2200 190/04 RMK AO2
14926KSTC STC20120618055013906/18/12 05:50:31  5-MIN KSTC 181150Z AUTO 00000KT 7SM CLR 18/17 A2942 1490 93 2300 000/00 RMK AO2 SLP965 70037 T01830172 10194 20167 52007
14926KSTC STC20120618055509306/18/12 05:55:31  5-MIN KSTC 181155Z 00000KT 7SM CLR 18/17 A2943 1480 93 2300 000/00 RMK AO2
14926KSTC STC20120618060009306/18/12 06:00:31  5-MIN KSTC 181200Z 00000KT 8SM CLR 19/18 A2943 1480 93 2300 000/00 RMK AO2
14926KSTC STC20120618060509306/18/12 06:05:31  5-MIN KSTC 181205Z 00000KT 7SM CLR 19/18 A2943 1480 93 2300 000/00 RMK AO2
14926KSTC STC20120618061009306/18/12 06:10:31  5-MIN KSTC 181210Z 00000KT 7SM CLR 19/18 A2944 1480 93 2300 000/00 RMK AO2
14926KSTC STC20120618061509306/18/12 06:15:31  5-MIN KSTC 181215Z 00000KT 8SM CLR 19/18 A2944 1470 90 2400 000/00 RMK AO2
14926KSTC STC20120618062009306/18/12 06:20:31  5-MIN KSTC 181220Z 00000KT 8SM CLR 19/18 A2943 1480 90 2400 000/00 RMK AO2
14926KSTC STC20120618062509306/18/12 06:25:31  5-MIN KSTC 181225Z 06004KT 7SM CLR 19/18 A2943 1490 90 2400 060/04 RMK AO2
14926KSTC STC20120618063009306/18/12 06:30:31  5-MIN KSTC 181230Z 11004KT 7SM CLR 19/18 A2942 1490 90 2400 100/04 RMK AO2
14926KSTC STC20120618063510006/18/12 06:35:31  5-MIN KSTC 181235Z 09004KT 7SM CLR 19/18 A2941 1500 93 2400 090/04 RMK AO2 PRESFR
14926KSTC STC20120618064010506/18/12 06:40:31  5-MIN KSTC 181240Z 13003KT 7SM CLR 19/18 A2941 1500 93 2400 130/03 RMK AO2 LTG DSNT SE
14926KSTC STC20120618064510506/18/12 06:45:31  5-MIN KSTC 181245Z 17003KT 7SM CLR 19/18 A2942 1490 93 2400 170/03 RMK AO2 LTG DSNT SE
14926KSTC STC20120618065012206/18/12 06:50:31  5-MIN KSTC 181250Z 00000KT 7SM CLR 19/18 A2943 1480 93 2400 000/00 RMK AO2 LTG DSNT SE SLP969 T01940183
14926KSTC STC20120618065510506/18/12 06:55:31  5-MIN KSTC 181255Z 00000KT 7SM CLR 20/18 A2943 1480 90 2400 000/00 RMK AO2 LTG DSNT SE
14926KSTC STC20120618070010506/18/12 07:00:31  5-MIN KSTC 181300Z 00000KT 7SM CLR 20/18 A2944 1480 90 2400 000/00 RMK AO2 LTG DSNT SE
14926KSTC STC20120618070509306/18/12 07:05:31  5-MIN KSTC 181305Z 00000KT 9SM CLR 20/18 A2943 1480 90 2400 000/00 RMK AO2
14926KSTC STC20120618071009306/18/12 07:10:31  5-MIN KSTC 181310Z 00000KT 9SM CLR 21/19 A2943 1480 90 2500 000/00 RMK AO2
14926KSTC STC20120618071509406/18/12 07:15:31  5-MIN KSTC 181315Z 00000KT 10SM CLR 21/19 A2943 1490 90 2500 000/00 RMK AO2
14926KSTC STC20120618072010106/18/12 07:20:31  5-MIN KSTC 181320Z 13005KT 10SM CLR 21/19 A2941 1500 90 2500 130/05 RMK AO2 PRESFR
14926KSTC STC20120618072509406/18/12 07:25:31  5-MIN KSTC 181325Z 14005KT 10SM CLR 21/19 A2941 1500 93 2500 140/05 RMK AO2
14926KSTC STC20120618073009406/18/12 07:30:31  5-MIN KSTC 181330Z 13006KT 10SM CLR 21/19 A2942 1500 90 2500 130/06 RMK AO2
14926KSTC STC20120618073509406/18/12 07:35:31  5-MIN KSTC 181335Z 16003KT 10SM CLR 21/19 A2942 1490 87 2600 160/03 RMK AO2
14926KSTC STC20120618074009406/18/12 07:40:31  5-MIN KSTC 181340Z 00000KT 10SM CLR 21/19 A2942 1490 87 2600 000/00 RMK AO2
14926KSTC STC20120618074509406/18/12 07:45:31  5-MIN KSTC 181345Z 14003KT 10SM CLR 22/19 A2942 1490 84 2700 140/03 RMK AO2
14926KSTC STC20120618075011106/18/12 07:50:31  5-MIN KSTC 181350Z 14003KT 10SM CLR 22/19 A2942 1500 84 2700 140/03 RMK AO2 SLP964 T02170189
14926KSTC STC20120618075509406/18/12 07:55:31  5-MIN KSTC 181355Z 14005KT 10SM CLR 22/19 A2941 1500 84 2700 140/05 RMK AO2
14926KSTC STC20120618080009406/18/12 08:00:31  5-MIN KSTC 181400Z 13004KT 10SM CLR 22/19 A2941 1500 84 2700 130/04 RMK AO2
14926KSTC STC20120618080509406/18/12 08:05:31  5-MIN KSTC 181405Z 12004KT 10SM CLR 23/19 A2942 1490 81 2800 120/04 RMK AO2
14926KSTC STC20120618081009406/18/12 08:10:31  5-MIN KSTC 181410Z 13004KT 10SM CLR 23/19 A2942 1500 81 2800 130/04 RMK AO2
14926KSTC STC20120618081509706/18/12 08:15:31  5-MIN KSTC 181415Z 15003KT 10SM FEW120 23/19 A2942 1490 78 2800 150/03 RMK AO2
14926KSTC STC20120618082009706/18/12 08:20:31  5-MIN KSTC 181420Z 13003KT 10SM SCT120 23/19 A2942 1490 78 2800 130/03 RMK AO2
14926KSTC STC20120618082509706/18/12 08:25:31  5-MIN KSTC 181425Z 00000KT 10SM SCT120 23/19 A2942 1490 78 2800 000/00 RMK AO2
14926KSTC STC20120618083009706/18/12 08:30:31  5-MIN KSTC 181430Z VRB03KT 10SM FEW120 24/19 A2942 1490 76 2900 VRB/03 RMK AO2
14926KSTC STC20120618083509706/18/12 08:35:31  5-MIN KSTC 181435Z 00000KT 10SM FEW120 24/19 A2943 1480 76 2900 000/00 RMK AO2
14926KSTC STC20120618084009706/18/12 08:40:31  5-MIN KSTC 181440Z 19003KT 10SM FEW120 24/19 A2943 1490 73 3000 180/03 RMK AO2
14926KSTC STC20120618084509706/18/12 08:45:31  5-MIN KSTC 181445Z 18003KT 10SM FEW120 24/19 A2943 1480 73 3000 180/03 RMK AO2
14926KSTC STC20120618085011706/18/12 08:50:31  5-MIN KSTC 181450Z 18004KT 10SM CLR 25/19 A2943 1490 71 3000 180/04 RMK AO2 SLP967 T02500194 53002
14926KSTC STC20120618085509406/18/12 08:55:31  5-MIN KSTC 181455Z 18006KT 10SM CLR 25/19 A2943 1480 71 3000 170/06 RMK AO2
14926KSTC STC20120618090009406/18/12 09:00:31  5-MIN KSTC 181500Z 19005KT 10SM CLR 26/18 A2944 1470 64 3100 190/05 RMK AO2
14926KSTC STC20120618090509406/18/12 09:05:31  5-MIN KSTC 181505Z 20005KT 10SM CLR 26/18 A2944 1470 64 3100 200/05 RMK AO2
14926KSTC STC20120618091009406/18/12 09:10:31  5-MIN KSTC 181510Z 19004KT 10SM CLR 26/18 A2945 1470 62 3100 190/04 RMK AO2
14926KSTC STC20120618091509406/18/12 09:15:31  5-MIN KSTC 181515Z 19005KT 10SM CLR 26/18 A2944 1470 62 3100 190/05 RMK AO2
14926KSTC STC20120618092009406/18/12 09:20:31  5-MIN KSTC 181520Z 17004KT 10SM CLR 26/18 A2944 1470 62 3100 170/04 RMK AO2
14926KSTC STC20120618092509406/18/12 09:25:31  5-MIN KSTC 181525Z 22003KT 10SM CLR 27/19 A2945 1460 62 3200 210/03 RMK AO2
14926KSTC STC20120618093009406/18/12 09:30:31  5-MIN KSTC 181530Z 00000KT 10SM CLR 27/18 A2945 1460 57 3200 000/00 RMK AO2
14926KSTC STC20120618093509406/18/12 09:35:31  5-MIN KSTC 181535Z VRB03KT 10SM CLR 27/18 A2944 1470 60 3200 VRB/03 RMK AO2
14926KSTC STC20120618094009406/18/12 09:40:31  5-MIN KSTC 181540Z 19005KT 10SM CLR 27/19 A2945 1460 60 3200 190/05 RMK AO2
14926KSTC STC20120618094509406/18/12 09:45:31  5-MIN KSTC 181545Z 21004KT 10SM CLR 27/19 A2946 1450 60 3200 210/04 RMK AO2
14926KSTC STC20120618095011106/18/12 09:50:31  5-MIN KSTC 181550Z 21005KT 10SM CLR 27/19 A2946 1450 62 3200 210/05 RMK AO2 SLP978 T02720194
14926KSTC STC20120618095509406/18/12 09:55:31  5-MIN KSTC 181555Z VRB04KT 10SM CLR 28/19 A2947 1450 58 3300 VRB/04 RMK AO2
14926KSTC STC20120618100009406/18/12 10:00:31  5-MIN KSTC 181600Z 22004KT 10SM CLR 28/18 A2947 1450 54 3300 220/04 RMK AO2
14926KSTC STC20120618100509406/18/12 10:05:31  5-MIN KSTC 181605Z 24007KT 10SM CLR 29/18 A2947 1440 52 3400 240/07 RMK AO2
14926KSTC STC20120618101010006/18/12 10:10:31  5-MIN KSTC 181610Z 29014G17KT 10SM CLR 29/15 A2948 1440 42 3400 290/14G17 RMK AO2
14926KSTC STC20120618101510006/18/12 10:15:31  5-MIN KSTC 181615Z 30011G17KT 10SM CLR 29/13 A2948 1440 36 3400 300/11G17 RMK AO2
14926KSTC STC20120618102009406/18/12 10:20:31  5-MIN KSTC 181620Z 30012KT 10SM CLR 29/13 A2948 1440 36 3500 300/12 RMK AO2
14926KSTC STC20120618102511106/18/12 10:25:31  5-MIN KSTC 181625Z 29015G19KT 10SM CLR 29/13 A2948 1440 36 3500 290/15G19 RMK AO2 WSHFT 1607
14926KSTC STC20120618103011106/18/12 10:30:31  5-MIN KSTC 181630Z 28012G19KT 10SM CLR 29/13 A2948 1440 35 3500 280/12G19 RMK AO2 WSHFT 1607
14926KSTC STC20120618103510506/18/12 10:35:31  5-MIN KSTC 181635Z 27012KT 10SM CLR 29/13 A2948 1440 35 3400 270/12 RMK AO2 WSHFT 1607
14926KSTC STC20120618104011106/18/12 10:40:31  5-MIN KSTC 181640Z 28011G18KT 10SM CLR 29/13 A2948 1440 36 3400 280/11G18 RMK AO2 WSHFT 1607
14926KSTC STC20120618104510506/18/12 10:45:31  5-MIN KSTC 181645Z 26012KT 10SM CLR 29/14 A2948 1430 38 3400 260/12 RMK AO2 WSHFT 1607
14926KSTC STC20120618105012806/18/12 10:50:31  5-MIN KSTC 181650Z 31006G17KT 10SM CLR 29/14 A2948 1430 38 3400 300/06G17 RMK AO2 WSHFT 1607 SLP984 T02940139
14926KSTC STC20120618105509406/18/12 10:55:31  5-MIN KSTC 181655Z 29006KT 10SM CLR 29/14 A2948 1430 39 3400 290/06 RMK AO2
14926KSTC STC20120618110010006/18/12 11:00:31  5-MIN KSTC 181700Z 30008G14KT 10SM CLR 29/14 A2949 1430 39 3400 300/08G14 RMK AO2
14926KSTC STC20120618110510006/18/12 11:05:31  5-MIN KSTC 181705Z 29006G14KT 10SM CLR 29/15 A2949 1420 41 3400 280/06G14 RMK AO2
14926KSTC STC20120618111009406/18/12 11:10:31  5-MIN KSTC 181710Z 29008KT 10SM CLR 29/14 A2950 1420 38 3400 290/08 RMK AO2
14926KSTC STC20120618111509406/18/12 11:15:31  5-MIN KSTC 181715Z VRB05KT 10SM CLR 29/14 A2950 1420 38 3400 VRB/05 RMK AO2
14926KSTC STC20120618112009406/18/12 11:20:31  5-MIN KSTC 181720Z 27008KT 10SM CLR 30/14 A2950 1420 38 3500 270/08 RMK AO2
14926KSTC STC20120618112509406/18/12 11:25:31  5-MIN KSTC 181725Z 28009KT 10SM CLR 30/14 A2950 1420 36 3500 280/09 RMK AO2
14926KSTC STC20120618113009406/18/12 11:30:31  5-MIN KSTC 181730Z 27007KT 10SM CLR 30/14 A2950 1420 36 3500 270/07 RMK AO2
14926KSTC STC20120618113509406/18/12 11:35:31  5-MIN KSTC 181735Z 26006KT 10SM CLR 30/14 A2950 1410 36 3500 250/06 RMK AO2
14926KSTC STC20120618114010006/18/12 11:40:31  5-MIN KSTC 181740Z 25013G17KT 10SM CLR 30/14 A2950 1410 38 3500 250/13G17 RMK AO2
14926KSTC STC20120618114510006/18/12 11:45:31  5-MIN KSTC 181745Z 27011G17KT 10SM CLR 31/14 A2951 1410 35 3500 270/11G17 RMK AO2
14926KSTC STC20120618115013506/18/12 11:50:31  5-MIN KSTC 181750Z 25008G16KT 10SM CLR 31/14 A2951 1410 35 3500 250/08G16 RMK AO2 SLP992 T03060139 10306 20183 53001
14926KSTC STC20120618115511006/18/12 11:55:31  5-MIN KSTC 181755Z 25008KT 220V280 10SM CLR 31/14 A2951 1410 37 3500 250/08 220V280 RMK AO2
14926KSTC STC20120618120010006/18/12 12:00:31  5-MIN KSTC 181800Z 26012G19KT 10SM CLR 31/14 A2951 1410 37 3500 250/12G19 RMK AO2
14926KSTC STC20120618120510006/18/12 12:05:31  5-MIN KSTC 181805Z 26012G19KT 10SM CLR 31/14 A2951 1410 35 3500 260/12G19 RMK AO2
14926KSTC STC20120618121010006/18/12 12:10:31  5-MIN KSTC 181810Z 29009G16KT 10SM CLR 31/14 A2951 1410 35 3500 290/09G16 RMK AO2
14926KSTC STC20120618121509406/18/12 12:15:31  5-MIN KSTC 181815Z 28008KT 10SM CLR 31/14 A2951 1400 35 3500 280/08 RMK AO2
14926KSTC STC20120618122009406/18/12 12:20:31  5-MIN KSTC 181820Z 30011KT 10SM CLR 31/14 A2951 1400 35 3600 300/11 RMK AO2
14926KSTC STC20120618122509406/18/12 12:25:31  5-MIN KSTC 181825Z 26012KT 10SM CLR 31/14 A2951 1400 37 3500 250/12 RMK AO2
14926KSTC STC20120618123009406/18/12 12:30:31  5-MIN KSTC 181830Z 28010KT 10SM CLR 31/15 A2952 1400 38 3500 280/10 RMK AO2
14926KSTC STC20120618123510006/18/12 12:35:31  5-MIN KSTC 181835Z 28011G18KT 10SM CLR 31/15 A2952 1400 37 3600 280/11G18 RMK AO2
14926KSTC STC20120618124010006/18/12 12:40:31  5-MIN KSTC 181840Z 27011G18KT 10SM CLR 31/15 A2953 1390 37 3600 270/11G18 RMK AO2
14926KSTC STC20120618124510006/18/12 12:45:31  5-MIN KSTC 181845Z 27014G20KT 10SM CLR 31/14 A2953 1390 37 3500 270/14G20 RMK AO2
14926KSTC STC20120618125011706/18/12 12:50:31  5-MIN KSTC 181850Z 27011G20KT 10SM CLR 31/14 A2953 1390 37 3500 270/11G20 RMK AO2 SLP000 T03060144
14926KSTC STC20120618125509406/18/12 12:55:31  5-MIN KSTC 181855Z 30011KT 10SM CLR 31/15 A2953 1390 38 3500 290/11 RMK AO2
14926KSTC STC20120618130010006/18/12 13:00:31  5-MIN KSTC 181900Z 28008G16KT 10SM CLR 31/16 A2953 1390 39 3500 280/08G16 RMK AO2
14926KSTC STC20120618130509406/18/12 13:05:31  5-MIN KSTC 181905Z 28007KT 10SM CLR 31/16 A2953 1390 38 3600 280/07 RMK AO2
14926KSTC STC20120618131009406/18/12 13:10:31  5-MIN KSTC 181910Z 30010KT 10SM CLR 31/16 A2953 1390 39 3500 300/10 RMK AO2
14926KSTC STC20120618131510006/18/12 13:15:31  5-MIN KSTC 181915Z 27007G15KT 10SM CLR 31/15 A2952 1390 38 3500 270/07G15 RMK AO2
14926KSTC STC20120618132010006/18/12 13:20:31  5-MIN KSTC 181920Z 27011G16KT 10SM CLR 31/13 A2953 1390 33 3500 270/11G16 RMK AO2
14926KSTC STC20120618132509406/18/12 13:25:31  5-MIN KSTC 181925Z 29011KT 10SM CLR 31/13 A2953 1390 33 3500 290/11 RMK AO2
14926KSTC STC20120618133010006/18/12 13:30:31  5-MIN KSTC 181930Z 30009G15KT 10SM CLR 31/14 A2953 1390 35 3500 300/09G15 RMK AO2
14926KSTC STC20120618133509406/18/12 13:35:31  5-MIN KSTC 181935Z 31009KT 10SM CLR 31/15 A2953 1390 37 3600 310/09 RMK AO2
14926KSTC STC20120618134010006/18/12 13:40:31  5-MIN KSTC 181940Z 31010G15KT 10SM CLR 31/14 A2953 1390 37 3500 310/10G15 RMK AO2
14926KSTC STC20120618134510006/18/12 13:45:31  5-MIN KSTC 181945Z 30010G18KT 10SM CLR 31/14 A2953 1390 34 3600 300/10G18 RMK AO2
14926KSTC STC20120618135011706/18/12 13:50:31  5-MIN KSTC 181950Z 29011G19KT 10SM CLR 31/12 A2953 1390 30 3500 290/11G19 RMK AO2 SLP001 T03060117
14926KSTC STC20120618135510006/18/12 13:55:31  5-MIN KSTC 181955Z 29016G19KT 10SM CLR 31/11 A2953 1390 29 3500 290/16G19 RMK AO2
14926KSTC STC20120618140010006/18/12 14:00:31  5-MIN KSTC 182000Z 27009G18KT 10SM CLR 31/11 A2953 1390 29 3500 270/09G18 RMK AO2
14926KSTC STC20120618140509406/18/12 14:05:31  5-MIN KSTC 182005Z 30008KT 10SM CLR 31/12 A2952 1390 32 3500 300/08 RMK AO2
14926KSTC STC20120618141009406/18/12 14:10:31  5-MIN KSTC 182010Z 28009KT 10SM CLR 31/13 A2952 1400 33 3600 280/09 RMK AO2
14926KSTC STC20120618141509406/18/12 14:15:31  5-MIN KSTC 182015Z 28008KT 10SM CLR 31/12 A2952 1400 32 3500 280/08 RMK AO2
14926KSTC STC20120618142009406/18/12 14:20:31  5-MIN KSTC 182020Z 28008KT 10SM CLR 31/13 A2952 1400 33 3500 280/08 RMK AO2
14926KSTC STC20120618142511606/18/12 14:25:31  5-MIN KSTC 182025Z 28009G16KT 260V320 10SM CLR 31/13 A2952 1400 32 3600 280/09G16 260V320 RMK AO2
14926KSTC STC20120618143010006/18/12 14:30:31  5-MIN KSTC 182030Z VRB06G16KT 10SM CLR 31/13 A2952 1400 32 3600 VRB/06G16 RMK AO2
14926KSTC STC20120618143509406/18/12 14:35:31  5-MIN KSTC 182035Z 26010KT 10SM CLR 31/13 A2952 1400 32 3600 260/10 RMK AO2
14926KSTC STC20120618144009406/18/12 14:40:31  5-MIN KSTC 182040Z 25010KT 10SM CLR 31/12 A2952 1400 31 3600 250/10 RMK AO2
14926KSTC STC20120618144510006/18/12 14:45:31  5-MIN KSTC 182045Z 24012G16KT 10SM CLR 31/12 A2952 1400 30 3500 240/12G16 RMK AO2
14926KSTC STC20120618145011706/18/12 14:50:31  5-MIN KSTC 182050Z 27010KT 10SM CLR 31/12 A2952 1400 30 3500 270/10 RMK AO2 SLP998 T03060117 51027
14926KSTC STC20120618145509406/18/12 14:55:31  5-MIN KSTC 182055Z 25011KT 10SM CLR 31/12 A2952 1390 30 3500 250/11 RMK AO2
14926KSTC STC20120618150010006/18/12 15:00:31  5-MIN KSTC 182100Z 26010G16KT 10SM CLR 31/12 A2953 1390 30 3500 260/10G16 RMK AO2
14926KSTC STC20120618150510006/18/12 15:05:31  5-MIN KSTC 182105Z 26012G18KT 10SM CLR 31/12 A2953 1390 32 3500 260/12G18 RMK AO2
14926KSTC STC20120618151010006/18/12 15:10:31  5-MIN KSTC 182110Z 25012G18KT 10SM CLR 31/12 A2953 1390 30 3500 250/12G18 RMK AO2
14926KSTC STC20120618151509406/18/12 15:15:31  5-MIN KSTC 182115Z 26009KT 10SM CLR 31/12 A2953 1390 32 3500 260/09 RMK AO2
14926KSTC STC20120618152009406/18/12 15:20:31  5-MIN KSTC 182120Z 26011KT 10SM CLR 31/12 A2954 1380 32 3500 260/11 RMK AO2
14926KSTC STC20120618152509406/18/12 15:25:31  5-MIN KSTC 182125Z 27010KT 10SM CLR 31/12 A2954 1380 30 3500 270/10 RMK AO2
14926KSTC STC20120618153009406/18/12 15:30:31  5-MIN KSTC 182130Z 26009KT 10SM CLR 31/13 A2954 1380 33 3500 260/09 RMK AO2
14926KSTC STC20120618153509406/18/12 15:35:31  5-MIN KSTC 182135Z 26008KT 10SM CLR 31/13 A2954 1380 33 3500 260/08 RMK AO2
14926KSTC STC20120618154009406/18/12 15:40:31  5-MIN KSTC 182140Z 27011KT 10SM CLR 31/13 A2954 1380 34 3500 270/11 RMK AO2
14926KSTC STC20120618154510006/18/12 15:45:31  5-MIN KSTC 182145Z 29012G18KT 10SM CLR 31/12 A2955 1380 32 3500 290/12G18 RMK AO2
14926KSTC STC20120618155011706/18/12 15:50:31  5-MIN KSTC 182150Z 26012G18KT 10SM CLR 31/13 A2954 1380 33 3500 260/12G18 RMK AO2 SLP006 T03060128
14926KSTC STC20120618155510006/18/12 15:55:31  5-MIN KSTC 182155Z 29010G16KT 10SM CLR 31/13 A2955 1370 33 3500 280/10G16 RMK AO2
14926KSTC STC20120618160009406/18/12 16:00:31  5-MIN KSTC 182200Z 28011KT 10SM CLR 31/12 A2955 1370 32 3500 280/11 RMK AO2
14926KSTC STC20120618160509406/18/12 16:05:31  5-MIN KSTC 182205Z 27011KT 10SM CLR 31/13 A2955 1370 33 3500 270/11 RMK AO2
14926KSTC STC20120618161009406/18/12 16:10:31  5-MIN KSTC 182210Z 27010KT 10SM CLR 31/13 A2955 1370 34 3500 270/10 RMK AO2
14926KSTC STC20120618161510006/18/12 16:15:31  5-MIN KSTC 182215Z 24010G16KT 10SM CLR 30/13 A2955 1370 34 3400 240/10G16 RMK AO2
14926KSTC STC20120618162010006/18/12 16:20:31  5-MIN KSTC 182220Z 25010G16KT 10SM CLR 30/13 A2955 1370 34 3400 250/10G16 RMK AO2
14926KSTC STC20120618162509406/18/12 16:25:31  5-MIN KSTC 182225Z 27008KT 10SM CLR 30/13 A2955 1370 34 3400 270/08 RMK AO2
14926KSTC STC20120618163009406/18/12 16:30:31  5-MIN KSTC 182230Z 24010KT 10SM CLR 30/13 A2955 1370 34 3400 240/10 RMK AO2
14926KSTC STC20120618163509406/18/12 16:35:31  5-MIN KSTC 182235Z 26009KT 10SM CLR 30/13 A2955 1370 34 3400 260/09 RMK AO2
14926KSTC STC20120618164009406/18/12 16:40:31  5-MIN KSTC 182240Z 24010KT 10SM CLR 30/13 A2955 1370 34 3400 240/10 RMK AO2
14926KSTC STC20120618164509406/18/12 16:45:31  5-MIN KSTC 182245Z 24009KT 10SM CLR 30/13 A2955 1370 34 3400 240/09 RMK AO2
14926KSTC STC20120618165011106/18/12 16:50:31  5-MIN KSTC 182250Z 24008KT 10SM CLR 30/12 A2955 1370 33 3400 240/08 RMK AO2 SLP007 T03000122
14926KSTC STC20120618165509406/18/12 16:55:31  5-MIN KSTC 182255Z 25009KT 10SM CLR 30/13 A2955 1370 34 3400 250/09 RMK AO2
14926KSTC STC20120618170009406/18/12 17:00:31  5-MIN KSTC 182300Z 25007KT 10SM CLR 30/13 A2955 1370 35 3400 250/07 RMK AO2
14926KSTC STC20120618170509406/18/12 17:05:31  5-MIN KSTC 182305Z 27008KT 10SM CLR 30/14 A2956 1360 36 3400 270/08 RMK AO2
14926KSTC STC20120618171009406/18/12 17:10:31  5-MIN KSTC 182310Z 25007KT 10SM CLR 30/13 A2956 1360 35 3400 240/07 RMK AO2
14926KSTC STC20120618171509406/18/12 17:15:31  5-MIN KSTC 182315Z 28008KT 10SM CLR 30/14 A2956 1360 38 3400 270/08 RMK AO2
14926KSTC STC20120618172009406/18/12 17:20:31  5-MIN KSTC 182320Z 28005KT 10SM CLR 30/14 A2956 1360 36 3400 280/05 RMK AO2
14926KSTC STC20120618172509406/18/12 17:25:31  5-MIN KSTC 182325Z 28007KT 10SM CLR 30/14 A2956 1360 36 3400 280/07 RMK AO2
14926KSTC STC20120618173009406/18/12 17:30:31  5-MIN KSTC 182330Z 30006KT 10SM CLR 30/14 A2956 1360 36 3400 300/06 RMK AO2
14926KSTC STC20120618173509406/18/12 17:35:31  5-MIN KSTC 182335Z 31007KT 10SM CLR 29/14 A2957 1360 39 3400 310/07 RMK AO2
14926KSTC STC20120618174009406/18/12 17:40:31  5-MIN KSTC 182340Z 31007KT 10SM CLR 29/14 A2957 1360 40 3300 310/07 RMK AO2
14926KSTC STC20120618174509406/18/12 17:45:31  5-MIN KSTC 182345Z 29006KT 10SM CLR 29/14 A2957 1360 40 3300 290/06 RMK AO2
14926KSTC STC20120618175012906/18/12 17:50:31  5-MIN KSTC 182350Z 31008KT 10SM CLR 29/14 A2957 1360 39 3300 310/08 RMK AO2 SLP013 T02890139 10311 20289 50004
14926KSTC STC20120618175509406/18/12 17:55:31  5-MIN KSTC 182355Z 30008KT 10SM CLR 29/13 A2957 1350 38 3300 290/08 RMK AO2
14926KSTC STC20120618180009406/18/12 18:00:31  5-MIN KSTC 190000Z 31005KT 10SM CLR 29/14 A2957 1350 39 3300 300/05 RMK AO2
14926KSTC STC20120618180509406/18/12 18:05:31  5-MIN KSTC 190005Z 30004KT 10SM CLR 29/14 A2957 1350 39 3300 300/04 RMK AO2
14926KSTC STC20120618181009406/18/12 18:10:31  5-MIN KSTC 190010Z 30005KT 10SM CLR 29/14 A2957 1350 40 3300 300/05 RMK AO2
14926KSTC STC20120618181509406/18/12 18:15:31  5-MIN KSTC 190015Z 29005KT 10SM CLR 29/14 A2958 1350 40 3300 290/05 RMK AO2
14926KSTC STC20120618182009406/18/12 18:20:31  5-MIN KSTC 190020Z 31005KT 10SM CLR 29/14 A2958 1340 39 3300 310/05 RMK AO2
14926KSTC STC20120618182509406/18/12 18:25:31  5-MIN KSTC 190025Z 32005KT 10SM CLR 28/15 A2958 1340 43 3200 320/05 RMK AO2
14926KSTC STC20120618183009406/18/12 18:30:31  5-MIN KSTC 190030Z 33003KT 10SM CLR 28/16 A2958 1340 45 3200 330/03 RMK AO2
14926KSTC STC20120618183509406/18/12 18:35:31  5-MIN KSTC 190035Z 32004KT 10SM CLR 28/15 A2959 1340 43 3200 320/04 RMK AO2
14926KSTC STC20120618184009406/18/12 18:40:31  5-MIN KSTC 190040Z 32004KT 10SM CLR 28/16 A2959 1330 46 3100 320/04 RMK AO2
14926KSTC STC20120618184509406/18/12 18:45:31  5-MIN KSTC 190045Z 32004KT 10SM CLR 28/16 A2959 1330 48 3100 310/04 RMK AO2
14926KSTC STC20120618185011106/18/12 18:50:31  5-MIN KSTC 190050Z 32006KT 10SM CLR 27/16 A2960 1330 50 3100 320/06 RMK AO2 SLP024 T02720161
14926KSTC STC20120618185509406/18/12 18:55:31  5-MIN KSTC 190055Z 32005KT 10SM CLR 27/16 A2960 1330 50 3000 320/05 RMK AO2
14926KSTC STC20120618190009406/18/12 19:00:31  5-MIN KSTC 190100Z 33004KT 10SM CLR 27/16 A2960 1320 50 3000 320/04 RMK AO2
14926KSTC STC20120618190509406/18/12 19:05:31  5-MIN KSTC 190105Z 32004KT 10SM CLR 27/16 A2960 1320 50 3000 320/04 RMK AO2
14926KSTC STC20120618191009406/18/12 19:10:31  5-MIN KSTC 190110Z 33003KT 10SM CLR 26/16 A2961 1320 51 2900 330/03 RMK AO2
14926KSTC STC20120618191509406/18/12 19:15:31  5-MIN KSTC 190115Z 33003KT 10SM CLR 26/16 A2961 1320 51 2900 330/03 RMK AO2
14926KSTC STC20120618192009406/18/12 19:20:31  5-MIN KSTC 190120Z 33003KT 10SM CLR 26/15 A2961 1310 51 2900 330/03 RMK AO2
14926KSTC STC20120618192509406/18/12 19:25:31  5-MIN KSTC 190125Z 00000KT 10SM CLR 25/16 A2962 1310 55 2800 000/00 RMK AO2
14926KSTC STC20120618193009406/18/12 19:30:31  5-MIN KSTC 190130Z 00000KT 10SM CLR 25/16 A2962 1310 55 2800 000/00 RMK AO2
14926KSTC STC20120618193509406/18/12 19:35:31  5-MIN KSTC 190135Z 00000KT 10SM CLR 25/16 A2962 1300 55 2800 000/00 RMK AO2
14926KSTC STC20120618194009406/18/12 19:40:31  5-MIN KSTC 190140Z 00000KT 10SM CLR 24/17 A2962 1300 63 2700 000/00 RMK AO2
14926KSTC STC20120618194509406/18/12 19:45:31  5-MIN KSTC 190145Z 00000KT 10SM CLR 24/16 A2963 1300 61 2700 000/00 RMK AO2
14926KSTC STC20120618195011106/18/12 19:50:31  5-MIN KSTC 190150Z 00000KT 10SM CLR 23/17 A2963 1300 66 2600 000/00 RMK AO2 SLP035 T02330167
14926KSTC STC20120618195509406/18/12 19:55:31  5-MIN KSTC 190155Z 35003KT 10SM CLR 23/16 A2963 1300 65 2500 340/03 RMK AO2
14926KSTC STC20120618200009406/18/12 20:00:31  5-MIN KSTC 190200Z 35003KT 10SM CLR 23/16 A2963 1300 63 2500 350/03 RMK AO2
14926KSTC STC20120618200509406/18/12 20:05:31  5-MIN KSTC 190205Z 35003KT 10SM CLR 23/16 A2963 1290 63 2500 350/03 RMK AO2
14926KSTC STC20120618201009706/18/12 20:10:31  5-MIN KSTC 190210Z 35003KT 10SM FEW090 23/16 A2964 1290 63 2500 350/03 RMK AO2
14926KSTC STC20120618201509706/18/12 20:15:31  5-MIN KSTC 190215Z 36003KT 10SM FEW090 23/16 A2964 1290 63 2500 360/03 RMK AO2
14926KSTC STC20120618202009406/18/12 20:20:31  5-MIN KSTC 190220Z 00000KT 10SM CLR 23/16 A2964 1290 63 2500 000/00 RMK AO2
14926KSTC STC20120618202509406/18/12 20:25:31  5-MIN KSTC 190225Z 00000KT 10SM CLR 22/16 A2964 1290 65 2500 000/00 RMK AO2
14926KSTC STC20120618203009406/18/12 20:30:31  5-MIN KSTC 190230Z 36003KT 10SM CLR 22/16 A2964 1280 65 2500 360/03 RMK AO2
14926KSTC STC20120618203509406/18/12 20:35:31  5-MIN KSTC 190235Z 00000KT 10SM CLR 22/16 A2964 1280 70 2400 000/00 RMK AO2
14926KSTC STC20120618204009406/18/12 20:40:31  5-MIN KSTC 190240Z 00000KT 10SM CLR 21/16 A2965 1280 73 2300 000/00 RMK AO2
14926KSTC STC20120618204509706/18/12 20:45:31  5-MIN KSTC 190245Z 00000KT 10SM FEW080 21/16 A2965 1280 75 2300 000/00 RMK AO2
14926KSTC STC20120618205012006/18/12 20:50:31  5-MIN KSTC 190250Z 00000KT 10SM SCT080 21/17 A2965 1280 78 2300 000/00 RMK AO2 SLP043 T02060167 51015
14926KSTC STC20120618205509706/18/12 20:55:31  5-MIN KSTC 190255Z 00000KT 10SM BKN080 21/17 A2965 1280 75 2300 000/00 RMK AO2
14926KSTC STC20120618210009706/18/12 21:00:31  5-MIN KSTC 190300Z 00000KT 10SM BKN080 21/17 A2965 1270 81 2300 000/00 RMK AO2
14926KSTC STC20120618210509706/18/12 21:05:31  5-MIN KSTC 190305Z 00000KT 10SM BKN080 21/17 A2965 1270 81 2300 000/00 RMK AO2
14926KSTC STC20120618211009706/18/12 21:10:31  5-MIN KSTC 190310Z 00000KT 10SM BKN080 21/17 A2966 1270 78 2300 000/00 RMK AO2
14926KSTC STC20120618211509706/18/12 21:15:31  5-MIN KSTC 190315Z 00000KT 10SM BKN080 21/17 A2966 1270 81 2200 000/00 RMK AO2
14926KSTC STC20120618212009706/18/12 21:20:31  5-MIN KSTC 190320Z 00000KT 10SM OVC080 21/17 A2966 1270 81 2200 000/00 RMK AO2
14926KSTC STC20120618212509706/18/12 21:25:31  5-MIN KSTC 190325Z 00000KT 10SM OVC080 21/17 A2966 1270 78 2300 000/00 RMK AO2
14926KSTC STC20120618213009706/18/12 21:30:31  5-MIN KSTC 190330Z 00000KT 10SM BKN080 21/17 A2966 1270 81 2200 000/00 RMK AO2
14926KSTC STC20120618213509706/18/12 21:35:31  5-MIN KSTC 190335Z 00000KT 10SM BKN080 21/17 A2966 1270 75 2300 000/00 RMK AO2
14926KSTC STC20120618214009706/18/12 21:40:31  5-MIN KSTC 190340Z 00000KT 10SM BKN080 21/17 A2965 1270 78 2300 000/00 RMK AO2
14926KSTC STC20120618214509706/18/12 21:45:31  5-MIN KSTC 190345Z 02003KT 10SM SCT080 21/17 A2965 1280 78 2300 020/03 RMK AO2
14926KSTC STC20120618215011406/18/12 21:50:31  5-MIN KSTC 190350Z 00000KT 10SM FEW080 20/17 A2965 1280 84 2200 000/00 RMK AO2 SLP041 T02000172
14926KSTC STC20120618215510206/18/12 21:55:31  5-MIN KSTC 190355Z AUTO 00000KT 10SM FEW085 20/17 A2965 1280 81 2200 000/00 RMK AO2
14926KSTC STC20120618220009906/18/12 22:00:31  5-MIN KSTC 190400Z AUTO 00000KT 10SM CLR 19/17 A2965 1280 87 2100 000/00 RMK AO2
14926KSTC STC20120618220509906/18/12 22:05:31  5-MIN KSTC 190405Z AUTO 07003KT 10SM CLR 19/17 A2965 1280 84 2100 070/03 RMK AO2
14926KSTC STC20120618221009906/18/12 22:10:31  5-MIN KSTC 190410Z AUTO 08003KT 10SM CLR 19/16 A2965 1280 81 2100 070/03 RMK AO2
14926KSTC STC20120618221509906/18/12 22:15:31  5-MIN KSTC 190415Z AUTO 00000KT 10SM CLR 19/16 A2965 1280 81 2100 000/00 RMK AO2
14926KSTC STC20120618222009906/18/12 22:20:31  5-MIN KSTC 190420Z AUTO 00000KT 10SM CLR 19/16 A2965 1280 84 2100 000/00 RMK AO2
14926KSTC STC20120618222509906/18/12 22:25:31  5-MIN KSTC 190425Z AUTO 00000KT 10SM CLR 19/16 A2965 1280 84 2100 000/00 RMK AO2
14926KSTC STC20120618223009906/18/12 22:30:31  5-MIN KSTC 190430Z AUTO 00000KT 10SM CLR 19/16 A2965 1280 84 2100 000/00 RMK AO2
14926KSTC STC20120618223509906/18/12 22:35:31  5-MIN KSTC 190435Z AUTO 00000KT 10SM CLR 19/16 A2965 1280 84 2100 000/00 RMK AO2
14926KSTC STC20120618224009906/18/12 22:40:31  5-MIN KSTC 190440Z AUTO 00000KT 10SM CLR 19/16 A2965 1280 84 2100 000/00 RMK AO2
14926KSTC STC20120618224509906/18/12 22:45:31  5-MIN KSTC 190445Z AUTO 06003KT 10SM CLR 18/16 A2965 1280 87 2000 060/03 RMK AO2
14926KSTC STC20120618225011606/18/12 22:50:31  5-MIN KSTC 190450Z AUTO 07003KT 10SM CLR 18/16 A2965 1280 84 2000 070/03 RMK AO2 SLP042 T01830156
14926KSTC STC20120618225509906/18/12 22:55:31  5-MIN KSTC 190455Z AUTO 06003KT 10SM CLR 18/16 A2965 1280 84 2000 060/03 RMK AO2
14926KSTC STC20120618230009906/18/12 23:00:31  5-MIN KSTC 190500Z AUTO 05003KT 10SM CLR 18/16 A2965 1280 84 2000 050/03 RMK AO2
14926KSTC STC20120618230509906/18/12 23:05:31  5-MIN KSTC 190505Z AUTO 05004KT 10SM CLR 18/16 A2965 1280 87 1900 050/04 RMK AO2
14926KSTC STC20120618231009906/18/12 23:10:31  5-MIN KSTC 190510Z AUTO 06004KT 10SM CLR 19/16 A2965 1280 81 2100 060/04 RMK AO2
14926KSTC STC20120618231509906/18/12 23:15:31  5-MIN KSTC 190515Z AUTO 05004KT 10SM CLR 19/15 A2965 1280 75 2100 040/04 RMK AO2
14926KSTC STC20120618232009906/18/12 23:20:31  5-MIN KSTC 190520Z AUTO 05004KT 10SM CLR 19/15 A2965 1280 78 2100 040/04 RMK AO2
14926KSTC STC20120618232509906/18/12 23:25:31  5-MIN KSTC 190525Z AUTO 04003KT 10SM CLR 19/15 A2965 1280 75 2100 040/03 RMK AO2
14926KSTC STC20120618233009906/18/12 23:30:31  5-MIN KSTC 190530Z AUTO 05004KT 10SM CLR 19/15 A2965 1280 75 2100 040/04 RMK AO2
14926KSTC STC20120618233509906/18/12 23:35:31  5-MIN KSTC 190535Z AUTO 06003KT 10SM CLR 20/14 A2965 1280 70 2200 060/03 RMK AO2
14926KSTC STC20120618234009906/18/12 23:40:31  5-MIN KSTC 190540Z AUTO 06003KT 10SM CLR 20/15 A2964 1280 72 2200 060/03 RMK AO2
14926KSTC STC20120618234509906/18/12 23:45:31  5-MIN KSTC 190545Z AUTO 06003KT 10SM CLR 20/14 A2964 1290 70 2200 060/03 RMK AO2
14926KSTC STC20120618235014406/18/12 23:50:31  5-MIN KSTC 190550Z AUTO 08003KT 10SM CLR 19/14 A2964 1280 72 2100 080/03 RMK AO2 SLP039 T01940144 10289 20178 403110167 51028
14926KSTC STC20120618235509906/18/12 23:55:31  5-MIN KSTC 190555Z AUTO 00000KT 10SM CLR 19/14 A2965 1270 72 2100 000/00 RMK AO2
14926KSTC STC20120619000009906/19/12 00:00:32  5-MIN KSTC 190600Z AUTO 00000KT 10SM CLR 19/15 A2965 1280 78 2100 000/00 RMK AO2
14926KSTC STC20120619000509906/19/12 00:05:31  5-MIN KSTC 190605Z AUTO 00000KT 10SM CLR 19/15 A2965 1280 78 2100 000/00 RMK AO2
14926KSTC STC20120619001009906/19/12 00:10:31  5-MIN KSTC 190610Z AUTO 00000KT 10SM CLR 19/16 A2965 1280 81 2100 000/00 RMK AO2
14926KSTC STC20120619001509906/19/12 00:15:31  5-MIN KSTC 190615Z AUTO 00000KT 10SM CLR 19/15 A2965 1280 78 2100 000/00 RMK AO2
14926KSTC STC20120619002009906/19/12 00:20:31  5-MIN KSTC 190620Z AUTO 03003KT 10SM CLR 19/16 A2965 1280 81 2100 030/03 RMK AO2
14926KSTC STC20120619002509906/19/12 00:25:31  5-MIN KSTC 190625Z AUTO 00000KT 10SM CLR 19/16 A2965 1270 78 2100 000/00 RMK AO2
14926KSTC STC20120619003010206/19/12 00:30:31  5-MIN KSTC 190630Z AUTO 00000KT 10SM FEW110 19/16 A2966 1270 78 2100 000/00 RMK AO2
14926KSTC STC20120619003512506/19/12 00:35:31  5-MIN KSTC 190635Z AUTO 00000KT 10SM -RA FEW060 SCT110 19/16 A2967 1260 81 2100 000/00 RMK AO2 RAB32 P0000
14926KSTC STC20120619004013606/19/12 00:40:31  5-MIN KSTC 190640Z AUTO 00000KT 10SM -RA FEW055 BKN110 19/16 A2967 1260 81 2100 000/00 RMK AO2 LTG DSNT S RAB32 P0000
14926KSTC STC20120619004513606/19/12 00:45:31  5-MIN KSTC 190645Z AUTO 13003KT 10SM -RA FEW055 BKN110 19/17 A2967 1260 87 2000 130/03 RMK AO2 LTG DSNT S RAB32 P0000
14926KSTC STC20120619005015206/19/12 00:50:31  5-MIN KSTC 190650Z AUTO 18003KT 7SM -RA FEW055 BKN100 19/17 A2966 1270 87 2100 180/03 RMK AO2 LTG DSNT S RAB32 SLP045 P0001 T01890167
14926KSTC STC20120619005513806/19/12 00:55:31  5-MIN KSTC 190655Z AUTO 14007KT 7SM -RA FEW055 OVC100 19/17 A2965 1280 87 2100 140/07 RMK AO2 LTG DSNT S-W PRESFR P0000
14926KSTC STC20120619010013106/19/12 01:00:31  5-MIN KSTC 190700Z AUTO 14007KT 8SM -RA FEW055 OVC100 18/17 A2965 1280 90 2000 130/07 RMK AO2 LTG DSNT S-W P0001
14926KSTC STC20120619010513106/19/12 01:05:31  5-MIN KSTC 190705Z AUTO 15005KT 8SM -RA FEW050 OVC100 19/17 A2966 1270 87 2100 150/05 RMK AO2 LTG DSNT S-W P0002
14926KSTC STC20120619011013106/19/12 01:10:31  5-MIN KSTC 190710Z AUTO 12007KT 8SM -RA SCT100 BKN120 19/17 A2966 1270 87 2100 110/07 RMK AO2 LTG DSNT S-W P0002
14926KSTC STC20120619011513306/19/12 01:15:31  5-MIN KSTC 190715Z AUTO 11007KT 10SM -RA SCT100 BKN120 19/16 A2966 1270 81 2100 110/07 RMK AO2 LTG DSNT SE-W P0003
14926KSTC STC20120619012013706/19/12 01:20:31  5-MIN KSTC 190720Z AUTO 10006KT 10SM VCTS -RA BKN110 19/16 A2965 1280 81 2100 100/06 RMK AO2 LTG DSNT SE-W TSB18 P0003
14926KSTC STC20120619012513806/19/12 01:25:31  5-MIN KSTC 190725Z AUTO 00000KT 10SM VCTS -RA BKN110 19/16 A2967 1260 81 2000 000/00 RMK AO2 LTG DSNT SE-SW TSB18 P0003
14926KSTC STC20120619013013806/19/12 01:30:31  5-MIN KSTC 190730Z AUTO 00000KT 10SM VCTS -RA SCT120 19/16 A2966 1270 84 2100 000/00 RMK AO2 LTG DSNT SE-SW TSB18 P0003
14926KSTC STC20120619013514706/19/12 01:35:31  5-MIN KSTC 190735Z AUTO 26003KT 10SM -TSRA SCT120 18/16 A2969 1240 87 2000 260/03 RMK AO2 LTG DSNT SE-W TSB18E33B34 PRESRR P0003
14926KSTC STC20120619014013906/19/12 01:40:31  5-MIN KSTC 190740Z AUTO 00000KT 9SM -TSRA BKN120 19/17 A2967 1260 87 2000 000/00 RMK AO2 LTG DSNT SE-W TSB18E33B34 P0004
14926KSTC STC20120619014514006/19/12 01:45:31  5-MIN KSTC 190745Z AUTO 07003KT 10SM -TSRA BKN110 18/17 A2966 1270 90 2000 070/03 RMK AO2 LTG DSNT SE-W TSB18E33B34 P0004
14926KSTC STC20120619015016706/19/12 01:50:31  5-MIN KSTC 190750Z AUTO 00000KT 10SM VCTS -RA FEW100 BKN120 18/17 A2967 1260 90 2000 000/00 RMK AO2 LTG DSNT SE-W TSB18E33B34 SLP048 P0004 T01830167
14926KSTC STC20120619015512606/19/12 01:55:31  5-MIN KSTC 190755Z AUTO 14003KT 10SM -RA SCT110 18/17 A2968 1250 90 2000 140/03 RMK AO2 LTG DSNT SE-W P0000
14926KSTC STC20120619020014306/19/12 02:00:31  5-MIN KSTC 190800Z AUTO 16003KT 10SM -TSRA SCT110 18/17 A2969 1240 90 2000 160/03 RMK AO2 LTG DSNT SE-W TSB0758 PRESRR P0000
14926KSTC STC20120619020513506/19/12 02:05:31  5-MIN KSTC 190805Z AUTO 00000KT 9SM -TSRA BKN110 18/17 A2969 1240 90 2000 000/00 RMK AO2 LTG DSNT SE-W TSB0758 P0001
14926KSTC STC20120619021013506/19/12 02:10:31  5-MIN KSTC 190810Z AUTO 00000KT 9SM -TSRA BKN110 18/17 A2970 1230 90 1900 000/00 RMK AO2 LTG DSNT SE-W TSB0758 P0001
14926KSTC STC20120619021513806/19/12 02:15:31  5-MIN KSTC 190815Z AUTO 00000KT 10SM -RA BKN110 18/17 A2970 1240 90 2000 000/00 RMK AO2 LTG DSNT ALQDS TSB0758E13 P0001
14926KSTC STC20120619022013806/19/12 02:20:31  5-MIN KSTC 190820Z AUTO 06004KT 10SM -RA BKN110 18/17 A2968 1250 90 2000 060/04 RMK AO2 LTG DSNT NE-SE TSB0758E13 P0002
14926KSTC STC20120619022513706/19/12 02:25:31  5-MIN KSTC 190825Z AUTO 06004KT 8SM -RA BKN110 18/17 A2968 1250 93 1900 060/04 RMK AO2 LTG DSNT NE-SE TSB0758E13 P0002
14926KSTC STC20120619023013606/19/12 02:30:31  5-MIN KSTC 190830Z AUTO 09004KT 8SM -RA BKN110 18/16 A2967 1250 87 2000 090/04 RMK AO2 LTG DSNT NE-S TSB0758E13 P0002
14926KSTC STC20120619023514406/19/12 02:35:31  5-MIN KSTC 190835Z AUTO 07005KT 10SM -RA SCT100 18/16 A2966 1260 87 2000 070/05 RMK AO2 LTG DSNT NE-S TSB0758E13 PRESFR P0002
14926KSTC STC20120619024014806/19/12 02:40:31  5-MIN KSTC 190840Z AUTO 07004KT 10SM -RA FEW100 18/16 A2966 1270 90 1900 070/04 RMK AO2 LTG DSNT SE AND S TSB0758E13 PRESFR P0002
14926KSTC STC20120619024513406/19/12 02:45:31  5-MIN KSTC 190845Z AUTO 08004KT 10SM -RA FEW100 18/16 A2966 1270 90 1900 080/04 RMK AO2 LTG DSNT S TSB0758E13 P0002
14926KSTC STC20120619025017106/19/12 02:50:31  5-MIN KSTC 190850Z AUTO 05005KT 10SM FEW100 18/16 A2963 1300 90 2000 050/05 RMK AO2 LTG DSNT S TSB0758E13RAE47 PRESFR SLP035 P0002 60007 T01780161 55000
14926KSTC STC20120619025512506/19/12 02:55:31  5-MIN KSTC 190855Z AUTO 10005KT 10SM -RA FEW110 18/16 A2963 1290 90 2000 100/05 RMK AO2 LTG DSNT S-W P0000
14926KSTC STC20120619030012206/19/12 03:00:31  5-MIN KSTC 190900Z AUTO 10004KT 10SM -RA CLR 18/16 A2965 1280 87 2000 090/04 RMK AO2 LTG DSNT S-W P0001
14926KSTC STC20120619030512506/19/12 03:05:31  5-MIN KSTC 190905Z AUTO 09005KT 10SM -RA FEW090 18/16 A2968 1250 84 2000 090/05 RMK AO2 LTG DSNT S-W P0001
14926KSTC STC20120619031013906/19/12 03:10:31  5-MIN KSTC 190910Z AUTO 07003KT 10SM -RA FEW065 SCT080 SCT120 18/16 A2968 1250 84 2000 070/03 RMK AO2 LTG DSNT S-W P0001
14926KSTC STC20120619031514906/19/12 03:15:31  5-MIN KSTC 190915Z AUTO 05004KT 10SM -TSRA FEW047 SCT070 BKN120 18/16 A2967 1260 84 2000 050/04 RMK AO2 LTG DSNT ALQDS TSB14 P0002
14926KSTC STC20120619032015606/19/12 03:20:31  5-MIN KSTC 190920Z AUTO 25006KT 10SM -TSRA FEW045 SCT080 BKN110 18/16 A2974 1190 87 1900 250/06 RMK AO2 LTG DSNT ALQDS TSB14 PRESRR P0002
14926KSTC STC20120619032514806/19/12 03:25:31  5-MIN KSTC 190925Z AUTO 04005KT 7SM -TSRA FEW050 SCT070 BKN090 18/16 A2968 1250 87 2000 040/05 RMK AO2 LTG DSNT ALQDS TSB14 P0003
14926KSTC STC20120619033014906/19/12 03:30:31  5-MIN KSTC 190930Z AUTO 05003KT 5SM TSRA BR SCT050 BKN070 BKN090 18/16 A2968 1250 90 1900 050/03 RMK AO2 LTG DSNT E-SW TSB14 P0005
14926KSTC STC20120619033514806/19/12 03:35:31  5-MIN KSTC 190935Z AUTO 10004KT 7SM -TSRA BKN045 BKN070 OVC110 18/16 A2969 1240 90 1900 090/04 RMK AO2 LTG DSNT ALQDS TSB14 P0006
14926KSTC STC20120619034014906/19/12 03:40:31  5-MIN KSTC 190940Z AUTO 08003KT 10SM -TSRA SCT041 BKN090 BKN110 18/16 A2968 1250 90 1900 080/03 RMK AO2 LTG DSNT ALQDS TSB14 P0006
14926KSTC STC20120619034515906/19/12 03:45:31  5-MIN KSTC 190945Z AUTO 06003KT 10SM VCTS FEW043 SCT085 BKN110 18/16 A2970 1230 90 1900 060/03 RMK AO2 LTG DSNT ALQDS TSB14E41B45RAE44 P0006
14926KSTC STC20120619035017606/19/12 03:50:31  5-MIN KSTC 190950Z AUTO 36005KT 10SM VCTS FEW043 SCT085 BKN110 18/16 A2970 1230 90 1900 360/05 RMK AO2 LTG DSNT ALQDS TSB14E41B45RAE44 SLP059 P0006 T01780161
14926KSTC STC20120619035512906/19/12 03:55:31  5-MIN KSTC 190955Z AUTO 03004KT 10SM VCTS FEW043 OVC110 18/16 A2969 1240 90 1900 030/04 RMK AO2 LTG DSNT ALQDS
14926KSTC STC20120619040012906/19/12 04:00:31  5-MIN KSTC 191000Z AUTO 01007KT 10SM VCTS FEW032 BKN110 18/16 A2968 1250 90 1900 010/07 RMK AO2 LTG DSNT ALQDS
14926KSTC STC20120619040513506/19/12 04:05:31  5-MIN KSTC 191005Z AUTO VRB05KT 10SM -TSRA OVC100 18/16 A2968 1250 90 1900 VRB/05 RMK AO2 LTG DSNT ALQDS RAB02 P0000
14926KSTC STC20120619041014706/19/12 04:10:31  5-MIN KSTC 191010Z AUTO 09009KT 7SM TSRA SCT085 OVC100 18/16 A2965 1270 90 1900 090/09 RMK AO2 LTG DSNT ALQDS RAB02 PRESFR P0001
14926KSTC STC20120619041515006/19/12 04:15:31  5-MIN KSTC 191015Z AUTO 05008KT 6SM TSRA BR FEW050 SCT090 OVC110 18/16 A2966 1270 90 1900 040/08 RMK AO2 LTG DSNT ALQDS RAB02 P0002
14926KSTC STC20120619042014806/19/12 04:20:31  5-MIN KSTC 191020Z AUTO 13005KT 7SM -TSRA SCT041 BKN095 OVC110 18/16 A2967 1250 90 1900 130/05 RMK AO2 LTG DSNT ALQDS RAB02 P0002
14926KSTC STC20120619042515206/19/12 04:25:31  5-MIN KSTC 191025Z AUTO 11005KT 10SM VCTS -RA SCT039 BKN090 OVC110 18/16 A2968 1250 90 1900 110/05 RMK AO2 LTG DSNT ALQDS RAB02 P0002
14926KSTC STC20120619043015606/19/12 04:30:31  5-MIN KSTC 191030Z AUTO 23008KT 10SM TS SCT039 BKN090 OVC110 18/16 A2977 1170 90 1800 230/08 RMK AO2 LTG DSNT ALQDS RAB02E30 PRESRR P0002
14926KSTC STC20120619043515606/19/12 04:35:31  5-MIN KSTC 191035Z AUTO 23008KT 10SM TS SCT041 BKN070 OVC110 18/16 A2978 1160 90 1800 230/08 RMK AO2 LTG DSNT ALQDS RAB02E30 PRESRR P0002
14926KSTC STC20120619044015106/19/12 04:40:31  5-MIN KSTC 191040Z AUTO 00000KT 3SM +TSRA BR SCT039 BKN070 OVC110 18/16 A2974 1190 90 1800 000/00 RMK AO2 LTG DSNT ALQDS RAB02 P0007
14926KSTC STC20120619044516606/19/12 04:45:31  5-MIN KSTC 191045Z AUTO 00000KT 2 1/2SM TSRA BR SCT041 BKN070 OVC110 17/17 A2974 1200 96 1800 000/00 RMK AO2 VIS 1 1/4V5 LTG DSNT ALQDS RAB02 P0010
14926KSTC STC20120619045017106/19/12 04:50:31  5-MIN KSTC 191050Z AUTO 00000KT 5SM VCTS -RA BR SCT044 BKN095 OVC110 18/17 A2975 1190 93 1800 000/00 RMK AO2 LTG DSNT ALQDS RAB02 SLP075 P0011 T01780167
14926KSTC STC20120619045514506/19/12 04:55:31  5-MIN KSTC 191055Z AUTO 34003KT 9SM VCTS -RA FEW044 SCT070 OVC095 17/17 A2976 1180 96 1700 340/03 RMK AO2 LTG DSNT ALQDS P0000
14926KSTC STC20120619050014706/19/12 05:00:31  5-MIN KSTC 191100Z AUTO 35006KT 10SM -RA FEW044 SCT070 OVC090 17/16 A2975 1190 93 1800 350/06 RMK AO2 LTG DSNT ALQDS TSE00 P0000
14926KSTC STC20120619050514006/19/12 05:05:31  5-MIN KSTC 191105Z AUTO 03003KT 10SM FEW044 OVC090 17/16 A2972 1210 93 1800 030/03 RMK AO2 LTG DSNT N-SE TSE00RAE01 P0000
14926KSTC STC20120619051014006/19/12 05:10:31  5-MIN KSTC 191110Z AUTO 02003KT 10SM FEW047 OVC090 18/16 A2973 1200 90 1800 020/03 RMK AO2 LTG DSNT N-SE TSE00RAE01 P0000
14926KSTC STC20120619051513006/19/12 05:15:31  5-MIN KSTC 191115Z AUTO 08003KT 10SM OVC090 18/16 A2972 1210 90 1900 080/03 RMK AO2 LTG DSNT E TSE00RAE01 P0000
14926KSTC STC20120619052013706/19/12 05:20:31  5-MIN KSTC 191120Z AUTO 00000KT 10SM OVC085 17/17 A2973 1200 96 1800 000/00 RMK AO2 LTG DSNT NE AND E TSE00RAE01 P0000
14926KSTC STC20120619052513806/19/12 05:25:31  5-MIN KSTC 191125Z AUTO 00000KT 10SM OVC080 18/17 A2976 1180 93 1800 000/00 RMK AO2 LTG DSNT NE TSE00RAE01 PRESRR P0000
14926KSTC STC20120619053013806/19/12 05:30:31  5-MIN KSTC 191130Z AUTO 00000KT 10SM OVC080 18/17 A2977 1170 93 1800 000/00 RMK AO2 LTG DSNT NE TSE00RAE01 PRESRR P0000
14926KSTC STC20120619053511906/19/12 05:35:31  5-MIN KSTC 191135Z AUTO 34003KT 10SM OVC080 18/17 A2977 1170 93 1800 340/03 RMK AO2 TSE00RAE01 P0000
14926KSTC STC20120619054011906/19/12 05:40:31  5-MIN KSTC 191140Z AUTO 36007KT 10SM OVC080 18/17 A2977 1170 93 1800 360/07 RMK AO2 TSE00RAE01 P0000
14926KSTC STC20120619054511906/19/12 05:45:31  5-MIN KSTC 191145Z AUTO 01007KT 10SM OVC080 18/16 A2976 1170 90 1800 010/07 RMK AO2 TSE00RAE01 P0000
14926KSTC STC20120619055016106/19/12 05:50:31  5-MIN KSTC 191150Z 03005KT 10SM OVC075 18/16 A2976 1170 90 1800 030/05 RMK AO2 TSE00RAE01 SLP082 P0000 60024 70024 T01780161 10194 20172 58007
14926KSTC STC20120619055509706/19/12 05:55:31  5-MIN KSTC 191155Z 04005KT 10SM OVC075 18/16 A2976 1180 87 1800 040/05 RMK AO2
14926KSTC STC20120619060011106/19/12 06:00:31  5-MIN KSTC 191200Z 05007KT 10SM BKN075 OVC095 18/16 A2974 1190 87 1800 050/07 RMK AO2 PRESFR
14926KSTC STC20120619060510406/19/12 06:05:31  5-MIN KSTC 191205Z 05006KT 10SM BKN075 BKN095 18/16 A2974 1200 87 1800 050/06 RMK AO2
14926KSTC STC20120619061010406/19/12 06:10:31  5-MIN KSTC 191210Z 07006KT 10SM BKN070 BKN095 18/16 A2973 1200 87 1800 070/06 RMK AO2
14926KSTC STC20120619061510406/19/12 06:15:31  5-MIN KSTC 191215Z 07007KT 10SM SCT070 SCT090 18/16 A2973 1200 87 1800 070/07 RMK AO2
14926KSTC STC20120619062011006/19/12 06:20:31  5-MIN KSTC 191220Z 07009G14KT 10SM FEW070 SCT090 18/16 A2973 1210 87 1900 070/09G14 RMK AO2
14926KSTC STC20120619062511006/19/12 06:25:31  5-MIN KSTC 191225Z 07008G14KT 10SM FEW070 SCT090 18/15 A2974 1200 83 1800 060/08G14 RMK AO2
14926KSTC STC20120619063009706/19/12 06:30:31  5-MIN KSTC 191230Z 06007KT 10SM SCT070 18/15 A2975 1190 83 1800 060/07 RMK AO2
14926KSTC STC20120619063510406/19/12 06:35:31  5-MIN KSTC 191235Z 06006KT 10SM SCT065 BKN080 18/15 A2975 1190 83 1800 060/06 RMK AO2
14926KSTC STC20120619064009706/19/12 06:40:31  5-MIN KSTC 191240Z 06007KT 10SM BKN070 18/15 A2975 1180 83 1800 060/07 RMK AO2
14926KSTC STC20120619064510406/19/12 06:45:31  5-MIN KSTC 191245Z 05006KT 10SM BKN070 BKN080 18/15 A2975 1180 83 1800 050/06 RMK AO2
14926KSTC STC20120619065011406/19/12 06:50:31  5-MIN KSTC 191250Z 04007KT 10SM OVC065 18/15 A2975 1180 83 1800 040/07 RMK AO2 SLP077 T01780150
14926KSTC STC20120619065509706/19/12 06:55:31  5-MIN KSTC 191255Z 06007KT 10SM OVC065 17/15 A2974 1190 87 1800 060/07 RMK AO2
14926KSTC STC20120619070011106/19/12 07:00:31  5-MIN KSTC 191300Z 06009KT 10SM BKN065 OVC080 18/14 A2973 1210 81 1900 060/09 RMK AO2 PRESFR
14926KSTC STC20120619070510406/19/12 07:05:31  5-MIN KSTC 191305Z 08007KT 10SM BKN065 BKN080 17/14 A2973 1200 83 1800 070/07 RMK AO2
14926KSTC STC20120619071010406/19/12 07:10:31  5-MIN KSTC 191310Z 08007KT 10SM BKN060 BKN080 18/15 A2973 1210 83 1800 070/07 RMK AO2
14926KSTC STC20120619071510406/19/12 07:15:31  5-MIN KSTC 191315Z 08006KT 10SM BKN060 BKN080 18/15 A2973 1210 83 1900 080/06 RMK AO2
14926KSTC STC20120619072010406/19/12 07:20:31  5-MIN KSTC 191320Z 07007KT 10SM BKN060 BKN080 18/15 A2973 1200 83 1800 070/07 RMK AO2
14926KSTC STC20120619072510406/19/12 07:25:31  5-MIN KSTC 191325Z VRB05KT 10SM BKN060 BKN080 18/16 A2973 1210 87 1900 VRB/05 RMK AO2
14926KSTC STC20120619073010406/19/12 07:30:31  5-MIN KSTC 191330Z 10007KT 10SM BKN060 OVC080 18/16 A2972 1210 87 1900 090/07 RMK AO2
14926KSTC STC20120619073510406/19/12 07:35:31  5-MIN KSTC 191335Z 11006KT 10SM BKN060 BKN080 18/16 A2972 1220 87 1900 110/06 RMK AO2
14926KSTC STC20120619074009706/19/12 07:40:31  5-MIN KSTC 191340Z 10008KT 10SM SCT060 18/16 A2971 1220 87 1900 100/08 RMK AO2
14926KSTC STC20120619074509706/19/12 07:45:31  5-MIN KSTC 191345Z 10008KT 10SM SCT060 18/16 A2971 1220 87 1900 090/08 RMK AO2
14926KSTC STC20120619075012106/19/12 07:50:31  5-MIN KSTC 191350Z 10007KT 10SM SCT055 SCT070 18/16 A2970 1230 90 1900 100/07 RMK AO2 SLP061 T01780161
14926KSTC STC20120619075510406/19/12 07:55:31  5-MIN KSTC 191355Z 10006KT 10SM SCT055 SCT065 18/16 A2971 1220 90 1900 100/06 RMK AO2
14926KSTC STC20120619080009706/19/12 08:00:31  5-MIN KSTC 191400Z 11009KT 10SM SCT050 18/16 A2971 1230 84 1900 110/09 RMK AO2
14926KSTC STC20120619080509706/19/12 08:05:31  5-MIN KSTC 191405Z 11006KT 10SM SCT050 18/16 A2971 1220 84 1900 100/06 RMK AO2
14926KSTC STC20120619081010406/19/12 08:10:31  5-MIN KSTC 191410Z 09007KT 10SM SCT047 BKN055 18/16 A2971 1220 84 1900 090/07 RMK AO2
14926KSTC STC20120619081510406/19/12 08:15:31  5-MIN KSTC 191415Z 11006KT 10SM BKN045 BKN055 18/16 A2970 1230 87 1900 110/06 RMK AO2
14926KSTC STC20120619082010406/19/12 08:20:31  5-MIN KSTC 191420Z 12005KT 10SM BKN045 BKN055 18/16 A2970 1230 87 1900 120/05 RMK AO2
14926KSTC STC20120619082509706/19/12 08:25:31  5-MIN KSTC 191425Z 11007KT 10SM OVC045 18/16 A2970 1230 87 1900 110/07 RMK AO2
14926KSTC STC20120619083009706/19/12 08:30:31  5-MIN KSTC 191430Z 11005KT 10SM OVC045 18/16 A2971 1220 87 1900 110/05 RMK AO2
14926KSTC STC20120619083509706/19/12 08:35:31  5-MIN KSTC 191435Z 11005KT 10SM OVC043 19/16 A2971 1220 84 2000 110/05 RMK AO2
14926KSTC STC20120619084009706/19/12 08:40:31  5-MIN KSTC 191440Z 10004KT 10SM OVC043 19/16 A2971 1220 84 2000 100/04 RMK AO2
14926KSTC STC20120619084509706/19/12 08:45:31  5-MIN KSTC 191445Z 11004KT 10SM OVC043 19/16 A2971 1220 84 2000 100/04 RMK AO2
14926KSTC STC20120619085012006/19/12 08:50:31  5-MIN KSTC 191450Z 11005KT 10SM OVC043 19/17 A2971 1220 87 2000 110/05 RMK AO2 SLP066 T01890167 51044
14926KSTC STC20120619085509706/19/12 08:55:31  5-MIN KSTC 191455Z 10004KT 10SM OVC041 19/17 A2971 1220 87 2000 100/04 RMK AO2
14926KSTC STC20120619090009706/19/12 09:00:31  5-MIN KSTC 191500Z 11006KT 10SM OVC039 19/17 A2971 1220 87 2000 110/06 RMK AO2
14926KSTC STC20120619090509706/19/12 09:05:31  5-MIN KSTC 191505Z 10005KT 10SM OVC039 19/17 A2971 1220 87 2000 100/05 RMK AO2
14926KSTC STC20120619091009706/19/12 09:10:31  5-MIN KSTC 191510Z 10006KT 10SM OVC039 19/17 A2970 1230 87 2000 100/06 RMK AO2
14926KSTC STC20120619091509706/19/12 09:15:31  5-MIN KSTC 191515Z 09006KT 10SM OVC037 19/17 A2970 1240 87 2000 090/06 RMK AO2
14926KSTC STC20120619092009706/19/12 09:20:31  5-MIN KSTC 191520Z 10006KT 10SM OVC035 19/17 A2969 1240 84 2100 100/06 RMK AO2
14926KSTC STC20120619092509706/19/12 09:25:31  5-MIN KSTC 191525Z 10007KT 10SM OVC035 19/17 A2968 1250 84 2100 100/07 RMK AO2
14926KSTC STC20120619093010306/19/12 09:30:31  5-MIN KSTC 191530Z 10007G15KT 10SM OVC035 19/17 A2968 1240 84 2100 100/07G15 RMK AO2
14926KSTC STC20120619093510306/19/12 09:35:31  5-MIN KSTC 191535Z 10005G15KT 10SM OVC033 19/17 A2968 1250 84 2100 100/05G15 RMK AO2
14926KSTC STC20120619094009706/19/12 09:40:31  5-MIN KSTC 191540Z 11007KT 10SM OVC033 19/17 A2968 1250 87 2100 110/07 RMK AO2
14926KSTC STC20120619094509706/19/12 09:45:31  5-MIN KSTC 191545Z 12009KT 10SM OVC033 20/17 A2968 1250 84 2200 120/09 RMK AO2
14926KSTC STC20120619095011406/19/12 09:50:31  5-MIN KSTC 191550Z 12010KT 10SM OVC031 20/17 A2967 1260 84 2200 120/10 RMK AO2 SLP052 T02000172
14926KSTC STC20120619095509706/19/12 09:55:31  5-MIN KSTC 191555Z 12009KT 10SM OVC031 20/17 A2967 1260 84 2200 120/09 RMK AO2
14926KSTC STC20120619100009706/19/12 10:00:31  5-MIN KSTC 191600Z 11007KT 10SM OVC031 21/17 A2967 1260 81 2200 110/07 RMK AO2
14926KSTC STC20120619100511306/19/12 10:05:31  5-MIN KSTC 191605Z 12007KT 090V150 10SM OVC031 21/17 A2968 1250 81 2200 120/07 090V150 RMK AO2
14926KSTC STC20120619101009706/19/12 10:10:31  5-MIN KSTC 191610Z 11006KT 10SM OVC031 21/17 A2968 1250 81 2200 110/06 RMK AO2
14926KSTC STC20120619101509706/19/12 10:15:31  5-MIN KSTC 191615Z 11005KT 10SM OVC031 21/17 A2969 1240 81 2200 110/05 RMK AO2
14926KSTC STC20120619102009706/19/12 10:20:31  5-MIN KSTC 191620Z 09005KT 10SM OVC029 21/17 A2969 1240 81 2200 090/05 RMK AO2
14926KSTC STC20120619102509706/19/12 10:25:31  5-MIN KSTC 191625Z 10006KT 10SM OVC029 21/17 A2968 1250 81 2200 100/06 RMK AO2
14926KSTC STC20120619103009706/19/12 10:30:31  5-MIN KSTC 191630Z 10006KT 10SM OVC029 21/17 A2968 1250 81 2200 100/06 RMK AO2
14926KSTC STC20120619103509706/19/12 10:35:31  5-MIN KSTC 191635Z 10007KT 10SM OVC029 21/17 A2967 1250 81 2200 100/07 RMK AO2
14926KSTC STC20120619104009706/19/12 10:40:31  5-MIN KSTC 191640Z 10005KT 10SM OVC029 21/17 A2968 1250 78 2300 100/05 RMK AO2
14926KSTC STC20120619104509706/19/12 10:45:31  5-MIN KSTC 191645Z 09006KT 10SM OVC029 21/18 A2968 1250 81 2300 090/06 RMK AO2
14926KSTC STC20120619105012106/19/12 10:50:31  5-MIN KSTC 191650Z 10005KT 10SM BKN029 OVC035 21/18 A2968 1250 81 2300 100/05 RMK AO2 SLP054 T02110178
14926KSTC STC20120619105510406/19/12 10:55:31  5-MIN KSTC 191655Z 09006KT 10SM BKN029 OVC035 22/18 A2968 1250 78 2400 090/06 RMK AO2
14926KSTC STC20120619110010406/19/12 11:00:31  5-MIN KSTC 191700Z 10006KT 10SM SCT029 OVC035 22/18 A2968 1250 78 2400 100/06 RMK AO2
14926KSTC STC20120619110510406/19/12 11:05:31  5-MIN KSTC 191705Z 10009KT 10SM SCT029 OVC035 22/18 A2967 1250 78 2400 100/09 RMK AO2
14926KSTC STC20120619111009706/19/12 11:10:31  5-MIN KSTC 191710Z 09009KT 10SM BKN035 23/18 A2967 1260 73 2500 090/09 RMK AO2
14926KSTC STC20120619111509706/19/12 11:15:31  5-MIN KSTC 191715Z 12010KT 10SM BKN035 23/18 A2967 1260 73 2600 110/10 RMK AO2
14926KSTC STC20120619112009706/19/12 11:20:31  5-MIN KSTC 191720Z 10008KT 10SM SCT035 24/19 A2967 1260 73 2600 100/08 RMK AO2
14926KSTC STC20120619112509706/19/12 11:25:31  5-MIN KSTC 191725Z 10008KT 10SM FEW037 24/19 A2968 1250 73 2600 100/08 RMK AO2
14926KSTC STC20120619113010306/19/12 11:30:31  5-MIN KSTC 191730Z 12006G14KT 10SM FEW041 24/19 A2968 1250 73 2600 120/06G14 RMK AO2
14926KSTC STC20120619113509706/19/12 11:35:31  5-MIN KSTC 191735Z VRB05KT 10SM FEW043 24/19 A2968 1250 71 2700 VRB/05 RMK AO2
14926KSTC STC20120619114009706/19/12 11:40:31  5-MIN KSTC 191740Z 08008KT 10SM FEW043 26/19 A2968 1250 68 2800 080/08 RMK AO2
14926KSTC STC20120619114509706/19/12 11:45:31  5-MIN KSTC 191745Z VRB06KT 10SM FEW045 25/19 A2968 1250 71 2700 VRB/06 RMK AO2
14926KSTC STC20120619115013906/19/12 11:50:31  5-MIN KSTC 191750Z VRB06KT 10SM FEW035 SCT044 25/19 A2967 1250 71 2700 VRB/06 RMK AO2 SLP051 T02500194 10256 20172 55017
14926KSTC STC20120619115510406/19/12 11:55:31  5-MIN KSTC 191755Z 09006KT 10SM SCT035 SCT044 26/20 A2967 1260 71 2800 090/06 RMK AO2
14926KSTC STC20120619120011106/19/12 12:00:31  5-MIN KSTC 191800Z VRB05KT 10SM FEW022 BKN035 BKN044 25/19 A2967 1260 71 2700 VRB/05 RMK AO2
14926KSTC STC20120619120511106/19/12 12:05:31  5-MIN KSTC 191805Z 11007KT 10SM FEW023 SCT027 BKN037 25/19 A2967 1260 71 2700 110/07 RMK AO2
14926KSTC STC20120619121010406/19/12 12:10:31  5-MIN KSTC 191810Z 10006KT 10SM SCT026 BKN037 25/20 A2967 1260 73 2700 100/06 RMK AO2
14926KSTC STC20120619121510406/19/12 12:15:31  5-MIN KSTC 191815Z 08005KT 10SM BKN026 OVC037 25/20 A2967 1260 73 2700 080/05 RMK AO2
14926KSTC STC20120619122011106/19/12 12:20:31  5-MIN KSTC 191820Z 07005KT 10SM BKN024 BKN029 OVC037 24/20 A2967 1260 76 2700 070/05 RMK AO2
14926KSTC STC20120619122511106/19/12 12:25:31  5-MIN KSTC 191825Z 07005KT 10SM BKN024 BKN029 OVC037 24/20 A2967 1260 76 2700 070/05 RMK AO2
14926KSTC STC20120619123010406/19/12 12:30:31  5-MIN KSTC 191830Z 08006KT 10SM BKN024 OVC030 24/20 A2966 1260 76 2700 080/06 RMK AO2
14926KSTC STC20120619123509706/19/12 12:35:31  5-MIN KSTC 191835Z 09006KT 10SM OVC024 24/20 A2966 1270 76 2700 090/06 RMK AO2
14926KSTC STC20120619124010406/19/12 12:40:31  5-MIN KSTC 191840Z 09005KT 10SM BKN024 OVC032 24/20 A2966 1270 76 2700 080/05 RMK AO2
14926KSTC STC20120619124510406/19/12 12:45:31  5-MIN KSTC 191845Z 08006KT 10SM BKN024 OVC032 24/20 A2965 1270 76 2700 070/06 RMK AO2
14926KSTC STC20120619125010406/19/12 12:50:31  5-MIN KSTC 191850Z 08005KT 10SM SCT024 OVC032 25/20 A2965 1280 73 2800 080/05 RMK AO2
14926KSTC STC20120619125510406/19/12 12:55:31  5-MIN KSTC 191855Z 07005KT 10SM BKN029 OVC037 25/21 A2965 1280 76 2800 070/05 RMK AO2
14926KSTC STC20120619130010406/19/12 13:00:31  5-MIN KSTC 191900Z 08005KT 10SM FEW024 OVC032 25/21 A2965 1280 76 2800 080/05 RMK AO2
14926KSTC STC20120619130510406/19/12 13:05:31  5-MIN KSTC 191905Z 06007KT 10SM FEW024 OVC032 25/21 A2964 1280 76 2800 060/07 RMK AO2
14926KSTC STC20120619131009706/19/12 13:10:31  5-MIN KSTC 191910Z 06006KT 10SM OVC032 25/21 A2964 1280 76 2800 060/06 RMK AO2
14926KSTC STC20120619131510406/19/12 13:15:31  5-MIN KSTC 191915Z 06006KT 10SM SCT025 OVC032 25/21 A2964 1280 76 2800 060/06 RMK AO2
14926KSTC STC20120619132009706/19/12 13:20:31  5-MIN KSTC 191920Z 06006KT 10SM OVC029 25/21 A2965 1280 76 2800 060/06 RMK AO2
14926KSTC STC20120619132510406/19/12 13:25:31  5-MIN KSTC 191925Z 07006KT 10SM SCT025 OVC032 25/21 A2964 1280 76 2800 070/06 RMK AO2
14926KSTC STC20120619133010406/19/12 13:30:31  5-MIN KSTC 191930Z 06005KT 10SM SCT025 OVC032 25/21 A2965 1280 76 2800 060/05 RMK AO2
14926KSTC STC20120619133510406/19/12 13:35:31  5-MIN KSTC 191935Z 05006KT 10SM BKN029 OVC034 25/21 A2965 1280 76 2800 040/06 RMK AO2
14926KSTC STC20120619134010406/19/12 13:40:31  5-MIN KSTC 191940Z 03006KT 10SM SCT026 OVC034 26/21 A2965 1280 73 2800 030/06 RMK AO2
14926KSTC STC20120619134510406/19/12 13:45:31  5-MIN KSTC 191945Z 04005KT 10SM FEW026 OVC034 26/21 A2965 1280 76 2800 040/05 RMK AO2
14926KSTC STC20120619135012106/19/12 13:50:31  5-MIN KSTC 191950Z 03007KT 10SM FEW024 OVC034 26/21 A2964 1280 76 2800 030/07 RMK AO2 SLP041 T02560211
14926KSTC STC20120619135510406/19/12 13:55:31  5-MIN KSTC 191955Z 03006KT 10SM BKN036 OVC047 26/21 A2965 1280 73 2800 030/06 RMK AO2
14926KSTC STC20120619140010406/19/12 14:00:31  5-MIN KSTC 192000Z 03007KT 10SM BKN036 OVC044 26/21 A2964 1280 73 2900 030/07 RMK AO2
14926KSTC STC20120619140510406/19/12 14:05:31  5-MIN KSTC 192005Z 03006KT 10SM BKN036 OVC049 26/21 A2964 1280 73 2900 030/06 RMK AO2
14926KSTC STC20120619141010406/19/12 14:10:31  5-MIN KSTC 192010Z 03007KT 10SM BKN040 OVC049 26/21 A2964 1280 73 2900 030/07 RMK AO2
14926KSTC STC20120619141510406/19/12 14:15:31  5-MIN KSTC 192015Z 02006KT 10SM BKN040 BKN049 26/21 A2964 1290 73 2900 020/06 RMK AO2
14926KSTC STC20120619142012706/19/12 14:20:31  5-MIN KSTC 192020Z 03008KT 360V060 10SM BKN040 BKN049 OVC060 26/21 A2964 1290 73 2900 030/08 360V060 RMK AO2
14926KSTC STC20120619142511106/19/12 14:25:31  5-MIN KSTC 192025Z 03007KT 10SM BKN040 BKN049 OVC060 26/21 A2964 1290 76 2800 030/07 RMK AO2
14926KSTC STC20120619143011106/19/12 14:30:31  5-MIN KSTC 192030Z 03007KT 10SM SCT040 BKN049 OVC060 26/21 A2964 1290 76 2800 030/07 RMK AO2
14926KSTC STC20120619143510406/19/12 14:35:31  5-MIN KSTC 192035Z 03008KT 10SM SCT042 OVC055 26/21 A2964 1290 76 2800 030/08 RMK AO2
14926KSTC STC20120619144011106/19/12 14:40:31  5-MIN KSTC 192040Z 04009KT 10SM SCT040 BKN050 OVC065 25/21 A2964 1290 79 2800 030/09 RMK AO2
14926KSTC STC20120619144510406/19/12 14:45:31  5-MIN KSTC 192045Z 04007KT 10SM SCT043 OVC055 25/21 A2964 1290 76 2800 040/07 RMK AO2
14926KSTC STC20120619145013406/19/12 14:50:31  5-MIN KSTC 192050Z 03008KT 10SM FEW044 BKN055 OVC070 25/21 A2964 1290 79 2800 030/08 RMK AO2 SLP039 T02500211 56012
14926KSTC STC20120619145511006/19/12 14:55:31  5-MIN KSTC 192055Z 04009G14KT 10SM BKN047 OVC060 25/21 A2964 1290 76 2800 040/09G14 RMK AO2
14926KSTC STC20120619150010406/19/12 15:00:31  5-MIN KSTC 192100Z 05009KT 10SM BKN047 OVC060 25/21 A2963 1290 79 2800 050/09 RMK AO2
14926KSTC STC20120619150511106/19/12 15:05:31  5-MIN KSTC 192105Z 06006KT 10SM SCT047 BKN060 OVC075 25/21 A2963 1290 79 2800 060/06 RMK AO2
14926KSTC STC20120619151011106/19/12 15:10:31  5-MIN KSTC 192110Z 07005KT 10SM FEW046 BKN060 OVC075 26/21 A2963 1300 76 2800 070/05 RMK AO2
14926KSTC STC20120619151511106/19/12 15:15:31  5-MIN KSTC 192115Z VRB03KT 10SM FEW046 BKN055 OVC070 26/21 A2963 1300 76 2800 VRB/03 RMK AO2
14926KSTC STC20120619152011106/19/12 15:20:31  5-MIN KSTC 192120Z 06005KT 10SM FEW048 BKN060 OVC075 26/21 A2963 1300 73 2900 060/05 RMK AO2
14926KSTC STC20120619152511106/19/12 15:25:31  5-MIN KSTC 192125Z 07005KT 10SM FEW048 SCT060 BKN070 26/21 A2963 1300 73 2900 070/05 RMK AO2
14926KSTC STC20120619153011106/19/12 15:30:31  5-MIN KSTC 192130Z 07005KT 10SM FEW046 SCT060 BKN070 26/21 A2963 1300 76 2900 070/05 RMK AO2
14926KSTC STC20120619153511106/19/12 15:35:31  5-MIN KSTC 192135Z 07006KT 10SM FEW050 BKN060 BKN075 26/21 A2963 1300 76 2900 070/06 RMK AO2
14926KSTC STC20120619154010406/19/12 15:40:31  5-MIN KSTC 192140Z 06008KT 10SM BKN055 BKN070 26/22 A2962 1310 79 2900 060/08 RMK AO2
14926KSTC STC20120619154511106/19/12 15:45:31  5-MIN KSTC 192145Z 07008KT 10SM FEW050 BKN060 OVC075 26/22 A2962 1310 79 2900 070/08 RMK AO2
14926KSTC STC20120619155012106/19/12 15:50:31  5-MIN KSTC 192150Z 06008KT 10SM BKN055 OVC070 26/22 A2962 1310 79 2900 060/08 RMK AO2 SLP033 T02560217
14926KSTC STC20120619155510406/19/12 15:55:31  5-MIN KSTC 192155Z 07007KT 10SM BKN055 OVC070 26/21 A2962 1310 76 2900 070/07 RMK AO2
14926KSTC STC20120619160010406/19/12 16:00:31  5-MIN KSTC 192200Z 06006KT 10SM BKN055 OVC070 26/22 A2962 1310 79 2900 060/06 RMK AO2
14926KSTC STC20120619160510406/19/12 16:05:31  5-MIN KSTC 192205Z 07007KT 10SM BKN055 OVC070 26/22 A2962 1310 79 2900 060/07 RMK AO2
14926KSTC STC20120619161010406/19/12 16:10:31  5-MIN KSTC 192210Z 07006KT 10SM BKN055 OVC070 26/22 A2961 1310 79 2900 060/06 RMK AO2
14926KSTC STC20120619161510406/19/12 16:15:31  5-MIN KSTC 192215Z 07007KT 10SM BKN055 OVC070 26/22 A2961 1320 76 2900 070/07 RMK AO2
14926KSTC STC20120619162011106/19/12 16:20:31  5-MIN KSTC 192220Z 07008KT 10SM BKN055 BKN075 OVC090 26/22 A2960 1320 76 2900 070/08 RMK AO2
14926KSTC STC20120619162511106/19/12 16:25:31  5-MIN KSTC 192225Z 07009KT 10SM BKN055 BKN070 OVC085 27/22 A2960 1320 73 3000 070/09 RMK AO2
14926KSTC STC20120619163011106/19/12 16:30:31  5-MIN KSTC 192230Z 07008KT 10SM FEW050 SCT065 BKN085 27/22 A2960 1330 73 3000 070/08 RMK AO2
14926KSTC STC20120619163511106/19/12 16:35:31  5-MIN KSTC 192235Z 08007KT 10SM FEW050 SCT060 BKN085 27/22 A2960 1330 73 3000 080/07 RMK AO2
14926KSTC STC20120619164011106/19/12 16:40:31  5-MIN KSTC 192240Z 09007KT 10SM FEW055 SCT070 SCT090 27/22 A2960 1330 74 3100 090/07 RMK AO2
14926KSTC STC20120619164510406/19/12 16:45:31  5-MIN KSTC 192245Z 09005KT 10SM FEW065 SCT085 27/22 A2959 1330 76 3000 090/05 RMK AO2
14926KSTC STC20120619165012106/19/12 16:50:31  5-MIN KSTC 192250Z 08006KT 10SM SCT065 BKN085 27/22 A2959 1330 76 3000 080/06 RMK AO2 SLP023 T02670222
14926KSTC STC20120619165509706/19/12 16:55:31  5-MIN KSTC 192255Z 09005KT 10SM BKN065 27/22 A2959 1330 76 3000 090/05 RMK AO2
14926KSTC STC20120619170009706/19/12 17:00:31  5-MIN KSTC 192300Z 10004KT 10SM BKN065 27/22 A2959 1330 76 3000 100/04 RMK AO2
14926KSTC STC20120619170509706/19/12 17:05:31  5-MIN KSTC 192305Z 09005KT 10SM BKN060 27/22 A2958 1340 76 3000 090/05 RMK AO2
14926KSTC STC20120619171009706/19/12 17:10:31  5-MIN KSTC 192310Z 09006KT 10SM OVC060 26/22 A2958 1340 79 3000 090/06 RMK AO2
14926KSTC STC20120619171510406/19/12 17:15:31  5-MIN KSTC 192315Z 10005KT 10SM BKN060 OVC070 26/22 A2958 1340 79 3000 100/05 RMK AO2
14926KSTC STC20120619172010406/19/12 17:20:31  5-MIN KSTC 192320Z 10005KT 10SM BKN060 OVC075 26/22 A2958 1340 79 3000 100/05 RMK AO2
14926KSTC STC20120619172510406/19/12 17:25:31  5-MIN KSTC 192325Z 10003KT 10SM BKN060 OVC075 26/22 A2958 1340 79 3000 100/03 RMK AO2
14926KSTC STC20120619173011106/19/12 17:30:31  5-MIN KSTC 192330Z 09003KT 10SM BKN060 BKN075 OVC090 26/22 A2958 1340 79 3000 090/03 RMK AO2
14926KSTC STC20120619173511106/19/12 17:35:31  5-MIN KSTC 192335Z 09003KT 10SM BKN060 BKN080 OVC100 26/22 A2958 1340 79 3000 090/03 RMK AO2
14926KSTC STC20120619174011106/19/12 17:40:31  5-MIN KSTC 192340Z 00000KT 10SM BKN055 BKN070 OVC090 26/23 A2958 1350 81 3000 000/00 RMK AO2
14926KSTC STC20120619174511106/19/12 17:45:31  5-MIN KSTC 192345Z 00000KT 10SM BKN055 BKN070 OVC090 26/23 A2958 1340 81 3000 000/00 RMK AO2
14926KSTC STC20120619175013906/19/12 17:50:31  5-MIN KSTC 192350Z 10003KT 10SM BKN055 BKN090 26/23 A2958 1350 81 3000 090/03 RMK AO2 SLP017 T02610228 10272 20244 56013
14926KSTC STC20120619175510406/19/12 17:55:31  5-MIN KSTC 192355Z 10004KT 10SM BKN055 BKN090 26/23 A2957 1350 81 3000 090/04 RMK AO2
14926KSTC STC20120619180011106/19/12 18:00:31  5-MIN KSTC 200000Z 09004KT 10SM BKN055 BKN075 OVC090 26/23 A2957 1350 81 3000 090/04 RMK AO2
14926KSTC STC20120619180511106/19/12 18:05:31  5-MIN KSTC 200005Z 11003KT 10SM BKN055 BKN075 OVC090 27/23 A2957 1350 79 3000 110/03 RMK AO2
14926KSTC STC20120619181010406/19/12 18:10:31  5-MIN KSTC 200010Z 10003KT 10SM SCT055 OVC090 27/23 A2957 1350 79 3000 100/03 RMK AO2
14926KSTC STC20120619181510406/19/12 18:15:31  5-MIN KSTC 200015Z 10003KT 10SM FEW055 BKN090 27/23 A2957 1350 76 3100 100/03 RMK AO2
14926KSTC STC20120619182010406/19/12 18:20:31  5-MIN KSTC 200020Z 11003KT 10SM FEW055 BKN090 27/23 A2957 1350 76 3100 110/03 RMK AO2
14926KSTC STC20120619182510406/19/12 18:25:31  5-MIN KSTC 200025Z 12004KT 10SM FEW055 BKN095 27/23 A2957 1350 76 3100 110/04 RMK AO2
14926KSTC STC20120619183009706/19/12 18:30:31  5-MIN KSTC 200030Z 13003KT 10SM BKN095 27/23 A2957 1350 76 3100 130/03 RMK AO2
14926KSTC STC20120619183509706/19/12 18:35:31  5-MIN KSTC 200035Z 14005KT 10SM BKN095 28/23 A2957 1350 76 3200 140/05 RMK AO2
14926KSTC STC20120619184009706/19/12 18:40:31  5-MIN KSTC 200040Z 17007KT 10SM OVC095 28/23 A2957 1350 74 3200 170/07 RMK AO2
14926KSTC STC20120619184509706/19/12 18:45:31  5-MIN KSTC 200045Z 18008KT 10SM OVC095 29/23 A2957 1350 69 3300 180/08 RMK AO2
14926KSTC STC20120619185011406/19/12 18:50:31  5-MIN KSTC 200050Z 18009KT 10SM OVC095 29/22 A2957 1350 67 3300 180/09 RMK AO2 SLP016 T02890222
14926KSTC STC20120619185509706/19/12 18:55:31  5-MIN KSTC 200055Z 17007KT 10SM OVC100 29/22 A2957 1350 67 3300 170/07 RMK AO2
14926KSTC STC20120619190010406/19/12 19:00:31  5-MIN KSTC 200100Z 17007KT 10SM FEW075 OVC100 29/22 A2957 1350 67 3300 170/07 RMK AO2
14926KSTC STC20120619190510406/19/12 19:05:31  5-MIN KSTC 200105Z 18009KT 10SM FEW075 OVC100 29/22 A2957 1350 64 3300 180/09 RMK AO2
14926KSTC STC20120619191010406/19/12 19:10:31  5-MIN KSTC 200110Z 18009KT 10SM FEW075 BKN100 29/22 A2957 1350 67 3300 180/09 RMK AO2
14926KSTC STC20120619191510406/19/12 19:15:31  5-MIN KSTC 200115Z 18009KT 10SM FEW075 BKN100 29/22 A2957 1350 67 3300 180/09 RMK AO2
14926KSTC STC20120619192010406/19/12 19:20:31  5-MIN KSTC 200120Z 18010KT 10SM FEW075 BKN100 29/22 A2957 1350 64 3300 180/10 RMK AO2
14926KSTC STC20120619192511006/19/12 19:25:31  5-MIN KSTC 200125Z 18010G16KT 10SM FEW075 BKN100 29/22 A2957 1360 64 3300 180/10G16 RMK AO2
14926KSTC STC20120619193010406/19/12 19:30:31  5-MIN KSTC 200130Z 18011KT 10SM FEW075 BKN100 29/22 A2956 1360 64 3300 180/11 RMK AO2
14926KSTC STC20120619193510406/19/12 19:35:31  5-MIN KSTC 200135Z 18010KT 10SM FEW075 BKN100 29/22 A2956 1360 64 3300 180/10 RMK AO2
14926KSTC STC20120619194010406/19/12 19:40:31  5-MIN KSTC 200140Z 18011KT 10SM FEW075 SCT100 29/22 A2956 1360 64 3300 180/11 RMK AO2
14926KSTC STC20120619194510406/19/12 19:45:31  5-MIN KSTC 200145Z 18012KT 10SM FEW075 SCT100 29/22 A2956 1360 64 3300 180/12 RMK AO2
14926KSTC STC20120619195012106/19/12 19:50:31  5-MIN KSTC 200150Z 18011KT 10SM FEW070 SCT100 29/22 A2956 1360 64 3300 180/11 RMK AO2 SLP013 T02890217
14926KSTC STC20120619195511006/19/12 19:55:31  5-MIN KSTC 200155Z 18010G17KT 10SM FEW065 SCT100 29/22 A2956 1360 64 3300 180/10G17 RMK AO2
14926KSTC STC20120619200011006/19/12 20:00:31  5-MIN KSTC 200200Z 18011G17KT 10SM FEW075 SCT100 29/22 A2957 1360 64 3300 180/11G17 RMK AO2
14926KSTC STC20120619200511006/19/12 20:05:31  5-MIN KSTC 200205Z 18012G18KT 10SM FEW065 SCT100 29/22 A2957 1360 64 3300 180/12G18 RMK AO2
14926KSTC STC20120619201011006/19/12 20:10:31  5-MIN KSTC 200210Z 18011G18KT 10SM SCT065 BKN100 29/22 A2957 1350 64 3300 180/11G18 RMK AO2
14926KSTC STC20120619201510406/19/12 20:15:31  5-MIN KSTC 200215Z 18011KT 10SM BKN060 BKN100 29/22 A2957 1350 64 3300 180/11 RMK AO2
14926KSTC STC20120619202011006/19/12 20:20:31  5-MIN KSTC 200220Z 18010G18KT 10SM BKN060 BKN100 29/22 A2957 1350 64 3300 180/10G18 RMK AO2
14926KSTC STC20120619202511706/19/12 20:25:31  5-MIN KSTC 200225Z 18011G18KT 10SM BKN060 BKN070 BKN100 29/21 A2957 1350 62 3300 180/11G18 RMK AO2
14926KSTC STC20120619203010306/19/12 20:30:31  5-MIN KSTC 200230Z 18010G17KT 10SM BKN060 29/21 A2957 1350 62 3300 180/10G17 RMK AO2
14926KSTC STC20120619203510306/19/12 20:35:31  5-MIN KSTC 200235Z 18010G17KT 10SM SCT060 29/21 A2957 1350 62 3300 180/10G17 RMK AO2
14926KSTC STC20120619204010306/19/12 20:40:31  5-MIN KSTC 200240Z 19012G18KT 10SM SCT060 29/21 A2957 1350 62 3300 180/12G18 RMK AO2
14926KSTC STC20120619204510306/19/12 20:45:31  5-MIN KSTC 200245Z 19011G18KT 10SM SCT060 29/21 A2958 1340 62 3300 190/11G18 RMK AO2
14926KSTC STC20120619205012006/19/12 20:50:31  5-MIN KSTC 200250Z 18011KT 10SM SCT060 29/21 A2958 1340 62 3300 180/11 RMK AO2 SLP018 T02890211 56019
14926KSTC STC20120619205510306/19/12 20:55:31  5-MIN KSTC 200255Z 18010G17KT 10SM SCT060 29/21 A2958 1340 62 3300 180/10G17 RMK AO2
14926KSTC STC20120619210010306/19/12 21:00:31  5-MIN KSTC 200300Z 19013G18KT 10SM FEW060 29/21 A2958 1340 62 3300 190/13G18 RMK AO2
14926KSTC STC20120619210510306/19/12 21:05:31  5-MIN KSTC 200305Z 19013G18KT 10SM SCT060 29/21 A2958 1350 62 3300 190/13G18 RMK AO2
14926KSTC STC20120619211010306/19/12 21:10:31  5-MIN KSTC 200310Z 18013G18KT 10SM SCT060 29/21 A2958 1350 62 3300 180/13G18 RMK AO2
14926KSTC STC20120619211510306/19/12 21:15:31  5-MIN KSTC 200315Z 19013G18KT 10SM FEW060 28/21 A2957 1350 64 3200 180/13G18 RMK AO2
14926KSTC STC20120619212010306/19/12 21:20:31  5-MIN KSTC 200320Z 19013G18KT 10SM FEW060 28/21 A2957 1350 64 3200 190/13G18 RMK AO2
14926KSTC STC20120619212510306/19/12 21:25:31  5-MIN KSTC 200325Z 19015G20KT 10SM SCT110 28/21 A2957 1350 64 3200 190/15G20 RMK AO2
14926KSTC STC20120619213011006/19/12 21:30:31  5-MIN KSTC 200330Z 19015G21KT 10SM FEW075 SCT110 29/21 A2958 1350 60 3300 190/15G21 RMK AO2
14926KSTC STC20120619213511006/19/12 21:35:31  5-MIN KSTC 200335Z 20013G22KT 10SM SCT080 BKN100 29/21 A2959 1340 60 3300 200/13G22 RMK AO2
14926KSTC STC20120619214011706/19/12 21:40:31  5-MIN KSTC 200340Z 25011G22KT 10SM BKN075 BKN100 29/21 A2960 1320 60 3200 240/11G22 RMK AO2 PRESRR
14926KSTC STC20120619214512806/19/12 21:45:31  5-MIN KSTC 200345Z 32012G19KT 10SM SCT055 BKN070 OVC110 26/20 A2960 1330 71 2900 310/12G19 RMK AO2 WSHFT 0329
14926KSTC STC20120619215014506/19/12 21:50:31  5-MIN KSTC 200350Z 32008G19KT 10SM BKN050 BKN075 OVC095 23/19 A2961 1320 78 2600 320/08G19 RMK AO2 WSHFT 0329 SLP029 T02330194
14926KSTC STC20120619215512606/19/12 21:55:31  5-MIN KSTC 200355Z AUTO 36012G15KT 10SM BKN050 OVC075 23/19 A2961 1320 78 2600 360/12G15 RMK AO2 LTG DSNT N
14926KSTC STC20120619220012006/19/12 22:00:31  5-MIN KSTC 200400Z AUTO 35010KT 10SM BKN050 OVC075 23/19 A2961 1310 78 2600 350/10 RMK AO2 LTG DSNT N
14926KSTC STC20120619220511506/19/12 22:05:31  5-MIN KSTC 200405Z AUTO 36008G17KT 10SM BKN050 OVC070 22/18 A2961 1310 78 2500 360/08G17 RMK AO2
14926KSTC STC20120619221013006/19/12 22:10:31  5-MIN KSTC 200410Z AUTO 02009KT 350V050 10SM OVC050 22/18 A2961 1320 81 2400 020/09 350V050 RMK AO2 LTG DSNT NE
14926KSTC STC20120619221512006/19/12 22:15:31  5-MIN KSTC 200415Z AUTO 03008G14KT 10SM OVC050 22/18 A2961 1310 81 2400 020/08G14 RMK AO2 LTG DSNT NE
14926KSTC STC20120619222011406/19/12 22:20:31  5-MIN KSTC 200420Z AUTO 03006KT 10SM OVC050 22/18 A2961 1310 81 2400 030/06 RMK AO2 LTG DSNT NE
14926KSTC STC20120619222511406/19/12 22:25:31  5-MIN KSTC 200425Z AUTO 04008KT 10SM OVC050 22/18 A2961 1310 81 2400 040/08 RMK AO2 LTG DSNT NE
14926KSTC STC20120619223010906/19/12 22:30:31  5-MIN KSTC 200430Z AUTO 05008KT 10SM BKN050 OVC070 22/18 A2961 1310 81 2400 050/08 RMK AO2
14926KSTC STC20120619223510906/19/12 22:35:31  5-MIN KSTC 200435Z AUTO 05008KT 10SM BKN050 OVC070 22/18 A2961 1310 81 2400 050/08 RMK AO2
14926KSTC STC20120619224010206/19/12 22:40:31  5-MIN KSTC 200440Z AUTO 05005KT 10SM OVC050 22/18 A2961 1310 81 2400 050/05 RMK AO2
14926KSTC STC20120619224510206/19/12 22:45:31  5-MIN KSTC 200445Z AUTO 04006KT 10SM OVC050 22/18 A2961 1310 81 2400 040/06 RMK AO2
14926KSTC STC20120619225012606/19/12 22:50:31  5-MIN KSTC 200450Z AUTO 01004KT 10SM BKN050 OVC060 22/18 A2962 1310 81 2400 010/04 RMK AO2 SLP033 T02170183
14926KSTC STC20120619225510206/19/12 22:55:31  5-MIN KSTC 200455Z AUTO 04007KT 10SM OVC050 22/18 A2962 1310 81 2400 040/07 RMK AO2
14926KSTC STC20120619230010206/19/12 23:00:31  5-MIN KSTC 200500Z AUTO 05008KT 10SM OVC050 22/18 A2962 1310 78 2400 050/08 RMK AO2
14926KSTC STC20120619230510206/19/12 23:05:31  5-MIN KSTC 200505Z AUTO 06008KT 10SM OVC050 21/18 A2962 1310 81 2400 060/08 RMK AO2
14926KSTC STC20120619231010206/19/12 23:10:31  5-MIN KSTC 200510Z AUTO 06007KT 10SM OVC048 21/18 A2962 1300 81 2400 060/07 RMK AO2
14926KSTC STC20120619231510206/19/12 23:15:31  5-MIN KSTC 200515Z AUTO 05006KT 10SM OVC048 21/18 A2962 1300 81 2400 050/06 RMK AO2
14926KSTC STC20120619232010206/19/12 23:20:31  5-MIN KSTC 200520Z AUTO 06006KT 10SM OVC048 21/18 A2962 1310 81 2400 060/06 RMK AO2
14926KSTC STC20120619232510206/19/12 23:25:31  5-MIN KSTC 200525Z AUTO 07007KT 10SM OVC050 21/18 A2962 1310 81 2400 070/07 RMK AO2
14926KSTC STC20120619233010206/19/12 23:30:31  5-MIN KSTC 200530Z AUTO 06005KT 10SM OVC050 21/18 A2962 1310 81 2400 060/05 RMK AO2
14926KSTC STC20120619233510206/19/12 23:35:31  5-MIN KSTC 200535Z AUTO 06006KT 10SM OVC050 22/18 A2962 1310 78 2400 060/06 RMK AO2
14926KSTC STC20120619234010206/19/12 23:40:31  5-MIN KSTC 200540Z AUTO 07005KT 10SM OVC050 21/18 A2961 1310 81 2400 070/05 RMK AO2
14926KSTC STC20120619234510206/19/12 23:45:31  5-MIN KSTC 200545Z AUTO 07007KT 10SM OVC050 22/18 A2961 1310 81 2400 070/07 RMK AO2
14926KSTC STC20120619235014706/19/12 23:50:31  5-MIN KSTC 200550Z AUTO 07007KT 10SM OVC050 21/18 A2961 1310 81 2400 070/07 RMK AO2 SLP030 T02110178 10294 20211 402940172 53002
14926KSTC STC20120619235510206/19/12 23:55:31  5-MIN KSTC 200555Z AUTO 06006KT 10SM OVC050 22/18 A2961 1310 81 2400 060/06 RMK AO2
14926KSTC STC20120620000010206/20/12 00:00:32  5-MIN KSTC 200600Z AUTO 07004KT 10SM OVC050 22/18 A2961 1310 81 2400 060/04 RMK AO2
14926KSTC STC20120620000510206/20/12 00:05:31  5-MIN KSTC 200605Z AUTO 06005KT 10SM OVC050 22/18 A2961 1310 81 2400 060/05 RMK AO2
14926KSTC STC20120620001010206/20/12 00:10:31  5-MIN KSTC 200610Z AUTO 07005KT 10SM OVC050 22/18 A2961 1310 81 2400 070/05 RMK AO2
14926KSTC STC20120620001510206/20/12 00:15:31  5-MIN KSTC 200615Z AUTO 08005KT 10SM OVC050 22/18 A2961 1310 81 2400 080/05 RMK AO2
14926KSTC STC20120620002010206/20/12 00:20:31  5-MIN KSTC 200620Z AUTO 07004KT 10SM OVC050 22/18 A2961 1310 81 2400 060/04 RMK AO2
14926KSTC STC20120620002510206/20/12 00:25:31  5-MIN KSTC 200625Z AUTO 05003KT 10SM OVC050 22/18 A2961 1310 81 2400 050/03 RMK AO2
14926KSTC STC20120620003010206/20/12 00:30:31  5-MIN KSTC 200630Z AUTO 07004KT 10SM OVC050 22/18 A2961 1310 81 2400 070/04 RMK AO2
14926KSTC STC20120620003510206/20/12 00:35:31  5-MIN KSTC 200635Z AUTO 06004KT 10SM OVC050 22/18 A2961 1310 81 2400 060/04 RMK AO2
14926KSTC STC20120620004010206/20/12 00:40:31  5-MIN KSTC 200640Z AUTO 05004KT 10SM OVC050 22/18 A2961 1310 81 2400 050/04 RMK AO2
14926KSTC STC20120620004510206/20/12 00:45:31  5-MIN KSTC 200645Z AUTO 06006KT 10SM OVC050 22/18 A2961 1310 81 2400 050/06 RMK AO2
14926KSTC STC20120620005011906/20/12 00:50:31  5-MIN KSTC 200650Z AUTO 05005KT 10SM OVC048 22/18 A2962 1310 81 2400 050/05 RMK AO2 SLP032 T02170183
14926KSTC STC20120620005510206/20/12 00:55:31  5-MIN KSTC 200655Z AUTO 04005KT 10SM OVC048 22/18 A2962 1300 81 2400 040/05 RMK AO2
14926KSTC STC20120620010011406/20/12 01:00:31  5-MIN KSTC 200700Z AUTO 02005KT 10SM OVC048 22/18 A2962 1300 81 2400 020/05 RMK AO2 LTG DSNT NW
14926KSTC STC20120620010511406/20/12 01:05:31  5-MIN KSTC 200705Z AUTO 02007KT 10SM OVC048 22/18 A2962 1300 81 2400 020/07 RMK AO2 LTG DSNT NW
14926KSTC STC20120620011011406/20/12 01:10:31  5-MIN KSTC 200710Z AUTO 05007KT 10SM OVC048 21/18 A2962 1300 84 2400 040/07 RMK AO2 LTG DSNT NW
14926KSTC STC20120620011510206/20/12 01:15:31  5-MIN KSTC 200715Z AUTO 00000KT 10SM OVC048 22/18 A2962 1300 81 2400 000/00 RMK AO2
14926KSTC STC20120620012010206/20/12 01:20:31  5-MIN KSTC 200720Z AUTO 07003KT 10SM OVC046 22/18 A2962 1300 81 2400 070/03 RMK AO2
14926KSTC STC20120620012510206/20/12 01:25:31  5-MIN KSTC 200725Z AUTO 06004KT 10SM OVC046 22/18 A2962 1300 81 2400 060/04 RMK AO2
14926KSTC STC20120620013010206/20/12 01:30:31  5-MIN KSTC 200730Z AUTO 00000KT 10SM OVC046 22/18 A2962 1300 81 2400 000/00 RMK AO2
14926KSTC STC20120620013510206/20/12 01:35:31  5-MIN KSTC 200735Z AUTO 00000KT 10SM OVC046 22/18 A2963 1300 81 2400 000/00 RMK AO2
14926KSTC STC20120620014010206/20/12 01:40:31  5-MIN KSTC 200740Z AUTO 05004KT 10SM OVC044 22/18 A2963 1300 81 2400 050/04 RMK AO2
14926KSTC STC20120620014510206/20/12 01:45:31  5-MIN KSTC 200745Z AUTO 01003KT 10SM OVC044 22/19 A2963 1300 84 2400 010/03 RMK AO2
14926KSTC STC20120620015011906/20/12 01:50:31  5-MIN KSTC 200750Z AUTO 03006KT 10SM OVC044 21/18 A2963 1300 84 2300 020/06 RMK AO2 SLP036 T02110183
14926KSTC STC20120620015510906/20/12 01:55:31  5-MIN KSTC 200755Z AUTO 06006KT 10SM BKN044 OVC060 21/18 A2963 1290 84 2300 060/06 RMK AO2
14926KSTC STC20120620020010906/20/12 02:00:31  5-MIN KSTC 200800Z AUTO 06003KT 10SM BKN044 OVC060 21/18 A2964 1290 84 2300 060/03 RMK AO2
14926KSTC STC20120620020511606/20/12 02:05:31  5-MIN KSTC 200805Z AUTO 06003KT 10SM BKN044 BKN050 OVC065 21/18 A2963 1290 84 2300 060/03 RMK AO2
14926KSTC STC20120620021010906/20/12 02:10:31  5-MIN KSTC 200810Z AUTO 06005KT 10SM SCT044 OVC055 21/18 A2964 1290 84 2300 050/05 RMK AO2
14926KSTC STC20120620021510906/20/12 02:15:31  5-MIN KSTC 200815Z AUTO 06005KT 10SM BKN047 OVC055 21/18 A2964 1290 84 2300 060/05 RMK AO2
14926KSTC STC20120620022012106/20/12 02:20:31  5-MIN KSTC 200820Z AUTO 06006KT 10SM BKN050 BKN060 21/18 A2964 1290 84 2300 050/06 RMK AO2 LTG DSNT NW
14926KSTC STC20120620022512106/20/12 02:25:31  5-MIN KSTC 200825Z AUTO 06006KT 10SM SCT050 BKN060 21/18 A2963 1290 84 2300 050/06 RMK AO2 LTG DSNT NW
14926KSTC STC20120620023012006/20/12 02:30:31  5-MIN KSTC 200830Z AUTO 06006KT 10SM BKN050 21/18 A2964 1290 84 2300 060/06 RMK AO2 LTG DSNT N AND NW
14926KSTC STC20120620023511306/20/12 02:35:31  5-MIN KSTC 200835Z AUTO 06005KT 10SM BKN055 21/18 A2964 1290 84 2300 060/05 RMK AO2 LTG DSNT N
14926KSTC STC20120620024011306/20/12 02:40:31  5-MIN KSTC 200840Z AUTO 06005KT 10SM BKN060 21/18 A2964 1290 84 2300 060/05 RMK AO2 LTG DSNT N
14926KSTC STC20120620024511306/20/12 02:45:31  5-MIN KSTC 200845Z AUTO 34005KT 10SM BKN060 21/18 A2964 1280 87 2300 340/05 RMK AO2 LTG DSNT N
14926KSTC STC20120620025012506/20/12 02:50:31  5-MIN KSTC 200850Z AUTO 03004KT 10SM BKN060 21/18 A2964 1280 87 2300 030/04 RMK AO2 SLP040 T02060183 50003
14926KSTC STC20120620025510206/20/12 02:55:31  5-MIN KSTC 200855Z AUTO 03003KT 10SM OVC065 21/18 A2964 1290 87 2300 030/03 RMK AO2
14926KSTC STC20120620030010906/20/12 03:00:31  5-MIN KSTC 200900Z AUTO 03005KT 10SM FEW045 OVC065 21/18 A2965 1280 87 2300 030/05 RMK AO2
14926KSTC STC20120620030510906/20/12 03:05:31  5-MIN KSTC 200905Z AUTO 02003KT 10SM SCT045 OVC065 21/18 A2965 1280 87 2300 020/03 RMK AO2
14926KSTC STC20120620031011606/20/12 03:10:31  5-MIN KSTC 200910Z AUTO 02004KT 10SM SCT045 BKN065 OVC090 21/18 A2965 1280 87 2300 020/04 RMK AO2
14926KSTC STC20120620031511606/20/12 03:15:31  5-MIN KSTC 200915Z AUTO 04005KT 10SM BKN045 BKN065 OVC080 21/18 A2964 1280 87 2300 030/05 RMK AO2
14926KSTC STC20120620032011606/20/12 03:20:31  5-MIN KSTC 200920Z AUTO 05008KT 10SM BKN045 BKN070 OVC100 21/18 A2964 1280 87 2300 050/08 RMK AO2
14926KSTC STC20120620032511606/20/12 03:25:31  5-MIN KSTC 200925Z AUTO 06007KT 10SM SCT045 BKN075 OVC095 20/18 A2964 1280 87 2200 060/07 RMK AO2
14926KSTC STC20120620033012706/20/12 03:30:31  5-MIN KSTC 200930Z AUTO 06006KT 10SM SCT045 SCT075 OVC095 20/18 A2964 1290 87 2200 060/06 RMK AO2 LTG DSNT W
14926KSTC STC20120620033512706/20/12 03:35:31  5-MIN KSTC 200935Z AUTO 06006KT 10SM FEW045 SCT080 BKN095 20/18 A2963 1290 87 2200 060/06 RMK AO2 LTG DSNT W
14926KSTC STC20120620034013306/20/12 03:40:31  5-MIN KSTC 200940Z AUTO 07006KT 10SM FEW045 BKN080 OVC095 20/18 A2963 1300 87 2200 070/06 RMK AO2 LTG DSNT N AND W
14926KSTC STC20120620034514006/20/12 03:45:31  5-MIN KSTC 200945Z AUTO 08008KT 10SM BKN065 BKN075 OVC095 20/18 A2962 1310 87 2200 080/08 RMK AO2 LTG DSNT N AND W PRESFR
14926KSTC STC20120620035015006/20/12 03:50:31  5-MIN KSTC 200950Z AUTO 07008KT 10SM SCT065 BKN080 OVC095 20/18 A2962 1310 87 2200 070/08 RMK AO2 LTG DSNT N AND W SLP032 T02000178
14926KSTC STC20120620035512906/20/12 03:55:31  5-MIN KSTC 200955Z AUTO 07008KT 10SM SCT065 BKN080 BKN095 20/18 A2963 1300 87 2200 070/08 RMK AO2 LTG DSNT W-N
14926KSTC STC20120620040013406/20/12 04:00:31  5-MIN KSTC 201000Z AUTO 08008KT 10SM SCT065 BKN080 BKN090 20/18 A2963 1300 87 2200 070/08 RMK AO2 LTG DSNT N AND NW
14926KSTC STC20120620040513406/20/12 04:05:31  5-MIN KSTC 201005Z AUTO 07008KT 10SM FEW046 BKN065 BKN080 20/18 A2963 1300 87 2200 070/08 RMK AO2 LTG DSNT N AND NW
14926KSTC STC20120620041012706/20/12 04:10:31  5-MIN KSTC 201010Z AUTO 07008KT 10SM SCT046 BKN070 20/18 A2963 1290 87 2200 070/08 RMK AO2 LTG DSNT N AND NW
14926KSTC STC20120620041512906/20/12 04:15:31  5-MIN KSTC 201015Z AUTO 07007KT 10SM BKN046 BKN070 BKN090 20/18 A2963 1290 87 2200 070/07 RMK AO2 LTG DSNT W-N
14926KSTC STC20120620042012206/20/12 04:20:31  5-MIN KSTC 201020Z AUTO 07008KT 10SM BKN046 BKN070 20/18 A2963 1290 87 2200 070/08 RMK AO2 LTG DSNT W-N
14926KSTC STC20120620042512706/20/12 04:25:31  5-MIN KSTC 201025Z AUTO 08008KT 10SM BKN044 OVC070 20/18 A2963 1290 90 2200 080/08 RMK AO2 LTG DSNT W AND NW
14926KSTC STC20120620043011406/20/12 04:30:31  5-MIN KSTC 201030Z AUTO 08008KT 10SM OVC044 20/18 A2963 1290 90 2200 080/08 RMK AO2 LTG DSNT NW
14926KSTC STC20120620043511406/20/12 04:35:31  5-MIN KSTC 201035Z AUTO 08008KT 10SM OVC044 20/18 A2963 1290 90 2200 080/08 RMK AO2 LTG DSNT NW
14926KSTC STC20120620044011406/20/12 04:40:31  5-MIN KSTC 201040Z AUTO 08006KT 10SM OVC044 20/18 A2964 1290 90 2200 080/06 RMK AO2 LTG DSNT NW
14926KSTC STC20120620044512006/20/12 04:45:31  5-MIN KSTC 201045Z AUTO 08006KT 10SM OVC042 20/18 A2964 1290 90 2200 080/06 RMK AO2 LTG DSNT N AND NW
14926KSTC STC20120620045013706/20/12 04:50:31  5-MIN KSTC 201050Z AUTO 08004KT 10SM OVC042 21/18 A2964 1290 87 2300 080/04 RMK AO2 LTG DSNT N AND NW SLP038 T02060183
14926KSTC STC20120620045512006/20/12 04:55:31  5-MIN KSTC 201055Z AUTO 00000KT 10SM OVC040 21/18 A2964 1280 87 2300 000/00 RMK AO2 LTG DSNT N AND NW
14926KSTC STC20120620050011306/20/12 05:00:31  5-MIN KSTC 201100Z AUTO 06003KT 10SM OVC040 21/18 A2964 1280 87 2300 060/03 RMK AO2 LTG DSNT N
14926KSTC STC20120620050511306/20/12 05:05:31  5-MIN KSTC 201105Z AUTO 08004KT 10SM OVC040 21/18 A2964 1280 87 2300 080/04 RMK AO2 LTG DSNT N
14926KSTC STC20120620051010206/20/12 05:10:31  5-MIN KSTC 201110Z AUTO 00000KT 10SM OVC038 21/18 A2964 1280 87 2300 000/00 RMK AO2
14926KSTC STC20120620051510206/20/12 05:15:31  5-MIN KSTC 201115Z AUTO 04004KT 10SM OVC038 21/18 A2964 1290 87 2300 040/04 RMK AO2
14926KSTC STC20120620052010206/20/12 05:20:31  5-MIN KSTC 201120Z AUTO 08003KT 10SM OVC036 21/18 A2965 1280 87 2300 080/03 RMK AO2
14926KSTC STC20120620052511806/20/12 05:25:31  5-MIN KSTC 201125Z AUTO 34007KT 270V080 10SM OVC034 21/18 A2966 1270 87 2300 340/07 270V080 RMK AO2
14926KSTC STC20120620053010806/20/12 05:30:31  5-MIN KSTC 201130Z AUTO VRB04G16KT 10SM OVC034 21/18 A2965 1270 87 2300 VRB/04G16 RMK AO2
14926KSTC STC20120620053511506/20/12 05:35:31  5-MIN KSTC 201135Z AUTO 35005G16KT 10SM BKN034 OVC044 21/18 A2965 1270 87 2300 350/05G16 RMK AO2
14926KSTC STC20120620054010906/20/12 05:40:31  5-MIN KSTC 201140Z AUTO 36005KT 10SM BKN032 OVC044 21/18 A2965 1280 87 2300 360/05 RMK AO2
14926KSTC STC20120620054511606/20/12 05:45:31  5-MIN KSTC 201145Z AUTO 01004KT 10SM SCT032 BKN042 OVC050 21/18 A2965 1280 87 2300 360/04 RMK AO2
14926KSTC STC20120620055014606/20/12 05:50:31  5-MIN KSTC 201150Z 03003KT 10SM FEW032 BKN042 OVC050 21/18 A2965 1280 87 2300 030/03 RMK AO2 SLP043 T02060183 10217 20200 53009
14926KSTC STC20120620055511106/20/12 05:55:31  5-MIN KSTC 201155Z 03004KT 10SM FEW032 BKN042 OVC050 21/18 A2965 1270 84 2300 030/04 RMK AO2
14926KSTC STC20120620060010406/20/12 06:00:31  5-MIN KSTC 201200Z 05006KT 10SM SCT042 OVC050 21/18 A2965 1280 84 2300 050/06 RMK AO2
14926KSTC STC20120620060510406/20/12 06:05:31  5-MIN KSTC 201205Z 05005KT 10SM SCT042 OVC050 21/18 A2966 1270 84 2300 050/05 RMK AO2
14926KSTC STC20120620061010406/20/12 06:10:31  5-MIN KSTC 201210Z 04005KT 10SM FEW042 BKN050 21/18 A2965 1280 84 2300 040/05 RMK AO2
14926KSTC STC20120620061510406/20/12 06:15:31  5-MIN KSTC 201215Z 04006KT 10SM FEW043 BKN050 21/18 A2965 1280 84 2300 040/06 RMK AO2
14926KSTC STC20120620062010406/20/12 06:20:31  5-MIN KSTC 201220Z 05005KT 10SM FEW043 SCT050 21/18 A2966 1270 84 2300 040/05 RMK AO2
14926KSTC STC20120620062510406/20/12 06:25:31  5-MIN KSTC 201225Z 06004KT 10SM FEW043 SCT050 21/18 A2966 1270 84 2300 060/04 RMK AO2
14926KSTC STC20120620063010406/20/12 06:30:31  5-MIN KSTC 201230Z 07004KT 10SM SCT043 BKN055 21/18 A2965 1280 84 2300 070/04 RMK AO2
14926KSTC STC20120620063510406/20/12 06:35:31  5-MIN KSTC 201235Z 08005KT 10SM SCT043 BKN050 21/18 A2965 1280 84 2300 080/05 RMK AO2
14926KSTC STC20120620064010406/20/12 06:40:31  5-MIN KSTC 201240Z 07004KT 10SM FEW043 BKN050 21/18 A2965 1270 84 2300 070/04 RMK AO2
14926KSTC STC20120620064510406/20/12 06:45:31  5-MIN KSTC 201245Z 07004KT 10SM SCT043 BKN050 21/18 A2965 1270 84 2300 070/04 RMK AO2
14926KSTC STC20120620065013306/20/12 06:50:31  5-MIN KSTC 201250Z 08003KT 10SM BKN043 OVC050 21/18 A2965 1270 84 2300 070/03 RMK AO2 LTG DSNT SW SLP042 T02110183
14926KSTC STC20120620065511606/20/12 06:55:31  5-MIN KSTC 201255Z 08003KT 10SM BKN040 OVC050 22/19 A2965 1280 84 2400 080/03 RMK AO2 LTG DSNT SW
14926KSTC STC20120620070012306/20/12 07:00:31  5-MIN KSTC 201300Z 09003KT 10SM SCT040 BKN050 OVC060 22/19 A2966 1270 84 2400 090/03 RMK AO2 LTG DSNT SW
14926KSTC STC20120620070512206/20/12 07:05:31  5-MIN KSTC 201305Z 09003KT 10SM BKN042 BKN050 OVC060 22/19 A2965 1270 81 2400 080/03 RMK AO2 LTG DSNT W
14926KSTC STC20120620071012606/20/12 07:10:31  5-MIN KSTC 201310Z 13003KT 10SM VCTS BKN042 OVC048 22/19 A2966 1270 81 2400 130/03 RMK AO2 LTG DSNT W TSB10
14926KSTC STC20120620071512606/20/12 07:15:31  5-MIN KSTC 201315Z 00000KT 10SM VCTS BKN037 OVC045 22/19 A2967 1260 81 2400 000/00 RMK AO2 LTG DSNT W TSB10
14926KSTC STC20120620072012606/20/12 07:20:31  5-MIN KSTC 201320Z 00000KT 10SM VCTS BKN032 OVC042 22/19 A2967 1260 84 2400 000/00 RMK AO2 LTG DSNT W TSB10
14926KSTC STC20120620072513006/20/12 07:25:31  5-MIN KSTC 201325Z 00000KT 8SM SCT028 BKN034 OVC044 22/19 A2967 1250 84 2400 000/00 RMK AO2 LTG DSNT N TSB10E25
14926KSTC STC20120620073015106/20/12 07:30:31  5-MIN KSTC 201330Z 00000KT 3SM -RA SCT022 BKN028 OVC044 22/19 A2967 1260 84 2400 000/00 RMK AO2 LTG DSNT N AND W TSB10E25RAB27 P0000
14926KSTC STC20120620073515406/20/12 07:35:31  5-MIN KSTC 201335Z 26007KT 2SM -RA BR BKN022 BKN028 OVC034 22/20 A2968 1250 87 2400 260/07 RMK AO2 LTG DSNT N AND W TSB10E25RAB27 P0000
14926KSTC STC20120620074015406/20/12 07:40:31  5-MIN KSTC 201340Z 27009KT 3SM -RA BR FEW013 BKN022 OVC034 21/19 A2968 1250 90 2300 270/09 RMK AO2 LTG DSNT N AND W TSB10E25RAB27 P0000
14926KSTC STC20120620074515106/20/12 07:45:31  5-MIN KSTC 201345Z 27007KT 7SM SCT008 BKN017 OVC029 21/19 A2969 1240 90 2300 270/07 RMK AO2 LTG DSNT N AND NW TSB10E25RAB27E43 P0000
14926KSTC STC20120620075015106/20/12 07:50:31  5-MIN KSTC 201350Z 28010KT 8SM BKN010 OVC021 21/19 A2969 1240 90 2300 280/10 RMK AO2 LTG DSNT W-N TSB10E25RAB27E43 CIG 007V015 P0000
14926KSTC STC20120620075514206/20/12 07:55:31  5-MIN KSTC 201355Z 29014G19KT 9SM BKN010 OVC021 21/19 A2970 1230 90 2200 290/14G19 RMK AO2 LTG DSNT SW-N CIG 007V015 PRESRR
14926KSTC STC20120620080013706/20/12 08:00:31  5-MIN KSTC 201400Z 29013KT 10SM BKN008 BKN012 OVC021 21/19 A2971 1220 90 2200 290/13 RMK AO2 LTG DSNT SW-N CIG 007V010
14926KSTC STC20120620080515406/20/12 08:05:31  5-MIN KSTC 201405Z 30013G21KT 6SM -RA BR BKN008 OVC012 20/18 A2971 1220 90 2100 300/13G21 RMK AO2 LTG DSNT SW-N RAB04 CIG 006V010 P0000
14926KSTC STC20120620081015506/20/12 08:10:31  5-MIN KSTC 201410Z 31018G25KT 3SM -RA BR BKN008 OVC013 19/18 A2971 1220 93 2100 310/18G25 RMK AO2 LTG DSNT ALQDS RAB04 CIG 006V012 P0000
14926KSTC STC20120620081517206/20/12 08:15:31  5-MIN KSTC 201415Z 31014G25KT 4SM VCTS -RA BR BKN008 BKN013 OVC023 19/18 A2971 1220 90 2100 310/14G25 RMK AO2 LTG DSNT ALQDS TSB15RAB04 CIG 006V012 P0001
14926KSTC STC20120620082016606/20/12 08:20:31  5-MIN KSTC 201420Z 31015G24KT 9SM -TSRA BKN008 BKN014 OVC025 19/18 A2972 1210 90 2100 310/15G24 RMK AO2 LTG DSNT ALQDS TSB15RAB04 CIG 006V012 P0001
14926KSTC STC20120620082518506/20/12 08:25:31  5-MIN KSTC 201425Z 26026G34KT 10SM TS BKN008 OVC014 19/18 A2984 1100 90 1900 260/26G34 RMK AO2 PK WND 26034/1424 LTG DSNT ALQDS TSB15RAB04E21 CIG 006V012 PRESRR P0001
14926KSTC STC20120620083017206/20/12 08:30:31  5-MIN KSTC 201430Z 26023G35KT 2SM +TSRA FG OVC010 19/18 A2981 1130 93 1900 260/23G35 RMK AO2 PK WND 26035/1429 WSHFT 1416 LTG DSNT ALQDS TSB15RAB04 P0005
14926KSTC STC20120620083517606/20/12 08:35:31  5-MIN KSTC 201435Z 35015G35KT 1/4SM +TSRA BR OVC010 18/17 A2969 1240 90 2000 350/15G35 RMK AO2 PK WND 26035/1429 WSHFT 1416 LTG DSNT ALQDS TSB15RAB04 P0029 $
14926KSTC STC20120620084019406/20/12 08:40:31  5-MIN KSTC 201440Z 34011G22KT 5SM TSRA BR SCT010 BKN018 OVC110 18/16 A2965 1270 87 2000 340/11G22 RMK AO2 PK WND 26035/1429 WSHFT 1416 LTG DSNT ALQDS TSB15RAB04 PRESFR P0038 $
14926KSTC STC20120620084519506/20/12 08:45:31  5-MIN KSTC 201445Z 36025G38KT 5SM -TSRA BR SCT010 BKN023 OVC110 18/16 A2960 1330 87 2100 360/25G38 RMK AO2 PK WND 35038/1444 WSHFT 1416 LTG DSNT ALQDS TSB15RAB04 PRESFR P0039 $
14926KSTC STC20120620085019506/20/12 08:50:31  5-MIN KSTC 201450Z 36025G38KT 5SM -TSRA BR FEW010 SCT018 BKN110 18/16 A2953 1390 87 2100 360/25G38 RMK AO2 PK WND 35038/1444 WSHFT 1416 LTG DSNT ALQDS TSB15RAB04 PRESFR P0039 $
14926KSTC STC20120620085514806/20/12 08:55:31  5-MIN KSTC 201455Z 35019G37KT 10SM VCTS -RA FEW010 SCT018 BKN110 18/16 A2952 1400 87 2100 350/19G37 RMK AO2 LTG DSNT N-SE P0000 $
14926KSTC STC20120620090016806/20/12 09:00:31  5-MIN KSTC 201500Z 36020G37KT 10SM -RA FEW018 SCT075 BKN120 18/16 A2955 1370 87 2100 360/20G37 RMK AO2 PK WND 36032/1459 LTG DSNT N-E TSE1457 P0000 $
14926KSTC STC20120620090516206/20/12 09:05:31  5-MIN KSTC 201505Z 34014G32KT 10SM FEW075 BKN110 18/16 A2960 1320 87 2100 340/14G32 RMK AO2 PK WND 36032/1459 LTG DSNT N-E TSE1457RAE05 P0000 $
14926KSTC STC20120620091016906/20/12 09:10:31  5-MIN KSTC 201510Z 29018G24KT 10SM FEW018 BKN110 19/16 A2967 1260 84 2000 290/18G24 RMK AO2 PK WND 36032/1459 LTG DSNT N-E TSE1457RAE05 PRESRR P0000 $
14926KSTC STC20120620091518406/20/12 09:15:31  5-MIN KSTC 201515Z 31016G24KT 10SM FEW018 SCT120 18/16 A2966 1260 87 2000 300/16G24 RMK AO2 PK WND 36032/1459 WSHFT 1500 LTG DSNT NE AND E AND W TSE1457RAE05 P0000 $
14926KSTC STC20120620092017806/20/12 09:20:31  5-MIN KSTC 201520Z 32012G23KT 10SM FEW018 SCT120 18/16 A2966 1270 87 2000 320/12G23 RMK AO2 PK WND 36032/1459 WSHFT 1500 LTG DSNT NE AND W TSE1457RAE05 P0000 $
14926KSTC STC20120620092517106/20/12 09:25:31  5-MIN KSTC 201525Z 32012G21KT 10SM SCT110 19/16 A2968 1250 84 2000 320/12G21 RMK AO2 PK WND 36032/1459 WSHFT 1500 LTG DSNT NE AND W TSE1457RAE05 P0000 $
14926KSTC STC20120620093017206/20/12 09:30:31  5-MIN KSTC 201530Z 32013G19KT 10SM VCTS SCT100 19/16 A2969 1240 84 2000 320/13G19 RMK AO2 PK WND 36032/1459 WSHFT 1500 LTG DSNT W TSE1457B30RAE05 P0000 $
14926KSTC STC20120620093516106/20/12 09:35:31  5-MIN KSTC 201535Z 34011G19KT 10SM VCTS BKN100 19/16 A2969 1240 84 2000 340/11G19 RMK AO2 PK WND 36032/1459 WSHFT 1500 TSE1457B30RAE05 P0000 $
14926KSTC STC20120620094016806/20/12 09:40:31  5-MIN KSTC 201540Z 32010G18KT 10SM VCTS BKN090 BKN110 18/16 A2970 1230 87 1900 320/10G18 RMK AO2 PK WND 36032/1459 WSHFT 1500 TSE1457B30RAE05 P0000 $
14926KSTC STC20120620094517906/20/12 09:45:31  5-MIN KSTC 201545Z 34009G17KT 10SM VCTS FEW013 BKN095 19/16 A2969 1240 84 2000 340/09G17 RMK AO2 PK WND 36032/1459 WSHFT 1500 LTG DSNT N TSE1457B30RAE05 P0000 $
14926KSTC STC20120620095020306/20/12 09:50:31  5-MIN KSTC 201550Z 34008G15KT 10SM VCTS FEW013 BKN090 OVC110 19/16 A2971 1220 84 2000 330/08G15 RMK AO2 PK WND 36032/1459 WSHFT 1500 LTG DSNT N TSE1457B30RAE05 SLP064 P0000 T01890161 $
14926KSTC STC20120620095514606/20/12 09:55:31  5-MIN KSTC 201555Z 35009G17KT 8SM -RA FEW013 OVC090 18/16 A2972 1210 87 1900 350/09G17 RMK AO2 LTG DSNT N AND NE PRESRR P0001 $
14926KSTC STC20120620100014206/20/12 10:00:31  5-MIN KSTC 201600Z 33005G17KT 4SM RA BR FEW013 OVC090 18/16 A2973 1200 87 1900 330/05G17 RMK AO2 LTG DSNT NE PRESRR P0003 $
14926KSTC STC20120620100513006/20/12 10:05:31  5-MIN KSTC 201605Z 35009KT 5SM -RA BR FEW013 OVC095 18/16 A2973 1200 87 1900 340/09 RMK AO2 LTG DSNT NE P0005 $
14926KSTC STC20120620101011606/20/12 10:10:31  5-MIN KSTC 201610Z 35008KT 10SM -RA FEW013 OVC095 18/16 A2972 1210 87 1900 340/08 RMK AO2 P0005 $
14926KSTC STC20120620101512806/20/12 10:15:31  5-MIN KSTC 201615Z 32004KT 10SM -RA FEW013 OVC095 18/17 A2972 1210 90 1900 320/04 RMK AO2 LTG DSNT NE P0005 $
14926KSTC STC20120620102012806/20/12 10:20:31  5-MIN KSTC 201620Z 00000KT 10SM -RA FEW014 OVC095 19/17 A2973 1210 87 2000 000/00 RMK AO2 LTG DSNT NE P0005 $
14926KSTC STC20120620102514606/20/12 10:25:31  5-MIN KSTC 201625Z 00000KT 10SM VCTS SCT014 BKN100 19/17 A2974 1200 87 2000 000/00 RMK AO2 LTG DSNT NE AND E TSB23RAE21 P0005 $
14926KSTC STC20120620103015306/20/12 10:30:31  5-MIN KSTC 201630Z 00000KT 10SM VCTS SCT014 BKN095 19/17 A2975 1190 87 2000 000/00 RMK AO2 LTG DSNT NE AND E TSB23RAE21 PRESRR P0005 $
14926KSTC STC20120620103514606/20/12 10:35:31  5-MIN KSTC 201635Z 00000KT 10SM VCTS BKN014 OVC100 19/17 A2975 1190 87 2000 000/00 RMK AO2 LTG DSNT NE AND E TSB23RAE21 P0005 $
14926KSTC STC20120620104014406/20/12 10:40:31  5-MIN KSTC 201640Z 00000KT 10SM BKN014 OVC100 19/17 A2974 1190 87 2000 000/00 RMK AO2 LTG DSNT NE AND E TSB23E38RAE21 P0005 $
14926KSTC STC20120620104514406/20/12 10:45:31  5-MIN KSTC 201645Z 00000KT 10SM BKN014 OVC100 19/17 A2975 1190 84 2000 000/00 RMK AO2 LTG DSNT NE AND E TSB23E38RAE21 P0005 $
14926KSTC STC20120620105016106/20/12 10:50:31  5-MIN KSTC 201650Z 00000KT 10SM BKN014 OVC110 19/17 A2974 1190 84 2000 000/00 RMK AO2 LTG DSNT NE AND E TSB23E38RAE21 SLP076 P0005 T01940167 $
14926KSTC STC20120620105511706/20/12 10:55:31  5-MIN KSTC 201655Z 00000KT 10SM BKN014 OVC110 20/17 A2974 1190 81 2100 000/00 RMK AO2 LTG DSNT E $
14926KSTC STC20120620110011706/20/12 11:00:31  5-MIN KSTC 201700Z 00000KT 10SM BKN014 OVC110 20/17 A2974 1190 81 2100 000/00 RMK AO2 LTG DSNT E $
14926KSTC STC20120620110510606/20/12 11:05:31  5-MIN KSTC 201705Z 00000KT 10SM BKN012 BKN110 21/17 A2974 1190 81 2200 000/00 RMK AO2 $
14926KSTC STC20120620111010606/20/12 11:10:31  5-MIN KSTC 201710Z 00000KT 10SM SCT012 BKN110 21/17 A2974 1200 78 2200 000/00 RMK AO2 $
14926KSTC STC20120620111510606/20/12 11:15:31  5-MIN KSTC 201715Z 05003KT 10SM FEW012 SCT110 21/17 A2974 1200 81 2200 050/03 RMK AO2 $
14926KSTC STC20120620112010606/20/12 11:20:31  5-MIN KSTC 201720Z VRB04KT 10SM FEW010 SCT110 21/18 A2974 1200 81 2200 VRB/04 RMK AO2 $
14926KSTC STC20120620112509906/20/12 11:25:31  5-MIN KSTC 201725Z 09005KT 10SM FEW010 21/17 A2974 1200 81 2200 090/05 RMK AO2 $
14926KSTC STC20120620113009706/20/12 11:30:31  5-MIN KSTC 201730Z VRB05KT 10SM FEW010 21/17 A2973 1200 81 2200 VRB/05 RMK AO2
14926KSTC STC20120620113509706/20/12 11:35:31  5-MIN KSTC 201735Z 13005KT 10SM FEW120 21/17 A2973 1210 78 2200 130/05 RMK AO2
14926KSTC STC20120620114009706/20/12 11:40:31  5-MIN KSTC 201740Z 12006KT 10SM SCT120 21/17 A2973 1210 81 2200 120/06 RMK AO2
14926KSTC STC20120620114509706/20/12 11:45:31  5-MIN KSTC 201745Z VRB03KT 10SM SCT120 21/17 A2973 1200 81 2200 VRB/03 RMK AO2
14926KSTC STC20120620115013806/20/12 11:50:31  5-MIN KSTC 201750Z 07003KT 10SM SCT120 21/17 A2973 1200 75 2200 070/03 RMK AO2 SLP072 60044 T02110167 10222 20183 58050
14926KSTC STC20120620115509706/20/12 11:55:31  5-MIN KSTC 201755Z 00000KT 10SM SCT120 21/17 A2974 1200 78 2200 000/00 RMK AO2
14926KSTC STC20120620120009706/20/12 12:00:31  5-MIN KSTC 201800Z VRB03KT 10SM SCT120 22/18 A2974 1200 78 2300 VRB/03 RMK AO2
14926KSTC STC20120620120510406/20/12 12:05:31  5-MIN KSTC 201805Z 00000KT 10SM FEW014 SCT120 22/17 A2974 1190 75 2300 000/00 RMK AO2
14926KSTC STC20120620121010406/20/12 12:10:31  5-MIN KSTC 201810Z 19003KT 10SM SCT014 SCT120 22/17 A2974 1190 75 2300 190/03 RMK AO2
14926KSTC STC20120620121509706/20/12 12:15:31  5-MIN KSTC 201815Z 18003KT 10SM BKN014 21/17 A2975 1190 78 2200 180/03 RMK AO2
14926KSTC STC20120620122009706/20/12 12:20:31  5-MIN KSTC 201820Z 00000KT 10SM BKN014 22/17 A2975 1190 75 2300 000/00 RMK AO2
14926KSTC STC20120620122509706/20/12 12:25:31  5-MIN KSTC 201825Z 00000KT 10SM BKN014 23/18 A2975 1180 73 2400 000/00 RMK AO2
14926KSTC STC20120620123009706/20/12 12:30:31  5-MIN KSTC 201830Z 00000KT 10SM OVC014 23/18 A2975 1180 73 2400 000/00 RMK AO2
14926KSTC STC20120620123509706/20/12 12:35:31  5-MIN KSTC 201835Z 00000KT 10SM BKN014 23/17 A2975 1180 68 2500 000/00 RMK AO2
14926KSTC STC20120620124009706/20/12 12:40:31  5-MIN KSTC 201840Z VRB04KT 10SM BKN014 23/17 A2976 1180 68 2500 VRB/04 RMK AO2
14926KSTC STC20120620124509706/20/12 12:45:31  5-MIN KSTC 201845Z VRB04KT 10SM BKN016 24/18 A2976 1180 68 2500 VRB/04 RMK AO2
14926KSTC STC20120620125009706/20/12 12:50:31  5-MIN KSTC 201850Z 32004KT 10SM SCT016 23/17 A2976 1170 68 2400 320/04 RMK AO2
14926KSTC STC20120620125509706/20/12 12:55:31  5-MIN KSTC 201855Z 28010KT 10SM SCT018 24/18 A2977 1170 66 2600 280/10 RMK AO2
14926KSTC STC20120620130009706/20/12 13:00:31  5-MIN KSTC 201900Z 29009KT 10SM BKN020 23/18 A2977 1170 70 2400 290/09 RMK AO2
14926KSTC STC20120620130510306/20/12 13:05:31  5-MIN KSTC 201905Z 30012G17KT 10SM BKN023 24/18 A2976 1170 68 2500 300/12G17 RMK AO2
14926KSTC STC20120620131011006/20/12 13:10:31  5-MIN KSTC 201910Z 29011G19KT 10SM SCT021 BKN028 23/17 A2977 1170 70 2400 290/11G19 RMK AO2
14926KSTC STC20120620131511006/20/12 13:15:31  5-MIN KSTC 201915Z 29013G19KT 10SM SCT021 BKN030 23/17 A2976 1170 70 2400 290/13G19 RMK AO2
14926KSTC STC20120620132011006/20/12 13:20:31  5-MIN KSTC 201920Z 30009G17KT 10SM SCT023 OVC032 23/17 A2976 1170 70 2400 300/09G17 RMK AO2
14926KSTC STC20120620132511106/20/12 13:25:31  5-MIN KSTC 201925Z 30010KT 10SM SCT023 BKN032 OVC110 23/17 A2977 1170 70 2400 300/10 RMK AO2
14926KSTC STC20120620133011106/20/12 13:30:31  5-MIN KSTC 201930Z 30011KT 10SM FEW025 BKN032 OVC110 23/17 A2977 1170 70 2400 300/11 RMK AO2
14926KSTC STC20120620133511106/20/12 13:35:31  5-MIN KSTC 201935Z 31010KT 10SM FEW025 SCT032 OVC110 23/17 A2977 1170 68 2400 310/10 RMK AO2
14926KSTC STC20120620134011106/20/12 13:40:31  5-MIN KSTC 201940Z 30006KT 10SM FEW025 SCT034 OVC110 23/17 A2976 1170 70 2400 300/06 RMK AO2
14926KSTC STC20120620134510406/20/12 13:45:31  5-MIN KSTC 201945Z 31008KT 10SM FEW025 OVC110 23/17 A2976 1170 68 2400 310/08 RMK AO2
14926KSTC STC20120620135011406/20/12 13:50:31  5-MIN KSTC 201950Z 29009KT 10SM BKN110 23/17 A2977 1160 70 2400 290/09 RMK AO2 SLP085 T02280172
14926KSTC STC20120620135509706/20/12 13:55:31  5-MIN KSTC 201955Z 30010KT 10SM BKN110 23/17 A2978 1160 70 2400 300/10 RMK AO2
14926KSTC STC20120620140009706/20/12 14:00:31  5-MIN KSTC 202000Z 30009KT 10SM BKN110 23/17 A2977 1170 68 2400 300/09 RMK AO2
14926KSTC STC20120620140510406/20/12 14:05:31  5-MIN KSTC 202005Z 30011KT 10SM FEW024 BKN110 23/17 A2977 1170 68 2400 300/11 RMK AO2
14926KSTC STC20120620141011106/20/12 14:10:31  5-MIN KSTC 202010Z 29010KT 10SM FEW024 SCT034 BKN110 23/17 A2977 1160 70 2400 290/10 RMK AO2
14926KSTC STC20120620141510406/20/12 14:15:31  5-MIN KSTC 202015Z 28010KT 10SM FEW024 BKN110 23/17 A2978 1160 70 2400 280/10 RMK AO2
14926KSTC STC20120620142010406/20/12 14:20:31  5-MIN KSTC 202020Z 29008KT 10SM FEW027 BKN110 23/17 A2978 1160 70 2400 290/08 RMK AO2
14926KSTC STC20120620142511106/20/12 14:25:31  5-MIN KSTC 202025Z 29010KT 10SM SCT027 SCT038 OVC110 23/17 A2979 1150 70 2400 290/10 RMK AO2
14926KSTC STC20120620143011106/20/12 14:30:31  5-MIN KSTC 202030Z 30010KT 10SM SCT027 BKN036 OVC110 23/17 A2978 1160 68 2400 300/10 RMK AO2
14926KSTC STC20120620143512606/20/12 14:35:31  5-MIN KSTC 202035Z 30011KT 8SM -RA FEW027 BKN060 OVC110 22/17 A2977 1170 73 2300 300/11 RMK AO2 RAB33 P0000
14926KSTC STC20120620144013106/20/12 14:40:31  5-MIN KSTC 202040Z 31014G20KT 6SM RA FEW030 BKN060 OVC110 22/18 A2977 1160 78 2200 310/14G20 RMK AO2 RAB33 P0001
14926KSTC STC20120620144514406/20/12 14:45:31  5-MIN KSTC 202045Z 30015G20KT 7SM -RA FEW027 BKN044 OVC110 21/18 A2978 1160 81 2200 300/15G20 RMK AO2 LTG DSNT SW RAB33 P0002
14926KSTC STC20120620145016406/20/12 14:50:31  5-MIN KSTC 202050Z 30014KT 10SM -RA SCT029 SCT041 OVC055 21/17 A2979 1150 78 2200 290/14 RMK AO2 TSB47E50RAB33 SLP090 P0002 60002 T02110172 50077
14926KSTC STC20120620145511706/20/12 14:55:31  5-MIN KSTC 202055Z 29015G22KT 10SM FEW031 BKN055 OVC120 21/17 A2979 1150 75 2200 290/15G22 RMK AO2
14926KSTC STC20120620150011606/20/12 15:00:31  5-MIN KSTC 202100Z 30013G22KT 8SM FEW029 BKN060 OVC120 21/17 A2978 1160 75 2200 300/13G22 RMK AO2
14926KSTC STC20120620150512606/20/12 15:05:31  5-MIN KSTC 202105Z 30012KT 6SM -RA FEW036 BKN055 OVC110 21/17 A2978 1160 78 2100 300/12 RMK AO2 RAB01 P0000
14926KSTC STC20120620151012606/20/12 15:10:31  5-MIN KSTC 202110Z 30011KT 8SM -RA FEW036 BKN055 OVC110 21/17 A2978 1160 81 2100 300/11 RMK AO2 RAB01 P0000
14926KSTC STC20120620151513306/20/12 15:15:31  5-MIN KSTC 202115Z 30012G18KT 10SM -RA FEW041 BKN055 OVC120 21/17 A2978 1160 78 2200 300/12G18 RMK AO2 RAB01 P0000
14926KSTC STC20120620152013206/20/12 15:20:31  5-MIN KSTC 202120Z 30015G19KT 10SM SCT055 BKN100 OVC120 21/17 A2979 1150 75 2200 290/15G19 RMK AO2 RAB01E19 P0000
14926KSTC STC20120620152513206/20/12 15:25:31  5-MIN KSTC 202125Z 29013G19KT 10SM FEW055 SCT095 OVC120 21/17 A2979 1150 78 2100 290/13G19 RMK AO2 RAB01E19 P0000
14926KSTC STC20120620153013206/20/12 15:30:31  5-MIN KSTC 202130Z 30013G18KT 10SM FEW055 SCT100 OVC120 21/17 A2978 1160 78 2100 300/13G18 RMK AO2 RAB01E19 P0000
14926KSTC STC20120620153512506/20/12 15:35:31  5-MIN KSTC 202135Z 29010G17KT 10SM FEW055 BKN120 22/17 A2978 1160 73 2200 290/10G17 RMK AO2 RAB01E19 P0000
14926KSTC STC20120620154013206/20/12 15:40:31  5-MIN KSTC 202140Z 31011G17KT 10SM FEW055 SCT090 BKN120 22/17 A2977 1160 73 2300 300/11G17 RMK AO2 RAB01E19 P0000
14926KSTC STC20120620154512506/20/12 15:45:31  5-MIN KSTC 202145Z 31016G20KT 10SM FEW090 BKN120 22/17 A2978 1160 70 2300 310/16G20 RMK AO2 RAB01E19 P0000
14926KSTC STC20120620155014206/20/12 15:50:31  5-MIN KSTC 202150Z 30014G22KT 10SM FEW090 SCT120 22/16 A2978 1160 70 2200 300/14G22 RMK AO2 RAB01E19 SLP088 P0000 T02170161
14926KSTC STC20120620155511006/20/12 15:55:31  5-MIN KSTC 202155Z 30015G22KT 10SM FEW090 SCT120 21/16 A2978 1150 70 2200 300/15G22 RMK AO2
14926KSTC STC20120620160011706/20/12 16:00:31  5-MIN KSTC 202200Z 29015G22KT 10SM FEW090 SCT120 21/16 A2980 1140 70 2200 290/15G22 RMK AO2 PRESRR
14926KSTC STC20120620160511006/20/12 16:05:31  5-MIN KSTC 202205Z 29015G22KT 10SM FEW090 SCT120 21/15 A2980 1140 68 2200 290/15G22 RMK AO2
14926KSTC STC20120620161010306/20/12 16:10:31  5-MIN KSTC 202210Z 30011G22KT 10SM SCT110 21/15 A2977 1160 70 2100 300/11G22 RMK AO2
14926KSTC STC20120620161511106/20/12 16:15:31  5-MIN KSTC 202215Z 31009KT 10SM FEW070 BKN110 21/15 A2976 1180 70 2100 310/09 RMK AO2 PRESFR
14926KSTC STC20120620162011706/20/12 16:20:31  5-MIN KSTC 202220Z 31008G16KT 10SM SCT065 SCT085 BKN110 21/15 A2977 1170 70 2100 310/08G16 RMK AO2
14926KSTC STC20120620162512706/20/12 16:25:31  5-MIN KSTC 202225Z 32011KT 10SM -RA FEW065 SCT085 BKN110 21/16 A2977 1170 73 2100 310/11 RMK AO2 RAB25 P0000
14926KSTC STC20120620163012706/20/12 16:30:31  5-MIN KSTC 202230Z 30011KT 10SM -RA FEW055 SCT070 BKN085 21/15 A2978 1150 70 2100 300/11 RMK AO2 RAB25 P0000
14926KSTC STC20120620163512706/20/12 16:35:31  5-MIN KSTC 202235Z 30011KT 10SM -RA FEW055 SCT070 BKN085 20/15 A2978 1160 72 2000 300/11 RMK AO2 RAB25 P0000
14926KSTC STC20120620164012706/20/12 16:40:31  5-MIN KSTC 202240Z 29006KT 10SM -RA FEW055 SCT070 BKN085 20/15 A2978 1160 72 2000 290/06 RMK AO2 RAB25 P0000
14926KSTC STC20120620164512606/20/12 16:45:31  5-MIN KSTC 202245Z 29007KT 10SM FEW060 SCT085 BKN120 20/15 A2978 1150 72 2000 290/07 RMK AO2 RAB25E43 P0000
14926KSTC STC20120620165013606/20/12 16:50:31  5-MIN KSTC 202250Z 30008KT 10SM FEW070 BKN120 20/14 A2979 1150 70 2000 290/08 RMK AO2 RAB25E43 SLP090 P0000 T02000144
14926KSTC STC20120620165510406/20/12 16:55:31  5-MIN KSTC 202255Z 30008KT 10SM FEW075 BKN120 20/15 A2979 1150 72 2000 300/08 RMK AO2
14926KSTC STC20120620170012206/20/12 17:00:31  5-MIN KSTC 202300Z 29009KT 10SM -RA FEW100 BKN120 19/15 A2980 1140 75 2000 290/09 RMK AO2 RAB2258 P0000
14926KSTC STC20120620170511506/20/12 17:05:31  5-MIN KSTC 202305Z 29008KT 10SM -RA BKN110 19/15 A2980 1140 75 2000 290/08 RMK AO2 RAB2258 P0000
14926KSTC STC20120620171011506/20/12 17:10:31  5-MIN KSTC 202310Z 31007KT 10SM -RA OVC110 19/15 A2979 1150 78 1900 310/07 RMK AO2 RAB2258 P0000
14926KSTC STC20120620171511406/20/12 17:15:31  5-MIN KSTC 202315Z 32007KT 8SM -RA OVC110 18/16 A2978 1160 84 1900 320/07 RMK AO2 RAB2258 P0001
14926KSTC STC20120620172011406/20/12 17:20:31  5-MIN KSTC 202320Z 31005KT 9SM -RA OVC110 18/16 A2977 1160 84 1900 310/05 RMK AO2 RAB2258 P0001
14926KSTC STC20120620172511506/20/12 17:25:31  5-MIN KSTC 202325Z 29005KT 10SM -RA OVC110 18/16 A2979 1140 84 1800 290/05 RMK AO2 RAB2258 P0001
14926KSTC STC20120620173011506/20/12 17:30:31  5-MIN KSTC 202330Z 26005KT 10SM -RA OVC110 18/16 A2981 1130 84 1800 260/05 RMK AO2 RAB2258 P0001
14926KSTC STC20120620173512206/20/12 17:35:31  5-MIN KSTC 202335Z 25005KT 10SM -RA OVC100 18/16 A2981 1130 87 1800 250/05 RMK AO2 RAB2258 PRESRR P0001
14926KSTC STC20120620174011506/20/12 17:40:31  5-MIN KSTC 202340Z 26004KT 10SM -RA OVC100 18/16 A2980 1140 87 1800 260/04 RMK AO2 RAB2258 P0001
14926KSTC STC20120620174512206/20/12 17:45:31  5-MIN KSTC 202345Z 27004KT 10SM -RA BKN100 OVC120 18/16 A2980 1140 87 1800 270/04 RMK AO2 RAB2258 P0001
14926KSTC STC20120620175015606/20/12 17:50:31  5-MIN KSTC 202350Z 28003KT 10SM -RA OVC100 18/16 A2980 1140 87 1800 270/03 RMK AO2 RAB2258 SLP095 P0001 60003 T01830161 10244 20183 51018
14926KSTC STC20120620175510706/20/12 17:55:31  5-MIN KSTC 202355Z 30004KT 10SM -RA OVC100 18/16 A2979 1150 87 1800 300/04 RMK AO2 P0000
14926KSTC STC20120620180010706/20/12 18:00:31  5-MIN KSTC 210000Z 29005KT 10SM -RA OVC100 18/16 A2980 1140 87 1800 290/05 RMK AO2 P0000
14926KSTC STC20120620180510706/20/12 18:05:31  5-MIN KSTC 210005Z 28003KT 10SM -RA OVC100 18/16 A2980 1140 87 1800 280/03 RMK AO2 P0000
14926KSTC STC20120620181010906/20/12 18:10:31  5-MIN KSTC 210010Z 28004KT 10SM BKN100 18/16 A2980 1140 84 1800 280/04 RMK AO2 RAE06 P0000
14926KSTC STC20120620181510906/20/12 18:15:31  5-MIN KSTC 210015Z 28004KT 10SM BKN110 18/16 A2980 1140 84 1800 280/04 RMK AO2 RAE06 P0000
14926KSTC STC20120620182011606/20/12 18:20:31  5-MIN KSTC 210020Z 27003KT 10SM FEW070 BKN110 18/16 A2981 1130 87 1800 270/03 RMK AO2 RAE06 P0000
14926KSTC STC20120620182511606/20/12 18:25:31  5-MIN KSTC 210025Z 26004KT 10SM FEW070 BKN110 18/16 A2981 1130 84 1800 260/04 RMK AO2 RAE06 P0000
14926KSTC STC20120620183011606/20/12 18:30:31  5-MIN KSTC 210030Z 26004KT 10SM FEW070 BKN110 18/16 A2981 1130 87 1800 260/04 RMK AO2 RAE06 P0000
14926KSTC STC20120620183511606/20/12 18:35:31  5-MIN KSTC 210035Z 27004KT 10SM FEW070 BKN110 18/16 A2981 1130 87 1800 270/04 RMK AO2 RAE06 P0000
14926KSTC STC20120620184011606/20/12 18:40:31  5-MIN KSTC 210040Z 27003KT 10SM FEW070 SCT110 18/16 A2981 1130 87 1800 270/03 RMK AO2 RAE06 P0000
14926KSTC STC20120620184511606/20/12 18:45:31  5-MIN KSTC 210045Z 27003KT 10SM FEW070 SCT120 18/16 A2981 1130 87 1800 270/03 RMK AO2 RAE06 P0000
14926KSTC STC20120620185012606/20/12 18:50:31  5-MIN KSTC 210050Z 25003KT 10SM FEW120 18/16 A2981 1130 87 1800 250/03 RMK AO2 RAE06 SLP099 P0000 T01830161
14926KSTC STC20120620185509706/20/12 18:55:31  5-MIN KSTC 210055Z 25004KT 10SM FEW120 18/16 A2982 1120 87 1800 250/04 RMK AO2
14926KSTC STC20120620190009706/20/12 19:00:31  5-MIN KSTC 210100Z 23003KT 10SM FEW120 18/16 A2983 1110 87 1800 230/03 RMK AO2
14926KSTC STC20120620190509406/20/12 19:05:31  5-MIN KSTC 210105Z 00000KT 10SM CLR 18/16 A2983 1110 87 1800 000/00 RMK AO2
14926KSTC STC20120620191009406/20/12 19:10:31  5-MIN KSTC 210110Z 00000KT 10SM CLR 18/16 A2982 1120 87 1800 000/00 RMK AO2
14926KSTC STC20120620191509406/20/12 19:15:31  5-MIN KSTC 210115Z 00000KT 10SM CLR 18/16 A2983 1110 87 1800 000/00 RMK AO2
14926KSTC STC20120620192009406/20/12 19:20:31  5-MIN KSTC 210120Z 26003KT 10SM CLR 18/16 A2983 1110 87 1800 260/03 RMK AO2
14926KSTC STC20120620192509406/20/12 19:25:31  5-MIN KSTC 210125Z 25003KT 10SM CLR 18/16 A2983 1110 90 1700 250/03 RMK AO2
14926KSTC STC20120620193009406/20/12 19:30:31  5-MIN KSTC 210130Z 00000KT 10SM CLR 18/16 A2982 1120 90 1700 000/00 RMK AO2
14926KSTC STC20120620193509406/20/12 19:35:31  5-MIN KSTC 210135Z 26003KT 10SM CLR 18/16 A2983 1110 90 1700 260/03 RMK AO2
14926KSTC STC20120620194009406/20/12 19:40:31  5-MIN KSTC 210140Z 26004KT 10SM CLR 18/16 A2983 1110 90 1700 260/04 RMK AO2
14926KSTC STC20120620194509406/20/12 19:45:31  5-MIN KSTC 210145Z 26003KT 10SM CLR 18/16 A2982 1120 90 1700 260/03 RMK AO2
14926KSTC STC20120620195011106/20/12 19:50:31  5-MIN KSTC 210150Z 28003KT 10SM CLR 18/16 A2982 1120 90 1700 270/03 RMK AO2 SLP103 T01780161
14926KSTC STC20120620195509406/20/12 19:55:31  5-MIN KSTC 210155Z 28004KT 10SM CLR 18/16 A2982 1120 90 1700 280/04 RMK AO2
14926KSTC STC20120620200009406/20/12 20:00:31  5-MIN KSTC 210200Z 27005KT 10SM CLR 18/16 A2982 1120 90 1700 270/05 RMK AO2
14926KSTC STC20120620200509406/20/12 20:05:31  5-MIN KSTC 210205Z 26003KT 10SM CLR 18/16 A2982 1120 87 1700 260/03 RMK AO2
14926KSTC STC20120620201009406/20/12 20:10:31  5-MIN KSTC 210210Z 25003KT 10SM CLR 18/16 A2983 1110 90 1700 250/03 RMK AO2
14926KSTC STC20120620201509406/20/12 20:15:31  5-MIN KSTC 210215Z 00000KT 10SM CLR 18/16 A2983 1110 87 1700 000/00 RMK AO2
14926KSTC STC20120620202009406/20/12 20:20:31  5-MIN KSTC 210220Z 00000KT 10SM CLR 17/16 A2983 1110 90 1700 000/00 RMK AO2
14926KSTC STC20120620202509406/20/12 20:25:31  5-MIN KSTC 210225Z 00000KT 10SM CLR 17/16 A2984 1110 90 1700 000/00 RMK AO2
14926KSTC STC20120620203009406/20/12 20:30:31  5-MIN KSTC 210230Z 23003KT 10SM CLR 17/16 A2984 1100 90 1700 230/03 RMK AO2
14926KSTC STC20120620203509406/20/12 20:35:31  5-MIN KSTC 210235Z 00000KT 10SM CLR 17/16 A2985 1090 90 1600 000/00 RMK AO2
14926KSTC STC20120620204009406/20/12 20:40:31  5-MIN KSTC 210240Z 00000KT 10SM CLR 17/16 A2985 1090 93 1600 000/00 RMK AO2
14926KSTC STC20120620204509406/20/12 20:45:31  5-MIN KSTC 210245Z 00000KT 10SM CLR 17/16 A2985 1090 93 1600 000/00 RMK AO2
14926KSTC STC20120620205012306/20/12 20:50:31  5-MIN KSTC 210250Z 00000KT 10SM CLR 17/15 A2986 1080 90 1600 000/00 RMK AO2 SLP119 60000 T01670150 55000
14926KSTC STC20120620205509406/20/12 20:55:31  5-MIN KSTC 210255Z 15003KT 10SM CLR 17/15 A2986 1090 90 1600 150/03 RMK AO2
14926KSTC STC20120620210009406/20/12 21:00:31  5-MIN KSTC 210300Z 15004KT 10SM CLR 17/15 A2986 1080 90 1600 150/04 RMK AO2
14926KSTC STC20120620210509406/20/12 21:05:31  5-MIN KSTC 210305Z 16003KT 10SM CLR 17/16 A2986 1080 93 1600 160/03 RMK AO2
14926KSTC STC20120620211009406/20/12 21:10:31  5-MIN KSTC 210310Z 18003KT 10SM CLR 16/16 A2986 1080 96 1500 180/03 RMK AO2
14926KSTC STC20120620211509406/20/12 21:15:31  5-MIN KSTC 210315Z 00000KT 10SM CLR 17/15 A2987 1070 90 1600 000/00 RMK AO2
14926KSTC STC20120620212009706/20/12 21:20:31  5-MIN KSTC 210320Z 00000KT 10SM FEW055 17/16 A2988 1070 93 1600 000/00 RMK AO2
14926KSTC STC20120620212509706/20/12 21:25:31  5-MIN KSTC 210325Z 16003KT 10SM FEW055 17/16 A2987 1080 93 1600 160/03 RMK AO2
14926KSTC STC20120620213009706/20/12 21:30:31  5-MIN KSTC 210330Z 18004KT 10SM FEW050 17/16 A2987 1080 93 1600 180/04 RMK AO2
14926KSTC STC20120620213510206/20/12 21:35:31  5-MIN KSTC 210335Z AUTO 19004KT 10SM FEW055 16/16 A2987 1080 96 1500 190/04 RMK AO2
14926KSTC STC20120620214010206/20/12 21:40:31  5-MIN KSTC 210340Z AUTO 20004KT 10SM SCT055 16/15 A2986 1080 93 1500 200/04 RMK AO2
14926KSTC STC20120620214510206/20/12 21:45:31  5-MIN KSTC 210345Z AUTO 18005KT 10SM SCT055 16/15 A2985 1090 93 1500 180/05 RMK AO2
14926KSTC STC20120620215011806/20/12 21:50:31  5-MIN KSTC 210350Z AUTO 19004KT 9SM FEW055 16/15 A2986 1090 96 1400 190/04 RMK AO2 SLP117 T01560150
14926KSTC STC20120620215510106/20/12 21:55:31  5-MIN KSTC 210355Z AUTO 21006KT 9SM FEW055 16/15 A2986 1090 93 1500 210/06 RMK AO2
14926KSTC STC20120620220010206/20/12 22:00:31  5-MIN KSTC 210400Z AUTO 20005KT 10SM FEW055 17/15 A2985 1090 90 1600 200/05 RMK AO2
14926KSTC STC20120620220510206/20/12 22:05:31  5-MIN KSTC 210405Z AUTO 20004KT 10SM FEW055 16/15 A2985 1090 93 1500 200/04 RMK AO2
14926KSTC STC20120620221009906/20/12 22:10:31  5-MIN KSTC 210410Z AUTO 19003KT 10SM CLR 16/15 A2986 1080 93 1500 190/03 RMK AO2
14926KSTC STC20120620221509906/20/12 22:15:31  5-MIN KSTC 210415Z AUTO 21004KT 10SM CLR 16/15 A2986 1090 93 1500 210/04 RMK AO2
14926KSTC STC20120620222009906/20/12 22:20:31  5-MIN KSTC 210420Z AUTO 20005KT 10SM CLR 16/15 A2986 1090 93 1500 200/05 RMK AO2
14926KSTC STC20120620222509906/20/12 22:25:31  5-MIN KSTC 210425Z AUTO 21006KT 10SM CLR 16/15 A2986 1080 93 1500 210/06 RMK AO2
14926KSTC STC20120620223009906/20/12 22:30:31  5-MIN KSTC 210430Z AUTO 21006KT 10SM CLR 16/15 A2986 1080 93 1500 210/06 RMK AO2
14926KSTC STC20120620223509906/20/12 22:35:31  5-MIN KSTC 210435Z AUTO 22005KT 10SM CLR 17/15 A2986 1080 90 1600 220/05 RMK AO2
14926KSTC STC20120620224009906/20/12 22:40:31  5-MIN KSTC 210440Z AUTO 22006KT 10SM CLR 16/15 A2986 1080 93 1500 220/06 RMK AO2
14926KSTC STC20120620224509906/20/12 22:45:31  5-MIN KSTC 210445Z AUTO 22006KT 10SM CLR 16/15 A2986 1080 93 1500 220/06 RMK AO2
14926KSTC STC20120620225011606/20/12 22:50:31  5-MIN KSTC 210450Z AUTO 22007KT 10SM CLR 16/15 A2986 1080 93 1500 210/07 RMK AO2 SLP119 T01610150
14926KSTC STC20120620225509906/20/12 22:55:31  5-MIN KSTC 210455Z AUTO 22007KT 10SM CLR 17/15 A2986 1080 90 1600 220/07 RMK AO2
14926KSTC STC20120620230009906/20/12 23:00:31  5-MIN KSTC 210500Z AUTO 22005KT 10SM CLR 17/15 A2986 1080 90 1600 220/05 RMK AO2
14926KSTC STC20120620230509906/20/12 23:05:31  5-MIN KSTC 210505Z AUTO 22006KT 10SM CLR 16/15 A2987 1080 93 1500 220/06 RMK AO2
14926KSTC STC20120620231009906/20/12 23:10:31  5-MIN KSTC 210510Z AUTO 23006KT 10SM CLR 16/15 A2987 1080 93 1500 220/06 RMK AO2
14926KSTC STC20120620231509906/20/12 23:15:31  5-MIN KSTC 210515Z AUTO 23006KT 10SM CLR 17/15 A2987 1080 90 1600 230/06 RMK AO2
14926KSTC STC20120620232009906/20/12 23:20:31  5-MIN KSTC 210520Z AUTO 22006KT 10SM CLR 16/15 A2987 1070 93 1500 220/06 RMK AO2
14926KSTC STC20120620232509906/20/12 23:25:31  5-MIN KSTC 210525Z AUTO 23005KT 10SM CLR 16/15 A2987 1070 93 1500 230/05 RMK AO2
14926KSTC STC20120620233009906/20/12 23:30:31  5-MIN KSTC 210530Z AUTO 21006KT 10SM CLR 16/15 A2987 1070 93 1500 210/06 RMK AO2
14926KSTC STC20120620233509906/20/12 23:35:31  5-MIN KSTC 210535Z AUTO 21004KT 10SM CLR 16/15 A2987 1070 93 1500 210/04 RMK AO2
14926KSTC STC20120620234010206/20/12 23:40:31  5-MIN KSTC 210540Z AUTO 23003KT 10SM SCT045 16/15 A2987 1070 93 1500 230/03 RMK AO2
14926KSTC STC20120620234510206/20/12 23:45:31  5-MIN KSTC 210545Z AUTO 22003KT 10SM SCT043 16/15 A2987 1080 93 1500 210/03 RMK AO2
14926KSTC STC20120620235015306/20/12 23:50:31  5-MIN KSTC 210550Z AUTO 21004KT 10SM FEW043 16/15 A2987 1070 93 1500 210/04 RMK AO2 SLP120 60000 T01610150 10183 20156 402440156 53023
14926KSTC STC20120620235510206/20/12 23:55:31  5-MIN KSTC 210555Z AUTO 21004KT 10SM FEW043 16/15 A2987 1070 93 1500 210/04 RMK AO2
14926KSTC STC20120621000010206/21/12 00:00:32  5-MIN KSTC 210600Z AUTO 20005KT 10SM FEW043 16/15 A2987 1080 93 1500 200/05 RMK AO2
14926KSTC STC20120621000510206/21/12 00:05:31  5-MIN KSTC 210605Z AUTO 21006KT 10SM SCT041 16/15 A2987 1080 93 1500 210/06 RMK AO2
14926KSTC STC20120621001010206/21/12 00:10:31  5-MIN KSTC 210610Z AUTO 22005KT 10SM FEW041 17/15 A2987 1070 90 1600 220/05 RMK AO2
14926KSTC STC20120621001510206/21/12 00:15:31  5-MIN KSTC 210615Z AUTO 22005KT 10SM FEW041 17/15 A2987 1080 90 1600 220/05 RMK AO2
14926KSTC STC20120621002010206/21/12 00:20:31  5-MIN KSTC 210620Z AUTO 22007KT 10SM FEW041 17/15 A2987 1080 90 1600 220/07 RMK AO2
14926KSTC STC20120621002510206/21/12 00:25:31  5-MIN KSTC 210625Z AUTO 22007KT 10SM FEW041 17/15 A2986 1080 90 1600 220/07 RMK AO2
14926KSTC STC20120621003010206/21/12 00:30:31  5-MIN KSTC 210630Z AUTO 21008KT 10SM FEW039 17/15 A2986 1080 90 1600 210/08 RMK AO2
14926KSTC STC20120621003509906/21/12 00:35:31  5-MIN KSTC 210635Z AUTO 21007KT 10SM CLR 17/15 A2986 1080 90 1600 210/07 RMK AO2
14926KSTC STC20120621004009906/21/12 00:40:31  5-MIN KSTC 210640Z AUTO 21006KT 10SM CLR 17/15 A2986 1080 90 1600 210/06 RMK AO2
14926KSTC STC20120621004509906/21/12 00:45:31  5-MIN KSTC 210645Z AUTO 21007KT 10SM CLR 17/15 A2987 1080 90 1600 210/07 RMK AO2
14926KSTC STC20120621005011606/21/12 00:50:31  5-MIN KSTC 210650Z AUTO 21007KT 10SM CLR 17/15 A2986 1080 90 1600 210/07 RMK AO2 SLP117 T01670150
14926KSTC STC20120621005509906/21/12 00:55:31  5-MIN KSTC 210655Z AUTO 22007KT 10SM CLR 17/15 A2987 1080 90 1600 210/07 RMK AO2
14926KSTC STC20120621010009906/21/12 01:00:31  5-MIN KSTC 210700Z AUTO 22007KT 10SM CLR 16/15 A2987 1080 93 1500 220/07 RMK AO2
14926KSTC STC20120621010509906/21/12 01:05:31  5-MIN KSTC 210705Z AUTO 22007KT 10SM CLR 16/15 A2987 1080 93 1500 220/07 RMK AO2
14926KSTC STC20120621011009906/21/12 01:10:31  5-MIN KSTC 210710Z AUTO 23006KT 10SM CLR 16/15 A2986 1080 93 1500 230/06 RMK AO2
14926KSTC STC20120621011509906/21/12 01:15:31  5-MIN KSTC 210715Z AUTO 22007KT 10SM CLR 16/15 A2986 1080 93 1500 220/07 RMK AO2
14926KSTC STC20120621012009906/21/12 01:20:31  5-MIN KSTC 210720Z AUTO 22007KT 10SM CLR 16/15 A2986 1080 93 1500 220/07 RMK AO2
14926KSTC STC20120621012509906/21/12 01:25:31  5-MIN KSTC 210725Z AUTO 24005KT 10SM CLR 16/14 A2986 1080 90 1500 230/05 RMK AO2
14926KSTC STC20120621013009906/21/12 01:30:31  5-MIN KSTC 210730Z AUTO 24007KT 10SM CLR 16/14 A2986 1080 90 1500 240/07 RMK AO2
14926KSTC STC20120621013509906/21/12 01:35:31  5-MIN KSTC 210735Z AUTO 23008KT 10SM CLR 16/14 A2986 1080 90 1500 230/08 RMK AO2
14926KSTC STC20120621014009906/21/12 01:40:31  5-MIN KSTC 210740Z AUTO 23008KT 10SM CLR 16/14 A2986 1080 90 1500 230/08 RMK AO2
14926KSTC STC20120621014509906/21/12 01:45:31  5-MIN KSTC 210745Z AUTO 23007KT 10SM CLR 16/14 A2986 1080 90 1500 230/07 RMK AO2
14926KSTC STC20120621015011606/21/12 01:50:31  5-MIN KSTC 210750Z AUTO 23007KT 10SM CLR 16/14 A2986 1080 93 1400 230/07 RMK AO2 SLP115 T01560144
14926KSTC STC20120621015509906/21/12 01:55:31  5-MIN KSTC 210755Z AUTO 24006KT 10SM CLR 16/14 A2986 1090 93 1400 240/06 RMK AO2
14926KSTC STC20120621020009906/21/12 02:00:31  5-MIN KSTC 210800Z AUTO 25005KT 10SM CLR 16/14 A2986 1090 93 1400 250/05 RMK AO2
14926KSTC STC20120621020509906/21/12 02:05:31  5-MIN KSTC 210805Z AUTO 25006KT 10SM CLR 16/14 A2985 1090 93 1400 250/06 RMK AO2
14926KSTC STC20120621021009906/21/12 02:10:31  5-MIN KSTC 210810Z AUTO 25006KT 10SM CLR 16/14 A2985 1090 93 1400 250/06 RMK AO2
14926KSTC STC20120621021509906/21/12 02:15:31  5-MIN KSTC 210815Z AUTO 25007KT 10SM CLR 16/14 A2986 1090 93 1400 250/07 RMK AO2
14926KSTC STC20120621022009906/21/12 02:20:31  5-MIN KSTC 210820Z AUTO 25007KT 10SM CLR 16/14 A2985 1090 93 1400 250/07 RMK AO2
14926KSTC STC20120621022509906/21/12 02:25:31  5-MIN KSTC 210825Z AUTO 25006KT 10SM CLR 16/14 A2985 1090 93 1400 250/06 RMK AO2
14926KSTC STC20120621023009906/21/12 02:30:31  5-MIN KSTC 210830Z AUTO 26006KT 10SM CLR 16/14 A2985 1090 90 1400 250/06 RMK AO2
14926KSTC STC20120621023509906/21/12 02:35:31  5-MIN KSTC 210835Z AUTO 26006KT 10SM CLR 16/14 A2986 1090 90 1400 250/06 RMK AO2
14926KSTC STC20120621024009906/21/12 02:40:31  5-MIN KSTC 210840Z AUTO 26006KT 10SM CLR 16/14 A2985 1090 90 1400 260/06 RMK AO2
14926KSTC STC20120621024509906/21/12 02:45:31  5-MIN KSTC 210845Z AUTO 27006KT 10SM CLR 16/14 A2985 1090 90 1400 260/06 RMK AO2
14926KSTC STC20120621025012206/21/12 02:50:31  5-MIN KSTC 210850Z AUTO 27007KT 10SM CLR 16/14 A2986 1090 90 1400 270/07 RMK AO2 SLP116 T01560139 53004
14926KSTC STC20120621025509906/21/12 02:55:31  5-MIN KSTC 210855Z AUTO 27007KT 10SM CLR 16/14 A2986 1080 90 1400 270/07 RMK AO2
14926KSTC STC20120621030009906/21/12 03:00:31  5-MIN KSTC 210900Z AUTO 27008KT 10SM CLR 16/13 A2986 1080 86 1400 260/08 RMK AO2
14926KSTC STC20120621030509906/21/12 03:05:31  5-MIN KSTC 210905Z AUTO 27009KT 10SM CLR 16/13 A2987 1080 86 1400 270/09 RMK AO2
14926KSTC STC20120621031009906/21/12 03:10:31  5-MIN KSTC 210910Z AUTO 27007KT 10SM CLR 16/13 A2987 1080 86 1400 270/07 RMK AO2
14926KSTC STC20120621031509906/21/12 03:15:31  5-MIN KSTC 210915Z AUTO 27007KT 10SM CLR 16/13 A2987 1070 86 1400 270/07 RMK AO2
14926KSTC STC20120621032009906/21/12 03:20:31  5-MIN KSTC 210920Z AUTO 27008KT 10SM CLR 16/13 A2987 1070 86 1400 270/08 RMK AO2
14926KSTC STC20120621032509906/21/12 03:25:31  5-MIN KSTC 210925Z AUTO 27009KT 10SM CLR 16/13 A2987 1070 83 1400 270/09 RMK AO2
14926KSTC STC20120621033009906/21/12 03:30:31  5-MIN KSTC 210930Z AUTO 28007KT 10SM CLR 15/13 A2987 1070 86 1400 270/07 RMK AO2
14926KSTC STC20120621033509906/21/12 03:35:31  5-MIN KSTC 210935Z AUTO 28009KT 10SM CLR 15/13 A2988 1070 86 1400 280/09 RMK AO2
14926KSTC STC20120621034009906/21/12 03:40:31  5-MIN KSTC 210940Z AUTO 28009KT 10SM CLR 15/13 A2988 1060 86 1400 280/09 RMK AO2
14926KSTC STC20120621034509906/21/12 03:45:31  5-MIN KSTC 210945Z AUTO 28009KT 10SM CLR 16/13 A2988 1060 83 1400 280/09 RMK AO2
14926KSTC STC20120621035011606/21/12 03:50:31  5-MIN KSTC 210950Z AUTO 28009KT 10SM CLR 15/13 A2989 1060 86 1300 280/09 RMK AO2 SLP126 T01500128
14926KSTC STC20120621035509906/21/12 03:55:31  5-MIN KSTC 210955Z AUTO 28009KT 10SM CLR 15/12 A2989 1060 83 1300 280/09 RMK AO2
14926KSTC STC20120621040009906/21/12 04:00:31  5-MIN KSTC 211000Z AUTO 28007KT 10SM CLR 15/12 A2989 1050 83 1300 280/07 RMK AO2
14926KSTC STC20120621040509906/21/12 04:05:31  5-MIN KSTC 211005Z AUTO 28008KT 10SM CLR 15/12 A2990 1050 83 1300 280/08 RMK AO2
14926KSTC STC20120621041009906/21/12 04:10:31  5-MIN KSTC 211010Z AUTO 28008KT 10SM CLR 15/12 A2990 1050 83 1300 280/08 RMK AO2
14926KSTC STC20120621041509906/21/12 04:15:31  5-MIN KSTC 211015Z AUTO 28008KT 10SM CLR 14/12 A2990 1050 86 1300 280/08 RMK AO2
14926KSTC STC20120621042009906/21/12 04:20:31  5-MIN KSTC 211020Z AUTO 28009KT 10SM CLR 14/12 A2990 1050 86 1300 280/09 RMK AO2
14926KSTC STC20120621042509906/21/12 04:25:31  5-MIN KSTC 211025Z AUTO 28009KT 10SM CLR 15/12 A2990 1040 83 1300 280/09 RMK AO2
14926KSTC STC20120621043009906/21/12 04:30:31  5-MIN KSTC 211030Z AUTO 28009KT 10SM CLR 14/12 A2990 1040 86 1300 280/09 RMK AO2
14926KSTC STC20120621043509906/21/12 04:35:31  5-MIN KSTC 211035Z AUTO 27008KT 10SM CLR 14/12 A2991 1040 86 1300 270/08 RMK AO2
14926KSTC STC20120621044009906/21/12 04:40:31  5-MIN KSTC 211040Z AUTO 28007KT 10SM CLR 14/12 A2991 1040 86 1300 280/07 RMK AO2
14926KSTC STC20120621044509906/21/12 04:45:31  5-MIN KSTC 211045Z AUTO 28007KT 10SM CLR 14/12 A2991 1040 86 1300 270/07 RMK AO2
14926KSTC STC20120621045011606/21/12 04:50:31  5-MIN KSTC 211050Z AUTO 27007KT 10SM CLR 14/12 A2991 1040 86 1300 270/07 RMK AO2 SLP136 T01440122
14926KSTC STC20120621045509906/21/12 04:55:31  5-MIN KSTC 211055Z AUTO 28007KT 10SM CLR 14/12 A2991 1030 86 1200 280/07 RMK AO2
14926KSTC STC20120621050009906/21/12 05:00:31  5-MIN KSTC 211100Z AUTO 28007KT 10SM CLR 14/12 A2991 1030 86 1300 270/07 RMK AO2
14926KSTC STC20120621050509906/21/12 05:05:31  5-MIN KSTC 211105Z AUTO 28007KT 10SM CLR 15/12 A2991 1030 83 1300 270/07 RMK AO2
14926KSTC STC20120621051009906/21/12 05:10:31  5-MIN KSTC 211110Z AUTO 27007KT 10SM CLR 15/12 A2992 1030 83 1300 270/07 RMK AO2
14926KSTC STC20120621051509906/21/12 05:15:31  5-MIN KSTC 211115Z AUTO 26006KT 10SM CLR 14/12 A2992 1030 86 1200 260/06 RMK AO2
14926KSTC STC20120621052009906/21/12 05:20:31  5-MIN KSTC 211120Z AUTO 27007KT 10SM CLR 15/12 A2992 1020 83 1300 270/07 RMK AO2
14926KSTC STC20120621052509906/21/12 05:25:31  5-MIN KSTC 211125Z AUTO 27007KT 10SM CLR 15/12 A2992 1020 83 1300 270/07 RMK AO2
14926KSTC STC20120621053009906/21/12 05:30:31  5-MIN KSTC 211130Z AUTO 28008KT 10SM CLR 15/12 A2993 1020 83 1300 270/08 RMK AO2
14926KSTC STC20120621053509906/21/12 05:35:31  5-MIN KSTC 211135Z AUTO 28008KT 10SM CLR 15/12 A2993 1020 83 1300 280/08 RMK AO2
14926KSTC STC20120621054009906/21/12 05:40:31  5-MIN KSTC 211140Z AUTO 27008KT 10SM CLR 15/12 A2993 1020 83 1300 270/08 RMK AO2
14926KSTC STC20120621054510506/21/12 05:45:31  5-MIN KSTC 211145Z AUTO 28009G15KT 10SM CLR 16/12 A2993 1020 80 1400 280/09G15 RMK AO2
14926KSTC STC20120621055014006/21/12 05:50:31  5-MIN KSTC 211150Z AUTO 28011KT 10SM CLR 16/12 A2993 1010 80 1400 280/11 RMK AO2 SLP143 70047 T01560122 10167 20144 55004
14926KSTC STC20120621055509406/21/12 05:55:31  5-MIN KSTC 211155Z 29010KT 10SM CLR 16/12 A2993 1010 80 1400 290/10 RMK AO2
14926KSTC STC20120621060009406/21/12 06:00:31  5-MIN KSTC 211200Z 28010KT 10SM CLR 16/12 A2993 1010 80 1400 280/10 RMK AO2
14926KSTC STC20120621060509406/21/12 06:05:31  5-MIN KSTC 211205Z 30011KT 10SM CLR 16/12 A2993 1010 77 1400 300/11 RMK AO2
14926KSTC STC20120621061010006/21/12 06:10:31  5-MIN KSTC 211210Z 30010G20KT 10SM CLR 16/12 A2994 1010 77 1400 290/10G20 RMK AO2
14926KSTC STC20120621061510006/21/12 06:15:31  5-MIN KSTC 211215Z 30010G20KT 10SM CLR 16/12 A2994 1010 77 1400 300/10G20 RMK AO2
14926KSTC STC20120621062010306/21/12 06:20:31  5-MIN KSTC 211220Z 30011G17KT 10SM FEW015 16/12 A2994 1000 80 1300 300/11G17 RMK AO2
14926KSTC STC20120621062510306/21/12 06:25:31  5-MIN KSTC 211225Z 31011G18KT 10SM SCT015 16/12 A2995 1000 80 1300 310/11G18 RMK AO2
14926KSTC STC20120621063010306/21/12 06:30:31  5-MIN KSTC 211230Z 31010G18KT 10SM BKN015 16/13 A2995 1000 83 1300 310/10G18 RMK AO2
14926KSTC STC20120621063510306/21/12 06:35:31  5-MIN KSTC 211235Z 32011G20KT 10SM BKN015 16/12 A2995 1000 80 1300 320/11G20 RMK AO2
14926KSTC STC20120621064010306/21/12 06:40:31  5-MIN KSTC 211240Z 32012G20KT 10SM BKN015 16/12 A2995 1000 80 1300 320/12G20 RMK AO2
14926KSTC STC20120621064509606/21/12 06:45:31  5-MIN KSTC 211245Z 32011KT 10SM OVC015 16/13 A2996 990 83 1300 310/11 RMK AO2
14926KSTC STC20120621065009606/21/12 06:50:31  5-MIN KSTC 211250Z 32010KT 10SM OVC013 16/13 A2996 990 83 1300 320/10 RMK AO2
14926KSTC STC20120621065509606/21/12 06:55:31  5-MIN KSTC 211255Z 32010KT 10SM OVC013 16/12 A2996 990 80 1300 320/10 RMK AO2
14926KSTC STC20120621070009606/21/12 07:00:31  5-MIN KSTC 211300Z 31011KT 10SM OVC013 16/13 A2996 990 83 1300 310/11 RMK AO2
14926KSTC STC20120621070509606/21/12 07:05:31  5-MIN KSTC 211305Z 32009KT 10SM OVC013 16/13 A2996 990 83 1300 320/09 RMK AO2
14926KSTC STC20120621071009606/21/12 07:10:31  5-MIN KSTC 211310Z 32012KT 10SM OVC015 16/12 A2996 990 80 1300 320/12 RMK AO2
14926KSTC STC20120621071510206/21/12 07:15:31  5-MIN KSTC 211315Z 31009G16KT 10SM BKN015 16/13 A2996 990 80 1400 310/09G16 RMK AO2
14926KSTC STC20120621072010206/21/12 07:20:31  5-MIN KSTC 211320Z 31012G18KT 10SM BKN015 16/12 A2996 990 77 1400 310/12G18 RMK AO2
14926KSTC STC20120621072510206/21/12 07:25:31  5-MIN KSTC 211325Z 31010G18KT 10SM BKN015 17/12 A2996 990 75 1400 310/10G18 RMK AO2
14926KSTC STC20120621073010206/21/12 07:30:31  5-MIN KSTC 211330Z 31012G20KT 10SM BKN015 17/13 A2996 990 77 1500 310/12G20 RMK AO2
14926KSTC STC20120621073510206/21/12 07:35:31  5-MIN KSTC 211335Z 30011G20KT 10SM BKN015 17/13 A2997 980 75 1500 300/11G20 RMK AO2
14926KSTC STC20120621074009606/21/12 07:40:31  5-MIN KSTC 211340Z 31011KT 10SM BKN015 17/13 A2997 980 75 1500 310/11 RMK AO2
14926KSTC STC20120621074509606/21/12 07:45:31  5-MIN KSTC 211345Z 30010KT 10SM BKN015 17/13 A2997 980 75 1500 300/10 RMK AO2
14926KSTC STC20120621075011906/21/12 07:50:31  5-MIN KSTC 211350Z 31011G18KT 10SM BKN015 18/13 A2997 980 72 1600 310/11G18 RMK AO2 SLP156 T01780128
14926KSTC STC20120621075510206/21/12 07:55:31  5-MIN KSTC 211355Z 31012G18KT 10SM FEW019 18/12 A2997 980 69 1600 300/12G18 RMK AO2
14926KSTC STC20120621080009306/21/12 08:00:31  5-MIN KSTC 211400Z 30011KT 10SM CLR 18/13 A2997 980 70 1600 300/11 RMK AO2
14926KSTC STC20120621080509306/21/12 08:05:31  5-MIN KSTC 211405Z 30009KT 10SM CLR 18/13 A2998 980 70 1600 300/09 RMK AO2
14926KSTC STC20120621081009306/21/12 08:10:31  5-MIN KSTC 211410Z 31008KT 10SM CLR 18/13 A2998 970 70 1600 310/08 RMK AO2
14926KSTC STC20120621081509906/21/12 08:15:31  5-MIN KSTC 211415Z 31014G17KT 10SM CLR 18/12 A2998 970 67 1600 310/14G17 RMK AO2
14926KSTC STC20120621082009306/21/12 08:20:31  5-MIN KSTC 211420Z 30011KT 10SM CLR 18/12 A2998 970 67 1600 300/11 RMK AO2
14926KSTC STC20120621082510206/21/12 08:25:31  5-MIN KSTC 211425Z 30008G17KT 10SM FEW023 19/13 A2998 970 65 1800 300/08G17 RMK AO2
14926KSTC STC20120621083009606/21/12 08:30:31  5-MIN KSTC 211430Z 28011KT 10SM FEW023 19/13 A2998 970 65 1800 280/11 RMK AO2
14926KSTC STC20120621083509606/21/12 08:35:31  5-MIN KSTC 211435Z 29009KT 10SM FEW023 19/13 A2998 970 65 1800 290/09 RMK AO2
14926KSTC STC20120621084010206/21/12 08:40:31  5-MIN KSTC 211440Z 31008G15KT 10SM FEW023 19/13 A2998 970 65 1800 310/08G15 RMK AO2
14926KSTC STC20120621084510206/21/12 08:45:31  5-MIN KSTC 211445Z 31009G15KT 10SM FEW023 19/13 A2998 970 65 1800 310/09G15 RMK AO2
14926KSTC STC20120621085012506/21/12 08:50:31  5-MIN KSTC 211450Z 32011G17KT 10SM FEW023 20/13 A2998 970 63 1800 320/11G17 RMK AO2 SLP160 T02000128 51024
14926KSTC STC20120621085510206/21/12 08:55:31  5-MIN KSTC 211455Z 31013G17KT 10SM FEW026 20/12 A2998 970 60 1800 310/13G17 RMK AO2
14926KSTC STC20120621090010206/21/12 09:00:31  5-MIN KSTC 211500Z 32009G17KT 10SM FEW026 20/13 A2999 970 63 1800 320/09G17 RMK AO2
14926KSTC STC20120621090510906/21/12 09:05:31  5-MIN KSTC 211505Z 29011G15KT 10SM SCT026 SCT034 19/13 A2999 960 65 1700 290/11G15 RMK AO2
14926KSTC STC20120621091010906/21/12 09:10:31  5-MIN KSTC 211510Z 29011G16KT 10SM SCT026 BKN032 19/12 A2999 960 65 1700 290/11G16 RMK AO2
14926KSTC STC20120621091510906/21/12 09:15:31  5-MIN KSTC 211515Z 31011G17KT 10SM SCT026 SCT032 20/13 A2999 960 63 1800 310/11G17 RMK AO2
14926KSTC STC20120621092010906/21/12 09:20:31  5-MIN KSTC 211520Z 31014G19KT 10SM FEW024 SCT032 20/12 A2999 960 58 1800 310/14G19 RMK AO2
14926KSTC STC20120621092510906/21/12 09:25:31  5-MIN KSTC 211525Z 32010G19KT 10SM FEW026 SCT032 20/12 A2999 960 58 1800 320/10G19 RMK AO2
14926KSTC STC20120621093010906/21/12 09:30:31  5-MIN KSTC 211530Z 30010G17KT 10SM FEW026 SCT034 21/12 A2999 960 58 1900 290/10G17 RMK AO2
14926KSTC STC20120621093510306/21/12 09:35:31  5-MIN KSTC 211535Z 31009KT 10SM FEW026 SCT034 21/12 A2999 960 58 1900 310/09 RMK AO2
14926KSTC STC20120621094010206/21/12 09:40:31  5-MIN KSTC 211540Z 31011G20KT 10SM FEW028 21/12 A2999 960 56 1900 310/11G20 RMK AO2
14926KSTC STC20120621094510206/21/12 09:45:31  5-MIN KSTC 211545Z 33010G20KT 10SM FEW031 21/12 A2999 960 58 1900 330/10G20 RMK AO2
14926KSTC STC20120621095011906/21/12 09:50:31  5-MIN KSTC 211550Z 30011G17KT 10SM FEW029 21/12 A2999 960 56 1900 290/11G17 RMK AO2 SLP163 T02110122
14926KSTC STC20120621095510206/21/12 09:55:31  5-MIN KSTC 211555Z 30009G17KT 10SM FEW032 20/12 A2999 960 58 1800 300/09G17 RMK AO2
14926KSTC STC20120621100009606/21/12 10:00:31  5-MIN KSTC 211600Z 32012KT 10SM FEW032 21/12 A2999 960 56 1900 320/12 RMK AO2
14926KSTC STC20120621100510206/21/12 10:05:31  5-MIN KSTC 211605Z 31010G17KT 10SM FEW032 21/12 A2999 960 54 1900 310/10G17 RMK AO2
14926KSTC STC20120621101009606/21/12 10:10:31  5-MIN KSTC 211610Z 31011KT 10SM FEW032 21/12 A3000 960 54 1900 310/11 RMK AO2
14926KSTC STC20120621101510206/21/12 10:15:31  5-MIN KSTC 211615Z 30009G15KT 10SM FEW034 21/12 A3000 960 54 1900 300/09G15 RMK AO2
14926KSTC STC20120621102010206/21/12 10:20:31  5-MIN KSTC 211620Z 30013G17KT 10SM FEW034 22/12 A3000 960 54 2000 300/13G17 RMK AO2
14926KSTC STC20120621102509906/21/12 10:25:31  5-MIN KSTC 211625Z 28011G17KT 10SM CLR 21/12 A2999 960 54 1900 280/11G17 RMK AO2
14926KSTC STC20120621103009606/21/12 10:30:31  5-MIN KSTC 211630Z 29008KT 10SM FEW037 22/12 A3000 960 52 2000 290/08 RMK AO2
14926KSTC STC20120621103509606/21/12 10:35:31  5-MIN KSTC 211635Z 29007KT 10SM FEW037 22/12 A3000 960 52 2100 290/07 RMK AO2
14926KSTC STC20120621104009906/21/12 10:40:31  5-MIN KSTC 211640Z 30011G15KT 10SM CLR 22/12 A3000 960 52 2100 300/11G15 RMK AO2
14926KSTC STC20120621104509306/21/12 10:45:31  5-MIN KSTC 211645Z 28013KT 10SM CLR 22/11 A3000 960 49 2100 280/13 RMK AO2
14926KSTC STC20120621105011006/21/12 10:50:31  5-MIN KSTC 211650Z 29011KT 10SM CLR 22/11 A3000 960 49 2100 290/11 RMK AO2 SLP163 T02220111
14926KSTC STC20120621105509306/21/12 10:55:31  5-MIN KSTC 211655Z 30008KT 10SM CLR 22/12 A3000 960 51 2100 300/08 RMK AO2
14926KSTC STC20120621110009306/21/12 11:00:31  5-MIN KSTC 211700Z 30010KT 10SM CLR 23/12 A3000 960 51 2100 300/10 RMK AO2
14926KSTC STC20120621110509906/21/12 11:05:31  5-MIN KSTC 211705Z 31013G18KT 10SM CLR 22/11 A3000 950 49 2100 310/13G18 RMK AO2
14926KSTC STC20120621111009906/21/12 11:10:31  5-MIN KSTC 211710Z 28014G19KT 10SM CLR 23/12 A3000 950 49 2100 280/14G19 RMK AO2
14926KSTC STC20120621111509906/21/12 11:15:31  5-MIN KSTC 211715Z 31012G19KT 10SM CLR 23/12 A3000 950 49 2100 310/12G19 RMK AO2
14926KSTC STC20120621112009906/21/12 11:20:31  5-MIN KSTC 211720Z 29015G19KT 10SM CLR 23/11 A3000 950 47 2100 290/15G19 RMK AO2
14926KSTC STC20120621112509906/21/12 11:25:31  5-MIN KSTC 211725Z 30011G19KT 10SM CLR 23/11 A3000 960 47 2100 300/11G19 RMK AO2
14926KSTC STC20120621113009906/21/12 11:30:31  5-MIN KSTC 211730Z 31012G17KT 10SM CLR 23/11 A3000 960 47 2100 310/12G17 RMK AO2
14926KSTC STC20120621113510206/21/12 11:35:31  5-MIN KSTC 211735Z 30010G17KT 10SM FEW046 23/12 A3000 950 49 2100 300/10G17 RMK AO2
14926KSTC STC20120621114010206/21/12 11:40:31  5-MIN KSTC 211740Z 30013G18KT 10SM FEW046 23/12 A3000 950 49 2100 300/13G18 RMK AO2
14926KSTC STC20120621114509606/21/12 11:45:31  5-MIN KSTC 211745Z 30011KT 10SM FEW046 23/11 A3000 960 47 2100 300/11 RMK AO2
14926KSTC STC20120621115013706/21/12 11:50:31  5-MIN KSTC 211750Z 28013G19KT 10SM FEW046 23/12 A3000 950 49 2100 280/13G19 RMK AO2 SLP164 T02280117 10228 20156 53008
14926KSTC STC20120621115510206/21/12 11:55:31  5-MIN KSTC 211755Z 28013G19KT 10SM FEW046 23/12 A3000 950 49 2100 280/13G19 RMK AO2
14926KSTC STC20120621120010206/21/12 12:00:31  5-MIN KSTC 211800Z 29010G20KT 10SM SCT046 23/11 A3000 960 45 2200 290/10G20 RMK AO2
14926KSTC STC20120621120510206/21/12 12:05:31  5-MIN KSTC 211805Z 30010G20KT 10SM FEW046 23/12 A3000 960 47 2200 300/10G20 RMK AO2
14926KSTC STC20120621121010206/21/12 12:10:31  5-MIN KSTC 211810Z 30012G17KT 10SM FEW046 23/12 A3000 960 47 2200 300/12G17 RMK AO2
14926KSTC STC20120621121509606/21/12 12:15:31  5-MIN KSTC 211815Z 30013KT 10SM FEW046 23/12 A3000 960 47 2200 300/13 RMK AO2
14926KSTC STC20120621122010206/21/12 12:20:31  5-MIN KSTC 211820Z 28017G22KT 10SM FEW046 23/11 A3000 960 45 2200 280/17G22 RMK AO2
14926KSTC STC20120621122510206/21/12 12:25:31  5-MIN KSTC 211825Z 31016G22KT 10SM FEW046 23/12 A2999 960 47 2200 310/16G22 RMK AO2
14926KSTC STC20120621123010206/21/12 12:30:31  5-MIN KSTC 211830Z 30014G21KT 10SM FEW046 23/11 A3000 960 47 2100 300/14G21 RMK AO2
14926KSTC STC20120621123510206/21/12 12:35:31  5-MIN KSTC 211835Z 30013G19KT 10SM FEW046 23/11 A3000 960 45 2200 300/13G19 RMK AO2
14926KSTC STC20120621124010206/21/12 12:40:31  5-MIN KSTC 211840Z 28015G20KT 10SM FEW046 23/11 A3000 960 45 2200 280/15G20 RMK AO2
14926KSTC STC20120621124510206/21/12 12:45:31  5-MIN KSTC 211845Z 29012G20KT 10SM SCT048 24/11 A2999 960 44 2200 290/12G20 RMK AO2
14926KSTC STC20120621125011906/21/12 12:50:31  5-MIN KSTC 211850Z 28012G20KT 10SM SCT048 23/11 A3000 960 45 2200 280/12G20 RMK AO2 SLP162 T02330111
14926KSTC STC20120621125510206/21/12 12:55:31  5-MIN KSTC 211855Z 28014G22KT 10SM SCT048 23/11 A2999 960 45 2200 280/14G22 RMK AO2
14926KSTC STC20120621130010206/21/12 13:00:31  5-MIN KSTC 211900Z 31013G22KT 10SM SCT048 23/11 A2999 960 45 2200 310/13G22 RMK AO2
14926KSTC STC20120621130510206/21/12 13:05:31  5-MIN KSTC 211905Z 30012G20KT 10SM SCT048 24/12 A2999 960 46 2200 290/12G20 RMK AO2
14926KSTC STC20120621131010206/21/12 13:10:31  5-MIN KSTC 211910Z 30017G22KT 10SM FEW048 23/11 A3000 960 45 2200 300/17G22 RMK AO2
14926KSTC STC20120621131510206/21/12 13:15:31  5-MIN KSTC 211915Z 28013G22KT 10SM FEW048 23/11 A2999 960 44 2200 280/13G22 RMK AO2
14926KSTC STC20120621132010206/21/12 13:20:31  5-MIN KSTC 211920Z 28014G20KT 10SM FEW048 24/11 A2999 960 44 2200 280/14G20 RMK AO2
14926KSTC STC20120621132510206/21/12 13:25:31  5-MIN KSTC 211925Z 29011G19KT 10SM FEW048 24/11 A2999 960 44 2200 290/11G19 RMK AO2
14926KSTC STC20120621133009606/21/12 13:30:31  5-MIN KSTC 211930Z 29013KT 10SM FEW050 23/11 A2999 960 45 2200 290/13 RMK AO2
14926KSTC STC20120621133510206/21/12 13:35:31  5-MIN KSTC 211935Z 28012G19KT 10SM FEW050 24/12 A2999 960 46 2200 280/12G19 RMK AO2
14926KSTC STC20120621134010206/21/12 13:40:31  5-MIN KSTC 211940Z 27012G20KT 10SM SCT050 24/12 A2999 960 46 2200 270/12G20 RMK AO2
14926KSTC STC20120621134510206/21/12 13:45:31  5-MIN KSTC 211945Z 29011G20KT 10SM SCT050 24/12 A2999 960 46 2200 290/11G20 RMK AO2
14926KSTC STC20120621135011906/21/12 13:50:31  5-MIN KSTC 211950Z 30013G19KT 10SM SCT050 24/12 A2999 960 44 2300 300/13G19 RMK AO2 SLP161 T02440117
14926KSTC STC20120621135510206/21/12 13:55:31  5-MIN KSTC 211955Z 30015G21KT 10SM SCT050 24/11 A2999 960 42 2300 290/15G21 RMK AO2
14926KSTC STC20120621140010206/21/12 14:00:31  5-MIN KSTC 212000Z 29012G21KT 10SM SCT050 24/11 A2999 960 42 2300 280/12G21 RMK AO2
14926KSTC STC20120621140510206/21/12 14:05:31  5-MIN KSTC 212005Z 29013G20KT 10SM SCT050 23/12 A2999 960 47 2200 290/13G20 RMK AO2
14926KSTC STC20120621141010206/21/12 14:10:31  5-MIN KSTC 212010Z 27014G20KT 10SM SCT050 24/12 A2999 960 44 2300 270/14G20 RMK AO2
14926KSTC STC20120621141509606/21/12 14:15:31  5-MIN KSTC 212015Z 29014KT 10SM FEW050 24/11 A2999 970 44 2300 290/14 RMK AO2
14926KSTC STC20120621142010206/21/12 14:20:31  5-MIN KSTC 212020Z 28010G20KT 10SM FEW050 23/11 A2999 970 45 2200 280/10G20 RMK AO2
14926KSTC STC20120621142510206/21/12 14:25:31  5-MIN KSTC 212025Z 31011G19KT 10SM FEW050 23/11 A2998 970 47 2100 300/11G19 RMK AO2
14926KSTC STC20120621143010206/21/12 14:30:31  5-MIN KSTC 212030Z 31012G18KT 10SM FEW050 24/12 A2998 970 44 2300 300/12G18 RMK AO2
14926KSTC STC20120621143510206/21/12 14:35:31  5-MIN KSTC 212035Z 29011G17KT 10SM FEW050 24/11 A2998 970 44 2300 290/11G17 RMK AO2
14926KSTC STC20120621144009606/21/12 14:40:31  5-MIN KSTC 212040Z 30011KT 10SM FEW050 23/11 A2998 970 45 2200 300/11 RMK AO2
14926KSTC STC20120621144509606/21/12 14:45:31  5-MIN KSTC 212045Z 30011KT 10SM FEW050 23/11 A2998 970 47 2100 300/11 RMK AO2
14926KSTC STC20120621145012506/21/12 14:50:31  5-MIN KSTC 212050Z 29013G19KT 10SM FEW050 24/11 A2998 970 44 2300 290/13G19 RMK AO2 SLP156 T02390111 51005
14926KSTC STC20120621145509306/21/12 14:55:31  5-MIN KSTC 212055Z 28013KT 10SM CLR 24/11 A2998 970 42 2300 280/13 RMK AO2
14926KSTC STC20120621150009306/21/12 15:00:31  5-MIN KSTC 212100Z 28013KT 10SM CLR 25/11 A2998 970 41 2400 280/13 RMK AO2
14926KSTC STC20120621150510206/21/12 15:05:31  5-MIN KSTC 212105Z 29010G18KT 10SM FEW055 24/11 A2998 970 42 2300 290/10G18 RMK AO2
14926KSTC STC20120621151009606/21/12 15:10:31  5-MIN KSTC 212110Z 29011KT 10SM SCT055 24/12 A2998 970 44 2300 290/11 RMK AO2
14926KSTC STC20120621151510206/21/12 15:15:31  5-MIN KSTC 212115Z 29013G16KT 10SM SCT050 24/11 A2997 980 42 2300 290/13G16 RMK AO2
14926KSTC STC20120621152010206/21/12 15:20:31  5-MIN KSTC 212120Z 28012G16KT 10SM FEW050 24/11 A2997 980 42 2300 280/12G16 RMK AO2
14926KSTC STC20120621152510206/21/12 15:25:31  5-MIN KSTC 212125Z 29012G18KT 10SM SCT055 25/11 A2997 980 41 2400 290/12G18 RMK AO2
14926KSTC STC20120621153010206/21/12 15:30:31  5-MIN KSTC 212130Z 29012G18KT 10SM SCT055 25/11 A2997 980 41 2400 290/12G18 RMK AO2
14926KSTC STC20120621153510206/21/12 15:35:31  5-MIN KSTC 212135Z 30010G18KT 10SM FEW055 25/11 A2997 980 41 2400 300/10G18 RMK AO2
14926KSTC STC20120621154009606/21/12 15:40:31  5-MIN KSTC 212140Z 31011KT 10SM FEW055 25/12 A2997 980 43 2400 310/11 RMK AO2
14926KSTC STC20120621154510306/21/12 15:45:31  5-MIN KSTC 212145Z 27011KT 10SM FEW060 SCT070 25/11 A2997 980 41 2400 270/11 RMK AO2
14926KSTC STC20120621155012606/21/12 15:50:31  5-MIN KSTC 212150Z 31012G18KT 10SM FEW060 SCT070 25/11 A2997 980 41 2400 310/12G18 RMK AO2 SLP153 T02500111
14926KSTC STC20120621155510206/21/12 15:55:31  5-MIN KSTC 212155Z 30011G18KT 10SM FEW055 25/11 A2997 980 41 2400 300/11G18 RMK AO2
14926KSTC STC20120621160009606/21/12 16:00:31  5-MIN KSTC 212200Z 29010KT 10SM FEW055 25/11 A2997 980 41 2400 290/10 RMK AO2
14926KSTC STC20120621160510306/21/12 16:05:31  5-MIN KSTC 212205Z 29011KT 10SM FEW060 SCT075 26/12 A2997 980 41 2500 290/11 RMK AO2
14926KSTC STC20120621161009606/21/12 16:10:31  5-MIN KSTC 212210Z 28011KT 10SM FEW060 25/11 A2997 990 41 2400 280/11 RMK AO2
14926KSTC STC20120621161510206/21/12 16:15:31  5-MIN KSTC 212215Z 29014G17KT 10SM FEW060 25/11 A2996 990 39 2400 290/14G17 RMK AO2
14926KSTC STC20120621162009606/21/12 16:20:31  5-MIN KSTC 212220Z 27012KT 10SM FEW060 25/11 A2996 990 41 2400 270/12 RMK AO2
14926KSTC STC20120621162510206/21/12 16:25:31  5-MIN KSTC 212225Z 28012G19KT 10SM SCT060 25/11 A2996 990 41 2400 280/12G19 RMK AO2
14926KSTC STC20120621163009606/21/12 16:30:31  5-MIN KSTC 212230Z 28012KT 10SM SCT060 24/11 A2996 990 42 2300 280/12 RMK AO2
14926KSTC STC20120621163509606/21/12 16:35:31  5-MIN KSTC 212235Z 30011KT 10SM FEW060 24/11 A2996 990 42 2300 300/11 RMK AO2
14926KSTC STC20120621164009606/21/12 16:40:31  5-MIN KSTC 212240Z 30011KT 10SM FEW060 23/11 A2996 990 45 2200 300/11 RMK AO2
14926KSTC STC20120621164510206/21/12 16:45:31  5-MIN KSTC 212245Z 28010G17KT 10SM SCT060 23/11 A2996 990 45 2200 280/10G17 RMK AO2
14926KSTC STC20120621165011306/21/12 16:50:31  5-MIN KSTC 212250Z 30009KT 10SM SCT055 23/12 A2996 990 47 2200 300/09 RMK AO2 SLP151 T02330117
14926KSTC STC20120621165510306/21/12 16:55:31  5-MIN KSTC 212255Z 30009KT 10SM SCT060 BKN070 24/12 A2996 990 46 2300 300/09 RMK AO2
14926KSTC STC20120621170010306/21/12 17:00:31  5-MIN KSTC 212300Z 29009KT 10SM SCT060 BKN070 24/11 A2996 990 44 2300 290/09 RMK AO2
14926KSTC STC20120621170509606/21/12 17:05:31  5-MIN KSTC 212305Z 28009KT 10SM SCT060 23/11 A2996 990 45 2200 280/09 RMK AO2
14926KSTC STC20120621171009606/21/12 17:10:31  5-MIN KSTC 212310Z 29005KT 10SM SCT060 23/12 A2996 990 47 2200 290/05 RMK AO2
14926KSTC STC20120621171510306/21/12 17:15:31  5-MIN KSTC 212315Z 29008KT 10SM BKN060 BKN070 24/12 A2996 990 46 2300 290/08 RMK AO2
14926KSTC STC20120621172009706/21/12 17:20:31  5-MIN KSTC 212320Z 30009KT 10SM SCT060 24/12 A2995 1000 46 2300 300/09 RMK AO2
14926KSTC STC20120621172509706/21/12 17:25:31  5-MIN KSTC 212325Z 28007KT 10SM SCT060 24/11 A2995 1000 42 2400 280/07 RMK AO2
14926KSTC STC20120621173010406/21/12 17:30:31  5-MIN KSTC 212330Z 29009KT 10SM FEW060 SCT070 25/11 A2995 1000 41 2400 290/09 RMK AO2
14926KSTC STC20120621173511006/21/12 17:35:31  5-MIN KSTC 212335Z 28012G17KT 10SM FEW060 SCT080 25/11 A2995 1000 41 2400 280/12G17 RMK AO2
14926KSTC STC20120621174011006/21/12 17:40:31  5-MIN KSTC 212340Z 28009G17KT 10SM FEW055 SCT080 24/11 A2995 1000 44 2300 280/09G17 RMK AO2
14926KSTC STC20120621174509706/21/12 17:45:31  5-MIN KSTC 212345Z 28009KT 10SM FEW070 23/11 A2995 1000 45 2200 280/09 RMK AO2
14926KSTC STC20120621175014506/21/12 17:50:31  5-MIN KSTC 212350Z 30007G15KT 10SM FEW055 SCT070 23/12 A2995 1000 47 2200 300/07G15 RMK AO2 SLP148 T02330117 10256 20228 58007
14926KSTC STC20120621175511106/21/12 17:55:31  5-MIN KSTC 212355Z 29007KT 10SM SCT055 BKN070 BKN085 24/12 A2995 1000 46 2300 290/07 RMK AO2
14926KSTC STC20120621180012006/21/12 18:00:31  5-MIN KSTC 220000Z 27008KT 240V300 10SM BKN055 BKN075 24/12 A2995 1000 46 2300 270/08 240V300 RMK AO2
14926KSTC STC20120621180511706/21/12 18:05:31  5-MIN KSTC 220005Z 28010G14KT 10SM SCT055 BKN070 BKN100 24/12 A2995 1000 46 2300 280/10G14 RMK AO2
14926KSTC STC20120621181011706/21/12 18:10:31  5-MIN KSTC 220010Z 30013G17KT 10SM BKN055 BKN070 BKN100 24/11 A2995 1000 42 2400 290/13G17 RMK AO2
14926KSTC STC20120621181510306/21/12 18:15:31  5-MIN KSTC 220015Z 29012G17KT 10SM BKN055 24/11 A2995 1000 42 2400 290/12G17 RMK AO2
14926KSTC STC20120621182009606/21/12 18:20:31  5-MIN KSTC 220020Z 28007KT 10SM SCT055 24/11 A2995 990 44 2300 280/07 RMK AO2
14926KSTC STC20120621182509606/21/12 18:25:31  5-MIN KSTC 220025Z 29010KT 10SM SCT060 24/12 A2995 990 46 2300 290/10 RMK AO2
14926KSTC STC20120621183009706/21/12 18:30:31  5-MIN KSTC 220030Z 28008KT 10SM SCT055 24/12 A2995 1000 46 2300 280/08 RMK AO2
14926KSTC STC20120621183509606/21/12 18:35:31  5-MIN KSTC 220035Z 28011KT 10SM BKN055 24/12 A2996 990 46 2300 280/11 RMK AO2
14926KSTC STC20120621184009606/21/12 18:40:31  5-MIN KSTC 220040Z 28009KT 10SM SCT055 23/12 A2996 990 47 2200 280/09 RMK AO2
14926KSTC STC20120621184509606/21/12 18:45:31  5-MIN KSTC 220045Z 28008KT 10SM SCT055 23/12 A2996 990 47 2200 280/08 RMK AO2
14926KSTC STC20120621185011306/21/12 18:50:31  5-MIN KSTC 220050Z 27008KT 10SM FEW055 23/12 A2996 990 47 2200 270/08 RMK AO2 SLP149 T02330117
14926KSTC STC20120621185509606/21/12 18:55:31  5-MIN KSTC 220055Z 27007KT 10SM FEW055 23/12 A2996 990 49 2200 270/07 RMK AO2
14926KSTC STC20120621190009606/21/12 19:00:31  5-MIN KSTC 220100Z 27005KT 10SM FEW055 23/13 A2996 990 53 2200 270/05 RMK AO2
14926KSTC STC20120621190509606/21/12 19:05:31  5-MIN KSTC 220105Z 26005KT 10SM FEW055 23/13 A2996 990 53 2200 260/05 RMK AO2
14926KSTC STC20120621191009306/21/12 19:10:31  5-MIN KSTC 220110Z 27005KT 10SM CLR 23/13 A2995 990 53 2200 260/05 RMK AO2
14926KSTC STC20120621191509306/21/12 19:15:31  5-MIN KSTC 220115Z 25006KT 10SM CLR 22/13 A2996 990 54 2100 250/06 RMK AO2
14926KSTC STC20120621192009306/21/12 19:20:31  5-MIN KSTC 220120Z 26004KT 10SM CLR 22/13 A2996 990 54 2100 260/04 RMK AO2
14926KSTC STC20120621192509306/21/12 19:25:31  5-MIN KSTC 220125Z 26004KT 10SM CLR 22/13 A2996 990 58 2000 260/04 RMK AO2
14926KSTC STC20120621193009306/21/12 19:30:31  5-MIN KSTC 220130Z 27004KT 10SM CLR 22/13 A2996 990 58 2000 270/04 RMK AO2
14926KSTC STC20120621193509306/21/12 19:35:31  5-MIN KSTC 220135Z 27004KT 10SM CLR 22/13 A2996 990 58 2000 260/04 RMK AO2
14926KSTC STC20120621194009306/21/12 19:40:31  5-MIN KSTC 220140Z 27004KT 10SM CLR 21/14 A2996 990 63 2000 270/04 RMK AO2
14926KSTC STC20120621194509306/21/12 19:45:31  5-MIN KSTC 220145Z 25004KT 10SM CLR 21/14 A2996 990 65 1900 250/04 RMK AO2
14926KSTC STC20120621195011006/21/12 19:50:31  5-MIN KSTC 220150Z 25003KT 10SM CLR 21/14 A2996 990 65 1900 250/03 RMK AO2 SLP151 T02060139
14926KSTC STC20120621195509306/21/12 19:55:31  5-MIN KSTC 220155Z 25004KT 10SM CLR 20/14 A2996 990 67 1800 250/04 RMK AO2
14926KSTC STC20120621200009306/21/12 20:00:31  5-MIN KSTC 220200Z 25003KT 10SM CLR 20/14 A2996 990 67 1800 240/03 RMK AO2
14926KSTC STC20120621200509306/21/12 20:05:31  5-MIN KSTC 220205Z 25003KT 10SM CLR 20/14 A2996 990 67 1800 240/03 RMK AO2
14926KSTC STC20120621201009306/21/12 20:10:31  5-MIN KSTC 220210Z 25003KT 10SM CLR 21/14 A2996 990 65 1900 240/03 RMK AO2
14926KSTC STC20120621201509306/21/12 20:15:31  5-MIN KSTC 220215Z 25003KT 10SM CLR 20/14 A2996 990 67 1800 250/03 RMK AO2
14926KSTC STC20120621202009306/21/12 20:20:31  5-MIN KSTC 220220Z 25003KT 10SM CLR 19/14 A2996 990 72 1800 250/03 RMK AO2
14926KSTC STC20120621202509306/21/12 20:25:31  5-MIN KSTC 220225Z 24003KT 10SM CLR 19/14 A2997 980 72 1800 240/03 RMK AO2
14926KSTC STC20120621203009306/21/12 20:30:31  5-MIN KSTC 220230Z 24004KT 10SM CLR 19/14 A2997 980 70 1800 240/04 RMK AO2
14926KSTC STC20120621203509306/21/12 20:35:31  5-MIN KSTC 220235Z 24004KT 10SM CLR 19/14 A2997 980 72 1700 240/04 RMK AO2
14926KSTC STC20120621204009306/21/12 20:40:31  5-MIN KSTC 220240Z 24003KT 10SM CLR 19/14 A2997 980 72 1700 240/03 RMK AO2
14926KSTC STC20120621204509306/21/12 20:45:31  5-MIN KSTC 220245Z 24003KT 10SM CLR 18/14 A2997 980 78 1600 240/03 RMK AO2
14926KSTC STC20120621205011606/21/12 20:50:31  5-MIN KSTC 220250Z 24003KT 10SM CLR 19/14 A2997 980 72 1700 240/03 RMK AO2 SLP155 T01890139 56007
14926KSTC STC20120621205509306/21/12 20:55:31  5-MIN KSTC 220255Z 24003KT 10SM CLR 19/14 A2997 980 70 1800 240/03 RMK AO2
14926KSTC STC20120621210009306/21/12 21:00:31  5-MIN KSTC 220300Z 23003KT 10SM CLR 18/14 A2997 980 81 1600 230/03 RMK AO2
14926KSTC STC20120621210509306/21/12 21:05:31  5-MIN KSTC 220305Z 23003KT 10SM CLR 17/14 A2997 980 83 1500 220/03 RMK AO2
14926KSTC STC20120621211009306/21/12 21:10:31  5-MIN KSTC 220310Z 00000KT 10SM CLR 17/14 A2998 980 83 1500 000/00 RMK AO2
14926KSTC STC20120621211509306/21/12 21:15:31  5-MIN KSTC 220315Z 23003KT 10SM CLR 17/14 A2998 970 83 1500 230/03 RMK AO2
14926KSTC STC20120621212009306/21/12 21:20:31  5-MIN KSTC 220320Z 00000KT 10SM CLR 17/14 A2998 970 83 1500 000/00 RMK AO2
14926KSTC STC20120621212509306/21/12 21:25:31  5-MIN KSTC 220325Z 00000KT 10SM CLR 17/14 A2998 970 83 1500 000/00 RMK AO2
14926KSTC STC20120621213009306/21/12 21:30:31  5-MIN KSTC 220330Z 00000KT 10SM CLR 17/14 A2998 970 83 1500 000/00 RMK AO2
14926KSTC STC20120621213509306/21/12 21:35:31  5-MIN KSTC 220335Z 00000KT 10SM CLR 17/14 A2998 970 83 1500 000/00 RMK AO2
14926KSTC STC20120621214009306/21/12 21:40:31  5-MIN KSTC 220340Z 00000KT 10SM CLR 17/14 A2998 970 86 1400 000/00 RMK AO2
14926KSTC STC20120621214509306/21/12 21:45:31  5-MIN KSTC 220345Z 23003KT 10SM CLR 17/14 A2998 970 83 1400 230/03 RMK AO2
14926KSTC STC20120621215011506/21/12 21:50:31  5-MIN KSTC 220350Z AUTO 23004KT 10SM CLR 17/14 A2998 970 83 1400 230/04 RMK AO2 SLP158 T01670139
14926KSTC STC20120621215509806/21/12 21:55:31  5-MIN KSTC 220355Z AUTO 23004KT 10SM CLR 17/14 A2998 970 83 1400 230/04 RMK AO2
14926KSTC STC20120621220009806/21/12 22:00:31  5-MIN KSTC 220400Z AUTO 24004KT 10SM CLR 17/14 A2998 970 83 1400 240/04 RMK AO2
14926KSTC STC20120621220509806/21/12 22:05:31  5-MIN KSTC 220405Z AUTO 24003KT 10SM CLR 16/14 A2998 970 86 1400 240/03 RMK AO2
14926KSTC STC20120621221009806/21/12 22:10:31  5-MIN KSTC 220410Z AUTO 24003KT 10SM CLR 16/14 A2998 970 86 1400 240/03 RMK AO2
14926KSTC STC20120621221509806/21/12 22:15:31  5-MIN KSTC 220415Z AUTO 24003KT 10SM CLR 16/14 A2998 970 86 1400 240/03 RMK AO2
14926KSTC STC20120621222009806/21/12 22:20:31  5-MIN KSTC 220420Z AUTO 23003KT 10SM CLR 16/14 A2998 970 86 1400 230/03 RMK AO2
14926KSTC STC20120621222509806/21/12 22:25:31  5-MIN KSTC 220425Z AUTO 24003KT 10SM CLR 16/14 A2998 970 86 1400 240/03 RMK AO2
14926KSTC STC20120621223009806/21/12 22:30:31  5-MIN KSTC 220430Z AUTO 23003KT 10SM CLR 16/14 A2998 970 90 1300 230/03 RMK AO2
14926KSTC STC20120621223509806/21/12 22:35:31  5-MIN KSTC 220435Z AUTO 00000KT 10SM CLR 16/13 A2998 970 86 1300 000/00 RMK AO2
14926KSTC STC20120621224009806/21/12 22:40:31  5-MIN KSTC 220440Z AUTO 00000KT 10SM CLR 16/13 A2998 970 86 1300 000/00 RMK AO2
14926KSTC STC20120621224509806/21/12 22:45:31  5-MIN KSTC 220445Z AUTO 00000KT 10SM CLR 15/13 A2998 970 90 1200 000/00 RMK AO2
14926KSTC STC20120621225011506/21/12 22:50:31  5-MIN KSTC 220450Z AUTO 25003KT 10SM CLR 15/13 A2998 970 90 1200 240/03 RMK AO2 SLP158 T01500133
14926KSTC STC20120621225509806/21/12 22:55:31  5-MIN KSTC 220455Z AUTO 24004KT 10SM CLR 16/13 A2998 970 86 1300 240/04 RMK AO2
14926KSTC STC20120621230009806/21/12 23:00:31  5-MIN KSTC 220500Z AUTO 25005KT 10SM CLR 16/13 A2998 970 86 1300 250/05 RMK AO2
14926KSTC STC20120621230509806/21/12 23:05:31  5-MIN KSTC 220505Z AUTO 25004KT 10SM CLR 16/13 A2998 970 86 1300 250/04 RMK AO2
14926KSTC STC20120621231009806/21/12 23:10:31  5-MIN KSTC 220510Z AUTO 26003KT 10SM CLR 16/13 A2998 970 86 1300 260/03 RMK AO2
14926KSTC STC20120621231509806/21/12 23:15:31  5-MIN KSTC 220515Z AUTO 00000KT 10SM CLR 15/13 A2998 970 86 1200 000/00 RMK AO2
14926KSTC STC20120621232009806/21/12 23:20:31  5-MIN KSTC 220520Z AUTO 25003KT 10SM CLR 15/13 A2998 970 86 1200 250/03 RMK AO2
14926KSTC STC20120621232509806/21/12 23:25:31  5-MIN KSTC 220525Z AUTO 00000KT 10SM CLR 16/13 A2998 970 83 1300 000/00 RMK AO2
14926KSTC STC20120621233009806/21/12 23:30:31  5-MIN KSTC 220530Z AUTO 00000KT 10SM CLR 15/13 A2998 970 86 1200 000/00 RMK AO2
14926KSTC STC20120621233509806/21/12 23:35:31  5-MIN KSTC 220535Z AUTO 00000KT 10SM CLR 15/13 A2999 970 86 1200 000/00 RMK AO2
14926KSTC STC20120621234009806/21/12 23:40:31  5-MIN KSTC 220540Z AUTO 35006KT 10SM CLR 15/13 A2999 960 86 1200 350/06 RMK AO2
14926KSTC STC20120621234509806/21/12 23:45:31  5-MIN KSTC 220545Z AUTO 35007KT 10SM CLR 17/13 A2999 960 77 1400 350/07 RMK AO2
14926KSTC STC20120621235014306/21/12 23:50:31  5-MIN KSTC 220550Z AUTO 35004KT 10SM CLR 17/13 A2999 960 77 1400 350/04 RMK AO2 SLP161 T01670128 10244 20150 402560144 53007
14926KSTC STC20120621235510106/21/12 23:55:31  5-MIN KSTC 220555Z AUTO 35004KT 10SM FEW070 17/13 A3000 960 77 1400 350/04 RMK AO2
14926KSTC STC20120622000010806/22/12 00:00:32  5-MIN KSTC 220600Z AUTO 00000KT 10SM FEW070 SCT100 17/13 A2999 960 77 1400 000/00 RMK AO2
14926KSTC STC20120622000510806/22/12 00:05:31  5-MIN KSTC 220605Z AUTO 03003KT 10SM FEW070 SCT095 17/13 A2999 960 77 1400 020/03 RMK AO2
14926KSTC STC20120622001010806/22/12 00:10:31  5-MIN KSTC 220610Z AUTO 00000KT 10SM FEW070 BKN095 17/13 A2999 960 77 1400 000/00 RMK AO2
14926KSTC STC20120622001510806/22/12 00:15:31  5-MIN KSTC 220615Z AUTO 00000KT 10SM SCT065 BKN095 16/13 A2999 960 80 1400 000/00 RMK AO2
14926KSTC STC20120622002010806/22/12 00:20:31  5-MIN KSTC 220620Z AUTO 00000KT 10SM SCT065 BKN095 16/13 A2999 960 83 1400 000/00 RMK AO2
14926KSTC STC20120622002510806/22/12 00:25:31  5-MIN KSTC 220625Z AUTO 00000KT 10SM FEW065 BKN090 16/13 A2999 960 86 1300 000/00 RMK AO2
14926KSTC STC20120622003010806/22/12 00:30:31  5-MIN KSTC 220630Z AUTO 00000KT 10SM FEW065 SCT090 15/13 A2999 960 90 1200 000/00 RMK AO2
14926KSTC STC20120622003510806/22/12 00:35:31  5-MIN KSTC 220635Z AUTO 00000KT 10SM FEW065 SCT090 15/13 A2999 960 86 1200 000/00 RMK AO2
14926KSTC STC20120622004010106/22/12 00:40:31  5-MIN KSTC 220640Z AUTO 00000KT 10SM FEW065 15/13 A2999 960 86 1200 000/00 RMK AO2
14926KSTC STC20120622004509806/22/12 00:45:31  5-MIN KSTC 220645Z AUTO 00000KT 10SM CLR 14/13 A2999 960 90 1200 000/00 RMK AO2
14926KSTC STC20120622005011506/22/12 00:50:31  5-MIN KSTC 220650Z AUTO 13003KT 10SM CLR 14/13 A2999 960 90 1200 120/03 RMK AO2 SLP161 T01440128
14926KSTC STC20120622005509806/22/12 00:55:31  5-MIN KSTC 220655Z AUTO 00000KT 10SM CLR 14/12 A2999 960 90 1100 000/00 RMK AO2
14926KSTC STC20120622010009806/22/12 01:00:31  5-MIN KSTC 220700Z AUTO 00000KT 10SM CLR 15/13 A2999 960 86 1200 000/00 RMK AO2
14926KSTC STC20120622010509806/22/12 01:05:31  5-MIN KSTC 220705Z AUTO 00000KT 10SM CLR 14/13 A2999 960 90 1200 000/00 RMK AO2
14926KSTC STC20120622011009806/22/12 01:10:31  5-MIN KSTC 220710Z AUTO 00000KT 10SM CLR 14/12 A2999 960 90 1100 000/00 RMK AO2
14926KSTC STC20120622011509806/22/12 01:15:31  5-MIN KSTC 220715Z AUTO 00000KT 10SM CLR 14/12 A2999 960 90 1100 000/00 RMK AO2
14926KSTC STC20120622012009806/22/12 01:20:31  5-MIN KSTC 220720Z AUTO 00000KT 10SM CLR 14/12 A2999 960 90 1100 000/00 RMK AO2
14926KSTC STC20120622012509806/22/12 01:25:31  5-MIN KSTC 220725Z AUTO 20003KT 10SM CLR 14/12 A2999 960 90 1100 200/03 RMK AO2
14926KSTC STC20120622013009806/22/12 01:30:31  5-MIN KSTC 220730Z AUTO 00000KT 10SM CLR 14/12 A2999 960 90 1100 000/00 RMK AO2
14926KSTC STC20120622013509806/22/12 01:35:31  5-MIN KSTC 220735Z AUTO 00000KT 10SM CLR 13/12 A2999 960 93 1000 000/00 RMK AO2
14926KSTC STC20120622014009806/22/12 01:40:31  5-MIN KSTC 220740Z AUTO 00000KT 10SM CLR 13/12 A2999 960 93 1000 000/00 RMK AO2
14926KSTC STC20120622014509806/22/12 01:45:31  5-MIN KSTC 220745Z AUTO 00000KT 10SM CLR 13/12 A2999 960 93 1000 000/00 RMK AO2
14926KSTC STC20120622015011506/22/12 01:50:31  5-MIN KSTC 220750Z AUTO 00000KT 10SM CLR 14/12 A2999 960 90 1100 000/00 RMK AO2 SLP161 T01390122
14926KSTC STC20120622015509806/22/12 01:55:31  5-MIN KSTC 220755Z AUTO 00000KT 10SM CLR 14/12 A2999 960 90 1100 000/00 RMK AO2
14926KSTC STC20120622020009806/22/12 02:00:31  5-MIN KSTC 220800Z AUTO 00000KT 10SM CLR 14/12 A2999 960 90 1100 000/00 RMK AO2
14926KSTC STC20120622020509806/22/12 02:05:31  5-MIN KSTC 220805Z AUTO 00000KT 10SM CLR 14/12 A2999 970 90 1100 000/00 RMK AO2
14926KSTC STC20120622021009806/22/12 02:10:31  5-MIN KSTC 220810Z AUTO 00000KT 10SM CLR 13/12 A2999 960 93 1000 000/00 RMK AO2
14926KSTC STC20120622021509806/22/12 02:15:31  5-MIN KSTC 220815Z AUTO 00000KT 10SM CLR 13/12 A2999 960 89 1000 000/00 RMK AO2
14926KSTC STC20120622022009806/22/12 02:20:31  5-MIN KSTC 220820Z AUTO 00000KT 10SM CLR 13/12 A2999 960 93 1000 000/00 RMK AO2
14926KSTC STC20120622022509806/22/12 02:25:31  5-MIN KSTC 220825Z AUTO 00000KT 10SM CLR 13/12 A2999 960 93 1000 000/00 RMK AO2
14926KSTC STC20120622023009706/22/12 02:30:31  5-MIN KSTC 220830Z AUTO 00000KT 10SM CLR 12/12 A2999 960 96 900 000/00 RMK AO2
14926KSTC STC20120622023509606/22/12 02:35:31  5-MIN KSTC 220835Z AUTO 00000KT 8SM CLR 12/11 A2999 970 93 900 000/00 RMK AO2
14926KSTC STC20120622024009606/22/12 02:40:31  5-MIN KSTC 220840Z AUTO 00000KT 7SM CLR 12/12 A2999 970 96 900 000/00 RMK AO2
14926KSTC STC20120622024509606/22/12 02:45:31  5-MIN KSTC 220845Z AUTO 00000KT 8SM CLR 12/12 A2999 970 96 900 000/00 RMK AO2
14926KSTC STC20120622025011906/22/12 02:50:31  5-MIN KSTC 220850Z AUTO 00000KT 9SM CLR 12/12 A2999 960 96 900 000/00 RMK AO2 SLP161 T01220117 53007
14926KSTC STC20120622025509806/22/12 02:55:31  5-MIN KSTC 220855Z AUTO 00000KT 10SM CLR 13/12 A2999 960 93 1000 000/00 RMK AO2
14926KSTC STC20120622030009606/22/12 03:00:31  5-MIN KSTC 220900Z AUTO 00000KT 9SM CLR 12/12 A2999 960 96 900 000/00 RMK AO2
14926KSTC STC20120622030509606/22/12 03:05:31  5-MIN KSTC 220905Z AUTO 00000KT 9SM CLR 12/12 A2999 960 96 900 000/00 RMK AO2
14926KSTC STC20120622031009606/22/12 03:10:31  5-MIN KSTC 220910Z AUTO 01003KT 8SM CLR 12/11 A2999 960 96 800 010/03 RMK AO2
14926KSTC STC20120622031509606/22/12 03:15:31  5-MIN KSTC 220915Z AUTO 00000KT 8SM CLR 12/11 A2999 960 96 800 000/00 RMK AO2
14926KSTC STC20120622032009606/22/12 03:20:31  5-MIN KSTC 220920Z AUTO 00000KT 8SM CLR 12/11 A2999 960 96 800 000/00 RMK AO2
14926KSTC STC20120622032509606/22/12 03:25:31  5-MIN KSTC 220925Z AUTO 00000KT 8SM CLR 12/11 A2999 960 96 800 000/00 RMK AO2
14926KSTC STC20120622033009606/22/12 03:30:31  5-MIN KSTC 220930Z AUTO 00000KT 7SM CLR 12/11 A2999 960 96 800 000/00 RMK AO2
14926KSTC STC20120622033509906/22/12 03:35:31  5-MIN KSTC 220935Z AUTO 00000KT 6SM BR CLR 12/11 A2999 960 93 800 000/00 RMK AO2
14926KSTC STC20120622034009906/22/12 03:40:31  5-MIN KSTC 220940Z AUTO 00000KT 5SM BR CLR 12/11 A2999 960 93 900 000/00 RMK AO2
14926KSTC STC20120622034509906/22/12 03:45:31  5-MIN KSTC 220945Z AUTO 00000KT 5SM BR CLR 12/11 A2999 960 93 900 000/00 RMK AO2
14926KSTC STC20120622035011306/22/12 03:50:31  5-MIN KSTC 220950Z AUTO 00000KT 8SM CLR 12/11 A2999 960 93 900 000/00 RMK AO2 SLP161 T01220111
14926KSTC STC20120622035509906/22/12 03:55:31  5-MIN KSTC 220955Z AUTO 00000KT 6SM BR CLR 12/11 A2999 960 96 800 000/00 RMK AO2
14926KSTC STC20120622040009906/22/12 04:00:31  5-MIN KSTC 221000Z AUTO 00000KT 6SM BR CLR 12/11 A2999 960 93 900 000/00 RMK AO2
14926KSTC STC20120622040509606/22/12 04:05:31  5-MIN KSTC 221005Z AUTO 00000KT 7SM CLR 12/11 A2999 960 93 900 000/00 RMK AO2
14926KSTC STC20120622041009606/22/12 04:10:31  5-MIN KSTC 221010Z AUTO 00000KT 7SM CLR 12/11 A2999 960 93 800 000/00 RMK AO2
14926KSTC STC20120622041509906/22/12 04:15:31  5-MIN KSTC 221015Z AUTO 00000KT 5SM BR CLR 11/11 A3000 960 96 800 000/00 RMK AO2
14926KSTC STC20120622042009906/22/12 04:20:31  5-MIN KSTC 221020Z AUTO 00000KT 6SM BR CLR 12/11 A3000 950 93 800 000/00 RMK AO2
14926KSTC STC20120622042509906/22/12 04:25:31  5-MIN KSTC 221025Z AUTO 35003KT 5SM BR CLR 11/11 A3000 950 96 800 350/03 RMK AO2
14926KSTC STC20120622043009906/22/12 04:30:31  5-MIN KSTC 221030Z AUTO 00000KT 4SM BR CLR 12/11 A3000 950 93 800 000/00 RMK AO2
14926KSTC STC20120622043509906/22/12 04:35:31  5-MIN KSTC 221035Z AUTO 00000KT 5SM BR CLR 11/11 A3000 950 96 800 000/00 RMK AO2
14926KSTC STC20120622044009906/22/12 04:40:31  5-MIN KSTC 221040Z AUTO 00000KT 5SM BR CLR 11/11 A3000 950 96 800 000/00 RMK AO2
14926KSTC STC20120622044509906/22/12 04:45:31  5-MIN KSTC 221045Z AUTO 00000KT 6SM BR CLR 12/11 A3000 950 93 800 000/00 RMK AO2
14926KSTC STC20120622045011306/22/12 04:50:31  5-MIN KSTC 221050Z AUTO 00000KT 9SM CLR 12/11 A3000 950 93 900 000/00 RMK AO2 SLP167 T01220111
14926KSTC STC20120622045509706/22/12 04:55:31  5-MIN KSTC 221055Z AUTO 00000KT 10SM CLR 12/11 A3000 950 93 900 000/00 RMK AO2
14926KSTC STC20120622050009706/22/12 05:00:31  5-MIN KSTC 221100Z AUTO 00000KT 10SM CLR 12/11 A3000 950 93 900 000/00 RMK AO2
14926KSTC STC20120622050509706/22/12 05:05:31  5-MIN KSTC 221105Z AUTO 00000KT 10SM CLR 13/11 A3001 950 89 900 000/00 RMK AO2
14926KSTC STC20120622051009706/22/12 05:10:31  5-MIN KSTC 221110Z AUTO 00000KT 10SM CLR 13/12 A3001 950 93 900 000/00 RMK AO2
14926KSTC STC20120622051509706/22/12 05:15:31  5-MIN KSTC 221115Z AUTO 00000KT 10SM CLR 13/12 A3000 950 93 900 000/00 RMK AO2
14926KSTC STC20120622052009806/22/12 05:20:31  5-MIN KSTC 221120Z AUTO 00000KT 10SM CLR 13/12 A3000 950 89 1000 000/00 RMK AO2
14926KSTC STC20120622052509806/22/12 05:25:31  5-MIN KSTC 221125Z AUTO 00000KT 10SM CLR 13/12 A3001 950 89 1000 000/00 RMK AO2
14926KSTC STC20120622053009806/22/12 05:30:31  5-MIN KSTC 221130Z AUTO 00000KT 10SM CLR 14/12 A3001 950 90 1100 000/00 RMK AO2
14926KSTC STC20120622053509806/22/12 05:35:31  5-MIN KSTC 221135Z AUTO 00000KT 10SM CLR 14/12 A3001 950 90 1100 000/00 RMK AO2
14926KSTC STC20120622054009806/22/12 05:40:31  5-MIN KSTC 221140Z AUTO 00000KT 10SM CLR 14/12 A3001 940 86 1100 000/00 RMK AO2
14926KSTC STC20120622054509706/22/12 05:45:31  5-MIN KSTC 221145Z AUTO 00000KT 9SM CLR 15/13 A3001 940 86 1200 000/00 RMK AO2
14926KSTC STC20120622055013206/22/12 05:50:31  5-MIN KSTC 221150Z AUTO 00000KT 9SM CLR 14/13 A3001 940 93 1100 000/00 RMK AO2 SLP170 T01440133 10167 20111 56002
14926KSTC STC20120622055509806/22/12 05:55:31  5-MIN KSTC 221155Z AUTO 00000KT 10SM CLR 15/14 A3002 940 93 1200 000/00 RMK AO2
14926KSTC STC20120622060009306/22/12 06:00:31  5-MIN KSTC 221200Z 00000KT 10SM CLR 16/13 A3002 930 86 1300 000/00 RMK AO2
14926KSTC STC20120622060509306/22/12 06:05:31  5-MIN KSTC 221205Z 00000KT 10SM CLR 16/14 A3002 930 90 1300 000/00 RMK AO2
14926KSTC STC20120622061009306/22/12 06:10:31  5-MIN KSTC 221210Z 27003KT 10SM CLR 16/14 A3002 930 86 1300 270/03 RMK AO2
14926KSTC STC20120622061509306/22/12 06:15:31  5-MIN KSTC 221215Z 00000KT 10SM CLR 16/14 A3003 930 86 1300 000/00 RMK AO2
14926KSTC STC20120622062009306/22/12 06:20:31  5-MIN KSTC 221220Z 30003KT 10SM CLR 17/14 A3003 930 86 1400 300/03 RMK AO2
14926KSTC STC20120622062509306/22/12 06:25:31  5-MIN KSTC 221225Z 31003KT 10SM CLR 17/14 A3003 930 83 1400 310/03 RMK AO2
14926KSTC STC20120622063009306/22/12 06:30:31  5-MIN KSTC 221230Z 32005KT 10SM CLR 17/14 A3003 930 83 1400 310/05 RMK AO2
14926KSTC STC20120622063509306/22/12 06:35:31  5-MIN KSTC 221235Z 32005KT 10SM CLR 17/14 A3003 930 83 1400 310/05 RMK AO2
14926KSTC STC20120622064009306/22/12 06:40:31  5-MIN KSTC 221240Z 31007KT 10SM CLR 17/14 A3003 930 83 1400 310/07 RMK AO2
14926KSTC STC20120622064509306/22/12 06:45:31  5-MIN KSTC 221245Z 31005KT 10SM CLR 18/14 A3003 930 81 1500 310/05 RMK AO2
14926KSTC STC20120622065011006/22/12 06:50:31  5-MIN KSTC 221250Z 32006KT 10SM CLR 18/14 A3003 930 78 1500 320/06 RMK AO2 SLP172 T01780139
14926KSTC STC20120622065509306/22/12 06:55:31  5-MIN KSTC 221255Z 32005KT 10SM CLR 18/14 A3003 930 78 1500 320/05 RMK AO2
14926KSTC STC20120622070009306/22/12 07:00:31  5-MIN KSTC 221300Z 32006KT 10SM CLR 18/14 A3003 930 75 1600 320/06 RMK AO2
14926KSTC STC20120622070509306/22/12 07:05:31  5-MIN KSTC 221305Z 32006KT 10SM CLR 18/13 A3003 930 72 1600 320/06 RMK AO2
14926KSTC STC20120622071009306/22/12 07:10:31  5-MIN KSTC 221310Z 32006KT 10SM CLR 18/13 A3003 920 72 1600 320/06 RMK AO2
14926KSTC STC20120622071509306/22/12 07:15:31  5-MIN KSTC 221315Z 32008KT 10SM CLR 18/13 A3003 920 72 1600 320/08 RMK AO2
14926KSTC STC20120622072009306/22/12 07:20:31  5-MIN KSTC 221320Z 33006KT 10SM CLR 18/13 A3003 920 70 1600 330/06 RMK AO2
14926KSTC STC20120622072509306/22/12 07:25:31  5-MIN KSTC 221325Z 32007KT 10SM CLR 19/13 A3003 920 70 1600 320/07 RMK AO2
14926KSTC STC20120622073009306/22/12 07:30:31  5-MIN KSTC 221330Z 32006KT 10SM CLR 19/13 A3004 920 70 1600 320/06 RMK AO2
14926KSTC STC20120622073509306/22/12 07:35:31  5-MIN KSTC 221335Z 32005KT 10SM CLR 19/13 A3004 920 67 1700 320/05 RMK AO2
14926KSTC STC20120622074009306/22/12 07:40:31  5-MIN KSTC 221340Z 32005KT 10SM CLR 19/13 A3004 920 67 1700 320/05 RMK AO2
14926KSTC STC20120622074509306/22/12 07:45:31  5-MIN KSTC 221345Z 32007KT 10SM CLR 19/13 A3004 920 65 1700 310/07 RMK AO2
14926KSTC STC20120622075011006/22/12 07:50:31  5-MIN KSTC 221350Z 32007KT 10SM CLR 20/13 A3004 920 63 1800 320/07 RMK AO2 SLP177 T02000128
14926KSTC STC20120622075509306/22/12 07:55:31  5-MIN KSTC 221355Z 33006KT 10SM CLR 20/13 A3004 920 63 1800 330/06 RMK AO2
14926KSTC STC20120622080009306/22/12 08:00:31  5-MIN KSTC 221400Z 32005KT 10SM CLR 21/13 A3004 920 60 1800 320/05 RMK AO2
14926KSTC STC20120622080509306/22/12 08:05:31  5-MIN KSTC 221405Z 33005KT 10SM CLR 21/13 A3004 920 60 1800 330/05 RMK AO2
14926KSTC STC20120622081009306/22/12 08:10:31  5-MIN KSTC 221410Z 31006KT 10SM CLR 21/13 A3004 920 60 1800 310/06 RMK AO2
14926KSTC STC20120622081509306/22/12 08:15:31  5-MIN KSTC 221415Z 30005KT 10SM CLR 21/13 A3004 920 60 1800 290/05 RMK AO2
14926KSTC STC20120622082009306/22/12 08:20:31  5-MIN KSTC 221420Z 30006KT 10SM CLR 21/13 A3004 920 58 1900 300/06 RMK AO2
14926KSTC STC20120622082509306/22/12 08:25:31  5-MIN KSTC 221425Z 32008KT 10SM CLR 21/12 A3004 910 56 1900 320/08 RMK AO2
14926KSTC STC20120622083009306/22/12 08:30:31  5-MIN KSTC 221430Z 32004KT 10SM CLR 21/12 A3004 910 56 1900 320/04 RMK AO2
14926KSTC STC20120622083509306/22/12 08:35:31  5-MIN KSTC 221435Z 30006KT 10SM CLR 22/12 A3004 910 54 1900 300/06 RMK AO2
14926KSTC STC20120622084009306/22/12 08:40:31  5-MIN KSTC 221440Z 32006KT 10SM CLR 22/12 A3004 910 52 1900 320/06 RMK AO2
14926KSTC STC20120622084509306/22/12 08:45:31  5-MIN KSTC 221445Z 31005KT 10SM CLR 22/12 A3004 920 54 1900 310/05 RMK AO2
14926KSTC STC20120622085011606/22/12 08:50:31  5-MIN KSTC 221450Z 33004KT 10SM CLR 22/12 A3004 920 54 1900 330/04 RMK AO2 SLP176 T02170122 53009
14926KSTC STC20120622085509306/22/12 08:55:31  5-MIN KSTC 221455Z 33006KT 10SM CLR 22/13 A3004 920 54 2000 330/06 RMK AO2
14926KSTC STC20120622090009306/22/12 09:00:31  5-MIN KSTC 221500Z 33005KT 10SM CLR 22/12 A3004 920 52 2000 330/05 RMK AO2
14926KSTC STC20120622090509306/22/12 09:05:31  5-MIN KSTC 221505Z 31004KT 10SM CLR 22/12 A3004 920 52 2000 310/04 RMK AO2
14926KSTC STC20120622091009306/22/12 09:10:31  5-MIN KSTC 221510Z 33006KT 10SM CLR 23/12 A3004 920 51 2100 320/06 RMK AO2
14926KSTC STC20120622091509906/22/12 09:15:31  5-MIN KSTC 221515Z 31009G14KT 10SM CLR 23/12 A3004 920 51 2100 310/09G14 RMK AO2
14926KSTC STC20120622092009906/22/12 09:20:31  5-MIN KSTC 221520Z 32008G14KT 10SM CLR 23/12 A3004 920 49 2100 320/08G14 RMK AO2
14926KSTC STC20120622092509306/22/12 09:25:31  5-MIN KSTC 221525Z 32008KT 10SM CLR 23/12 A3004 920 49 2100 320/08 RMK AO2
14926KSTC STC20120622093009306/22/12 09:30:31  5-MIN KSTC 221530Z 31007KT 10SM CLR 23/12 A3004 910 49 2100 310/07 RMK AO2
14926KSTC STC20120622093509306/22/12 09:35:31  5-MIN KSTC 221535Z 34007KT 10SM CLR 23/12 A3004 910 51 2100 340/07 RMK AO2
14926KSTC STC20120622094009306/22/12 09:40:31  5-MIN KSTC 221540Z 34006KT 10SM CLR 23/12 A3004 910 51 2100 340/06 RMK AO2
14926KSTC STC20120622094509306/22/12 09:45:31  5-MIN KSTC 221545Z 33007KT 10SM CLR 23/12 A3004 910 51 2100 330/07 RMK AO2
14926KSTC STC20120622095011006/22/12 09:50:31  5-MIN KSTC 221550Z 30007KT 10SM CLR 23/12 A3004 910 49 2100 300/07 RMK AO2 SLP178 T02280117
14926KSTC STC20120622095509306/22/12 09:55:31  5-MIN KSTC 221555Z 30006KT 10SM CLR 23/12 A3004 910 49 2100 300/06 RMK AO2
14926KSTC STC20120622100009306/22/12 10:00:31  5-MIN KSTC 221600Z 34008KT 10SM CLR 23/12 A3004 920 49 2100 340/08 RMK AO2
14926KSTC STC20120622100509306/22/12 10:05:31  5-MIN KSTC 221605Z 34005KT 10SM CLR 23/12 A3004 920 49 2100 340/05 RMK AO2
14926KSTC STC20120622101009306/22/12 10:10:31  5-MIN KSTC 221610Z 34004KT 10SM CLR 23/12 A3004 920 47 2100 340/04 RMK AO2
14926KSTC STC20120622101509306/22/12 10:15:31  5-MIN KSTC 221615Z 31006KT 10SM CLR 23/12 A3004 920 47 2100 310/06 RMK AO2
14926KSTC STC20120622102009306/22/12 10:20:31  5-MIN KSTC 221620Z 34006KT 10SM CLR 23/12 A3004 920 47 2100 340/06 RMK AO2
14926KSTC STC20120622102509306/22/12 10:25:31  5-MIN KSTC 221625Z 30007KT 10SM CLR 23/12 A3004 920 47 2100 290/07 RMK AO2
14926KSTC STC20120622103009306/22/12 10:30:31  5-MIN KSTC 221630Z 33008KT 10SM CLR 23/12 A3004 920 47 2100 330/08 RMK AO2
14926KSTC STC20120622103509306/22/12 10:35:31  5-MIN KSTC 221635Z 33006KT 10SM CLR 23/11 A3004 920 45 2100 330/06 RMK AO2
14926KSTC STC20120622104009306/22/12 10:40:31  5-MIN KSTC 221640Z 31007KT 10SM CLR 24/12 A3004 920 46 2200 310/07 RMK AO2
14926KSTC STC20120622104509306/22/12 10:45:31  5-MIN KSTC 221645Z 31007KT 10SM CLR 24/12 A3004 920 46 2200 310/07 RMK AO2
14926KSTC STC20120622105011306/22/12 10:50:31  5-MIN KSTC 221650Z 31008KT 10SM FEW046 23/11 A3004 920 45 2100 310/08 RMK AO2 SLP177 T02330111
14926KSTC STC20120622105509606/22/12 10:55:31  5-MIN KSTC 221655Z 35007KT 10SM FEW046 24/12 A3004 920 46 2200 350/07 RMK AO2
14926KSTC STC20120622110009306/22/12 11:00:31  5-MIN KSTC 221700Z 35007KT 10SM CLR 24/11 A3004 920 44 2200 350/07 RMK AO2
14926KSTC STC20120622110509306/22/12 11:05:31  5-MIN KSTC 221705Z 30009KT 10SM CLR 24/11 A3004 920 44 2200 290/09 RMK AO2
14926KSTC STC20120622111009306/22/12 11:10:31  5-MIN KSTC 221710Z 30006KT 10SM CLR 24/11 A3004 920 42 2300 290/06 RMK AO2
14926KSTC STC20120622111509606/22/12 11:15:31  5-MIN KSTC 221715Z 33007KT 10SM FEW047 24/11 A3004 920 42 2300 330/07 RMK AO2
14926KSTC STC20120622112009606/22/12 11:20:31  5-MIN KSTC 221720Z 30008KT 10SM FEW049 24/11 A3004 920 42 2300 300/08 RMK AO2
14926KSTC STC20120622112509306/22/12 11:25:31  5-MIN KSTC 221725Z 27008KT 10SM CLR 24/11 A3004 920 42 2200 270/08 RMK AO2
14926KSTC STC20120622113009306/22/12 11:30:31  5-MIN KSTC 221730Z 34005KT 10SM CLR 24/11 A3004 920 42 2300 340/05 RMK AO2
14926KSTC STC20120622113509306/22/12 11:35:31  5-MIN KSTC 221735Z 33006KT 10SM CLR 24/11 A3004 920 42 2300 330/06 RMK AO2
14926KSTC STC20120622114009606/22/12 11:40:31  5-MIN KSTC 221740Z 34007KT 10SM FEW050 24/11 A3003 920 44 2200 340/07 RMK AO2
14926KSTC STC20120622114509306/22/12 11:45:31  5-MIN KSTC 221745Z 31006KT 10SM CLR 25/12 A3003 920 43 2300 310/06 RMK AO2
14926KSTC STC20120622115012806/22/12 11:50:31  5-MIN KSTC 221750Z 31005KT 10SM CLR 24/11 A3004 920 42 2300 300/05 RMK AO2 SLP175 T02440111 10250 20150 50007
14926KSTC STC20120622115509606/22/12 11:55:31  5-MIN KSTC 221755Z 33007KT 10SM FEW050 25/11 A3003 920 41 2300 330/07 RMK AO2
14926KSTC STC20120622120009606/22/12 12:00:31  5-MIN KSTC 221800Z 31007KT 10SM FEW050 24/11 A3003 920 42 2300 310/07 RMK AO2
14926KSTC STC20120622120509606/22/12 12:05:31  5-MIN KSTC 221805Z 32009KT 10SM FEW050 24/11 A3003 920 42 2300 320/09 RMK AO2
14926KSTC STC20120622121009306/22/12 12:10:31  5-MIN KSTC 221810Z 31008KT 10SM CLR 25/11 A3003 920 41 2300 310/08 RMK AO2
14926KSTC STC20120622121511206/22/12 12:15:31  5-MIN KSTC 221815Z 29007KT 250V320 10SM FEW050 26/11 A3003 930 38 2400 290/07 250V320 RMK AO2
14926KSTC STC20120622122009606/22/12 12:20:31  5-MIN KSTC 221820Z 34005KT 10SM FEW055 25/11 A3003 930 39 2300 340/05 RMK AO2
14926KSTC STC20120622122509606/22/12 12:25:31  5-MIN KSTC 221825Z 32007KT 10SM FEW055 25/11 A3003 930 41 2300 310/07 RMK AO2
14926KSTC STC20120622123009606/22/12 12:30:31  5-MIN KSTC 221830Z 32008KT 10SM FEW055 24/11 A3003 930 41 2300 320/08 RMK AO2
14926KSTC STC20120622123509606/22/12 12:35:31  5-MIN KSTC 221835Z 31006KT 10SM FEW055 25/09 A3003 930 37 2300 310/06 RMK AO2
14926KSTC STC20120622124009606/22/12 12:40:31  5-MIN KSTC 221840Z VRB04KT 10SM FEW055 26/11 A3003 930 40 2400 VRB/04 RMK AO2
14926KSTC STC20120622124509606/22/12 12:45:31  5-MIN KSTC 221845Z 29006KT 10SM FEW055 25/11 A3002 930 41 2300 290/06 RMK AO2
14926KSTC STC20120622125011906/22/12 12:50:31  5-MIN KSTC 221850Z 29009G14KT 10SM FEW055 26/10 A3002 930 37 2400 290/09G14 RMK AO2 SLP172 T02560100
14926KSTC STC20120622125509906/22/12 12:55:31  5-MIN KSTC 221855Z 31008G14KT 10SM CLR 26/10 A3002 930 37 2400 310/08G14 RMK AO2
14926KSTC STC20120622130009306/22/12 13:00:31  5-MIN KSTC 221900Z 27006KT 10SM CLR 25/10 A3002 930 38 2300 270/06 RMK AO2
14926KSTC STC20120622130509606/22/12 13:05:31  5-MIN KSTC 221905Z 30004KT 10SM FEW055 26/10 A3002 940 37 2400 300/04 RMK AO2
14926KSTC STC20120622131009606/22/12 13:10:31  5-MIN KSTC 221910Z 28007KT 10SM FEW060 26/11 A3002 940 38 2400 280/07 RMK AO2
14926KSTC STC20120622131509306/22/12 13:15:31  5-MIN KSTC 221915Z 28006KT 10SM CLR 26/09 A3001 940 35 2400 280/06 RMK AO2
14926KSTC STC20120622132010906/22/12 13:20:31  5-MIN KSTC 221920Z 31007KT 280V350 10SM CLR 26/11 A3001 940 37 2500 310/07 280V350 RMK AO2
14926KSTC STC20120622132510906/22/12 13:25:31  5-MIN KSTC 221925Z 31008KT 280V350 10SM CLR 26/09 A3001 940 34 2500 310/08 280V350 RMK AO2
14926KSTC STC20120622133009306/22/12 13:30:31  5-MIN KSTC 221930Z 30008KT 10SM CLR 26/11 A3001 940 37 2500 300/08 RMK AO2
14926KSTC STC20120622133509306/22/12 13:35:31  5-MIN KSTC 221935Z 29007KT 10SM CLR 26/09 A3001 950 34 2400 290/07 RMK AO2
14926KSTC STC20120622134009306/22/12 13:40:31  5-MIN KSTC 221940Z 27006KT 10SM CLR 26/09 A3001 950 35 2400 270/06 RMK AO2
14926KSTC STC20120622134509306/22/12 13:45:31  5-MIN KSTC 221945Z 31007KT 10SM CLR 26/09 A3001 950 35 2400 310/07 RMK AO2
14926KSTC STC20120622135011006/22/12 13:50:31  5-MIN KSTC 221950Z 29006KT 10SM CLR 26/10 A3000 950 36 2500 290/06 RMK AO2 SLP165 T02610100
14926KSTC STC20120622135510906/22/12 13:55:31  5-MIN KSTC 221955Z 28008KT 260V320 10SM CLR 26/09 A3000 950 33 2500 280/08 260V320 RMK AO2
14926KSTC STC20120622140009306/22/12 14:00:31  5-MIN KSTC 222000Z 33005KT 10SM CLR 26/09 A3000 950 35 2400 330/05 RMK AO2
14926KSTC STC20120622140509606/22/12 14:05:31  5-MIN KSTC 222005Z 31006KT 10SM FEW060 26/10 A3000 950 37 2400 310/06 RMK AO2
14926KSTC STC20120622141009606/22/12 14:10:31  5-MIN KSTC 222010Z VRB04KT 10SM SCT060 26/09 A3000 950 35 2400 VRB/04 RMK AO2
14926KSTC STC20120622141509606/22/12 14:15:31  5-MIN KSTC 222015Z 34005KT 10SM FEW060 25/09 A3000 950 37 2400 340/05 RMK AO2
14926KSTC STC20120622142009606/22/12 14:20:31  5-MIN KSTC 222020Z VRB05KT 10SM FEW060 25/10 A3000 960 38 2400 VRB/05 RMK AO2
14926KSTC STC20120622142509606/22/12 14:25:31  5-MIN KSTC 222025Z 34007KT 10SM FEW060 26/09 A3000 960 34 2400 340/07 RMK AO2
14926KSTC STC20120622143009606/22/12 14:30:31  5-MIN KSTC 222030Z 34004KT 10SM FEW060 26/09 A3000 960 35 2400 340/04 RMK AO2
14926KSTC STC20120622143509606/22/12 14:35:31  5-MIN KSTC 222035Z 31008KT 10SM FEW065 27/10 A2999 960 34 2600 310/08 RMK AO2
14926KSTC STC20120622144009606/22/12 14:40:31  5-MIN KSTC 222040Z VRB05KT 10SM FEW060 26/09 A2999 960 34 2500 VRB/05 RMK AO2
14926KSTC STC20120622144509306/22/12 14:45:31  5-MIN KSTC 222045Z 33007KT 10SM CLR 26/11 A2999 960 37 2500 330/07 RMK AO2
14926KSTC STC20120622145011606/22/12 14:50:31  5-MIN KSTC 222050Z 33007KT 10SM CLR 26/10 A2999 960 36 2500 330/07 RMK AO2 SLP161 T02610100 58001
14926KSTC STC20120622145509306/22/12 14:55:31  5-MIN KSTC 222055Z VRB04KT 10SM CLR 26/09 A2999 960 34 2500 VRB/04 RMK AO2
14926KSTC STC20120622150009306/22/12 15:00:31  5-MIN KSTC 222100Z 34005KT 10SM CLR 27/10 A2999 960 34 2600 330/05 RMK AO2
14926KSTC STC20120622150509306/22/12 15:05:31  5-MIN KSTC 222105Z 01005KT 10SM CLR 26/10 A2999 960 37 2400 010/05 RMK AO2
14926KSTC STC20120622151009306/22/12 15:10:31  5-MIN KSTC 222110Z 31008KT 10SM CLR 26/10 A2999 960 36 2500 310/08 RMK AO2
14926KSTC STC20120622151509306/22/12 15:15:31  5-MIN KSTC 222115Z 33006KT 10SM CLR 26/09 A2999 960 34 2500 330/06 RMK AO2
14926KSTC STC20120622152009306/22/12 15:20:31  5-MIN KSTC 222120Z 01004KT 10SM CLR 26/09 A2999 960 34 2500 010/04 RMK AO2
14926KSTC STC20120622152509306/22/12 15:25:31  5-MIN KSTC 222125Z 28005KT 10SM CLR 26/09 A2999 970 33 2500 280/05 RMK AO2
14926KSTC STC20120622153009306/22/12 15:30:31  5-MIN KSTC 222130Z 27006KT 10SM CLR 26/08 A2998 970 32 2500 270/06 RMK AO2
14926KSTC STC20120622153509306/22/12 15:35:31  5-MIN KSTC 222135Z 28005KT 10SM CLR 26/08 A2998 970 33 2400 280/05 RMK AO2
14926KSTC STC20120622154009306/22/12 15:40:31  5-MIN KSTC 222140Z 00000KT 10SM CLR 26/08 A2998 970 33 2500 000/00 RMK AO2
14926KSTC STC20120622154509306/22/12 15:45:31  5-MIN KSTC 222145Z VRB04KT 10SM CLR 26/09 A2998 970 33 2500 VRB/04 RMK AO2
14926KSTC STC20120622155011006/22/12 15:50:31  5-MIN KSTC 222150Z VRB05KT 10SM CLR 26/09 A2998 970 34 2500 VRB/05 RMK AO2 SLP156 T02610094
14926KSTC STC20120622155509306/22/12 15:55:31  5-MIN KSTC 222155Z VRB04KT 10SM CLR 26/09 A2997 980 34 2500 VRB/04 RMK AO2
14926KSTC STC20120622160009306/22/12 16:00:31  5-MIN KSTC 222200Z 00000KT 10SM CLR 26/09 A2997 980 34 2500 000/00 RMK AO2
14926KSTC STC20120622160509306/22/12 16:05:31  5-MIN KSTC 222205Z 00000KT 10SM CLR 26/09 A2997 980 33 2500 000/00 RMK AO2
14926KSTC STC20120622161009306/22/12 16:10:31  5-MIN KSTC 222210Z 03003KT 10SM CLR 27/09 A2997 980 33 2600 030/03 RMK AO2
14926KSTC STC20120622161509306/22/12 16:15:31  5-MIN KSTC 222215Z 34005KT 10SM CLR 26/09 A2997 980 33 2500 340/05 RMK AO2
14926KSTC STC20120622162009306/22/12 16:20:31  5-MIN KSTC 222220Z 36003KT 10SM CLR 26/09 A2996 990 33 2500 360/03 RMK AO2
14926KSTC STC20120622162509306/22/12 16:25:31  5-MIN KSTC 222225Z VRB03KT 10SM CLR 26/09 A2996 990 33 2500 VRB/03 RMK AO2
14926KSTC STC20120622163009306/22/12 16:30:31  5-MIN KSTC 222230Z VRB03KT 10SM CLR 26/09 A2996 990 34 2500 VRB/03 RMK AO2
14926KSTC STC20120622163509306/22/12 16:35:31  5-MIN KSTC 222235Z 36005KT 10SM CLR 26/09 A2996 990 34 2500 360/05 RMK AO2
14926KSTC STC20120622164009306/22/12 16:40:31  5-MIN KSTC 222240Z VRB05KT 10SM CLR 26/09 A2996 990 34 2500 VRB/05 RMK AO2
14926KSTC STC20120622164509306/22/12 16:45:31  5-MIN KSTC 222245Z 01004KT 10SM CLR 26/09 A2996 990 33 2500 010/04 RMK AO2
14926KSTC STC20120622165011006/22/12 16:50:31  5-MIN KSTC 222250Z 35003KT 10SM CLR 26/08 A2996 990 32 2500 350/03 RMK AO2 SLP151 T02610083
14926KSTC STC20120622165509306/22/12 16:55:31  5-MIN KSTC 222255Z VRB04KT 10SM CLR 26/09 A2996 990 33 2500 VRB/04 RMK AO2
14926KSTC STC20120622170009306/22/12 17:00:31  5-MIN KSTC 222300Z 01004KT 10SM CLR 26/09 A2996 990 33 2500 010/04 RMK AO2
14926KSTC STC20120622170509306/22/12 17:05:31  5-MIN KSTC 222305Z 36004KT 10SM CLR 26/09 A2996 990 33 2500 360/04 RMK AO2
14926KSTC STC20120622171009306/22/12 17:10:31  5-MIN KSTC 222310Z 35003KT 10SM CLR 26/08 A2996 990 32 2500 350/03 RMK AO2
14926KSTC STC20120622171509306/22/12 17:15:31  5-MIN KSTC 222315Z VRB03KT 10SM CLR 26/09 A2996 990 33 2500 VRB/03 RMK AO2
14926KSTC STC20120622172009306/22/12 17:20:31  5-MIN KSTC 222320Z 26003KT 10SM CLR 26/09 A2996 990 34 2500 260/03 RMK AO2
14926KSTC STC20120622172509306/22/12 17:25:31  5-MIN KSTC 222325Z 00000KT 10SM CLR 26/08 A2996 990 33 2500 000/00 RMK AO2
14926KSTC STC20120622173009306/22/12 17:30:31  5-MIN KSTC 222330Z 00000KT 10SM CLR 26/09 A2996 990 33 2500 000/00 RMK AO2
14926KSTC STC20120622173509306/22/12 17:35:31  5-MIN KSTC 222335Z 00000KT 10SM CLR 26/09 A2996 990 34 2500 000/00 RMK AO2
14926KSTC STC20120622174009306/22/12 17:40:31  5-MIN KSTC 222340Z 18003KT 10SM CLR 25/09 A2996 990 35 2400 180/03 RMK AO2
14926KSTC STC20120622174509306/22/12 17:45:31  5-MIN KSTC 222345Z 00000KT 10SM CLR 25/09 A2996 990 35 2400 000/00 RMK AO2
14926KSTC STC20120622175012806/22/12 17:50:31  5-MIN KSTC 222350Z 00000KT 10SM CLR 26/09 A2996 990 35 2500 000/00 RMK AO2 SLP149 T02560094 10267 20244 58015
14926KSTC STC20120622175509406/22/12 17:55:31  5-MIN KSTC 222355Z 35003KT 10SM CLR 26/10 A2995 1000 37 2500 350/03 RMK AO2
14926KSTC STC20120622180009306/22/12 18:00:31  5-MIN KSTC 230000Z 00000KT 10SM CLR 24/09 A2996 990 38 2400 000/00 RMK AO2
14926KSTC STC20120622180509606/22/12 18:05:31  5-MIN KSTC 230005Z 00000KT 10SM FEW070 26/09 A2996 990 35 2500 000/00 RMK AO2
14926KSTC STC20120622181009606/22/12 18:10:31  5-MIN KSTC 230010Z 00000KT 10SM FEW070 26/11 A2996 990 38 2500 000/00 RMK AO2
14926KSTC STC20120622181509606/22/12 18:15:31  5-MIN KSTC 230015Z 00000KT 10SM FEW070 26/11 A2996 990 38 2500 000/00 RMK AO2
14926KSTC STC20120622182009606/22/12 18:20:31  5-MIN KSTC 230020Z 00000KT 10SM FEW070 26/09 A2995 990 35 2500 000/00 RMK AO2
14926KSTC STC20120622182509706/22/12 18:25:31  5-MIN KSTC 230025Z 00000KT 10SM FEW070 26/09 A2995 1000 35 2500 000/00 RMK AO2
14926KSTC STC20120622183009406/22/12 18:30:31  5-MIN KSTC 230030Z 00000KT 10SM CLR 25/09 A2995 1000 35 2400 000/00 RMK AO2
14926KSTC STC20120622183509406/22/12 18:35:31  5-MIN KSTC 230035Z 00000KT 10SM CLR 25/09 A2995 1000 35 2400 000/00 RMK AO2
14926KSTC STC20120622184009406/22/12 18:40:31  5-MIN KSTC 230040Z VRB04KT 10SM CLR 26/09 A2995 1000 35 2500 VRB/04 RMK AO2
14926KSTC STC20120622184509406/22/12 18:45:31  5-MIN KSTC 230045Z 26003KT 10SM CLR 24/09 A2995 1000 38 2400 260/03 RMK AO2
14926KSTC STC20120622185011106/22/12 18:50:31  5-MIN KSTC 230050Z 00000KT 10SM CLR 24/09 A2995 1000 38 2400 000/00 RMK AO2 SLP146 T02440094
14926KSTC STC20120622185509406/22/12 18:55:31  5-MIN KSTC 230055Z 00000KT 10SM CLR 25/09 A2995 1000 37 2400 000/00 RMK AO2
14926KSTC STC20120622190009406/22/12 19:00:31  5-MIN KSTC 230100Z 00000KT 10SM CLR 25/11 A2995 1000 39 2400 000/00 RMK AO2
14926KSTC STC20120622190509406/22/12 19:05:31  5-MIN KSTC 230105Z 00000KT 10SM CLR 25/12 A2995 1000 44 2400 000/00 RMK AO2
14926KSTC STC20120622191009406/22/12 19:10:31  5-MIN KSTC 230110Z 00000KT 10SM CLR 24/14 A2995 1000 55 2300 000/00 RMK AO2
14926KSTC STC20120622191509406/22/12 19:15:31  5-MIN KSTC 230115Z 00000KT 10SM CLR 23/14 A2995 1000 57 2200 000/00 RMK AO2
14926KSTC STC20120622192009406/22/12 19:20:31  5-MIN KSTC 230120Z 00000KT 10SM CLR 23/14 A2995 1000 59 2200 000/00 RMK AO2
14926KSTC STC20120622192509406/22/12 19:25:31  5-MIN KSTC 230125Z 00000KT 10SM CLR 22/14 A2995 1000 59 2100 000/00 RMK AO2
14926KSTC STC20120622193009406/22/12 19:30:31  5-MIN KSTC 230130Z 00000KT 10SM CLR 21/14 A2995 1000 65 2000 000/00 RMK AO2
14926KSTC STC20120622193509406/22/12 19:35:31  5-MIN KSTC 230135Z 00000KT 10SM CLR 21/14 A2995 1000 63 2000 000/00 RMK AO2
14926KSTC STC20120622194009406/22/12 19:40:31  5-MIN KSTC 230140Z 00000KT 10SM CLR 21/13 A2995 1000 61 2000 000/00 RMK AO2
14926KSTC STC20120622194509406/22/12 19:45:31  5-MIN KSTC 230145Z 00000KT 10SM CLR 21/13 A2995 1000 63 1900 000/00 RMK AO2
14926KSTC STC20120622195011106/22/12 19:50:31  5-MIN KSTC 230150Z 00000KT 10SM CLR 20/14 A2995 1000 67 1900 000/00 RMK AO2 SLP147 T02000139
14926KSTC STC20120622195509406/22/12 19:55:31  5-MIN KSTC 230155Z 00000KT 10SM CLR 19/14 A2995 1000 72 1800 000/00 RMK AO2
14926KSTC STC20120622200009406/22/12 20:00:31  5-MIN KSTC 230200Z 00000KT 10SM CLR 19/13 A2995 1000 70 1700 000/00 RMK AO2
14926KSTC STC20120622200509406/22/12 20:05:31  5-MIN KSTC 230205Z 00000KT 10SM CLR 19/14 A2995 1000 72 1700 000/00 RMK AO2
14926KSTC STC20120622201009406/22/12 20:10:31  5-MIN KSTC 230210Z 00000KT 10SM CLR 19/13 A2995 1000 70 1700 000/00 RMK AO2
14926KSTC STC20120622201509406/22/12 20:15:31  5-MIN KSTC 230215Z 00000KT 10SM CLR 19/14 A2995 1000 72 1700 000/00 RMK AO2
14926KSTC STC20120622202009406/22/12 20:20:31  5-MIN KSTC 230220Z 00000KT 10SM CLR 19/13 A2995 1000 70 1700 000/00 RMK AO2
14926KSTC STC20120622202509406/22/12 20:25:31  5-MIN KSTC 230225Z 00000KT 10SM CLR 19/14 A2995 1000 75 1700 000/00 RMK AO2
14926KSTC STC20120622203009406/22/12 20:30:31  5-MIN KSTC 230230Z 00000KT 10SM CLR 19/14 A2995 1000 75 1700 000/00 RMK AO2
14926KSTC STC20120622203509406/22/12 20:35:31  5-MIN KSTC 230235Z 00000KT 10SM CLR 19/14 A2995 1000 75 1700 000/00 RMK AO2
14926KSTC STC20120622204009406/22/12 20:40:31  5-MIN KSTC 230240Z 00000KT 10SM CLR 18/14 A2995 1000 75 1700 000/00 RMK AO2
14926KSTC STC20120622204509306/22/12 20:45:31  5-MIN KSTC 230245Z 00000KT 10SM CLR 18/14 A2995 990 78 1700 000/00 RMK AO2
14926KSTC STC20120622205011606/22/12 20:50:31  5-MIN KSTC 230250Z 00000KT 10SM CLR 18/15 A2995 990 81 1700 000/00 RMK AO2 SLP149 T01830150 56012
14926KSTC STC20120622205509306/22/12 20:55:31  5-MIN KSTC 230255Z 00000KT 10SM CLR 18/15 A2995 990 81 1700 000/00 RMK AO2
14926KSTC STC20120622210009406/22/12 21:00:31  5-MIN KSTC 230300Z 00000KT 10SM CLR 18/16 A2995 1000 87 1600 000/00 RMK AO2
14926KSTC STC20120622210509306/22/12 21:05:31  5-MIN KSTC 230305Z 00000KT 10SM CLR 19/15 A2996 990 78 1700 000/00 RMK AO2
14926KSTC STC20120622211009306/22/12 21:10:31  5-MIN KSTC 230310Z 00000KT 10SM CLR 18/15 A2996 990 81 1700 000/00 RMK AO2
14926KSTC STC20120622211509306/22/12 21:15:31  5-MIN KSTC 230315Z 00000KT 10SM CLR 18/15 A2996 990 81 1700 000/00 RMK AO2
14926KSTC STC20120622212009306/22/12 21:20:31  5-MIN KSTC 230320Z 00000KT 10SM CLR 18/15 A2996 990 83 1600 000/00 RMK AO2
14926KSTC STC20120622212509306/22/12 21:25:31  5-MIN KSTC 230325Z 00000KT 10SM CLR 18/16 A2996 990 87 1600 000/00 RMK AO2
14926KSTC STC20120622213009306/22/12 21:30:31  5-MIN KSTC 230330Z 00000KT 10SM CLR 18/15 A2996 990 83 1600 000/00 RMK AO2
14926KSTC STC20120622213509306/22/12 21:35:31  5-MIN KSTC 230335Z 00000KT 10SM CLR 17/15 A2996 990 87 1500 000/00 RMK AO2
14926KSTC STC20120622214009306/22/12 21:40:31  5-MIN KSTC 230340Z 00000KT 10SM CLR 18/16 A2996 990 87 1600 000/00 RMK AO2
14926KSTC STC20120622214509306/22/12 21:45:31  5-MIN KSTC 230345Z 00000KT 10SM CLR 17/15 A2996 990 87 1500 000/00 RMK AO2
14926KSTC STC20120622215011006/22/12 21:50:31  5-MIN KSTC 230350Z 00000KT 10SM CLR 17/15 A2996 990 87 1500 000/00 RMK AO2 SLP150 T01720150
14926KSTC STC20120622215509806/22/12 21:55:31  5-MIN KSTC 230355Z AUTO 00000KT 10SM CLR 17/14 A2996 990 83 1500 000/00 RMK AO2
14926KSTC STC20120622220009806/22/12 22:00:31  5-MIN KSTC 230400Z AUTO 00000KT 10SM CLR 18/14 A2996 990 81 1600 000/00 RMK AO2
14926KSTC STC20120622220509806/22/12 22:05:31  5-MIN KSTC 230405Z AUTO 10003KT 10SM CLR 18/14 A2996 990 81 1600 100/03 RMK AO2
14926KSTC STC20120622221009806/22/12 22:10:31  5-MIN KSTC 230410Z AUTO 00000KT 10SM CLR 17/14 A2996 990 83 1500 000/00 RMK AO2
14926KSTC STC20120622221509806/22/12 22:15:31  5-MIN KSTC 230415Z AUTO 00000KT 10SM CLR 17/14 A2996 990 83 1500 000/00 RMK AO2
14926KSTC STC20120622222009806/22/12 22:20:31  5-MIN KSTC 230420Z AUTO 00000KT 10SM CLR 17/14 A2996 990 83 1500 000/00 RMK AO2
14926KSTC STC20120622222509806/22/12 22:25:31  5-MIN KSTC 230425Z AUTO 00000KT 10SM CLR 17/14 A2996 990 80 1500 000/00 RMK AO2
14926KSTC STC20120622223009806/22/12 22:30:31  5-MIN KSTC 230430Z AUTO 00000KT 10SM CLR 18/14 A2996 990 78 1600 000/00 RMK AO2
14926KSTC STC20120622223509806/22/12 22:35:31  5-MIN KSTC 230435Z AUTO 00000KT 10SM CLR 17/14 A2996 990 83 1500 000/00 RMK AO2
14926KSTC STC20120622224009806/22/12 22:40:31  5-MIN KSTC 230440Z AUTO 00000KT 10SM CLR 17/14 A2996 990 86 1500 000/00 RMK AO2
14926KSTC STC20120622224509806/22/12 22:45:31  5-MIN KSTC 230445Z AUTO 09003KT 10SM CLR 17/14 A2996 990 86 1500 090/03 RMK AO2
14926KSTC STC20120622225011606/22/12 22:50:31  5-MIN KSTC 230450Z AUTO 09004KT 10SM CLR 17/14 A2995 1000 86 1500 090/04 RMK AO2 SLP148 T01670144
14926KSTC STC20120622225509906/22/12 22:55:31  5-MIN KSTC 230455Z AUTO 10004KT 10SM CLR 17/14 A2995 1000 83 1500 100/04 RMK AO2
14926KSTC STC20120622230009806/22/12 23:00:31  5-MIN KSTC 230500Z AUTO 09004KT 10SM CLR 17/13 A2996 990 78 1500 090/04 RMK AO2
14926KSTC STC20120622230509806/22/12 23:05:31  5-MIN KSTC 230505Z AUTO 09003KT 10SM CLR 17/13 A2996 990 78 1500 090/03 RMK AO2
14926KSTC STC20120622231009806/22/12 23:10:31  5-MIN KSTC 230510Z AUTO 09004KT 10SM CLR 17/13 A2996 990 80 1500 080/04 RMK AO2
14926KSTC STC20120622231509806/22/12 23:15:31  5-MIN KSTC 230515Z AUTO 10004KT 10SM CLR 17/13 A2996 990 80 1500 090/04 RMK AO2
14926KSTC STC20120622232009806/22/12 23:20:31  5-MIN KSTC 230520Z AUTO 10005KT 10SM CLR 18/13 A2996 990 72 1600 090/05 RMK AO2
14926KSTC STC20120622232509806/22/12 23:25:31  5-MIN KSTC 230525Z AUTO 11004KT 10SM CLR 18/12 A2995 990 69 1600 100/04 RMK AO2
14926KSTC STC20120622233009806/22/12 23:30:31  5-MIN KSTC 230530Z AUTO 09004KT 10SM CLR 18/12 A2995 990 69 1600 090/04 RMK AO2
14926KSTC STC20120622233509806/22/12 23:35:31  5-MIN KSTC 230535Z AUTO 11004KT 10SM CLR 17/12 A2995 990 72 1500 110/04 RMK AO2
14926KSTC STC20120622234009906/22/12 23:40:31  5-MIN KSTC 230540Z AUTO 11004KT 10SM CLR 18/12 A2995 1000 69 1600 110/04 RMK AO2
14926KSTC STC20120622234509806/22/12 23:45:31  5-MIN KSTC 230545Z AUTO 13004KT 10SM CLR 18/12 A2996 990 69 1600 130/04 RMK AO2
14926KSTC STC20120622235014306/22/12 23:50:31  5-MIN KSTC 230550Z AUTO 13003KT 10SM CLR 17/12 A2996 990 72 1500 120/03 RMK AO2 SLP149 T01720122 10256 20167 402670111 55000
14926KSTC STC20120622235510106/22/12 23:55:31  5-MIN KSTC 230555Z AUTO 12003KT 10SM FEW065 17/12 A2996 990 72 1500 120/03 RMK AO2
14926KSTC STC20120623000010106/23/12 00:00:32  5-MIN KSTC 230600Z AUTO 11004KT 10SM SCT065 18/12 A2996 990 69 1600 100/04 RMK AO2
14926KSTC STC20120623000510206/23/12 00:05:31  5-MIN KSTC 230605Z AUTO 10003KT 10SM SCT065 17/12 A2995 1000 72 1500 100/03 RMK AO2
14926KSTC STC20120623001010106/23/12 00:10:31  5-MIN KSTC 230610Z AUTO 11003KT 10SM SCT065 17/12 A2996 990 72 1500 110/03 RMK AO2
14926KSTC STC20120623002510106/23/12 00:25:31  5-MIN KSTC 230625Z AUTO 13004KT 10SM BKN060 18/12 A2996 990 69 1600 120/04 RMK AO2
14926KSTC STC20120623003010106/23/12 00:30:31  5-MIN KSTC 230630Z AUTO 12003KT 10SM BKN065 18/12 A2996 990 67 1700 120/03 RMK AO2
14926KSTC STC20120623003510106/23/12 00:35:31  5-MIN KSTC 230635Z AUTO 13003KT 10SM BKN065 18/12 A2996 990 69 1600 130/03 RMK AO2
14926KSTC STC20120623004010106/23/12 00:40:31  5-MIN KSTC 230640Z AUTO 13003KT 10SM BKN065 18/12 A2995 990 69 1600 130/03 RMK AO2
14926KSTC STC20120623004510206/23/12 00:45:31  5-MIN KSTC 230645Z AUTO 12004KT 10SM BKN070 18/12 A2995 1000 67 1600 120/04 RMK AO2
14926KSTC STC20120623005011906/23/12 00:50:31  5-MIN KSTC 230650Z AUTO 11004KT 10SM SCT070 18/12 A2995 1000 67 1600 110/04 RMK AO2 SLP145 T01780117
14926KSTC STC20120623005510206/23/12 00:55:31  5-MIN KSTC 230655Z AUTO 11004KT 10SM SCT070 17/12 A2995 1000 69 1500 110/04 RMK AO2
14926KSTC STC20120623010010206/23/12 01:00:31  5-MIN KSTC 230700Z AUTO 10004KT 10SM FEW070 17/12 A2995 1000 69 1500 100/04 RMK AO2
14926KSTC STC20120623010510206/23/12 01:05:31  5-MIN KSTC 230705Z AUTO 10004KT 10SM FEW070 17/12 A2995 1000 69 1500 100/04 RMK AO2
14926KSTC STC20120623011009906/23/12 01:10:31  5-MIN KSTC 230710Z AUTO 10004KT 10SM CLR 17/12 A2995 1000 72 1500 100/04 RMK AO2
14926KSTC STC20120623011509906/23/12 01:15:31  5-MIN KSTC 230715Z AUTO 11004KT 10SM CLR 17/12 A2995 1000 72 1500 110/04 RMK AO2
14926KSTC STC20120623012009906/23/12 01:20:31  5-MIN KSTC 230720Z AUTO 12005KT 10SM CLR 18/12 A2995 1000 67 1600 120/05 RMK AO2
14926KSTC STC20120623012510206/23/12 01:25:31  5-MIN KSTC 230725Z AUTO 11005KT 10SM FEW120 18/12 A2995 1000 67 1600 110/05 RMK AO2
14926KSTC STC20120623013010206/23/12 01:30:31  5-MIN KSTC 230730Z AUTO 11004KT 10SM FEW120 18/12 A2995 1000 67 1600 110/04 RMK AO2
14926KSTC STC20120623013510206/23/12 01:35:31  5-MIN KSTC 230735Z AUTO 11004KT 10SM FEW120 18/12 A2995 1000 65 1700 110/04 RMK AO2
14926KSTC STC20120623014010206/23/12 01:40:31  5-MIN KSTC 230740Z AUTO 10004KT 10SM SCT110 18/12 A2995 1000 65 1700 100/04 RMK AO2
14926KSTC STC20120623014510206/23/12 01:45:31  5-MIN KSTC 230745Z AUTO 12004KT 10SM BKN110 18/12 A2995 1000 65 1700 110/04 RMK AO2
14926KSTC STC20120623015012606/23/12 01:50:31  5-MIN KSTC 230750Z AUTO 11003KT 10SM FEW060 BKN120 18/12 A2994 1000 69 1600 110/03 RMK AO2 SLP143 T01780122
14926KSTC STC20120623015510906/23/12 01:55:31  5-MIN KSTC 230755Z AUTO 12004KT 10SM FEW060 BKN120 18/12 A2994 1010 67 1700 120/04 RMK AO2
14926KSTC STC20120623020010906/23/12 02:00:31  5-MIN KSTC 230800Z AUTO 11004KT 10SM FEW075 BKN120 18/12 A2994 1010 67 1700 110/04 RMK AO2
14926KSTC STC20120623020510206/23/12 02:05:31  5-MIN KSTC 230805Z AUTO 11003KT 10SM BKN110 18/12 A2994 1010 67 1700 110/03 RMK AO2
14926KSTC STC20120623021010906/23/12 02:10:31  5-MIN KSTC 230810Z AUTO 11004KT 10SM FEW055 OVC110 18/12 A2994 1010 69 1600 110/04 RMK AO2
14926KSTC STC20120623021510906/23/12 02:15:31  5-MIN KSTC 230815Z AUTO 11005KT 10SM FEW055 OVC110 18/12 A2993 1010 69 1600 110/05 RMK AO2
14926KSTC STC20120623022010206/23/12 02:20:31  5-MIN KSTC 230820Z AUTO 11004KT 10SM BKN110 18/12 A2993 1020 67 1700 110/04 RMK AO2
14926KSTC STC20120623022510206/23/12 02:25:31  5-MIN KSTC 230825Z AUTO 11005KT 10SM BKN110 18/12 A2993 1020 67 1700 110/05 RMK AO2
14926KSTC STC20120623023010206/23/12 02:30:31  5-MIN KSTC 230830Z AUTO 11005KT 10SM BKN110 18/12 A2992 1030 67 1700 110/05 RMK AO2
14926KSTC STC20120623023510206/23/12 02:35:31  5-MIN KSTC 230835Z AUTO 10004KT 10SM BKN110 18/12 A2992 1030 67 1700 100/04 RMK AO2
14926KSTC STC20120623024010206/23/12 02:40:31  5-MIN KSTC 230840Z AUTO 10004KT 10SM BKN110 18/12 A2991 1030 67 1700 100/04 RMK AO2
14926KSTC STC20120623024510206/23/12 02:45:31  5-MIN KSTC 230845Z AUTO 09006KT 10SM BKN110 18/12 A2991 1040 69 1600 090/06 RMK AO2
14926KSTC STC20120623025012506/23/12 02:50:31  5-MIN KSTC 230850Z AUTO 10003KT 10SM SCT110 18/12 A2991 1030 67 1700 100/03 RMK AO2 SLP132 T01830122 53002
14926KSTC STC20120623025510206/23/12 02:55:31  5-MIN KSTC 230855Z AUTO 12004KT 10SM SCT110 18/12 A2991 1030 67 1700 120/04 RMK AO2
14926KSTC STC20120623030010206/23/12 03:00:31  5-MIN KSTC 230900Z AUTO 12004KT 10SM FEW110 18/12 A2991 1040 67 1700 120/04 RMK AO2
14926KSTC STC20120623030510206/23/12 03:05:31  5-MIN KSTC 230905Z AUTO 11004KT 10SM FEW120 18/12 A2990 1040 67 1700 110/04 RMK AO2
14926KSTC STC20120623031009906/23/12 03:10:31  5-MIN KSTC 230910Z AUTO 10004KT 10SM CLR 18/12 A2990 1050 69 1700 100/04 RMK AO2
14926KSTC STC20120623031509906/23/12 03:15:31  5-MIN KSTC 230915Z AUTO 09004KT 10SM CLR 18/12 A2990 1050 69 1700 090/04 RMK AO2
14926KSTC STC20120623032009906/23/12 03:20:31  5-MIN KSTC 230920Z AUTO 10004KT 10SM CLR 18/12 A2990 1040 69 1700 100/04 RMK AO2
14926KSTC STC20120623032509906/23/12 03:25:31  5-MIN KSTC 230925Z AUTO 10003KT 10SM CLR 18/12 A2990 1040 69 1600 100/03 RMK AO2
14926KSTC STC20120623033009906/23/12 03:30:31  5-MIN KSTC 230930Z AUTO 11003KT 10SM CLR 18/12 A2991 1040 69 1600 110/03 RMK AO2
14926KSTC STC20120623033509906/23/12 03:35:31  5-MIN KSTC 230935Z AUTO 08003KT 10SM CLR 18/12 A2991 1040 69 1600 080/03 RMK AO2
14926KSTC STC20120623034009906/23/12 03:40:31  5-MIN KSTC 230940Z AUTO 00000KT 10SM CLR 18/12 A2991 1040 69 1600 000/00 RMK AO2
14926KSTC STC20120623034509906/23/12 03:45:31  5-MIN KSTC 230945Z AUTO 09003KT 10SM CLR 17/12 A2992 1030 72 1600 090/03 RMK AO2
14926KSTC STC20120623035011606/23/12 03:50:31  5-MIN KSTC 230950Z AUTO 09003KT 10SM CLR 17/13 A2991 1030 75 1600 080/03 RMK AO2 SLP134 T01720128
14926KSTC STC20120623035509906/23/12 03:55:31  5-MIN KSTC 230955Z AUTO 09003KT 10SM CLR 17/12 A2992 1030 72 1600 090/03 RMK AO2
14926KSTC STC20120623040009906/23/12 04:00:31  5-MIN KSTC 231000Z AUTO 09004KT 10SM CLR 17/12 A2991 1030 75 1500 080/04 RMK AO2
14926KSTC STC20120623040509906/23/12 04:05:31  5-MIN KSTC 231005Z AUTO 09004KT 10SM CLR 17/12 A2992 1030 75 1500 090/04 RMK AO2
14926KSTC STC20120623041009906/23/12 04:10:31  5-MIN KSTC 231010Z AUTO 11003KT 10SM CLR 17/12 A2992 1030 72 1600 110/03 RMK AO2
14926KSTC STC20120623041509906/23/12 04:15:31  5-MIN KSTC 231015Z AUTO 11004KT 10SM CLR 17/12 A2992 1020 72 1600 100/04 RMK AO2
14926KSTC STC20120623042009906/23/12 04:20:31  5-MIN KSTC 231020Z AUTO 11003KT 10SM CLR 17/12 A2993 1020 72 1600 110/03 RMK AO2
14926KSTC STC20120623042509906/23/12 04:25:31  5-MIN KSTC 231025Z AUTO 11003KT 10SM CLR 17/12 A2993 1020 72 1600 110/03 RMK AO2
14926KSTC STC20120623043009906/23/12 04:30:31  5-MIN KSTC 231030Z AUTO 11003KT 10SM CLR 17/12 A2993 1020 72 1600 110/03 RMK AO2
14926KSTC STC20120623043509906/23/12 04:35:31  5-MIN KSTC 231035Z AUTO 00000KT 10SM CLR 17/12 A2993 1010 72 1600 000/00 RMK AO2
14926KSTC STC20120623044009906/23/12 04:40:31  5-MIN KSTC 231040Z AUTO 00000KT 10SM CLR 17/12 A2993 1010 72 1600 000/00 RMK AO2
14926KSTC STC20120623044509906/23/12 04:45:31  5-MIN KSTC 231045Z AUTO 00000KT 10SM CLR 17/13 A2993 1010 75 1500 000/00 RMK AO2
14926KSTC STC20120623045011606/23/12 04:50:31  5-MIN KSTC 231050Z AUTO 00000KT 10SM CLR 17/13 A2993 1020 75 1600 000/00 RMK AO2 SLP140 T01720128
14926KSTC STC20120623045509906/23/12 04:55:31  5-MIN KSTC 231055Z AUTO 00000KT 10SM CLR 17/13 A2993 1020 75 1600 000/00 RMK AO2
14926KSTC STC20120623050009906/23/12 05:00:31  5-MIN KSTC 231100Z AUTO 11003KT 10SM CLR 17/13 A2993 1020 75 1600 110/03 RMK AO2
14926KSTC STC20120623050509906/23/12 05:05:31  5-MIN KSTC 231105Z AUTO 11003KT 10SM CLR 17/13 A2993 1020 75 1600 110/03 RMK AO2
14926KSTC STC20120623051009906/23/12 05:10:31  5-MIN KSTC 231110Z AUTO 12004KT 10SM CLR 17/13 A2993 1010 75 1500 120/04 RMK AO2
14926KSTC STC20120623051509906/23/12 05:15:31  5-MIN KSTC 231115Z AUTO 13003KT 10SM CLR 17/13 A2994 1010 75 1500 130/03 RMK AO2
14926KSTC STC20120623052009906/23/12 05:20:31  5-MIN KSTC 231120Z AUTO 10003KT 10SM CLR 18/13 A2994 1010 72 1600 100/03 RMK AO2
14926KSTC STC20120623052509906/23/12 05:25:31  5-MIN KSTC 231125Z AUTO 00000KT 10SM CLR 18/13 A2993 1010 72 1600 000/00 RMK AO2
14926KSTC STC20120623053009906/23/12 05:30:31  5-MIN KSTC 231130Z AUTO 00000KT 10SM CLR 18/13 A2993 1010 72 1600 000/00 RMK AO2
14926KSTC STC20120623053509906/23/12 05:35:31  5-MIN KSTC 231135Z AUTO 10003KT 10SM CLR 17/13 A2993 1020 78 1600 100/03 RMK AO2
14926KSTC STC20120623054009906/23/12 05:40:31  5-MIN KSTC 231140Z AUTO 11004KT 10SM CLR 17/13 A2993 1020 78 1600 100/04 RMK AO2
14926KSTC STC20120623054509906/23/12 05:45:31  5-MIN KSTC 231145Z AUTO 11004KT 10SM CLR 18/13 A2993 1020 72 1600 110/04 RMK AO2
14926KSTC STC20120623055012906/23/12 05:50:31  5-MIN KSTC 231150Z 11004KT 10SM CLR 18/13 A2993 1020 75 1600 100/04 RMK AO2 SLP140 T01780133 10183 20167 58016
14926KSTC STC20120623055509706/23/12 05:55:31  5-MIN KSTC 231155Z 10004KT 10SM FEW080 18/13 A2993 1020 75 1600 100/04 RMK AO2
14926KSTC STC20120623060010406/23/12 06:00:31  5-MIN KSTC 231200Z 10006KT 10SM FEW065 SCT080 18/13 A2992 1020 75 1600 100/06 RMK AO2
14926KSTC STC20120623060510406/23/12 06:05:31  5-MIN KSTC 231205Z 10003KT 10SM FEW070 SCT120 18/13 A2993 1020 72 1700 100/03 RMK AO2
14926KSTC STC20120623061010406/23/12 06:10:31  5-MIN KSTC 231210Z 00000KT 10SM FEW065 BKN120 18/13 A2992 1020 72 1700 000/00 RMK AO2
14926KSTC STC20120623061510406/23/12 06:15:31  5-MIN KSTC 231215Z 00000KT 10SM FEW065 BKN110 18/13 A2992 1020 72 1700 000/00 RMK AO2
14926KSTC STC20120623062010406/23/12 06:20:31  5-MIN KSTC 231220Z 00000KT 10SM FEW065 OVC110 18/13 A2992 1020 72 1700 000/00 RMK AO2
14926KSTC STC20120623062510406/23/12 06:25:31  5-MIN KSTC 231225Z 14003KT 10SM FEW070 OVC110 18/14 A2992 1020 75 1700 140/03 RMK AO2
14926KSTC STC20120623063009706/23/12 06:30:31  5-MIN KSTC 231230Z 12003KT 10SM OVC110 18/14 A2992 1030 75 1700 120/03 RMK AO2
14926KSTC STC20120623063509706/23/12 06:35:31  5-MIN KSTC 231235Z 13003KT 10SM OVC110 18/14 A2992 1030 75 1700 130/03 RMK AO2
14926KSTC STC20120623064009706/23/12 06:40:31  5-MIN KSTC 231240Z 12004KT 10SM OVC110 18/14 A2992 1030 75 1700 120/04 RMK AO2
14926KSTC STC20120623064509706/23/12 06:45:31  5-MIN KSTC 231245Z 13003KT 10SM OVC110 19/14 A2992 1030 72 1800 120/03 RMK AO2
14926KSTC STC20120623065011406/23/12 06:50:31  5-MIN KSTC 231250Z 13003KT 10SM OVC110 19/14 A2992 1030 72 1800 130/03 RMK AO2 SLP135 T01890139
14926KSTC STC20120623065510406/23/12 06:55:31  5-MIN KSTC 231255Z 13004KT 10SM FEW095 OVC110 19/14 A2992 1030 72 1800 130/04 RMK AO2
14926KSTC STC20120623070010406/23/12 07:00:31  5-MIN KSTC 231300Z 13003KT 10SM SCT100 OVC110 19/14 A2992 1030 72 1800 130/03 RMK AO2
14926KSTC STC20120623070510406/23/12 07:05:31  5-MIN KSTC 231305Z 12004KT 10SM BKN100 OVC110 19/14 A2992 1030 75 1800 120/04 RMK AO2
14926KSTC STC20120623071009706/23/12 07:10:31  5-MIN KSTC 231310Z 12003KT 10SM OVC100 19/14 A2992 1030 75 1800 120/03 RMK AO2
14926KSTC STC20120623071511306/23/12 07:15:31  5-MIN KSTC 231315Z 00000KT 10SM -RA OVC100 19/14 A2992 1030 75 1800 000/00 RMK AO2 RAB14 P0000
14926KSTC STC20120623072012306/23/12 07:20:31  5-MIN KSTC 231320Z AUTO 11003KT 10SM -RA OVC100 19/15 A2992 1030 78 1800 110/03 RMK AO2 RAB14 P0000 TSNO
14926KSTC STC20120623072512306/23/12 07:25:31  5-MIN KSTC 231325Z AUTO 00000KT 10SM -RA OVC100 19/15 A2992 1030 78 1800 000/00 RMK AO2 RAB14 P0000 TSNO
14926KSTC STC20120623073012906/23/12 07:30:31  5-MIN KSTC 231330Z AUTO 00000KT 10SM FEW070 OVC100 19/15 A2992 1030 78 1800 000/00 RMK AO2 RAB14E26 P0000 TSNO
14926KSTC STC20120623073512906/23/12 07:35:31  5-MIN KSTC 231335Z AUTO 00000KT 10SM FEW070 OVC100 19/16 A2992 1030 78 1800 000/00 RMK AO2 RAB14E26 P0000 TSNO
14926KSTC STC20120623074012906/23/12 07:40:31  5-MIN KSTC 231340Z AUTO 00000KT 10SM FEW046 BKN100 19/15 A2992 1030 75 1800 000/00 RMK AO2 RAB14E26 P0000 TSNO
14926KSTC STC20120623074512906/23/12 07:45:31  5-MIN KSTC 231345Z AUTO 14003KT 10SM FEW070 BKN110 19/15 A2992 1030 75 1800 140/03 RMK AO2 RAB14E26 P0000 TSNO
14926KSTC STC20120623075014606/23/12 07:50:31  5-MIN KSTC 231350Z AUTO 16003KT 10SM FEW070 SCT110 19/16 A2992 1020 78 1800 150/03 RMK AO2 RAB14E26 SLP138 P0000 T01940156 TSNO
14926KSTC STC20120623075511406/23/12 07:55:31  5-MIN KSTC 231355Z AUTO 16006KT 10SM FEW070 SCT110 20/16 A2993 1020 75 1900 160/06 RMK AO2 TSNO
14926KSTC STC20120623080010706/23/12 08:00:31  5-MIN KSTC 231400Z AUTO 16005KT 10SM SCT110 20/16 A2993 1020 75 1900 160/05 RMK AO2 TSNO
14926KSTC STC20120623080510706/23/12 08:05:31  5-MIN KSTC 231405Z AUTO 17004KT 10SM BKN110 20/16 A2993 1020 75 1900 170/04 RMK AO2 TSNO
14926KSTC STC20120623081009706/23/12 08:10:31  5-MIN KSTC 231410Z 16004KT 10SM BKN110 20/16 A2993 1020 75 1900 160/04 RMK AO2
14926KSTC STC20120623081509706/23/12 08:15:31  5-MIN KSTC 231415Z 18006KT 10SM OVC180 20/16 A2993 1020 75 1900 180/06 RMK AO2
14926KSTC STC20120623082009706/23/12 08:20:31  5-MIN KSTC 231420Z 18005KT 10SM OVC180 20/16 A2993 1020 75 1900 180/05 RMK AO2
14926KSTC STC20120623082509706/23/12 08:25:31  5-MIN KSTC 231425Z 18004KT 10SM OVC180 20/16 A2993 1020 75 1900 180/04 RMK AO2
14926KSTC STC20120623083009706/23/12 08:30:31  5-MIN KSTC 231430Z 17003KT 10SM OVC180 20/16 A2993 1020 75 1900 170/03 RMK AO2
14926KSTC STC20120623083509706/23/12 08:35:31  5-MIN KSTC 231435Z 16004KT 10SM OVC180 20/16 A2993 1020 78 1900 160/04 RMK AO2
14926KSTC STC20120623084009706/23/12 08:40:31  5-MIN KSTC 231440Z 15004KT 10SM OVC180 20/16 A2993 1020 78 1900 150/04 RMK AO2
14926KSTC STC20120623084509706/23/12 08:45:31  5-MIN KSTC 231445Z 16004KT 10SM OVC180 20/16 A2993 1020 78 1900 160/04 RMK AO2
14926KSTC STC20120623085012606/23/12 08:50:31  5-MIN KSTC 231450Z 15004KT 10SM OVC180 20/16 A2992 1020 78 1900 150/04 RMK AO2 SLP138 60000 T02000161 50006
14926KSTC STC20120623085509706/23/12 08:55:31  5-MIN KSTC 231455Z 15005KT 10SM BKN110 21/16 A2992 1020 75 1900 150/05 RMK AO2
14926KSTC STC20120623090010406/23/12 09:00:31  5-MIN KSTC 231500Z 16004KT 10SM FEW070 BKN110 21/16 A2992 1020 75 1900 160/04 RMK AO2
14926KSTC STC20120623090510406/23/12 09:05:31  5-MIN KSTC 231505Z 16005KT 10SM FEW070 OVC110 21/16 A2992 1030 75 1900 160/05 RMK AO2
14926KSTC STC20120623091010406/23/12 09:10:31  5-MIN KSTC 231510Z 15005KT 10SM FEW090 BKN110 21/17 A2992 1030 75 2000 150/05 RMK AO2
14926KSTC STC20120623091510406/23/12 09:15:31  5-MIN KSTC 231515Z 16006KT 10SM FEW075 OVC110 21/16 A2991 1030 73 2000 160/06 RMK AO2
14926KSTC STC20120623092010406/23/12 09:20:31  5-MIN KSTC 231520Z 16006KT 10SM FEW075 OVC110 21/16 A2991 1030 73 2000 160/06 RMK AO2
14926KSTC STC20120623092511106/23/12 09:25:31  5-MIN KSTC 231525Z 17006KT 10SM FEW075 BKN100 BKN120 21/16 A2991 1030 73 2000 170/06 RMK AO2
14926KSTC STC20120623093009706/23/12 09:30:31  5-MIN KSTC 231530Z 16006KT 10SM SCT100 21/16 A2991 1040 73 2000 160/06 RMK AO2
14926KSTC STC20120623093510406/23/12 09:35:31  5-MIN KSTC 231535Z 16007KT 10SM SCT100 SCT120 21/16 A2991 1040 73 2000 150/07 RMK AO2
14926KSTC STC20120623094010406/23/12 09:40:31  5-MIN KSTC 231540Z 16006KT 10SM FEW100 SCT120 21/16 A2991 1030 73 2000 160/06 RMK AO2
14926KSTC STC20120623094509706/23/12 09:45:31  5-MIN KSTC 231545Z 16006KT 10SM FEW120 21/16 A2992 1030 73 2000 160/06 RMK AO2
14926KSTC STC20120623095011406/23/12 09:50:31  5-MIN KSTC 231550Z 16005KT 10SM SCT110 21/16 A2992 1030 73 2000 160/05 RMK AO2 SLP136 T02110161
14926KSTC STC20120623095510406/23/12 09:55:31  5-MIN KSTC 231555Z 17005KT 10SM FEW090 BKN110 22/16 A2992 1030 70 2100 170/05 RMK AO2
14926KSTC STC20120623100010406/23/12 10:00:31  5-MIN KSTC 231600Z 16005KT 10SM SCT085 BKN110 22/16 A2992 1030 70 2100 160/05 RMK AO2
14926KSTC STC20120623100511106/23/12 10:05:31  5-MIN KSTC 231605Z 18004KT 10SM FEW080 SCT100 SCT120 22/16 A2992 1030 70 2100 180/04 RMK AO2
14926KSTC STC20120623101010406/23/12 10:10:31  5-MIN KSTC 231610Z 17004KT 10SM FEW090 SCT110 22/16 A2992 1020 68 2100 170/04 RMK AO2
14926KSTC STC20120623101509706/23/12 10:15:31  5-MIN KSTC 231615Z 17005KT 10SM SCT100 22/17 A2992 1020 70 2100 170/05 RMK AO2
14926KSTC STC20120623102009706/23/12 10:20:31  5-MIN KSTC 231620Z 17006KT 10SM BKN095 22/16 A2992 1020 68 2100 170/06 RMK AO2
14926KSTC STC20120623102510406/23/12 10:25:31  5-MIN KSTC 231625Z 15005KT 10SM FEW055 BKN100 23/16 A2992 1020 65 2200 150/05 RMK AO2
14926KSTC STC20120623103010406/23/12 10:30:31  5-MIN KSTC 231630Z 16006KT 10SM FEW041 BKN100 23/17 A2992 1030 66 2300 160/06 RMK AO2
14926KSTC STC20120623103510406/23/12 10:35:31  5-MIN KSTC 231635Z 15007KT 10SM FEW041 BKN100 23/16 A2992 1030 65 2200 150/07 RMK AO2
14926KSTC STC20120623104010406/23/12 10:40:31  5-MIN KSTC 231640Z VRB06KT 10SM FEW041 SCT100 23/16 A2992 1030 63 2300 VRB/06 RMK AO2
14926KSTC STC20120623104510406/23/12 10:45:31  5-MIN KSTC 231645Z 15006KT 10SM FEW041 SCT095 23/17 A2992 1030 66 2300 150/06 RMK AO2
14926KSTC STC20120623105011406/23/12 10:50:31  5-MIN KSTC 231650Z 16006KT 10SM FEW041 24/16 A2991 1030 61 2300 150/06 RMK AO2 SLP133 T02390161
14926KSTC STC20120623105509706/23/12 10:55:31  5-MIN KSTC 231655Z 15009KT 10SM FEW039 24/16 A2991 1040 61 2300 150/09 RMK AO2
14926KSTC STC20120623110009706/23/12 11:00:31  5-MIN KSTC 231700Z 16009KT 10SM SCT110 23/16 A2991 1040 63 2300 160/09 RMK AO2
14926KSTC STC20120623110509706/23/12 11:05:31  5-MIN KSTC 231705Z 15010KT 10SM BKN110 23/16 A2991 1030 63 2300 150/10 RMK AO2
14926KSTC STC20120623111009706/23/12 11:10:31  5-MIN KSTC 231710Z 16011KT 10SM BKN110 23/16 A2991 1030 61 2300 160/11 RMK AO2
14926KSTC STC20120623111509706/23/12 11:15:31  5-MIN KSTC 231715Z 18012KT 10SM BKN110 23/15 A2991 1030 61 2200 180/12 RMK AO2
14926KSTC STC20120623112009706/23/12 11:20:31  5-MIN KSTC 231720Z 18009KT 10SM OVC110 23/16 A2991 1030 61 2300 180/09 RMK AO2
14926KSTC STC20120623112509706/23/12 11:25:31  5-MIN KSTC 231725Z 18007KT 10SM BKN110 24/16 A2991 1040 61 2300 180/07 RMK AO2
14926KSTC STC20120623113009706/23/12 11:30:31  5-MIN KSTC 231730Z 17007KT 10SM BKN110 24/16 A2991 1040 59 2400 170/07 RMK AO2
14926KSTC STC20120623113509706/23/12 11:35:31  5-MIN KSTC 231735Z 18007KT 10SM BKN110 24/16 A2991 1040 59 2400 180/07 RMK AO2
14926KSTC STC20120623114010406/23/12 11:40:31  5-MIN KSTC 231740Z 15010KT 10SM FEW080 BKN110 24/16 A2991 1030 57 2400 150/10 RMK AO2
14926KSTC STC20120623114510406/23/12 11:45:31  5-MIN KSTC 231745Z 17008KT 10SM SCT080 BKN110 25/15 A2991 1030 53 2500 170/08 RMK AO2
14926KSTC STC20120623115015106/23/12 11:50:31  5-MIN KSTC 231750Z 18009G17KT 10SM FEW080 BKN110 25/14 A2991 1030 51 2500 180/09G17 RMK AO2 SLP134 60000 T02500144 10250 20178 56002
14926KSTC STC20120623115511006/23/12 11:55:31  5-MIN KSTC 231755Z 19008G17KT 10SM SCT075 BKN110 25/15 A2991 1030 53 2500 190/08G17 RMK AO2
14926KSTC STC20120623120010406/23/12 12:00:31  5-MIN KSTC 231800Z 17008KT 10SM SCT075 BKN110 25/15 A2991 1030 53 2500 170/08 RMK AO2
14926KSTC STC20120623120511006/23/12 12:05:31  5-MIN KSTC 231805Z 17010G16KT 10SM SCT075 BKN110 26/15 A2991 1030 51 2500 170/10G16 RMK AO2
14926KSTC STC20120623121011006/23/12 12:10:31  5-MIN KSTC 231810Z 18013G16KT 10SM FEW075 BKN110 26/14 A2991 1040 49 2500 180/13G16 RMK AO2
14926KSTC STC20120623121510406/23/12 12:15:31  5-MIN KSTC 231815Z 18010KT 10SM FEW075 SCT110 25/14 A2991 1040 51 2500 180/10 RMK AO2
14926KSTC STC20120623122011006/23/12 12:20:31  5-MIN KSTC 231820Z 19011G16KT 10SM FEW075 SCT110 26/15 A2991 1040 51 2500 190/11G16 RMK AO2
14926KSTC STC20120623122510306/23/12 12:25:31  5-MIN KSTC 231825Z 17013G18KT 10SM FEW110 26/14 A2990 1040 49 2500 170/13G18 RMK AO2
14926KSTC STC20120623123009706/23/12 12:30:31  5-MIN KSTC 231830Z 16012KT 10SM FEW110 26/14 A2990 1050 49 2500 160/12 RMK AO2
14926KSTC STC20120623123510006/23/12 12:35:31  5-MIN KSTC 231835Z 16013G19KT 10SM CLR 26/14 A2990 1050 48 2600 160/13G19 RMK AO2
14926KSTC STC20120623124010006/23/12 12:40:31  5-MIN KSTC 231840Z 16013G19KT 10SM CLR 26/14 A2990 1050 48 2500 160/13G19 RMK AO2
14926KSTC STC20120623124510006/23/12 12:45:31  5-MIN KSTC 231845Z 16013G19KT 10SM CLR 26/13 A2989 1050 46 2500 160/13G19 RMK AO2
14926KSTC STC20120623125011706/23/12 12:50:31  5-MIN KSTC 231850Z 17010G19KT 10SM CLR 26/13 A2989 1050 46 2500 160/10G19 RMK AO2 SLP126 T02560133
14926KSTC STC20120623125510006/23/12 12:55:31  5-MIN KSTC 231855Z 17011G20KT 10SM CLR 26/13 A2990 1050 46 2500 160/11G20 RMK AO2
14926KSTC STC20120623130010006/23/12 13:00:31  5-MIN KSTC 231900Z 18009G20KT 10SM CLR 26/13 A2990 1050 46 2500 180/09G20 RMK AO2
14926KSTC STC20120623130510006/23/12 13:05:31  5-MIN KSTC 231905Z 16012G16KT 10SM CLR 26/14 A2989 1050 46 2600 160/12G16 RMK AO2
14926KSTC STC20120623131010006/23/12 13:10:31  5-MIN KSTC 231910Z 18010G17KT 10SM CLR 26/14 A2989 1050 46 2600 180/10G17 RMK AO2
14926KSTC STC20120623131510006/23/12 13:15:31  5-MIN KSTC 231915Z 17014G18KT 10SM CLR 26/13 A2989 1050 44 2600 170/14G18 RMK AO2
14926KSTC STC20120623132010006/23/12 13:20:31  5-MIN KSTC 231920Z 17011G18KT 10SM CLR 26/14 A2989 1050 46 2600 170/11G18 RMK AO2
14926KSTC STC20120623132510006/23/12 13:25:31  5-MIN KSTC 231925Z 18008G16KT 10SM CLR 26/13 A2989 1050 44 2600 180/08G16 RMK AO2
14926KSTC STC20120623133009706/23/12 13:30:31  5-MIN KSTC 231930Z 16009KT 10SM FEW065 26/14 A2989 1050 46 2600 160/09 RMK AO2
14926KSTC STC20120623133509706/23/12 13:35:31  5-MIN KSTC 231935Z 19007KT 10SM SCT065 26/14 A2989 1060 46 2600 190/07 RMK AO2
14926KSTC STC20120623134009706/23/12 13:40:31  5-MIN KSTC 231940Z 16009KT 10SM SCT065 27/14 A2989 1050 45 2700 160/09 RMK AO2
14926KSTC STC20120623134509706/23/12 13:45:31  5-MIN KSTC 231945Z 16011KT 10SM FEW065 26/14 A2989 1050 46 2600 160/11 RMK AO2
14926KSTC STC20120623135012006/23/12 13:50:31  5-MIN KSTC 231950Z 16012G16KT 10SM FEW065 27/14 A2989 1060 46 2700 160/12G16 RMK AO2 SLP123 T02670144
14926KSTC STC20120623135510306/23/12 13:55:31  5-MIN KSTC 231955Z 18010G16KT 10SM FEW065 26/14 A2989 1060 46 2600 170/10G16 RMK AO2
14926KSTC STC20120623140009706/23/12 14:00:31  5-MIN KSTC 232000Z 19011KT 10SM FEW065 26/14 A2989 1060 46 2600 190/11 RMK AO2
14926KSTC STC20120623140510306/23/12 14:05:31  5-MIN KSTC 232005Z 17008G16KT 10SM FEW070 27/14 A2989 1060 45 2700 170/08G16 RMK AO2
14926KSTC STC20120623141010306/23/12 14:10:31  5-MIN KSTC 232010Z 16011G16KT 10SM FEW070 26/14 A2988 1060 48 2600 160/11G16 RMK AO2
14926KSTC STC20120623141510306/23/12 14:15:31  5-MIN KSTC 232015Z 17013G18KT 10SM FEW070 26/14 A2988 1060 48 2600 170/13G18 RMK AO2
14926KSTC STC20120623142010306/23/12 14:20:31  5-MIN KSTC 232020Z 18012G18KT 10SM FEW070 26/14 A2988 1060 48 2600 180/12G18 RMK AO2
14926KSTC STC20120623142510306/23/12 14:25:31  5-MIN KSTC 232025Z 18008G17KT 10SM FEW070 26/14 A2988 1060 48 2600 180/08G17 RMK AO2
14926KSTC STC20120623143010306/23/12 14:30:31  5-MIN KSTC 232030Z 18011G17KT 10SM FEW070 27/15 A2988 1060 48 2700 180/11G17 RMK AO2
14926KSTC STC20120623143510006/23/12 14:35:31  5-MIN KSTC 232035Z 17010G17KT 10SM CLR 27/15 A2988 1060 48 2700 170/10G17 RMK AO2
14926KSTC STC20120623144009406/23/12 14:40:31  5-MIN KSTC 232040Z 17011KT 10SM CLR 27/15 A2987 1070 48 2700 160/11 RMK AO2
14926KSTC STC20120623144509406/23/12 14:45:31  5-MIN KSTC 232045Z 16011KT 10SM CLR 27/15 A2987 1070 48 2700 160/11 RMK AO2
14926KSTC STC20120623145011706/23/12 14:50:31  5-MIN KSTC 232050Z 18010KT 10SM CLR 26/16 A2987 1070 51 2600 180/10 RMK AO2 SLP119 T02610156 55003
14926KSTC STC20120623145509406/23/12 14:55:31  5-MIN KSTC 232055Z 17012KT 10SM CLR 26/16 A2987 1070 51 2600 170/12 RMK AO2
14926KSTC STC20120623150009406/23/12 15:00:31  5-MIN KSTC 232100Z 17013KT 10SM CLR 26/15 A2988 1060 51 2600 170/13 RMK AO2
14926KSTC STC20120623150509706/23/12 15:05:31  5-MIN KSTC 232105Z 19011KT 10SM FEW041 25/15 A2988 1060 53 2500 190/11 RMK AO2
14926KSTC STC20120623151009706/23/12 15:10:31  5-MIN KSTC 232110Z 18011KT 10SM FEW041 26/16 A2988 1060 53 2600 180/11 RMK AO2
14926KSTC STC20120623151510306/23/12 15:15:31  5-MIN KSTC 232115Z 15012G18KT 10SM FEW041 26/16 A2987 1070 53 2600 150/12G18 RMK AO2
14926KSTC STC20120623152010306/23/12 15:20:31  5-MIN KSTC 232120Z 15011G18KT 10SM FEW039 26/16 A2987 1070 53 2600 150/11G18 RMK AO2
14926KSTC STC20120623152510306/23/12 15:25:31  5-MIN KSTC 232125Z 16009G18KT 10SM SCT039 26/16 A2987 1070 53 2600 160/09G18 RMK AO2
14926KSTC STC20120623153010306/23/12 15:30:31  5-MIN KSTC 232130Z 18009G17KT 10SM SCT039 26/16 A2987 1070 53 2600 180/09G17 RMK AO2
14926KSTC STC20120623153510306/23/12 15:35:31  5-MIN KSTC 232135Z 16012G17KT 10SM SCT039 26/16 A2987 1070 53 2600 160/12G17 RMK AO2
14926KSTC STC20120623154010306/23/12 15:40:31  5-MIN KSTC 232140Z 15011G16KT 10SM BKN039 26/16 A2987 1070 51 2600 150/11G16 RMK AO2
14926KSTC STC20120623154509706/23/12 15:45:31  5-MIN KSTC 232145Z 17012KT 10SM BKN039 26/16 A2987 1070 53 2600 170/12 RMK AO2
14926KSTC STC20120623155012006/23/12 15:50:31  5-MIN KSTC 232150Z 16008G16KT 10SM BKN039 26/16 A2987 1070 53 2600 150/08G16 RMK AO2 SLP120 T02560156
14926KSTC STC20120623155509706/23/12 15:55:31  5-MIN KSTC 232155Z 18012KT 10SM BKN039 26/16 A2987 1070 53 2600 170/12 RMK AO2
14926KSTC STC20120623160009706/23/12 16:00:31  5-MIN KSTC 232200Z 16009KT 10SM BKN037 26/16 A2988 1070 55 2600 160/09 RMK AO2
14926KSTC STC20120623160509706/23/12 16:05:31  5-MIN KSTC 232205Z 18009KT 10SM OVC037 25/16 A2988 1070 55 2500 180/09 RMK AO2
14926KSTC STC20120623161009706/23/12 16:10:31  5-MIN KSTC 232210Z 16009KT 10SM OVC037 25/16 A2988 1060 55 2500 150/09 RMK AO2
14926KSTC STC20120623161510306/23/12 16:15:31  5-MIN KSTC 232215Z 17011G17KT 10SM BKN037 25/16 A2988 1060 55 2500 170/11G17 RMK AO2
14926KSTC STC20120623162010306/23/12 16:20:31  5-MIN KSTC 232220Z 18010G17KT 10SM BKN037 25/16 A2988 1060 55 2500 180/10G17 RMK AO2
14926KSTC STC20120623162509706/23/12 16:25:31  5-MIN KSTC 232225Z 19012KT 10SM BKN037 26/16 A2988 1070 53 2600 190/12 RMK AO2
14926KSTC STC20120623163009706/23/12 16:30:31  5-MIN KSTC 232230Z 20009KT 10SM BKN037 26/16 A2987 1070 53 2600 190/09 RMK AO2
14926KSTC STC20120623163509706/23/12 16:35:31  5-MIN KSTC 232235Z 16011KT 10SM SCT037 26/16 A2987 1070 53 2600 160/11 RMK AO2
14926KSTC STC20120623164009706/23/12 16:40:31  5-MIN KSTC 232240Z 18008KT 10SM FEW039 26/16 A2988 1070 53 2600 180/08 RMK AO2
14926KSTC STC20120623164509706/23/12 16:45:31  5-MIN KSTC 232245Z 16010KT 10SM FEW039 26/16 A2988 1070 53 2600 160/10 RMK AO2
14926KSTC STC20120623165011406/23/12 16:50:31  5-MIN KSTC 232250Z 18009KT 10SM FEW039 26/16 A2988 1070 53 2600 180/09 RMK AO2 SLP121 T02560156
14926KSTC STC20120623165510006/23/12 16:55:31  5-MIN KSTC 232255Z 17011G14KT 10SM CLR 26/16 A2988 1070 53 2600 170/11G14 RMK AO2
14926KSTC STC20120623170010006/23/12 17:00:31  5-MIN KSTC 232300Z 17009G14KT 10SM CLR 26/16 A2987 1070 53 2600 170/09G14 RMK AO2
14926KSTC STC20120623170511006/23/12 17:05:31  5-MIN KSTC 232305Z 18009KT 140V210 10SM CLR 26/16 A2988 1070 53 2600 170/09 140V210 RMK AO2
14926KSTC STC20120623171009406/23/12 17:10:31  5-MIN KSTC 232310Z 17007KT 10SM CLR 24/16 A2987 1070 57 2400 170/07 RMK AO2
14926KSTC STC20120623171509406/23/12 17:15:31  5-MIN KSTC 232315Z 17007KT 10SM CLR 25/16 A2987 1070 57 2500 160/07 RMK AO2
14926KSTC STC20120623172009406/23/12 17:20:31  5-MIN KSTC 232320Z 16009KT 10SM CLR 25/16 A2987 1070 55 2500 160/09 RMK AO2
14926KSTC STC20120623172509406/23/12 17:25:31  5-MIN KSTC 232325Z 16007KT 10SM CLR 25/16 A2987 1070 55 2500 160/07 RMK AO2
14926KSTC STC20120623173009406/23/12 17:30:31  5-MIN KSTC 232330Z 16008KT 10SM CLR 25/16 A2987 1070 55 2500 150/08 RMK AO2
14926KSTC STC20120623173509406/23/12 17:35:31  5-MIN KSTC 232335Z 16008KT 10SM CLR 25/16 A2987 1070 57 2500 160/08 RMK AO2
14926KSTC STC20120623174009406/23/12 17:40:31  5-MIN KSTC 232340Z 15009KT 10SM CLR 25/16 A2987 1070 55 2500 150/09 RMK AO2
14926KSTC STC20120623174509406/23/12 17:45:31  5-MIN KSTC 232345Z 17009KT 10SM CLR 25/16 A2986 1080 55 2500 170/09 RMK AO2
14926KSTC STC20120623175012906/23/12 17:50:31  5-MIN KSTC 232350Z 16008KT 10SM CLR 25/16 A2986 1080 55 2500 160/08 RMK AO2 SLP116 T02500156 10267 20244 56014
14926KSTC STC20120623175509406/23/12 17:55:31  5-MIN KSTC 232355Z 16007KT 10SM CLR 25/16 A2986 1080 57 2500 150/07 RMK AO2
14926KSTC STC20120623180009406/23/12 18:00:31  5-MIN KSTC 240000Z 17008KT 10SM CLR 25/16 A2987 1080 55 2500 170/08 RMK AO2
14926KSTC STC20120623180509406/23/12 18:05:31  5-MIN KSTC 240005Z 15010KT 10SM CLR 25/16 A2987 1070 57 2500 150/10 RMK AO2
14926KSTC STC20120623181009406/23/12 18:10:31  5-MIN KSTC 240010Z 16008KT 10SM CLR 24/16 A2987 1070 57 2500 160/08 RMK AO2
14926KSTC STC20120623181509406/23/12 18:15:31  5-MIN KSTC 240015Z 15007KT 10SM CLR 24/16 A2987 1070 57 2400 150/07 RMK AO2
14926KSTC STC20120623182009406/23/12 18:20:31  5-MIN KSTC 240020Z 17009KT 10SM CLR 24/16 A2987 1070 57 2400 160/09 RMK AO2
14926KSTC STC20120623182509406/23/12 18:25:31  5-MIN KSTC 240025Z 17007KT 10SM CLR 24/16 A2988 1070 57 2400 170/07 RMK AO2
14926KSTC STC20120623183009406/23/12 18:30:31  5-MIN KSTC 240030Z 16006KT 10SM CLR 24/16 A2988 1060 57 2400 160/06 RMK AO2
14926KSTC STC20120623183509406/23/12 18:35:31  5-MIN KSTC 240035Z 16006KT 10SM CLR 24/16 A2989 1060 57 2400 160/06 RMK AO2
14926KSTC STC20120623184009706/23/12 18:40:31  5-MIN KSTC 240040Z 16006KT 10SM FEW037 24/16 A2989 1050 61 2400 160/06 RMK AO2
14926KSTC STC20120623184509706/23/12 18:45:31  5-MIN KSTC 240045Z 18006KT 10SM SCT037 24/16 A2990 1050 61 2400 180/06 RMK AO2
14926KSTC STC20120623185011406/23/12 18:50:31  5-MIN KSTC 240050Z 17005KT 10SM BKN037 24/16 A2990 1050 61 2400 170/05 RMK AO2 SLP129 T02390161
14926KSTC STC20120623185509706/23/12 18:55:31  5-MIN KSTC 240055Z 16006KT 10SM BKN037 24/16 A2990 1040 61 2400 160/06 RMK AO2
14926KSTC STC20120623190009706/23/12 19:00:31  5-MIN KSTC 240100Z 16005KT 10SM BKN039 24/16 A2990 1040 61 2400 160/05 RMK AO2
14926KSTC STC20120623190509706/23/12 19:05:31  5-MIN KSTC 240105Z 15004KT 10SM OVC039 23/16 A2990 1040 63 2300 150/04 RMK AO2
14926KSTC STC20120623191009706/23/12 19:10:31  5-MIN KSTC 240110Z 16004KT 10SM OVC039 23/17 A2990 1040 66 2300 160/04 RMK AO2
14926KSTC STC20120623191509706/23/12 19:15:31  5-MIN KSTC 240115Z 16004KT 10SM OVC039 23/17 A2991 1040 66 2300 160/04 RMK AO2
14926KSTC STC20120623192009706/23/12 19:20:31  5-MIN KSTC 240120Z 17003KT 10SM OVC041 23/16 A2991 1040 63 2300 170/03 RMK AO2
14926KSTC STC20120623192509706/23/12 19:25:31  5-MIN KSTC 240125Z 16003KT 10SM OVC041 23/17 A2991 1040 66 2300 160/03 RMK AO2
14926KSTC STC20120623193009706/23/12 19:30:31  5-MIN KSTC 240130Z 17003KT 10SM OVC041 23/17 A2991 1040 66 2300 170/03 RMK AO2
14926KSTC STC20120623193509706/23/12 19:35:31  5-MIN KSTC 240135Z 17003KT 10SM OVC043 23/17 A2991 1030 66 2300 170/03 RMK AO2
14926KSTC STC20120623194009706/23/12 19:40:31  5-MIN KSTC 240140Z 00000KT 10SM OVC045 23/17 A2991 1030 66 2300 000/00 RMK AO2
14926KSTC STC20120623194509706/23/12 19:45:31  5-MIN KSTC 240145Z 00000KT 10SM OVC045 23/17 A2991 1040 68 2300 000/00 RMK AO2
14926KSTC STC20120623195011406/23/12 19:50:31  5-MIN KSTC 240150Z 14003KT 10SM OVC046 23/17 A2990 1040 70 2200 140/03 RMK AO2 SLP130 T02280172
14926KSTC STC20120623195509706/23/12 19:55:31  5-MIN KSTC 240155Z 14004KT 10SM OVC046 23/17 A2990 1040 70 2200 140/04 RMK AO2
14926KSTC STC20120623200009706/23/12 20:00:31  5-MIN KSTC 240200Z 14004KT 10SM OVC048 22/17 A2990 1050 73 2200 140/04 RMK AO2
14926KSTC STC20120623200510406/23/12 20:05:31  5-MIN KSTC 240205Z 14003KT 10SM BKN043 BKN050 22/17 A2990 1050 73 2200 140/03 RMK AO2
14926KSTC STC20120623201010406/23/12 20:10:31  5-MIN KSTC 240210Z 13003KT 10SM BKN043 BKN050 22/17 A2990 1040 73 2200 130/03 RMK AO2
14926KSTC STC20120623201509706/23/12 20:15:31  5-MIN KSTC 240215Z 00000KT 10SM BKN047 23/17 A2991 1040 68 2200 000/00 RMK AO2
14926KSTC STC20120623202009706/23/12 20:20:31  5-MIN KSTC 240220Z 12003KT 10SM BKN047 22/17 A2991 1040 70 2200 120/03 RMK AO2
14926KSTC STC20120623202510406/23/12 20:25:31  5-MIN KSTC 240225Z 14003KT 10SM BKN047 BKN055 22/17 A2991 1040 70 2200 140/03 RMK AO2
14926KSTC STC20120623203010406/23/12 20:30:31  5-MIN KSTC 240230Z 14004KT 10SM BKN047 BKN055 22/17 A2990 1040 75 2100 140/04 RMK AO2
14926KSTC STC20120623203509706/23/12 20:35:31  5-MIN KSTC 240235Z 13004KT 10SM BKN047 21/17 A2990 1050 78 2000 130/04 RMK AO2
14926KSTC STC20120623204009706/23/12 20:40:31  5-MIN KSTC 240240Z 14005KT 10SM SCT047 22/17 A2990 1050 73 2100 140/05 RMK AO2
14926KSTC STC20120623204509706/23/12 20:45:31  5-MIN KSTC 240245Z 14004KT 10SM FEW045 22/17 A2990 1040 73 2100 140/04 RMK AO2
14926KSTC STC20120623205012006/23/12 20:50:31  5-MIN KSTC 240250Z 15004KT 10SM FEW043 21/17 A2991 1040 75 2000 150/04 RMK AO2 SLP131 T02110167 58004
14926KSTC STC20120623205509406/23/12 20:55:31  5-MIN KSTC 240255Z 14005KT 10SM CLR 21/17 A2990 1050 78 2000 140/05 RMK AO2
14926KSTC STC20120623210009406/23/12 21:00:31  5-MIN KSTC 240300Z 14005KT 10SM CLR 21/17 A2990 1050 81 2000 140/05 RMK AO2
14926KSTC STC20120623210509406/23/12 21:05:31  5-MIN KSTC 240305Z 14004KT 10SM CLR 21/17 A2990 1050 78 2000 140/04 RMK AO2
14926KSTC STC20120623211009406/23/12 21:10:31  5-MIN KSTC 240310Z 14005KT 10SM CLR 21/17 A2990 1050 75 2000 140/05 RMK AO2
14926KSTC STC20120623211509406/23/12 21:15:31  5-MIN KSTC 240315Z 14005KT 10SM CLR 21/17 A2989 1050 75 2000 140/05 RMK AO2
14926KSTC STC20120623212009406/23/12 21:20:31  5-MIN KSTC 240320Z 14005KT 10SM CLR 21/17 A2989 1050 78 2000 140/05 RMK AO2
14926KSTC STC20120623212509406/23/12 21:25:31  5-MIN KSTC 240325Z 15007KT 10SM CLR 21/17 A2989 1060 78 2000 150/07 RMK AO2
14926KSTC STC20120623213009406/23/12 21:30:31  5-MIN KSTC 240330Z 15008KT 10SM CLR 21/17 A2988 1060 78 2000 150/08 RMK AO2
14926KSTC STC20120623213509406/23/12 21:35:31  5-MIN KSTC 240335Z 13004KT 10SM CLR 22/17 A2989 1050 73 2100 130/04 RMK AO2
14926KSTC STC20120623214009406/23/12 21:40:31  5-MIN KSTC 240340Z 12004KT 10SM CLR 21/17 A2990 1050 75 2000 120/04 RMK AO2
14926KSTC STC20120623214509406/23/12 21:45:31  5-MIN KSTC 240345Z 11004KT 10SM CLR 21/17 A2990 1040 75 2000 110/04 RMK AO2
14926KSTC STC20120623215011106/23/12 21:50:31  5-MIN KSTC 240350Z 13004KT 10SM CLR 21/17 A2990 1040 75 2000 130/04 RMK AO2 SLP129 T02110167
14926KSTC STC20120623215509906/23/12 21:55:31  5-MIN KSTC 240355Z AUTO 13004KT 10SM CLR 21/17 A2990 1040 78 2000 130/04 RMK AO2
14926KSTC STC20120623220009906/23/12 22:00:31  5-MIN KSTC 240400Z AUTO 14004KT 10SM CLR 21/17 A2990 1040 78 2000 130/04 RMK AO2
14926KSTC STC20120623220509906/23/12 22:05:31  5-MIN KSTC 240405Z AUTO 13004KT 10SM CLR 21/17 A2991 1040 78 2000 130/04 RMK AO2
14926KSTC STC20120623221009906/23/12 22:10:31  5-MIN KSTC 240410Z AUTO 12003KT 10SM CLR 21/17 A2991 1040 78 2000 120/03 RMK AO2
14926KSTC STC20120623221509906/23/12 22:15:31  5-MIN KSTC 240415Z AUTO 14004KT 10SM CLR 21/17 A2991 1040 78 2000 140/04 RMK AO2
14926KSTC STC20120623222009906/23/12 22:20:31  5-MIN KSTC 240420Z AUTO 13003KT 10SM CLR 21/17 A2991 1040 78 2000 130/03 RMK AO2
14926KSTC STC20120623222509906/23/12 22:25:31  5-MIN KSTC 240425Z AUTO 00000KT 10SM CLR 21/17 A2991 1030 78 2000 000/00 RMK AO2
14926KSTC STC20120623223009906/23/12 22:30:31  5-MIN KSTC 240430Z AUTO 11003KT 10SM CLR 21/17 A2991 1030 78 2000 100/03 RMK AO2
14926KSTC STC20120623223509906/23/12 22:35:31  5-MIN KSTC 240435Z AUTO 11003KT 10SM CLR 20/17 A2991 1030 81 1900 110/03 RMK AO2
14926KSTC STC20120623224009906/23/12 22:40:31  5-MIN KSTC 240440Z AUTO 09003KT 10SM CLR 20/17 A2991 1030 81 1900 090/03 RMK AO2
14926KSTC STC20120623224509906/23/12 22:45:31  5-MIN KSTC 240445Z AUTO 09003KT 10SM CLR 20/17 A2991 1030 81 1900 090/03 RMK AO2
14926KSTC STC20120623225011606/23/12 22:50:31  5-MIN KSTC 240450Z AUTO 09003KT 10SM CLR 20/17 A2991 1030 81 1900 090/03 RMK AO2 SLP133 T02000167
14926KSTC STC20120623225509906/23/12 22:55:31  5-MIN KSTC 240455Z AUTO 11004KT 10SM CLR 20/17 A2991 1030 81 1900 110/04 RMK AO2
14926KSTC STC20120623230009906/23/12 23:00:31  5-MIN KSTC 240500Z AUTO 11003KT 10SM CLR 20/17 A2991 1030 81 1900 100/03 RMK AO2
14926KSTC STC20120623230509906/23/12 23:05:31  5-MIN KSTC 240505Z AUTO 00000KT 10SM CLR 20/17 A2992 1030 81 1900 000/00 RMK AO2
14926KSTC STC20120623231009906/23/12 23:10:31  5-MIN KSTC 240510Z AUTO 00000KT 10SM CLR 19/17 A2992 1030 84 1800 000/00 RMK AO2
14926KSTC STC20120623231509906/23/12 23:15:31  5-MIN KSTC 240515Z AUTO 00000KT 10SM CLR 19/17 A2992 1030 84 1800 000/00 RMK AO2
14926KSTC STC20120623232009906/23/12 23:20:31  5-MIN KSTC 240520Z AUTO 00000KT 10SM CLR 18/16 A2992 1030 87 1700 000/00 RMK AO2
14926KSTC STC20120623232509906/23/12 23:25:31  5-MIN KSTC 240525Z AUTO 00000KT 10SM CLR 18/17 A2992 1030 90 1700 000/00 RMK AO2
14926KSTC STC20120623233009906/23/12 23:30:31  5-MIN KSTC 240530Z AUTO 00000KT 10SM CLR 18/17 A2992 1020 93 1600 000/00 RMK AO2
14926KSTC STC20120623233509906/23/12 23:35:31  5-MIN KSTC 240535Z AUTO 00000KT 10SM CLR 18/17 A2992 1020 90 1700 000/00 RMK AO2
14926KSTC STC20120623234009906/23/12 23:40:31  5-MIN KSTC 240540Z AUTO 00000KT 10SM CLR 18/16 A2992 1020 90 1600 000/00 RMK AO2
14926KSTC STC20120623234509906/23/12 23:45:31  5-MIN KSTC 240545Z AUTO 00000KT 10SM CLR 18/16 A2993 1020 90 1600 000/00 RMK AO2
14926KSTC STC20120623235014406/23/12 23:50:31  5-MIN KSTC 240550Z AUTO 00000KT 10SM CLR 18/16 A2993 1020 90 1600 000/00 RMK AO2 SLP138 T01780161 10250 20178 402670167 50013
14926KSTC STC20120623235509906/23/12 23:55:31  5-MIN KSTC 240555Z AUTO 00000KT 10SM CLR 18/16 A2992 1020 90 1600 000/00 RMK AO2
14926KSTC STC20120624000009906/24/12 00:00:32  5-MIN KSTC 240600Z AUTO 00000KT 10SM CLR 18/16 A2993 1020 90 1600 000/00 RMK AO2
14926KSTC STC20120624000509906/24/12 00:05:31  5-MIN KSTC 240605Z AUTO 00000KT 10SM CLR 18/16 A2993 1020 90 1600 000/00 RMK AO2
14926KSTC STC20120624001009906/24/12 00:10:31  5-MIN KSTC 240610Z AUTO 00000KT 10SM CLR 18/16 A2993 1020 90 1600 000/00 RMK AO2
14926KSTC STC20120624001509906/24/12 00:15:31  5-MIN KSTC 240615Z AUTO 00000KT 10SM CLR 18/17 A2993 1020 93 1600 000/00 RMK AO2
14926KSTC STC20120624002010206/24/12 00:20:31  5-MIN KSTC 240620Z AUTO 00000KT 10SM FEW044 18/16 A2993 1020 90 1600 000/00 RMK AO2
14926KSTC STC20120624002510206/24/12 00:25:31  5-MIN KSTC 240625Z AUTO 00000KT 10SM FEW044 17/16 A2993 1020 93 1600 000/00 RMK AO2
14926KSTC STC20120624003010206/24/12 00:30:31  5-MIN KSTC 240630Z AUTO 00000KT 10SM FEW046 17/16 A2993 1020 93 1600 000/00 RMK AO2
14926KSTC STC20120624003510206/24/12 00:35:31  5-MIN KSTC 240635Z AUTO 00000KT 10SM SCT046 18/16 A2993 1020 90 1600 000/00 RMK AO2
14926KSTC STC20120624004010206/24/12 00:40:31  5-MIN KSTC 240640Z AUTO 00000KT 10SM BKN048 18/16 A2993 1020 90 1600 000/00 RMK AO2
14926KSTC STC20120624004510206/24/12 00:45:31  5-MIN KSTC 240645Z AUTO 08003KT 10SM BKN048 18/17 A2993 1020 90 1700 080/03 RMK AO2
14926KSTC STC20120624005012606/24/12 00:50:31  5-MIN KSTC 240650Z AUTO 00000KT 10SM FEW042 BKN048 18/17 A2993 1020 90 1700 000/00 RMK AO2 SLP139 T01830167
14926KSTC STC20120624005511606/24/12 00:55:31  5-MIN KSTC 240655Z AUTO 00000KT 10SM FEW042 BKN048 BKN055 18/17 A2993 1010 90 1700 000/00 RMK AO2
14926KSTC STC20120624010010906/24/12 01:00:31  5-MIN KSTC 240700Z AUTO 00000KT 10SM BKN047 BKN055 18/17 A2993 1010 90 1700 000/00 RMK AO2
14926KSTC STC20120624010511606/24/12 01:05:31  5-MIN KSTC 240705Z AUTO 00000KT 10SM FEW042 BKN049 BKN060 19/17 A2994 1010 87 1700 000/00 RMK AO2
14926KSTC STC20120624011010906/24/12 01:10:31  5-MIN KSTC 240710Z AUTO 00000KT 10SM SCT044 BKN055 19/17 A2994 1010 87 1700 000/00 RMK AO2
14926KSTC STC20120624011511606/24/12 01:15:31  5-MIN KSTC 240715Z AUTO 00000KT 10SM FEW041 BKN049 BKN060 19/17 A2994 1010 87 1700 000/00 RMK AO2
14926KSTC STC20120624012010906/24/12 01:20:31  5-MIN KSTC 240720Z AUTO 00000KT 10SM BKN045 OVC055 19/17 A2994 1010 87 1700 000/00 RMK AO2
14926KSTC STC20120624012511606/24/12 01:25:31  5-MIN KSTC 240725Z AUTO 00000KT 10SM SCT045 BKN060 BKN070 19/17 A2994 1010 87 1700 000/00 RMK AO2
14926KSTC STC20120624013010906/24/12 01:30:31  5-MIN KSTC 240730Z AUTO 06004KT 10SM SCT045 BKN060 18/17 A2993 1010 90 1700 060/04 RMK AO2
14926KSTC STC20120624013510906/24/12 01:35:31  5-MIN KSTC 240735Z AUTO 08004KT 10SM SCT045 BKN060 19/17 A2994 1010 87 1700 080/04 RMK AO2
14926KSTC STC20120624014010906/24/12 01:40:31  5-MIN KSTC 240740Z AUTO 08004KT 10SM FEW042 SCT060 19/17 A2994 1010 87 1700 070/04 RMK AO2
14926KSTC STC20120624014510206/24/12 01:45:31  5-MIN KSTC 240745Z AUTO 06004KT 10SM FEW044 18/17 A2994 1010 90 1700 060/04 RMK AO2
14926KSTC STC20120624015011906/24/12 01:50:31  5-MIN KSTC 240750Z AUTO 08004KT 10SM FEW041 18/17 A2994 1010 90 1700 080/04 RMK AO2 SLP141 T01830167
14926KSTC STC20120624015510206/24/12 01:55:31  5-MIN KSTC 240755Z AUTO 08004KT 10SM FEW041 19/17 A2994 1010 87 1700 080/04 RMK AO2
14926KSTC STC20120624020010206/24/12 02:00:31  5-MIN KSTC 240800Z AUTO 08004KT 10SM SCT039 19/17 A2994 1010 87 1700 070/04 RMK AO2
14926KSTC STC20120624020510906/24/12 02:05:31  5-MIN KSTC 240805Z AUTO 08004KT 10SM SCT039 SCT055 19/17 A2994 1010 87 1700 080/04 RMK AO2
14926KSTC STC20120624021010906/24/12 02:10:31  5-MIN KSTC 240810Z AUTO 00000KT 10SM FEW041 SCT055 19/17 A2994 1010 87 1700 000/00 RMK AO2
14926KSTC STC20120624021510206/24/12 02:15:31  5-MIN KSTC 240815Z AUTO 00000KT 10SM FEW041 19/17 A2994 1010 87 1700 000/00 RMK AO2
14926KSTC STC20120624022010906/24/12 02:20:31  5-MIN KSTC 240820Z AUTO 00000KT 10SM FEW041 SCT048 19/17 A2994 1010 87 1700 000/00 RMK AO2
14926KSTC STC20120624022510906/24/12 02:25:31  5-MIN KSTC 240825Z AUTO 00000KT 10SM SCT041 BKN050 19/17 A2994 1000 87 1700 000/00 RMK AO2
14926KSTC STC20120624023010906/24/12 02:30:31  5-MIN KSTC 240830Z AUTO 00000KT 10SM SCT043 BKN055 19/17 A2994 1000 87 1700 000/00 RMK AO2
14926KSTC STC20120624023510906/24/12 02:35:31  5-MIN KSTC 240835Z AUTO 00000KT 10SM SCT045 BKN055 19/17 A2995 1000 87 1700 000/00 RMK AO2
14926KSTC STC20120624024010906/24/12 02:40:31  5-MIN KSTC 240840Z AUTO 00000KT 10SM SCT045 BKN055 19/17 A2995 1000 87 1700 000/00 RMK AO2
14926KSTC STC20120624024511606/24/12 02:45:31  5-MIN KSTC 240845Z AUTO 00000KT 10SM SCT045 BKN055 BKN110 19/17 A2995 1000 87 1700 000/00 RMK AO2
14926KSTC STC20120624025013906/24/12 02:50:31  5-MIN KSTC 240850Z AUTO 00000KT 10SM FEW042 SCT050 BKN110 19/17 A2995 1000 87 1700 000/00 RMK AO2 SLP143 T01890167 53008
14926KSTC STC20120624025511606/24/12 02:55:31  5-MIN KSTC 240855Z AUTO 00000KT 10SM FEW042 SCT049 BKN060 19/17 A2994 1000 87 1700 000/00 RMK AO2
14926KSTC STC20120624030011606/24/12 03:00:31  5-MIN KSTC 240900Z AUTO 00000KT 10SM BKN047 BKN060 BKN110 19/17 A2995 1000 87 1700 000/00 RMK AO2
14926KSTC STC20120624030511606/24/12 03:05:31  5-MIN KSTC 240905Z AUTO 00000KT 10SM SCT045 BKN055 BKN110 19/17 A2995 1000 87 1700 000/00 RMK AO2
14926KSTC STC20120624031011606/24/12 03:10:31  5-MIN KSTC 240910Z AUTO 00000KT 10SM SCT043 BKN050 BKN060 19/17 A2995 1000 87 1700 000/00 RMK AO2
14926KSTC STC20120624031510906/24/12 03:15:31  5-MIN KSTC 240915Z AUTO 00000KT 10SM BKN043 BKN050 19/17 A2994 1000 87 1700 000/00 RMK AO2
14926KSTC STC20120624032010906/24/12 03:20:31  5-MIN KSTC 240920Z AUTO 00000KT 10SM SCT043 BKN055 19/17 A2994 1000 87 1700 000/00 RMK AO2
14926KSTC STC20120624032510906/24/12 03:25:31  5-MIN KSTC 240925Z AUTO 13003KT 10SM SCT043 BKN060 19/17 A2995 1000 87 1700 120/03 RMK AO2
14926KSTC STC20120624033011606/24/12 03:30:31  5-MIN KSTC 240930Z AUTO 00000KT 10SM SCT037 SCT044 BKN055 19/17 A2995 1000 87 1700 000/00 RMK AO2
14926KSTC STC20120624033510906/24/12 03:35:31  5-MIN KSTC 240935Z AUTO 00000KT 10SM BKN040 BKN055 19/17 A2995 1000 87 1800 000/00 RMK AO2
14926KSTC STC20120624034010906/24/12 03:40:31  5-MIN KSTC 240940Z AUTO 00000KT 10SM BKN038 BKN055 19/17 A2995 1000 87 1800 000/00 RMK AO2
14926KSTC STC20120624034510906/24/12 03:45:31  5-MIN KSTC 240945Z AUTO 00000KT 10SM SCT038 OVC060 19/17 A2995 1000 87 1800 000/00 RMK AO2
14926KSTC STC20120624035012606/24/12 03:50:31  5-MIN KSTC 240950Z AUTO 00000KT 10SM SCT038 OVC060 19/17 A2995 1000 87 1800 000/00 RMK AO2 SLP146 T01940172
14926KSTC STC20120624035511606/24/12 03:55:31  5-MIN KSTC 240955Z AUTO 00000KT 10SM SCT038 BKN050 OVC080 19/17 A2995 1000 87 1800 000/00 RMK AO2
14926KSTC STC20120624040011606/24/12 04:00:31  5-MIN KSTC 241000Z AUTO 00000KT 10SM SCT040 BKN050 OVC080 19/17 A2995 1000 87 1800 000/00 RMK AO2
14926KSTC STC20120624040511606/24/12 04:05:31  5-MIN KSTC 241005Z AUTO 00000KT 10SM SCT042 BKN050 OVC080 19/17 A2995 1000 87 1800 000/00 RMK AO2
14926KSTC STC20120624041011606/24/12 04:10:31  5-MIN KSTC 241010Z AUTO 00000KT 10SM SCT042 BKN048 OVC070 19/17 A2995 1000 87 1800 000/00 RMK AO2
14926KSTC STC20120624041511606/24/12 04:15:31  5-MIN KSTC 241015Z AUTO 00000KT 10SM SCT042 SCT048 OVC075 19/17 A2995 1000 87 1800 000/00 RMK AO2
14926KSTC STC20120624042010806/24/12 04:20:31  5-MIN KSTC 241020Z AUTO 00000KT 10SM SCT044 OVC075 19/17 A2995 990 87 1800 000/00 RMK AO2
14926KSTC STC20120624042510906/24/12 04:25:31  5-MIN KSTC 241025Z AUTO 00000KT 10SM BKN044 OVC080 19/17 A2995 1000 87 1800 000/00 RMK AO2
14926KSTC STC20120624043010906/24/12 04:30:31  5-MIN KSTC 241030Z AUTO 00000KT 10SM BKN044 OVC080 19/17 A2995 1000 90 1700 000/00 RMK AO2
14926KSTC STC20120624043510806/24/12 04:35:31  5-MIN KSTC 241035Z AUTO 00000KT 10SM FEW040 OVC080 19/17 A2996 990 90 1700 000/00 RMK AO2
14926KSTC STC20120624044010806/24/12 04:40:31  5-MIN KSTC 241040Z AUTO 00000KT 10SM FEW045 BKN080 18/17 A2996 990 93 1600 000/00 RMK AO2
14926KSTC STC20120624044511406/24/12 04:45:31  5-MIN KSTC 241045Z AUTO 00000KT 9SM FEW045 BKN080 BKN120 19/17 A2996 990 90 1700 000/00 RMK AO2
14926KSTC STC20120624045013106/24/12 04:50:31  5-MIN KSTC 241050Z AUTO 00000KT 9SM SCT043 BKN080 BKN120 19/17 A2996 990 90 1700 000/00 RMK AO2 SLP150 T01890172
14926KSTC STC20120624045510706/24/12 04:55:31  5-MIN KSTC 241055Z AUTO 05006KT 9SM SCT041 BKN080 18/17 A2997 980 90 1600 050/06 RMK AO2
14926KSTC STC20120624050011406/24/12 05:00:31  5-MIN KSTC 241100Z AUTO 05007KT 9SM SCT041 SCT050 BKN080 19/17 A2997 980 87 1700 040/07 RMK AO2
14926KSTC STC20120624050511506/24/12 05:05:31  5-MIN KSTC 241105Z AUTO 07005KT 10SM SCT041 BKN050 BKN080 19/17 A2997 980 87 1700 070/05 RMK AO2
14926KSTC STC20120624051011506/24/12 05:10:31  5-MIN KSTC 241110Z AUTO 05005KT 10SM BKN039 BKN050 BKN075 19/17 A2997 980 87 1700 050/05 RMK AO2
14926KSTC STC20120624051511506/24/12 05:15:31  5-MIN KSTC 241115Z AUTO 04004KT 10SM FEW033 SCT039 BKN050 19/17 A2997 980 87 1700 040/04 RMK AO2
14926KSTC STC20120624052011506/24/12 05:20:31  5-MIN KSTC 241120Z AUTO 04005KT 10SM FEW033 SCT039 SCT050 19/17 A2998 970 84 1800 030/05 RMK AO2
14926KSTC STC20120624052511506/24/12 05:25:31  5-MIN KSTC 241125Z AUTO 04004KT 10SM FEW026 SCT039 SCT050 19/17 A2998 980 84 1800 040/04 RMK AO2
14926KSTC STC20120624053011506/24/12 05:30:31  5-MIN KSTC 241130Z AUTO 05005KT 10SM FEW023 SCT037 BKN070 19/17 A2998 970 84 1800 050/05 RMK AO2
14926KSTC STC20120624053511506/24/12 05:35:31  5-MIN KSTC 241135Z AUTO 04005KT 10SM FEW023 SCT035 BKN060 19/17 A2998 970 84 1800 040/05 RMK AO2
14926KSTC STC20120624054011006/24/12 05:40:31  5-MIN KSTC 241140Z 06004KT 10SM FEW025 BKN060 BKN075 19/17 A2998 980 84 1800 060/04 RMK AO2
14926KSTC STC20120624054511006/24/12 05:45:31  5-MIN KSTC 241145Z 05005KT 10SM FEW021 BKN060 BKN075 19/17 A2998 970 84 1800 050/05 RMK AO2
14926KSTC STC20120624055014506/24/12 05:50:31  5-MIN KSTC 241150Z 04004KT 10SM FEW021 SCT060 OVC075 19/17 A2998 970 84 1800 040/04 RMK AO2 SLP154 T01940167 10194 20172 51006
14926KSTC STC20120624055511006/24/12 05:55:31  5-MIN KSTC 241155Z 03005KT 10SM FEW021 SCT060 BKN075 19/17 A2998 970 84 1800 030/05 RMK AO2
14926KSTC STC20120624060011006/24/12 06:00:31  5-MIN KSTC 241200Z 04006KT 10SM FEW021 SCT060 BKN075 19/17 A2998 970 84 1800 030/06 RMK AO2
14926KSTC STC20120624060511006/24/12 06:05:31  5-MIN KSTC 241205Z 05005KT 10SM SCT021 SCT060 BKN075 19/17 A2998 970 84 1800 050/05 RMK AO2
14926KSTC STC20120624061010306/24/12 06:10:31  5-MIN KSTC 241210Z 05005KT 10SM BKN021 BKN075 20/17 A2998 970 81 1800 050/05 RMK AO2
14926KSTC STC20120624061510306/24/12 06:15:31  5-MIN KSTC 241215Z 05006KT 10SM BKN021 BKN075 20/17 A2998 970 81 1800 050/06 RMK AO2
14926KSTC STC20120624062010306/24/12 06:20:31  5-MIN KSTC 241220Z 06006KT 10SM SCT021 SCT075 20/17 A2998 970 81 1800 060/06 RMK AO2
14926KSTC STC20120624062509606/24/12 06:25:31  5-MIN KSTC 241225Z 07006KT 10SM SCT021 20/16 A2998 970 78 1800 070/06 RMK AO2
14926KSTC STC20120624063009606/24/12 06:30:31  5-MIN KSTC 241230Z 07006KT 10SM SCT021 21/16 A2998 970 75 1900 070/06 RMK AO2
14926KSTC STC20120624063509606/24/12 06:35:31  5-MIN KSTC 241235Z 07005KT 10SM FEW021 21/16 A2998 970 75 1900 070/05 RMK AO2
14926KSTC STC20120624064009306/24/12 06:40:31  5-MIN KSTC 241240Z 07005KT 10SM CLR 21/16 A2998 970 75 1900 070/05 RMK AO2
14926KSTC STC20120624064509306/24/12 06:45:31  5-MIN KSTC 241245Z 06005KT 10SM CLR 21/16 A2998 970 73 1900 060/05 RMK AO2
14926KSTC STC20120624065011306/24/12 06:50:31  5-MIN KSTC 241250Z 06005KT 10SM FEW055 21/16 A2998 970 73 1900 060/05 RMK AO2 SLP156 T02110161
14926KSTC STC20120624065509606/24/12 06:55:31  5-MIN KSTC 241255Z 06005KT 10SM FEW055 21/16 A2998 970 73 1900 060/05 RMK AO2
14926KSTC STC20120624070009606/24/12 07:00:31  5-MIN KSTC 241300Z 06005KT 10SM FEW055 22/16 A2999 970 70 2000 060/05 RMK AO2
14926KSTC STC20120624070509606/24/12 07:05:31  5-MIN KSTC 241305Z 06005KT 10SM FEW055 22/17 A2999 960 73 2000 060/05 RMK AO2
14926KSTC STC20120624071009606/24/12 07:10:31  5-MIN KSTC 241310Z 05007KT 10SM FEW055 22/17 A2999 960 70 2100 050/07 RMK AO2
14926KSTC STC20120624071509606/24/12 07:15:31  5-MIN KSTC 241315Z 05006KT 10SM FEW055 22/17 A2999 960 70 2100 050/06 RMK AO2
14926KSTC STC20120624072009306/24/12 07:20:31  5-MIN KSTC 241320Z 04008KT 10SM CLR 22/17 A2999 960 73 2000 040/08 RMK AO2
14926KSTC STC20120624072509306/24/12 07:25:31  5-MIN KSTC 241325Z 07007KT 10SM CLR 22/16 A2999 960 70 2000 070/07 RMK AO2
14926KSTC STC20120624073009306/24/12 07:30:31  5-MIN KSTC 241330Z 04006KT 10SM CLR 22/17 A2999 960 70 2100 040/06 RMK AO2
14926KSTC STC20120624073509306/24/12 07:35:31  5-MIN KSTC 241335Z 06006KT 10SM CLR 22/16 A3000 960 68 2100 050/06 RMK AO2
14926KSTC STC20120624074009306/24/12 07:40:31  5-MIN KSTC 241340Z 05004KT 10SM CLR 22/16 A3000 960 68 2100 050/04 RMK AO2
14926KSTC STC20120624074509606/24/12 07:45:31  5-MIN KSTC 241345Z 05007KT 10SM FEW055 23/17 A3000 950 68 2100 050/07 RMK AO2
14926KSTC STC20120624075011306/24/12 07:50:31  5-MIN KSTC 241350Z 07004KT 10SM FEW060 23/17 A3000 950 68 2100 070/04 RMK AO2 SLP162 T02280167
14926KSTC STC20120624075509606/24/12 07:55:31  5-MIN KSTC 241355Z 05005KT 10SM SCT060 23/17 A3000 950 68 2100 050/05 RMK AO2
14926KSTC STC20120624080009606/24/12 08:00:31  5-MIN KSTC 241400Z VRB05KT 10SM FEW060 23/17 A3000 950 66 2200 VRB/05 RMK AO2
14926KSTC STC20120624080509606/24/12 08:05:31  5-MIN KSTC 241405Z 05006KT 10SM SCT055 23/17 A3000 950 66 2200 050/06 RMK AO2
14926KSTC STC20120624081009606/24/12 08:10:31  5-MIN KSTC 241410Z 07006KT 10SM BKN055 23/16 A3001 950 63 2200 060/06 RMK AO2
14926KSTC STC20120624081509606/24/12 08:15:31  5-MIN KSTC 241415Z 04008KT 10SM BKN055 23/16 A3001 950 63 2200 040/08 RMK AO2
14926KSTC STC20120624082009606/24/12 08:20:31  5-MIN KSTC 241420Z 05007KT 10SM BKN055 23/16 A3001 950 63 2200 050/07 RMK AO2
14926KSTC STC20120624082509606/24/12 08:25:31  5-MIN KSTC 241425Z 03006KT 10SM BKN055 23/17 A3001 950 66 2200 030/06 RMK AO2
14926KSTC STC20120624083009606/24/12 08:30:31  5-MIN KSTC 241430Z 03006KT 10SM OVC055 23/16 A3001 940 63 2200 030/06 RMK AO2
14926KSTC STC20120624083509606/24/12 08:35:31  5-MIN KSTC 241435Z 04006KT 10SM BKN055 23/16 A3001 940 63 2200 030/06 RMK AO2
14926KSTC STC20120624084009606/24/12 08:40:31  5-MIN KSTC 241440Z 01006KT 10SM BKN060 24/16 A3001 940 61 2200 010/06 RMK AO2
14926KSTC STC20120624084509606/24/12 08:45:31  5-MIN KSTC 241445Z 02005KT 10SM BKN060 24/17 A3001 940 63 2200 020/05 RMK AO2
14926KSTC STC20120624085011906/24/12 08:50:31  5-MIN KSTC 241450Z 03008KT 10SM SCT060 24/17 A3001 940 61 2300 030/08 RMK AO2 SLP165 T02440167 53012
14926KSTC STC20120624085509606/24/12 08:55:31  5-MIN KSTC 241455Z VRB05KT 10SM SCT060 24/17 A3001 940 61 2300 VRB/05 RMK AO2
14926KSTC STC20120624090009606/24/12 09:00:31  5-MIN KSTC 241500Z 02008KT 10SM FEW060 24/17 A3001 940 61 2300 020/08 RMK AO2
14926KSTC STC20120624090509606/24/12 09:05:31  5-MIN KSTC 241505Z 04007KT 10SM FEW060 25/17 A3001 940 59 2400 030/07 RMK AO2
14926KSTC STC20120624091009306/24/12 09:10:31  5-MIN KSTC 241510Z 04007KT 10SM CLR 25/17 A3001 940 59 2400 040/07 RMK AO2
14926KSTC STC20120624091509306/24/12 09:15:31  5-MIN KSTC 241515Z 03007KT 10SM CLR 25/17 A3001 940 59 2400 030/07 RMK AO2
14926KSTC STC20120624092009306/24/12 09:20:31  5-MIN KSTC 241520Z 02005KT 10SM CLR 25/16 A3001 940 57 2400 020/05 RMK AO2
14926KSTC STC20120624092509306/24/12 09:25:31  5-MIN KSTC 241525Z VRB06KT 10SM CLR 26/17 A3001 940 57 2400 VRB/06 RMK AO2
14926KSTC STC20120624093009306/24/12 09:30:31  5-MIN KSTC 241530Z 05007KT 10SM CLR 26/17 A3001 940 57 2400 050/07 RMK AO2
14926KSTC STC20120624093509306/24/12 09:35:31  5-MIN KSTC 241535Z 04009KT 10SM CLR 26/17 A3001 940 55 2500 040/09 RMK AO2
14926KSTC STC20120624094009306/24/12 09:40:31  5-MIN KSTC 241540Z 04006KT 10SM CLR 26/17 A3001 940 55 2500 040/06 RMK AO2
14926KSTC STC20120624094509306/24/12 09:45:31  5-MIN KSTC 241545Z 04006KT 10SM CLR 26/17 A3001 940 55 2500 040/06 RMK AO2
14926KSTC STC20120624095011006/24/12 09:50:31  5-MIN KSTC 241550Z 03008KT 10SM CLR 26/17 A3001 940 55 2500 030/08 RMK AO2 SLP166 T02610167
14926KSTC STC20120624095510906/24/12 09:55:31  5-MIN KSTC 241555Z 03009KT 350V050 10SM CLR 26/17 A3001 940 55 2500 030/09 350V050 RMK AO2
14926KSTC STC20120624100009306/24/12 10:00:31  5-MIN KSTC 241600Z 03009KT 10SM CLR 26/17 A3001 940 55 2500 030/09 RMK AO2
14926KSTC STC20120624100509306/24/12 10:05:31  5-MIN KSTC 241605Z 01008KT 10SM CLR 27/17 A3002 940 53 2500 010/08 RMK AO2
14926KSTC STC20120624101009306/24/12 10:10:31  5-MIN KSTC 241610Z 02009KT 10SM CLR 27/17 A3002 930 53 2500 010/09 RMK AO2
14926KSTC STC20120624101509306/24/12 10:15:31  5-MIN KSTC 241615Z 03009KT 10SM CLR 27/17 A3002 930 53 2500 030/09 RMK AO2
14926KSTC STC20120624102009306/24/12 10:20:31  5-MIN KSTC 241620Z 04009KT 10SM CLR 26/17 A3002 930 55 2500 040/09 RMK AO2
14926KSTC STC20120624102509906/24/12 10:25:31  5-MIN KSTC 241625Z 02009G15KT 10SM CLR 26/16 A3002 930 53 2500 020/09G15 RMK AO2
14926KSTC STC20120624103009906/24/12 10:30:31  5-MIN KSTC 241630Z 03007G15KT 10SM CLR 27/16 A3002 930 52 2500 030/07G15 RMK AO2
14926KSTC STC20120624103509306/24/12 10:35:31  5-MIN KSTC 241635Z 04007KT 10SM CLR 27/16 A3002 930 50 2600 040/07 RMK AO2
14926KSTC STC20120624104010906/24/12 10:40:31  5-MIN KSTC 241640Z 03007KT 350V060 10SM CLR 27/16 A3002 930 50 2600 030/07 350V060 RMK AO2
14926KSTC STC20120624104509306/24/12 10:45:31  5-MIN KSTC 241645Z 04007KT 10SM CLR 27/16 A3002 930 52 2500 040/07 RMK AO2
14926KSTC STC20120624105011006/24/12 10:50:31  5-MIN KSTC 241650Z 03006KT 10SM CLR 27/16 A3002 930 50 2600 030/06 RMK AO2 SLP169 T02720161
14926KSTC STC20120624105509306/24/12 10:55:31  5-MIN KSTC 241655Z 04007KT 10SM CLR 27/16 A3002 930 50 2600 040/07 RMK AO2
14926KSTC STC20120624110009606/24/12 11:00:31  5-MIN KSTC 241700Z VRB05KT 10SM FEW038 27/16 A3003 930 50 2600 VRB/05 RMK AO2
14926KSTC STC20120624110509606/24/12 11:05:31  5-MIN KSTC 241705Z 06009KT 10SM FEW038 27/17 A3003 930 52 2600 060/09 RMK AO2
14926KSTC STC20120624111009306/24/12 11:10:31  5-MIN KSTC 241710Z 04009KT 10SM CLR 27/17 A3003 930 52 2600 040/09 RMK AO2
14926KSTC STC20120624111509306/24/12 11:15:31  5-MIN KSTC 241715Z 02009KT 10SM CLR 27/16 A3002 930 50 2600 020/09 RMK AO2
14926KSTC STC20120624112009306/24/12 11:20:31  5-MIN KSTC 241720Z 05008KT 10SM CLR 27/17 A3003 930 52 2600 050/08 RMK AO2
14926KSTC STC20120624112509306/24/12 11:25:31  5-MIN KSTC 241725Z 05009KT 10SM CLR 27/17 A3003 930 52 2600 050/09 RMK AO2
14926KSTC STC20120624113009306/24/12 11:30:31  5-MIN KSTC 241730Z 06009KT 10SM CLR 27/17 A3003 930 52 2600 060/09 RMK AO2
14926KSTC STC20120624113509606/24/12 11:35:31  5-MIN KSTC 241735Z 05008KT 10SM FEW038 27/17 A3003 920 52 2600 050/08 RMK AO2
14926KSTC STC20120624114010206/24/12 11:40:31  5-MIN KSTC 241740Z 03005G14KT 10SM FEW038 28/17 A3003 920 50 2600 030/05G14 RMK AO2
14926KSTC STC20120624114510206/24/12 11:45:31  5-MIN KSTC 241745Z 05009G15KT 10SM FEW038 27/16 A3003 930 50 2600 050/09G15 RMK AO2
14926KSTC STC20120624115013706/24/12 11:50:31  5-MIN KSTC 241750Z 06008G15KT 10SM FEW038 27/16 A3003 930 50 2600 060/08G15 RMK AO2 SLP172 T02720161 10278 20194 53010
14926KSTC STC20120624115509606/24/12 11:55:31  5-MIN KSTC 241755Z 06007KT 10SM FEW038 28/17 A3003 920 50 2600 060/07 RMK AO2
14926KSTC STC20120624120009606/24/12 12:00:31  5-MIN KSTC 241800Z 02008KT 10SM FEW038 28/17 A3003 920 50 2600 020/08 RMK AO2
14926KSTC STC20120624120511206/24/12 12:05:31  5-MIN KSTC 241805Z 05008KT 020V080 10SM FEW038 27/16 A3003 920 50 2600 050/08 020V080 RMK AO2
14926KSTC STC20120624121009606/24/12 12:10:31  5-MIN KSTC 241810Z 01008KT 10SM FEW038 28/16 A3003 920 48 2600 010/08 RMK AO2
14926KSTC STC20120624121509606/24/12 12:15:31  5-MIN KSTC 241815Z 05007KT 10SM FEW040 28/17 A3003 920 48 2700 050/07 RMK AO2
14926KSTC STC20120624122009606/24/12 12:20:31  5-MIN KSTC 241820Z 04006KT 10SM FEW040 27/16 A3003 920 50 2600 040/06 RMK AO2
14926KSTC STC20120624122509606/24/12 12:25:31  5-MIN KSTC 241825Z 04008KT 10SM SCT042 27/16 A3003 920 50 2600 040/08 RMK AO2
14926KSTC STC20120624123009606/24/12 12:30:31  5-MIN KSTC 241830Z 03006KT 10SM SCT042 27/17 A3004 920 53 2500 030/06 RMK AO2
14926KSTC STC20120624123510206/24/12 12:35:31  5-MIN KSTC 241835Z 04009G14KT 10SM SCT042 28/16 A3004 920 48 2600 040/09G14 RMK AO2
14926KSTC STC20120624124010206/24/12 12:40:31  5-MIN KSTC 241840Z 04008G14KT 10SM SCT042 28/16 A3004 920 46 2600 040/08G14 RMK AO2
14926KSTC STC20120624124509606/24/12 12:45:31  5-MIN KSTC 241845Z 07006KT 10SM SCT044 28/17 A3004 910 48 2700 070/06 RMK AO2
14926KSTC STC20120624125011306/24/12 12:50:31  5-MIN KSTC 241850Z 10006KT 10SM BKN045 27/17 A3004 910 53 2500 100/06 RMK AO2 SLP177 T02670167
14926KSTC STC20120624125510306/24/12 12:55:31  5-MIN KSTC 241855Z 03006KT 10SM BKN043 BKN050 27/17 A3005 910 53 2500 030/06 RMK AO2
14926KSTC STC20120624130010306/24/12 13:00:31  5-MIN KSTC 241900Z 05007KT 10SM BKN043 BKN050 27/17 A3004 910 53 2500 050/07 RMK AO2
14926KSTC STC20120624130510306/24/12 13:05:31  5-MIN KSTC 241905Z 05008KT 10SM SCT041 BKN050 27/17 A3004 910 53 2500 040/08 RMK AO2
14926KSTC STC20120624131010306/24/12 13:10:31  5-MIN KSTC 241910Z VRB04KT 10SM SCT041 BKN050 27/16 A3004 920 50 2600 VRB/04 RMK AO2
14926KSTC STC20120624131510906/24/12 13:15:31  5-MIN KSTC 241915Z 06010G14KT 10SM BKN041 BKN050 28/17 A3004 920 50 2600 060/10G14 RMK AO2
14926KSTC STC20120624132010906/24/12 13:20:31  5-MIN KSTC 241920Z 05007G14KT 10SM BKN041 BKN050 27/17 A3004 920 53 2500 050/07G14 RMK AO2
14926KSTC STC20120624132510306/24/12 13:25:31  5-MIN KSTC 241925Z 06007KT 10SM SCT041 SCT050 28/16 A3004 920 48 2600 060/07 RMK AO2
14926KSTC STC20120624133010906/24/12 13:30:31  5-MIN KSTC 241930Z 04009G15KT 10SM SCT043 SCT050 28/16 A3003 920 48 2600 040/09G15 RMK AO2
14926KSTC STC20120624133510206/24/12 13:35:31  5-MIN KSTC 241935Z 07006G15KT 10SM SCT043 28/16 A3003 920 48 2600 070/06G15 RMK AO2
14926KSTC STC20120624134010206/24/12 13:40:31  5-MIN KSTC 241940Z 06010G15KT 10SM SCT043 28/16 A3003 920 48 2600 060/10G15 RMK AO2
14926KSTC STC20120624134510906/24/12 13:45:31  5-MIN KSTC 241945Z 07007G15KT 10SM SCT045 SCT055 27/16 A3004 920 48 2600 070/07G15 RMK AO2
14926KSTC STC20120624135012006/24/12 13:50:31  5-MIN KSTC 241950Z 04006KT 10SM FEW045 SCT055 28/16 A3004 920 46 2600 040/06 RMK AO2 SLP175 T02780156
14926KSTC STC20120624135511806/24/12 13:55:31  5-MIN KSTC 241955Z 05008G16KT 010V090 10SM FEW045 28/16 A3004 910 47 2700 050/08G16 010V090 RMK AO2
14926KSTC STC20120624140010206/24/12 14:00:31  5-MIN KSTC 242000Z 06009G16KT 10SM SCT050 28/16 A3004 910 45 2700 060/09G16 RMK AO2
14926KSTC STC20120624140509606/24/12 14:05:31  5-MIN KSTC 242005Z 06008KT 10SM SCT050 28/16 A3005 910 46 2600 060/08 RMK AO2
14926KSTC STC20120624141010306/24/12 14:10:31  5-MIN KSTC 242010Z 08009KT 10SM SCT045 BKN055 27/16 A3005 910 50 2600 070/09 RMK AO2
14926KSTC STC20120624141510306/24/12 14:15:31  5-MIN KSTC 242015Z 08005KT 10SM BKN043 BKN050 27/16 A3005 910 50 2600 080/05 RMK AO2
14926KSTC STC20120624142010306/24/12 14:20:31  5-MIN KSTC 242020Z 08006KT 10SM SCT043 BKN050 27/16 A3005 910 50 2600 070/06 RMK AO2
14926KSTC STC20120624142510306/24/12 14:25:31  5-MIN KSTC 242025Z 07009KT 10SM BKN043 BKN050 27/17 A3005 910 52 2600 070/09 RMK AO2
14926KSTC STC20120624143010306/24/12 14:30:31  5-MIN KSTC 242030Z VRB05KT 10SM SCT043 BKN050 27/16 A3005 910 50 2600 VRB/05 RMK AO2
14926KSTC STC20120624143510306/24/12 14:35:31  5-MIN KSTC 242035Z 08008KT 10SM BKN041 BKN050 28/16 A3005 910 48 2600 080/08 RMK AO2
14926KSTC STC20120624144011306/24/12 14:40:31  5-MIN KSTC 242040Z AUTO VRB06KT 10SM BKN041 BKN050 26/17 A3005 900 55 2400 VRB/06 RMK AO2 TSNO
14926KSTC STC20120624161509306/24/12 16:15:31  5-MIN KSTC 242215Z 08008KT 10SM CLR 27/14 A3005 900 46 2500 080/08 RMK AO2
14926KSTC STC20120624162009306/24/12 16:20:31  5-MIN KSTC 242220Z 05007KT 10SM CLR 26/14 A3005 900 48 2400 050/07 RMK AO2
14926KSTC STC20120624162509606/24/12 16:25:31  5-MIN KSTC 242225Z 05007KT 10SM FEW047 26/15 A3005 910 50 2400 050/07 RMK AO2
14926KSTC STC20120624163009606/24/12 16:30:31  5-MIN KSTC 242230Z VRB06KT 10SM FEW047 27/15 A3005 910 48 2500 VRB/06 RMK AO2
14926KSTC STC20120624163509606/24/12 16:35:31  5-MIN KSTC 242235Z 07007KT 10SM FEW047 26/14 A3005 900 48 2400 070/07 RMK AO2
14926KSTC STC20120624164009606/24/12 16:40:31  5-MIN KSTC 242240Z 05005KT 10SM FEW047 26/14 A3005 900 48 2400 050/05 RMK AO2
14926KSTC STC20120624164509606/24/12 16:45:31  5-MIN KSTC 242245Z 05007KT 10SM FEW047 26/15 A3005 900 50 2400 050/07 RMK AO2
14926KSTC STC20120624165011306/24/12 16:50:31  5-MIN KSTC 242250Z 08006KT 10SM FEW047 26/14 A3005 910 48 2400 080/06 RMK AO2 SLP179 T02610144
14926KSTC STC20120624165509306/24/12 16:55:31  5-MIN KSTC 242255Z 07005KT 10SM CLR 27/14 A3004 920 46 2500 070/05 RMK AO2
14926KSTC STC20120624170009306/24/12 17:00:31  5-MIN KSTC 242300Z 06008KT 10SM CLR 27/15 A3004 910 48 2500 060/08 RMK AO2
14926KSTC STC20120624170509306/24/12 17:05:31  5-MIN KSTC 242305Z 08007KT 10SM CLR 26/14 A3005 910 48 2400 080/07 RMK AO2
14926KSTC STC20120624171009306/24/12 17:10:31  5-MIN KSTC 242310Z 08005KT 10SM CLR 26/14 A3005 910 48 2400 070/05 RMK AO2
14926KSTC STC20120624171509306/24/12 17:15:31  5-MIN KSTC 242315Z 10007KT 10SM CLR 26/14 A3004 910 48 2400 100/07 RMK AO2
14926KSTC STC20120624172009306/24/12 17:20:31  5-MIN KSTC 242320Z 08006KT 10SM CLR 26/14 A3004 910 48 2400 080/06 RMK AO2
14926KSTC STC20120624172509306/24/12 17:25:31  5-MIN KSTC 242325Z 10006KT 10SM CLR 26/14 A3004 920 49 2400 100/06 RMK AO2
14926KSTC STC20120624173009306/24/12 17:30:31  5-MIN KSTC 242330Z 08007KT 10SM CLR 26/14 A3005 910 48 2400 080/07 RMK AO2
14926KSTC STC20120624173509306/24/12 17:35:31  5-MIN KSTC 242335Z 08005KT 10SM CLR 25/14 A3006 900 49 2300 080/05 RMK AO2
14926KSTC STC20120624174010006/24/12 17:40:31  5-MIN KSTC 242340Z 06003KT 10SM CLR 25/14 A3007 890 51 2300 060/03 RMK AO2 PRESRR
14926KSTC STC20120624174509306/24/12 17:45:31  5-MIN KSTC 242345Z 08003KT 10SM CLR 25/14 A3006 890 51 2300 080/03 RMK AO2
14926KSTC STC20120624175012806/24/12 17:50:31  5-MIN KSTC 242350Z 09004KT 10SM CLR 25/14 A3005 900 51 2300 090/04 RMK AO2 SLP180 T02500144 10283 20250 51006
14926KSTC STC20120624175509306/24/12 17:55:31  5-MIN KSTC 242355Z 08006KT 10SM CLR 25/14 A3004 920 51 2300 080/06 RMK AO2
14926KSTC STC20120624180010006/24/12 18:00:31  5-MIN KSTC 250000Z 08004KT 10SM CLR 24/14 A3003 920 53 2300 080/04 RMK AO2 PRESFR
14926KSTC STC20120624180509306/24/12 18:05:31  5-MIN KSTC 250005Z 11004KT 10SM CLR 24/14 A3003 930 53 2300 110/04 RMK AO2
14926KSTC STC20120624181009306/24/12 18:10:31  5-MIN KSTC 250010Z 09006KT 10SM CLR 24/14 A3003 920 53 2300 090/06 RMK AO2
14926KSTC STC20120624181509306/24/12 18:15:31  5-MIN KSTC 250015Z 10005KT 10SM CLR 24/14 A3004 920 53 2300 100/05 RMK AO2
14926KSTC STC20120624182009306/24/12 18:20:31  5-MIN KSTC 250020Z 08004KT 10SM CLR 24/14 A3004 920 55 2200 080/04 RMK AO2
14926KSTC STC20120624182509306/24/12 18:25:31  5-MIN KSTC 250025Z 07008KT 10SM CLR 24/14 A3005 910 53 2300 070/08 RMK AO2
14926KSTC STC20120624183009306/24/12 18:30:31  5-MIN KSTC 250030Z 07005KT 10SM CLR 25/15 A3004 910 53 2300 070/05 RMK AO2
14926KSTC STC20120624183509306/24/12 18:35:31  5-MIN KSTC 250035Z 06004KT 10SM CLR 25/15 A3005 910 53 2300 060/04 RMK AO2
14926KSTC STC20120624184009306/24/12 18:40:31  5-MIN KSTC 250040Z 06004KT 10SM CLR 25/15 A3006 900 53 2300 060/04 RMK AO2
14926KSTC STC20120624184509606/24/12 18:45:31  5-MIN KSTC 250045Z 06004KT 10SM FEW047 24/15 A3006 900 57 2200 060/04 RMK AO2
14926KSTC STC20120624185011306/24/12 18:50:31  5-MIN KSTC 250050Z 05005KT 10SM SCT047 24/14 A3006 900 55 2200 050/05 RMK AO2 SLP183 T02390144
14926KSTC STC20120624185509606/24/12 18:55:31  5-MIN KSTC 250055Z 06005KT 10SM BKN047 24/15 A3006 900 57 2200 060/05 RMK AO2
14926KSTC STC20120624190009606/24/12 19:00:31  5-MIN KSTC 250100Z VRB04KT 10SM BKN047 24/15 A3006 900 55 2200 VRB/04 RMK AO2
14926KSTC STC20120624190509606/24/12 19:05:31  5-MIN KSTC 250105Z 06005KT 10SM BKN047 24/15 A3006 890 57 2200 060/05 RMK AO2
14926KSTC STC20120624191009606/24/12 19:10:31  5-MIN KSTC 250110Z 06005KT 10SM BKN047 24/15 A3006 890 57 2200 060/05 RMK AO2
14926KSTC STC20120624191509606/24/12 19:15:31  5-MIN KSTC 250115Z 07006KT 10SM BKN047 23/15 A3007 890 59 2100 060/06 RMK AO2
14926KSTC STC20120624192009606/24/12 19:20:31  5-MIN KSTC 250120Z 06005KT 10SM BKN047 23/14 A3006 890 57 2100 060/05 RMK AO2
14926KSTC STC20120624192509606/24/12 19:25:31  5-MIN KSTC 250125Z 07006KT 10SM SCT047 23/14 A3006 900 57 2100 070/06 RMK AO2
14926KSTC STC20120624193009606/24/12 19:30:31  5-MIN KSTC 250130Z 06006KT 10SM FEW047 23/14 A3006 890 55 2100 060/06 RMK AO2
14926KSTC STC20120624193509606/24/12 19:35:31  5-MIN KSTC 250135Z 07006KT 10SM FEW047 23/14 A3006 900 57 2000 060/06 RMK AO2
14926KSTC STC20120624194009306/24/12 19:40:31  5-MIN KSTC 250140Z 07006KT 10SM CLR 23/14 A3006 890 57 2000 070/06 RMK AO2
14926KSTC STC20120624194509306/24/12 19:45:31  5-MIN KSTC 250145Z 07005KT 10SM CLR 23/14 A3006 890 57 2000 070/05 RMK AO2
14926KSTC STC20120624195011006/24/12 19:50:31  5-MIN KSTC 250150Z 07005KT 10SM CLR 22/14 A3006 890 59 2000 060/05 RMK AO2 SLP184 T02220139
14926KSTC STC20120624195509306/24/12 19:55:31  5-MIN KSTC 250155Z 06004KT 10SM CLR 22/14 A3007 890 59 2000 060/04 RMK AO2
14926KSTC STC20120624200009306/24/12 20:00:31  5-MIN KSTC 250200Z 04005KT 10SM CLR 22/14 A3007 890 61 1900 040/05 RMK AO2
14926KSTC STC20120624200509306/24/12 20:05:31  5-MIN KSTC 250205Z 05004KT 10SM CLR 22/14 A3007 890 61 1900 050/04 RMK AO2
14926KSTC STC20120624201009306/24/12 20:10:31  5-MIN KSTC 250210Z 06005KT 10SM CLR 21/14 A3007 890 63 1800 060/05 RMK AO2
14926KSTC STC20120624201509306/24/12 20:15:31  5-MIN KSTC 250215Z 06004KT 10SM CLR 21/14 A3007 890 63 1800 060/04 RMK AO2
14926KSTC STC20120624202009306/24/12 20:20:31  5-MIN KSTC 250220Z 07004KT 10SM CLR 21/14 A3007 890 63 1800 070/04 RMK AO2
14926KSTC STC20120624202509306/24/12 20:25:31  5-MIN KSTC 250225Z 08004KT 10SM CLR 21/14 A3007 890 65 1800 080/04 RMK AO2
14926KSTC STC20120624203009306/24/12 20:30:31  5-MIN KSTC 250230Z 07004KT 10SM CLR 21/14 A3007 880 65 1800 070/04 RMK AO2
14926KSTC STC20120624203509306/24/12 20:35:31  5-MIN KSTC 250235Z 08004KT 10SM CLR 21/14 A3008 880 65 1800 080/04 RMK AO2
14926KSTC STC20120624204009306/24/12 20:40:31  5-MIN KSTC 250240Z 07005KT 10SM CLR 21/14 A3008 880 65 1800 070/05 RMK AO2
14926KSTC STC20120624204509306/24/12 20:45:31  5-MIN KSTC 250245Z 07005KT 10SM CLR 21/14 A3008 880 65 1800 070/05 RMK AO2
14926KSTC STC20120624205011606/24/12 20:50:31  5-MIN KSTC 250250Z 08005KT 10SM CLR 21/13 A3008 880 63 1800 080/05 RMK AO2 SLP189 T02060133 58002
14926KSTC STC20120624205509306/24/12 20:55:31  5-MIN KSTC 250255Z 08004KT 10SM CLR 20/13 A3008 880 65 1700 080/04 RMK AO2
14926KSTC STC20120624210009306/24/12 21:00:31  5-MIN KSTC 250300Z 07004KT 10SM CLR 21/13 A3009 870 63 1800 070/04 RMK AO2
14926KSTC STC20120624210509306/24/12 21:05:31  5-MIN KSTC 250305Z 07004KT 10SM CLR 20/13 A3009 870 65 1700 070/04 RMK AO2
14926KSTC STC20120624211009306/24/12 21:10:31  5-MIN KSTC 250310Z 07004KT 10SM CLR 20/13 A3009 870 65 1700 070/04 RMK AO2
14926KSTC STC20120624211509306/24/12 21:15:31  5-MIN KSTC 250315Z 07004KT 10SM CLR 20/14 A3009 870 67 1700 070/04 RMK AO2
14926KSTC STC20120624212009306/24/12 21:20:31  5-MIN KSTC 250320Z 06004KT 10SM CLR 20/14 A3009 870 67 1700 060/04 RMK AO2
14926KSTC STC20120624212509306/24/12 21:25:31  5-MIN KSTC 250325Z 07005KT 10SM CLR 20/14 A3009 870 67 1700 070/05 RMK AO2
14926KSTC STC20120624213009306/24/12 21:30:31  5-MIN KSTC 250330Z 07004KT 10SM CLR 19/14 A3010 860 70 1600 070/04 RMK AO2
14926KSTC STC20120624213509306/24/12 21:35:31  5-MIN KSTC 250335Z 07005KT 10SM CLR 19/14 A3010 860 70 1600 070/05 RMK AO2
14926KSTC STC20120624214009306/24/12 21:40:31  5-MIN KSTC 250340Z 08004KT 10SM CLR 19/14 A3010 860 70 1600 080/04 RMK AO2
14926KSTC STC20120624214509306/24/12 21:45:31  5-MIN KSTC 250345Z 07004KT 10SM CLR 19/14 A3010 860 70 1600 070/04 RMK AO2
14926KSTC STC20120624215011006/24/12 21:50:31  5-MIN KSTC 250350Z 07005KT 10SM CLR 19/14 A3010 860 70 1600 070/05 RMK AO2 SLP196 T01940139
14926KSTC STC20120624215509306/24/12 21:55:31  5-MIN KSTC 250355Z 07005KT 10SM CLR 19/14 A3010 860 70 1600 070/05 RMK AO2
14926KSTC STC20120624220009806/24/12 22:00:31  5-MIN KSTC 250400Z AUTO 07004KT 10SM CLR 19/14 A3010 860 70 1600 070/04 RMK AO2
14926KSTC STC20120624220509806/24/12 22:05:31  5-MIN KSTC 250405Z AUTO 07004KT 10SM CLR 19/14 A3010 860 70 1600 070/04 RMK AO2
14926KSTC STC20120624221009806/24/12 22:10:31  5-MIN KSTC 250410Z AUTO 07004KT 10SM CLR 19/14 A3011 860 72 1500 070/04 RMK AO2
14926KSTC STC20120624221509806/24/12 22:15:31  5-MIN KSTC 250415Z AUTO 07005KT 10SM CLR 19/14 A3010 860 72 1500 070/05 RMK AO2
14926KSTC STC20120624222009806/24/12 22:20:31  5-MIN KSTC 250420Z AUTO 08003KT 10SM CLR 19/14 A3010 860 72 1600 070/03 RMK AO2
14926KSTC STC20120624222509806/24/12 22:25:31  5-MIN KSTC 250425Z AUTO 08004KT 10SM CLR 19/14 A3010 860 72 1500 080/04 RMK AO2
14926KSTC STC20120624223009806/24/12 22:30:31  5-MIN KSTC 250430Z AUTO 07004KT 10SM CLR 19/14 A3011 860 72 1500 070/04 RMK AO2
14926KSTC STC20120624223509806/24/12 22:35:31  5-MIN KSTC 250435Z AUTO 07004KT 10SM CLR 19/14 A3011 850 72 1500 070/04 RMK AO2
14926KSTC STC20120624224009806/24/12 22:40:31  5-MIN KSTC 250440Z AUTO 07003KT 10SM CLR 19/14 A3011 850 72 1500 070/03 RMK AO2
14926KSTC STC20120624224509806/24/12 22:45:31  5-MIN KSTC 250445Z AUTO VRB03KT 10SM CLR 18/14 A3011 850 75 1500 VRB/03 RMK AO2
14926KSTC STC20120624225011506/24/12 22:50:31  5-MIN KSTC 250450Z AUTO 07003KT 10SM CLR 18/14 A3011 850 75 1500 070/03 RMK AO2 SLP201 T01830139
14926KSTC STC20120624225509806/24/12 22:55:31  5-MIN KSTC 250455Z AUTO 07003KT 10SM CLR 18/13 A3012 850 72 1500 070/03 RMK AO2
14926KSTC STC20120624230009806/24/12 23:00:31  5-MIN KSTC 250500Z AUTO 07003KT 10SM CLR 18/13 A3012 850 72 1500 070/03 RMK AO2
14926KSTC STC20120624230509806/24/12 23:05:31  5-MIN KSTC 250505Z AUTO 07003KT 10SM CLR 18/13 A3012 850 72 1500 070/03 RMK AO2
14926KSTC STC20120624231009806/24/12 23:10:31  5-MIN KSTC 250510Z AUTO 06004KT 10SM CLR 18/13 A3012 840 72 1500 060/04 RMK AO2
14926KSTC STC20120624231509806/24/12 23:15:31  5-MIN KSTC 250515Z AUTO 06003KT 10SM CLR 18/13 A3012 840 75 1400 060/03 RMK AO2
14926KSTC STC20120624232009806/24/12 23:20:31  5-MIN KSTC 250520Z AUTO 07003KT 10SM CLR 18/13 A3012 840 75 1400 070/03 RMK AO2
14926KSTC STC20120624232509806/24/12 23:25:31  5-MIN KSTC 250525Z AUTO 07003KT 10SM CLR 18/13 A3012 840 75 1400 060/03 RMK AO2
14926KSTC STC20120624233009806/24/12 23:30:31  5-MIN KSTC 250530Z AUTO 07003KT 10SM CLR 18/13 A3012 840 75 1400 070/03 RMK AO2
14926KSTC STC20120624233509806/24/12 23:35:31  5-MIN KSTC 250535Z AUTO 00000KT 10SM CLR 17/13 A3012 840 78 1300 000/00 RMK AO2
14926KSTC STC20120624234009806/24/12 23:40:31  5-MIN KSTC 250540Z AUTO 00000KT 10SM CLR 17/13 A3012 840 78 1300 000/00 RMK AO2
14926KSTC STC20120624234509806/24/12 23:45:31  5-MIN KSTC 250545Z AUTO 00000KT 10SM CLR 17/13 A3012 840 75 1300 000/00 RMK AO2
14926KSTC STC20120624235014306/24/12 23:50:31  5-MIN KSTC 250550Z AUTO 00000KT 10SM CLR 17/13 A3012 840 75 1300 000/00 RMK AO2 SLP204 T01720128 10250 20172 402830172 51012
14926KSTC STC20120624235509806/24/12 23:55:31  5-MIN KSTC 250555Z AUTO 00000KT 10SM CLR 17/13 A3012 840 75 1300 000/00 RMK AO2
14926KSTC STC20120625000009806/25/12 00:00:32  5-MIN KSTC 250600Z AUTO 07003KT 10SM CLR 17/13 A3012 840 75 1300 070/03 RMK AO2
14926KSTC STC20120625000509806/25/12 00:05:31  5-MIN KSTC 250605Z AUTO 00000KT 10SM CLR 17/13 A3012 840 75 1300 000/00 RMK AO2
14926KSTC STC20120625001009806/25/12 00:10:31  5-MIN KSTC 250610Z AUTO 07003KT 10SM CLR 17/13 A3012 840 77 1300 070/03 RMK AO2
14926KSTC STC20120625001509806/25/12 00:15:31  5-MIN KSTC 250615Z AUTO 07003KT 10SM CLR 16/13 A3012 840 80 1200 070/03 RMK AO2
14926KSTC STC20120625002009806/25/12 00:20:31  5-MIN KSTC 250620Z AUTO 00000KT 10SM CLR 17/13 A3012 840 77 1300 000/00 RMK AO2
14926KSTC STC20120625002509806/25/12 00:25:31  5-MIN KSTC 250625Z AUTO 00000KT 10SM CLR 17/13 A3013 840 77 1300 000/00 RMK AO2
14926KSTC STC20120625003009806/25/12 00:30:31  5-MIN KSTC 250630Z AUTO 00000KT 10SM CLR 16/13 A3013 830 80 1200 000/00 RMK AO2
14926KSTC STC20120625003509806/25/12 00:35:31  5-MIN KSTC 250635Z AUTO 00000KT 10SM CLR 16/13 A3013 830 80 1200 000/00 RMK AO2
14926KSTC STC20120625004009806/25/12 00:40:31  5-MIN KSTC 250640Z AUTO 00000KT 10SM CLR 16/13 A3013 830 83 1100 000/00 RMK AO2
14926KSTC STC20120625004509806/25/12 00:45:31  5-MIN KSTC 250645Z AUTO 00000KT 10SM CLR 15/13 A3013 830 86 1100 000/00 RMK AO2
14926KSTC STC20120625005011506/25/12 00:50:31  5-MIN KSTC 250650Z AUTO 00000KT 10SM CLR 15/13 A3013 830 86 1100 000/00 RMK AO2 SLP208 T01500128
14926KSTC STC20120625005509806/25/12 00:55:31  5-MIN KSTC 250655Z AUTO 00000KT 10SM CLR 15/13 A3013 830 86 1100 000/00 RMK AO2
14926KSTC STC20120625010009806/25/12 01:00:31  5-MIN KSTC 250700Z AUTO 00000KT 10SM CLR 14/13 A3013 830 90 1000 000/00 RMK AO2
14926KSTC STC20120625010509806/25/12 01:05:31  5-MIN KSTC 250705Z AUTO 00000KT 10SM CLR 14/13 A3014 830 90 1000 000/00 RMK AO2
14926KSTC STC20120625011009806/25/12 01:10:31  5-MIN KSTC 250710Z AUTO 00000KT 10SM CLR 14/13 A3013 830 90 1000 000/00 RMK AO2
14926KSTC STC20120625011509806/25/12 01:15:31  5-MIN KSTC 250715Z AUTO 00000KT 10SM CLR 14/13 A3014 830 90 1000 000/00 RMK AO2
14926KSTC STC20120625012009706/25/12 01:20:31  5-MIN KSTC 250720Z AUTO 00000KT 10SM CLR 14/12 A3013 830 90 900 000/00 RMK AO2
14926KSTC STC20120625012509706/25/12 01:25:31  5-MIN KSTC 250725Z AUTO 06003KT 10SM CLR 14/12 A3014 830 90 900 050/03 RMK AO2
14926KSTC STC20120625013009806/25/12 01:30:31  5-MIN KSTC 250730Z AUTO 00000KT 10SM CLR 15/13 A3014 830 86 1100 000/00 RMK AO2
14926KSTC STC20120625013509806/25/12 01:35:31  5-MIN KSTC 250735Z AUTO 06003KT 10SM CLR 14/13 A3014 830 90 1000 060/03 RMK AO2
14926KSTC STC20120625014009806/25/12 01:40:31  5-MIN KSTC 250740Z AUTO 00000KT 10SM CLR 14/13 A3014 820 90 1000 000/00 RMK AO2
14926KSTC STC20120625014509806/25/12 01:45:31  5-MIN KSTC 250745Z AUTO 00000KT 10SM CLR 15/13 A3014 820 86 1100 000/00 RMK AO2
14926KSTC STC20120625015011506/25/12 01:50:31  5-MIN KSTC 250750Z AUTO 00000KT 10SM CLR 14/12 A3014 820 86 1000 000/00 RMK AO2 SLP212 T01440122
14926KSTC STC20120625015509706/25/12 01:55:31  5-MIN KSTC 250755Z AUTO 00000KT 10SM CLR 14/12 A3014 820 90 900 000/00 RMK AO2
14926KSTC STC20120625020009806/25/12 02:00:31  5-MIN KSTC 250800Z AUTO 00000KT 10SM CLR 14/13 A3014 820 90 1000 000/00 RMK AO2
14926KSTC STC20120625020509706/25/12 02:05:31  5-MIN KSTC 250805Z AUTO 08003KT 10SM CLR 14/13 A3015 820 93 900 080/03 RMK AO2
14926KSTC STC20120625021009806/25/12 02:10:31  5-MIN KSTC 250810Z AUTO 07003KT 10SM CLR 14/13 A3014 820 90 1000 070/03 RMK AO2
14926KSTC STC20120625021509706/25/12 02:15:31  5-MIN KSTC 250815Z AUTO 08003KT 10SM CLR 14/12 A3014 820 90 900 080/03 RMK AO2
14926KSTC STC20120625022009806/25/12 02:20:31  5-MIN KSTC 250820Z AUTO 07003KT 10SM CLR 14/13 A3014 820 90 1000 070/03 RMK AO2
14926KSTC STC20120625022509706/25/12 02:25:31  5-MIN KSTC 250825Z AUTO 07003KT 10SM CLR 14/12 A3014 820 90 900 070/03 RMK AO2
14926KSTC STC20120625023009806/25/12 02:30:31  5-MIN KSTC 250830Z AUTO 07003KT 10SM CLR 14/12 A3015 820 86 1000 070/03 RMK AO2
14926KSTC STC20120625023509806/25/12 02:35:31  5-MIN KSTC 250835Z AUTO 06003KT 10SM CLR 14/12 A3015 820 86 1000 060/03 RMK AO2
14926KSTC STC20120625024009806/25/12 02:40:31  5-MIN KSTC 250840Z AUTO 06003KT 10SM CLR 14/12 A3015 820 86 1000 060/03 RMK AO2
14926KSTC STC20120625024509806/25/12 02:45:31  5-MIN KSTC 250845Z AUTO 06003KT 10SM CLR 14/12 A3015 820 86 1000 060/03 RMK AO2
14926KSTC STC20120625025012106/25/12 02:50:31  5-MIN KSTC 250850Z AUTO 06003KT 10SM CLR 14/12 A3015 820 86 1000 060/03 RMK AO2 SLP213 T01440122 51015
14926KSTC STC20120625025509706/25/12 02:55:31  5-MIN KSTC 250855Z AUTO 06003KT 10SM CLR 14/12 A3015 820 86 900 050/03 RMK AO2
14926KSTC STC20120625030009806/25/12 03:00:31  5-MIN KSTC 250900Z AUTO 00000KT 10SM CLR 14/12 A3015 820 83 1000 000/00 RMK AO2
14926KSTC STC20120625030509706/25/12 03:05:31  5-MIN KSTC 250905Z AUTO 00000KT 10SM CLR 14/12 A3015 820 86 900 000/00 RMK AO2
14926KSTC STC20120625031009706/25/12 03:10:31  5-MIN KSTC 250910Z AUTO 00000KT 10SM CLR 14/12 A3015 810 86 900 000/00 RMK AO2
14926KSTC STC20120625031509706/25/12 03:15:31  5-MIN KSTC 250915Z AUTO 00000KT 10SM CLR 13/12 A3015 810 89 800 000/00 RMK AO2
14926KSTC STC20120625032009706/25/12 03:20:31  5-MIN KSTC 250920Z AUTO 00000KT 10SM CLR 13/12 A3015 810 93 800 000/00 RMK AO2
14926KSTC STC20120625032509706/25/12 03:25:31  5-MIN KSTC 250925Z AUTO 00000KT 10SM CLR 13/12 A3015 810 93 800 000/00 RMK AO2
14926KSTC STC20120625033009706/25/12 03:30:31  5-MIN KSTC 250930Z AUTO 06003KT 10SM CLR 13/12 A3016 810 93 800 060/03 RMK AO2
14926KSTC STC20120625033509706/25/12 03:35:31  5-MIN KSTC 250935Z AUTO 06003KT 10SM CLR 13/12 A3016 810 93 800 050/03 RMK AO2
14926KSTC STC20120625034009706/25/12 03:40:31  5-MIN KSTC 250940Z AUTO 06004KT 10SM CLR 13/11 A3016 810 86 800 060/04 RMK AO2
14926KSTC STC20120625034509706/25/12 03:45:31  5-MIN KSTC 250945Z AUTO 06003KT 10SM CLR 13/12 A3016 810 89 800 060/03 RMK AO2
14926KSTC STC20120625035011406/25/12 03:50:31  5-MIN KSTC 250950Z AUTO 06004KT 10SM CLR 13/12 A3016 810 89 800 060/04 RMK AO2 SLP218 T01330117
14926KSTC STC20120625035509706/25/12 03:55:31  5-MIN KSTC 250955Z AUTO 06003KT 10SM CLR 13/11 A3016 800 86 800 060/03 RMK AO2
14926KSTC STC20120625040009706/25/12 04:00:31  5-MIN KSTC 251000Z AUTO 06003KT 10SM CLR 14/11 A3016 810 83 900 060/03 RMK AO2
14926KSTC STC20120625040509706/25/12 04:05:31  5-MIN KSTC 251005Z AUTO 06003KT 10SM CLR 13/11 A3016 800 86 800 060/03 RMK AO2
14926KSTC STC20120625041009706/25/12 04:10:31  5-MIN KSTC 251010Z AUTO 07003KT 10SM CLR 13/11 A3016 800 86 800 070/03 RMK AO2
14926KSTC STC20120625041509706/25/12 04:15:31  5-MIN KSTC 251015Z AUTO 08003KT 10SM CLR 13/11 A3016 800 86 800 070/03 RMK AO2
14926KSTC STC20120625042009706/25/12 04:20:31  5-MIN KSTC 251020Z AUTO 07004KT 10SM CLR 13/11 A3016 810 86 800 070/04 RMK AO2
14926KSTC STC20120625042509706/25/12 04:25:31  5-MIN KSTC 251025Z AUTO 07004KT 10SM CLR 13/11 A3016 810 86 800 070/04 RMK AO2
14926KSTC STC20120625043009706/25/12 04:30:31  5-MIN KSTC 251030Z AUTO 07004KT 10SM CLR 13/11 A3016 800 86 800 070/04 RMK AO2
14926KSTC STC20120625043509706/25/12 04:35:31  5-MIN KSTC 251035Z AUTO 07004KT 10SM CLR 13/11 A3016 800 86 800 070/04 RMK AO2
14926KSTC STC20120625044009706/25/12 04:40:31  5-MIN KSTC 251040Z AUTO 08004KT 10SM CLR 13/11 A3016 810 86 800 070/04 RMK AO2
14926KSTC STC20120625044509706/25/12 04:45:31  5-MIN KSTC 251045Z AUTO 08004KT 10SM CLR 13/11 A3016 810 86 800 080/04 RMK AO2
14926KSTC STC20120625045011406/25/12 04:50:31  5-MIN KSTC 251050Z AUTO 07003KT 10SM CLR 13/11 A3016 800 86 800 070/03 RMK AO2 SLP220 T01330111
14926KSTC STC20120625045509706/25/12 04:55:31  5-MIN KSTC 251055Z AUTO 08004KT 10SM CLR 14/11 A3017 800 83 900 080/04 RMK AO2
14926KSTC STC20120625050009706/25/12 05:00:31  5-MIN KSTC 251100Z AUTO 07003KT 10SM CLR 14/11 A3017 800 83 900 070/03 RMK AO2
14926KSTC STC20120625050509706/25/12 05:05:31  5-MIN KSTC 251105Z AUTO 07003KT 10SM CLR 14/11 A3017 790 83 900 070/03 RMK AO2
14926KSTC STC20120625051009706/25/12 05:10:31  5-MIN KSTC 251110Z AUTO 08003KT 10SM CLR 14/12 A3017 790 86 900 080/03 RMK AO2
14926KSTC STC20120625051509706/25/12 05:15:31  5-MIN KSTC 251115Z AUTO 08003KT 10SM CLR 14/12 A3017 790 86 900 080/03 RMK AO2
14926KSTC STC20120625052009706/25/12 05:20:31  5-MIN KSTC 251120Z AUTO 08003KT 10SM CLR 14/12 A3017 790 86 900 080/03 RMK AO2
14926KSTC STC20120625052509806/25/12 05:25:31  5-MIN KSTC 251125Z AUTO 08004KT 10SM CLR 14/12 A3017 790 83 1000 080/04 RMK AO2
14926KSTC STC20120625053009806/25/12 05:30:31  5-MIN KSTC 251130Z AUTO 08004KT 10SM CLR 14/12 A3017 790 83 1000 080/04 RMK AO2
14926KSTC STC20120625053509806/25/12 05:35:31  5-MIN KSTC 251135Z AUTO 07005KT 10SM CLR 14/12 A3017 790 83 1000 070/05 RMK AO2
14926KSTC STC20120625054009806/25/12 05:40:31  5-MIN KSTC 251140Z AUTO 08004KT 10SM CLR 15/12 A3017 790 80 1000 080/04 RMK AO2
14926KSTC STC20120625054509806/25/12 05:45:31  5-MIN KSTC 251145Z AUTO 08004KT 10SM CLR 15/12 A3018 790 80 1000 080/04 RMK AO2
14926KSTC STC20120625055013306/25/12 05:50:31  5-MIN KSTC 251150Z AUTO 10003KT 10SM CLR 15/12 A3018 790 83 1000 100/03 RMK AO2 SLP225 T01500122 10172 20128 51008
14926KSTC STC20120625055509806/25/12 05:55:31  5-MIN KSTC 251155Z AUTO 12004KT 10SM CLR 15/12 A3018 790 80 1000 120/04 RMK AO2
14926KSTC STC20120625060009806/25/12 06:00:31  5-MIN KSTC 251200Z AUTO 11004KT 10SM CLR 16/12 A3019 780 77 1100 110/04 RMK AO2
14926KSTC STC20120625060509306/25/12 06:05:31  5-MIN KSTC 251205Z 11005KT 10SM CLR 16/12 A3019 780 77 1100 110/05 RMK AO2
14926KSTC STC20120625061009306/25/12 06:10:31  5-MIN KSTC 251210Z 10003KT 10SM CLR 16/12 A3019 780 77 1100 100/03 RMK AO2
14926KSTC STC20120625061509306/25/12 06:15:31  5-MIN KSTC 251215Z 10003KT 10SM CLR 16/12 A3019 780 75 1100 100/03 RMK AO2
14926KSTC STC20120625062009306/25/12 06:20:31  5-MIN KSTC 251220Z 10003KT 10SM CLR 16/12 A3019 780 75 1100 090/03 RMK AO2
14926KSTC STC20120625062509306/25/12 06:25:31  5-MIN KSTC 251225Z 11004KT 10SM CLR 17/12 A3019 780 72 1200 110/04 RMK AO2
14926KSTC STC20120625063009306/25/12 06:30:31  5-MIN KSTC 251230Z 12004KT 10SM CLR 17/12 A3019 780 72 1200 120/04 RMK AO2
14926KSTC STC20120625063509306/25/12 06:35:31  5-MIN KSTC 251235Z 12004KT 10SM CLR 17/11 A3019 780 69 1200 120/04 RMK AO2
14926KSTC STC20120625064009306/25/12 06:40:31  5-MIN KSTC 251240Z 13005KT 10SM CLR 17/11 A3019 780 67 1300 130/05 RMK AO2
14926KSTC STC20120625064509306/25/12 06:45:31  5-MIN KSTC 251245Z 12004KT 10SM CLR 17/11 A3019 780 64 1300 120/04 RMK AO2
14926KSTC STC20120625065011006/25/12 06:50:31  5-MIN KSTC 251250Z 12005KT 10SM CLR 17/11 A3019 770 64 1300 120/05 RMK AO2 SLP229 T01720106
14926KSTC STC20120625065509306/25/12 06:55:31  5-MIN KSTC 251255Z 12004KT 10SM CLR 18/11 A3019 770 62 1300 120/04 RMK AO2
14926KSTC STC20120625070009306/25/12 07:00:31  5-MIN KSTC 251300Z 11005KT 10SM CLR 18/10 A3019 780 60 1300 110/05 RMK AO2
14926KSTC STC20120625070509306/25/12 07:05:31  5-MIN KSTC 251305Z 12006KT 10SM CLR 18/10 A3019 780 60 1300 120/06 RMK AO2
14926KSTC STC20120625071009306/25/12 07:10:31  5-MIN KSTC 251310Z 12005KT 10SM CLR 18/10 A3019 780 58 1400 120/05 RMK AO2
14926KSTC STC20120625071509306/25/12 07:15:31  5-MIN KSTC 251315Z 12006KT 10SM CLR 18/10 A3019 780 58 1400 120/06 RMK AO2
14926KSTC STC20120625072009306/25/12 07:20:31  5-MIN KSTC 251320Z 12007KT 10SM CLR 18/09 A3019 780 56 1400 120/07 RMK AO2
14926KSTC STC20120625072509306/25/12 07:25:31  5-MIN KSTC 251325Z 13007KT 10SM CLR 18/08 A3019 780 52 1400 130/07 RMK AO2
14926KSTC STC20120625073009306/25/12 07:30:31  5-MIN KSTC 251330Z 13008KT 10SM CLR 19/08 A3019 780 50 1500 130/08 RMK AO2
14926KSTC STC20120625073509306/25/12 07:35:31  5-MIN KSTC 251335Z 11006KT 10SM CLR 19/08 A3019 780 50 1500 110/06 RMK AO2
14926KSTC STC20120625074009306/25/12 07:40:31  5-MIN KSTC 251340Z 11009KT 10SM CLR 19/08 A3019 780 50 1500 110/09 RMK AO2
14926KSTC STC20120625074509306/25/12 07:45:31  5-MIN KSTC 251345Z 11007KT 10SM CLR 19/08 A3019 780 48 1500 110/07 RMK AO2
14926KSTC STC20120625075011006/25/12 07:50:31  5-MIN KSTC 251350Z 13007KT 10SM CLR 19/08 A3019 780 48 1500 130/07 RMK AO2 SLP227 T01890078
14926KSTC STC20120625075509306/25/12 07:55:31  5-MIN KSTC 251355Z 12007KT 10SM CLR 19/08 A3019 780 46 1500 120/07 RMK AO2
14926KSTC STC20120625080009306/25/12 08:00:31  5-MIN KSTC 251400Z 12006KT 10SM CLR 19/08 A3019 770 48 1500 120/06 RMK AO2
14926KSTC STC20120625080509306/25/12 08:05:31  5-MIN KSTC 251405Z 13009KT 10SM CLR 20/08 A3019 770 46 1600 130/09 RMK AO2
14926KSTC STC20120625081009306/25/12 08:10:31  5-MIN KSTC 251410Z 14008KT 10SM CLR 20/08 A3020 770 45 1600 140/08 RMK AO2
14926KSTC STC20120625081509306/25/12 08:15:31  5-MIN KSTC 251415Z 14005KT 10SM CLR 20/08 A3020 770 46 1600 140/05 RMK AO2
14926KSTC STC20120625082009306/25/12 08:20:31  5-MIN KSTC 251420Z VRB05KT 10SM CLR 21/08 A3020 770 45 1600 VRB/05 RMK AO2
14926KSTC STC20120625082509306/25/12 08:25:31  5-MIN KSTC 251425Z 13009KT 10SM CLR 21/08 A3020 770 43 1600 130/09 RMK AO2
14926KSTC STC20120625083009906/25/12 08:30:31  5-MIN KSTC 251430Z 13008G14KT 10SM CLR 21/07 A3020 770 41 1600 130/08G14 RMK AO2
14926KSTC STC20120625083509306/25/12 08:35:31  5-MIN KSTC 251435Z 14008KT 10SM CLR 21/07 A3020 770 40 1600 140/08 RMK AO2
14926KSTC STC20120625084009906/25/12 08:40:31  5-MIN KSTC 251440Z 14010G15KT 10SM CLR 21/07 A3020 770 40 1600 140/10G15 RMK AO2
14926KSTC STC20120625084509906/25/12 08:45:31  5-MIN KSTC 251445Z 14009G16KT 10SM CLR 21/07 A3019 770 38 1700 140/09G16 RMK AO2
14926KSTC STC20120625085012206/25/12 08:50:31  5-MIN KSTC 251450Z 14012G16KT 10SM CLR 21/07 A3019 780 40 1600 140/12G16 RMK AO2 SLP229 T02060067 53011
14926KSTC STC20120625085509906/25/12 08:55:31  5-MIN KSTC 251455Z 14010G16KT 10SM CLR 21/07 A3019 780 38 1700 140/10G16 RMK AO2
14926KSTC STC20120625090009306/25/12 09:00:31  5-MIN KSTC 251500Z 14009KT 10SM CLR 21/07 A3019 780 40 1700 140/09 RMK AO2
14926KSTC STC20120625090509306/25/12 09:05:31  5-MIN KSTC 251505Z 13009KT 10SM CLR 21/07 A3019 780 40 1700 130/09 RMK AO2
14926KSTC STC20120625091009906/25/12 09:10:31  5-MIN KSTC 251510Z VRB06G16KT 10SM CLR 22/08 A3019 780 40 1800 VRB/06G16 RMK AO2
14926KSTC STC20120625091509906/25/12 09:15:31  5-MIN KSTC 251515Z 12007G16KT 10SM CLR 22/08 A3019 780 40 1800 110/07G16 RMK AO2
14926KSTC STC20120625092009306/25/12 09:20:31  5-MIN KSTC 251520Z 13007KT 10SM CLR 22/07 A3019 780 39 1800 120/07 RMK AO2
14926KSTC STC20120625092509306/25/12 09:25:31  5-MIN KSTC 251525Z 14007KT 10SM CLR 22/08 A3019 780 40 1800 140/07 RMK AO2
14926KSTC STC20120625093010906/25/12 09:30:31  5-MIN KSTC 251530Z 13009KT 090V180 10SM CLR 22/08 A3018 780 39 1800 130/09 090V180 RMK AO2
14926KSTC STC20120625093509306/25/12 09:35:31  5-MIN KSTC 251535Z 16009KT 10SM CLR 22/08 A3018 790 39 1800 160/09 RMK AO2
14926KSTC STC20120625094009306/25/12 09:40:31  5-MIN KSTC 251540Z 16010KT 10SM CLR 22/08 A3018 790 39 1800 160/10 RMK AO2
14926KSTC STC20120625094510906/25/12 09:45:31  5-MIN KSTC 251545Z 16010KT 120V180 10SM CLR 22/08 A3018 790 39 1800 160/10 120V180 RMK AO2
14926KSTC STC20120625095011006/25/12 09:50:31  5-MIN KSTC 251550Z 12004KT 10SM CLR 22/08 A3018 780 39 1800 120/04 RMK AO2 SLP225 T02220078
14926KSTC STC20120625095509306/25/12 09:55:31  5-MIN KSTC 251555Z 13006KT 10SM CLR 22/08 A3018 790 39 1800 130/06 RMK AO2
14926KSTC STC20120625100009306/25/12 10:00:31  5-MIN KSTC 251600Z 15007KT 10SM CLR 22/08 A3018 790 39 1800 150/07 RMK AO2
14926KSTC STC20120625100509906/25/12 10:05:31  5-MIN KSTC 251605Z 12010G14KT 10SM CLR 23/08 A3018 790 39 1900 120/10G14 RMK AO2
14926KSTC STC20120625101009906/25/12 10:10:31  5-MIN KSTC 251610Z 13008G14KT 10SM CLR 22/08 A3018 790 39 1900 130/08G14 RMK AO2
14926KSTC STC20120625101509906/25/12 10:15:31  5-MIN KSTC 251615Z 10007G15KT 10SM CLR 22/08 A3017 790 39 1900 100/07G15 RMK AO2
14926KSTC STC20120625102011506/25/12 10:20:31  5-MIN KSTC 251620Z 12008G15KT 100V170 10SM CLR 23/08 A3017 790 39 1900 120/08G15 100V170 RMK AO2
14926KSTC STC20120625102509306/25/12 10:25:31  5-MIN KSTC 251625Z 11008KT 10SM CLR 23/08 A3017 790 39 1900 110/08 RMK AO2
14926KSTC STC20120625103009306/25/12 10:30:31  5-MIN KSTC 251630Z 15009KT 10SM CLR 23/08 A3017 790 38 2000 150/09 RMK AO2
14926KSTC STC20120625103509906/25/12 10:35:31  5-MIN KSTC 251635Z 12007G15KT 10SM CLR 23/08 A3017 800 37 1900 120/07G15 RMK AO2
14926KSTC STC20120625104009906/25/12 10:40:31  5-MIN KSTC 251640Z 11006G15KT 10SM CLR 23/08 A3017 800 37 1900 110/06G15 RMK AO2
14926KSTC STC20120625104509306/25/12 10:45:31  5-MIN KSTC 251645Z 12007KT 10SM CLR 23/08 A3016 800 38 2000 120/07 RMK AO2
14926KSTC STC20120625105011006/25/12 10:50:31  5-MIN KSTC 251650Z 13007KT 10SM CLR 23/08 A3017 800 38 2000 130/07 RMK AO2 SLP220 T02330083
14926KSTC STC20120625105509306/25/12 10:55:31  5-MIN KSTC 251655Z 09007KT 10SM CLR 23/08 A3017 800 38 2000 090/07 RMK AO2
14926KSTC STC20120625110009306/25/12 11:00:31  5-MIN KSTC 251700Z VRB04KT 10SM CLR 23/08 A3017 800 38 2000 VRB/04 RMK AO2
14926KSTC STC20120625110509306/25/12 11:05:31  5-MIN KSTC 251705Z 09009KT 10SM CLR 23/08 A3017 800 38 2000 090/09 RMK AO2
14926KSTC STC20120625111009306/25/12 11:10:31  5-MIN KSTC 251710Z 09008KT 10SM CLR 23/08 A3017 800 38 2000 090/08 RMK AO2
14926KSTC STC20120625111509306/25/12 11:15:31  5-MIN KSTC 251715Z 10008KT 10SM CLR 23/08 A3017 800 36 2000 100/08 RMK AO2
14926KSTC STC20120625112009306/25/12 11:20:31  5-MIN KSTC 251720Z 13006KT 10SM CLR 23/08 A3016 800 36 2000 130/06 RMK AO2
14926KSTC STC20120625112509906/25/12 11:25:31  5-MIN KSTC 251725Z 13008G14KT 10SM CLR 23/08 A3016 800 36 2000 130/08G14 RMK AO2
14926KSTC STC20120625113009906/25/12 11:30:31  5-MIN KSTC 251730Z 10008G14KT 10SM CLR 23/08 A3016 800 36 2000 100/08G14 RMK AO2
14926KSTC STC20120625113509306/25/12 11:35:31  5-MIN KSTC 251735Z 14009KT 10SM CLR 24/08 A3016 810 36 2100 140/09 RMK AO2
14926KSTC STC20120625114009306/25/12 11:40:31  5-MIN KSTC 251740Z 14007KT 10SM CLR 23/08 A3016 810 38 2000 140/07 RMK AO2
14926KSTC STC20120625114509306/25/12 11:45:31  5-MIN KSTC 251745Z 13008KT 10SM CLR 24/08 A3016 810 36 2100 130/08 RMK AO2
14926KSTC STC20120625115012806/25/12 11:50:31  5-MIN KSTC 251750Z VRB06KT 10SM CLR 24/08 A3016 810 35 2100 VRB/06 RMK AO2 SLP216 T02390078 10239 20150 51004
14926KSTC STC20120625115509306/25/12 11:55:31  5-MIN KSTC 251755Z 10005KT 10SM CLR 24/08 A3016 810 36 2100 090/05 RMK AO2
14926KSTC STC20120625120010906/25/12 12:00:31  5-MIN KSTC 251800Z 13009KT 090V150 10SM CLR 24/09 A3015 810 36 2100 130/09 090V150 RMK AO2
14926KSTC STC20120625120509306/25/12 12:05:31  5-MIN KSTC 251805Z 10006KT 10SM CLR 24/08 A3015 820 35 2100 100/06 RMK AO2
14926KSTC STC20120625121009306/25/12 12:10:31  5-MIN KSTC 251810Z 14008KT 10SM CLR 24/08 A3015 820 35 2100 140/08 RMK AO2
14926KSTC STC20120625121509306/25/12 12:15:31  5-MIN KSTC 251815Z 13007KT 10SM CLR 24/08 A3015 820 35 2100 130/07 RMK AO2
14926KSTC STC20120625122009306/25/12 12:20:31  5-MIN KSTC 251820Z 17007KT 10SM CLR 24/08 A3015 820 35 2100 170/07 RMK AO2
14926KSTC STC20120625122509306/25/12 12:25:31  5-MIN KSTC 251825Z 16009KT 10SM CLR 24/08 A3015 820 35 2100 160/09 RMK AO2
14926KSTC STC20120625123009306/25/12 12:30:31  5-MIN KSTC 251830Z VRB06KT 10SM CLR 24/08 A3015 820 35 2100 VRB/06 RMK AO2
14926KSTC STC20120625123509306/25/12 12:35:31  5-MIN KSTC 251835Z VRB06KT 10SM CLR 24/08 A3014 820 35 2100 VRB/06 RMK AO2
14926KSTC STC20120625124009306/25/12 12:40:31  5-MIN KSTC 251840Z 11007KT 10SM CLR 24/08 A3014 820 35 2100 110/07 RMK AO2
14926KSTC STC20120625124509306/25/12 12:45:31  5-MIN KSTC 251845Z VRB05KT 10SM CLR 24/08 A3014 820 34 2100 VRB/05 RMK AO2
14926KSTC STC20120625125011006/25/12 12:50:31  5-MIN KSTC 251850Z 13009KT 10SM CLR 24/08 A3014 830 35 2100 130/09 RMK AO2 SLP211 T02440083
14926KSTC STC20120625125509306/25/12 12:55:31  5-MIN KSTC 251855Z 11008KT 10SM CLR 24/07 A3014 830 33 2100 110/08 RMK AO2
14926KSTC STC20120625130009306/25/12 13:00:31  5-MIN KSTC 251900Z 12006KT 10SM CLR 24/08 A3013 830 34 2200 120/06 RMK AO2
14926KSTC STC20120625130509306/25/12 13:05:31  5-MIN KSTC 251905Z 08005KT 10SM CLR 24/08 A3013 830 34 2200 080/05 RMK AO2
14926KSTC STC20120625131009306/25/12 13:10:31  5-MIN KSTC 251910Z VRB06KT 10SM CLR 25/09 A3013 830 35 2200 VRB/06 RMK AO2
14926KSTC STC20120625131510906/25/12 13:15:31  5-MIN KSTC 251915Z 13007KT 090V160 10SM CLR 25/08 A3013 830 34 2200 130/07 090V160 RMK AO2
14926KSTC STC20120625132010906/25/12 13:20:31  5-MIN KSTC 251920Z 08007KT 060V130 10SM CLR 24/08 A3013 840 35 2200 080/07 060V130 RMK AO2
14926KSTC STC20120625132510906/25/12 13:25:31  5-MIN KSTC 251925Z 14007KT 050V170 10SM CLR 24/08 A3012 840 35 2200 130/07 050V170 RMK AO2
14926KSTC STC20120625133009306/25/12 13:30:31  5-MIN KSTC 251930Z 08007KT 10SM CLR 25/08 A3012 840 34 2200 070/07 RMK AO2
14926KSTC STC20120625133509306/25/12 13:35:31  5-MIN KSTC 251935Z 11006KT 10SM CLR 25/08 A3012 840 33 2200 110/06 RMK AO2
14926KSTC STC20120625134009306/25/12 13:40:31  5-MIN KSTC 251940Z VRB05KT 10SM CLR 25/08 A3012 840 33 2200 VRB/05 RMK AO2
14926KSTC STC20120625134509906/25/12 13:45:31  5-MIN KSTC 251945Z 11007G15KT 10SM CLR 25/07 A3012 840 31 2200 110/07G15 RMK AO2
14926KSTC STC20120625135011606/25/12 13:50:31  5-MIN KSTC 251950Z 15006G15KT 10SM CLR 24/07 A3012 840 33 2200 150/06G15 RMK AO2 SLP205 T02440072
14926KSTC STC20120625135509306/25/12 13:55:31  5-MIN KSTC 251955Z VRB05KT 10SM CLR 25/08 A3012 850 34 2200 VRB/05 RMK AO2
14926KSTC STC20120625140009906/25/12 14:00:31  5-MIN KSTC 252000Z 11008G14KT 10SM CLR 25/08 A3011 850 34 2200 110/08G14 RMK AO2
14926KSTC STC20120625140509906/25/12 14:05:31  5-MIN KSTC 252005Z 13008G14KT 10SM CLR 25/08 A3011 850 33 2200 120/08G14 RMK AO2
14926KSTC STC20120625141009306/25/12 14:10:31  5-MIN KSTC 252010Z 12006KT 10SM CLR 25/07 A3011 850 31 2200 120/06 RMK AO2
14926KSTC STC20120625141509306/25/12 14:15:31  5-MIN KSTC 252015Z 13008KT 10SM CLR 25/08 A3011 850 33 2200 130/08 RMK AO2
14926KSTC STC20120625142009306/25/12 14:20:31  5-MIN KSTC 252020Z VRB06KT 10SM CLR 25/08 A3011 850 34 2200 VRB/06 RMK AO2
14926KSTC STC20120625142509306/25/12 14:25:31  5-MIN KSTC 252025Z 15008KT 10SM CLR 25/08 A3011 850 34 2200 140/08 RMK AO2
14926KSTC STC20120625143009306/25/12 14:30:31  5-MIN KSTC 252030Z 15007KT 10SM CLR 26/08 A3011 850 33 2300 140/07 RMK AO2
14926KSTC STC20120625143509306/25/12 14:35:31  5-MIN KSTC 252035Z 13009KT 10SM CLR 26/08 A3011 860 33 2300 130/09 RMK AO2
14926KSTC STC20120625144009306/25/12 14:40:31  5-MIN KSTC 252040Z 17009KT 10SM CLR 26/08 A3010 860 33 2300 170/09 RMK AO2
14926KSTC STC20120625144509306/25/12 14:45:31  5-MIN KSTC 252045Z 18007KT 10SM CLR 26/08 A3010 860 32 2300 180/07 RMK AO2
14926KSTC STC20120625145011606/25/12 14:50:31  5-MIN KSTC 252050Z 14007KT 10SM CLR 26/08 A3010 860 33 2300 140/07 RMK AO2 SLP198 T02560083 56013
14926KSTC STC20120625145510906/25/12 14:55:31  5-MIN KSTC 252055Z 14007KT 100V160 10SM CLR 26/08 A3010 860 33 2300 140/07 100V160 RMK AO2
14926KSTC STC20120625150009306/25/12 15:00:31  5-MIN KSTC 252100Z 16006KT 10SM CLR 26/08 A3010 860 33 2300 160/06 RMK AO2
14926KSTC STC20120625150509306/25/12 15:05:31  5-MIN KSTC 252105Z 12006KT 10SM CLR 26/08 A3010 860 33 2300 120/06 RMK AO2
14926KSTC STC20120625151009306/25/12 15:10:31  5-MIN KSTC 252110Z 07004KT 10SM CLR 26/09 A3010 870 34 2300 060/04 RMK AO2
14926KSTC STC20120625151509306/25/12 15:15:31  5-MIN KSTC 252115Z VRB05KT 10SM CLR 26/09 A3009 870 34 2300 VRB/05 RMK AO2
14926KSTC STC20120625152009306/25/12 15:20:31  5-MIN KSTC 252120Z 09007KT 10SM CLR 26/08 A3009 870 33 2300 090/07 RMK AO2
14926KSTC STC20120625152509306/25/12 15:25:31  5-MIN KSTC 252125Z 12007KT 10SM CLR 26/08 A3009 870 32 2300 120/07 RMK AO2
14926KSTC STC20120625153009306/25/12 15:30:31  5-MIN KSTC 252130Z VRB03KT 10SM CLR 25/08 A3009 870 34 2300 VRB/03 RMK AO2
14926KSTC STC20120625153509306/25/12 15:35:31  5-MIN KSTC 252135Z VRB05KT 10SM CLR 26/08 A3009 870 33 2300 VRB/05 RMK AO2
14926KSTC STC20120625154009306/25/12 15:40:31  5-MIN KSTC 252140Z 12007KT 10SM CLR 26/08 A3009 870 32 2300 120/07 RMK AO2
14926KSTC STC20120625154509306/25/12 15:45:31  5-MIN KSTC 252145Z 00000KT 10SM CLR 26/08 A3009 870 32 2300 000/00 RMK AO2
14926KSTC STC20120625155011006/25/12 15:50:31  5-MIN KSTC 252150Z 12008KT 10SM CLR 26/08 A3009 870 33 2300 120/08 RMK AO2 SLP194 T02560083
14926KSTC STC20120625155509306/25/12 15:55:31  5-MIN KSTC 252155Z 10006KT 10SM CLR 25/08 A3009 870 34 2300 100/06 RMK AO2
14926KSTC STC20120625160009306/25/12 16:00:31  5-MIN KSTC 252200Z 10003KT 10SM CLR 26/08 A3009 870 32 2300 100/03 RMK AO2
14926KSTC STC20120625160509306/25/12 16:05:31  5-MIN KSTC 252205Z 14007KT 10SM CLR 26/08 A3009 870 33 2300 140/07 RMK AO2
14926KSTC STC20120625161009306/25/12 16:10:31  5-MIN KSTC 252210Z 12005KT 10SM CLR 26/09 A3009 870 34 2300 120/05 RMK AO2
14926KSTC STC20120625161509306/25/12 16:15:31  5-MIN KSTC 252215Z 13003KT 10SM CLR 25/08 A3008 880 34 2300 120/03 RMK AO2
14926KSTC STC20120625162009306/25/12 16:20:31  5-MIN KSTC 252220Z VRB04KT 10SM CLR 26/09 A3008 880 34 2300 VRB/04 RMK AO2
14926KSTC STC20120625162509306/25/12 16:25:31  5-MIN KSTC 252225Z 14006KT 10SM CLR 26/08 A3008 880 33 2300 140/06 RMK AO2
14926KSTC STC20120625163009306/25/12 16:30:31  5-MIN KSTC 252230Z 15006KT 10SM CLR 25/08 A3008 880 33 2300 150/06 RMK AO2
14926KSTC STC20120625163509306/25/12 16:35:31  5-MIN KSTC 252235Z 11006KT 10SM CLR 25/07 A3008 880 31 2300 110/06 RMK AO2
14926KSTC STC20120625164009306/25/12 16:40:31  5-MIN KSTC 252240Z 11005KT 10SM CLR 25/08 A3008 880 33 2300 110/05 RMK AO2
14926KSTC STC20120625164509306/25/12 16:45:31  5-MIN KSTC 252245Z VRB04KT 10SM CLR 26/08 A3007 890 33 2300 VRB/04 RMK AO2
14926KSTC STC20120625165011006/25/12 16:50:31  5-MIN KSTC 252250Z 13006KT 10SM CLR 25/09 A3007 890 35 2300 130/06 RMK AO2 SLP188 T02500089
14926KSTC STC20120625165509306/25/12 16:55:31  5-MIN KSTC 252255Z VRB05KT 10SM CLR 26/09 A3007 890 34 2400 VRB/05 RMK AO2
14926KSTC STC20120625170009306/25/12 17:00:31  5-MIN KSTC 252300Z 12006KT 10SM CLR 25/09 A3006 890 35 2300 110/06 RMK AO2
14926KSTC STC20120625170509306/25/12 17:05:31  5-MIN KSTC 252305Z 12006KT 10SM CLR 25/09 A3006 900 35 2300 120/06 RMK AO2
14926KSTC STC20120625171009306/25/12 17:10:31  5-MIN KSTC 252310Z 13005KT 10SM CLR 25/09 A3006 900 35 2300 130/05 RMK AO2
14926KSTC STC20120625171509306/25/12 17:15:31  5-MIN KSTC 252315Z 14007KT 10SM CLR 24/08 A3006 900 35 2200 140/07 RMK AO2
14926KSTC STC20120625172009306/25/12 17:20:31  5-MIN KSTC 252320Z 14006KT 10SM CLR 25/08 A3006 900 34 2300 140/06 RMK AO2
14926KSTC STC20120625172509306/25/12 17:25:31  5-MIN KSTC 252325Z 15004KT 10SM CLR 24/08 A3006 900 35 2200 150/04 RMK AO2
14926KSTC STC20120625173009306/25/12 17:30:31  5-MIN KSTC 252330Z VRB05KT 10SM CLR 25/09 A3006 900 35 2300 VRB/05 RMK AO2
14926KSTC STC20120625173509306/25/12 17:35:31  5-MIN KSTC 252335Z 13008KT 10SM CLR 25/08 A3006 900 34 2300 130/08 RMK AO2
14926KSTC STC20120625174009306/25/12 17:40:31  5-MIN KSTC 252340Z 15007KT 10SM CLR 25/08 A3006 900 34 2300 150/07 RMK AO2
14926KSTC STC20120625174509306/25/12 17:45:31  5-MIN KSTC 252345Z 11005KT 10SM CLR 24/08 A3006 900 35 2200 110/05 RMK AO2
14926KSTC STC20120625175012806/25/12 17:50:31  5-MIN KSTC 252350Z VRB04KT 10SM CLR 24/09 A3005 900 36 2200 VRB/04 RMK AO2 SLP183 T02440089 10261 20239 58018
14926KSTC STC20120625175509306/25/12 17:55:31  5-MIN KSTC 252355Z 12005KT 10SM CLR 24/09 A3005 910 38 2200 120/05 RMK AO2
14926KSTC STC20120625180009306/25/12 18:00:31  5-MIN KSTC 260000Z 10005KT 10SM CLR 24/09 A3005 910 38 2200 100/05 RMK AO2
14926KSTC STC20120625180509306/25/12 18:05:31  5-MIN KSTC 260005Z 13007KT 10SM CLR 24/09 A3005 910 38 2200 130/07 RMK AO2
14926KSTC STC20120625181009306/25/12 18:10:31  5-MIN KSTC 260010Z 13006KT 10SM CLR 24/09 A3005 910 39 2200 130/06 RMK AO2
14926KSTC STC20120625181509306/25/12 18:15:31  5-MIN KSTC 260015Z VRB04KT 10SM CLR 24/10 A3005 910 39 2200 VRB/04 RMK AO2
14926KSTC STC20120625182009306/25/12 18:20:31  5-MIN KSTC 260020Z 11006KT 10SM CLR 24/10 A3005 910 39 2200 110/06 RMK AO2
14926KSTC STC20120625182509306/25/12 18:25:31  5-MIN KSTC 260025Z 12005KT 10SM CLR 24/09 A3005 910 39 2200 110/05 RMK AO2
14926KSTC STC20120625183009306/25/12 18:30:31  5-MIN KSTC 260030Z 12005KT 10SM CLR 24/09 A3005 910 39 2200 120/05 RMK AO2
14926KSTC STC20120625183509306/25/12 18:35:31  5-MIN KSTC 260035Z 11004KT 10SM CLR 24/09 A3005 910 39 2200 100/04 RMK AO2
14926KSTC STC20120625184009306/25/12 18:40:31  5-MIN KSTC 260040Z 10004KT 10SM CLR 23/10 A3005 910 42 2100 100/04 RMK AO2
14926KSTC STC20120625184509306/25/12 18:45:31  5-MIN KSTC 260045Z 09005KT 10SM CLR 23/10 A3004 910 42 2100 090/05 RMK AO2
14926KSTC STC20120625185011006/25/12 18:50:31  5-MIN KSTC 260050Z 10005KT 10SM CLR 23/10 A3004 920 42 2100 100/05 RMK AO2 SLP176 T02330100
14926KSTC STC20120625185509306/25/12 18:55:31  5-MIN KSTC 260055Z 10005KT 10SM CLR 23/11 A3003 920 45 2100 100/05 RMK AO2
14926KSTC STC20120625190009306/25/12 19:00:31  5-MIN KSTC 260100Z 10004KT 10SM CLR 23/11 A3003 920 45 2100 100/04 RMK AO2
14926KSTC STC20120625190509306/25/12 19:05:31  5-MIN KSTC 260105Z 10005KT 10SM CLR 22/11 A3003 920 47 2000 100/05 RMK AO2
14926KSTC STC20120625191009306/25/12 19:10:31  5-MIN KSTC 260110Z 10005KT 10SM CLR 22/11 A3003 920 47 2000 100/05 RMK AO2
14926KSTC STC20120625191509306/25/12 19:15:31  5-MIN KSTC 260115Z 10004KT 10SM CLR 22/11 A3003 920 49 2000 100/04 RMK AO2
14926KSTC STC20120625192009306/25/12 19:20:31  5-MIN KSTC 260120Z 10004KT 10SM CLR 22/11 A3003 920 49 2000 100/04 RMK AO2
14926KSTC STC20120625192509306/25/12 19:25:31  5-MIN KSTC 260125Z 10005KT 10SM CLR 21/11 A3003 930 50 1900 100/05 RMK AO2
14926KSTC STC20120625193009306/25/12 19:30:31  5-MIN KSTC 260130Z 10004KT 10SM CLR 21/11 A3003 930 50 1900 100/04 RMK AO2
14926KSTC STC20120625193509306/25/12 19:35:31  5-MIN KSTC 260135Z 10004KT 10SM CLR 21/11 A3003 930 50 1900 100/04 RMK AO2
14926KSTC STC20120625194009306/25/12 19:40:31  5-MIN KSTC 260140Z 10005KT 10SM CLR 21/11 A3002 930 50 1900 100/05 RMK AO2
14926KSTC STC20120625194509306/25/12 19:45:31  5-MIN KSTC 260145Z 10005KT 10SM CLR 21/11 A3002 930 50 1900 100/05 RMK AO2
14926KSTC STC20120625195011006/25/12 19:50:31  5-MIN KSTC 260150Z 10003KT 10SM CLR 21/11 A3002 930 52 1800 100/03 RMK AO2 SLP171 T02060106
14926KSTC STC20120625195509306/25/12 19:55:31  5-MIN KSTC 260155Z 10004KT 10SM CLR 21/11 A3002 930 54 1800 100/04 RMK AO2
14926KSTC STC20120625200009306/25/12 20:00:31  5-MIN KSTC 260200Z 10004KT 10SM CLR 20/11 A3002 930 54 1800 100/04 RMK AO2
14926KSTC STC20120625200509306/25/12 20:05:31  5-MIN KSTC 260205Z 11004KT 10SM CLR 20/11 A3002 940 54 1800 110/04 RMK AO2
14926KSTC STC20120625201009306/25/12 20:10:31  5-MIN KSTC 260210Z 11004KT 10SM CLR 20/11 A3002 940 54 1800 110/04 RMK AO2
14926KSTC STC20120625201509306/25/12 20:15:31  5-MIN KSTC 260215Z 10004KT 10SM CLR 19/11 A3002 940 58 1700 100/04 RMK AO2
14926KSTC STC20120625202009306/25/12 20:20:31  5-MIN KSTC 260220Z 10004KT 10SM CLR 19/11 A3002 940 58 1700 100/04 RMK AO2
14926KSTC STC20120625202509306/25/12 20:25:31  5-MIN KSTC 260225Z 10004KT 10SM CLR 19/11 A3002 940 58 1700 100/04 RMK AO2
14926KSTC STC20120625203009306/25/12 20:30:31  5-MIN KSTC 260230Z 10005KT 10SM CLR 19/11 A3002 940 60 1600 090/05 RMK AO2
14926KSTC STC20120625203509306/25/12 20:35:31  5-MIN KSTC 260235Z 10005KT 10SM CLR 19/11 A3002 940 60 1700 100/05 RMK AO2
14926KSTC STC20120625204009306/25/12 20:40:31  5-MIN KSTC 260240Z 10005KT 10SM CLR 19/11 A3002 940 60 1600 100/05 RMK AO2
14926KSTC STC20120625204509306/25/12 20:45:31  5-MIN KSTC 260245Z 09006KT 10SM CLR 19/11 A3002 940 58 1600 090/06 RMK AO2
14926KSTC STC20120625205011606/25/12 20:50:31  5-MIN KSTC 260250Z 10005KT 10SM CLR 19/11 A3002 940 58 1700 100/05 RMK AO2 SLP169 T01890106 58016
14926KSTC STC20120625205509306/25/12 20:55:31  5-MIN KSTC 260255Z 10005KT 10SM CLR 19/11 A3001 940 58 1700 100/05 RMK AO2
14926KSTC STC20120625210009306/25/12 21:00:31  5-MIN KSTC 260300Z 10005KT 10SM CLR 19/11 A3002 940 58 1700 100/05 RMK AO2
14926KSTC STC20120625210509306/25/12 21:05:31  5-MIN KSTC 260305Z 11004KT 10SM CLR 19/11 A3002 930 58 1600 110/04 RMK AO2
14926KSTC STC20120625211009306/25/12 21:10:31  5-MIN KSTC 260310Z 12004KT 10SM CLR 19/11 A3003 930 58 1600 110/04 RMK AO2
14926KSTC STC20120625211509306/25/12 21:15:31  5-MIN KSTC 260315Z 11003KT 10SM CLR 19/11 A3003 930 58 1600 110/03 RMK AO2
14926KSTC STC20120625212009306/25/12 21:20:31  5-MIN KSTC 260320Z 10005KT 10SM CLR 18/11 A3003 930 60 1600 100/05 RMK AO2
14926KSTC STC20120625212509306/25/12 21:25:31  5-MIN KSTC 260325Z 11004KT 10SM CLR 18/11 A3003 930 60 1600 100/04 RMK AO2
14926KSTC STC20120625213009306/25/12 21:30:31  5-MIN KSTC 260330Z 11004KT 10SM CLR 18/11 A3003 930 60 1600 110/04 RMK AO2
14926KSTC STC20120625213509306/25/12 21:35:31  5-MIN KSTC 260335Z 11004KT 10SM CLR 18/11 A3003 930 60 1600 100/04 RMK AO2
14926KSTC STC20120625214009306/25/12 21:40:31  5-MIN KSTC 260340Z 10004KT 10SM CLR 18/11 A3003 930 62 1500 100/04 RMK AO2
14926KSTC STC20120625214509306/25/12 21:45:31  5-MIN KSTC 260345Z 12004KT 10SM CLR 18/11 A3003 930 62 1500 120/04 RMK AO2
14926KSTC STC20120625215011006/25/12 21:50:31  5-MIN KSTC 260350Z 12004KT 10SM CLR 18/11 A3003 930 62 1500 120/04 RMK AO2 SLP174 T01780106
14926KSTC STC20120625215509306/25/12 21:55:31  5-MIN KSTC 260355Z 12004KT 10SM CLR 17/11 A3003 920 64 1400 120/04 RMK AO2
14926KSTC STC20120625220009806/25/12 22:00:31  5-MIN KSTC 260400Z AUTO 00000KT 10SM CLR 17/11 A3003 920 64 1400 000/00 RMK AO2
14926KSTC STC20120625220509806/25/12 22:05:31  5-MIN KSTC 260405Z AUTO 00000KT 10SM CLR 17/11 A3003 920 64 1400 000/00 RMK AO2
14926KSTC STC20120625221009806/25/12 22:10:31  5-MIN KSTC 260410Z AUTO 00000KT 10SM CLR 17/11 A3003 920 69 1400 000/00 RMK AO2
14926KSTC STC20120625221509806/25/12 22:15:31  5-MIN KSTC 260415Z AUTO 00000KT 10SM CLR 17/11 A3004 920 69 1400 000/00 RMK AO2
14926KSTC STC20120625222009806/25/12 22:20:31  5-MIN KSTC 260420Z AUTO 00000KT 10SM CLR 17/11 A3004 910 69 1400 000/00 RMK AO2
14926KSTC STC20120625222509806/25/12 22:25:31  5-MIN KSTC 260425Z AUTO 00000KT 10SM CLR 16/11 A3004 910 69 1300 000/00 RMK AO2
14926KSTC STC20120625223009706/25/12 22:30:31  5-MIN KSTC 260430Z AUTO 00000KT 9SM CLR 17/11 A3004 910 69 1400 000/00 RMK AO2
14926KSTC STC20120625223509706/25/12 22:35:31  5-MIN KSTC 260435Z AUTO 00000KT 9SM CLR 16/11 A3004 910 74 1200 000/00 RMK AO2
14926KSTC STC20120625224009806/25/12 22:40:31  5-MIN KSTC 260440Z AUTO 00000KT 10SM CLR 15/11 A3005 910 74 1200 000/00 RMK AO2
14926KSTC STC20120625224509806/25/12 22:45:31  5-MIN KSTC 260445Z AUTO 00000KT 10SM CLR 14/11 A3004 910 80 1000 000/00 RMK AO2
14926KSTC STC20120625225011506/25/12 22:50:31  5-MIN KSTC 260450Z AUTO 00000KT 10SM CLR 14/11 A3004 910 80 1000 000/00 RMK AO2 SLP180 T01390106
14926KSTC STC20120625225509806/25/12 22:55:31  5-MIN KSTC 260455Z AUTO 00000KT 10SM CLR 13/11 A3004 910 83 1000 000/00 RMK AO2
14926KSTC STC20120625230009806/25/12 23:00:31  5-MIN KSTC 260500Z AUTO 00000KT 10SM CLR 14/11 A3005 910 80 1000 000/00 RMK AO2
14926KSTC STC20120625230509806/25/12 23:05:31  5-MIN KSTC 260505Z AUTO 00000KT 10SM CLR 14/11 A3005 910 80 1000 000/00 RMK AO2
14926KSTC STC20120625231009806/25/12 23:10:31  5-MIN KSTC 260510Z AUTO 00000KT 10SM CLR 13/11 A3005 910 83 1000 000/00 RMK AO2
14926KSTC STC20120625231509806/25/12 23:15:31  5-MIN KSTC 260515Z AUTO 00000KT 10SM CLR 13/11 A3005 910 83 1000 000/00 RMK AO2
14926KSTC STC20120625232009806/25/12 23:20:31  5-MIN KSTC 260520Z AUTO 11003KT 10SM CLR 13/11 A3004 910 83 1000 110/03 RMK AO2
14926KSTC STC20120625232509706/25/12 23:25:31  5-MIN KSTC 260525Z AUTO 11003KT 10SM CLR 13/11 A3004 910 86 900 110/03 RMK AO2
14926KSTC STC20120625233009806/25/12 23:30:31  5-MIN KSTC 260530Z AUTO 11004KT 10SM CLR 14/11 A3004 920 80 1000 110/04 RMK AO2
14926KSTC STC20120625233509806/25/12 23:35:31  5-MIN KSTC 260535Z AUTO 11004KT 10SM CLR 14/11 A3003 920 83 1000 110/04 RMK AO2
14926KSTC STC20120625234009806/25/12 23:40:31  5-MIN KSTC 260540Z AUTO 11004KT 10SM CLR 15/11 A3003 920 77 1200 110/04 RMK AO2
14926KSTC STC20120625234509806/25/12 23:45:31  5-MIN KSTC 260545Z AUTO 12005KT 10SM CLR 15/11 A3003 930 77 1200 120/05 RMK AO2
14926KSTC STC20120625235014306/25/12 23:50:31  5-MIN KSTC 260550Z AUTO 11004KT 10SM CLR 15/11 A3003 930 77 1200 110/04 RMK AO2 SLP173 T01500111 10244 20128 402610128 56012
14926KSTC STC20120625235509806/25/12 23:55:31  5-MIN KSTC 260555Z AUTO 12004KT 10SM CLR 15/11 A3002 930 77 1200 120/04 RMK AO2
14926KSTC STC20120626000009806/26/12 00:00:32  5-MIN KSTC 260600Z AUTO 11004KT 10SM CLR 15/11 A3002 930 77 1200 110/04 RMK AO2
14926KSTC STC20120626000509806/26/12 00:05:31  5-MIN KSTC 260605Z AUTO 11004KT 10SM CLR 14/11 A3002 940 80 1100 110/04 RMK AO2
14926KSTC STC20120626001009806/26/12 00:10:31  5-MIN KSTC 260610Z AUTO 11004KT 10SM CLR 15/11 A3002 940 77 1200 110/04 RMK AO2
14926KSTC STC20120626001509806/26/12 00:15:31  5-MIN KSTC 260615Z AUTO 11004KT 10SM CLR 14/11 A3001 940 80 1100 110/04 RMK AO2
14926KSTC STC20120626002009806/26/12 00:20:31  5-MIN KSTC 260620Z AUTO 11004KT 10SM CLR 15/11 A3001 940 77 1200 110/04 RMK AO2
14926KSTC STC20120626002509806/26/12 00:25:31  5-MIN KSTC 260625Z AUTO 11004KT 10SM CLR 15/11 A3001 940 77 1200 110/04 RMK AO2
14926KSTC STC20120626003009806/26/12 00:30:31  5-MIN KSTC 260630Z AUTO 11004KT 10SM CLR 15/11 A3001 940 77 1200 110/04 RMK AO2
14926KSTC STC20120626003509806/26/12 00:35:31  5-MIN KSTC 260635Z AUTO 12004KT 10SM CLR 16/11 A3001 940 74 1300 120/04 RMK AO2
14926KSTC STC20120626004009806/26/12 00:40:31  5-MIN KSTC 260640Z AUTO 12004KT 10SM CLR 16/11 A3001 940 74 1300 120/04 RMK AO2
14926KSTC STC20120626004509806/26/12 00:45:31  5-MIN KSTC 260645Z AUTO 13004KT 10SM CLR 15/11 A3001 940 77 1200 130/04 RMK AO2
14926KSTC STC20120626005011506/26/12 00:50:31  5-MIN KSTC 260650Z AUTO 12004KT 10SM CLR 15/11 A3001 940 77 1200 120/04 RMK AO2 SLP168 T01500111
14926KSTC STC20120626005509806/26/12 00:55:31  5-MIN KSTC 260655Z AUTO 11004KT 10SM CLR 15/11 A3001 940 77 1200 110/04 RMK AO2
14926KSTC STC20120626010009806/26/12 01:00:31  5-MIN KSTC 260700Z AUTO 13003KT 10SM CLR 16/11 A3002 940 74 1300 130/03 RMK AO2
14926KSTC STC20120626010509806/26/12 01:05:31  5-MIN KSTC 260705Z AUTO 13003KT 10SM CLR 16/11 A3002 940 74 1300 130/03 RMK AO2
14926KSTC STC20120626011009806/26/12 01:10:31  5-MIN KSTC 260710Z AUTO 00000KT 10SM CLR 14/12 A3002 930 83 1100 000/00 RMK AO2
14926KSTC STC20120626011509806/26/12 01:15:31  5-MIN KSTC 260715Z AUTO 00000KT 10SM CLR 14/12 A3002 940 83 1100 000/00 RMK AO2
14926KSTC STC20120626012009806/26/12 01:20:31  5-MIN KSTC 260720Z AUTO 00000KT 10SM CLR 14/12 A3002 940 83 1100 000/00 RMK AO2
14926KSTC STC20120626012509806/26/12 01:25:31  5-MIN KSTC 260725Z AUTO 00000KT 10SM CLR 14/11 A3002 940 80 1100 000/00 RMK AO2
14926KSTC STC20120626013009806/26/12 01:30:31  5-MIN KSTC 260730Z AUTO 00000KT 10SM CLR 14/12 A3002 930 83 1100 000/00 RMK AO2
14926KSTC STC20120626013509806/26/12 01:35:31  5-MIN KSTC 260735Z AUTO 00000KT 10SM CLR 14/11 A3002 940 83 1100 000/00 RMK AO2
14926KSTC STC20120626014009806/26/12 01:40:31  5-MIN KSTC 260740Z AUTO 00000KT 10SM CLR 14/11 A3001 940 83 1100 000/00 RMK AO2
14926KSTC STC20120626014509806/26/12 01:45:31  5-MIN KSTC 260745Z AUTO 00000KT 10SM CLR 13/11 A3002 940 86 1000 000/00 RMK AO2
14926KSTC STC20120626015011506/26/12 01:50:31  5-MIN KSTC 260750Z AUTO 00000KT 10SM CLR 13/11 A3002 940 86 1000 000/00 RMK AO2 SLP170 T01330111
14926KSTC STC20120626015509806/26/12 01:55:31  5-MIN KSTC 260755Z AUTO 00000KT 10SM CLR 13/11 A3001 940 86 1000 000/00 RMK AO2
14926KSTC STC20120626020009706/26/12 02:00:31  5-MIN KSTC 260800Z AUTO 00000KT 10SM CLR 13/11 A3001 950 89 900 000/00 RMK AO2
14926KSTC STC20120626020509806/26/12 02:05:31  5-MIN KSTC 260805Z AUTO 00000KT 10SM CLR 13/11 A3001 940 86 1000 000/00 RMK AO2
14926KSTC STC20120626021009806/26/12 02:10:31  5-MIN KSTC 260810Z AUTO 10003KT 10SM CLR 13/11 A3001 940 86 1000 100/03 RMK AO2
14926KSTC STC20120626021509806/26/12 02:15:31  5-MIN KSTC 260815Z AUTO 11003KT 10SM CLR 13/11 A3001 950 86 1000 110/03 RMK AO2
14926KSTC STC20120626022009806/26/12 02:20:31  5-MIN KSTC 260820Z AUTO 11003KT 10SM CLR 13/11 A3000 950 86 1000 110/03 RMK AO2
14926KSTC STC20120626022509806/26/12 02:25:31  5-MIN KSTC 260825Z AUTO 10003KT 10SM CLR 14/11 A3000 950 83 1100 100/03 RMK AO2
14926KSTC STC20120626023009806/26/12 02:30:31  5-MIN KSTC 260830Z AUTO 09004KT 10SM CLR 13/11 A3000 950 86 1000 090/04 RMK AO2
14926KSTC STC20120626023509806/26/12 02:35:31  5-MIN KSTC 260835Z AUTO 09005KT 10SM CLR 13/11 A3000 960 86 1000 090/05 RMK AO2
14926KSTC STC20120626024009806/26/12 02:40:31  5-MIN KSTC 260840Z AUTO 09004KT 10SM CLR 13/11 A3000 950 86 1000 090/04 RMK AO2
14926KSTC STC20120626024509806/26/12 02:45:31  5-MIN KSTC 260845Z AUTO 09004KT 10SM CLR 14/11 A3000 950 83 1100 090/04 RMK AO2
14926KSTC STC20120626025012106/26/12 02:50:31  5-MIN KSTC 260850Z AUTO 00000KT 10SM CLR 13/11 A3000 950 86 1000 000/00 RMK AO2 SLP165 T01330111 50003
14926KSTC STC20120626025509706/26/12 02:55:31  5-MIN KSTC 260855Z AUTO 00000KT 10SM CLR 13/11 A3001 950 89 900 000/00 RMK AO2
14926KSTC STC20120626030009706/26/12 03:00:31  5-MIN KSTC 260900Z AUTO 00000KT 10SM CLR 13/11 A3001 950 89 900 000/00 RMK AO2
14926KSTC STC20120626030509706/26/12 03:05:31  5-MIN KSTC 260905Z AUTO 00000KT 10SM CLR 13/11 A3000 950 89 900 000/00 RMK AO2
14926KSTC STC20120626031009706/26/12 03:10:31  5-MIN KSTC 260910Z AUTO 00000KT 10SM CLR 12/11 A3000 950 93 900 000/00 RMK AO2
14926KSTC STC20120626031509706/26/12 03:15:31  5-MIN KSTC 260915Z AUTO 00000KT 10SM CLR 12/10 A3001 950 89 800 000/00 RMK AO2
14926KSTC STC20120626032009706/26/12 03:20:31  5-MIN KSTC 260920Z AUTO 00000KT 10SM CLR 12/11 A3001 950 89 900 000/00 RMK AO2
14926KSTC STC20120626032509706/26/12 03:25:31  5-MIN KSTC 260925Z AUTO 00000KT 10SM CLR 12/11 A3000 950 93 800 000/00 RMK AO2
14926KSTC STC20120626033009706/26/12 03:30:31  5-MIN KSTC 260930Z AUTO 00000KT 10SM CLR 12/10 A3000 950 89 800 000/00 RMK AO2
14926KSTC STC20120626033509706/26/12 03:35:31  5-MIN KSTC 260935Z AUTO 00000KT 10SM CLR 12/10 A3000 950 89 800 000/00 RMK AO2
14926KSTC STC20120626034009706/26/12 03:40:31  5-MIN KSTC 260940Z AUTO 00000KT 10SM CLR 11/10 A3001 950 93 700 000/00 RMK AO2
14926KSTC STC20120626034509706/26/12 03:45:31  5-MIN KSTC 260945Z AUTO 00000KT 10SM CLR 11/10 A3000 950 93 800 000/00 RMK AO2
14926KSTC STC20120626035011406/26/12 03:50:31  5-MIN KSTC 260950Z AUTO 00000KT 10SM CLR 12/10 A3000 950 89 800 000/00 RMK AO2 SLP165 T01170100
14926KSTC STC20120626035509706/26/12 03:55:31  5-MIN KSTC 260955Z AUTO 11003KT 10SM CLR 12/11 A2999 960 93 800 110/03 RMK AO2
14926KSTC STC20120626040009706/26/12 04:00:31  5-MIN KSTC 261000Z AUTO 10003KT 10SM CLR 12/11 A2999 960 93 800 090/03 RMK AO2
14926KSTC STC20120626040509706/26/12 04:05:31  5-MIN KSTC 261005Z AUTO 09003KT 10SM CLR 12/11 A2999 960 89 900 090/03 RMK AO2
14926KSTC STC20120626041009706/26/12 04:10:31  5-MIN KSTC 261010Z AUTO 10003KT 10SM CLR 12/11 A2999 960 89 900 100/03 RMK AO2
14926KSTC STC20120626041509706/26/12 04:15:31  5-MIN KSTC 261015Z AUTO 00000KT 10SM CLR 12/11 A3000 960 89 900 000/00 RMK AO2
14926KSTC STC20120626042009806/26/12 04:20:31  5-MIN KSTC 261020Z AUTO 00000KT 10SM CLR 13/11 A3000 960 89 1000 000/00 RMK AO2
14926KSTC STC20120626042509706/26/12 04:25:31  5-MIN KSTC 261025Z AUTO 00000KT 10SM CLR 12/11 A2999 960 89 900 000/00 RMK AO2
14926KSTC STC20120626043009706/26/12 04:30:31  5-MIN KSTC 261030Z AUTO 11003KT 10SM CLR 12/11 A2999 970 89 900 110/03 RMK AO2
14926KSTC STC20120626043509706/26/12 04:35:31  5-MIN KSTC 261035Z AUTO 12003KT 10SM CLR 12/11 A2998 970 89 900 120/03 RMK AO2
14926KSTC STC20120626044009806/26/12 04:40:31  5-MIN KSTC 261040Z AUTO 12005KT 10SM CLR 13/11 A2997 980 86 1000 120/05 RMK AO2
14926KSTC STC20120626044509806/26/12 04:45:31  5-MIN KSTC 261045Z AUTO 12005KT 10SM CLR 14/11 A2997 980 83 1100 120/05 RMK AO2
14926KSTC STC20120626045011506/26/12 04:50:31  5-MIN KSTC 261050Z AUTO 12006KT 10SM CLR 14/11 A2998 970 83 1100 120/06 RMK AO2 SLP156 T01390111
14926KSTC STC20120626045509806/26/12 04:55:31  5-MIN KSTC 261055Z AUTO 12005KT 10SM CLR 14/11 A2997 980 83 1100 120/05 RMK AO2
14926KSTC STC20120626050009806/26/12 05:00:31  5-MIN KSTC 261100Z AUTO 11005KT 10SM CLR 14/11 A2997 980 83 1100 110/05 RMK AO2
14926KSTC STC20120626050509806/26/12 05:05:31  5-MIN KSTC 261105Z AUTO 12005KT 10SM CLR 14/12 A2997 980 86 1100 120/05 RMK AO2
14926KSTC STC20120626051009806/26/12 05:10:31  5-MIN KSTC 261110Z AUTO 12006KT 10SM CLR 14/12 A2997 980 83 1200 120/06 RMK AO2
14926KSTC STC20120626051509806/26/12 05:15:31  5-MIN KSTC 261115Z AUTO 12005KT 10SM CLR 14/12 A2997 980 83 1200 120/05 RMK AO2
14926KSTC STC20120626052009806/26/12 05:20:31  5-MIN KSTC 261120Z AUTO 13005KT 10SM CLR 14/12 A2997 980 83 1200 120/05 RMK AO2
14926KSTC STC20120626052509806/26/12 05:25:31  5-MIN KSTC 261125Z AUTO 13005KT 10SM CLR 14/12 A2998 980 83 1200 130/05 RMK AO2
14926KSTC STC20120626053009806/26/12 05:30:31  5-MIN KSTC 261130Z AUTO 13004KT 10SM CLR 15/12 A2998 970 80 1200 130/04 RMK AO2
14926KSTC STC20120626053509806/26/12 05:35:31  5-MIN KSTC 261135Z AUTO 12003KT 10SM CLR 15/12 A2998 970 80 1200 120/03 RMK AO2
14926KSTC STC20120626054009806/26/12 05:40:31  5-MIN KSTC 261140Z AUTO 00000KT 10SM CLR 15/12 A2998 970 80 1200 000/00 RMK AO2
14926KSTC STC20120626054509806/26/12 05:45:31  5-MIN KSTC 261145Z AUTO 00000KT 10SM CLR 14/12 A2998 970 86 1200 000/00 RMK AO2
14926KSTC STC20120626055013306/26/12 05:50:31  5-MIN KSTC 261150Z AUTO 13003KT 10SM CLR 15/12 A2998 970 83 1200 130/03 RMK AO2 SLP157 T01500122 10156 20111 56006
14926KSTC STC20120626055509806/26/12 05:55:31  5-MIN KSTC 261155Z AUTO 13003KT 10SM CLR 15/12 A2998 970 83 1200 130/03 RMK AO2
14926KSTC STC20120626060009306/26/12 06:00:31  5-MIN KSTC 261200Z 13003KT 10SM CLR 16/12 A2998 970 80 1300 130/03 RMK AO2
14926KSTC STC20120626060509306/26/12 06:05:31  5-MIN KSTC 261205Z 13003KT 10SM CLR 16/12 A2998 970 80 1300 130/03 RMK AO2
14926KSTC STC20120626061009306/26/12 06:10:31  5-MIN KSTC 261210Z 12004KT 10SM CLR 16/12 A2998 970 80 1300 120/04 RMK AO2
14926KSTC STC20120626061509306/26/12 06:15:31  5-MIN KSTC 261215Z 12004KT 10SM CLR 16/12 A2998 970 80 1300 120/04 RMK AO2
14926KSTC STC20120626062009306/26/12 06:20:31  5-MIN KSTC 261220Z 12006KT 10SM CLR 16/12 A2997 980 77 1400 120/06 RMK AO2
14926KSTC STC20120626062509306/26/12 06:25:31  5-MIN KSTC 261225Z 13005KT 10SM CLR 16/12 A2997 980 77 1400 130/05 RMK AO2
14926KSTC STC20120626063009306/26/12 06:30:31  5-MIN KSTC 261230Z 14007KT 10SM CLR 17/12 A2997 980 75 1400 140/07 RMK AO2
14926KSTC STC20120626063509306/26/12 06:35:31  5-MIN KSTC 261235Z 14007KT 10SM CLR 17/12 A2996 990 72 1500 140/07 RMK AO2
14926KSTC STC20120626064009306/26/12 06:40:31  5-MIN KSTC 261240Z 14010KT 10SM CLR 17/12 A2996 990 72 1500 140/10 RMK AO2
14926KSTC STC20120626064509306/26/12 06:45:31  5-MIN KSTC 261245Z 14009KT 10SM CLR 17/12 A2996 990 72 1500 140/09 RMK AO2
14926KSTC STC20120626065011006/26/12 06:50:31  5-MIN KSTC 261250Z 15008KT 10SM CLR 17/12 A2996 990 72 1500 150/08 RMK AO2 SLP150 T01720122
14926KSTC STC20120626065509906/26/12 06:55:31  5-MIN KSTC 261255Z 15009G15KT 10SM CLR 17/12 A2996 990 72 1500 150/09G15 RMK AO2
14926KSTC STC20120626070009406/26/12 07:00:31  5-MIN KSTC 261300Z 15009KT 10SM CLR 17/12 A2995 1000 72 1500 150/09 RMK AO2
14926KSTC STC20120626070509406/26/12 07:05:31  5-MIN KSTC 261305Z 14010KT 10SM CLR 18/12 A2995 1000 69 1600 140/10 RMK AO2
14926KSTC STC20120626071009406/26/12 07:10:31  5-MIN KSTC 261310Z 15008KT 10SM CLR 18/12 A2995 1000 69 1600 150/08 RMK AO2
14926KSTC STC20120626071509406/26/12 07:15:31  5-MIN KSTC 261315Z 16007KT 10SM CLR 18/12 A2995 1000 69 1600 160/07 RMK AO2
14926KSTC STC20120626072009406/26/12 07:20:31  5-MIN KSTC 261320Z 16010KT 10SM CLR 18/12 A2995 1000 67 1700 160/10 RMK AO2
14926KSTC STC20120626072509406/26/12 07:25:31  5-MIN KSTC 261325Z 16012KT 10SM CLR 18/12 A2994 1010 65 1700 160/12 RMK AO2
14926KSTC STC20120626073009706/26/12 07:30:31  5-MIN KSTC 261330Z 15011KT 10SM FEW110 18/12 A2994 1010 65 1700 150/11 RMK AO2
14926KSTC STC20120626073509706/26/12 07:35:31  5-MIN KSTC 261335Z 16011KT 10SM FEW110 18/12 A2995 1000 65 1700 160/11 RMK AO2
14926KSTC STC20120626074009706/26/12 07:40:31  5-MIN KSTC 261340Z 16010KT 10SM FEW110 18/11 A2994 1010 64 1600 160/10 RMK AO2
14926KSTC STC20120626074511006/26/12 07:45:31  5-MIN KSTC 261345Z 15016G21KT 10SM SCT110 18/11 A2991 1040 64 1600 140/16G21 RMK AO2 PRESFR
14926KSTC STC20120626075013406/26/12 07:50:31  5-MIN KSTC 261350Z 14017G23KT 10SM FEW090 BKN110 18/11 A2989 1060 64 1700 140/17G23 RMK AO2 PRESFR SLP126 T01780111
14926KSTC STC20120626075511006/26/12 07:55:31  5-MIN KSTC 261355Z 16011G23KT 10SM FEW090 BKN110 18/11 A2995 1000 60 1700 160/11G23 RMK AO2
14926KSTC STC20120626080011006/26/12 08:00:31  5-MIN KSTC 261400Z VRB06G23KT 10SM FEW090 SCT110 18/11 A2994 1010 60 1700 VRB/06G23 RMK AO2
14926KSTC STC20120626080509706/26/12 08:05:31  5-MIN KSTC 261405Z 16011KT 10SM FEW110 18/11 A2993 1020 60 1700 160/11 RMK AO2
14926KSTC STC20120626081010306/26/12 08:10:31  5-MIN KSTC 261410Z 17013G23KT 10SM FEW110 18/11 A2995 1000 60 1700 170/13G23 RMK AO2
14926KSTC STC20120626081510206/26/12 08:15:31  5-MIN KSTC 261415Z 19008G23KT 10SM FEW110 18/11 A2996 990 60 1600 190/08G23 RMK AO2
14926KSTC STC20120626082009306/26/12 08:20:31  5-MIN KSTC 261420Z VRB05KT 10SM CLR 19/11 A2996 990 58 1700 VRB/05 RMK AO2
14926KSTC STC20120626082509306/26/12 08:25:31  5-MIN KSTC 261425Z 19007KT 10SM CLR 19/11 A2997 980 58 1700 190/07 RMK AO2
14926KSTC STC20120626083009306/26/12 08:30:31  5-MIN KSTC 261430Z 19007KT 10SM CLR 19/11 A2998 980 58 1700 190/07 RMK AO2
14926KSTC STC20120626083509306/26/12 08:35:31  5-MIN KSTC 261435Z 18006KT 10SM CLR 19/11 A2998 970 58 1700 180/06 RMK AO2
14926KSTC STC20120626084009306/26/12 08:40:31  5-MIN KSTC 261440Z 18008KT 10SM CLR 19/11 A2997 980 56 1800 180/08 RMK AO2
14926KSTC STC20120626084509306/26/12 08:45:31  5-MIN KSTC 261445Z 17009KT 10SM CLR 19/11 A2997 980 56 1800 170/09 RMK AO2
14926KSTC STC20120626085011606/26/12 08:50:31  5-MIN KSTC 261450Z 17008KT 10SM CLR 19/11 A2997 980 56 1800 170/08 RMK AO2 SLP155 T01940106 55008
14926KSTC STC20120626085509306/26/12 08:55:31  5-MIN KSTC 261455Z 17007KT 10SM CLR 19/11 A2997 980 56 1800 170/07 RMK AO2
14926KSTC STC20120626090009306/26/12 09:00:31  5-MIN KSTC 261500Z 18007KT 10SM CLR 20/11 A2997 980 54 1800 180/07 RMK AO2
14926KSTC STC20120626090509306/26/12 09:05:31  5-MIN KSTC 261505Z 17010KT 10SM CLR 20/11 A2998 970 54 1800 170/10 RMK AO2
14926KSTC STC20120626091009906/26/12 09:10:31  5-MIN KSTC 261510Z 18009G16KT 10SM CLR 20/10 A2998 970 52 1800 180/09G16 RMK AO2
14926KSTC STC20120626091509906/26/12 09:15:31  5-MIN KSTC 261515Z 19011G16KT 10SM CLR 21/10 A2998 970 50 1900 190/11G16 RMK AO2
14926KSTC STC20120626092009906/26/12 09:20:31  5-MIN KSTC 261520Z 18011G16KT 10SM CLR 20/10 A2998 970 52 1800 180/11G16 RMK AO2
14926KSTC STC20120626092509906/26/12 09:25:31  5-MIN KSTC 261525Z 17010G16KT 10SM CLR 20/10 A2998 970 52 1800 170/10G16 RMK AO2
14926KSTC STC20120626093009306/26/12 09:30:31  5-MIN KSTC 261530Z 17009KT 10SM CLR 20/10 A2997 980 52 1800 170/09 RMK AO2
14926KSTC STC20120626093509306/26/12 09:35:31  5-MIN KSTC 261535Z 16011KT 10SM CLR 21/10 A2997 980 50 1900 160/11 RMK AO2
14926KSTC STC20120626094009306/26/12 09:40:31  5-MIN KSTC 261540Z 16011KT 10SM CLR 21/10 A2996 990 50 1900 160/11 RMK AO2
14926KSTC STC20120626094510106/26/12 09:45:31  5-MIN KSTC 261545Z 15013KT 10SM CLR 21/10 A2995 1000 50 1900 150/13 RMK AO2 PRESFR
14926KSTC STC20120626095011006/26/12 09:50:31  5-MIN KSTC 261550Z 16013KT 10SM CLR 20/10 A2996 990 52 1800 160/13 RMK AO2 SLP153 T02000100
14926KSTC STC20120626095509306/26/12 09:55:31  5-MIN KSTC 261555Z 16007KT 10SM CLR 20/10 A2997 980 52 1800 160/07 RMK AO2
14926KSTC STC20120626100009306/26/12 10:00:31  5-MIN KSTC 261600Z 17009KT 10SM CLR 21/10 A2997 980 50 1900 170/09 RMK AO2
14926KSTC STC20120626100509306/26/12 10:05:31  5-MIN KSTC 261605Z 17007KT 10SM CLR 20/10 A2997 980 52 1800 170/07 RMK AO2
14926KSTC STC20120626101009306/26/12 10:10:31  5-MIN KSTC 261610Z 16006KT 10SM CLR 21/10 A2997 980 50 1900 160/06 RMK AO2
14926KSTC STC20120626101509306/26/12 10:15:31  5-MIN KSTC 261615Z 17007KT 10SM CLR 21/11 A2996 990 50 2000 170/07 RMK AO2
14926KSTC STC20120626102009906/26/12 10:20:31  5-MIN KSTC 261620Z 17010G16KT 10SM CLR 21/10 A2996 990 48 2000 170/10G16 RMK AO2
14926KSTC STC20120626102509906/26/12 10:25:31  5-MIN KSTC 261625Z 17011G16KT 10SM CLR 22/09 A2996 990 45 2000 170/11G16 RMK AO2
14926KSTC STC20120626103009406/26/12 10:30:31  5-MIN KSTC 261630Z 17011KT 10SM CLR 22/10 A2995 1000 47 2000 170/11 RMK AO2
14926KSTC STC20120626103510006/26/12 10:35:31  5-MIN KSTC 261635Z 16010G18KT 10SM CLR 22/10 A2995 1000 45 2100 150/10G18 RMK AO2
14926KSTC STC20120626104009406/26/12 10:40:31  5-MIN KSTC 261640Z 17008KT 10SM CLR 22/11 A2995 1000 49 2000 170/08 RMK AO2
14926KSTC STC20120626104509406/26/12 10:45:31  5-MIN KSTC 261645Z 17009KT 10SM CLR 22/11 A2995 1000 49 2000 170/09 RMK AO2
14926KSTC STC20120626105011106/26/12 10:50:31  5-MIN KSTC 261650Z 17011KT 10SM CLR 22/10 A2994 1010 47 2100 170/11 RMK AO2 SLP145 T02170100
14926KSTC STC20120626105509406/26/12 10:55:31  5-MIN KSTC 261655Z 17010KT 10SM CLR 22/10 A2994 1010 47 2100 170/10 RMK AO2
14926KSTC STC20120626110009406/26/12 11:00:31  5-MIN KSTC 261700Z 16010KT 10SM CLR 22/10 A2994 1010 47 2100 160/10 RMK AO2
14926KSTC STC20120626110510006/26/12 11:05:31  5-MIN KSTC 261705Z 17008G16KT 10SM CLR 22/11 A2994 1010 49 2100 170/08G16 RMK AO2
14926KSTC STC20120626111010006/26/12 11:10:31  5-MIN KSTC 261710Z 15011G17KT 10SM CLR 22/11 A2994 1010 49 2100 150/11G17 RMK AO2
14926KSTC STC20120626111510006/26/12 11:15:31  5-MIN KSTC 261715Z 16009G17KT 10SM CLR 22/10 A2994 1010 47 2100 160/09G17 RMK AO2
14926KSTC STC20120626112010006/26/12 11:20:31  5-MIN KSTC 261720Z 17011G17KT 10SM CLR 22/10 A2994 1010 45 2100 170/11G17 RMK AO2
14926KSTC STC20120626112510006/26/12 11:25:31  5-MIN KSTC 261725Z 18013G19KT 10SM CLR 22/10 A2993 1010 45 2100 170/13G19 RMK AO2
14926KSTC STC20120626113010006/26/12 11:30:31  5-MIN KSTC 261730Z 18010G19KT 10SM CLR 23/10 A2993 1020 44 2200 180/10G19 RMK AO2
14926KSTC STC20120626113509406/26/12 11:35:31  5-MIN KSTC 261735Z 16011KT 10SM CLR 23/10 A2992 1020 44 2200 160/11 RMK AO2
14926KSTC STC20120626114010006/26/12 11:40:31  5-MIN KSTC 261740Z 17010G16KT 10SM CLR 22/11 A2992 1030 47 2100 170/10G16 RMK AO2
14926KSTC STC20120626114510706/26/12 11:45:31  5-MIN KSTC 261745Z 14011G17KT 10SM CLR 23/11 A2991 1030 45 2200 140/11G17 RMK AO2 PRESFR
14926KSTC STC20120626115013506/26/12 11:50:31  5-MIN KSTC 261750Z 15013G21KT 10SM CLR 23/10 A2992 1030 42 2300 150/13G21 RMK AO2 SLP135 T02330100 10233 20150 55002
14926KSTC STC20120626115510006/26/12 11:55:31  5-MIN KSTC 261755Z 15012G21KT 10SM CLR 23/10 A2991 1030 42 2300 150/12G21 RMK AO2
14926KSTC STC20120626120010006/26/12 12:00:31  5-MIN KSTC 261800Z 16012G21KT 10SM CLR 24/10 A2991 1030 41 2300 160/12G21 RMK AO2
14926KSTC STC20120626120510006/26/12 12:05:31  5-MIN KSTC 261805Z 16011G17KT 10SM CLR 23/11 A2991 1040 44 2300 150/11G17 RMK AO2
14926KSTC STC20120626121010006/26/12 12:10:31  5-MIN KSTC 261810Z 13012G18KT 10SM CLR 23/10 A2990 1040 44 2200 130/12G18 RMK AO2
14926KSTC STC20120626121509406/26/12 12:15:31  5-MIN KSTC 261815Z 16012KT 10SM CLR 23/11 A2989 1050 44 2300 160/12 RMK AO2
14926KSTC STC20120626122010706/26/12 12:20:31  5-MIN KSTC 261820Z 14011G21KT 10SM CLR 24/11 A2988 1070 42 2400 140/11G21 RMK AO2 PRESFR
14926KSTC STC20120626122510006/26/12 12:25:31  5-MIN KSTC 261825Z 14017G24KT 10SM CLR 24/11 A2987 1070 44 2400 140/17G24 RMK AO2
14926KSTC STC20120626123010006/26/12 12:30:31  5-MIN KSTC 261830Z 16015G24KT 10SM CLR 24/11 A2988 1060 41 2400 160/15G24 RMK AO2
14926KSTC STC20120626123510006/26/12 12:35:31  5-MIN KSTC 261835Z 17009G20KT 10SM CLR 24/11 A2990 1050 42 2400 170/09G20 RMK AO2
14926KSTC STC20120626124010006/26/12 12:40:31  5-MIN KSTC 261840Z 16013G20KT 10SM CLR 24/11 A2989 1060 42 2400 160/13G20 RMK AO2
14926KSTC STC20120626124510006/26/12 12:45:31  5-MIN KSTC 261845Z 16013G18KT 10SM CLR 23/11 A2988 1060 44 2300 150/13G18 RMK AO2
14926KSTC STC20120626125011706/26/12 12:50:31  5-MIN KSTC 261850Z 16010G17KT 10SM CLR 24/11 A2988 1060 42 2400 160/10G17 RMK AO2 SLP125 T02390106
14926KSTC STC20120626125510006/26/12 12:55:31  5-MIN KSTC 261855Z 15015G19KT 10SM CLR 23/10 A2988 1060 42 2300 150/15G19 RMK AO2
14926KSTC STC20120626130010006/26/12 13:00:31  5-MIN KSTC 261900Z 16012G19KT 10SM CLR 23/10 A2988 1060 42 2300 160/12G19 RMK AO2
14926KSTC STC20120626130510006/26/12 13:05:31  5-MIN KSTC 261905Z 17011G17KT 10SM CLR 24/11 A2988 1070 44 2400 170/11G17 RMK AO2
14926KSTC STC20120626131010006/26/12 13:10:31  5-MIN KSTC 261910Z 14012G18KT 10SM CLR 24/11 A2988 1070 42 2400 140/12G18 RMK AO2
14926KSTC STC20120626131510006/26/12 13:15:31  5-MIN KSTC 261915Z 15013G20KT 10SM CLR 24/11 A2987 1070 41 2400 140/13G20 RMK AO2
14926KSTC STC20120626132010006/26/12 13:20:31  5-MIN KSTC 261920Z 16012G20KT 10SM CLR 24/10 A2987 1070 41 2400 160/12G20 RMK AO2
14926KSTC STC20120626132510006/26/12 13:25:31  5-MIN KSTC 261925Z 16011G17KT 10SM CLR 24/11 A2987 1070 42 2400 150/11G17 RMK AO2
14926KSTC STC20120626133010006/26/12 13:30:31  5-MIN KSTC 261930Z 14012G17KT 10SM CLR 24/11 A2987 1070 41 2400 140/12G17 RMK AO2
14926KSTC STC20120626133509406/26/12 13:35:31  5-MIN KSTC 261935Z 15011KT 10SM CLR 24/11 A2987 1070 42 2400 150/11 RMK AO2
14926KSTC STC20120626134010006/26/12 13:40:31  5-MIN KSTC 261940Z 13010G16KT 10SM CLR 25/11 A2987 1080 41 2500 130/10G16 RMK AO2
14926KSTC STC20120626134509406/26/12 13:45:31  5-MIN KSTC 261945Z 14010KT 10SM CLR 25/11 A2987 1080 41 2500 140/10 RMK AO2
14926KSTC STC20120626135011706/26/12 13:50:31  5-MIN KSTC 261950Z 13011G17KT 10SM CLR 24/11 A2986 1080 42 2500 130/11G17 RMK AO2 SLP118 T02440111
14926KSTC STC20120626135509406/26/12 13:55:31  5-MIN KSTC 261955Z 14012KT 10SM CLR 24/11 A2986 1080 42 2500 140/12 RMK AO2
14926KSTC STC20120626140010006/26/12 14:00:31  5-MIN KSTC 262000Z 13008G17KT 10SM CLR 24/12 A2986 1080 44 2500 130/08G17 RMK AO2
14926KSTC STC20120626140510006/26/12 14:05:31  5-MIN KSTC 262005Z 14012G18KT 10SM CLR 25/11 A2986 1090 41 2500 130/12G18 RMK AO2
14926KSTC STC20120626141010006/26/12 14:10:31  5-MIN KSTC 262010Z 15014G19KT 10SM CLR 25/11 A2985 1090 39 2500 140/14G19 RMK AO2
14926KSTC STC20120626141510006/26/12 14:15:31  5-MIN KSTC 262015Z 15014G19KT 10SM CLR 26/10 A2985 1090 37 2600 150/14G19 RMK AO2
14926KSTC STC20120626142010006/26/12 14:20:31  5-MIN KSTC 262020Z 14010G17KT 10SM CLR 26/11 A2985 1100 40 2600 130/10G17 RMK AO2
14926KSTC STC20120626142510006/26/12 14:25:31  5-MIN KSTC 262025Z 14013G19KT 10SM CLR 26/11 A2984 1100 38 2600 140/13G19 RMK AO2
14926KSTC STC20120626143010006/26/12 14:30:31  5-MIN KSTC 262030Z 14012G19KT 10SM CLR 26/11 A2984 1100 38 2600 140/12G19 RMK AO2
14926KSTC STC20120626143510006/26/12 14:35:31  5-MIN KSTC 262035Z 14013G17KT 10SM CLR 26/11 A2984 1100 37 2700 140/13G17 RMK AO2
14926KSTC STC20120626144010006/26/12 14:40:31  5-MIN KSTC 262040Z 12008G17KT 10SM CLR 26/10 A2983 1110 36 2700 120/08G17 RMK AO2
14926KSTC STC20120626144510006/26/12 14:45:31  5-MIN KSTC 262045Z 14009G16KT 10SM CLR 26/10 A2983 1110 36 2700 140/09G16 RMK AO2
14926KSTC STC20120626145012306/26/12 14:50:31  5-MIN KSTC 262050Z 14011G17KT 10SM CLR 26/09 A2982 1120 34 2700 140/11G17 RMK AO2 SLP104 T02610094 58020
14926KSTC STC20120626145510006/26/12 14:55:31  5-MIN KSTC 262055Z 15013G21KT 10SM CLR 26/09 A2982 1120 34 2700 150/13G21 RMK AO2
14926KSTC STC20120626150010006/26/12 15:00:31  5-MIN KSTC 262100Z 15014G21KT 10SM CLR 27/09 A2982 1120 32 2800 150/14G21 RMK AO2
14926KSTC STC20120626150510006/26/12 15:05:31  5-MIN KSTC 262105Z 13009G20KT 10SM CLR 27/09 A2982 1120 33 2800 130/09G20 RMK AO2
14926KSTC STC20120626151010006/26/12 15:10:31  5-MIN KSTC 262110Z 13015G19KT 10SM CLR 27/09 A2982 1120 32 2800 130/15G19 RMK AO2
14926KSTC STC20120626151510006/26/12 15:15:31  5-MIN KSTC 262115Z 14013G19KT 10SM CLR 27/09 A2981 1120 32 2800 140/13G19 RMK AO2
14926KSTC STC20120626152010006/26/12 15:20:31  5-MIN KSTC 262120Z 14012G19KT 10SM CLR 27/09 A2981 1130 32 2800 140/12G19 RMK AO2
14926KSTC STC20120626152510006/26/12 15:25:31  5-MIN KSTC 262125Z 14011G19KT 10SM CLR 27/09 A2981 1130 33 2800 140/11G19 RMK AO2
14926KSTC STC20120626153009406/26/12 15:30:31  5-MIN KSTC 262130Z 13011KT 10SM CLR 27/09 A2981 1130 33 2800 130/11 RMK AO2
14926KSTC STC20120626153509406/26/12 15:35:31  5-MIN KSTC 262135Z 14011KT 10SM CLR 27/09 A2981 1130 33 2800 140/11 RMK AO2
14926KSTC STC20120626154010006/26/12 15:40:31  5-MIN KSTC 262140Z 13012G20KT 10SM CLR 27/09 A2980 1130 31 2800 130/12G20 RMK AO2
14926KSTC STC20120626154510006/26/12 15:45:31  5-MIN KSTC 262145Z 14012G20KT 10SM CLR 27/08 A2980 1140 31 2800 140/12G20 RMK AO2
14926KSTC STC20120626155011706/26/12 15:50:31  5-MIN KSTC 262150Z 15014G20KT 10SM CLR 27/08 A2980 1140 31 2800 150/14G20 RMK AO2 SLP096 T02670083
14926KSTC STC20120626155510006/26/12 15:55:31  5-MIN KSTC 262155Z 15016G22KT 10SM CLR 27/09 A2980 1140 31 2800 150/16G22 RMK AO2
14926KSTC STC20120626160010006/26/12 16:00:31  5-MIN KSTC 262200Z 15013G22KT 10SM CLR 27/08 A2979 1140 31 2800 150/13G22 RMK AO2
14926KSTC STC20120626160510006/26/12 16:05:31  5-MIN KSTC 262205Z 14015G21KT 10SM CLR 27/08 A2979 1140 31 2800 130/15G21 RMK AO2
14926KSTC STC20120626161010006/26/12 16:10:31  5-MIN KSTC 262210Z 13015G21KT 10SM CLR 27/08 A2979 1150 29 2800 130/15G21 RMK AO2
14926KSTC STC20120626161510006/26/12 16:15:31  5-MIN KSTC 262215Z 15015G22KT 10SM CLR 27/08 A2979 1150 29 2800 150/15G22 RMK AO2
14926KSTC STC20120626162010006/26/12 16:20:31  5-MIN KSTC 262220Z 15017G22KT 10SM CLR 27/08 A2978 1150 31 2800 150/17G22 RMK AO2
14926KSTC STC20120626162510006/26/12 16:25:31  5-MIN KSTC 262225Z 15018G23KT 10SM CLR 27/08 A2978 1160 29 2800 150/18G23 RMK AO2
14926KSTC STC20120626163010006/26/12 16:30:31  5-MIN KSTC 262230Z 14013G23KT 10SM CLR 27/08 A2978 1160 31 2800 140/13G23 RMK AO2
14926KSTC STC20120626163510006/26/12 16:35:31  5-MIN KSTC 262235Z 14015G21KT 10SM CLR 27/08 A2977 1160 31 2800 140/15G21 RMK AO2
14926KSTC STC20120626164010006/26/12 16:40:31  5-MIN KSTC 262240Z 15015G21KT 10SM CLR 27/08 A2977 1160 31 2800 150/15G21 RMK AO2
14926KSTC STC20120626164510006/26/12 16:45:31  5-MIN KSTC 262245Z 14012G20KT 10SM CLR 27/08 A2977 1160 31 2800 130/12G20 RMK AO2
14926KSTC STC20120626165011706/26/12 16:50:31  5-MIN KSTC 262250Z 14017G23KT 10SM CLR 27/08 A2977 1170 29 2800 140/17G23 RMK AO2 SLP084 T02670078
14926KSTC STC20120626165510006/26/12 16:55:31  5-MIN KSTC 262255Z 15015G23KT 10SM CLR 27/08 A2976 1170 29 2800 150/15G23 RMK AO2
14926KSTC STC20120626170010006/26/12 17:00:31  5-MIN KSTC 262300Z 15015G20KT 10SM CLR 27/08 A2976 1170 29 2800 150/15G20 RMK AO2
14926KSTC STC20120626170510006/26/12 17:05:31  5-MIN KSTC 262305Z 14014G21KT 10SM CLR 27/08 A2976 1180 31 2800 140/14G21 RMK AO2
14926KSTC STC20120626171010006/26/12 17:10:31  5-MIN KSTC 262310Z 14016G24KT 10SM CLR 27/07 A2975 1180 28 2800 140/16G24 RMK AO2
14926KSTC STC20120626171510006/26/12 17:15:31  5-MIN KSTC 262315Z 14012G24KT 10SM CLR 27/07 A2975 1180 28 2800 140/12G24 RMK AO2
14926KSTC STC20120626172010006/26/12 17:20:31  5-MIN KSTC 262320Z 15017G24KT 10SM CLR 27/08 A2975 1190 29 2800 150/17G24 RMK AO2
14926KSTC STC20120626172510006/26/12 17:25:31  5-MIN KSTC 262325Z 14013G23KT 10SM CLR 27/08 A2975 1190 29 2800 140/13G23 RMK AO2
14926KSTC STC20120626173010006/26/12 17:30:31  5-MIN KSTC 262330Z 14012G22KT 10SM CLR 27/08 A2975 1190 31 2800 140/12G22 RMK AO2
14926KSTC STC20120626173510006/26/12 17:35:31  5-MIN KSTC 262335Z 14016G23KT 10SM CLR 27/08 A2975 1190 29 2800 140/16G23 RMK AO2
14926KSTC STC20120626174010006/26/12 17:40:31  5-MIN KSTC 262340Z 15016G23KT 10SM CLR 27/07 A2974 1190 28 2800 150/16G23 RMK AO2
14926KSTC STC20120626174510006/26/12 17:45:31  5-MIN KSTC 262345Z 14015G22KT 10SM CLR 27/08 A2974 1190 29 2800 140/15G22 RMK AO2
14926KSTC STC20120626175013506/26/12 17:50:31  5-MIN KSTC 262350Z 14015G22KT 10SM CLR 27/07 A2974 1200 28 2800 140/15G22 RMK AO2 SLP074 T02670072 10272 20228 58030
14926KSTC STC20120626175510006/26/12 17:55:31  5-MIN KSTC 262355Z 14014G22KT 10SM CLR 27/08 A2974 1200 29 2800 140/14G22 RMK AO2
14926KSTC STC20120626180010006/26/12 18:00:31  5-MIN KSTC 270000Z 14012G22KT 10SM CLR 27/08 A2974 1200 31 2900 140/12G22 RMK AO2
14926KSTC STC20120626180510006/26/12 18:05:31  5-MIN KSTC 270005Z 14016G23KT 10SM CLR 27/08 A2974 1200 31 2800 140/16G23 RMK AO2
14926KSTC STC20120626181010006/26/12 18:10:31  5-MIN KSTC 270010Z 14016G23KT 10SM CLR 26/08 A2974 1190 31 2800 140/16G23 RMK AO2
14926KSTC STC20120626181510006/26/12 18:15:31  5-MIN KSTC 270015Z 14011G22KT 10SM CLR 26/08 A2974 1190 32 2800 140/11G22 RMK AO2
14926KSTC STC20120626182010006/26/12 18:20:31  5-MIN KSTC 270020Z 14013G18KT 10SM CLR 26/08 A2974 1200 32 2800 140/13G18 RMK AO2
14926KSTC STC20120626182510006/26/12 18:25:31  5-MIN KSTC 270025Z 15012G22KT 10SM CLR 26/08 A2974 1200 32 2800 150/12G22 RMK AO2
14926KSTC STC20120626183010006/26/12 18:30:31  5-MIN KSTC 270030Z 15010G22KT 10SM CLR 26/09 A2974 1190 33 2800 150/10G22 RMK AO2
14926KSTC STC20120626183510006/26/12 18:35:31  5-MIN KSTC 270035Z 15011G19KT 10SM CLR 26/09 A2974 1200 34 2700 150/11G19 RMK AO2
14926KSTC STC20120626184010006/26/12 18:40:31  5-MIN KSTC 270040Z 15010G18KT 10SM CLR 26/09 A2974 1200 35 2700 150/10G18 RMK AO2
14926KSTC STC20120626184509406/26/12 18:45:31  5-MIN KSTC 270045Z 15009KT 10SM CLR 26/09 A2974 1200 35 2700 150/09 RMK AO2
14926KSTC STC20120626185011106/26/12 18:50:31  5-MIN KSTC 270050Z 15010KT 10SM CLR 26/09 A2973 1200 35 2700 150/10 RMK AO2 SLP073 T02560094
14926KSTC STC20120626185509406/26/12 18:55:31  5-MIN KSTC 270055Z 16008KT 10SM CLR 25/10 A2974 1200 38 2700 160/08 RMK AO2
14926KSTC STC20120626190010006/26/12 19:00:31  5-MIN KSTC 270100Z 15013G17KT 10SM CLR 25/09 A2974 1200 37 2700 150/13G17 RMK AO2
14926KSTC STC20120626190510006/26/12 19:05:31  5-MIN KSTC 270105Z 15010G17KT 10SM CLR 25/10 A2974 1190 38 2700 150/10G17 RMK AO2
14926KSTC STC20120626191010006/26/12 19:10:31  5-MIN KSTC 270110Z 15012G17KT 10SM CLR 25/09 A2974 1200 37 2700 150/12G17 RMK AO2
14926KSTC STC20120626191510006/26/12 19:15:31  5-MIN KSTC 270115Z 15011G17KT 10SM CLR 25/09 A2974 1200 37 2700 150/11G17 RMK AO2
14926KSTC STC20120626192010006/26/12 19:20:31  5-MIN KSTC 270120Z 15011G17KT 10SM CLR 24/09 A2973 1200 38 2600 150/11G17 RMK AO2
14926KSTC STC20120626192510006/26/12 19:25:31  5-MIN KSTC 270125Z 15010G16KT 10SM CLR 24/09 A2973 1200 38 2600 150/10G16 RMK AO2
14926KSTC STC20120626193010006/26/12 19:30:31  5-MIN KSTC 270130Z 15009G16KT 10SM CLR 24/09 A2973 1200 38 2600 150/09G16 RMK AO2
14926KSTC STC20120626193509406/26/12 19:35:31  5-MIN KSTC 270135Z 15008KT 10SM CLR 24/10 A2973 1200 41 2500 150/08 RMK AO2
14926KSTC STC20120626194009406/26/12 19:40:31  5-MIN KSTC 270140Z 14007KT 10SM CLR 24/10 A2973 1200 41 2500 140/07 RMK AO2
14926KSTC STC20120626194509406/26/12 19:45:31  5-MIN KSTC 270145Z 14008KT 10SM CLR 24/10 A2973 1200 41 2500 140/08 RMK AO2
14926KSTC STC20120626195011106/26/12 19:50:31  5-MIN KSTC 270150Z 14007KT 10SM CLR 24/10 A2973 1200 41 2500 140/07 RMK AO2 SLP072 T02390100
14926KSTC STC20120626195509406/26/12 19:55:31  5-MIN KSTC 270155Z 14008KT 10SM CLR 24/10 A2973 1200 41 2500 140/08 RMK AO2
14926KSTC STC20120626200009406/26/12 20:00:31  5-MIN KSTC 270200Z 13008KT 10SM CLR 23/10 A2973 1200 42 2500 130/08 RMK AO2
14926KSTC STC20120626200509406/26/12 20:05:31  5-MIN KSTC 270205Z 13008KT 10SM CLR 23/10 A2973 1200 42 2500 130/08 RMK AO2
14926KSTC STC20120626201009406/26/12 20:10:31  5-MIN KSTC 270210Z 13007KT 10SM CLR 23/10 A2973 1200 42 2500 130/07 RMK AO2
14926KSTC STC20120626201509406/26/12 20:15:31  5-MIN KSTC 270215Z 13007KT 10SM CLR 23/10 A2973 1200 42 2500 130/07 RMK AO2
14926KSTC STC20120626202009406/26/12 20:20:31  5-MIN KSTC 270220Z 13006KT 10SM CLR 23/10 A2973 1210 42 2500 130/06 RMK AO2
14926KSTC STC20120626202509406/26/12 20:25:31  5-MIN KSTC 270225Z 13006KT 10SM CLR 23/11 A2973 1200 45 2400 130/06 RMK AO2
14926KSTC STC20120626203009406/26/12 20:30:31  5-MIN KSTC 270230Z 13006KT 10SM CLR 23/11 A2973 1200 45 2400 120/06 RMK AO2
14926KSTC STC20120626203509406/26/12 20:35:31  5-MIN KSTC 270235Z 13007KT 10SM CLR 23/11 A2973 1200 45 2400 130/07 RMK AO2
14926KSTC STC20120626204009406/26/12 20:40:31  5-MIN KSTC 270240Z 13006KT 10SM CLR 23/11 A2973 1200 45 2400 130/06 RMK AO2
14926KSTC STC20120626204509406/26/12 20:45:31  5-MIN KSTC 270245Z 13006KT 10SM CLR 23/11 A2973 1200 45 2400 130/06 RMK AO2
14926KSTC STC20120626205011706/26/12 20:50:31  5-MIN KSTC 270250Z 12006KT 10SM CLR 23/11 A2973 1200 45 2400 120/06 RMK AO2 SLP072 T02280106 58028
14926KSTC STC20120626205509406/26/12 20:55:31  5-MIN KSTC 270255Z 13007KT 10SM CLR 23/11 A2973 1200 45 2400 130/07 RMK AO2
14926KSTC STC20120626210009406/26/12 21:00:31  5-MIN KSTC 270300Z 13007KT 10SM CLR 23/11 A2973 1200 45 2400 130/07 RMK AO2
14926KSTC STC20120626210509406/26/12 21:05:31  5-MIN KSTC 270305Z 13007KT 10SM CLR 23/11 A2973 1200 45 2400 130/07 RMK AO2
14926KSTC STC20120626211009406/26/12 21:10:31  5-MIN KSTC 270310Z 13006KT 10SM CLR 22/11 A2973 1200 47 2400 130/06 RMK AO2
14926KSTC STC20120626211509406/26/12 21:15:31  5-MIN KSTC 270315Z 13007KT 10SM CLR 22/11 A2973 1200 49 2400 130/07 RMK AO2
14926KSTC STC20120626212009406/26/12 21:20:31  5-MIN KSTC 270320Z 13007KT 10SM CLR 22/11 A2973 1200 49 2400 130/07 RMK AO2
14926KSTC STC20120626212509406/26/12 21:25:31  5-MIN KSTC 270325Z 13006KT 10SM CLR 22/11 A2973 1200 49 2400 130/06 RMK AO2
14926KSTC STC20120626213009406/26/12 21:30:31  5-MIN KSTC 270330Z 13006KT 10SM CLR 22/11 A2973 1200 50 2300 130/06 RMK AO2
14926KSTC STC20120626213509406/26/12 21:35:31  5-MIN KSTC 270335Z 14006KT 10SM CLR 22/12 A2973 1200 52 2300 130/06 RMK AO2
14926KSTC STC20120626214009406/26/12 21:40:31  5-MIN KSTC 270340Z 13006KT 10SM CLR 22/12 A2973 1200 52 2300 130/06 RMK AO2
14926KSTC STC20120626214509406/26/12 21:45:31  5-MIN KSTC 270345Z 13006KT 10SM CLR 22/12 A2973 1200 52 2300 130/06 RMK AO2
14926KSTC STC20120626215011106/26/12 21:50:31  5-MIN KSTC 270350Z 13005KT 10SM CLR 21/12 A2973 1200 54 2200 130/05 RMK AO2 SLP071 T02110117
14926KSTC STC20120626215509406/26/12 21:55:31  5-MIN KSTC 270355Z 12005KT 10SM CLR 21/12 A2973 1200 54 2200 120/05 RMK AO2
14926KSTC STC20120626220009906/26/12 22:00:31  5-MIN KSTC 270400Z AUTO 13007KT 10SM CLR 22/12 A2973 1200 52 2300 130/07 RMK AO2
14926KSTC STC20120626220509906/26/12 22:05:31  5-MIN KSTC 270405Z AUTO 13006KT 10SM CLR 21/12 A2973 1200 54 2200 130/06 RMK AO2
14926KSTC STC20120626221009906/26/12 22:10:31  5-MIN KSTC 270410Z AUTO 13005KT 10SM CLR 21/12 A2973 1210 56 2200 130/05 RMK AO2
14926KSTC STC20120626221509906/26/12 22:15:31  5-MIN KSTC 270415Z AUTO 13005KT 10SM CLR 21/12 A2973 1210 54 2200 130/05 RMK AO2
14926KSTC STC20120626222009906/26/12 22:20:31  5-MIN KSTC 270420Z AUTO 12006KT 10SM CLR 21/12 A2973 1210 54 2200 120/06 RMK AO2
14926KSTC STC20120626222509906/26/12 22:25:31  5-MIN KSTC 270425Z AUTO 13006KT 10SM CLR 21/12 A2973 1210 56 2200 130/06 RMK AO2
14926KSTC STC20120626223009906/26/12 22:30:31  5-MIN KSTC 270430Z AUTO 13006KT 10SM CLR 21/12 A2973 1210 56 2200 130/06 RMK AO2
14926KSTC STC20120626223509906/26/12 22:35:31  5-MIN KSTC 270435Z AUTO 13007KT 10SM CLR 21/12 A2972 1210 56 2200 130/07 RMK AO2
14926KSTC STC20120626224009906/26/12 22:40:31  5-MIN KSTC 270440Z AUTO 13006KT 10SM CLR 21/12 A2972 1210 56 2200 120/06 RMK AO2
14926KSTC STC20120626224509906/26/12 22:45:31  5-MIN KSTC 270445Z AUTO 13007KT 10SM CLR 21/12 A2972 1210 56 2200 130/07 RMK AO2
14926KSTC STC20120626225011606/26/12 22:50:31  5-MIN KSTC 270450Z AUTO 13006KT 10SM CLR 21/12 A2972 1210 56 2200 130/06 RMK AO2 SLP067 T02110122
14926KSTC STC20120626225509906/26/12 22:55:31  5-MIN KSTC 270455Z AUTO 13005KT 10SM CLR 21/12 A2972 1210 56 2200 130/05 RMK AO2
14926KSTC STC20120626230009906/26/12 23:00:31  5-MIN KSTC 270500Z AUTO 13007KT 10SM CLR 21/12 A2972 1220 56 2200 130/07 RMK AO2
14926KSTC STC20120626230509906/26/12 23:05:31  5-MIN KSTC 270505Z AUTO 13007KT 10SM CLR 21/13 A2971 1220 60 2200 130/07 RMK AO2
14926KSTC STC20120626231009906/26/12 23:10:31  5-MIN KSTC 270510Z AUTO 13006KT 10SM CLR 21/13 A2971 1220 60 2200 130/06 RMK AO2
14926KSTC STC20120626231509906/26/12 23:15:31  5-MIN KSTC 270515Z AUTO 13006KT 10SM CLR 21/13 A2971 1220 60 2200 120/06 RMK AO2
14926KSTC STC20120626232009906/26/12 23:20:31  5-MIN KSTC 270520Z AUTO 12006KT 10SM CLR 21/13 A2971 1220 60 2200 120/06 RMK AO2
14926KSTC STC20120626232509906/26/12 23:25:31  5-MIN KSTC 270525Z AUTO 13006KT 10SM CLR 21/13 A2971 1220 60 2200 130/06 RMK AO2
14926KSTC STC20120626233009906/26/12 23:30:31  5-MIN KSTC 270530Z AUTO 13006KT 10SM CLR 21/13 A2971 1220 60 2200 130/06 RMK AO2
14926KSTC STC20120626233509906/26/12 23:35:31  5-MIN KSTC 270535Z AUTO 13007KT 10SM CLR 21/13 A2971 1220 60 2200 130/07 RMK AO2
14926KSTC STC20120626234009906/26/12 23:40:31  5-MIN KSTC 270540Z AUTO 12006KT 10SM CLR 21/13 A2971 1220 60 2200 120/06 RMK AO2
14926KSTC STC20120626234509906/26/12 23:45:31  5-MIN KSTC 270545Z AUTO 12006KT 10SM CLR 21/13 A2970 1230 60 2200 120/06 RMK AO2
14926KSTC STC20120626235014406/26/12 23:50:31  5-MIN KSTC 270550Z AUTO 13005KT 10SM CLR 20/13 A2970 1230 63 2100 130/05 RMK AO2 SLP062 T02000128 10267 20200 402720111 57002
14926KSTC STC20120626235509906/26/12 23:55:31  5-MIN KSTC 270555Z AUTO 13006KT 10SM CLR 20/13 A2970 1230 63 2100 120/06 RMK AO2
14926KSTC STC20120627000009906/27/12 00:00:32  5-MIN KSTC 270600Z AUTO 12008KT 10SM CLR 20/13 A2970 1230 65 2100 120/08 RMK AO2
14926KSTC STC20120627000509906/27/12 00:05:31  5-MIN KSTC 270605Z AUTO 13007KT 10SM CLR 20/13 A2970 1230 65 2100 130/07 RMK AO2
14926KSTC STC20120627001009906/27/12 00:10:31  5-MIN KSTC 270610Z AUTO 13007KT 10SM CLR 20/13 A2970 1230 65 2100 130/07 RMK AO2
14926KSTC STC20120627001509906/27/12 00:15:31  5-MIN KSTC 270615Z AUTO 13007KT 10SM CLR 20/13 A2970 1230 65 2100 130/07 RMK AO2
14926KSTC STC20120627002009906/27/12 00:20:31  5-MIN KSTC 270620Z AUTO 13007KT 10SM CLR 20/13 A2970 1230 65 2100 130/07 RMK AO2
14926KSTC STC20120627002509906/27/12 00:25:31  5-MIN KSTC 270625Z AUTO 13007KT 10SM CLR 20/13 A2969 1240 65 2100 130/07 RMK AO2
14926KSTC STC20120627003009906/27/12 00:30:31  5-MIN KSTC 270630Z AUTO 13007KT 10SM CLR 20/13 A2969 1240 65 2100 130/07 RMK AO2
14926KSTC STC20120627003509906/27/12 00:35:31  5-MIN KSTC 270635Z AUTO 13006KT 10SM CLR 19/13 A2969 1240 67 2100 130/06 RMK AO2
14926KSTC STC20120627004009906/27/12 00:40:31  5-MIN KSTC 270640Z AUTO 13005KT 10SM CLR 19/13 A2969 1240 67 2100 130/05 RMK AO2
14926KSTC STC20120627004509906/27/12 00:45:31  5-MIN KSTC 270645Z AUTO 13007KT 10SM CLR 19/13 A2969 1240 67 2100 130/07 RMK AO2
14926KSTC STC20120627005011606/27/12 00:50:31  5-MIN KSTC 270650Z AUTO 13007KT 10SM CLR 20/13 A2969 1240 65 2200 130/07 RMK AO2 SLP055 T02000133
14926KSTC STC20120627005509906/27/12 00:55:31  5-MIN KSTC 270655Z AUTO 13006KT 10SM CLR 20/13 A2969 1240 65 2200 130/06 RMK AO2
14926KSTC STC20120627010009906/27/12 01:00:31  5-MIN KSTC 270700Z AUTO 13006KT 10SM CLR 20/13 A2968 1250 65 2200 130/06 RMK AO2
14926KSTC STC20120627010509906/27/12 01:05:31  5-MIN KSTC 270705Z AUTO 13007KT 10SM CLR 20/13 A2968 1250 65 2200 130/07 RMK AO2
14926KSTC STC20120627011009906/27/12 01:10:31  5-MIN KSTC 270710Z AUTO 13007KT 10SM CLR 20/13 A2968 1250 65 2200 130/07 RMK AO2
14926KSTC STC20120627011509906/27/12 01:15:31  5-MIN KSTC 270715Z AUTO 13006KT 10SM CLR 20/13 A2968 1250 65 2200 130/06 RMK AO2
14926KSTC STC20120627012009906/27/12 01:20:31  5-MIN KSTC 270720Z AUTO 13006KT 10SM CLR 20/13 A2968 1250 65 2200 130/06 RMK AO2
14926KSTC STC20120627012509906/27/12 01:25:31  5-MIN KSTC 270725Z AUTO 13006KT 10SM CLR 20/13 A2967 1260 65 2200 130/06 RMK AO2
14926KSTC STC20120627013009906/27/12 01:30:31  5-MIN KSTC 270730Z AUTO 14006KT 10SM CLR 20/13 A2967 1260 65 2200 130/06 RMK AO2
14926KSTC STC20120627013509906/27/12 01:35:31  5-MIN KSTC 270735Z AUTO 14005KT 10SM CLR 19/13 A2967 1260 67 2100 140/05 RMK AO2
14926KSTC STC20120627014009906/27/12 01:40:31  5-MIN KSTC 270740Z AUTO 14005KT 10SM CLR 19/13 A2967 1260 67 2100 140/05 RMK AO2
14926KSTC STC20120627014509906/27/12 01:45:31  5-MIN KSTC 270745Z AUTO 13007KT 10SM CLR 19/13 A2966 1270 67 2100 130/07 RMK AO2
14926KSTC STC20120627015011606/27/12 01:50:31  5-MIN KSTC 270750Z AUTO 13007KT 10SM CLR 19/13 A2966 1270 67 2100 130/07 RMK AO2 SLP045 T01940133
14926KSTC STC20120627015509906/27/12 01:55:31  5-MIN KSTC 270755Z AUTO 14006KT 10SM CLR 19/13 A2965 1270 67 2100 140/06 RMK AO2
14926KSTC STC20120627020009906/27/12 02:00:31  5-MIN KSTC 270800Z AUTO 14006KT 10SM CLR 19/13 A2965 1280 67 2100 140/06 RMK AO2
14926KSTC STC20120627020509906/27/12 02:05:31  5-MIN KSTC 270805Z AUTO 14005KT 10SM CLR 19/13 A2965 1270 70 2100 140/05 RMK AO2
14926KSTC STC20120627021009906/27/12 02:10:31  5-MIN KSTC 270810Z AUTO 14006KT 10SM CLR 19/13 A2966 1270 67 2100 140/06 RMK AO2
14926KSTC STC20120627021509906/27/12 02:15:31  5-MIN KSTC 270815Z AUTO 14006KT 10SM CLR 19/13 A2965 1270 67 2100 140/06 RMK AO2
14926KSTC STC20120627022009906/27/12 02:20:31  5-MIN KSTC 270820Z AUTO 14005KT 10SM CLR 19/13 A2965 1270 70 2100 140/05 RMK AO2
14926KSTC STC20120627022509906/27/12 02:25:31  5-MIN KSTC 270825Z AUTO 14005KT 10SM CLR 19/13 A2965 1280 70 2100 140/05 RMK AO2
14926KSTC STC20120627023009906/27/12 02:30:31  5-MIN KSTC 270830Z AUTO 14005KT 10SM CLR 19/13 A2965 1280 70 2100 140/05 RMK AO2
14926KSTC STC20120627023509906/27/12 02:35:31  5-MIN KSTC 270835Z AUTO 14005KT 10SM CLR 18/14 A2965 1270 75 2000 140/05 RMK AO2
14926KSTC STC20120627024009906/27/12 02:40:31  5-MIN KSTC 270840Z AUTO 14005KT 10SM CLR 18/14 A2965 1280 75 2000 140/05 RMK AO2
14926KSTC STC20120627024509906/27/12 02:45:31  5-MIN KSTC 270845Z AUTO 13004KT 10SM CLR 18/14 A2965 1280 75 2000 130/04 RMK AO2
14926KSTC STC20120627025012206/27/12 02:50:31  5-MIN KSTC 270850Z AUTO 13004KT 10SM CLR 19/13 A2965 1280 70 2100 130/04 RMK AO2 SLP043 T01890133 58009
14926KSTC STC20120627025509906/27/12 02:55:31  5-MIN KSTC 270855Z AUTO 13004KT 10SM CLR 19/13 A2965 1280 67 2100 130/04 RMK AO2
14926KSTC STC20120627030009906/27/12 03:00:31  5-MIN KSTC 270900Z AUTO 13005KT 10SM CLR 19/13 A2965 1280 67 2100 130/05 RMK AO2
14926KSTC STC20120627030509906/27/12 03:05:31  5-MIN KSTC 270905Z AUTO 13004KT 10SM CLR 19/13 A2965 1280 70 2100 130/04 RMK AO2
14926KSTC STC20120627031009906/27/12 03:10:31  5-MIN KSTC 270910Z AUTO 13004KT 10SM CLR 19/13 A2965 1280 70 2100 130/04 RMK AO2
14926KSTC STC20120627031509906/27/12 03:15:31  5-MIN KSTC 270915Z AUTO 13004KT 10SM CLR 18/13 A2965 1280 72 2000 130/04 RMK AO2
14926KSTC STC20120627032009906/27/12 03:20:31  5-MIN KSTC 270920Z AUTO 12004KT 10SM CLR 19/13 A2965 1280 70 2100 120/04 RMK AO2
14926KSTC STC20120627032509906/27/12 03:25:31  5-MIN KSTC 270925Z AUTO 12004KT 10SM CLR 19/13 A2965 1280 67 2100 120/04 RMK AO2
14926KSTC STC20120627033009906/27/12 03:30:31  5-MIN KSTC 270930Z AUTO 11004KT 10SM CLR 19/13 A2965 1280 67 2100 110/04 RMK AO2
14926KSTC STC20120627033509906/27/12 03:35:31  5-MIN KSTC 270935Z AUTO 11004KT 10SM CLR 19/13 A2965 1280 70 2100 110/04 RMK AO2
14926KSTC STC20120627034009906/27/12 03:40:31  5-MIN KSTC 270940Z AUTO 11004KT 10SM CLR 18/13 A2965 1270 72 2000 110/04 RMK AO2
14926KSTC STC20120627034509906/27/12 03:45:31  5-MIN KSTC 270945Z AUTO 11004KT 10SM CLR 18/14 A2965 1270 75 2000 110/04 RMK AO2
14926KSTC STC20120627035011606/27/12 03:50:31  5-MIN KSTC 270950Z AUTO 11005KT 10SM CLR 18/13 A2965 1270 72 2000 110/05 RMK AO2 SLP044 T01830133
14926KSTC STC20120627035509906/27/12 03:55:31  5-MIN KSTC 270955Z AUTO 10005KT 10SM CLR 18/14 A2965 1270 75 2000 100/05 RMK AO2
14926KSTC STC20120627040009906/27/12 04:00:31  5-MIN KSTC 271000Z AUTO 11005KT 10SM CLR 18/14 A2965 1280 75 2000 100/05 RMK AO2
14926KSTC STC20120627040509906/27/12 04:05:31  5-MIN KSTC 271005Z AUTO 11006KT 10SM CLR 19/14 A2965 1280 72 2100 110/06 RMK AO2
14926KSTC STC20120627041009906/27/12 04:10:31  5-MIN KSTC 271010Z AUTO 11005KT 10SM CLR 19/14 A2965 1280 72 2100 110/05 RMK AO2
14926KSTC STC20120627041509906/27/12 04:15:31  5-MIN KSTC 271015Z AUTO 12005KT 10SM CLR 19/13 A2965 1280 70 2100 120/05 RMK AO2
14926KSTC STC20120627042009906/27/12 04:20:31  5-MIN KSTC 271020Z AUTO 13004KT 10SM CLR 19/13 A2965 1270 70 2100 120/04 RMK AO2
14926KSTC STC20120627042509906/27/12 04:25:31  5-MIN KSTC 271025Z AUTO 12005KT 10SM CLR 19/13 A2965 1280 67 2100 120/05 RMK AO2
14926KSTC STC20120627043009906/27/12 04:30:31  5-MIN KSTC 271030Z AUTO 11003KT 10SM CLR 19/14 A2965 1280 72 2100 110/03 RMK AO2
14926KSTC STC20120627043509906/27/12 04:35:31  5-MIN KSTC 271035Z AUTO 10004KT 10SM CLR 18/14 A2965 1270 75 2000 100/04 RMK AO2
14926KSTC STC20120627044009906/27/12 04:40:31  5-MIN KSTC 271040Z AUTO 11004KT 10SM CLR 18/14 A2965 1280 75 2000 110/04 RMK AO2
14926KSTC STC20120627044509906/27/12 04:45:31  5-MIN KSTC 271045Z AUTO 12004KT 10SM CLR 18/14 A2965 1280 75 2000 110/04 RMK AO2
14926KSTC STC20120627045011606/27/12 04:50:31  5-MIN KSTC 271050Z AUTO 10004KT 10SM CLR 18/14 A2965 1280 75 2000 100/04 RMK AO2 SLP043 T01830139
14926KSTC STC20120627045509906/27/12 04:55:31  5-MIN KSTC 271055Z AUTO 10004KT 10SM CLR 18/14 A2965 1280 75 2000 100/04 RMK AO2
14926KSTC STC20120627050009906/27/12 05:00:31  5-MIN KSTC 271100Z AUTO 11005KT 10SM CLR 18/14 A2965 1280 75 2000 110/05 RMK AO2
14926KSTC STC20120627050509906/27/12 05:05:31  5-MIN KSTC 271105Z AUTO 11005KT 10SM CLR 18/14 A2965 1280 75 2000 110/05 RMK AO2
14926KSTC STC20120627051009906/27/12 05:10:31  5-MIN KSTC 271110Z AUTO 12004KT 10SM CLR 18/14 A2965 1280 75 2000 120/04 RMK AO2
14926KSTC STC20120627051509906/27/12 05:15:31  5-MIN KSTC 271115Z AUTO 11005KT 10SM CLR 18/14 A2965 1280 75 2000 110/05 RMK AO2
14926KSTC STC20120627052009906/27/12 05:20:31  5-MIN KSTC 271120Z AUTO 11005KT 10SM CLR 18/14 A2965 1280 75 2000 100/05 RMK AO2
14926KSTC STC20120627052509906/27/12 05:25:31  5-MIN KSTC 271125Z AUTO 11005KT 10SM CLR 19/14 A2965 1280 72 2100 110/05 RMK AO2
14926KSTC STC20120627053009906/27/12 05:30:31  5-MIN KSTC 271130Z AUTO 12004KT 10SM CLR 19/14 A2965 1280 72 2100 120/04 RMK AO2
14926KSTC STC20120627053509906/27/12 05:35:31  5-MIN KSTC 271135Z AUTO 12006KT 10SM CLR 19/14 A2965 1280 72 2100 120/06 RMK AO2
14926KSTC STC20120627054009906/27/12 05:40:31  5-MIN KSTC 271140Z AUTO 11005KT 10SM CLR 19/14 A2965 1280 70 2100 110/05 RMK AO2
14926KSTC STC20120627054509906/27/12 05:45:31  5-MIN KSTC 271145Z AUTO 11005KT 10SM CLR 19/14 A2965 1280 70 2100 100/05 RMK AO2
14926KSTC STC20120627055012906/27/12 05:50:31  5-MIN KSTC 271150Z 10004KT 10SM CLR 19/14 A2966 1270 70 2100 100/04 RMK AO2 SLP045 T01940139 10200 20183 56018
14926KSTC STC20120627055509406/27/12 05:55:31  5-MIN KSTC 271155Z 08004KT 10SM CLR 19/14 A2966 1270 72 2100 080/04 RMK AO2
14926KSTC STC20120627060009406/27/12 06:00:31  5-MIN KSTC 271200Z 07005KT 10SM CLR 19/14 A2967 1260 72 2100 070/05 RMK AO2
14926KSTC STC20120627060509406/27/12 06:05:31  5-MIN KSTC 271205Z 07006KT 10SM CLR 20/14 A2967 1260 70 2200 060/06 RMK AO2
14926KSTC STC20120627061009406/27/12 06:10:31  5-MIN KSTC 271210Z 08006KT 10SM CLR 19/14 A2967 1260 72 2100 070/06 RMK AO2
14926KSTC STC20120627061509406/27/12 06:15:31  5-MIN KSTC 271215Z 08007KT 10SM CLR 20/14 A2967 1260 70 2200 080/07 RMK AO2
14926KSTC STC20120627062009406/27/12 06:20:31  5-MIN KSTC 271220Z 10007KT 10SM CLR 20/14 A2967 1260 70 2200 090/07 RMK AO2
14926KSTC STC20120627062509406/27/12 06:25:31  5-MIN KSTC 271225Z 10005KT 10SM CLR 20/14 A2967 1260 70 2200 100/05 RMK AO2
14926KSTC STC20120627063009406/27/12 06:30:31  5-MIN KSTC 271230Z 09005KT 10SM CLR 21/14 A2967 1260 67 2200 090/05 RMK AO2
14926KSTC STC20120627063509406/27/12 06:35:31  5-MIN KSTC 271235Z 08005KT 10SM CLR 21/14 A2968 1250 67 2200 080/05 RMK AO2
14926KSTC STC20120627064009406/27/12 06:40:31  5-MIN KSTC 271240Z 10005KT 10SM CLR 21/14 A2968 1250 65 2300 100/05 RMK AO2
14926KSTC STC20120627064509406/27/12 06:45:31  5-MIN KSTC 271245Z 11004KT 10SM CLR 21/15 A2968 1250 68 2300 100/04 RMK AO2
14926KSTC STC20120627065011106/27/12 06:50:31  5-MIN KSTC 271250Z VRB04KT 10SM CLR 22/15 A2968 1250 65 2400 VRB/04 RMK AO2 SLP051 T02170150
14926KSTC STC20120627065509406/27/12 06:55:31  5-MIN KSTC 271255Z 10004KT 10SM CLR 22/15 A2968 1250 65 2300 100/04 RMK AO2
14926KSTC STC20120627070009406/27/12 07:00:31  5-MIN KSTC 271300Z 10003KT 10SM CLR 22/15 A2969 1240 63 2400 100/03 RMK AO2
14926KSTC STC20120627070509406/27/12 07:05:31  5-MIN KSTC 271305Z 11004KT 10SM CLR 22/15 A2969 1240 63 2400 110/04 RMK AO2
14926KSTC STC20120627071009406/27/12 07:10:31  5-MIN KSTC 271310Z 14006KT 10SM CLR 22/15 A2967 1260 63 2400 130/06 RMK AO2
14926KSTC STC20120627071509406/27/12 07:15:31  5-MIN KSTC 271315Z 13007KT 10SM CLR 23/15 A2968 1250 61 2500 130/07 RMK AO2
14926KSTC STC20120627072009406/27/12 07:20:31  5-MIN KSTC 271320Z VRB05KT 10SM CLR 23/15 A2969 1240 61 2500 VRB/05 RMK AO2
14926KSTC STC20120627072509406/27/12 07:25:31  5-MIN KSTC 271325Z 15007KT 10SM CLR 23/15 A2968 1250 59 2500 150/07 RMK AO2
14926KSTC STC20120627073009406/27/12 07:30:31  5-MIN KSTC 271330Z 14007KT 10SM CLR 23/15 A2967 1260 59 2600 140/07 RMK AO2
14926KSTC STC20120627073509406/27/12 07:35:31  5-MIN KSTC 271335Z 14006KT 10SM CLR 23/15 A2968 1250 59 2500 140/06 RMK AO2
14926KSTC STC20120627074009406/27/12 07:40:31  5-MIN KSTC 271340Z 16006KT 10SM CLR 23/15 A2967 1260 59 2500 160/06 RMK AO2
14926KSTC STC20120627074509406/27/12 07:45:31  5-MIN KSTC 271345Z 15012KT 10SM CLR 24/15 A2967 1260 57 2600 140/12 RMK AO2
14926KSTC STC20120627075011106/27/12 07:50:31  5-MIN KSTC 271350Z 15009KT 10SM CLR 24/15 A2967 1260 57 2600 150/09 RMK AO2 SLP049 T02390150
14926KSTC STC20120627075509406/27/12 07:55:31  5-MIN KSTC 271355Z 14009KT 10SM CLR 24/15 A2967 1260 57 2600 140/09 RMK AO2
14926KSTC STC20120627080009406/27/12 08:00:31  5-MIN KSTC 271400Z 15008KT 10SM CLR 24/15 A2967 1260 55 2700 150/08 RMK AO2
14926KSTC STC20120627080509406/27/12 08:05:31  5-MIN KSTC 271405Z 17008KT 10SM CLR 24/15 A2967 1260 55 2700 170/08 RMK AO2
14926KSTC STC20120627081009406/27/12 08:10:31  5-MIN KSTC 271410Z 16009KT 10SM CLR 24/15 A2966 1270 55 2700 160/09 RMK AO2
14926KSTC STC20120627081509406/27/12 08:15:31  5-MIN KSTC 271415Z 16008KT 10SM CLR 24/15 A2967 1260 55 2700 160/08 RMK AO2
14926KSTC STC20120627082009406/27/12 08:20:31  5-MIN KSTC 271420Z 16007KT 10SM CLR 25/16 A2967 1260 55 2700 160/07 RMK AO2
14926KSTC STC20120627082509406/27/12 08:25:31  5-MIN KSTC 271425Z 17007KT 10SM CLR 25/15 A2966 1270 53 2700 170/07 RMK AO2
14926KSTC STC20120627083010006/27/12 08:30:31  5-MIN KSTC 271430Z 16010G15KT 10SM CLR 25/16 A2966 1270 55 2800 160/10G15 RMK AO2
14926KSTC STC20120627083510006/27/12 08:35:31  5-MIN KSTC 271435Z 17009G15KT 10SM CLR 25/15 A2966 1270 53 2700 170/09G15 RMK AO2
14926KSTC STC20120627084009406/27/12 08:40:31  5-MIN KSTC 271440Z 16007KT 10SM CLR 25/16 A2966 1270 55 2800 160/07 RMK AO2
14926KSTC STC20120627084509406/27/12 08:45:31  5-MIN KSTC 271445Z 16009KT 10SM CLR 26/16 A2966 1270 53 2800 160/09 RMK AO2
14926KSTC STC20120627085011706/27/12 08:50:31  5-MIN KSTC 271450Z 15009KT 10SM CLR 26/16 A2965 1280 53 2800 150/09 RMK AO2 SLP043 T02560156 53002
14926KSTC STC20120627085509406/27/12 08:55:31  5-MIN KSTC 271455Z 18008KT 10SM CLR 26/16 A2965 1280 53 2800 180/08 RMK AO2
14926KSTC STC20120627090011006/27/12 09:00:31  5-MIN KSTC 271500Z 18007KT 140V200 10SM CLR 26/16 A2965 1280 53 2900 180/07 140V200 RMK AO2
14926KSTC STC20120627090510006/27/12 09:05:31  5-MIN KSTC 271505Z 16009G15KT 10SM CLR 26/16 A2965 1280 53 2900 160/09G15 RMK AO2
14926KSTC STC20120627091010006/27/12 09:10:31  5-MIN KSTC 271510Z 16010G15KT 10SM CLR 26/16 A2964 1280 51 2900 150/10G15 RMK AO2
14926KSTC STC20120627091509406/27/12 09:15:31  5-MIN KSTC 271515Z 18009KT 10SM CLR 27/16 A2965 1280 52 3000 180/09 RMK AO2
14926KSTC STC20120627092009406/27/12 09:20:31  5-MIN KSTC 271520Z 16008KT 10SM CLR 27/16 A2964 1280 52 3000 160/08 RMK AO2
14926KSTC STC20120627092509406/27/12 09:25:31  5-MIN KSTC 271525Z 15008KT 10SM CLR 27/16 A2964 1280 52 3000 150/08 RMK AO2
14926KSTC STC20120627093009406/27/12 09:30:31  5-MIN KSTC 271530Z 15010KT 10SM CLR 26/16 A2964 1280 53 2900 150/10 RMK AO2
14926KSTC STC20120627093509406/27/12 09:35:31  5-MIN KSTC 271535Z 16007KT 10SM CLR 27/16 A2964 1280 52 3000 160/07 RMK AO2
14926KSTC STC20120627094009406/27/12 09:40:31  5-MIN KSTC 271540Z 18009KT 10SM CLR 27/17 A2964 1290 53 3000 180/09 RMK AO2
14926KSTC STC20120627094509406/27/12 09:45:31  5-MIN KSTC 271545Z 18008KT 10SM CLR 27/16 A2964 1280 52 3000 180/08 RMK AO2
14926KSTC STC20120627095011106/27/12 09:50:31  5-MIN KSTC 271550Z 17006KT 10SM CLR 27/17 A2964 1280 53 3000 170/06 RMK AO2 SLP039 T02670167
14926KSTC STC20120627095509406/27/12 09:55:31  5-MIN KSTC 271555Z 17009KT 10SM CLR 27/17 A2964 1280 52 3000 170/09 RMK AO2
14926KSTC STC20120627100009406/27/12 10:00:31  5-MIN KSTC 271600Z 17008KT 10SM CLR 27/17 A2965 1280 52 3000 170/08 RMK AO2
14926KSTC STC20120627100509406/27/12 10:05:31  5-MIN KSTC 271605Z 16009KT 10SM CLR 27/17 A2964 1280 52 3000 160/09 RMK AO2
14926KSTC STC20120627101009406/27/12 10:10:31  5-MIN KSTC 271610Z 16009KT 10SM CLR 27/17 A2964 1290 54 3000 160/09 RMK AO2
14926KSTC STC20120627101510006/27/12 10:15:31  5-MIN KSTC 271615Z 16007G14KT 10SM CLR 27/17 A2964 1290 52 3000 160/07G14 RMK AO2
14926KSTC STC20120627102010006/27/12 10:20:31  5-MIN KSTC 271620Z 15009G14KT 10SM CLR 27/17 A2964 1290 52 3000 150/09G14 RMK AO2
14926KSTC STC20120627102509406/27/12 10:25:31  5-MIN KSTC 271625Z 14011KT 10SM CLR 27/17 A2964 1290 52 3000 140/11 RMK AO2
14926KSTC STC20120627103011606/27/12 10:30:31  5-MIN KSTC 271630Z 17008G15KT 140V210 10SM CLR 28/17 A2964 1290 52 3100 170/08G15 140V210 RMK AO2
14926KSTC STC20120627103509406/27/12 10:35:31  5-MIN KSTC 271635Z 16009KT 10SM CLR 28/17 A2964 1290 50 3100 160/09 RMK AO2
14926KSTC STC20120627104009406/27/12 10:40:31  5-MIN KSTC 271640Z 16010KT 10SM CLR 28/17 A2964 1290 50 3100 160/10 RMK AO2
14926KSTC STC20120627104509406/27/12 10:45:31  5-MIN KSTC 271645Z 16008KT 10SM CLR 28/17 A2963 1290 52 3100 160/08 RMK AO2
14926KSTC STC20120627105011106/27/12 10:50:31  5-MIN KSTC 271650Z 16009KT 10SM CLR 28/17 A2963 1290 50 3200 160/09 RMK AO2 SLP035 T02830172
14926KSTC STC20120627105509406/27/12 10:55:31  5-MIN KSTC 271655Z 14009KT 10SM CLR 28/17 A2963 1290 50 3200 140/09 RMK AO2
14926KSTC STC20120627110009406/27/12 11:00:31  5-MIN KSTC 271700Z 14010KT 10SM CLR 28/17 A2964 1290 50 3200 140/10 RMK AO2
14926KSTC STC20120627110509406/27/12 11:05:31  5-MIN KSTC 271705Z 19011KT 10SM CLR 29/18 A2964 1290 50 3200 190/11 RMK AO2
14926KSTC STC20120627111010006/27/12 11:10:31  5-MIN KSTC 271710Z 18009G14KT 10SM CLR 28/18 A2964 1290 52 3100 180/09G14 RMK AO2
14926KSTC STC20120627111511006/27/12 11:15:31  5-MIN KSTC 271715Z 16008KT 130V200 10SM CLR 29/18 A2964 1290 50 3200 160/08 130V200 RMK AO2
14926KSTC STC20120627112009406/27/12 11:20:31  5-MIN KSTC 271720Z 18006KT 10SM CLR 29/18 A2965 1280 50 3200 180/06 RMK AO2
14926KSTC STC20120627112509406/27/12 11:25:31  5-MIN KSTC 271725Z 18006KT 10SM CLR 29/18 A2965 1280 50 3200 180/06 RMK AO2
14926KSTC STC20120627113011006/27/12 11:30:31  5-MIN KSTC 271730Z 17008KT 140V220 10SM CLR 29/18 A2964 1280 50 3200 170/08 140V220 RMK AO2
14926KSTC STC20120627113509406/27/12 11:35:31  5-MIN KSTC 271735Z VRB06KT 10SM CLR 29/18 A2964 1290 50 3200 VRB/06 RMK AO2
14926KSTC STC20120627114009406/27/12 11:40:31  5-MIN KSTC 271740Z VRB03KT 10SM CLR 29/18 A2964 1290 52 3200 VRB/03 RMK AO2
14926KSTC STC20120627114509406/27/12 11:45:31  5-MIN KSTC 271745Z 15007KT 10SM CLR 29/18 A2964 1280 50 3300 150/07 RMK AO2
14926KSTC STC20120627115012906/27/12 11:50:31  5-MIN KSTC 271750Z VRB06KT 10SM CLR 29/18 A2964 1280 52 3200 VRB/06 RMK AO2 SLP039 T02890183 10294 20194 58001
14926KSTC STC20120627115509406/27/12 11:55:31  5-MIN KSTC 271755Z 19007KT 10SM CLR 29/18 A2964 1290 50 3300 190/07 RMK AO2
14926KSTC STC20120627120009406/27/12 12:00:31  5-MIN KSTC 271800Z 19006KT 10SM CLR 29/18 A2963 1290 50 3300 190/06 RMK AO2
14926KSTC STC20120627120509406/27/12 12:05:31  5-MIN KSTC 271805Z 12005KT 10SM CLR 29/18 A2963 1290 50 3300 120/05 RMK AO2
14926KSTC STC20120627121009406/27/12 12:10:31  5-MIN KSTC 271810Z 14008KT 10SM CLR 29/18 A2963 1290 50 3300 140/08 RMK AO2
14926KSTC STC20120627121509406/27/12 12:15:31  5-MIN KSTC 271815Z VRB06KT 10SM CLR 29/18 A2964 1290 50 3300 VRB/06 RMK AO2
14926KSTC STC20120627122009406/27/12 12:20:31  5-MIN KSTC 271820Z VRB04KT 10SM CLR 29/19 A2964 1290 52 3300 VRB/04 RMK AO2
14926KSTC STC20120627122509406/27/12 12:25:31  5-MIN KSTC 271825Z VRB03KT 10SM CLR 29/19 A2964 1290 52 3300 VRB/03 RMK AO2
14926KSTC STC20120627123009406/27/12 12:30:31  5-MIN KSTC 271830Z 12006KT 10SM CLR 29/18 A2964 1290 50 3300 120/06 RMK AO2
14926KSTC STC20120627123509406/27/12 12:35:31  5-MIN KSTC 271835Z 17006KT 10SM CLR 29/18 A2964 1290 50 3300 170/06 RMK AO2
14926KSTC STC20120627124009406/27/12 12:40:31  5-MIN KSTC 271840Z 16006KT 10SM CLR 30/19 A2964 1290 51 3300 160/06 RMK AO2
14926KSTC STC20120627124509406/27/12 12:45:31  5-MIN KSTC 271845Z 15005KT 10SM CLR 30/19 A2965 1280 51 3300 140/05 RMK AO2
14926KSTC STC20120627125011106/27/12 12:50:31  5-MIN KSTC 271850Z 15008KT 10SM CLR 29/19 A2965 1280 52 3300 150/08 RMK AO2 SLP040 T02940189
14926KSTC STC20120627125509406/27/12 12:55:31  5-MIN KSTC 271855Z 16005KT 10SM CLR 30/19 A2965 1280 51 3300 160/05 RMK AO2
14926KSTC STC20120627130009406/27/12 13:00:31  5-MIN KSTC 271900Z VRB04KT 10SM CLR 30/19 A2966 1270 51 3300 VRB/04 RMK AO2
14926KSTC STC20120627130509406/27/12 13:05:31  5-MIN KSTC 271905Z 18005KT 10SM CLR 31/19 A2966 1260 49 3400 180/05 RMK AO2
14926KSTC STC20120627131011706/27/12 13:10:31  5-MIN KSTC 271910Z 18008KT 140V220 10SM CLR 31/19 A2967 1260 49 3400 180/08 140V220 RMK AO2 PRESRR
14926KSTC STC20120627131509406/27/12 13:15:31  5-MIN KSTC 271915Z 19007KT 10SM CLR 31/19 A2967 1260 51 3400 190/07 RMK AO2
14926KSTC STC20120627132009406/27/12 13:20:31  5-MIN KSTC 271920Z 20009KT 10SM CLR 31/19 A2967 1260 51 3400 200/09 RMK AO2
14926KSTC STC20120627132509406/27/12 13:25:31  5-MIN KSTC 271925Z 19004KT 10SM CLR 31/19 A2967 1260 49 3400 190/04 RMK AO2
14926KSTC STC20120627133009406/27/12 13:30:31  5-MIN KSTC 271930Z 21005KT 10SM CLR 31/19 A2967 1260 51 3400 200/05 RMK AO2
14926KSTC STC20120627133509406/27/12 13:35:31  5-MIN KSTC 271935Z 23007KT 10SM CLR 31/19 A2967 1250 49 3400 230/07 RMK AO2
14926KSTC STC20120627134009406/27/12 13:40:31  5-MIN KSTC 271940Z 25008KT 10SM CLR 32/19 A2968 1250 47 3500 240/08 RMK AO2
14926KSTC STC20120627134509406/27/12 13:45:31  5-MIN KSTC 271945Z 24005KT 10SM CLR 32/19 A2968 1250 47 3500 240/05 RMK AO2
14926KSTC STC20120627135011106/27/12 13:50:31  5-MIN KSTC 271950Z 26005KT 10SM CLR 32/19 A2968 1250 47 3500 260/05 RMK AO2 SLP051 T03170194
14926KSTC STC20120627135509406/27/12 13:55:31  5-MIN KSTC 271955Z 30005KT 10SM CLR 31/19 A2968 1250 51 3300 300/05 RMK AO2
14926KSTC STC20120627140010606/27/12 14:00:31  5-MIN KSTC 272000Z 25005KT 10SM CLR 31/20 A2968 1250 52 3300 250/05 RMK AO2 LTG DSNT SW
14926KSTC STC20120627140510606/27/12 14:05:31  5-MIN KSTC 272005Z 25007KT 10SM CLR 31/20 A2969 1240 51 3400 250/07 RMK AO2 LTG DSNT SW
14926KSTC STC20120627141010606/27/12 14:10:31  5-MIN KSTC 272010Z 31004KT 10SM CLR 31/20 A2968 1250 52 3300 310/04 RMK AO2 LTG DSNT SW
14926KSTC STC20120627141511706/27/12 14:15:31  5-MIN KSTC 272015Z 27007KT 10SM VCTS CLR 31/20 A2968 1250 52 3300 270/07 RMK AO2 LTG DSNT SW TSB15
14926KSTC STC20120627142013506/27/12 14:20:31  5-MIN KSTC 272020Z 00000KT 10SM TS CLR 30/20 A2968 1250 54 3300 000/00 RMK AO2 TSB15E16B19 TS W MOV E OCSNL LTG ICCC
14926KSTC STC20120627142513806/27/12 14:25:31  5-MIN KSTC 272025Z 29005KT 10SM TS FEW050 31/20 A2968 1250 52 3300 290/05 RMK AO2 TSB15E16B19 TS W MOV E OCSNL LTG ICCC
14926KSTC STC20120627143013806/27/12 14:30:31  5-MIN KSTC 272030Z 35006KT 10SM TS FEW050 30/20 A2967 1260 54 3300 350/06 RMK AO2 TSB15E16B19 TS W MOV E OCSNL LTG ICCC
14926KSTC STC20120627143514506/27/12 14:35:31  5-MIN KSTC 272035Z 03004KT 10SM FEW050 29/21 A2965 1270 58 3300 030/04 RMK AO2 TSB15E16B19E34 PRESFR TS W MOV E OCSNL LTG ICCC
14926KSTC STC20120627144013306/27/12 14:40:31  5-MIN KSTC 272040Z 05007KT 10SM FEW050 29/21 A2964 1280 58 3300 050/07 RMK AO2 TSB15E16B19E34 PRESFR LTG DSNT SW-W
14926KSTC STC20120627144512606/27/12 14:45:31  5-MIN KSTC 272045Z 00000KT 10SM FEW050 29/21 A2966 1270 60 3200 000/00 RMK AO2 TSB15E16B19E34 LTG DSNT SW-W
14926KSTC STC20120627145014906/27/12 14:50:31  5-MIN KSTC 272050Z 00000KT 10SM FEW050 29/21 A2966 1260 58 3200 000/00 RMK AO2 TSB15E16B19E34 SLP047 LTG DSNT SW-W T02940206 55004
14926KSTC STC20120627145512706/27/12 14:55:31  5-MIN KSTC 272055Z 00000KT 10SM -RA FEW033 SCT090 SCT110 29/21 A2966 1260 58 3200 000/00 RMK AO2 RAB54 P0000
14926KSTC STC20120627150012206/27/12 15:00:31  5-MIN KSTC 272100Z 13003KT 10SM -RA FEW033 SCT095 29/22 A2966 1270 64 3200 130/03 RMK AO2 RAB2054 P0000
14926KSTC STC20120627150512206/27/12 15:05:31  5-MIN KSTC 272105Z 12003KT 10SM -RA FEW033 SCT090 29/21 A2966 1270 60 3300 120/03 RMK AO2 RAB2054 P0000
14926KSTC STC20120627151012206/27/12 15:10:31  5-MIN KSTC 272110Z 10007KT 10SM -RA FEW033 29/21 A2963 1290 60 3300 090/07 RMK AO2 RAB2054 PRESFR P0000
14926KSTC STC20120627151512206/27/12 15:15:31  5-MIN KSTC 272115Z 12006KT 10SM -RA FEW033 29/21 A2962 1300 60 3300 120/06 RMK AO2 RAB2054 PRESFR P0000
14926KSTC STC20120627152011506/27/12 15:20:31  5-MIN KSTC 272120Z 07007KT 10SM -RA FEW033 29/21 A2963 1300 60 3300 070/07 RMK AO2 RAB2054 P0000
14926KSTC STC20120627152511206/27/12 15:25:31  5-MIN KSTC 272125Z 08004KT 10SM -RA CLR 29/21 A2962 1300 62 3200 080/04 RMK AO2 RAB2054 P0000
14926KSTC STC20120627153014306/27/12 15:30:31  5-MIN KSTC 272130Z 21010G16KT 170V230 10SM FEW100 29/21 A2968 1250 62 3200 210/10G16 170V230 RMK AO2 RAB2054E28 PRESRR P0000
14926KSTC STC20120627153512006/27/12 15:35:31  5-MIN KSTC 272135Z 11006G18KT 10SM FEW100 29/21 A2965 1280 62 3200 110/06G18 RMK AO2 RAB2054E28 P0000
14926KSTC STC20120627154011406/27/12 15:40:31  5-MIN KSTC 272140Z 18006KT 10SM FEW100 29/22 A2966 1270 64 3200 180/06 RMK AO2 RAB2054E28 P0000
14926KSTC STC20120627154511406/27/12 15:45:31  5-MIN KSTC 272145Z 24007KT 10SM FEW100 29/22 A2968 1250 64 3200 240/07 RMK AO2 RAB2054E28 P0000
14926KSTC STC20120627155013106/27/12 15:50:31  5-MIN KSTC 272150Z 22007KT 10SM FEW100 29/21 A2969 1240 60 3200 210/07 RMK AO2 RAB2054E28 SLP055 P0000 T02940211
14926KSTC STC20120627155509706/27/12 15:55:31  5-MIN KSTC 272155Z 00000KT 10SM FEW100 30/21 A2967 1260 58 3300 000/00 RMK AO2
14926KSTC STC20120627160009406/27/12 16:00:31  5-MIN KSTC 272200Z 00000KT 10SM CLR 30/21 A2967 1260 58 3300 000/00 RMK AO2
14926KSTC STC20120627160509406/27/12 16:05:31  5-MIN KSTC 272205Z VRB03KT 10SM CLR 31/21 A2967 1260 56 3400 VRB/03 RMK AO2
14926KSTC STC20120627161009406/27/12 16:10:31  5-MIN KSTC 272210Z 16006KT 10SM CLR 29/21 A2968 1250 60 3200 160/06 RMK AO2
14926KSTC STC20120627161509406/27/12 16:15:31  5-MIN KSTC 272215Z 21004KT 10SM CLR 29/21 A2969 1240 60 3200 210/04 RMK AO2
14926KSTC STC20120627162010106/27/12 16:20:31  5-MIN KSTC 272220Z 24005KT 10SM CLR 30/21 A2970 1230 58 3300 240/05 RMK AO2 PRESRR
14926KSTC STC20120627162509406/27/12 16:25:31  5-MIN KSTC 272225Z 24003KT 10SM CLR 30/21 A2969 1240 58 3300 230/03 RMK AO2
14926KSTC STC20120627163009406/27/12 16:30:31  5-MIN KSTC 272230Z 00000KT 10SM CLR 30/21 A2969 1240 58 3300 000/00 RMK AO2
14926KSTC STC20120627163509406/27/12 16:35:31  5-MIN KSTC 272235Z 00000KT 10SM CLR 30/21 A2969 1240 58 3300 000/00 RMK AO2
14926KSTC STC20120627164009406/27/12 16:40:31  5-MIN KSTC 272240Z 00000KT 10SM CLR 30/21 A2968 1250 56 3300 000/00 RMK AO2
14926KSTC STC20120627164509406/27/12 16:45:31  5-MIN KSTC 272245Z 00000KT 10SM CLR 31/21 A2968 1240 53 3400 000/00 RMK AO2
14926KSTC STC20120627165011106/27/12 16:50:31  5-MIN KSTC 272250Z VRB03KT 10SM CLR 32/21 A2969 1240 51 3500 VRB/03 RMK AO2 SLP053 T03170206
14926KSTC STC20120627165509406/27/12 16:55:31  5-MIN KSTC 272255Z VRB03KT 10SM CLR 31/21 A2969 1240 53 3400 VRB/03 RMK AO2
14926KSTC STC20120627170009406/27/12 17:00:31  5-MIN KSTC 272300Z 26004KT 10SM CLR 32/21 A2969 1240 51 3500 260/04 RMK AO2
14926KSTC STC20120627170509406/27/12 17:05:31  5-MIN KSTC 272305Z 00000KT 10SM CLR 31/21 A2969 1240 53 3400 000/00 RMK AO2
14926KSTC STC20120627171009406/27/12 17:10:31  5-MIN KSTC 272310Z 25003KT 10SM CLR 32/21 A2969 1240 51 3500 250/03 RMK AO2
14926KSTC STC20120627171509406/27/12 17:15:31  5-MIN KSTC 272315Z 00000KT 10SM CLR 32/21 A2969 1240 53 3500 000/00 RMK AO2
14926KSTC STC20120627172009406/27/12 17:20:31  5-MIN KSTC 272320Z 31004KT 10SM CLR 31/21 A2969 1240 54 3400 300/04 RMK AO2
14926KSTC STC20120627172509406/27/12 17:25:31  5-MIN KSTC 272325Z 00000KT 10SM CLR 31/21 A2969 1240 54 3400 000/00 RMK AO2
14926KSTC STC20120627173009406/27/12 17:30:31  5-MIN KSTC 272330Z 00000KT 10SM CLR 31/21 A2968 1250 54 3400 000/00 RMK AO2
14926KSTC STC20120627173509406/27/12 17:35:31  5-MIN KSTC 272335Z 00000KT 10SM CLR 31/21 A2968 1250 54 3300 000/00 RMK AO2
14926KSTC STC20120627174009406/27/12 17:40:31  5-MIN KSTC 272340Z 00000KT 10SM CLR 31/21 A2968 1250 54 3300 000/00 RMK AO2
14926KSTC STC20120627174509406/27/12 17:45:31  5-MIN KSTC 272345Z 00000KT 10SM CLR 31/21 A2968 1250 53 3400 000/00 RMK AO2
14926KSTC STC20120627175013506/27/12 17:50:31  5-MIN KSTC 272350Z 00000KT 10SM CLR 31/21 A2967 1260 53 3400 000/00 RMK AO2 SLP049 60000 T03110206 10317 20289 50007
14926KSTC STC20120627175509406/27/12 17:55:31  5-MIN KSTC 272355Z 00000KT 10SM CLR 31/21 A2967 1260 56 3400 000/00 RMK AO2
14926KSTC STC20120627180009406/27/12 18:00:31  5-MIN KSTC 280000Z 00000KT 10SM CLR 31/21 A2967 1260 56 3400 000/00 RMK AO2
14926KSTC STC20120627180509406/27/12 18:05:31  5-MIN KSTC 280005Z 00000KT 10SM CLR 31/21 A2967 1260 56 3400 000/00 RMK AO2
14926KSTC STC20120627181009406/27/12 18:10:31  5-MIN KSTC 280010Z 00000KT 10SM CLR 31/21 A2967 1250 56 3400 000/00 RMK AO2
14926KSTC STC20120627181508606/27/12 18:15:31  5-MIN KSTC 280015Z 10SM CLR 31/21 A2967 1260 56 3400 M /M RMK AO2 $
14926KSTC STC20120627182008606/27/12 18:20:31  5-MIN KSTC 280020Z 10SM CLR 31/21 A2967 1250 56 3400 M /M RMK AO2 $
14926KSTC STC20120627182508606/27/12 18:25:31  5-MIN KSTC 280025Z 10SM CLR 31/22 A2968 1250 56 3400 M /M RMK AO2 $
14926KSTC STC20120627183008606/27/12 18:30:31  5-MIN KSTC 280030Z 10SM CLR 31/22 A2969 1240 56 3400 M /M RMK AO2 $
14926KSTC STC20120627183509306/27/12 18:35:31  5-MIN KSTC 280035Z 10SM CLR 31/22 A2970 1240 58 3300 M /M RMK AO2 PRESRR $
14926KSTC STC20120627184008606/27/12 18:40:31  5-MIN KSTC 280040Z 10SM CLR 31/22 A2969 1240 58 3300 M /M RMK AO2 $
14926KSTC STC20120627184509606/27/12 18:45:31  5-MIN KSTC 280045Z 00000KT 10SM CLR 31/21 A2970 1230 56 3300 000/00 RMK AO2 $
14926KSTC STC20120627185011306/27/12 18:50:31  5-MIN KSTC 280050Z 00000KT 10SM CLR 31/22 A2970 1230 58 3300 000/00 RMK AO2 SLP058 T03060217 $
14926KSTC STC20120627185509606/27/12 18:55:31  5-MIN KSTC 280055Z 00000KT 10SM CLR 31/22 A2970 1230 58 3300 000/00 RMK AO2 $
14926KSTC STC20120627190009606/27/12 19:00:31  5-MIN KSTC 280100Z 00000KT 10SM CLR 30/22 A2971 1230 62 3300 000/00 RMK AO2 $
14926KSTC STC20120627190509606/27/12 19:05:31  5-MIN KSTC 280105Z 00000KT 10SM CLR 30/23 A2971 1220 65 3300 000/00 RMK AO2 $
14926KSTC STC20120627191009406/27/12 19:10:31  5-MIN KSTC 280110Z 34003KT 10SM CLR 29/23 A2971 1230 67 3200 340/03 RMK AO2
14926KSTC STC20120627191509406/27/12 19:15:31  5-MIN KSTC 280115Z 00000KT 10SM CLR 29/23 A2970 1230 67 3200 000/00 RMK AO2
14926KSTC STC20120627192009406/27/12 19:20:31  5-MIN KSTC 280120Z 00000KT 10SM CLR 29/23 A2971 1220 69 3100 000/00 RMK AO2
14926KSTC STC20120627192509406/27/12 19:25:31  5-MIN KSTC 280125Z 35003KT 10SM CLR 29/23 A2971 1220 69 3100 350/03 RMK AO2
14926KSTC STC20120627193009406/27/12 19:30:31  5-MIN KSTC 280130Z 36003KT 10SM CLR 28/22 A2971 1220 69 3100 360/03 RMK AO2
14926KSTC STC20120627193509406/27/12 19:35:31  5-MIN KSTC 280135Z 36003KT 10SM CLR 28/22 A2971 1220 69 3100 350/03 RMK AO2
14926KSTC STC20120627194009306/27/12 19:40:31  5-MIN KSTC 280140Z 01003KT 9SM CLR 28/22 A2971 1220 71 3000 010/03 RMK AO2
14926KSTC STC20120627194509306/27/12 19:45:31  5-MIN KSTC 280145Z 00000KT 9SM CLR 28/22 A2971 1220 71 3000 000/00 RMK AO2
14926KSTC STC20120627195011006/27/12 19:50:31  5-MIN KSTC 280150Z 36003KT 9SM CLR 28/22 A2971 1220 71 3000 360/03 RMK AO2 SLP061 T02780222
14926KSTC STC20120627195509306/27/12 19:55:31  5-MIN KSTC 280155Z 01003KT 9SM CLR 28/22 A2971 1220 71 3000 010/03 RMK AO2
14926KSTC STC20120627200009606/27/12 20:00:31  5-MIN KSTC 280200Z 00000KT 8SM FEW035 27/22 A2971 1220 74 2900 000/00 RMK AO2
14926KSTC STC20120627200509606/27/12 20:05:31  5-MIN KSTC 280205Z 00000KT 8SM FEW035 27/22 A2971 1220 74 2900 000/00 RMK AO2
14926KSTC STC20120627201009606/27/12 20:10:31  5-MIN KSTC 280210Z 00000KT 9SM SCT035 27/22 A2972 1220 74 2900 000/00 RMK AO2
14926KSTC STC20120627201509606/27/12 20:15:31  5-MIN KSTC 280215Z 00000KT 9SM BKN035 27/22 A2972 1210 76 2900 000/00 RMK AO2
14926KSTC STC20120627202009606/27/12 20:20:31  5-MIN KSTC 280220Z 07003KT 9SM BKN035 27/23 A2971 1220 79 2900 070/03 RMK AO2
14926KSTC STC20120627202509706/27/12 20:25:31  5-MIN KSTC 280225Z 00000KT 10SM BKN035 27/22 A2972 1210 76 2900 000/00 RMK AO2
14926KSTC STC20120627203009706/27/12 20:30:31  5-MIN KSTC 280230Z 00000KT 10SM OVC035 27/22 A2972 1210 76 2900 000/00 RMK AO2
14926KSTC STC20120627203509706/27/12 20:35:31  5-MIN KSTC 280235Z 00000KT 10SM OVC035 26/23 A2972 1210 81 2800 000/00 RMK AO2
14926KSTC STC20120627204009606/27/12 20:40:31  5-MIN KSTC 280240Z 00000KT 9SM OVC035 26/22 A2973 1200 79 2800 000/00 RMK AO2
14926KSTC STC20120627204509606/27/12 20:45:31  5-MIN KSTC 280245Z 00000KT 9SM OVC035 27/22 A2973 1200 76 2900 000/00 RMK AO2
14926KSTC STC20120627205011906/27/12 20:50:31  5-MIN KSTC 280250Z 00000KT 9SM OVC035 27/23 A2973 1200 79 2900 000/00 RMK AO2 SLP069 T02670228 50004
14926KSTC STC20120627205509606/27/12 20:55:31  5-MIN KSTC 280255Z 00000KT 9SM OVC035 26/23 A2973 1200 81 2800 000/00 RMK AO2
14926KSTC STC20120627210009606/27/12 21:00:31  5-MIN KSTC 280300Z 00000KT 9SM OVC037 26/23 A2974 1190 81 2800 000/00 RMK AO2
14926KSTC STC20120627210509606/27/12 21:05:31  5-MIN KSTC 280305Z 00000KT 8SM OVC037 26/23 A2974 1200 81 2800 000/00 RMK AO2
14926KSTC STC20120627211009606/27/12 21:10:31  5-MIN KSTC 280310Z 00000KT 8SM OVC037 26/23 A2974 1200 84 2700 000/00 RMK AO2
14926KSTC STC20120627211509606/27/12 21:15:31  5-MIN KSTC 280315Z 00000KT 8SM OVC037 26/23 A2974 1190 84 2700 000/00 RMK AO2
14926KSTC STC20120627212009606/27/12 21:20:31  5-MIN KSTC 280320Z 00000KT 9SM BKN037 26/23 A2974 1200 84 2700 000/00 RMK AO2
14926KSTC STC20120627212509606/27/12 21:25:31  5-MIN KSTC 280325Z 00000KT 8SM BKN037 26/23 A2974 1200 84 2700 000/00 RMK AO2
14926KSTC STC20120627213009606/27/12 21:30:31  5-MIN KSTC 280330Z 00000KT 8SM BKN037 25/23 A2974 1200 87 2700 000/00 RMK AO2
14926KSTC STC20120627213509606/27/12 21:35:31  5-MIN KSTC 280335Z 00000KT 7SM SCT037 25/22 A2973 1200 84 2700 000/00 RMK AO2
14926KSTC STC20120627214009606/27/12 21:40:31  5-MIN KSTC 280340Z 00000KT 7SM SCT037 25/22 A2973 1200 84 2700 000/00 RMK AO2
14926KSTC STC20120627214509606/27/12 21:45:31  5-MIN KSTC 280345Z 00000KT 8SM FEW037 25/22 A2974 1190 84 2700 000/00 RMK AO2
14926KSTC STC20120627215011806/27/12 21:50:31  5-MIN KSTC 280350Z AUTO 28003KT 8SM SCT037 24/22 A2975 1180 87 2600 280/03 RMK AO2 SLP075 T02440222
14926KSTC STC20120627215510106/27/12 21:55:31  5-MIN KSTC 280355Z AUTO 28003KT 8SM SCT035 26/22 A2976 1180 81 2700 280/03 RMK AO2
14926KSTC STC20120627220010106/27/12 22:00:31  5-MIN KSTC 280400Z AUTO 31003KT 8SM BKN035 26/22 A2976 1180 81 2700 310/03 RMK AO2
14926KSTC STC20120627220510106/27/12 22:05:31  5-MIN KSTC 280405Z AUTO 31003KT 9SM BKN035 26/22 A2976 1170 81 2700 310/03 RMK AO2
14926KSTC STC20120627221010106/27/12 22:10:31  5-MIN KSTC 280410Z AUTO 31004KT 8SM BKN037 26/23 A2976 1170 84 2700 310/04 RMK AO2
14926KSTC STC20120627221510106/27/12 22:15:31  5-MIN KSTC 280415Z AUTO 32004KT 8SM OVC037 26/23 A2976 1170 84 2700 320/04 RMK AO2
14926KSTC STC20120627222010106/27/12 22:20:31  5-MIN KSTC 280420Z AUTO 32004KT 9SM OVC037 26/22 A2977 1170 79 2800 320/04 RMK AO2
14926KSTC STC20120627222510806/27/12 22:25:31  5-MIN KSTC 280425Z AUTO 32006KT 9SM BKN035 OVC044 26/22 A2977 1170 81 2700 320/06 RMK AO2
14926KSTC STC20120627223010806/27/12 22:30:31  5-MIN KSTC 280430Z AUTO 31004KT 9SM BKN035 OVC043 26/22 A2977 1170 79 2800 310/04 RMK AO2
14926KSTC STC20120627223510806/27/12 22:35:31  5-MIN KSTC 280435Z AUTO 31005KT 9SM BKN037 OVC043 26/22 A2977 1170 81 2700 310/05 RMK AO2
14926KSTC STC20120627224010806/27/12 22:40:31  5-MIN KSTC 280440Z AUTO 36004KT 8SM SCT035 BKN045 26/22 A2975 1180 79 2800 360/04 RMK AO2
14926KSTC STC20120627224510806/27/12 22:45:31  5-MIN KSTC 280445Z AUTO 34005KT 8SM SCT037 BKN045 26/22 A2975 1180 79 2800 340/05 RMK AO2
14926KSTC STC20120627225011806/27/12 22:50:31  5-MIN KSTC 280450Z AUTO 34005KT 9SM SCT042 26/22 A2976 1170 79 2800 340/05 RMK AO2 SLP077 T02610222
14926KSTC STC20120627225510106/27/12 22:55:31  5-MIN KSTC 280455Z AUTO 34005KT 9SM FEW042 26/22 A2976 1170 79 2800 340/05 RMK AO2
14926KSTC STC20120627230010106/27/12 23:00:31  5-MIN KSTC 280500Z AUTO 35006KT 8SM FEW044 26/23 A2976 1180 84 2700 350/06 RMK AO2
14926KSTC STC20120627230509806/27/12 23:05:31  5-MIN KSTC 280505Z AUTO 01005KT 8SM CLR 26/23 A2975 1180 81 2800 010/05 RMK AO2
14926KSTC STC20120627231009806/27/12 23:10:31  5-MIN KSTC 280510Z AUTO 02004KT 8SM CLR 26/23 A2975 1190 81 2800 020/04 RMK AO2
14926KSTC STC20120627231509806/27/12 23:15:31  5-MIN KSTC 280515Z AUTO 02004KT 8SM CLR 26/23 A2975 1190 81 2800 020/04 RMK AO2
14926KSTC STC20120627232009806/27/12 23:20:31  5-MIN KSTC 280520Z AUTO 02003KT 8SM CLR 26/23 A2975 1190 81 2800 020/03 RMK AO2
14926KSTC STC20120627232509806/27/12 23:25:31  5-MIN KSTC 280525Z AUTO 02004KT 8SM CLR 26/23 A2974 1190 81 2800 020/04 RMK AO2
14926KSTC STC20120627233009806/27/12 23:30:31  5-MIN KSTC 280530Z AUTO 01003KT 8SM CLR 26/23 A2975 1180 81 2800 360/03 RMK AO2
14926KSTC STC20120627233509806/27/12 23:35:31  5-MIN KSTC 280535Z AUTO 02003KT 8SM CLR 26/23 A2974 1190 84 2700 020/03 RMK AO2
14926KSTC STC20120627234009806/27/12 23:40:31  5-MIN KSTC 280540Z AUTO 00000KT 8SM CLR 26/23 A2975 1190 84 2700 000/00 RMK AO2
14926KSTC STC20120627234509806/27/12 23:45:31  5-MIN KSTC 280545Z AUTO 00000KT 8SM CLR 26/23 A2975 1180 81 2800 000/00 RMK AO2
14926KSTC STC20120627235014306/27/12 23:50:31  5-MIN KSTC 280550Z AUTO 31007KT 8SM CLR 25/23 A2977 1170 87 2600 310/07 RMK AO2 SLP080 T02500228 10311 20244 403170183 51020
14926KSTC STC20120627235509806/27/12 23:55:31  5-MIN KSTC 280555Z AUTO 33004KT 8SM CLR 25/23 A2976 1170 87 2600 330/04 RMK AO2
14926KSTC STC20120628000009806/28/12 00:00:32  5-MIN KSTC 280600Z AUTO 34005KT 7SM CLR 26/23 A2976 1180 84 2700 340/05 RMK AO2
14926KSTC STC20120628000509806/28/12 00:05:31  5-MIN KSTC 280605Z AUTO 33005KT 8SM CLR 26/23 A2976 1170 84 2700 330/05 RMK AO2
14926KSTC STC20120628001009806/28/12 00:10:31  5-MIN KSTC 280610Z AUTO 33005KT 8SM CLR 26/23 A2977 1170 84 2700 330/05 RMK AO2
14926KSTC STC20120628001509806/28/12 00:15:31  5-MIN KSTC 280615Z AUTO 33006KT 8SM CLR 26/23 A2977 1170 84 2700 330/06 RMK AO2
14926KSTC STC20120628002009806/28/12 00:20:31  5-MIN KSTC 280620Z AUTO 33006KT 8SM CLR 26/23 A2977 1170 84 2700 330/06 RMK AO2
14926KSTC STC20120628002509806/28/12 00:25:31  5-MIN KSTC 280625Z AUTO 33007KT 8SM CLR 25/22 A2978 1160 84 2600 330/07 RMK AO2
14926KSTC STC20120628003009806/28/12 00:30:31  5-MIN KSTC 280630Z AUTO 33007KT 8SM CLR 25/22 A2977 1160 84 2600 330/07 RMK AO2
14926KSTC STC20120628003509806/28/12 00:35:31  5-MIN KSTC 280635Z AUTO 34005KT 8SM CLR 25/22 A2977 1160 84 2600 330/05 RMK AO2
14926KSTC STC20120628004009806/28/12 00:40:31  5-MIN KSTC 280640Z AUTO 33006KT 8SM CLR 25/22 A2978 1160 84 2600 330/06 RMK AO2
14926KSTC STC20120628004510106/28/12 00:45:31  5-MIN KSTC 280645Z AUTO 34007KT 8SM FEW030 25/22 A2978 1160 84 2600 330/07 RMK AO2
14926KSTC STC20120628005011806/28/12 00:50:31  5-MIN KSTC 280650Z AUTO 34007KT 8SM FEW030 25/22 A2978 1160 84 2600 340/07 RMK AO2 SLP084 T02500222
14926KSTC STC20120628005510106/28/12 00:55:31  5-MIN KSTC 280655Z AUTO 33007KT 9SM SCT032 25/22 A2978 1150 84 2600 330/07 RMK AO2
14926KSTC STC20120628010010106/28/12 01:00:31  5-MIN KSTC 280700Z AUTO 33007KT 9SM SCT032 25/22 A2979 1150 81 2600 330/07 RMK AO2
14926KSTC STC20120628010510106/28/12 01:05:31  5-MIN KSTC 280705Z AUTO 34008KT 9SM FEW032 25/22 A2979 1150 81 2600 340/08 RMK AO2
14926KSTC STC20120628011010106/28/12 01:10:31  5-MIN KSTC 280710Z AUTO 34007KT 9SM FEW032 25/22 A2979 1150 81 2600 330/07 RMK AO2
14926KSTC STC20120628011510106/28/12 01:15:31  5-MIN KSTC 280715Z AUTO 34006KT 9SM FEW034 25/22 A2979 1140 81 2600 340/06 RMK AO2
14926KSTC STC20120628012010206/28/12 01:20:31  5-MIN KSTC 280720Z AUTO 34009KT 10SM SCT034 25/22 A2979 1140 81 2600 340/09 RMK AO2
14926KSTC STC20120628012510206/28/12 01:25:31  5-MIN KSTC 280725Z AUTO 34009KT 10SM FEW036 25/21 A2979 1150 79 2600 340/09 RMK AO2
14926KSTC STC20120628013010906/28/12 01:30:31  5-MIN KSTC 280730Z AUTO 34008KT 10SM FEW036 SCT049 25/21 A2979 1150 79 2600 340/08 RMK AO2
14926KSTC STC20120628013510906/28/12 01:35:31  5-MIN KSTC 280735Z AUTO 35008KT 10SM FEW036 BKN049 25/21 A2979 1150 76 2600 350/08 RMK AO2
14926KSTC STC20120628014010906/28/12 01:40:31  5-MIN KSTC 280740Z AUTO 35009KT 10SM FEW036 BKN047 25/20 A2979 1150 73 2600 350/09 RMK AO2
14926KSTC STC20120628014510806/28/12 01:45:31  5-MIN KSTC 280745Z AUTO 35009G15KT 10SM BKN044 25/20 A2979 1140 73 2600 350/09G15 RMK AO2
14926KSTC STC20120628015011906/28/12 01:50:31  5-MIN KSTC 280750Z AUTO 35008KT 10SM OVC044 25/19 A2980 1140 71 2600 350/08 RMK AO2 SLP090 T02500194
14926KSTC STC20120628015510206/28/12 01:55:31  5-MIN KSTC 280755Z AUTO 35009KT 10SM OVC044 25/19 A2980 1140 68 2600 340/09 RMK AO2
14926KSTC STC20120628020010206/28/12 02:00:31  5-MIN KSTC 280800Z AUTO 34008KT 10SM OVC044 25/18 A2980 1140 66 2600 340/08 RMK AO2
14926KSTC STC20120628020510206/28/12 02:05:31  5-MIN KSTC 280805Z AUTO 34007KT 10SM OVC044 24/18 A2980 1140 68 2500 340/07 RMK AO2
14926KSTC STC20120628021010206/28/12 02:10:31  5-MIN KSTC 280810Z AUTO 35006KT 10SM BKN044 24/18 A2980 1140 66 2500 350/06 RMK AO2
14926KSTC STC20120628021510206/28/12 02:15:31  5-MIN KSTC 280815Z AUTO 34006KT 10SM BKN044 24/17 A2980 1140 66 2500 340/06 RMK AO2
14926KSTC STC20120628022010206/28/12 02:20:31  5-MIN KSTC 280820Z AUTO 34005KT 10SM SCT044 24/17 A2980 1140 66 2500 340/05 RMK AO2
14926KSTC STC20120628022510206/28/12 02:25:31  5-MIN KSTC 280825Z AUTO 35006KT 10SM FEW044 24/17 A2980 1140 66 2500 350/06 RMK AO2
14926KSTC STC20120628023010206/28/12 02:30:31  5-MIN KSTC 280830Z AUTO 36007KT 10SM FEW048 23/17 A2980 1140 66 2400 360/07 RMK AO2
14926KSTC STC20120628023509906/28/12 02:35:31  5-MIN KSTC 280835Z AUTO 36008KT 10SM CLR 23/16 A2980 1140 61 2400 360/08 RMK AO2
14926KSTC STC20120628024009906/28/12 02:40:31  5-MIN KSTC 280840Z AUTO 35005KT 10SM CLR 23/15 A2980 1140 59 2400 350/05 RMK AO2
14926KSTC STC20120628024509906/28/12 02:45:31  5-MIN KSTC 280845Z AUTO 34006KT 10SM CLR 23/15 A2980 1140 61 2300 340/06 RMK AO2
14926KSTC STC20120628025012206/28/12 02:50:31  5-MIN KSTC 280850Z AUTO 35006KT 10SM CLR 22/15 A2980 1140 63 2300 350/06 RMK AO2 SLP092 T02220150 50009
14926KSTC STC20120628025509906/28/12 02:55:31  5-MIN KSTC 280855Z AUTO 35006KT 10SM CLR 22/15 A2980 1140 63 2300 340/06 RMK AO2
14926KSTC STC20120628030009906/28/12 03:00:31  5-MIN KSTC 280900Z AUTO 34004KT 10SM CLR 22/15 A2981 1130 65 2200 340/04 RMK AO2
14926KSTC STC20120628030509906/28/12 03:05:31  5-MIN KSTC 280905Z AUTO 33005KT 10SM CLR 21/15 A2981 1130 68 2100 330/05 RMK AO2
14926KSTC STC20120628031009906/28/12 03:10:31  5-MIN KSTC 280910Z AUTO 32006KT 10SM CLR 21/14 A2982 1120 65 2100 320/06 RMK AO2
14926KSTC STC20120628031509906/28/12 03:15:31  5-MIN KSTC 280915Z AUTO 33005KT 10SM CLR 21/14 A2982 1120 67 2100 330/05 RMK AO2
14926KSTC STC20120628032009906/28/12 03:20:31  5-MIN KSTC 280920Z AUTO 33004KT 10SM CLR 21/14 A2983 1110 67 2100 330/04 RMK AO2
14926KSTC STC20120628032509906/28/12 03:25:31  5-MIN KSTC 280925Z AUTO 33005KT 10SM CLR 21/14 A2983 1110 65 2100 330/05 RMK AO2
14926KSTC STC20120628033009906/28/12 03:30:31  5-MIN KSTC 280930Z AUTO 33006KT 10SM CLR 20/14 A2983 1110 67 2000 330/06 RMK AO2
14926KSTC STC20120628033509906/28/12 03:35:31  5-MIN KSTC 280935Z AUTO 34005KT 10SM CLR 20/14 A2983 1110 67 2000 340/05 RMK AO2
14926KSTC STC20120628034009906/28/12 03:40:31  5-MIN KSTC 280940Z AUTO 34005KT 10SM CLR 20/14 A2983 1110 67 2000 330/05 RMK AO2
14926KSTC STC20120628034509906/28/12 03:45:31  5-MIN KSTC 280945Z AUTO 33006KT 10SM CLR 20/14 A2984 1100 67 2000 330/06 RMK AO2
14926KSTC STC20120628035011606/28/12 03:50:31  5-MIN KSTC 280950Z AUTO 32006KT 10SM CLR 19/14 A2985 1090 70 1900 320/06 RMK AO2 SLP109 T01940139
14926KSTC STC20120628035510606/28/12 03:55:31  5-MIN KSTC 280955Z AUTO 31006KT 10SM CLR 19/14 A2986 1080 72 1800 300/06 RMK AO2 PRESRR
14926KSTC STC20120628040010606/28/12 04:00:31  5-MIN KSTC 281000Z AUTO 30006KT 10SM CLR 18/14 A2987 1070 75 1800 290/06 RMK AO2 PRESRR
14926KSTC STC20120628040509906/28/12 04:05:31  5-MIN KSTC 281005Z AUTO 29006KT 10SM CLR 19/13 A2987 1070 70 1800 290/06 RMK AO2
14926KSTC STC20120628041010606/28/12 04:10:31  5-MIN KSTC 281010Z AUTO 29006KT 10SM CLR 19/13 A2988 1060 67 1900 290/06 RMK AO2 PRESRR
14926KSTC STC20120628041509906/28/12 04:15:31  5-MIN KSTC 281015Z AUTO 29004KT 10SM CLR 19/13 A2988 1060 65 1900 290/04 RMK AO2
14926KSTC STC20120628042010606/28/12 04:20:31  5-MIN KSTC 281020Z AUTO 29004KT 10SM CLR 19/13 A2989 1050 67 1800 290/04 RMK AO2 PRESRR
14926KSTC STC20120628042509906/28/12 04:25:31  5-MIN KSTC 281025Z AUTO 29006KT 10SM CLR 18/13 A2989 1050 70 1700 290/06 RMK AO2
14926KSTC STC20120628043009906/28/12 04:30:31  5-MIN KSTC 281030Z AUTO 29005KT 10SM CLR 19/13 A2990 1050 67 1800 290/05 RMK AO2
14926KSTC STC20120628043509906/28/12 04:35:31  5-MIN KSTC 281035Z AUTO 28004KT 10SM CLR 18/13 A2990 1040 70 1700 280/04 RMK AO2
14926KSTC STC20120628044009906/28/12 04:40:31  5-MIN KSTC 281040Z AUTO 28004KT 10SM CLR 18/12 A2990 1040 69 1700 270/04 RMK AO2
14926KSTC STC20120628044509906/28/12 04:45:31  5-MIN KSTC 281045Z AUTO 29004KT 10SM CLR 18/12 A2990 1040 69 1700 290/04 RMK AO2
14926KSTC STC20120628045011606/28/12 04:50:31  5-MIN KSTC 281050Z AUTO 31005KT 10SM CLR 17/12 A2990 1040 72 1600 310/05 RMK AO2 SLP128 T01720122
14926KSTC STC20120628045509906/28/12 04:55:31  5-MIN KSTC 281055Z AUTO 31005KT 10SM CLR 17/12 A2990 1050 72 1600 310/05 RMK AO2
14926KSTC STC20120628050009906/28/12 05:00:31  5-MIN KSTC 281100Z AUTO 30005KT 10SM CLR 18/12 A2990 1050 69 1700 300/05 RMK AO2
14926KSTC STC20120628050509906/28/12 05:05:31  5-MIN KSTC 281105Z AUTO 31005KT 10SM CLR 17/13 A2990 1050 75 1600 310/05 RMK AO2
14926KSTC STC20120628051009906/28/12 05:10:31  5-MIN KSTC 281110Z AUTO 30005KT 10SM CLR 18/12 A2990 1050 69 1700 300/05 RMK AO2
14926KSTC STC20120628051509906/28/12 05:15:31  5-MIN KSTC 281115Z AUTO 31005KT 10SM CLR 17/13 A2990 1050 75 1600 310/05 RMK AO2
14926KSTC STC20120628052009906/28/12 05:20:31  5-MIN KSTC 281120Z AUTO 32005KT 10SM CLR 18/12 A2990 1050 69 1700 320/05 RMK AO2
14926KSTC STC20120628052509906/28/12 05:25:31  5-MIN KSTC 281125Z AUTO 32006KT 10SM CLR 18/12 A2990 1050 69 1700 320/06 RMK AO2
14926KSTC STC20120628053009906/28/12 05:30:31  5-MIN KSTC 281130Z AUTO 32005KT 10SM CLR 18/12 A2990 1050 67 1700 320/05 RMK AO2
14926KSTC STC20120628053509906/28/12 05:35:31  5-MIN KSTC 281135Z AUTO 32005KT 10SM CLR 18/12 A2990 1050 67 1700 320/05 RMK AO2
14926KSTC STC20120628054009906/28/12 05:40:31  5-MIN KSTC 281140Z AUTO 33006KT 10SM CLR 18/12 A2990 1050 67 1700 330/06 RMK AO2
14926KSTC STC20120628054509906/28/12 05:45:31  5-MIN KSTC 281145Z AUTO 33006KT 10SM CLR 18/12 A2990 1050 67 1700 330/06 RMK AO2
14926KSTC STC20120628055013406/28/12 05:50:31  5-MIN KSTC 281150Z AUTO 34005KT 10SM CLR 18/12 A2989 1050 67 1700 340/05 RMK AO2 SLP123 T01830122 10256 20172 51013
14926KSTC STC20120628055509406/28/12 05:55:31  5-MIN KSTC 281155Z 33006KT 10SM CLR 18/12 A2989 1050 67 1700 330/06 RMK AO2
14926KSTC STC20120628060009406/28/12 06:00:31  5-MIN KSTC 281200Z 33005KT 10SM CLR 18/12 A2989 1050 65 1700 330/05 RMK AO2
14926KSTC STC20120628060509406/28/12 06:05:31  5-MIN KSTC 281205Z 33006KT 10SM CLR 18/12 A2989 1050 65 1700 330/06 RMK AO2
14926KSTC STC20120628061009406/28/12 06:10:31  5-MIN KSTC 281210Z 34005KT 10SM CLR 18/12 A2989 1060 65 1700 340/05 RMK AO2
14926KSTC STC20120628061509406/28/12 06:15:31  5-MIN KSTC 281215Z 34005KT 10SM CLR 19/12 A2989 1050 62 1800 340/05 RMK AO2
14926KSTC STC20120628062009406/28/12 06:20:31  5-MIN KSTC 281220Z 34005KT 10SM CLR 19/12 A2988 1060 62 1800 340/05 RMK AO2
14926KSTC STC20120628062509406/28/12 06:25:31  5-MIN KSTC 281225Z 36007KT 10SM CLR 19/12 A2988 1070 62 1800 360/07 RMK AO2
14926KSTC STC20120628063009406/28/12 06:30:31  5-MIN KSTC 281230Z 35007KT 10SM CLR 19/12 A2987 1070 62 1800 350/07 RMK AO2
14926KSTC STC20120628063509406/28/12 06:35:31  5-MIN KSTC 281235Z 36007KT 10SM CLR 19/12 A2987 1070 62 1800 360/07 RMK AO2
14926KSTC STC20120628064009406/28/12 06:40:31  5-MIN KSTC 281240Z 36009KT 10SM CLR 19/12 A2986 1080 62 1800 360/09 RMK AO2
14926KSTC STC20120628064509406/28/12 06:45:31  5-MIN KSTC 281245Z 36009KT 10SM CLR 19/11 A2986 1080 60 1800 360/09 RMK AO2
14926KSTC STC20120628065011706/28/12 06:50:31  5-MIN KSTC 281250Z 36010G16KT 10SM CLR 19/11 A2985 1090 58 1900 360/10G16 RMK AO2 SLP111 T01940111
14926KSTC STC20120628065510006/28/12 06:55:31  5-MIN KSTC 281255Z 36008G16KT 10SM CLR 19/11 A2985 1090 58 1900 360/08G16 RMK AO2
14926KSTC STC20120628070009406/28/12 07:00:31  5-MIN KSTC 281300Z 36008KT 10SM CLR 19/11 A2986 1090 58 1900 360/08 RMK AO2
14926KSTC STC20120628070509406/28/12 07:05:31  5-MIN KSTC 281305Z 36008KT 10SM CLR 20/11 A2986 1080 56 2000 360/08 RMK AO2
14926KSTC STC20120628071010006/28/12 07:10:31  5-MIN KSTC 281310Z 36010G15KT 10SM CLR 20/11 A2986 1090 54 2000 360/10G15 RMK AO2
14926KSTC STC20120628071509406/28/12 07:15:31  5-MIN KSTC 281315Z 36010KT 10SM CLR 20/11 A2986 1080 54 2000 360/10 RMK AO2
14926KSTC STC20120628072010006/28/12 07:20:31  5-MIN KSTC 281320Z 35008G15KT 10SM CLR 20/11 A2987 1080 54 1900 350/08G15 RMK AO2
14926KSTC STC20120628072510006/28/12 07:25:31  5-MIN KSTC 281325Z 35007G15KT 10SM CLR 21/11 A2987 1070 52 2000 350/07G15 RMK AO2
14926KSTC STC20120628073010006/28/12 07:30:31  5-MIN KSTC 281330Z 35009G14KT 10SM CLR 21/11 A2987 1070 52 2000 350/09G14 RMK AO2
14926KSTC STC20120628073510006/28/12 07:35:31  5-MIN KSTC 281335Z 36008G14KT 10SM CLR 21/11 A2987 1070 50 2100 360/08G14 RMK AO2
14926KSTC STC20120628074009406/28/12 07:40:31  5-MIN KSTC 281340Z 36005KT 10SM CLR 21/11 A2987 1070 52 2100 350/05 RMK AO2
14926KSTC STC20120628074509406/28/12 07:45:31  5-MIN KSTC 281345Z 36008KT 10SM CLR 22/11 A2988 1070 50 2100 360/08 RMK AO2
14926KSTC STC20120628075011106/28/12 07:50:31  5-MIN KSTC 281350Z 35006KT 10SM CLR 22/11 A2989 1060 50 2100 350/06 RMK AO2 SLP122 T02170111
14926KSTC STC20120628075510106/28/12 07:55:31  5-MIN KSTC 281355Z 34005KT 10SM CLR 22/11 A2990 1040 50 2100 330/05 RMK AO2 PRESRR
14926KSTC STC20120628080009406/28/12 08:00:31  5-MIN KSTC 281400Z 33005KT 10SM CLR 22/11 A2991 1040 50 2100 330/05 RMK AO2
14926KSTC STC20120628080509406/28/12 08:05:31  5-MIN KSTC 281405Z 33003KT 10SM CLR 22/11 A2991 1040 50 2100 320/03 RMK AO2
14926KSTC STC20120628081009406/28/12 08:10:31  5-MIN KSTC 281410Z 31004KT 10SM CLR 22/12 A2991 1040 52 2100 310/04 RMK AO2
14926KSTC STC20120628081509406/28/12 08:15:31  5-MIN KSTC 281415Z 31004KT 10SM CLR 22/11 A2991 1040 50 2100 310/04 RMK AO2
14926KSTC STC20120628082009406/28/12 08:20:31  5-MIN KSTC 281420Z 33003KT 10SM CLR 22/12 A2991 1030 52 2100 330/03 RMK AO2
14926KSTC STC20120628082509406/28/12 08:25:31  5-MIN KSTC 281425Z 32004KT 10SM CLR 22/12 A2991 1030 51 2100 320/04 RMK AO2
14926KSTC STC20120628083009406/28/12 08:30:31  5-MIN KSTC 281430Z 33004KT 10SM CLR 22/12 A2991 1030 51 2100 330/04 RMK AO2
14926KSTC STC20120628083509406/28/12 08:35:31  5-MIN KSTC 281435Z 35003KT 10SM CLR 22/12 A2991 1040 51 2200 350/03 RMK AO2
14926KSTC STC20120628084009406/28/12 08:40:31  5-MIN KSTC 281440Z 33005KT 10SM CLR 23/12 A2991 1030 49 2200 330/05 RMK AO2
14926KSTC STC20120628084509406/28/12 08:45:31  5-MIN KSTC 281445Z 33005KT 10SM CLR 22/11 A2991 1030 49 2100 330/05 RMK AO2
14926KSTC STC20120628085011706/28/12 08:50:31  5-MIN KSTC 281450Z 34004KT 10SM CLR 23/12 A2992 1030 49 2200 340/04 RMK AO2 SLP132 T02280117 50030
14926KSTC STC20120628085509406/28/12 08:55:31  5-MIN KSTC 281455Z 33006KT 10SM CLR 23/11 A2992 1030 47 2200 330/06 RMK AO2
14926KSTC STC20120628090009406/28/12 09:00:31  5-MIN KSTC 281500Z VRB03KT 10SM CLR 23/12 A2992 1030 47 2300 VRB/03 RMK AO2
14926KSTC STC20120628090509406/28/12 09:05:31  5-MIN KSTC 281505Z 34003KT 10SM CLR 23/12 A2992 1030 47 2300 340/03 RMK AO2
14926KSTC STC20120628091009406/28/12 09:10:31  5-MIN KSTC 281510Z 31006KT 10SM CLR 24/12 A2993 1020 46 2400 310/06 RMK AO2
14926KSTC STC20120628091509406/28/12 09:15:31  5-MIN KSTC 281515Z VRB05KT 10SM CLR 24/11 A2993 1020 44 2300 VRB/05 RMK AO2
14926KSTC STC20120628092009406/28/12 09:20:31  5-MIN KSTC 281520Z 31004KT 10SM CLR 24/11 A2993 1010 42 2400 310/04 RMK AO2
14926KSTC STC20120628092509406/28/12 09:25:31  5-MIN KSTC 281525Z 32004KT 10SM CLR 24/11 A2994 1010 42 2400 320/04 RMK AO2
14926KSTC STC20120628093009406/28/12 09:30:31  5-MIN KSTC 281530Z VRB03KT 10SM CLR 24/11 A2994 1010 42 2400 VRB/03 RMK AO2
14926KSTC STC20120628093509406/28/12 09:35:31  5-MIN KSTC 281535Z VRB03KT 10SM CLR 25/12 A2994 1010 43 2400 VRB/03 RMK AO2
14926KSTC STC20120628094009406/28/12 09:40:31  5-MIN KSTC 281540Z 33004KT 10SM CLR 26/12 A2994 1010 41 2500 330/04 RMK AO2
14926KSTC STC20120628094509406/28/12 09:45:31  5-MIN KSTC 281545Z 34005KT 10SM CLR 26/12 A2994 1010 41 2500 340/05 RMK AO2
14926KSTC STC20120628095011106/28/12 09:50:31  5-MIN KSTC 281550Z 33005KT 10SM CLR 26/12 A2994 1010 41 2500 320/05 RMK AO2 SLP140 T02560117
14926KSTC STC20120628095509406/28/12 09:55:31  5-MIN KSTC 281555Z 33005KT 10SM CLR 26/11 A2994 1010 40 2500 330/05 RMK AO2
14926KSTC STC20120628100009406/28/12 10:00:31  5-MIN KSTC 281600Z VRB05KT 10SM CLR 26/11 A2994 1010 40 2500 VRB/05 RMK AO2
14926KSTC STC20120628100509406/28/12 10:05:31  5-MIN KSTC 281605Z 30006KT 10SM CLR 26/11 A2994 1010 40 2500 300/06 RMK AO2
14926KSTC STC20120628101009406/28/12 10:10:31  5-MIN KSTC 281610Z 32005KT 10SM CLR 26/11 A2994 1010 38 2600 320/05 RMK AO2
14926KSTC STC20120628101509406/28/12 10:15:31  5-MIN KSTC 281615Z VRB04KT 10SM CLR 26/11 A2994 1010 37 2600 VRB/04 RMK AO2
14926KSTC STC20120628102009406/28/12 10:20:31  5-MIN KSTC 281620Z 32006KT 10SM CLR 26/10 A2994 1010 36 2600 320/06 RMK AO2
14926KSTC STC20120628102509406/28/12 10:25:31  5-MIN KSTC 281625Z 34004KT 10SM CLR 27/11 A2994 1010 36 2600 340/04 RMK AO2
14926KSTC STC20120628103009406/28/12 10:30:31  5-MIN KSTC 281630Z 32005KT 10SM CLR 27/11 A2994 1010 36 2600 320/05 RMK AO2
14926KSTC STC20120628103509406/28/12 10:35:31  5-MIN KSTC 281635Z 33006KT 10SM CLR 27/11 A2994 1010 36 2600 330/06 RMK AO2
14926KSTC STC20120628104009406/28/12 10:40:31  5-MIN KSTC 281640Z VRB04KT 10SM CLR 27/11 A2994 1010 34 2700 VRB/04 RMK AO2
14926KSTC STC20120628104509406/28/12 10:45:31  5-MIN KSTC 281645Z 31005KT 10SM CLR 27/11 A2994 1010 34 2700 310/05 RMK AO2
14926KSTC STC20120628105011106/28/12 10:50:31  5-MIN KSTC 281650Z 34003KT 10SM CLR 28/11 A2994 1010 33 2700 340/03 RMK AO2 SLP139 T02780106
14926KSTC STC20120628105509406/28/12 10:55:31  5-MIN KSTC 281655Z 29004KT 10SM CLR 28/11 A2994 1010 35 2700 280/04 RMK AO2
14926KSTC STC20120628110009406/28/12 11:00:31  5-MIN KSTC 281700Z VRB06KT 10SM CLR 28/11 A2994 1010 35 2700 VRB/06 RMK AO2
14926KSTC STC20120628110509406/28/12 11:05:31  5-MIN KSTC 281705Z 30006KT 10SM CLR 28/09 A2994 1010 30 2700 300/06 RMK AO2
14926KSTC STC20120628111009406/28/12 11:10:31  5-MIN KSTC 281710Z 34005KT 10SM CLR 28/09 A2994 1010 30 2800 340/05 RMK AO2
14926KSTC STC20120628111509406/28/12 11:15:31  5-MIN KSTC 281715Z 00000KT 10SM CLR 28/09 A2994 1010 30 2800 000/00 RMK AO2
14926KSTC STC20120628112009406/28/12 11:20:31  5-MIN KSTC 281720Z VRB06KT 10SM CLR 28/09 A2994 1010 30 2800 VRB/06 RMK AO2
14926KSTC STC20120628112509406/28/12 11:25:31  5-MIN KSTC 281725Z 35008KT 10SM CLR 29/08 A2994 1010 27 2900 350/08 RMK AO2
14926KSTC STC20120628113009406/28/12 11:30:31  5-MIN KSTC 281730Z 34006KT 10SM CLR 28/08 A2994 1010 27 2800 340/06 RMK AO2
14926KSTC STC20120628113509406/28/12 11:35:31  5-MIN KSTC 281735Z 35007KT 10SM CLR 28/08 A2994 1010 28 2800 350/07 RMK AO2
14926KSTC STC20120628114009406/28/12 11:40:31  5-MIN KSTC 281740Z 33006KT 10SM CLR 28/08 A2993 1010 28 2800 330/06 RMK AO2
14926KSTC STC20120628114509406/28/12 11:45:31  5-MIN KSTC 281745Z 33006KT 10SM CLR 29/08 A2994 1010 27 2900 330/06 RMK AO2
14926KSTC STC20120628115012906/28/12 11:50:31  5-MIN KSTC 281750Z VRB05KT 10SM CLR 29/08 A2994 1010 27 2900 VRB/05 RMK AO2 SLP137 T02890083 10289 20183 53009
14926KSTC STC20120628115509406/28/12 11:55:31  5-MIN KSTC 281755Z 32006KT 10SM CLR 29/08 A2994 1010 27 2900 310/06 RMK AO2
14926KSTC STC20120628120009406/28/12 12:00:31  5-MIN KSTC 281800Z 35007KT 10SM CLR 29/08 A2994 1010 27 2900 350/07 RMK AO2
14926KSTC STC20120628120509406/28/12 12:05:31  5-MIN KSTC 281805Z 32009KT 10SM CLR 29/09 A2994 1010 28 2900 320/09 RMK AO2
14926KSTC STC20120628121010006/28/12 12:10:31  5-MIN KSTC 281810Z 31010G14KT 10SM CLR 29/09 A2994 1010 27 2900 310/10G14 RMK AO2
14926KSTC STC20120628121510006/28/12 12:15:31  5-MIN KSTC 281815Z 34007G14KT 10SM CLR 29/08 A2993 1010 26 2900 340/07G14 RMK AO2
14926KSTC STC20120628122009406/28/12 12:20:31  5-MIN KSTC 281820Z 32010KT 10SM CLR 29/08 A2994 1010 26 2900 320/10 RMK AO2
14926KSTC STC20120628122510006/28/12 12:25:31  5-MIN KSTC 281825Z 32010G14KT 10SM CLR 29/08 A2994 1010 26 2900 320/10G14 RMK AO2
14926KSTC STC20120628123009406/28/12 12:30:31  5-MIN KSTC 281830Z 32010KT 10SM CLR 29/08 A2994 1010 27 2900 320/10 RMK AO2
14926KSTC STC20120628123509406/28/12 12:35:31  5-MIN KSTC 281835Z 34009KT 10SM CLR 29/08 A2994 1010 26 2900 340/09 RMK AO2
14926KSTC STC20120628124009406/28/12 12:40:31  5-MIN KSTC 281840Z 31010KT 10SM CLR 29/08 A2994 1010 26 2900 310/10 RMK AO2
14926KSTC STC20120628124509406/28/12 12:45:31  5-MIN KSTC 281845Z 34007KT 10SM CLR 30/09 A2994 1010 26 3000 340/07 RMK AO2
14926KSTC STC20120628125011106/28/12 12:50:31  5-MIN KSTC 281850Z 32007KT 10SM CLR 29/08 A2994 1010 26 2900 320/07 RMK AO2 SLP138 T02940083
14926KSTC STC20120628125510006/28/12 12:55:31  5-MIN KSTC 281855Z 30013G17KT 10SM CLR 30/08 A2994 1010 25 3000 300/13G17 RMK AO2
14926KSTC STC20120628130010006/28/12 13:00:31  5-MIN KSTC 281900Z 32010G17KT 10SM CLR 29/08 A2994 1010 25 2900 320/10G17 RMK AO2
14926KSTC STC20120628130509406/28/12 13:05:31  5-MIN KSTC 281905Z 31010KT 10SM CLR 29/08 A2994 1010 26 2900 310/10 RMK AO2
14926KSTC STC20120628131009406/28/12 13:10:31  5-MIN KSTC 281910Z 33007KT 10SM CLR 29/09 A2994 1010 27 2900 330/07 RMK AO2
14926KSTC STC20120628131509406/28/12 13:15:31  5-MIN KSTC 281915Z 32009KT 10SM CLR 29/09 A2994 1010 27 2900 320/09 RMK AO2
14926KSTC STC20120628132010006/28/12 13:20:31  5-MIN KSTC 281920Z 33010G16KT 10SM CLR 30/09 A2994 1010 27 3000 320/10G16 RMK AO2
14926KSTC STC20120628132510006/28/12 13:25:31  5-MIN KSTC 281925Z 30009G16KT 10SM CLR 30/09 A2994 1010 27 3000 300/09G16 RMK AO2
14926KSTC STC20120628133009406/28/12 13:30:31  5-MIN KSTC 281930Z 32010KT 10SM CLR 30/09 A2994 1010 26 3000 320/10 RMK AO2
14926KSTC STC20120628133510006/28/12 13:35:31  5-MIN KSTC 281935Z 29009G15KT 10SM CLR 31/09 A2994 1010 25 3100 290/09G15 RMK AO2
14926KSTC STC20120628134010006/28/12 13:40:31  5-MIN KSTC 281940Z 31011G15KT 10SM CLR 31/08 A2994 1010 24 3000 310/11G15 RMK AO2
14926KSTC STC20120628134509406/28/12 13:45:31  5-MIN KSTC 281945Z 30008KT 10SM CLR 31/09 A2994 1010 25 3100 300/08 RMK AO2
14926KSTC STC20120628135011106/28/12 13:50:31  5-MIN KSTC 281950Z 27006KT 10SM CLR 31/08 A2994 1010 24 3100 270/06 RMK AO2 SLP139 T03060083
14926KSTC STC20120628135510006/28/12 13:55:31  5-MIN KSTC 281955Z 26009G14KT 10SM CLR 31/09 A2994 1010 26 3100 260/09G14 RMK AO2
14926KSTC STC20120628140010006/28/12 14:00:31  5-MIN KSTC 282000Z 29010G14KT 10SM CLR 30/09 A2994 1010 27 3000 290/10G14 RMK AO2
14926KSTC STC20120628140510006/28/12 14:05:31  5-MIN KSTC 282005Z 30011G15KT 10SM CLR 30/09 A2994 1010 27 3000 300/11G15 RMK AO2
14926KSTC STC20120628141009406/28/12 14:10:31  5-MIN KSTC 282010Z 29008KT 10SM CLR 30/09 A2994 1010 27 3000 290/08 RMK AO2
14926KSTC STC20120628141509406/28/12 14:15:31  5-MIN KSTC 282015Z 30010KT 10SM CLR 30/09 A2994 1010 26 3000 300/10 RMK AO2
14926KSTC STC20120628142009406/28/12 14:20:31  5-MIN KSTC 282020Z 29011KT 10SM CLR 30/08 A2994 1010 25 3000 290/11 RMK AO2
14926KSTC STC20120628142510006/28/12 14:25:31  5-MIN KSTC 282025Z 29014G17KT 10SM CLR 30/07 A2994 1010 23 3000 290/14G17 RMK AO2
14926KSTC STC20120628143010006/28/12 14:30:31  5-MIN KSTC 282030Z 29010G17KT 10SM CLR 31/07 A2994 1010 22 3100 290/10G17 RMK AO2
14926KSTC STC20120628143509406/28/12 14:35:31  5-MIN KSTC 282035Z 29013KT 10SM CLR 31/08 A2994 1010 23 3100 290/13 RMK AO2
14926KSTC STC20120628144010006/28/12 14:40:31  5-MIN KSTC 282040Z 30010G16KT 10SM CLR 30/08 A2994 1010 25 3000 300/10G16 RMK AO2
14926KSTC STC20120628144510006/28/12 14:45:31  5-MIN KSTC 282045Z 30011G17KT 10SM CLR 31/09 A2994 1010 25 3100 300/11G17 RMK AO2
14926KSTC STC20120628145012306/28/12 14:50:31  5-MIN KSTC 282050Z 28009G17KT 10SM CLR 31/09 A2994 1010 25 3100 280/09G17 RMK AO2 SLP137 T03060089 50006
14926KSTC STC20120628145509406/28/12 14:55:31  5-MIN KSTC 282055Z 30011KT 10SM CLR 31/09 A2994 1010 26 3100 300/11 RMK AO2
14926KSTC STC20120628150009406/28/12 15:00:31  5-MIN KSTC 282100Z 31011KT 10SM CLR 30/09 A2993 1010 27 3000 310/11 RMK AO2
14926KSTC STC20120628150509406/28/12 15:05:31  5-MIN KSTC 282105Z 30011KT 10SM CLR 30/09 A2993 1010 26 3000 300/11 RMK AO2
14926KSTC STC20120628151009406/28/12 15:10:31  5-MIN KSTC 282110Z 30010KT 10SM CLR 30/09 A2993 1020 27 3000 300/10 RMK AO2
14926KSTC STC20120628151511006/28/12 15:15:31  5-MIN KSTC 282115Z 30007KT 260V330 10SM CLR 31/10 A2993 1020 27 3100 300/07 260V330 RMK AO2
14926KSTC STC20120628152009406/28/12 15:20:31  5-MIN KSTC 282120Z 32008KT 10SM CLR 31/09 A2993 1020 26 3100 320/08 RMK AO2
14926KSTC STC20120628152509406/28/12 15:25:31  5-MIN KSTC 282125Z 29007KT 10SM CLR 31/09 A2993 1020 26 3100 290/07 RMK AO2
14926KSTC STC20120628153009406/28/12 15:30:31  5-MIN KSTC 282130Z 30009KT 10SM CLR 30/09 A2993 1020 26 3000 300/09 RMK AO2
14926KSTC STC20120628153510006/28/12 15:35:31  5-MIN KSTC 282135Z 28009G15KT 10SM CLR 31/09 A2993 1020 26 3100 280/09G15 RMK AO2
14926KSTC STC20120628154010006/28/12 15:40:31  5-MIN KSTC 282140Z 30008G15KT 10SM CLR 31/08 A2993 1020 24 3100 300/08G15 RMK AO2
14926KSTC STC20120628154509406/28/12 15:45:31  5-MIN KSTC 282145Z 28008KT 10SM CLR 30/09 A2993 1020 27 3000 280/08 RMK AO2
14926KSTC STC20120628155011106/28/12 15:50:31  5-MIN KSTC 282150Z 28009KT 10SM CLR 31/10 A2993 1020 27 3100 280/09 RMK AO2 SLP136 T03060100
14926KSTC STC20120628155509406/28/12 15:55:31  5-MIN KSTC 282155Z 31008KT 10SM CLR 30/10 A2993 1020 28 3000 300/08 RMK AO2
14926KSTC STC20120628160009406/28/12 16:00:31  5-MIN KSTC 282200Z 30008KT 10SM CLR 30/10 A2993 1020 28 3000 300/08 RMK AO2
14926KSTC STC20120628160509406/28/12 16:05:31  5-MIN KSTC 282205Z 31011KT 10SM CLR 30/10 A2993 1020 28 3000 310/11 RMK AO2
14926KSTC STC20120628161009406/28/12 16:10:31  5-MIN KSTC 282210Z 31008KT 10SM CLR 30/09 A2993 1020 27 3000 310/08 RMK AO2
14926KSTC STC20120628161509406/28/12 16:15:31  5-MIN KSTC 282215Z 28009KT 10SM CLR 30/10 A2993 1020 28 3000 280/09 RMK AO2
14926KSTC STC20120628162009406/28/12 16:20:31  5-MIN KSTC 282220Z 29010KT 10SM CLR 30/10 A2993 1020 28 3000 290/10 RMK AO2
14926KSTC STC20120628162509406/28/12 16:25:31  5-MIN KSTC 282225Z 29009KT 10SM CLR 30/09 A2993 1020 27 3000 280/09 RMK AO2
14926KSTC STC20120628163009406/28/12 16:30:31  5-MIN KSTC 282230Z 29009KT 10SM CLR 29/09 A2993 1020 28 2900 290/09 RMK AO2
14926KSTC STC20120628163509406/28/12 16:35:31  5-MIN KSTC 282235Z 29007KT 10SM CLR 29/10 A2992 1020 29 2900 280/07 RMK AO2
14926KSTC STC20120628164009406/28/12 16:40:31  5-MIN KSTC 282240Z 30007KT 10SM CLR 29/10 A2992 1020 29 2900 300/07 RMK AO2
14926KSTC STC20120628164509406/28/12 16:45:31  5-MIN KSTC 282245Z 30008KT 10SM CLR 30/10 A2992 1030 28 3000 300/08 RMK AO2
14926KSTC STC20120628165011106/28/12 16:50:31  5-MIN KSTC 282250Z 30007KT 10SM CLR 29/10 A2992 1030 29 3000 300/07 RMK AO2 SLP135 T02940100
14926KSTC STC20120628165509406/28/12 16:55:31  5-MIN KSTC 282255Z 28009KT 10SM CLR 29/11 A2992 1030 30 3000 280/09 RMK AO2
14926KSTC STC20120628170009406/28/12 17:00:31  5-MIN KSTC 282300Z 28009KT 10SM CLR 29/10 A2992 1030 29 3000 280/09 RMK AO2
14926KSTC STC20120628170509406/28/12 17:05:31  5-MIN KSTC 282305Z 30009KT 10SM CLR 29/10 A2992 1030 30 2900 300/09 RMK AO2
14926KSTC STC20120628171009406/28/12 17:10:31  5-MIN KSTC 282310Z 29009KT 10SM CLR 29/10 A2991 1030 30 2900 290/09 RMK AO2
14926KSTC STC20120628171509406/28/12 17:15:31  5-MIN KSTC 282315Z 30007KT 10SM CLR 29/10 A2991 1030 30 2900 300/07 RMK AO2
14926KSTC STC20120628172009406/28/12 17:20:31  5-MIN KSTC 282320Z 30008KT 10SM CLR 28/11 A2991 1030 32 2800 300/08 RMK AO2
14926KSTC STC20120628172509406/28/12 17:25:31  5-MIN KSTC 282325Z 30008KT 10SM CLR 28/11 A2991 1030 32 2800 300/08 RMK AO2
14926KSTC STC20120628173009406/28/12 17:30:31  5-MIN KSTC 282330Z 30009KT 10SM CLR 28/11 A2991 1030 32 2800 300/09 RMK AO2
14926KSTC STC20120628173509406/28/12 17:35:31  5-MIN KSTC 282335Z 29007KT 10SM CLR 28/11 A2991 1030 32 2800 290/07 RMK AO2
14926KSTC STC20120628174009406/28/12 17:40:31  5-MIN KSTC 282340Z 28006KT 10SM CLR 28/11 A2991 1030 33 2800 280/06 RMK AO2
14926KSTC STC20120628174509406/28/12 17:45:31  5-MIN KSTC 282345Z 29007KT 10SM CLR 28/11 A2991 1040 33 2800 290/07 RMK AO2
14926KSTC STC20120628175012906/28/12 17:50:31  5-MIN KSTC 282350Z 29007KT 10SM CLR 28/11 A2991 1040 33 2800 290/07 RMK AO2 SLP132 T02830111 10311 20283 58001
14926KSTC STC20120628175509406/28/12 17:55:31  5-MIN KSTC 282355Z 29008KT 10SM CLR 28/12 A2991 1040 36 2800 290/08 RMK AO2
14926KSTC STC20120628180009406/28/12 18:00:31  5-MIN KSTC 290000Z 30007KT 10SM CLR 28/12 A2991 1030 36 2800 300/07 RMK AO2
14926KSTC STC20120628180509406/28/12 18:05:31  5-MIN KSTC 290005Z 29007KT 10SM CLR 28/12 A2991 1030 36 2800 290/07 RMK AO2
14926KSTC STC20120628181009406/28/12 18:10:31  5-MIN KSTC 290010Z 28008KT 10SM CLR 28/11 A2991 1030 35 2800 280/08 RMK AO2
14926KSTC STC20120628181509406/28/12 18:15:31  5-MIN KSTC 290015Z 29007KT 10SM CLR 28/11 A2991 1030 35 2800 290/07 RMK AO2
14926KSTC STC20120628182009406/28/12 18:20:31  5-MIN KSTC 290020Z 30006KT 10SM CLR 28/12 A2991 1030 36 2800 300/06 RMK AO2
14926KSTC STC20120628182509406/28/12 18:25:31  5-MIN KSTC 290025Z 29006KT 10SM CLR 28/12 A2991 1030 36 2800 290/06 RMK AO2
14926KSTC STC20120628183009406/28/12 18:30:31  5-MIN KSTC 290030Z 29005KT 10SM CLR 28/12 A2991 1030 36 2800 290/05 RMK AO2
14926KSTC STC20120628183509406/28/12 18:35:31  5-MIN KSTC 290035Z 27005KT 10SM CLR 28/12 A2991 1030 37 2800 270/05 RMK AO2
14926KSTC STC20120628184009406/28/12 18:40:31  5-MIN KSTC 290040Z 28004KT 10SM CLR 27/12 A2992 1030 39 2700 280/04 RMK AO2
14926KSTC STC20120628184509706/28/12 18:45:31  5-MIN KSTC 290045Z 27004KT 10SM SCT110 27/12 A2992 1030 39 2700 270/04 RMK AO2
14926KSTC STC20120628185011406/28/12 18:50:31  5-MIN KSTC 290050Z 27004KT 10SM BKN110 27/12 A2991 1030 39 2700 270/04 RMK AO2 SLP133 T02720122
14926KSTC STC20120628185509706/28/12 18:55:31  5-MIN KSTC 290055Z 25004KT 10SM BKN110 27/13 A2991 1030 41 2600 250/04 RMK AO2
14926KSTC STC20120628190009706/28/12 19:00:31  5-MIN KSTC 290100Z 26005KT 10SM BKN110 27/13 A2991 1030 43 2600 260/05 RMK AO2
14926KSTC STC20120628190509706/28/12 19:05:31  5-MIN KSTC 290105Z 26004KT 10SM OVC110 27/13 A2991 1030 41 2600 260/04 RMK AO2
14926KSTC STC20120628191009706/28/12 19:10:31  5-MIN KSTC 290110Z 26004KT 10SM OVC110 26/13 A2991 1030 44 2600 260/04 RMK AO2
14926KSTC STC20120628191509706/28/12 19:15:31  5-MIN KSTC 290115Z 25005KT 10SM OVC110 26/13 A2991 1030 44 2600 250/05 RMK AO2
14926KSTC STC20120628192009706/28/12 19:20:31  5-MIN KSTC 290120Z 26005KT 10SM OVC110 26/13 A2991 1030 46 2500 250/05 RMK AO2
14926KSTC STC20120628192509706/28/12 19:25:31  5-MIN KSTC 290125Z 25004KT 10SM OVC110 26/13 A2991 1030 46 2500 250/04 RMK AO2
14926KSTC STC20120628193009706/28/12 19:30:31  5-MIN KSTC 290130Z 24003KT 10SM OVC110 25/13 A2991 1040 48 2500 240/03 RMK AO2
14926KSTC STC20120628193509706/28/12 19:35:31  5-MIN KSTC 290135Z 23003KT 10SM OVC120 25/14 A2991 1040 49 2500 230/03 RMK AO2
14926KSTC STC20120628194009706/28/12 19:40:31  5-MIN KSTC 290140Z 24003KT 10SM BKN120 25/14 A2991 1040 49 2500 230/03 RMK AO2
14926KSTC STC20120628194509706/28/12 19:45:31  5-MIN KSTC 290145Z 23004KT 10SM BKN120 25/14 A2991 1040 49 2500 230/04 RMK AO2
14926KSTC STC20120628195011406/28/12 19:50:31  5-MIN KSTC 290150Z 23004KT 10SM BKN110 24/14 A2991 1040 51 2400 230/04 RMK AO2 SLP131 T02440139
14926KSTC STC20120628195509706/28/12 19:55:31  5-MIN KSTC 290155Z 23005KT 10SM BKN110 24/14 A2991 1040 51 2400 230/05 RMK AO2
14926KSTC STC20120628200009706/28/12 20:00:31  5-MIN KSTC 290200Z 23005KT 10SM BKN120 24/13 A2991 1040 49 2400 230/05 RMK AO2
14926KSTC STC20120628200509706/28/12 20:05:31  5-MIN KSTC 290205Z 23004KT 10SM BKN120 24/13 A2991 1040 49 2400 230/04 RMK AO2
14926KSTC STC20120628201009706/28/12 20:10:31  5-MIN KSTC 290210Z 23004KT 10SM BKN120 24/13 A2990 1040 49 2400 230/04 RMK AO2
14926KSTC STC20120628201509706/28/12 20:15:31  5-MIN KSTC 290215Z 23005KT 10SM BKN120 24/14 A2990 1040 53 2300 230/05 RMK AO2
14926KSTC STC20120628202009706/28/12 20:20:31  5-MIN KSTC 290220Z 22005KT 10SM BKN120 23/14 A2990 1040 55 2300 220/05 RMK AO2
14926KSTC STC20120628202509706/28/12 20:25:31  5-MIN KSTC 290225Z 22004KT 10SM BKN120 23/14 A2991 1040 55 2300 220/04 RMK AO2
14926KSTC STC20120628203009706/28/12 20:30:31  5-MIN KSTC 290230Z 22004KT 10SM SCT120 22/15 A2991 1040 65 2100 220/04 RMK AO2
14926KSTC STC20120628203509706/28/12 20:35:31  5-MIN KSTC 290235Z 22004KT 10SM SCT120 21/15 A2991 1040 68 2000 220/04 RMK AO2
14926KSTC STC20120628204009706/28/12 20:40:31  5-MIN KSTC 290240Z 22004KT 10SM FEW120 22/14 A2991 1040 63 2100 220/04 RMK AO2
14926KSTC STC20120628204509706/28/12 20:45:31  5-MIN KSTC 290245Z 23005KT 10SM FEW120 22/14 A2991 1040 61 2200 230/05 RMK AO2
14926KSTC STC20120628205011706/28/12 20:50:31  5-MIN KSTC 290250Z 00000KT 10SM CLR 22/14 A2991 1040 63 2100 000/00 RMK AO2 SLP130 T02170144 58008
14926KSTC STC20120628205509406/28/12 20:55:31  5-MIN KSTC 290255Z 00000KT 10SM CLR 21/15 A2991 1040 68 2000 000/00 RMK AO2
14926KSTC STC20120628210009406/28/12 21:00:31  5-MIN KSTC 290300Z 00000KT 10SM CLR 21/16 A2990 1040 70 2000 000/00 RMK AO2
14926KSTC STC20120628210509406/28/12 21:05:31  5-MIN KSTC 290305Z 00000KT 10SM CLR 21/15 A2990 1040 70 2000 000/00 RMK AO2
14926KSTC STC20120628211009406/28/12 21:10:31  5-MIN KSTC 290310Z 00000KT 10SM CLR 20/15 A2990 1040 72 1900 000/00 RMK AO2
14926KSTC STC20120628211509406/28/12 21:15:31  5-MIN KSTC 290315Z 00000KT 10SM CLR 20/15 A2990 1040 72 1900 000/00 RMK AO2
14926KSTC STC20120628212009406/28/12 21:20:31  5-MIN KSTC 290320Z 00000KT 10SM CLR 20/15 A2990 1040 72 1900 000/00 RMK AO2
14926KSTC STC20120628212509706/28/12 21:25:31  5-MIN KSTC 290325Z 00000KT 10SM FEW110 19/15 A2990 1040 75 1800 000/00 RMK AO2
14926KSTC STC20120628213009706/28/12 21:30:31  5-MIN KSTC 290330Z 00000KT 10SM FEW110 19/15 A2990 1040 75 1800 000/00 RMK AO2
14926KSTC STC20120628213509906/28/12 21:35:31  5-MIN KSTC 290335Z AUTO 00000KT 10SM CLR 20/15 A2990 1040 72 1900 000/00 RMK AO2
14926KSTC STC20120628214009906/28/12 21:40:31  5-MIN KSTC 290340Z AUTO 00000KT 10SM CLR 20/15 A2990 1040 72 1900 000/00 RMK AO2
14926KSTC STC20120628214509906/28/12 21:45:31  5-MIN KSTC 290345Z AUTO 00000KT 10SM CLR 19/15 A2990 1040 78 1800 000/00 RMK AO2
14926KSTC STC20120628215011606/28/12 21:50:31  5-MIN KSTC 290350Z AUTO 00000KT 10SM CLR 19/15 A2990 1040 78 1800 000/00 RMK AO2 SLP129 T01890150
14926KSTC STC20120628215509906/28/12 21:55:31  5-MIN KSTC 290355Z AUTO 00000KT 10SM CLR 18/15 A2990 1040 81 1700 000/00 RMK AO2
14926KSTC STC20120628220009906/28/12 22:00:31  5-MIN KSTC 290400Z AUTO 00000KT 10SM CLR 19/15 A2990 1040 78 1800 000/00 RMK AO2
14926KSTC STC20120628220509906/28/12 22:05:31  5-MIN KSTC 290405Z AUTO 00000KT 10SM CLR 18/14 A2990 1040 78 1700 000/00 RMK AO2
14926KSTC STC20120628221009906/28/12 22:10:31  5-MIN KSTC 290410Z AUTO 20003KT 10SM CLR 18/15 A2990 1040 83 1700 200/03 RMK AO2
14926KSTC STC20120628221509906/28/12 22:15:31  5-MIN KSTC 290415Z AUTO 20004KT 10SM CLR 17/15 A2990 1040 87 1600 200/04 RMK AO2
14926KSTC STC20120628222009906/28/12 22:20:31  5-MIN KSTC 290420Z AUTO 20003KT 10SM CLR 18/15 A2990 1040 83 1600 200/03 RMK AO2
14926KSTC STC20120628222509906/28/12 22:25:31  5-MIN KSTC 290425Z AUTO 21003KT 10SM CLR 18/15 A2990 1040 83 1700 210/03 RMK AO2
14926KSTC STC20120628223009906/28/12 22:30:31  5-MIN KSTC 290430Z AUTO 00000KT 10SM CLR 18/15 A2990 1040 81 1700 000/00 RMK AO2
14926KSTC STC20120628223509906/28/12 22:35:31  5-MIN KSTC 290435Z AUTO 00000KT 10SM CLR 18/15 A2990 1040 83 1600 000/00 RMK AO2
14926KSTC STC20120628224009906/28/12 22:40:31  5-MIN KSTC 290440Z AUTO 00000KT 10SM CLR 18/14 A2990 1040 81 1600 000/00 RMK AO2
14926KSTC STC20120628224509906/28/12 22:45:31  5-MIN KSTC 290445Z AUTO 00000KT 10SM CLR 17/14 A2990 1040 83 1600 000/00 RMK AO2
14926KSTC STC20120628225011606/28/12 22:50:31  5-MIN KSTC 290450Z AUTO 00000KT 10SM CLR 17/14 A2990 1040 83 1600 000/00 RMK AO2 SLP130 T01720144
14926KSTC STC20120628225509906/28/12 22:55:31  5-MIN KSTC 290455Z AUTO 00000KT 10SM CLR 17/15 A2990 1040 87 1600 000/00 RMK AO2
14926KSTC STC20120628230009906/28/12 23:00:31  5-MIN KSTC 290500Z AUTO 00000KT 10SM CLR 17/14 A2990 1040 83 1600 000/00 RMK AO2
14926KSTC STC20120628230509906/28/12 23:05:31  5-MIN KSTC 290505Z AUTO 00000KT 10SM CLR 17/14 A2991 1040 83 1600 000/00 RMK AO2
14926KSTC STC20120628231009906/28/12 23:10:31  5-MIN KSTC 290510Z AUTO 00000KT 10SM CLR 17/14 A2991 1040 86 1500 000/00 RMK AO2
14926KSTC STC20120628231509906/28/12 23:15:31  5-MIN KSTC 290515Z AUTO 00000KT 10SM CLR 17/14 A2991 1040 83 1600 000/00 RMK AO2
14926KSTC STC20120628232009906/28/12 23:20:31  5-MIN KSTC 290520Z AUTO 00000KT 10SM CLR 17/14 A2991 1040 83 1600 000/00 RMK AO2
14926KSTC STC20120628232509906/28/12 23:25:31  5-MIN KSTC 290525Z AUTO 00000KT 10SM CLR 17/14 A2991 1040 83 1600 000/00 RMK AO2
14926KSTC STC20120628233009906/28/12 23:30:31  5-MIN KSTC 290530Z AUTO 00000KT 10SM CLR 16/14 A2991 1040 86 1500 000/00 RMK AO2
14926KSTC STC20120628233509906/28/12 23:35:31  5-MIN KSTC 290535Z AUTO 00000KT 10SM CLR 16/14 A2991 1040 86 1500 000/00 RMK AO2
14926KSTC STC20120628234009906/28/12 23:40:31  5-MIN KSTC 290540Z AUTO 00000KT 10SM CLR 17/14 A2991 1040 83 1500 000/00 RMK AO2
14926KSTC STC20120628234509906/28/12 23:45:31  5-MIN KSTC 290545Z AUTO 21003KT 10SM CLR 17/14 A2991 1040 83 1500 210/03 RMK AO2
14926KSTC STC20120628235014406/28/12 23:50:31  5-MIN KSTC 290550Z AUTO 00000KT 10SM CLR 16/14 A2991 1040 86 1400 000/00 RMK AO2 SLP131 T01610139 10278 20161 403110161 58002
14926KSTC STC20120628235509906/28/12 23:55:31  5-MIN KSTC 290555Z AUTO 00000KT 10SM CLR 16/13 A2991 1040 83 1500 000/00 RMK AO2
14926KSTC STC20120629000009906/29/12 00:00:32  5-MIN KSTC 290600Z AUTO 00000KT 10SM CLR 16/13 A2991 1040 83 1500 000/00 RMK AO2
14926KSTC STC20120629000509906/29/12 00:05:31  5-MIN KSTC 290605Z AUTO 00000KT 10SM CLR 16/14 A2991 1040 86 1500 000/00 RMK AO2
14926KSTC STC20120629001009906/29/12 00:10:31  5-MIN KSTC 290610Z AUTO 00000KT 10SM CLR 16/14 A2991 1040 86 1500 000/00 RMK AO2
14926KSTC STC20120629001509906/29/12 00:15:31  5-MIN KSTC 290615Z AUTO 00000KT 10SM CLR 17/14 A2990 1040 83 1500 000/00 RMK AO2
14926KSTC STC20120629002009906/29/12 00:20:31  5-MIN KSTC 290620Z AUTO 00000KT 10SM CLR 16/14 A2990 1040 86 1500 000/00 RMK AO2
14926KSTC STC20120629002509906/29/12 00:25:31  5-MIN KSTC 290625Z AUTO 00000KT 10SM CLR 17/14 A2990 1040 83 1500 000/00 RMK AO2
14926KSTC STC20120629003009906/29/12 00:30:31  5-MIN KSTC 290630Z AUTO 00000KT 10SM CLR 16/13 A2990 1040 83 1500 000/00 RMK AO2
14926KSTC STC20120629003509906/29/12 00:35:31  5-MIN KSTC 290635Z AUTO 00000KT 10SM CLR 16/13 A2990 1040 83 1500 000/00 RMK AO2
14926KSTC STC20120629004009906/29/12 00:40:31  5-MIN KSTC 290640Z AUTO 00000KT 10SM CLR 17/14 A2990 1040 83 1500 000/00 RMK AO2
14926KSTC STC20120629004509906/29/12 00:45:31  5-MIN KSTC 290645Z AUTO 00000KT 10SM CLR 16/14 A2990 1040 86 1500 000/00 RMK AO2
14926KSTC STC20120629005011606/29/12 00:50:31  5-MIN KSTC 290650Z AUTO 00000KT 10SM CLR 16/13 A2990 1040 86 1400 000/00 RMK AO2 SLP128 T01560133
14926KSTC STC20120629005509906/29/12 00:55:31  5-MIN KSTC 290655Z AUTO 00000KT 10SM CLR 16/13 A2990 1050 86 1400 000/00 RMK AO2
14926KSTC STC20120629010009906/29/12 01:00:31  5-MIN KSTC 290700Z AUTO 00000KT 10SM CLR 16/13 A2990 1050 86 1400 000/00 RMK AO2
14926KSTC STC20120629010509906/29/12 01:05:31  5-MIN KSTC 290705Z AUTO 00000KT 10SM CLR 16/13 A2990 1050 86 1400 000/00 RMK AO2
14926KSTC STC20120629011009906/29/12 01:10:31  5-MIN KSTC 290710Z AUTO 00000KT 10SM CLR 15/13 A2990 1050 86 1300 000/00 RMK AO2
14926KSTC STC20120629011509906/29/12 01:15:31  5-MIN KSTC 290715Z AUTO 00000KT 10SM CLR 15/13 A2990 1050 86 1300 000/00 RMK AO2
14926KSTC STC20120629012009906/29/12 01:20:31  5-MIN KSTC 290720Z AUTO 00000KT 10SM CLR 15/13 A2990 1050 90 1300 000/00 RMK AO2
14926KSTC STC20120629012509906/29/12 01:25:31  5-MIN KSTC 290725Z AUTO 00000KT 10SM CLR 15/13 A2989 1050 90 1300 000/00 RMK AO2
14926KSTC STC20120629013009906/29/12 01:30:31  5-MIN KSTC 290730Z AUTO 00000KT 10SM CLR 15/13 A2989 1050 86 1300 000/00 RMK AO2
14926KSTC STC20120629013509906/29/12 01:35:31  5-MIN KSTC 290735Z AUTO 00000KT 10SM CLR 16/13 A2989 1050 86 1400 000/00 RMK AO2
14926KSTC STC20120629014009906/29/12 01:40:31  5-MIN KSTC 290740Z AUTO 00000KT 10SM CLR 16/13 A2989 1050 83 1500 000/00 RMK AO2
14926KSTC STC20120629014509906/29/12 01:45:31  5-MIN KSTC 290745Z AUTO 00000KT 10SM CLR 14/13 A2989 1050 90 1300 000/00 RMK AO2
14926KSTC STC20120629015011606/29/12 01:50:31  5-MIN KSTC 290750Z AUTO 00000KT 10SM CLR 14/12 A2989 1050 86 1300 000/00 RMK AO2 SLP125 T01440122
14926KSTC STC20120629015509906/29/12 01:55:31  5-MIN KSTC 290755Z AUTO 19003KT 10SM CLR 15/13 A2989 1050 86 1300 190/03 RMK AO2
14926KSTC STC20120629020009906/29/12 02:00:31  5-MIN KSTC 290800Z AUTO 21003KT 10SM CLR 15/13 A2989 1050 90 1300 210/03 RMK AO2
14926KSTC STC20120629020509906/29/12 02:05:31  5-MIN KSTC 290805Z AUTO 00000KT 10SM CLR 15/13 A2989 1060 90 1300 000/00 RMK AO2
14926KSTC STC20120629021009906/29/12 02:10:31  5-MIN KSTC 290810Z AUTO 00000KT 10SM CLR 15/13 A2989 1060 86 1300 000/00 RMK AO2
14926KSTC STC20120629021509906/29/12 02:15:31  5-MIN KSTC 290815Z AUTO 00000KT 10SM CLR 14/13 A2989 1050 90 1300 000/00 RMK AO2
14926KSTC STC20120629022009906/29/12 02:20:31  5-MIN KSTC 290820Z AUTO 00000KT 10SM CLR 14/13 A2989 1050 90 1300 000/00 RMK AO2
14926KSTC STC20120629022509906/29/12 02:25:31  5-MIN KSTC 290825Z AUTO 00000KT 10SM CLR 14/13 A2989 1050 93 1200 000/00 RMK AO2
14926KSTC STC20120629023009906/29/12 02:30:31  5-MIN KSTC 290830Z AUTO 00000KT 10SM CLR 14/13 A2989 1050 90 1300 000/00 RMK AO2
14926KSTC STC20120629023509906/29/12 02:35:31  5-MIN KSTC 290835Z AUTO 00000KT 10SM CLR 14/13 A2989 1050 93 1200 000/00 RMK AO2
14926KSTC STC20120629024009906/29/12 02:40:31  5-MIN KSTC 290840Z AUTO 00000KT 10SM CLR 14/12 A2989 1050 90 1200 000/00 RMK AO2
14926KSTC STC20120629024509906/29/12 02:45:31  5-MIN KSTC 290845Z AUTO 00000KT 10SM CLR 14/12 A2989 1050 90 1200 000/00 RMK AO2
14926KSTC STC20120629025012206/29/12 02:50:31  5-MIN KSTC 290850Z AUTO 00000KT 10SM CLR 14/13 A2990 1050 93 1200 000/00 RMK AO2 SLP126 T01390128 53001
14926KSTC STC20120629025509906/29/12 02:55:31  5-MIN KSTC 290855Z AUTO 00000KT 10SM CLR 14/13 A2990 1050 93 1200 000/00 RMK AO2
14926KSTC STC20120629030009906/29/12 03:00:31  5-MIN KSTC 290900Z AUTO 00000KT 10SM CLR 14/13 A2989 1050 93 1200 000/00 RMK AO2
14926KSTC STC20120629030509906/29/12 03:05:31  5-MIN KSTC 290905Z AUTO 00000KT 10SM CLR 14/13 A2989 1050 93 1200 000/00 RMK AO2
14926KSTC STC20120629031009906/29/12 03:10:31  5-MIN KSTC 290910Z AUTO 00000KT 10SM CLR 14/13 A2989 1050 93 1200 000/00 RMK AO2
14926KSTC STC20120629031509906/29/12 03:15:31  5-MIN KSTC 290915Z AUTO 00000KT 10SM CLR 14/13 A2989 1050 93 1200 000/00 RMK AO2
14926KSTC STC20120629032009906/29/12 03:20:31  5-MIN KSTC 290920Z AUTO 00000KT 10SM CLR 14/13 A2989 1050 93 1200 000/00 RMK AO2
14926KSTC STC20120629032509906/29/12 03:25:31  5-MIN KSTC 290925Z AUTO 00000KT 10SM CLR 13/12 A2989 1050 93 1100 000/00 RMK AO2
14926KSTC STC20120629033009906/29/12 03:30:31  5-MIN KSTC 290930Z AUTO 00000KT 10SM CLR 13/12 A2989 1050 93 1100 000/00 RMK AO2
14926KSTC STC20120629033509906/29/12 03:35:31  5-MIN KSTC 290935Z AUTO 00000KT 10SM CLR 14/13 A2989 1050 93 1200 000/00 RMK AO2
14926KSTC STC20120629034009906/29/12 03:40:31  5-MIN KSTC 290940Z AUTO 00000KT 10SM CLR 13/12 A2989 1060 93 1100 000/00 RMK AO2
14926KSTC STC20120629034509906/29/12 03:45:31  5-MIN KSTC 290945Z AUTO 00000KT 10SM CLR 13/12 A2989 1050 93 1100 000/00 RMK AO2
14926KSTC STC20120629035011606/29/12 03:50:31  5-MIN KSTC 290950Z AUTO 00000KT 10SM CLR 13/12 A2989 1050 93 1100 000/00 RMK AO2 SLP125 T01330122
14926KSTC STC20120629035509906/29/12 03:55:31  5-MIN KSTC 290955Z AUTO 00000KT 10SM CLR 13/12 A2989 1050 93 1100 000/00 RMK AO2
14926KSTC STC20120629040009906/29/12 04:00:31  5-MIN KSTC 291000Z AUTO 00000KT 10SM CLR 13/12 A2989 1050 93 1100 000/00 RMK AO2
14926KSTC STC20120629040509906/29/12 04:05:31  5-MIN KSTC 291005Z AUTO 00000KT 10SM CLR 13/12 A2989 1050 96 1100 000/00 RMK AO2
14926KSTC STC20120629041009906/29/12 04:10:31  5-MIN KSTC 291010Z AUTO 00000KT 10SM CLR 13/12 A2989 1050 93 1100 000/00 RMK AO2
14926KSTC STC20120629041509906/29/12 04:15:31  5-MIN KSTC 291015Z AUTO 00000KT 10SM CLR 13/12 A2989 1050 96 1100 000/00 RMK AO2
14926KSTC STC20120629042009906/29/12 04:20:31  5-MIN KSTC 291020Z AUTO 00000KT 10SM CLR 13/12 A2989 1050 93 1100 000/00 RMK AO2
14926KSTC STC20120629042509906/29/12 04:25:31  5-MIN KSTC 291025Z AUTO 00000KT 10SM CLR 13/12 A2989 1050 96 1100 000/00 RMK AO2
14926KSTC STC20120629043009806/29/12 04:30:31  5-MIN KSTC 291030Z AUTO 00000KT 8SM CLR 13/12 A2989 1050 93 1100 000/00 RMK AO2
14926KSTC STC20120629043509806/29/12 04:35:31  5-MIN KSTC 291035Z AUTO 00000KT 8SM CLR 13/12 A2989 1050 93 1100 000/00 RMK AO2
14926KSTC STC20120629044009906/29/12 04:40:31  5-MIN KSTC 291040Z AUTO 00000KT 10SM CLR 13/12 A2989 1050 93 1100 000/00 RMK AO2
14926KSTC STC20120629044509906/29/12 04:45:31  5-MIN KSTC 291045Z AUTO 00000KT 10SM CLR 13/12 A2989 1050 93 1100 000/00 RMK AO2
14926KSTC STC20120629045011606/29/12 04:50:31  5-MIN KSTC 291050Z AUTO 00000KT 10SM CLR 13/12 A2989 1050 96 1100 000/00 RMK AO2 SLP126 T01280122
14926KSTC STC20120629045509906/29/12 04:55:31  5-MIN KSTC 291055Z AUTO 00000KT 10SM CLR 13/12 A2989 1050 93 1100 000/00 RMK AO2
14926KSTC STC20120629050009906/29/12 05:00:31  5-MIN KSTC 291100Z AUTO 00000KT 10SM CLR 13/12 A2989 1050 89 1100 000/00 RMK AO2
14926KSTC STC20120629050509906/29/12 05:05:31  5-MIN KSTC 291105Z AUTO 00000KT 10SM CLR 13/12 A2989 1060 93 1100 000/00 RMK AO2
14926KSTC STC20120629051009906/29/12 05:10:31  5-MIN KSTC 291110Z AUTO 00000KT 10SM CLR 13/12 A2989 1050 93 1100 000/00 RMK AO2
14926KSTC STC20120629051509906/29/12 05:15:31  5-MIN KSTC 291115Z AUTO 00000KT 10SM CLR 14/12 A2989 1050 90 1200 000/00 RMK AO2
14926KSTC STC20120629052009906/29/12 05:20:31  5-MIN KSTC 291120Z AUTO 00000KT 10SM CLR 14/13 A2989 1050 90 1300 000/00 RMK AO2
14926KSTC STC20120629052509906/29/12 05:25:31  5-MIN KSTC 291125Z AUTO 00000KT 10SM CLR 14/13 A2989 1050 90 1300 000/00 RMK AO2
14926KSTC STC20120629053009906/29/12 05:30:31  5-MIN KSTC 291130Z AUTO 00000KT 10SM CLR 15/13 A2989 1050 90 1300 000/00 RMK AO2
14926KSTC STC20120629053509906/29/12 05:35:31  5-MIN KSTC 291135Z AUTO 00000KT 10SM CLR 16/13 A2989 1050 86 1400 000/00 RMK AO2
14926KSTC STC20120629054009906/29/12 05:40:31  5-MIN KSTC 291140Z AUTO 00000KT 10SM CLR 16/13 A2989 1050 86 1400 000/00 RMK AO2
14926KSTC STC20120629054509906/29/12 05:45:31  5-MIN KSTC 291145Z AUTO 00000KT 10SM CLR 16/14 A2989 1060 90 1400 000/00 RMK AO2
14926KSTC STC20120629055012906/29/12 05:50:31  5-MIN KSTC 291150Z 00000KT 10SM CLR 16/14 A2989 1060 86 1500 000/00 RMK AO2 SLP124 T01610139 10167 20128 55004
14926KSTC STC20120629055509406/29/12 05:55:31  5-MIN KSTC 291155Z 00000KT 10SM CLR 17/14 A2989 1060 86 1500 000/00 RMK AO2
14926KSTC STC20120629060009406/29/12 06:00:31  5-MIN KSTC 291200Z 00000KT 10SM CLR 17/14 A2989 1060 83 1600 000/00 RMK AO2
14926KSTC STC20120629060509406/29/12 06:05:31  5-MIN KSTC 291205Z 00000KT 10SM CLR 18/15 A2989 1060 83 1700 000/00 RMK AO2
14926KSTC STC20120629061009406/29/12 06:10:31  5-MIN KSTC 291210Z 00000KT 10SM CLR 18/15 A2989 1060 83 1700 000/00 RMK AO2
14926KSTC STC20120629061509406/29/12 06:15:31  5-MIN KSTC 291215Z 00000KT 10SM CLR 18/16 A2989 1060 84 1700 000/00 RMK AO2
14926KSTC STC20120629062009406/29/12 06:20:31  5-MIN KSTC 291220Z 00000KT 10SM CLR 18/16 A2989 1050 84 1700 000/00 RMK AO2
14926KSTC STC20120629062509406/29/12 06:25:31  5-MIN KSTC 291225Z 00000KT 10SM CLR 18/16 A2989 1050 87 1700 000/00 RMK AO2
14926KSTC STC20120629063009406/29/12 06:30:31  5-MIN KSTC 291230Z 00000KT 10SM CLR 19/16 A2989 1050 84 1800 000/00 RMK AO2
14926KSTC STC20120629063509406/29/12 06:35:31  5-MIN KSTC 291235Z 00000KT 10SM CLR 19/16 A2989 1050 81 1900 000/00 RMK AO2
14926KSTC STC20120629064009406/29/12 06:40:31  5-MIN KSTC 291240Z 00000KT 10SM CLR 20/16 A2990 1050 75 1900 000/00 RMK AO2
14926KSTC STC20120629064509406/29/12 06:45:31  5-MIN KSTC 291245Z 00000KT 10SM CLR 20/16 A2990 1050 75 1900 000/00 RMK AO2
14926KSTC STC20120629065011106/29/12 06:50:31  5-MIN KSTC 291250Z 00000KT 10SM CLR 20/16 A2990 1040 75 1900 000/00 RMK AO2 SLP127 T02000156
14926KSTC STC20120629065509406/29/12 06:55:31  5-MIN KSTC 291255Z 00000KT 10SM CLR 21/16 A2990 1050 73 2000 000/00 RMK AO2
14926KSTC STC20120629070009406/29/12 07:00:31  5-MIN KSTC 291300Z 00000KT 10SM CLR 21/16 A2990 1050 70 2000 000/00 RMK AO2
14926KSTC STC20120629070509406/29/12 07:05:31  5-MIN KSTC 291305Z 00000KT 10SM CLR 22/16 A2990 1050 68 2100 000/00 RMK AO2
14926KSTC STC20120629071009406/29/12 07:10:31  5-MIN KSTC 291310Z 00000KT 10SM CLR 22/16 A2990 1040 65 2200 000/00 RMK AO2
14926KSTC STC20120629071509406/29/12 07:15:31  5-MIN KSTC 291315Z 00000KT 10SM CLR 23/16 A2990 1040 63 2200 000/00 RMK AO2
14926KSTC STC20120629072009406/29/12 07:20:31  5-MIN KSTC 291320Z 00000KT 10SM CLR 23/16 A2990 1040 63 2200 000/00 RMK AO2
14926KSTC STC20120629072509406/29/12 07:25:31  5-MIN KSTC 291325Z 00000KT 10SM CLR 23/16 A2990 1050 63 2200 000/00 RMK AO2
14926KSTC STC20120629073009406/29/12 07:30:31  5-MIN KSTC 291330Z 00000KT 10SM CLR 24/16 A2989 1050 59 2400 000/00 RMK AO2
14926KSTC STC20120629073509406/29/12 07:35:31  5-MIN KSTC 291335Z 00000KT 10SM CLR 24/15 A2989 1050 57 2400 000/00 RMK AO2
14926KSTC STC20120629074009406/29/12 07:40:31  5-MIN KSTC 291340Z 00000KT 10SM CLR 24/15 A2989 1050 55 2400 000/00 RMK AO2
14926KSTC STC20120629074509406/29/12 07:45:31  5-MIN KSTC 291345Z 00000KT 10SM CLR 24/15 A2989 1060 55 2400 000/00 RMK AO2
14926KSTC STC20120629075011106/29/12 07:50:31  5-MIN KSTC 291350Z 00000KT 10SM CLR 25/16 A2989 1060 55 2500 000/00 RMK AO2 SLP121 T02500156
14926KSTC STC20120629075509406/29/12 07:55:31  5-MIN KSTC 291355Z 00000KT 10SM CLR 25/16 A2988 1060 55 2500 000/00 RMK AO2
14926KSTC STC20120629080009406/29/12 08:00:31  5-MIN KSTC 291400Z 00000KT 10SM CLR 26/16 A2988 1060 55 2600 000/00 RMK AO2
14926KSTC STC20120629080509406/29/12 08:05:31  5-MIN KSTC 291405Z 00000KT 10SM CLR 26/16 A2989 1060 53 2600 000/00 RMK AO2
14926KSTC STC20120629081009406/29/12 08:10:31  5-MIN KSTC 291410Z 25003KT 10SM CLR 26/15 A2988 1060 51 2600 250/03 RMK AO2
14926KSTC STC20120629081509406/29/12 08:15:31  5-MIN KSTC 291415Z 00000KT 10SM CLR 26/16 A2988 1060 51 2600 000/00 RMK AO2
14926KSTC STC20120629082009406/29/12 08:20:31  5-MIN KSTC 291420Z 24003KT 10SM CLR 27/15 A2988 1060 48 2700 240/03 RMK AO2
14926KSTC STC20120629082509406/29/12 08:25:31  5-MIN KSTC 291425Z 00000KT 10SM CLR 27/15 A2988 1070 48 2700 000/00 RMK AO2
14926KSTC STC20120629083009406/29/12 08:30:31  5-MIN KSTC 291430Z 00000KT 10SM CLR 27/14 A2987 1070 46 2700 000/00 RMK AO2
14926KSTC STC20120629083509406/29/12 08:35:31  5-MIN KSTC 291435Z 20004KT 10SM CLR 27/15 A2987 1070 48 2700 200/04 RMK AO2
14926KSTC STC20120629084009406/29/12 08:40:31  5-MIN KSTC 291440Z 00000KT 10SM CLR 27/15 A2987 1080 46 2800 000/00 RMK AO2
14926KSTC STC20120629084509406/29/12 08:45:31  5-MIN KSTC 291445Z 00000KT 10SM CLR 27/14 A2986 1080 45 2800 000/00 RMK AO2
14926KSTC STC20120629085011706/29/12 08:50:31  5-MIN KSTC 291450Z 21004KT 10SM CLR 27/13 A2986 1080 42 2800 210/04 RMK AO2 SLP115 T02720133 58003
14926KSTC STC20120629085509406/29/12 08:55:31  5-MIN KSTC 291455Z VRB04KT 10SM CLR 28/13 A2986 1080 40 2800 VRB/04 RMK AO2
14926KSTC STC20120629090009406/29/12 09:00:31  5-MIN KSTC 291500Z VRB04KT 10SM CLR 28/13 A2986 1080 39 2900 VRB/04 RMK AO2
14926KSTC STC20120629090509406/29/12 09:05:31  5-MIN KSTC 291505Z 26004KT 10SM CLR 28/13 A2986 1080 37 2900 260/04 RMK AO2
14926KSTC STC20120629091009406/29/12 09:10:31  5-MIN KSTC 291510Z 24005KT 10SM CLR 28/13 A2986 1080 39 2900 240/05 RMK AO2
14926KSTC STC20120629091509406/29/12 09:15:31  5-MIN KSTC 291515Z 26004KT 10SM CLR 28/13 A2986 1080 39 2900 260/04 RMK AO2
14926KSTC STC20120629092009406/29/12 09:20:31  5-MIN KSTC 291520Z 24003KT 10SM CLR 29/13 A2987 1080 38 3000 240/03 RMK AO2
14926KSTC STC20120629092509406/29/12 09:25:31  5-MIN KSTC 291525Z VRB04KT 10SM CLR 29/14 A2987 1070 39 2900 VRB/04 RMK AO2
14926KSTC STC20120629093009406/29/12 09:30:31  5-MIN KSTC 291530Z VRB04KT 10SM CLR 29/14 A2987 1070 39 2900 VRB/04 RMK AO2
14926KSTC STC20120629093509406/29/12 09:35:31  5-MIN KSTC 291535Z 25003KT 10SM CLR 29/14 A2987 1070 40 2900 250/03 RMK AO2
14926KSTC STC20120629094009406/29/12 09:40:31  5-MIN KSTC 291540Z 18005KT 10SM CLR 29/14 A2987 1070 39 2900 180/05 RMK AO2
14926KSTC STC20120629094509406/29/12 09:45:31  5-MIN KSTC 291545Z 22006KT 10SM CLR 29/13 A2987 1070 36 2900 220/06 RMK AO2
14926KSTC STC20120629095011106/29/12 09:50:31  5-MIN KSTC 291550Z 23005KT 10SM CLR 29/13 A2987 1070 35 3000 230/05 RMK AO2 SLP117 T02940128
14926KSTC STC20120629095509406/29/12 09:55:31  5-MIN KSTC 291555Z 20005KT 10SM CLR 29/14 A2987 1070 38 3000 200/05 RMK AO2
14926KSTC STC20120629100009406/29/12 10:00:31  5-MIN KSTC 291600Z 20006KT 10SM CLR 29/14 A2987 1070 38 3000 200/06 RMK AO2
14926KSTC STC20120629100509406/29/12 10:05:31  5-MIN KSTC 291605Z 21006KT 10SM CLR 29/13 A2987 1070 36 3000 210/06 RMK AO2
14926KSTC STC20120629101009406/29/12 10:10:31  5-MIN KSTC 291610Z 21007KT 10SM CLR 30/14 A2987 1070 36 3100 210/07 RMK AO2
14926KSTC STC20120629101509406/29/12 10:15:31  5-MIN KSTC 291615Z 19006KT 10SM CLR 30/13 A2988 1070 34 3100 190/06 RMK AO2
14926KSTC STC20120629102009406/29/12 10:20:31  5-MIN KSTC 291620Z 20006KT 10SM CLR 31/13 A2988 1070 33 3100 200/06 RMK AO2
14926KSTC STC20120629102509406/29/12 10:25:31  5-MIN KSTC 291625Z 20008KT 10SM CLR 30/12 A2988 1070 33 3100 200/08 RMK AO2
14926KSTC STC20120629103009406/29/12 10:30:31  5-MIN KSTC 291630Z 20007KT 10SM CLR 30/13 A2988 1070 34 3100 200/07 RMK AO2
14926KSTC STC20120629103509406/29/12 10:35:31  5-MIN KSTC 291635Z 20007KT 10SM CLR 29/14 A2987 1070 38 3000 200/07 RMK AO2
14926KSTC STC20120629104009406/29/12 10:40:31  5-MIN KSTC 291640Z 20009KT 10SM CLR 29/13 A2988 1070 35 3000 190/09 RMK AO2
14926KSTC STC20120629104509406/29/12 10:45:31  5-MIN KSTC 291645Z 20009KT 10SM CLR 29/13 A2988 1070 36 3000 200/09 RMK AO2
14926KSTC STC20120629105011106/29/12 10:50:31  5-MIN KSTC 291650Z 20009KT 10SM CLR 29/13 A2988 1070 36 3000 190/09 RMK AO2 SLP120 T02940133
14926KSTC STC20120629105509406/29/12 10:55:31  5-MIN KSTC 291655Z 20008KT 10SM CLR 30/14 A2988 1070 36 3100 200/08 RMK AO2
14926KSTC STC20120629110009406/29/12 11:00:31  5-MIN KSTC 291700Z 19008KT 10SM CLR 30/13 A2988 1070 35 3100 190/08 RMK AO2
14926KSTC STC20120629110509406/29/12 11:05:31  5-MIN KSTC 291705Z 20010KT 10SM CLR 30/13 A2988 1070 35 3100 200/10 RMK AO2
14926KSTC STC20120629111009406/29/12 11:10:31  5-MIN KSTC 291710Z 21008KT 10SM CLR 30/13 A2988 1060 35 3100 210/08 RMK AO2
14926KSTC STC20120629111509406/29/12 11:15:31  5-MIN KSTC 291715Z 21008KT 10SM CLR 29/13 A2988 1060 35 3000 200/08 RMK AO2
14926KSTC STC20120629112009406/29/12 11:20:31  5-MIN KSTC 291720Z 20006KT 10SM CLR 30/13 A2988 1060 35 3100 200/06 RMK AO2
14926KSTC STC20120629112509406/29/12 11:25:31  5-MIN KSTC 291725Z 20007KT 10SM CLR 31/14 A2988 1060 37 3100 200/07 RMK AO2
14926KSTC STC20120629113009406/29/12 11:30:31  5-MIN KSTC 291730Z 23006KT 10SM CLR 31/14 A2989 1060 37 3100 230/06 RMK AO2
14926KSTC STC20120629113509406/29/12 11:35:31  5-MIN KSTC 291735Z 22006KT 10SM CLR 31/14 A2989 1060 35 3100 220/06 RMK AO2
14926KSTC STC20120629114010006/29/12 11:40:31  5-MIN KSTC 291740Z 23010G15KT 10SM CLR 31/13 A2989 1060 33 3200 230/10G15 RMK AO2
14926KSTC STC20120629114510006/29/12 11:45:31  5-MIN KSTC 291745Z 23008G15KT 10SM CLR 30/13 A2989 1060 34 3100 220/08G15 RMK AO2
14926KSTC STC20120629115012906/29/12 11:50:31  5-MIN KSTC 291750Z 24009KT 10SM CLR 31/13 A2989 1060 34 3100 240/09 RMK AO2 SLP123 T03060133 10311 20167 58008
14926KSTC STC20120629115509406/29/12 11:55:31  5-MIN KSTC 291755Z 25010KT 10SM CLR 31/13 A2988 1060 32 3200 250/10 RMK AO2
14926KSTC STC20120629120009406/29/12 12:00:31  5-MIN KSTC 291800Z 24009KT 10SM CLR 31/13 A2988 1060 33 3100 240/09 RMK AO2
14926KSTC STC20120629120509406/29/12 12:05:31  5-MIN KSTC 291805Z 25011KT 10SM CLR 31/13 A2988 1060 33 3100 250/11 RMK AO2
14926KSTC STC20120629121009406/29/12 12:10:31  5-MIN KSTC 291810Z 24009KT 10SM CLR 31/13 A2987 1070 33 3100 240/09 RMK AO2
14926KSTC STC20120629121509406/29/12 12:15:31  5-MIN KSTC 291815Z 24009KT 10SM CLR 31/13 A2987 1070 34 3100 240/09 RMK AO2
14926KSTC STC20120629122009406/29/12 12:20:31  5-MIN KSTC 291820Z 26010KT 10SM CLR 31/13 A2987 1070 33 3100 260/10 RMK AO2
14926KSTC STC20120629122509406/29/12 12:25:31  5-MIN KSTC 291825Z 25009KT 10SM CLR 31/12 A2987 1080 30 3100 240/09 RMK AO2
14926KSTC STC20120629123009406/29/12 12:30:31  5-MIN KSTC 291830Z 23006KT 10SM CLR 31/13 A2986 1080 33 3200 230/06 RMK AO2
14926KSTC STC20120629123509406/29/12 12:35:31  5-MIN KSTC 291835Z 24007KT 10SM CLR 31/13 A2986 1080 34 3100 240/07 RMK AO2
14926KSTC STC20120629124009406/29/12 12:40:31  5-MIN KSTC 291840Z 28008KT 10SM CLR 31/13 A2986 1080 33 3200 280/08 RMK AO2
14926KSTC STC20120629124509406/29/12 12:45:31  5-MIN KSTC 291845Z 27009KT 10SM CLR 31/12 A2986 1080 31 3200 270/09 RMK AO2
14926KSTC STC20120629125011106/29/12 12:50:31  5-MIN KSTC 291850Z 28007KT 10SM CLR 31/12 A2986 1080 31 3200 280/07 RMK AO2 SLP114 T03110122
14926KSTC STC20120629125509406/29/12 12:55:31  5-MIN KSTC 291855Z 25007KT 10SM CLR 31/12 A2986 1090 31 3200 250/07 RMK AO2
14926KSTC STC20120629130009406/29/12 13:00:31  5-MIN KSTC 291900Z 27009KT 10SM CLR 31/12 A2986 1090 32 3100 270/09 RMK AO2
14926KSTC STC20120629130509406/29/12 13:05:31  5-MIN KSTC 291905Z 26010KT 10SM CLR 31/11 A2985 1090 28 3200 260/10 RMK AO2
14926KSTC STC20120629131009406/29/12 13:10:31  5-MIN KSTC 291910Z 25010KT 10SM CLR 31/11 A2985 1090 29 3200 250/10 RMK AO2
14926KSTC STC20120629131509406/29/12 13:15:31  5-MIN KSTC 291915Z 26008KT 10SM CLR 31/11 A2984 1100 28 3200 260/08 RMK AO2
14926KSTC STC20120629132009406/29/12 13:20:31  5-MIN KSTC 291920Z 26007KT 10SM CLR 31/11 A2984 1100 29 3200 260/07 RMK AO2
14926KSTC STC20120629132509406/29/12 13:25:31  5-MIN KSTC 291925Z 26010KT 10SM CLR 31/11 A2985 1100 28 3200 260/10 RMK AO2
14926KSTC STC20120629133009406/29/12 13:30:31  5-MIN KSTC 291930Z 26008KT 10SM CLR 31/11 A2984 1100 28 3200 260/08 RMK AO2
14926KSTC STC20120629133509406/29/12 13:35:31  5-MIN KSTC 291935Z 26009KT 10SM CLR 31/11 A2984 1100 27 3200 260/09 RMK AO2
14926KSTC STC20120629134009406/29/12 13:40:31  5-MIN KSTC 291940Z 25007KT 10SM CLR 31/11 A2984 1100 27 3200 250/07 RMK AO2
14926KSTC STC20120629134509406/29/12 13:45:31  5-MIN KSTC 291945Z 25008KT 10SM CLR 31/11 A2984 1100 28 3200 250/08 RMK AO2
14926KSTC STC20120629135011106/29/12 13:50:31  5-MIN KSTC 291950Z 26008KT 10SM CLR 31/12 A2984 1100 29 3200 260/08 RMK AO2 SLP107 T03110117
14926KSTC STC20120629135509406/29/12 13:55:31  5-MIN KSTC 291955Z 26007KT 10SM CLR 32/12 A2983 1110 29 3300 260/07 RMK AO2
14926KSTC STC20120629140009406/29/12 14:00:31  5-MIN KSTC 292000Z 25006KT 10SM CLR 31/11 A2983 1110 28 3200 250/06 RMK AO2
14926KSTC STC20120629140509406/29/12 14:05:31  5-MIN KSTC 292005Z 26007KT 10SM CLR 32/11 A2983 1110 27 3300 260/07 RMK AO2
14926KSTC STC20120629141009406/29/12 14:10:31  5-MIN KSTC 292010Z 27008KT 10SM CLR 32/11 A2983 1110 27 3300 270/08 RMK AO2
14926KSTC STC20120629141509406/29/12 14:15:31  5-MIN KSTC 292015Z 26008KT 10SM CLR 32/11 A2983 1110 26 3300 260/08 RMK AO2
14926KSTC STC20120629142009406/29/12 14:20:31  5-MIN KSTC 292020Z 27006KT 10SM CLR 32/11 A2983 1110 27 3300 270/06 RMK AO2
14926KSTC STC20120629142509406/29/12 14:25:31  5-MIN KSTC 292025Z 27008KT 10SM CLR 32/11 A2983 1110 27 3300 270/08 RMK AO2
14926KSTC STC20120629143009406/29/12 14:30:31  5-MIN KSTC 292030Z 27007KT 10SM CLR 32/11 A2983 1110 27 3300 270/07 RMK AO2
14926KSTC STC20120629143509406/29/12 14:35:31  5-MIN KSTC 292035Z 28006KT 10SM CLR 32/12 A2983 1110 29 3300 280/06 RMK AO2
14926KSTC STC20120629144009406/29/12 14:40:31  5-MIN KSTC 292040Z 29011KT 10SM CLR 32/12 A2983 1110 29 3300 290/11 RMK AO2
14926KSTC STC20120629144509406/29/12 14:45:31  5-MIN KSTC 292045Z 29010KT 10SM CLR 32/12 A2983 1110 29 3300 290/10 RMK AO2
14926KSTC STC20120629145011706/29/12 14:50:31  5-MIN KSTC 292050Z 30008KT 10SM CLR 32/12 A2983 1110 29 3300 290/08 RMK AO2 SLP105 T03170117 53007
14926KSTC STC20120629145509406/29/12 14:55:31  5-MIN KSTC 292055Z 29010KT 10SM CLR 32/12 A2983 1110 29 3300 290/10 RMK AO2
14926KSTC STC20120629150010006/29/12 15:00:31  5-MIN KSTC 292100Z 27008G15KT 10SM CLR 32/12 A2983 1110 30 3300 270/08G15 RMK AO2
14926KSTC STC20120629150509406/29/12 15:05:31  5-MIN KSTC 292105Z 28006KT 10SM CLR 32/12 A2983 1110 30 3300 280/06 RMK AO2
14926KSTC STC20120629151009406/29/12 15:10:31  5-MIN KSTC 292110Z 26005KT 10SM CLR 32/12 A2983 1110 30 3300 260/05 RMK AO2
14926KSTC STC20120629151509406/29/12 15:15:31  5-MIN KSTC 292115Z 25008KT 10SM CLR 31/13 A2983 1110 33 3200 250/08 RMK AO2
14926KSTC STC20120629152009406/29/12 15:20:31  5-MIN KSTC 292120Z 25008KT 10SM CLR 31/13 A2983 1110 33 3200 250/08 RMK AO2
14926KSTC STC20120629152509406/29/12 15:25:31  5-MIN KSTC 292125Z 26006KT 10SM CLR 31/14 A2983 1110 34 3200 260/06 RMK AO2
14926KSTC STC20120629153009406/29/12 15:30:31  5-MIN KSTC 292130Z 27008KT 10SM CLR 31/13 A2983 1110 34 3200 270/08 RMK AO2
14926KSTC STC20120629153509406/29/12 15:35:31  5-MIN KSTC 292135Z 27006KT 10SM CLR 31/14 A2983 1110 35 3200 270/06 RMK AO2
14926KSTC STC20120629154009406/29/12 15:40:31  5-MIN KSTC 292140Z 27007KT 10SM CLR 31/14 A2983 1110 35 3200 270/07 RMK AO2
14926KSTC STC20120629154509406/29/12 15:45:31  5-MIN KSTC 292145Z 27005KT 10SM CLR 31/14 A2982 1120 37 3200 260/05 RMK AO2
14926KSTC STC20120629155011106/29/12 15:50:31  5-MIN KSTC 292150Z 30007KT 10SM CLR 31/14 A2982 1120 35 3200 300/07 RMK AO2 SLP102 T03110144
14926KSTC STC20120629155509406/29/12 15:55:31  5-MIN KSTC 292155Z 30007KT 10SM CLR 31/14 A2982 1120 35 3200 300/07 RMK AO2
14926KSTC STC20120629160009406/29/12 16:00:31  5-MIN KSTC 292200Z 28005KT 10SM CLR 31/14 A2982 1120 34 3200 280/05 RMK AO2
14926KSTC STC20120629160509406/29/12 16:05:31  5-MIN KSTC 292205Z 28004KT 10SM CLR 31/14 A2982 1120 35 3200 280/04 RMK AO2
14926KSTC STC20120629161009406/29/12 16:10:31  5-MIN KSTC 292210Z 27006KT 10SM CLR 31/14 A2982 1120 37 3200 270/06 RMK AO2
14926KSTC STC20120629161509406/29/12 16:15:31  5-MIN KSTC 292215Z 27004KT 10SM CLR 31/14 A2982 1120 37 3200 260/04 RMK AO2
14926KSTC STC20120629162009406/29/12 16:20:31  5-MIN KSTC 292220Z 26006KT 10SM CLR 31/14 A2982 1120 37 3200 260/06 RMK AO2
14926KSTC STC20120629162509406/29/12 16:25:31  5-MIN KSTC 292225Z 27008KT 10SM CLR 31/14 A2982 1120 35 3200 270/08 RMK AO2
14926KSTC STC20120629163009406/29/12 16:30:31  5-MIN KSTC 292230Z 27007KT 10SM CLR 31/15 A2982 1120 37 3200 270/07 RMK AO2
14926KSTC STC20120629163509406/29/12 16:35:31  5-MIN KSTC 292235Z 28006KT 10SM CLR 31/15 A2982 1120 37 3200 280/06 RMK AO2
14926KSTC STC20120629164009406/29/12 16:40:31  5-MIN KSTC 292240Z 28006KT 10SM CLR 31/15 A2982 1120 37 3200 280/06 RMK AO2
14926KSTC STC20120629164509406/29/12 16:45:31  5-MIN KSTC 292245Z 28007KT 10SM CLR 31/15 A2982 1120 37 3200 270/07 RMK AO2
14926KSTC STC20120629165011106/29/12 16:50:31  5-MIN KSTC 292250Z 28006KT 10SM CLR 31/15 A2982 1120 37 3200 280/06 RMK AO2 SLP100 T03110150
14926KSTC STC20120629165509406/29/12 16:55:31  5-MIN KSTC 292255Z 28006KT 10SM CLR 31/15 A2982 1120 38 3200 280/06 RMK AO2
14926KSTC STC20120629170009406/29/12 17:00:31  5-MIN KSTC 292300Z 30007KT 10SM CLR 31/15 A2982 1120 38 3200 300/07 RMK AO2
14926KSTC STC20120629170509406/29/12 17:05:31  5-MIN KSTC 292305Z 31009KT 10SM CLR 31/14 A2981 1120 37 3200 310/09 RMK AO2
14926KSTC STC20120629171009406/29/12 17:10:31  5-MIN KSTC 292310Z 32007KT 10SM CLR 29/15 A2981 1130 41 3100 320/07 RMK AO2
14926KSTC STC20120629171509406/29/12 17:15:31  5-MIN KSTC 292315Z 32006KT 10SM CLR 29/15 A2981 1130 41 3100 320/06 RMK AO2
14926KSTC STC20120629172009406/29/12 17:20:31  5-MIN KSTC 292320Z 32007KT 10SM CLR 29/16 A2980 1130 42 3100 320/07 RMK AO2
14926KSTC STC20120629172509406/29/12 17:25:31  5-MIN KSTC 292325Z 31005KT 10SM CLR 29/16 A2980 1140 44 3100 310/05 RMK AO2
14926KSTC STC20120629173009406/29/12 17:30:31  5-MIN KSTC 292330Z 31005KT 10SM CLR 30/16 A2980 1140 41 3200 310/05 RMK AO2
14926KSTC STC20120629173509406/29/12 17:35:31  5-MIN KSTC 292335Z 32004KT 10SM CLR 29/16 A2980 1140 42 3100 320/04 RMK AO2
14926KSTC STC20120629174009406/29/12 17:40:31  5-MIN KSTC 292340Z 31004KT 10SM CLR 29/16 A2980 1140 44 3000 310/04 RMK AO2
14926KSTC STC20120629174509406/29/12 17:45:31  5-MIN KSTC 292345Z 32004KT 10SM CLR 29/16 A2979 1150 45 3000 320/04 RMK AO2
14926KSTC STC20120629175012906/29/12 17:50:31  5-MIN KSTC 292350Z 33004KT 10SM CLR 29/16 A2979 1150 42 3100 330/04 RMK AO2 SLP089 T02940156 10317 20289 56017
14926KSTC STC20120629175509406/29/12 17:55:31  5-MIN KSTC 292355Z 33003KT 10SM CLR 29/16 A2979 1150 44 3100 330/03 RMK AO2
14926KSTC STC20120629180009406/29/12 18:00:31  5-MIN KSTC 300000Z 00000KT 10SM CLR 29/17 A2978 1150 45 3100 000/00 RMK AO2
14926KSTC STC20120629180509406/29/12 18:05:31  5-MIN KSTC 300005Z 00000KT 10SM CLR 29/17 A2978 1150 45 3100 000/00 RMK AO2
14926KSTC STC20120629181009406/29/12 18:10:31  5-MIN KSTC 300010Z 00000KT 10SM CLR 29/17 A2978 1150 45 3100 000/00 RMK AO2
14926KSTC STC20120629181509406/29/12 18:15:31  5-MIN KSTC 300015Z 28004KT 10SM CLR 29/16 A2979 1150 44 3100 280/04 RMK AO2
14926KSTC STC20120629182009406/29/12 18:20:31  5-MIN KSTC 300020Z 27005KT 10SM CLR 29/16 A2979 1150 42 3100 270/05 RMK AO2
14926KSTC STC20120629182509406/29/12 18:25:31  5-MIN KSTC 300025Z 27005KT 10SM CLR 29/16 A2979 1150 44 3000 270/05 RMK AO2
14926KSTC STC20120629183009406/29/12 18:30:31  5-MIN KSTC 300030Z 28005KT 10SM CLR 29/16 A2979 1150 45 3000 280/05 RMK AO2
14926KSTC STC20120629183509406/29/12 18:35:31  5-MIN KSTC 300035Z 30006KT 10SM CLR 29/16 A2979 1150 44 3000 300/06 RMK AO2
14926KSTC STC20120629184009406/29/12 18:40:31  5-MIN KSTC 300040Z 29005KT 10SM CLR 29/15 A2979 1150 42 3000 290/05 RMK AO2
14926KSTC STC20120629184509406/29/12 18:45:31  5-MIN KSTC 300045Z 31004KT 10SM CLR 28/16 A2979 1150 45 3000 310/04 RMK AO2
14926KSTC STC20120629185011106/29/12 18:50:31  5-MIN KSTC 300050Z 30004KT 10SM CLR 28/16 A2979 1140 48 2900 300/04 RMK AO2 SLP090 T02780161
14926KSTC STC20120629185509406/29/12 18:55:31  5-MIN KSTC 300055Z 30004KT 10SM CLR 28/16 A2979 1150 48 2900 300/04 RMK AO2
14926KSTC STC20120629190009406/29/12 19:00:31  5-MIN KSTC 300100Z 29004KT 10SM CLR 27/16 A2979 1140 50 2800 290/04 RMK AO2
14926KSTC STC20120629190509406/29/12 19:05:31  5-MIN KSTC 300105Z 29003KT 10SM CLR 28/16 A2979 1150 46 2900 290/03 RMK AO2
14926KSTC STC20120629191009406/29/12 19:10:31  5-MIN KSTC 300110Z 28003KT 10SM CLR 27/16 A2979 1140 50 2800 280/03 RMK AO2
14926KSTC STC20120629191509406/29/12 19:15:31  5-MIN KSTC 300115Z 28003KT 10SM CLR 27/16 A2979 1140 52 2800 280/03 RMK AO2
14926KSTC STC20120629192009406/29/12 19:20:31  5-MIN KSTC 300120Z 00000KT 10SM CLR 26/17 A2980 1140 55 2700 000/00 RMK AO2
14926KSTC STC20120629192509406/29/12 19:25:31  5-MIN KSTC 300125Z 26003KT 10SM CLR 26/17 A2979 1140 55 2700 260/03 RMK AO2
14926KSTC STC20120629193009406/29/12 19:30:31  5-MIN KSTC 300130Z 24004KT 10SM CLR 26/17 A2980 1140 59 2700 240/04 RMK AO2
14926KSTC STC20120629193509406/29/12 19:35:31  5-MIN KSTC 300135Z 23004KT 10SM CLR 26/17 A2980 1140 57 2700 230/04 RMK AO2
14926KSTC STC20120629194009406/29/12 19:40:31  5-MIN KSTC 300140Z 23005KT 10SM CLR 26/17 A2980 1140 59 2700 230/05 RMK AO2
14926KSTC STC20120629194509406/29/12 19:45:31  5-MIN KSTC 300145Z 23004KT 10SM CLR 26/17 A2980 1140 59 2700 230/04 RMK AO2
14926KSTC STC20120629195011106/29/12 19:50:31  5-MIN KSTC 300150Z 24004KT 10SM CLR 25/18 A2980 1140 64 2600 240/04 RMK AO2 SLP092 T02500178
14926KSTC STC20120629195509406/29/12 19:55:31  5-MIN KSTC 300155Z 24003KT 10SM CLR 25/18 A2980 1140 64 2600 240/03 RMK AO2
14926KSTC STC20120629200009406/29/12 20:00:31  5-MIN KSTC 300200Z 25003KT 10SM CLR 25/18 A2980 1140 64 2600 250/03 RMK AO2
14926KSTC STC20120629200509406/29/12 20:05:31  5-MIN KSTC 300205Z 25003KT 10SM CLR 24/18 A2980 1140 66 2500 250/03 RMK AO2
14926KSTC STC20120629201009406/29/12 20:10:31  5-MIN KSTC 300210Z 00000KT 10SM CLR 24/18 A2980 1140 68 2500 000/00 RMK AO2
14926KSTC STC20120629201509406/29/12 20:15:31  5-MIN KSTC 300215Z 00000KT 10SM CLR 23/18 A2980 1140 70 2400 000/00 RMK AO2
14926KSTC STC20120629202009406/29/12 20:20:31  5-MIN KSTC 300220Z 00000KT 10SM CLR 23/18 A2980 1140 73 2300 000/00 RMK AO2
14926KSTC STC20120629202509406/29/12 20:25:31  5-MIN KSTC 300225Z 00000KT 10SM CLR 23/18 A2980 1140 73 2300 000/00 RMK AO2
14926KSTC STC20120629203009406/29/12 20:30:31  5-MIN KSTC 300230Z 00000KT 10SM CLR 22/18 A2981 1130 75 2300 000/00 RMK AO2
14926KSTC STC20120629203509406/29/12 20:35:31  5-MIN KSTC 300235Z 00000KT 10SM CLR 22/18 A2981 1130 75 2300 000/00 RMK AO2
14926KSTC STC20120629204009406/29/12 20:40:31  5-MIN KSTC 300240Z 00000KT 10SM CLR 22/18 A2981 1130 75 2300 000/00 RMK AO2
14926KSTC STC20120629204509406/29/12 20:45:31  5-MIN KSTC 300245Z 00000KT 10SM CLR 22/18 A2981 1130 78 2300 000/00 RMK AO2
14926KSTC STC20120629205011706/29/12 20:50:31  5-MIN KSTC 300250Z 00000KT 10SM CLR 22/18 A2981 1130 75 2300 000/00 RMK AO2 SLP095 T02220178 58015
14926KSTC STC20120629205509406/29/12 20:55:31  5-MIN KSTC 300255Z 00000KT 10SM CLR 21/18 A2981 1130 81 2100 000/00 RMK AO2
14926KSTC STC20120629210009406/29/12 21:00:31  5-MIN KSTC 300300Z 00000KT 10SM CLR 22/18 A2981 1120 78 2200 000/00 RMK AO2
14926KSTC STC20120629210509406/29/12 21:05:31  5-MIN KSTC 300305Z 00000KT 10SM CLR 22/18 A2981 1120 78 2200 000/00 RMK AO2
14926KSTC STC20120629211009406/29/12 21:10:31  5-MIN KSTC 300310Z 18003KT 10SM CLR 22/18 A2982 1120 78 2200 180/03 RMK AO2
14926KSTC STC20120629211509406/29/12 21:15:31  5-MIN KSTC 300315Z 20003KT 10SM CLR 21/18 A2982 1120 81 2100 200/03 RMK AO2
14926KSTC STC20120629212009406/29/12 21:20:31  5-MIN KSTC 300320Z 00000KT 10SM CLR 21/18 A2982 1120 81 2100 000/00 RMK AO2
14926KSTC STC20120629212509406/29/12 21:25:31  5-MIN KSTC 300325Z 00000KT 10SM CLR 22/18 A2981 1120 78 2200 000/00 RMK AO2
14926KSTC STC20120629213009406/29/12 21:30:31  5-MIN KSTC 300330Z 00000KT 10SM CLR 22/18 A2982 1120 81 2200 000/00 RMK AO2
14926KSTC STC20120629213509406/29/12 21:35:31  5-MIN KSTC 300335Z 00000KT 10SM CLR 21/18 A2982 1120 84 2100 000/00 RMK AO2
14926KSTC STC20120629214009406/29/12 21:40:31  5-MIN KSTC 300340Z 00000KT 10SM CLR 21/18 A2981 1120 84 2100 000/00 RMK AO2
14926KSTC STC20120629214509406/29/12 21:45:31  5-MIN KSTC 300345Z 00000KT 10SM CLR 21/18 A2981 1130 84 2100 000/00 RMK AO2
14926KSTC STC20120629215011106/29/12 21:50:31  5-MIN KSTC 300350Z 00000KT 10SM CLR 21/18 A2981 1130 84 2100 000/00 RMK AO2 SLP096 T02060178
14926KSTC STC20120629215509406/29/12 21:55:31  5-MIN KSTC 300355Z 00000KT 10SM CLR 20/18 A2981 1130 87 2000 000/00 RMK AO2
14926KSTC STC20120629220009906/29/12 22:00:31  5-MIN KSTC 300400Z AUTO 00000KT 10SM CLR 20/18 A2981 1130 87 2000 000/00 RMK AO2
14926KSTC STC20120629220509906/29/12 22:05:31  5-MIN KSTC 300405Z AUTO 00000KT 10SM CLR 20/18 A2981 1130 87 2000 000/00 RMK AO2
14926KSTC STC20120629221009906/29/12 22:10:31  5-MIN KSTC 300410Z AUTO 00000KT 10SM CLR 20/18 A2981 1130 87 2000 000/00 RMK AO2
14926KSTC STC20120629221509906/29/12 22:15:31  5-MIN KSTC 300415Z AUTO 00000KT 10SM CLR 21/18 A2981 1130 84 2100 000/00 RMK AO2
14926KSTC STC20120629222009906/29/12 22:20:31  5-MIN KSTC 300420Z AUTO 00000KT 10SM CLR 20/18 A2981 1120 87 2000 000/00 RMK AO2
14926KSTC STC20120629222509906/29/12 22:25:31  5-MIN KSTC 300425Z AUTO 00000KT 10SM CLR 20/18 A2982 1120 87 2000 000/00 RMK AO2
14926KSTC STC20120629223009906/29/12 22:30:31  5-MIN KSTC 300430Z AUTO 00000KT 10SM CLR 20/18 A2982 1120 87 2000 000/00 RMK AO2
14926KSTC STC20120629223509906/29/12 22:35:31  5-MIN KSTC 300435Z AUTO 34003KT 10SM CLR 19/17 A2982 1120 87 1900 330/03 RMK AO2
14926KSTC STC20120629224009906/29/12 22:40:31  5-MIN KSTC 300440Z AUTO 33003KT 10SM CLR 19/18 A2982 1120 90 1900 330/03 RMK AO2
14926KSTC STC20120629224509906/29/12 22:45:31  5-MIN KSTC 300445Z AUTO 33003KT 10SM CLR 19/17 A2982 1120 90 1900 330/03 RMK AO2
14926KSTC STC20120629225011606/29/12 22:50:31  5-MIN KSTC 300450Z AUTO 33003KT 10SM CLR 19/17 A2982 1120 87 1900 330/03 RMK AO2 SLP100 T01940172
14926KSTC STC20120629225509906/29/12 22:55:31  5-MIN KSTC 300455Z AUTO 00000KT 10SM CLR 19/17 A2982 1120 87 1900 000/00 RMK AO2
14926KSTC STC20120629230009906/29/12 23:00:31  5-MIN KSTC 300500Z AUTO 00000KT 10SM CLR 19/17 A2982 1120 87 1900 000/00 RMK AO2
14926KSTC STC20120629230509906/29/12 23:05:31  5-MIN KSTC 300505Z AUTO 00000KT 10SM CLR 19/17 A2982 1120 87 1900 000/00 RMK AO2
14926KSTC STC20120629231009906/29/12 23:10:31  5-MIN KSTC 300510Z AUTO 00000KT 10SM CLR 20/18 A2982 1120 87 2000 000/00 RMK AO2
14926KSTC STC20120629231509906/29/12 23:15:31  5-MIN KSTC 300515Z AUTO 00000KT 10SM CLR 20/18 A2982 1120 87 2000 000/00 RMK AO2
14926KSTC STC20120629232009906/29/12 23:20:31  5-MIN KSTC 300520Z AUTO 00000KT 10SM CLR 19/18 A2982 1120 90 1900 000/00 RMK AO2
14926KSTC STC20120629232509906/29/12 23:25:31  5-MIN KSTC 300525Z AUTO 00000KT 10SM CLR 19/17 A2982 1120 90 1900 000/00 RMK AO2
14926KSTC STC20120629233009906/29/12 23:30:31  5-MIN KSTC 300530Z AUTO 00000KT 10SM CLR 19/18 A2982 1120 90 1900 000/00 RMK AO2
14926KSTC STC20120629233509906/29/12 23:35:31  5-MIN KSTC 300535Z AUTO 36003KT 10SM CLR 19/18 A2982 1120 90 1900 360/03 RMK AO2
14926KSTC STC20120629234009906/29/12 23:40:31  5-MIN KSTC 300540Z AUTO 00000KT 10SM CLR 19/17 A2982 1120 90 1900 000/00 RMK AO2
14926KSTC STC20120629234509906/29/12 23:45:31  5-MIN KSTC 300545Z AUTO 00000KT 10SM CLR 18/17 A2983 1110 90 1800 000/00 RMK AO2
14926KSTC STC20120629235014406/29/12 23:50:31  5-MIN KSTC 300550Z AUTO 00000KT 10SM CLR 18/17 A2983 1110 90 1800 000/00 RMK AO2 SLP102 T01830167 10300 20183 403170128 53008
14926KSTC STC20120629235509906/29/12 23:55:31  5-MIN KSTC 300555Z AUTO 00000KT 10SM CLR 19/17 A2983 1110 90 1900 000/00 RMK AO2
14926KSTC STC20120630000009906/30/12 00:00:32  5-MIN KSTC 300600Z AUTO 00000KT 10SM CLR 19/17 A2983 1110 90 1900 000/00 RMK AO2
14926KSTC STC20120630000509906/30/12 00:05:31  5-MIN KSTC 300605Z AUTO 00000KT 10SM CLR 19/17 A2982 1120 90 1900 000/00 RMK AO2
14926KSTC STC20120630001009906/30/12 00:10:31  5-MIN KSTC 300610Z AUTO 00000KT 10SM CLR 18/17 A2982 1120 90 1800 000/00 RMK AO2
14926KSTC STC20120630001509906/30/12 00:15:31  5-MIN KSTC 300615Z AUTO 00000KT 10SM CLR 18/17 A2983 1110 90 1800 000/00 RMK AO2
14926KSTC STC20120630002009906/30/12 00:20:31  5-MIN KSTC 300620Z AUTO 00000KT 10SM CLR 19/17 A2982 1120 90 1900 000/00 RMK AO2
14926KSTC STC20120630002509906/30/12 00:25:31  5-MIN KSTC 300625Z AUTO 00000KT 10SM CLR 19/17 A2982 1120 90 1900 000/00 RMK AO2
14926KSTC STC20120630003009906/30/12 00:30:31  5-MIN KSTC 300630Z AUTO 00000KT 10SM CLR 19/17 A2982 1120 90 1900 000/00 RMK AO2
14926KSTC STC20120630003509906/30/12 00:35:31  5-MIN KSTC 300635Z AUTO 00000KT 10SM CLR 19/17 A2983 1110 90 1900 000/00 RMK AO2
14926KSTC STC20120630004009906/30/12 00:40:31  5-MIN KSTC 300640Z AUTO 00000KT 10SM CLR 19/17 A2983 1110 87 1900 000/00 RMK AO2
14926KSTC STC20120630004509906/30/12 00:45:31  5-MIN KSTC 300645Z AUTO 00000KT 10SM CLR 18/17 A2983 1110 90 1800 000/00 RMK AO2
14926KSTC STC20120630005011606/30/12 00:50:31  5-MIN KSTC 300650Z AUTO 00000KT 10SM CLR 18/17 A2983 1110 90 1800 000/00 RMK AO2 SLP102 T01830167
14926KSTC STC20120630005509906/30/12 00:55:31  5-MIN KSTC 300655Z AUTO 00000KT 10SM CLR 18/17 A2983 1110 93 1700 000/00 RMK AO2
14926KSTC STC20120630010009906/30/12 01:00:31  5-MIN KSTC 300700Z AUTO 00000KT 10SM CLR 17/17 A2983 1110 96 1700 000/00 RMK AO2
14926KSTC STC20120630010509906/30/12 01:05:31  5-MIN KSTC 300705Z AUTO 00000KT 10SM CLR 18/17 A2983 1110 93 1700 000/00 RMK AO2
14926KSTC STC20120630011009906/30/12 01:10:31  5-MIN KSTC 300710Z AUTO 00000KT 10SM CLR 18/17 A2983 1110 93 1700 000/00 RMK AO2
14926KSTC STC20120630011509906/30/12 01:15:31  5-MIN KSTC 300715Z AUTO 00000KT 10SM CLR 18/17 A2983 1110 93 1700 000/00 RMK AO2
14926KSTC STC20120630012009906/30/12 01:20:31  5-MIN KSTC 300720Z AUTO 00000KT 10SM CLR 18/17 A2983 1110 93 1700 000/00 RMK AO2
14926KSTC STC20120630012509906/30/12 01:25:31  5-MIN KSTC 300725Z AUTO 00000KT 10SM CLR 18/17 A2983 1110 93 1700 000/00 RMK AO2
14926KSTC STC20120630013009906/30/12 01:30:31  5-MIN KSTC 300730Z AUTO 00000KT 10SM CLR 17/17 A2983 1110 96 1700 000/00 RMK AO2
14926KSTC STC20120630013509806/30/12 01:35:31  5-MIN KSTC 300735Z AUTO 00000KT 9SM CLR 17/17 A2983 1110 96 1700 000/00 RMK AO2
14926KSTC STC20120630014009806/30/12 01:40:31  5-MIN KSTC 300740Z AUTO 00000KT 8SM CLR 17/16 A2983 1110 93 1700 000/00 RMK AO2
14926KSTC STC20120630014509806/30/12 01:45:31  5-MIN KSTC 300745Z AUTO 00000KT 7SM CLR 17/16 A2983 1110 93 1700 000/00 RMK AO2
14926KSTC STC20120630015011506/30/12 01:50:31  5-MIN KSTC 300750Z AUTO 00000KT 7SM CLR 18/17 A2983 1110 93 1700 000/00 RMK AO2 SLP102 T01780167
14926KSTC STC20120630015509806/30/12 01:55:31  5-MIN KSTC 300755Z AUTO 00000KT 8SM CLR 17/16 A2983 1110 93 1700 000/00 RMK AO2
14926KSTC STC20120630020009806/30/12 02:00:31  5-MIN KSTC 300800Z AUTO 00000KT 7SM CLR 17/16 A2983 1110 93 1700 000/00 RMK AO2
14926KSTC STC20120630020510106/30/12 02:05:31  5-MIN KSTC 300805Z AUTO 00000KT 3SM BR CLR 17/16 A2983 1110 96 1600 000/00 RMK AO2
14926KSTC STC20120630021010306/30/12 02:10:31  5-MIN KSTC 300810Z AUTO 00000KT 1/2SM FG CLR 17/16 A2983 1110 96 1600 000/00 RMK AO2
14926KSTC STC20120630021510306/30/12 02:15:31  5-MIN KSTC 300815Z AUTO 00000KT 1/4SM FG CLR 17/16 A2983 1110 96 1600 000/00 RMK AO2
14926KSTC STC20120630022010306/30/12 02:20:31  5-MIN KSTC 300820Z AUTO 00000KT 1/4SM FG CLR 17/16 A2983 1110 96 1600 000/00 RMK AO2
14926KSTC STC20120630022510306/30/12 02:25:31  5-MIN KSTC 300825Z AUTO 00000KT 1/2SM FG CLR 16/16 A2983 1110 96 1500 000/00 RMK AO2
14926KSTC STC20120630023010306/30/12 02:30:31  5-MIN KSTC 300830Z AUTO 00000KT 1/4SM FG CLR 17/16 A2983 1110 93 1600 000/00 RMK AO2
14926KSTC STC20120630023510306/30/12 02:35:31  5-MIN KSTC 300835Z AUTO 00000KT 1/4SM FG CLR 17/16 A2983 1110 96 1600 000/00 RMK AO2
14926KSTC STC20120630024011306/30/12 02:40:31  5-MIN KSTC 300840Z AUTO 00000KT 1/2SM FG CLR 17/16 A2983 1110 96 1600 000/00 RMK AO2 VIS 1/4V3
14926KSTC STC20120630024511706/30/12 02:45:31  5-MIN KSTC 300845Z AUTO 00000KT 2 1/2SM BR CLR 17/16 A2983 1110 96 1600 000/00 RMK AO2 VIS 1 1/2V5
14926KSTC STC20120630025011306/30/12 02:50:31  5-MIN KSTC 300850Z AUTO 00000KT 3/4SM BR CLR 16/15 A2983 1110 96 1500 000/00 RMK AO2 VIS 1/4V5
14926KSTC STC20120630025510306/30/12 02:55:31  5-MIN KSTC 300855Z AUTO 00000KT 1/2SM FG CLR 16/15 A2983 1110 96 1500 000/00 RMK AO2
14926KSTC STC20120630030010306/30/12 03:00:31  5-MIN KSTC 300900Z AUTO 00000KT 1/2SM FG CLR 16/16 A2983 1110 96 1500 000/00 RMK AO2
14926KSTC STC20120630030510306/30/12 03:05:31  5-MIN KSTC 300905Z AUTO 00000KT 1/2SM FG CLR 16/16 A2983 1110 96 1500 000/00 RMK AO2
14926KSTC STC20120630031010306/30/12 03:10:31  5-MIN KSTC 300910Z AUTO 00000KT 1/4SM FG CLR 16/16 A2983 1110 96 1500 000/00 RMK AO2
14926KSTC STC20120630031510606/30/12 03:15:31  5-MIN KSTC 300915Z AUTO 00000KT 1/4SM FG VV002 16/16 A2983 1110 100 1500 000/00 RMK AO2
14926KSTC STC20120630032010506/30/12 03:20:31  5-MIN KSTC 300920Z AUTO 00000KT 1/4SM FG VV002 17/16 A2984 1100 96 1600 000/00 RMK AO2
14926KSTC STC20120630032510506/30/12 03:25:31  5-MIN KSTC 300925Z AUTO 00000KT 1/2SM FG VV002 17/16 A2984 1100 96 1600 000/00 RMK AO2
14926KSTC STC20120630033010206/30/12 03:30:31  5-MIN KSTC 300930Z AUTO 00000KT 1SM BR CLR 16/16 A2984 1100 100 1500 000/00 RMK AO2
14926KSTC STC20120630033510506/30/12 03:35:31  5-MIN KSTC 300935Z AUTO 00000KT 1/2SM FG VV002 16/15 A2984 1110 96 1500 000/00 RMK AO2
14926KSTC STC20120630034010606/30/12 03:40:31  5-MIN KSTC 300940Z AUTO 00000KT 1/4SM FG VV002 15/15 A2984 1100 100 1400 000/00 RMK AO2
14926KSTC STC20120630034510506/30/12 03:45:31  5-MIN KSTC 300945Z AUTO 00000KT 1/4SM FG VV002 16/15 A2984 1100 93 1500 000/00 RMK AO2
14926KSTC STC20120630035012206/30/12 03:50:31  5-MIN KSTC 300950Z AUTO 00000KT 1/4SM FG VV002 16/15 A2984 1100 96 1500 000/00 RMK AO2 SLP108 T01560150
14926KSTC STC20120630035510506/30/12 03:55:31  5-MIN KSTC 300955Z AUTO 00000KT 1/4SM FG VV002 16/16 A2984 1100 96 1500 000/00 RMK AO2
14926KSTC STC20120630040010506/30/12 04:00:31  5-MIN KSTC 301000Z AUTO 00000KT 1/2SM FG VV002 16/15 A2984 1100 96 1500 000/00 RMK AO2
14926KSTC STC20120630040510506/30/12 04:05:31  5-MIN KSTC 301005Z AUTO 00000KT 1/2SM FG VV002 16/15 A2984 1100 96 1500 000/00 RMK AO2
14926KSTC STC20120630041010306/30/12 04:10:31  5-MIN KSTC 301010Z AUTO 00000KT 1/4SM FG CLR 16/15 A2984 1100 96 1500 000/00 RMK AO2
14926KSTC STC20120630041510406/30/12 04:15:31  5-MIN KSTC 301015Z AUTO 00000KT 1/4SM FG CLR 16/16 A2984 1100 100 1500 000/00 RMK AO2
14926KSTC STC20120630042010306/30/12 04:20:31  5-MIN KSTC 301020Z AUTO 00000KT 1/4SM FG CLR 16/16 A2984 1100 96 1500 000/00 RMK AO2
14926KSTC STC20120630042510506/30/12 04:25:31  5-MIN KSTC 301025Z AUTO 00000KT 1/4SM FG VV002 16/16 A2984 1100 96 1500 000/00 RMK AO2
14926KSTC STC20120630043010606/30/12 04:30:31  5-MIN KSTC 301030Z AUTO 33003KT M1/4SM FG VV002 16/16 A2985 1100 96 1500 330/03 RMK AO2
14926KSTC STC20120630043510506/30/12 04:35:31  5-MIN KSTC 301035Z AUTO 34003KT 1/4SM FG VV002 16/16 A2985 1100 96 1500 340/03 RMK AO2
14926KSTC STC20120630044010506/30/12 04:40:31  5-MIN KSTC 301040Z AUTO 00000KT 1/2SM FG VV002 17/16 A2985 1090 96 1600 000/00 RMK AO2
14926KSTC STC20120630044510306/30/12 04:45:31  5-MIN KSTC 301045Z AUTO 00000KT 1SM BR VV002 17/17 A2985 1100 96 1600 000/00 RMK AO2
14926KSTC STC20120630045010806/30/12 04:50:31  5-MIN KSTC 301050Z AUTO 00000KT 1 3/4SM BR FEW002 17/17 A2984 1100 96 1700 000/00 RMK AO2
14926KSTC STC20120630045510406/30/12 04:55:31  5-MIN KSTC 301055Z AUTO 00000KT 3SM BR FEW002 17/17 A2984 1100 96 1700 000/00 RMK AO2
14926KSTC STC20120630050010506/30/12 05:00:31  5-MIN KSTC 301100Z AUTO 00000KT 2 1/2SM BR CLR 17/16 A2985 1100 96 1600 000/00 RMK AO2
14926KSTC STC20120630050510506/30/12 05:05:31  5-MIN KSTC 301105Z AUTO 00000KT 1 1/4SM BR CLR 17/16 A2985 1100 96 1600 000/00 RMK AO2
14926KSTC STC20120630051010306/30/12 05:10:31  5-MIN KSTC 301110Z AUTO 34003KT 1/2SM FG CLR 17/16 A2985 1090 96 1600 330/03 RMK AO2
14926KSTC STC20120630051510306/30/12 05:15:31  5-MIN KSTC 301115Z AUTO 34003KT 3/4SM BR CLR 17/16 A2985 1090 96 1600 340/03 RMK AO2
14926KSTC STC20120630052010106/30/12 05:20:31  5-MIN KSTC 301120Z AUTO 00000KT 3SM BR CLR 17/17 A2985 1090 96 1600 000/00 RMK AO2
14926KSTC STC20120630052510106/30/12 05:25:31  5-MIN KSTC 301125Z AUTO 00000KT 4SM BR CLR 17/17 A2985 1090 96 1600 000/00 RMK AO2
14926KSTC STC20120630053010106/30/12 05:30:31  5-MIN KSTC 301130Z AUTO 33003KT 5SM BR CLR 18/17 A2985 1090 93 1700 330/03 RMK AO2
14926KSTC STC20120630053509806/30/12 05:35:31  5-MIN KSTC 301135Z AUTO 33003KT 7SM CLR 18/17 A2985 1090 93 1700 330/03 RMK AO2
14926KSTC STC20120630054009806/30/12 05:40:31  5-MIN KSTC 301140Z AUTO 00000KT 7SM CLR 18/17 A2986 1090 96 1700 000/00 RMK AO2
14926KSTC STC20120630054509806/30/12 05:45:31  5-MIN KSTC 301145Z AUTO 00000KT 7SM CLR 18/17 A2986 1080 96 1700 000/00 RMK AO2
14926KSTC STC20120630055012806/30/12 05:50:31  5-MIN KSTC 301150Z 00000KT 8SM CLR 18/17 A2986 1080 93 1800 000/00 RMK AO2 SLP114 T01830172 10189 20150 53002
14926KSTC STC20120630055509306/30/12 05:55:31  5-MIN KSTC 301155Z 00000KT 9SM CLR 18/18 A2986 1080 96 1800 000/00 RMK AO2
14926KSTC STC20120630060009306/30/12 06:00:31  5-MIN KSTC 301200Z 00000KT 9SM CLR 18/18 A2987 1080 96 1800 000/00 RMK AO2
14926KSTC STC20120630060509306/30/12 06:05:31  5-MIN KSTC 301205Z 00000KT 9SM CLR 19/18 A2987 1080 93 1800 000/00 RMK AO2
14926KSTC STC20120630061009406/30/12 06:10:31  5-MIN KSTC 301210Z 00000KT 10SM CLR 19/18 A2987 1080 93 1800 000/00 RMK AO2
14926KSTC STC20120630061509406/30/12 06:15:31  5-MIN KSTC 301215Z 00000KT 10SM CLR 19/18 A2987 1070 93 1800 000/00 RMK AO2
14926KSTC STC20120630062009406/30/12 06:20:31  5-MIN KSTC 301220Z 00000KT 10SM CLR 20/18 A2987 1070 87 1900 000/00 RMK AO2
14926KSTC STC20120630062509406/30/12 06:25:31  5-MIN KSTC 301225Z 00000KT 10SM CLR 21/18 A2987 1070 84 2000 000/00 RMK AO2
14926KSTC STC20120630063009406/30/12 06:30:31  5-MIN KSTC 301230Z 00000KT 10SM CLR 21/18 A2988 1070 81 2100 000/00 RMK AO2
14926KSTC STC20120630063509406/30/12 06:35:31  5-MIN KSTC 301235Z 00000KT 10SM CLR 21/18 A2988 1070 81 2100 000/00 RMK AO2
14926KSTC STC20120630064009406/30/12 06:40:31  5-MIN KSTC 301240Z 00000KT 10SM CLR 21/18 A2988 1070 81 2100 000/00 RMK AO2
14926KSTC STC20120630064509406/30/12 06:45:31  5-MIN KSTC 301245Z 00000KT 10SM CLR 22/17 A2987 1070 75 2100 000/00 RMK AO2
14926KSTC STC20120630065011106/30/12 06:50:31  5-MIN KSTC 301250Z 00000KT 10SM CLR 22/17 A2987 1070 75 2100 000/00 RMK AO2 SLP117 T02170172
14926KSTC STC20120630065509406/30/12 06:55:31  5-MIN KSTC 301255Z 35003KT 10SM CLR 22/17 A2987 1070 75 2100 350/03 RMK AO2
14926KSTC STC20120630070009406/30/12 07:00:31  5-MIN KSTC 301300Z 01003KT 10SM CLR 22/17 A2987 1070 70 2200 010/03 RMK AO2
14926KSTC STC20120630070509406/30/12 07:05:31  5-MIN KSTC 301305Z 00000KT 10SM CLR 22/17 A2988 1060 70 2200 000/00 RMK AO2
14926KSTC STC20120630071009406/30/12 07:10:31  5-MIN KSTC 301310Z 00000KT 10SM CLR 23/17 A2988 1060 68 2200 000/00 RMK AO2
14926KSTC STC20120630071509406/30/12 07:15:31  5-MIN KSTC 301315Z 00000KT 10SM CLR 23/17 A2988 1060 68 2200 000/00 RMK AO2
14926KSTC STC20120630072009406/30/12 07:20:31  5-MIN KSTC 301320Z 00000KT 10SM CLR 23/17 A2989 1060 66 2300 000/00 RMK AO2
14926KSTC STC20120630072509406/30/12 07:25:31  5-MIN KSTC 301325Z 02004KT 10SM CLR 23/17 A2989 1060 66 2300 020/04 RMK AO2
14926KSTC STC20120630073009406/30/12 07:30:31  5-MIN KSTC 301330Z 01005KT 10SM CLR 23/16 A2989 1060 61 2300 010/05 RMK AO2
14926KSTC STC20120630073509406/30/12 07:35:31  5-MIN KSTC 301335Z 36007KT 10SM CLR 24/16 A2989 1060 59 2400 360/07 RMK AO2
14926KSTC STC20120630074009406/30/12 07:40:31  5-MIN KSTC 301340Z 01005KT 10SM CLR 24/16 A2989 1060 59 2400 010/05 RMK AO2
14926KSTC STC20120630074509406/30/12 07:45:31  5-MIN KSTC 301345Z 02004KT 10SM CLR 24/16 A2989 1050 59 2400 020/04 RMK AO2
14926KSTC STC20120630075011106/30/12 07:50:31  5-MIN KSTC 301350Z 36005KT 10SM CLR 24/16 A2989 1050 57 2400 360/05 RMK AO2 SLP123 T02440156
14926KSTC STC20120630075509406/30/12 07:55:31  5-MIN KSTC 301355Z 36004KT 10SM CLR 24/16 A2989 1060 57 2400 360/04 RMK AO2
14926KSTC STC20120630080009406/30/12 08:00:31  5-MIN KSTC 301400Z 36004KT 10SM CLR 25/16 A2988 1060 55 2500 360/04 RMK AO2
14926KSTC STC20120630080509406/30/12 08:05:31  5-MIN KSTC 301405Z VRB04KT 10SM CLR 25/16 A2988 1060 55 2500 VRB/04 RMK AO2
14926KSTC STC20120630081009406/30/12 08:10:31  5-MIN KSTC 301410Z 05004KT 10SM CLR 25/16 A2988 1070 55 2500 050/04 RMK AO2
14926KSTC STC20120630081509406/30/12 08:15:31  5-MIN KSTC 301415Z 04003KT 10SM CLR 25/16 A2987 1070 55 2500 040/03 RMK AO2
14926KSTC STC20120630082009406/30/12 08:20:31  5-MIN KSTC 301420Z 02004KT 10SM CLR 26/16 A2988 1070 53 2600 020/04 RMK AO2
14926KSTC STC20120630082509406/30/12 08:25:31  5-MIN KSTC 301425Z 06004KT 10SM CLR 26/15 A2988 1060 51 2600 060/04 RMK AO2
14926KSTC STC20120630083009406/30/12 08:30:31  5-MIN KSTC 301430Z VRB05KT 10SM CLR 26/14 A2988 1060 49 2600 VRB/05 RMK AO2
14926KSTC STC20120630083509406/30/12 08:35:31  5-MIN KSTC 301435Z 05005KT 10SM CLR 26/14 A2988 1060 48 2600 050/05 RMK AO2
14926KSTC STC20120630084009406/30/12 08:40:31  5-MIN KSTC 301440Z 06005KT 10SM CLR 26/14 A2987 1070 46 2600 060/05 RMK AO2
14926KSTC STC20120630084509406/30/12 08:45:31  5-MIN KSTC 301445Z 05005KT 10SM CLR 26/14 A2987 1070 46 2600 050/05 RMK AO2
14926KSTC STC20120630085011706/30/12 08:50:31  5-MIN KSTC 301450Z 03005KT 10SM CLR 27/14 A2988 1070 46 2700 030/05 RMK AO2 SLP119 T02670144 53010
14926KSTC STC20120630085509406/30/12 08:55:31  5-MIN KSTC 301455Z 03005KT 10SM CLR 27/14 A2988 1070 46 2700 030/05 RMK AO2
14926KSTC STC20120630090009406/30/12 09:00:31  5-MIN KSTC 301500Z VRB05KT 10SM CLR 27/14 A2988 1070 43 2800 VRB/05 RMK AO2
14926KSTC STC20120630090509406/30/12 09:05:31  5-MIN KSTC 301505Z VRB04KT 10SM CLR 27/13 A2988 1070 42 2800 VRB/04 RMK AO2
14926KSTC STC20120630091009406/30/12 09:10:31  5-MIN KSTC 301510Z 04005KT 10SM CLR 27/14 A2988 1070 43 2800 040/05 RMK AO2
14926KSTC STC20120630091509406/30/12 09:15:31  5-MIN KSTC 301515Z 02005KT 10SM CLR 28/13 A2988 1060 40 2800 020/05 RMK AO2
14926KSTC STC20120630092009406/30/12 09:20:31  5-MIN KSTC 301520Z 07004KT 10SM CLR 28/13 A2988 1060 40 2800 060/04 RMK AO2
14926KSTC STC20120630092509406/30/12 09:25:31  5-MIN KSTC 301525Z VRB05KT 10SM CLR 28/13 A2988 1060 40 2800 VRB/05 RMK AO2
14926KSTC STC20120630093009406/30/12 09:30:31  5-MIN KSTC 301530Z VRB04KT 10SM CLR 27/13 A2988 1070 42 2800 VRB/04 RMK AO2
14926KSTC STC20120630093509406/30/12 09:35:31  5-MIN KSTC 301535Z 00000KT 10SM CLR 28/13 A2988 1070 40 2800 000/00 RMK AO2
14926KSTC STC20120630094009406/30/12 09:40:31  5-MIN KSTC 301540Z 04006KT 10SM CLR 28/12 A2988 1070 36 2900 040/06 RMK AO2
14926KSTC STC20120630094509406/30/12 09:45:31  5-MIN KSTC 301545Z 00000KT 10SM CLR 28/12 A2988 1070 37 2800 000/00 RMK AO2
14926KSTC STC20120630095011106/30/12 09:50:31  5-MIN KSTC 301550Z VRB04KT 10SM CLR 28/12 A2988 1070 36 2900 VRB/04 RMK AO2 SLP119 T02830122
14926KSTC STC20120630095509406/30/12 09:55:31  5-MIN KSTC 301555Z 36005KT 10SM CLR 28/12 A2988 1070 36 2900 360/05 RMK AO2
14926KSTC STC20120630100009406/30/12 10:00:31  5-MIN KSTC 301600Z 02003KT 10SM CLR 28/13 A2988 1060 37 2900 020/03 RMK AO2
14926KSTC STC20120630100509406/30/12 10:05:31  5-MIN KSTC 301605Z 08004KT 10SM CLR 29/13 A2988 1070 36 2900 070/04 RMK AO2
14926KSTC STC20120630101009406/30/12 10:10:31  5-MIN KSTC 301610Z 00000KT 10SM CLR 28/12 A2988 1070 36 2900 000/00 RMK AO2
14926KSTC STC20120630101509406/30/12 10:15:31  5-MIN KSTC 301615Z 34004KT 10SM CLR 29/13 A2988 1060 38 2900 340/04 RMK AO2
14926KSTC STC20120630102009406/30/12 10:20:31  5-MIN KSTC 301620Z 00000KT 10SM CLR 29/13 A2988 1060 36 2900 000/00 RMK AO2
14926KSTC STC20120630102509406/30/12 10:25:31  5-MIN KSTC 301625Z 00000KT 10SM CLR 29/13 A2988 1060 36 2900 000/00 RMK AO2
14926KSTC STC20120630103009406/30/12 10:30:31  5-MIN KSTC 301630Z 00000KT 10SM CLR 28/12 A2988 1060 36 2900 000/00 RMK AO2
14926KSTC STC20120630103509406/30/12 10:35:31  5-MIN KSTC 301635Z 09005KT 10SM CLR 29/13 A2989 1060 36 2900 090/05 RMK AO2
14926KSTC STC20120630104009406/30/12 10:40:31  5-MIN KSTC 301640Z VRB04KT 10SM CLR 29/13 A2988 1060 36 2900 VRB/04 RMK AO2
14926KSTC STC20120630104509406/30/12 10:45:31  5-MIN KSTC 301645Z 32003KT 10SM CLR 29/13 A2989 1060 36 2900 320/03 RMK AO2
14926KSTC STC20120630105011106/30/12 10:50:31  5-MIN KSTC 301650Z 32005KT 10SM CLR 29/13 A2989 1060 36 2900 320/05 RMK AO2 SLP122 T02890128
14926KSTC STC20120630105509406/30/12 10:55:31  5-MIN KSTC 301655Z 34006KT 10SM CLR 29/13 A2988 1060 36 2900 340/06 RMK AO2
14926KSTC STC20120630110009406/30/12 11:00:31  5-MIN KSTC 301700Z 00000KT 10SM CLR 29/13 A2988 1060 36 2900 000/00 RMK AO2
14926KSTC STC20120630110509406/30/12 11:05:31  5-MIN KSTC 301705Z VRB04KT 10SM CLR 29/13 A2988 1060 36 2900 VRB/04 RMK AO2
14926KSTC STC20120630111009406/30/12 11:10:31  5-MIN KSTC 301710Z VRB04KT 10SM CLR 29/13 A2988 1060 35 3000 VRB/04 RMK AO2
14926KSTC STC20120630111509406/30/12 11:15:31  5-MIN KSTC 301715Z 33003KT 10SM CLR 29/13 A2988 1060 35 3000 330/03 RMK AO2
14926KSTC STC20120630112009406/30/12 11:20:31  5-MIN KSTC 301720Z 00000KT 10SM CLR 29/13 A2989 1060 35 3000 000/00 RMK AO2
14926KSTC STC20120630112509406/30/12 11:25:31  5-MIN KSTC 301725Z VRB04KT 10SM CLR 29/13 A2989 1050 36 3000 VRB/04 RMK AO2
14926KSTC STC20120630113009406/30/12 11:30:31  5-MIN KSTC 301730Z 35004KT 10SM CLR 30/13 A2989 1050 35 3000 350/04 RMK AO2
14926KSTC STC20120630113509406/30/12 11:35:31  5-MIN KSTC 301735Z 35007KT 10SM CLR 29/13 A2989 1060 36 3000 350/07 RMK AO2
14926KSTC STC20120630114009406/30/12 11:40:31  5-MIN KSTC 301740Z 36004KT 10SM CLR 29/13 A2989 1060 36 2900 360/04 RMK AO2
14926KSTC STC20120630114509406/30/12 11:45:31  5-MIN KSTC 301745Z 02004KT 10SM CLR 29/13 A2989 1060 36 2900 020/04 RMK AO2
14926KSTC STC20120630115012906/30/12 11:50:31  5-MIN KSTC 301750Z 35004KT 10SM CLR 29/13 A2989 1050 38 2900 350/04 RMK AO2 SLP124 T02890133 10300 20183 50003
14926KSTC STC20120630115509406/30/12 11:55:31  5-MIN KSTC 301755Z 36005KT 10SM CLR 29/13 A2988 1060 38 2900 360/05 RMK AO2
14926KSTC STC20120630120009406/30/12 12:00:31  5-MIN KSTC 301800Z VRB04KT 10SM CLR 29/13 A2989 1060 36 3000 VRB/04 RMK AO2
14926KSTC STC20120630120509406/30/12 12:05:31  5-MIN KSTC 301805Z 35006KT 10SM CLR 29/14 A2989 1060 38 3000 350/06 RMK AO2
14926KSTC STC20120630121009406/30/12 12:10:31  5-MIN KSTC 301810Z 34005KT 10SM CLR 29/13 A2989 1050 36 3000 330/05 RMK AO2
14926KSTC STC20120630121509406/30/12 12:15:31  5-MIN KSTC 301815Z 35006KT 10SM CLR 30/13 A2989 1050 35 3000 350/06 RMK AO2
14926KSTC STC20120630122009406/30/12 12:20:31  5-MIN KSTC 301820Z VRB06KT 10SM CLR 30/13 A2990 1050 35 3000 VRB/06 RMK AO2
14926KSTC STC20120630122509406/30/12 12:25:31  5-MIN KSTC 301825Z VRB04KT 10SM CLR 31/14 A2990 1050 35 3100 VRB/04 RMK AO2
14926KSTC STC20120630123009406/30/12 12:30:31  5-MIN KSTC 301830Z 29003KT 10SM CLR 29/13 A2990 1050 36 3000 280/03 RMK AO2
14926KSTC STC20120630123509406/30/12 12:35:31  5-MIN KSTC 301835Z 32006KT 10SM CLR 29/14 A2990 1040 39 2900 320/06 RMK AO2
14926KSTC STC20120630124009406/30/12 12:40:31  5-MIN KSTC 301840Z 33006KT 10SM CLR 30/14 A2990 1040 38 3000 330/06 RMK AO2
14926KSTC STC20120630124509406/30/12 12:45:31  5-MIN KSTC 301845Z 34007KT 10SM CLR 29/13 A2989 1050 35 3000 340/07 RMK AO2
14926KSTC STC20120630125011106/30/12 12:50:31  5-MIN KSTC 301850Z 34009KT 10SM CLR 29/13 A2989 1050 35 3000 340/09 RMK AO2 SLP124 T02940128
14926KSTC STC20120630125509406/30/12 12:55:31  5-MIN KSTC 301855Z 34006KT 10SM CLR 29/13 A2989 1060 35 3000 340/06 RMK AO2
14926KSTC STC20120630130009406/30/12 13:00:31  5-MIN KSTC 301900Z 35005KT 10SM CLR 30/13 A2988 1060 34 3100 350/05 RMK AO2
14926KSTC STC20120630130509406/30/12 13:05:31  5-MIN KSTC 301905Z 35007KT 10SM CLR 30/13 A2989 1060 35 3000 350/07 RMK AO2
14926KSTC STC20120630131009406/30/12 13:10:31  5-MIN KSTC 301910Z 36005KT 10SM CLR 30/13 A2989 1060 35 3100 360/05 RMK AO2
14926KSTC STC20120630131509406/30/12 13:15:31  5-MIN KSTC 301915Z VRB04KT 10SM CLR 30/13 A2988 1060 35 3100 VRB/04 RMK AO2
14926KSTC STC20120630132009406/30/12 13:20:31  5-MIN KSTC 301920Z 35006KT 10SM CLR 30/13 A2987 1070 34 3100 350/06 RMK AO2
14926KSTC STC20120630132509406/30/12 13:25:31  5-MIN KSTC 301925Z 35004KT 10SM CLR 29/12 A2987 1070 34 3000 350/04 RMK AO2
14926KSTC STC20120630133010106/30/12 13:30:31  5-MIN KSTC 301930Z 00000KT 10SM CLR 29/12 A2986 1080 34 3000 000/00 RMK AO2 PRESFR
14926KSTC STC20120630133510106/30/12 13:35:31  5-MIN KSTC 301935Z 09003KT 10SM CLR 29/12 A2985 1090 35 3000 090/03 RMK AO2 PRESFR
14926KSTC STC20120630134009406/30/12 13:40:31  5-MIN KSTC 301940Z 33004KT 10SM CLR 29/12 A2987 1070 33 3000 330/04 RMK AO2
14926KSTC STC20120630134509406/30/12 13:45:31  5-MIN KSTC 301945Z VRB03KT 10SM CLR 30/12 A2987 1070 31 3100 VRB/03 RMK AO2
14926KSTC STC20120630135011106/30/12 13:50:31  5-MIN KSTC 301950Z VRB03KT 10SM CLR 30/12 A2987 1070 31 3100 VRB/03 RMK AO2 SLP116 T03000117
14926KSTC STC20120630135509406/30/12 13:55:31  5-MIN KSTC 301955Z 02004KT 10SM CLR 30/12 A2987 1070 33 3100 020/04 RMK AO2
14926KSTC STC20120630140009406/30/12 14:00:31  5-MIN KSTC 302000Z 33003KT 10SM CLR 31/12 A2987 1080 32 3100 330/03 RMK AO2
14926KSTC STC20120630140509406/30/12 14:05:31  5-MIN KSTC 302005Z 00000KT 10SM CLR 29/12 A2986 1080 33 3000 000/00 RMK AO2
14926KSTC STC20120630141009406/30/12 14:10:31  5-MIN KSTC 302010Z 28003KT 10SM CLR 31/12 A2987 1080 31 3200 280/03 RMK AO2
14926KSTC STC20120630141509406/30/12 14:15:31  5-MIN KSTC 302015Z 21004KT 10SM CLR 31/11 A2986 1080 28 3100 210/04 RMK AO2
14926KSTC STC20120630142009406/30/12 14:20:31  5-MIN KSTC 302020Z 27003KT 10SM CLR 31/11 A2986 1080 29 3100 260/03 RMK AO2
14926KSTC STC20120630142509406/30/12 14:25:31  5-MIN KSTC 302025Z 23005KT 10SM CLR 31/11 A2986 1080 29 3100 220/05 RMK AO2
14926KSTC STC20120630143009406/30/12 14:30:31  5-MIN KSTC 302030Z 00000KT 10SM CLR 31/12 A2986 1090 30 3100 000/00 RMK AO2
14926KSTC STC20120630143509406/30/12 14:35:31  5-MIN KSTC 302035Z 00000KT 10SM CLR 31/11 A2985 1090 29 3200 000/00 RMK AO2
14926KSTC STC20120630144009406/30/12 14:40:31  5-MIN KSTC 302040Z VRB04KT 10SM CLR 31/11 A2985 1090 29 3200 VRB/04 RMK AO2
14926KSTC STC20120630144509406/30/12 14:45:31  5-MIN KSTC 302045Z VRB04KT 10SM CLR 31/12 A2984 1100 30 3200 VRB/04 RMK AO2
14926KSTC STC20120630145011706/30/12 14:50:31  5-MIN KSTC 302050Z VRB03KT 10SM CLR 30/12 A2984 1100 31 3100 VRB/03 RMK AO2 SLP108 T03000117 52004
14926KSTC STC20120630145509406/30/12 14:55:31  5-MIN KSTC 302055Z VRB05KT 10SM CLR 31/12 A2984 1100 30 3200 VRB/05 RMK AO2
14926KSTC STC20120630150009406/30/12 15:00:31  5-MIN KSTC 302100Z 19004KT 10SM CLR 31/12 A2984 1100 32 3200 190/04 RMK AO2
14926KSTC STC20120630150509406/30/12 15:05:31  5-MIN KSTC 302105Z 00000KT 10SM CLR 30/12 A2984 1100 33 3100 000/00 RMK AO2
14926KSTC STC20120630151009406/30/12 15:10:31  5-MIN KSTC 302110Z 00000KT 10SM CLR 31/13 A2984 1100 33 3200 000/00 RMK AO2
14926KSTC STC20120630151509406/30/12 15:15:31  5-MIN KSTC 302115Z 23004KT 10SM CLR 31/13 A2984 1100 32 3200 230/04 RMK AO2
14926KSTC STC20120630152009406/30/12 15:20:31  5-MIN KSTC 302120Z VRB04KT 10SM CLR 31/13 A2984 1100 33 3200 VRB/04 RMK AO2
14926KSTC STC20120630152509406/30/12 15:25:31  5-MIN KSTC 302125Z 21005KT 10SM CLR 31/12 A2984 1100 31 3200 210/05 RMK AO2
14926KSTC STC20120630153009406/30/12 15:30:31  5-MIN KSTC 302130Z 21005KT 10SM CLR 31/12 A2984 1100 30 3200 210/05 RMK AO2
14926KSTC STC20120630153509406/30/12 15:35:31  5-MIN KSTC 302135Z 00000KT 10SM CLR 31/12 A2984 1100 30 3200 000/00 RMK AO2
14926KSTC STC20120630154009406/30/12 15:40:31  5-MIN KSTC 302140Z VRB03KT 10SM CLR 31/12 A2984 1100 29 3200 VRB/03 RMK AO2
14926KSTC STC20120630154509406/30/12 15:45:31  5-MIN KSTC 302145Z 21005KT 10SM CLR 31/12 A2984 1100 29 3200 210/05 RMK AO2
14926KSTC STC20120630155011106/30/12 15:50:31  5-MIN KSTC 302150Z VRB03KT 10SM CLR 31/12 A2984 1100 30 3200 VRB/03 RMK AO2 SLP108 T03060117
14926KSTC STC20120630155509406/30/12 15:55:31  5-MIN KSTC 302155Z VRB03KT 10SM CLR 31/12 A2984 1100 31 3200 VRB/03 RMK AO2
14926KSTC STC20120630160009406/30/12 16:00:31  5-MIN KSTC 302200Z 18004KT 10SM CLR 31/12 A2984 1100 32 3200 180/04 RMK AO2
14926KSTC STC20120630160509406/30/12 16:05:31  5-MIN KSTC 302205Z 00000KT 10SM CLR 31/12 A2984 1100 32 3200 000/00 RMK AO2
14926KSTC STC20120630161009406/30/12 16:10:31  5-MIN KSTC 302210Z 18005KT 10SM CLR 31/12 A2985 1090 31 3200 180/05 RMK AO2
14926KSTC STC20120630161509406/30/12 16:15:31  5-MIN KSTC 302215Z 18003KT 10SM CLR 31/12 A2985 1090 32 3200 180/03 RMK AO2
14926KSTC STC20120630162009406/30/12 16:20:31  5-MIN KSTC 302220Z 15005KT 10SM CLR 31/12 A2985 1090 31 3200 150/05 RMK AO2
14926KSTC STC20120630162509406/30/12 16:25:31  5-MIN KSTC 302225Z 00000KT 10SM CLR 31/12 A2985 1090 30 3100 000/00 RMK AO2
14926KSTC STC20120630163009406/30/12 16:30:31  5-MIN KSTC 302230Z 20003KT 10SM CLR 31/12 A2985 1090 30 3200 200/03 RMK AO2
14926KSTC STC20120630163509406/30/12 16:35:31  5-MIN KSTC 302235Z 00000KT 10SM CLR 31/12 A2985 1090 29 3200 000/00 RMK AO2
14926KSTC STC20120630164009406/30/12 16:40:31  5-MIN KSTC 302240Z 26004KT 10SM CLR 32/11 A2985 1090 26 3300 260/04 RMK AO2
14926KSTC STC20120630164509406/30/12 16:45:31  5-MIN KSTC 302245Z 00000KT 10SM CLR 32/10 A2985 1090 25 3300 000/00 RMK AO2
14926KSTC STC20120630165011106/30/12 16:50:31  5-MIN KSTC 302250Z 00000KT 10SM CLR 31/11 A2985 1090 28 3200 000/00 RMK AO2 SLP109 T03110111
14926KSTC STC20120630165509406/30/12 16:55:31  5-MIN KSTC 302255Z 03004KT 10SM CLR 31/13 A2985 1100 32 3200 030/04 RMK AO2
14926KSTC STC20120630170009406/30/12 17:00:31  5-MIN KSTC 302300Z 01004KT 10SM CLR 31/13 A2985 1090 32 3200 010/04 RMK AO2
14926KSTC STC20120630170509406/30/12 17:05:31  5-MIN KSTC 302305Z 03003KT 10SM CLR 31/13 A2985 1090 33 3200 030/03 RMK AO2
14926KSTC STC20120630171009406/30/12 17:10:31  5-MIN KSTC 302310Z VRB03KT 10SM CLR 32/13 A2985 1090 32 3300 VRB/03 RMK AO2
14926KSTC STC20120630171509406/30/12 17:15:31  5-MIN KSTC 302315Z 06003KT 10SM CLR 31/13 A2985 1090 33 3200 060/03 RMK AO2
14926KSTC STC20120630172009406/30/12 17:20:31  5-MIN KSTC 302320Z 02004KT 10SM CLR 31/13 A2985 1090 34 3200 010/04 RMK AO2
14926KSTC STC20120630172509406/30/12 17:25:31  5-MIN KSTC 302325Z 04004KT 10SM CLR 31/13 A2985 1090 32 3200 040/04 RMK AO2
14926KSTC STC20120630173009406/30/12 17:30:31  5-MIN KSTC 302330Z 03003KT 10SM CLR 31/13 A2985 1090 33 3200 030/03 RMK AO2
14926KSTC STC20120630173509406/30/12 17:35:31  5-MIN KSTC 302335Z 01004KT 10SM CLR 31/13 A2985 1090 33 3200 010/04 RMK AO2
14926KSTC STC20120630174009406/30/12 17:40:31  5-MIN KSTC 302340Z 01003KT 10SM CLR 31/13 A2985 1090 32 3200 010/03 RMK AO2
14926KSTC STC20120630174509406/30/12 17:45:31  5-MIN KSTC 302345Z 35004KT 10SM CLR 31/13 A2985 1090 33 3200 350/04 RMK AO2
14926KSTC STC20120630175012906/30/12 17:50:31  5-MIN KSTC 302350Z 00000KT 10SM CLR 31/13 A2985 1090 34 3100 000/00 RMK AO2 SLP111 T03060133 10322 20289 58015
14926KSTC STC20120630175509406/30/12 17:55:31  5-MIN KSTC 302355Z 00000KT 10SM CLR 31/13 A2985 1090 34 3100 000/00 RMK AO2
14926KSTC STC20120630180009406/30/12 18:00:31  5-MIN KSTC 010000Z 00000KT 10SM CLR 31/13 A2986 1090 34 3100 000/00 RMK AO2
14926KSTC STC20120630180509406/30/12 18:05:31  5-MIN KSTC 010005Z 00000KT 10SM CLR 31/13 A2986 1080 34 3100 000/00 RMK AO2
14926KSTC STC20120630181009406/30/12 18:10:31  5-MIN KSTC 010010Z 33003KT 10SM CLR 30/13 A2986 1080 34 3100 330/03 RMK AO2
14926KSTC STC20120630181509406/30/12 18:15:31  5-MIN KSTC 010015Z 34003KT 10SM CLR 30/14 A2986 1080 36 3100 340/03 RMK AO2
14926KSTC STC20120630182009406/30/12 18:20:31  5-MIN KSTC 010020Z 00000KT 10SM CLR 30/13 A2986 1080 35 3100 000/00 RMK AO2
14926KSTC STC20120630182509406/30/12 18:25:31  5-MIN KSTC 010025Z 00000KT 10SM CLR 31/13 A2987 1080 34 3100 000/00 RMK AO2
14926KSTC STC20120630183009406/30/12 18:30:31  5-MIN KSTC 010030Z 00000KT 10SM CLR 31/14 A2987 1080 35 3100 000/00 RMK AO2
14926KSTC STC20120630183509406/30/12 18:35:31  5-MIN KSTC 010035Z 00000KT 10SM CLR 31/14 A2986 1080 35 3100 000/00 RMK AO2
14926KSTC STC20120630184009406/30/12 18:40:31  5-MIN KSTC 010040Z 00000KT 10SM CLR 30/14 A2987 1080 38 3100 000/00 RMK AO2
14926KSTC STC20120630184509406/30/12 18:45:31  5-MIN KSTC 010045Z 00000KT 10SM CLR 30/14 A2987 1080 38 3100 000/00 RMK AO2
14926KSTC STC20120630185011106/30/12 18:50:31  5-MIN KSTC 010050Z 00000KT 10SM CLR 30/15 A2987 1070 39 3100 000/00 RMK AO2 SLP115 T03000150
14926KSTC STC20120630185509406/30/12 18:55:31  5-MIN KSTC 010055Z 00000KT 10SM CLR 29/16 A2987 1070 42 3000 000/00 RMK AO2
14926KSTC STC20120630190009406/30/12 19:00:31  5-MIN KSTC 010100Z 00000KT 10SM CLR 29/17 A2987 1070 47 2900 000/00 RMK AO2
14926KSTC STC20120630190509406/30/12 19:05:31  5-MIN KSTC 010105Z 00000KT 10SM CLR 29/17 A2987 1070 48 2900 000/00 RMK AO2
14926KSTC STC20120630191009406/30/12 19:10:31  5-MIN KSTC 010110Z 00000KT 10SM CLR 28/17 A2987 1070 52 2800 000/00 RMK AO2
14926KSTC STC20120630191509406/30/12 19:15:31  5-MIN KSTC 010115Z 00000KT 10SM CLR 27/18 A2987 1070 56 2800 000/00 RMK AO2
14926KSTC STC20120630192009406/30/12 19:20:31  5-MIN KSTC 010120Z 00000KT 10SM CLR 27/18 A2987 1070 56 2800 000/00 RMK AO2
14926KSTC STC20120630192509406/30/12 19:25:31  5-MIN KSTC 010125Z 00000KT 10SM CLR 26/18 A2987 1070 59 2600 000/00 RMK AO2
14926KSTC STC20120630193009406/30/12 19:30:31  5-MIN KSTC 010130Z 00000KT 10SM CLR 26/18 A2987 1070 59 2600 000/00 RMK AO2
14926KSTC STC20120630193509406/30/12 19:35:31  5-MIN KSTC 010135Z 00000KT 10SM CLR 26/18 A2987 1070 64 2600 000/00 RMK AO2
14926KSTC STC20120630194009406/30/12 19:40:31  5-MIN KSTC 010140Z 00000KT 10SM CLR 25/18 A2987 1070 66 2500 000/00 RMK AO2
14926KSTC STC20120630194509406/30/12 19:45:31  5-MIN KSTC 010145Z 00000KT 10SM CLR 25/18 A2987 1070 64 2500 000/00 RMK AO2
14926KSTC STC20120630195011106/30/12 19:50:31  5-MIN KSTC 010150Z 00000KT 10SM CLR 24/18 A2987 1070 68 2500 000/00 RMK AO2 SLP116 T02440183
14926KSTC STC20120630195509406/30/12 19:55:31  5-MIN KSTC 010155Z 00000KT 10SM CLR 24/18 A2987 1070 68 2400 000/00 RMK AO2
14926KSTC STC20120630200009406/30/12 20:00:31  5-MIN KSTC 010200Z 00000KT 10SM CLR 24/17 A2987 1070 66 2400 000/00 RMK AO2
14926KSTC STC20120630200509406/30/12 20:05:31  5-MIN KSTC 010205Z 00000KT 10SM CLR 23/18 A2987 1070 70 2300 000/00 RMK AO2
14926KSTC STC20120630201009406/30/12 20:10:31  5-MIN KSTC 010210Z 00000KT 10SM CLR 23/18 A2987 1070 73 2300 000/00 RMK AO2
14926KSTC STC20120630201509406/30/12 20:15:31  5-MIN KSTC 010215Z 00000KT 10SM CLR 23/18 A2987 1070 73 2300 000/00 RMK AO2
14926KSTC STC20120630202009406/30/12 20:20:31  5-MIN KSTC 010220Z 00000KT 10SM CLR 22/18 A2987 1080 75 2200 000/00 RMK AO2
14926KSTC STC20120630202509406/30/12 20:25:31  5-MIN KSTC 010225Z 00000KT 10SM CLR 22/17 A2987 1080 73 2200 000/00 RMK AO2
14926KSTC STC20120630203009406/30/12 20:30:31  5-MIN KSTC 010230Z 00000KT 10SM CLR 22/17 A2986 1080 70 2200 000/00 RMK AO2
14926KSTC STC20120630203509406/30/12 20:35:31  5-MIN KSTC 010235Z 00000KT 10SM CLR 22/17 A2987 1080 75 2100 000/00 RMK AO2
14926KSTC STC20120630204009406/30/12 20:40:31  5-MIN KSTC 010240Z 00000KT 10SM CLR 22/17 A2987 1080 75 2100 000/00 RMK AO2
14926KSTC STC20120630204509406/30/12 20:45:31  5-MIN KSTC 010245Z 00000KT 10SM CLR 22/17 A2987 1070 75 2100 000/00 RMK AO2
14926KSTC STC20120630205011706/30/12 20:50:31  5-MIN KSTC 010250Z 00000KT 10SM CLR 21/17 A2987 1070 78 2100 000/00 RMK AO2 SLP117 T02110172 53003
14926KSTC STC20120630205509406/30/12 20:55:31  5-MIN KSTC 010255Z 00000KT 10SM CLR 21/17 A2987 1070 81 2000 000/00 RMK AO2
14926KSTC STC20120630210009406/30/12 21:00:31  5-MIN KSTC 010300Z 00000KT 10SM CLR 21/18 A2987 1070 81 2100 000/00 RMK AO2
14926KSTC STC20120630210509406/30/12 21:05:31  5-MIN KSTC 010305Z 00000KT 10SM CLR 21/18 A2988 1070 81 2100 000/00 RMK AO2
14926KSTC STC20120630211009406/30/12 21:10:31  5-MIN KSTC 010310Z 00000KT 10SM CLR 21/18 A2988 1060 81 2100 000/00 RMK AO2
14926KSTC STC20120630211509406/30/12 21:15:31  5-MIN KSTC 010315Z 00000KT 10SM CLR 21/18 A2989 1060 84 2000 000/00 RMK AO2
14926KSTC STC20120630212009406/30/12 21:20:31  5-MIN KSTC 010320Z 00000KT 10SM CLR 21/17 A2989 1050 81 2000 000/00 RMK AO2
14926KSTC STC20120630212509406/30/12 21:25:31  5-MIN KSTC 010325Z 00000KT 10SM CLR 19/17 A2989 1050 87 1900 000/00 RMK AO2
14926KSTC STC20120630213009406/30/12 21:30:31  5-MIN KSTC 010330Z 00000KT 10SM CLR 19/17 A2989 1060 87 1900 000/00 RMK AO2
14926KSTC STC20120630213509406/30/12 21:35:31  5-MIN KSTC 010335Z 00000KT 10SM CLR 21/18 A2989 1050 84 2000 000/00 RMK AO2
14926KSTC STC20120630214009406/30/12 21:40:31  5-MIN KSTC 010340Z 00000KT 10SM CLR 21/18 A2989 1060 84 2000 000/00 RMK AO2
14926KSTC STC20120630214509406/30/12 21:45:31  5-MIN KSTC 010345Z 00000KT 10SM CLR 21/18 A2989 1060 84 2000 000/00 RMK AO2
14926KSTC STC20120630215011106/30/12 21:50:31  5-MIN KSTC 010350Z 00000KT 10SM CLR 20/18 A2989 1060 87 1900 000/00 RMK AO2 SLP122 T02000178
14926KSTC STC20120630215509906/30/12 21:55:31  5-MIN KSTC 010355Z AUTO 00000KT 10SM CLR 20/17 A2989 1060 84 1900 000/00 RMK AO2
14926KSTC STC20120630220009906/30/12 22:00:31  5-MIN KSTC 010400Z AUTO 00000KT 10SM CLR 19/17 A2988 1060 84 1900 000/00 RMK AO2
14926KSTC STC20120630220509906/30/12 22:05:31  5-MIN KSTC 010405Z AUTO 00000KT 10SM CLR 19/17 A2988 1060 87 1900 000/00 RMK AO2
14926KSTC STC20120630221009906/30/12 22:10:31  5-MIN KSTC 010410Z AUTO 00000KT 10SM CLR 19/18 A2988 1060 90 1900 000/00 RMK AO2
14926KSTC STC20120630221509906/30/12 22:15:31  5-MIN KSTC 010415Z AUTO 00000KT 10SM CLR 19/17 A2989 1060 87 1900 000/00 RMK AO2
14926KSTC STC20120630222009906/30/12 22:20:31  5-MIN KSTC 010420Z AUTO 00000KT 10SM CLR 19/17 A2989 1050 87 1900 000/00 RMK AO2
14926KSTC STC20120630222509906/30/12 22:25:31  5-MIN KSTC 010425Z AUTO 00000KT 10SM CLR 19/17 A2989 1050 87 1900 000/00 RMK AO2
14926KSTC STC20120630223009906/30/12 22:30:31  5-MIN KSTC 010430Z AUTO 00000KT 10SM CLR 19/17 A2989 1060 87 1900 000/00 RMK AO2
14926KSTC STC20120630223509906/30/12 22:35:31  5-MIN KSTC 010435Z AUTO 00000KT 10SM CLR 19/17 A2989 1060 90 1800 000/00 RMK AO2
14926KSTC STC20120630224009906/30/12 22:40:31  5-MIN KSTC 010440Z AUTO 00000KT 10SM CLR 19/17 A2989 1060 90 1800 000/00 RMK AO2
14926KSTC STC20120630224509906/30/12 22:45:31  5-MIN KSTC 010445Z AUTO 00000KT 10SM CLR 19/17 A2989 1060 87 1900 000/00 RMK AO2
14926KSTC STC20120630225011606/30/12 22:50:31  5-MIN KSTC 010450Z AUTO 00000KT 10SM CLR 19/17 A2989 1060 90 1800 000/00 RMK AO2 SLP123 T01890172
14926KSTC STC20120630225509906/30/12 22:55:31  5-MIN KSTC 010455Z AUTO 00000KT 10SM CLR 19/17 A2989 1050 87 1900 000/00 RMK AO2
14926KSTC STC20120630230009906/30/12 23:00:31  5-MIN KSTC 010500Z AUTO 00000KT 10SM CLR 19/17 A2988 1060 90 1800 000/00 RMK AO2
14926KSTC STC20120630230509906/30/12 23:05:31  5-MIN KSTC 010505Z AUTO 00000KT 10SM CLR 19/17 A2988 1060 87 1800 000/00 RMK AO2
14926KSTC STC20120630231009906/30/12 23:10:31  5-MIN KSTC 010510Z AUTO 00000KT 10SM CLR 19/17 A2988 1060 90 1800 000/00 RMK AO2
14926KSTC STC20120630231509906/30/12 23:15:31  5-MIN KSTC 010515Z AUTO 08003KT 10SM CLR 19/17 A2988 1070 90 1800 080/03 RMK AO2
14926KSTC STC20120630232009906/30/12 23:20:31  5-MIN KSTC 010520Z AUTO 07003KT 10SM CLR 19/17 A2988 1070 90 1800 070/03 RMK AO2
14926KSTC STC20120630232509906/30/12 23:25:31  5-MIN KSTC 010525Z AUTO 06004KT 10SM CLR 19/17 A2988 1070 87 1900 060/04 RMK AO2
14926KSTC STC20120630233009906/30/12 23:30:31  5-MIN KSTC 010530Z AUTO 06003KT 10SM CLR 20/17 A2988 1060 84 1900 060/03 RMK AO2
14926KSTC STC20120630233509906/30/12 23:35:31  5-MIN KSTC 010535Z AUTO 00000KT 10SM CLR 19/17 A2988 1060 87 1900 000/00 RMK AO2
14926KSTC STC20120630234009906/30/12 23:40:31  5-MIN KSTC 010540Z AUTO 00000KT 10SM CLR 19/17 A2988 1070 87 1900 000/00 RMK AO2
14926KSTC STC20120630234509906/30/12 23:45:31  5-MIN KSTC 010545Z AUTO 08003KT 10SM CLR 20/17 A2988 1070 84 1900 080/03 RMK AO2
14926KSTC STC20120630235014406/30/12 23:50:31  5-MIN KSTC 010550Z AUTO 07003KT 10SM CLR 19/17 A2988 1060 87 1900 060/03 RMK AO2 SLP121 T01940172 10306 20189 403220150 51005
14926KSTC STC20120630235509906/30/12 23:55:31  5-MIN KSTC 010555Z AUTO 00000KT 10SM CLR 19/17 A2989 1060 87 1900 000/00 RMK AO2
