14926KSTC STC20191101000011311/01/19 00:00:31  5-MIN KSTC 010600Z AUTO 18006KT 10SM OVC065 01/M07 A2991 1040 56 -400 180/06 RMK AO2 T00061072
14926KSTC STC20191101000511311/01/19 00:05:31  5-MIN KSTC 010605Z AUTO 19005KT 10SM OVC065 01/M07 A2991 1040 56 -400 180/05 RMK AO2 T00061072
14926KSTC STC20191101001011311/01/19 00:10:31  5-MIN KSTC 010610Z AUTO 19006KT 10SM OVC065 01/M07 A2991 1040 56 -400 190/06 RMK AO2 T00061072
14926KSTC STC20191101001511311/01/19 00:15:31  5-MIN KSTC 010615Z AUTO 19005KT 10SM OVC065 01/M07 A2991 1050 56 -400 180/05 RMK AO2 T00061072
14926KSTC STC20191101002011311/01/19 00:20:31  5-MIN KSTC 010620Z AUTO 19005KT 10SM OVC065 01/M07 A2991 1050 56 -400 190/05 RMK AO2 T00061072
14926KSTC STC20191101002512011/01/19 00:25:31  5-MIN KSTC 010625Z AUTO 20004KT 10SM BKN065 OVC080 01/M07 A2991 1050 56 -400 190/04 RMK AO2 T00061072
14926KSTC STC20191101003012011/01/19 00:30:31  5-MIN KSTC 010630Z AUTO 20005KT 10SM BKN070 OVC085 01/M07 A2991 1040 56 -400 200/05 RMK AO2 T00061072
14926KSTC STC20191101003512011/01/19 00:35:31  5-MIN KSTC 010635Z AUTO 20005KT 10SM BKN070 OVC080 01/M07 A2991 1040 56 -400 200/05 RMK AO2 T00061072
14926KSTC STC20191101004011311/01/19 00:40:31  5-MIN KSTC 010640Z AUTO 20005KT 10SM OVC070 01/M07 A2991 1050 56 -400 200/05 RMK AO2 T00061072
14926KSTC STC20191101004512011/01/19 00:45:31  5-MIN KSTC 010645Z AUTO 20006KT 10SM BKN065 OVC080 01/M08 A2991 1050 54 -400 200/06 RMK AO2 T00061078
14926KSTC STC20191101005012711/01/19 00:50:31  5-MIN KSTC 010650Z AUTO 20005KT 10SM BKN060 OVC080 01/M08 A2991 1050 54 -400 200/05 RMK AO2 SLP147 T00061078
14926KSTC STC20191101005512011/01/19 00:55:31  5-MIN KSTC 010655Z AUTO 20006KT 10SM BKN070 OVC080 01/M08 A2991 1050 54 -400 200/06 RMK AO2 T00061078
14926KSTC STC20191101010012011/01/19 01:00:31  5-MIN KSTC 010700Z AUTO 20005KT 10SM BKN070 OVC080 01/M08 A2991 1050 54 -400 200/05 RMK AO2 T00061078
14926KSTC STC20191101010512711/01/19 01:05:31  5-MIN KSTC 010705Z AUTO 20006KT 10SM SCT065 BKN080 OVC100 01/M08 A2990 1050 54 -400 200/06 RMK AO2 T00061078
14926KSTC STC20191101011012711/01/19 01:10:31  5-MIN KSTC 010710Z AUTO 20007KT 10SM FEW060 BKN080 OVC100 01/M08 A2990 1050 54 -400 200/07 RMK AO2 T00061078
14926KSTC STC20191101011512711/01/19 01:15:31  5-MIN KSTC 010715Z AUTO 21007KT 10SM FEW070 BKN090 OVC110 01/M08 A2991 1050 54 -400 210/07 RMK AO2 T00061078
14926KSTC STC20191101012012711/01/19 01:20:31  5-MIN KSTC 010720Z AUTO 20006KT 10SM FEW070 SCT080 OVC100 01/M08 A2991 1050 49 -300 200/06 RMK AO2 T00111083
14926KSTC STC20191101012512011/01/19 01:25:31  5-MIN KSTC 010725Z AUTO 21006KT 10SM FEW080 OVC100 01/M08 A2991 1050 51 -400 210/06 RMK AO2 T00061083
14926KSTC STC20191101013011311/01/19 01:30:31  5-MIN KSTC 010730Z AUTO 21005KT 10SM OVC100 01/M08 A2991 1050 51 -400 210/05 RMK AO2 T00061083
14926KSTC STC20191101013511311/01/19 01:35:31  5-MIN KSTC 010735Z AUTO 22005KT 10SM OVC100 01/M08 A2991 1050 49 -300 220/05 RMK AO2 T00111083
14926KSTC STC20191101014011311/01/19 01:40:31  5-MIN KSTC 010740Z AUTO 22005KT 10SM OVC095 01/M08 A2991 1050 49 -300 220/05 RMK AO2 T00111083
14926KSTC STC20191101014512011/01/19 01:45:31  5-MIN KSTC 010745Z AUTO 21006KT 10SM SCT080 OVC100 01/M08 A2991 1040 49 -300 210/06 RMK AO2 T00111083
14926KSTC STC20191101015012711/01/19 01:50:31  5-MIN KSTC 010750Z AUTO 21006KT 10SM SCT075 OVC100 01/M08 A2991 1040 49 -300 210/06 RMK AO2 SLP148 T00111083
14926KSTC STC20191101015512011/01/19 01:55:31  5-MIN KSTC 010755Z AUTO 22005KT 10SM BKN070 OVC095 01/M08 A2991 1040 49 -300 220/05 RMK AO2 T00111083
14926KSTC STC20191101020012711/01/19 02:00:31  5-MIN KSTC 010800Z AUTO 22005KT 10SM SCT065 BKN080 OVC095 01/M08 A2991 1040 49 -300 220/05 RMK AO2 T00111083
14926KSTC STC20191101020512711/01/19 02:05:31  5-MIN KSTC 010805Z AUTO 22005KT 10SM BKN055 BKN075 OVC095 01/M08 A2991 1040 49 -300 220/05 RMK AO2 T00111083
14926KSTC STC20191101021012011/01/19 02:10:31  5-MIN KSTC 010810Z AUTO 23005KT 10SM BKN050 OVC075 01/M08 A2991 1040 51 -300 230/05 RMK AO2 T00111078
14926KSTC STC20191101021512711/01/19 02:15:31  5-MIN KSTC 010815Z AUTO 23006KT 10SM BKN045 BKN055 OVC070 01/M08 A2992 1040 51 -300 230/06 RMK AO2 T00111078
14926KSTC STC20191101022012011/01/19 02:20:31  5-MIN KSTC 010820Z AUTO 22005KT 10SM BKN045 OVC055 01/M08 A2991 1040 51 -300 220/05 RMK AO2 T00111078
14926KSTC STC20191101022511311/01/19 02:25:31  5-MIN KSTC 010825Z AUTO 22006KT 10SM OVC045 01/M08 A2991 1040 51 -300 210/06 RMK AO2 T00111078
14926KSTC STC20191101023011311/01/19 02:30:31  5-MIN KSTC 010830Z AUTO 21005KT 10SM OVC043 01/M08 A2991 1040 51 -300 210/05 RMK AO2 T00111078
14926KSTC STC20191101023512011/01/19 02:35:31  5-MIN KSTC 010835Z AUTO 21005KT 10SM BKN039 OVC047 01/M08 A2991 1040 51 -300 210/05 RMK AO2 T00111078
14926KSTC STC20191101024012011/01/19 02:40:31  5-MIN KSTC 010840Z AUTO 20005KT 10SM BKN037 OVC047 01/M07 A2991 1040 54 -300 200/05 RMK AO2 T00111072
14926KSTC STC20191101024512011/01/19 02:45:31  5-MIN KSTC 010845Z AUTO 19005KT 10SM BKN039 OVC047 01/M07 A2991 1040 54 -300 190/05 RMK AO2 T00111072
14926KSTC STC20191101025012611/01/19 02:50:31  5-MIN KSTC 010850Z AUTO 19006KT 10SM OVC043 01/M07 A2991 1040 54 -300 190/06 RMK AO2 SLP148 T00111072 56016
14926KSTC STC20191101025512011/01/19 02:55:31  5-MIN KSTC 010855Z AUTO 19006KT 10SM BKN045 OVC065 01/M07 A2991 1040 54 -300 190/06 RMK AO2 T00111072
14926KSTC STC20191101030012011/01/19 03:00:31  5-MIN KSTC 010900Z AUTO 19006KT 10SM BKN049 OVC070 01/M07 A2991 1040 56 -300 190/06 RMK AO2 T00111067
14926KSTC STC20191101030511311/01/19 03:05:31  5-MIN KSTC 010905Z AUTO 20007KT 10SM OVC049 01/M07 A2991 1040 56 -300 200/07 RMK AO2 T00111067
14926KSTC STC20191101031011311/01/19 03:10:31  5-MIN KSTC 010910Z AUTO 21006KT 10SM OVC049 01/M07 A2991 1040 56 -300 200/06 RMK AO2 T00111067
14926KSTC STC20191101031512011/01/19 03:15:31  5-MIN KSTC 010915Z AUTO 21006KT 10SM FEW036 OVC047 01/M07 A2991 1040 56 -300 210/06 RMK AO2 T00111067
14926KSTC STC20191101032012011/01/19 03:20:31  5-MIN KSTC 010920Z AUTO 20007KT 10SM SCT036 OVC047 01/M06 A2991 1040 58 -300 200/07 RMK AO2 T00111061
14926KSTC STC20191101032512011/01/19 03:25:31  5-MIN KSTC 010925Z AUTO 20006KT 10SM BKN032 OVC047 01/M06 A2991 1040 58 -300 200/06 RMK AO2 T00111061
14926KSTC STC20191101033012011/01/19 03:30:31  5-MIN KSTC 010930Z AUTO 20006KT 10SM BKN030 OVC042 01/M06 A2991 1050 61 -300 200/06 RMK AO2 T00111056
14926KSTC STC20191101033512011/01/19 03:35:31  5-MIN KSTC 010935Z AUTO 20006KT 10SM BKN030 OVC038 01/M06 A2991 1050 61 -300 200/06 RMK AO2 T00111056
14926KSTC STC20191101034011311/01/19 03:40:31  5-MIN KSTC 010940Z AUTO 20006KT 10SM OVC030 01/M06 A2991 1040 61 -300 190/06 RMK AO2 T00111056
14926KSTC STC20191101034511311/01/19 03:45:31  5-MIN KSTC 010945Z AUTO 20006KT 10SM OVC030 01/M06 A2991 1040 61 -300 200/06 RMK AO2 T00111056
14926KSTC STC20191101035012011/01/19 03:50:31  5-MIN KSTC 010950Z AUTO 21006KT 10SM OVC030 01/M05 A2991 1040 64 -300 210/06 RMK AO2 SLP149 T00111050
14926KSTC STC20191101035511311/01/19 03:55:31  5-MIN KSTC 010955Z AUTO 21006KT 10SM OVC030 01/M05 A2991 1040 64 -300 200/06 RMK AO2 T00111050
14926KSTC STC20191101040011211/01/19 04:00:31  5-MIN KSTC 011000Z AUTO 20007KT 9SM OVC030 01/M05 A2991 1040 64 -300 200/07 RMK AO2 T00111050
14926KSTC STC20191101040511911/01/19 04:05:31  5-MIN KSTC 011005Z AUTO 20007KT 9SM BKN027 OVC032 01/M04 A2992 1040 66 -300 200/07 RMK AO2 T00111044
14926KSTC STC20191101041011311/01/19 04:10:31  5-MIN KSTC 011010Z AUTO 21007KT 10SM OVC029 01/M04 A2992 1040 66 -300 210/07 RMK AO2 T00111044
14926KSTC STC20191101041511311/01/19 04:15:31  5-MIN KSTC 011015Z AUTO 21006KT 10SM OVC029 01/M04 A2992 1040 69 -300 210/06 RMK AO2 T00111039
14926KSTC STC20191101042011311/01/19 04:20:31  5-MIN KSTC 011020Z AUTO 21007KT 10SM OVC029 01/M04 A2992 1030 69 -300 210/07 RMK AO2 T00111039
14926KSTC STC20191101042511311/01/19 04:25:31  5-MIN KSTC 011025Z AUTO 21006KT 10SM OVC027 01/M04 A2992 1030 69 -300 210/06 RMK AO2 T00111039
14926KSTC STC20191101043011311/01/19 04:30:31  5-MIN KSTC 011030Z AUTO 21006KT 10SM OVC027 01/M04 A2992 1030 69 -300 210/06 RMK AO2 T00111039
14926KSTC STC20191101043512011/01/19 04:35:31  5-MIN KSTC 011035Z AUTO 21005KT 10SM BKN025 OVC030 01/M03 A2992 1030 72 -300 210/05 RMK AO2 T00111033
14926KSTC STC20191101044011311/01/19 04:40:31  5-MIN KSTC 011040Z AUTO 21005KT 10SM OVC025 01/M03 A2992 1030 72 -300 210/05 RMK AO2 T00111033
14926KSTC STC20191101044511311/01/19 04:45:31  5-MIN KSTC 011045Z AUTO 21007KT 10SM OVC025 01/M03 A2992 1030 72 -300 210/07 RMK AO2 T00111033
14926KSTC STC20191101045012011/01/19 04:50:31  5-MIN KSTC 011050Z AUTO 22007KT 10SM OVC025 01/M03 A2992 1030 72 -300 220/07 RMK AO2 SLP153 T00111033
14926KSTC STC20191101045511311/01/19 04:55:31  5-MIN KSTC 011055Z AUTO 22006KT 10SM OVC025 01/M03 A2993 1030 72 -300 220/06 RMK AO2 T00111033
14926KSTC STC20191101050011311/01/19 05:00:31  5-MIN KSTC 011100Z AUTO 22006KT 10SM OVC025 02/M03 A2993 1030 72 -300 220/06 RMK AO2 T00171028
14926KSTC STC20191101050512011/01/19 05:05:31  5-MIN KSTC 011105Z AUTO 22005KT 10SM BKN025 OVC030 01/M03 A2993 1030 75 -300 220/05 RMK AO2 T00111028
14926KSTC STC20191101051012011/01/19 05:10:31  5-MIN KSTC 011110Z AUTO 22005KT 10SM BKN025 OVC031 01/M03 A2993 1030 75 -300 220/05 RMK AO2 T00111028
14926KSTC STC20191101051512711/01/19 05:15:31  5-MIN KSTC 011115Z AUTO 22006KT 10SM FEW022 BKN029 OVC045 02/M03 A2993 1030 72 -300 220/06 RMK AO2 T00171028
14926KSTC STC20191101052012711/01/19 05:20:31  5-MIN KSTC 011120Z AUTO 23006KT 10SM BKN029 BKN037 OVC045 02/M03 A2993 1030 72 -300 230/06 RMK AO2 T00171028
14926KSTC STC20191101052512711/01/19 05:25:31  5-MIN KSTC 011125Z AUTO 24005KT 10SM SCT029 BKN035 OVC045 02/M03 A2993 1020 72 -300 240/05 RMK AO2 T00171028
14926KSTC STC20191101053012011/01/19 05:30:31  5-MIN KSTC 011130Z AUTO 23006KT 10SM BKN032 OVC045 02/M03 A2993 1020 72 -300 230/06 RMK AO2 T00171028
14926KSTC STC20191101053512011/01/19 05:35:31  5-MIN KSTC 011135Z AUTO 23006KT 10SM BKN032 OVC045 02/M03 A2993 1020 72 -300 230/06 RMK AO2 T00171028
14926KSTC STC20191101054012211/01/19 05:40:31  5-MIN KSTC 011140Z 23005KT 10SM BKN028 BKN033 OVC045 02/M03 A2994 1020 72 -300 230/05 RMK AO2 T00171028
14926KSTC STC20191101054511511/01/19 05:45:31  5-MIN KSTC 011145Z 23005KT 10SM BKN028 OVC033 02/M03 A2994 1020 72 -300 230/05 RMK AO2 T00171028
14926KSTC STC20191101055009811/01/19 05:50:31  5-MIN KSTC 011150Z 23005KT 10SM OVC030 02/M02 A2994 1020 75 -300 230/05 RMK AO2
14926KSTC STC20191101055510811/01/19 05:55:31  5-MIN KSTC 011155Z 23005KT 10SM OVC030 02/M02 A2994 1020 75 -300 230/05 RMK AO2 T00171022
14926KSTC STC20191101060010811/01/19 06:00:31  5-MIN KSTC 011200Z 23005KT 10SM OVC030 02/M02 A2994 1020 75 -300 230/05 RMK AO2 T00171022
14926KSTC STC20191101060510811/01/19 06:05:31  5-MIN KSTC 011205Z 24005KT 10SM OVC028 02/M02 A2994 1020 75 -300 230/05 RMK AO2 T00171022
14926KSTC STC20191101061010811/01/19 06:10:31  5-MIN KSTC 011210Z 24006KT 10SM OVC028 02/M02 A2994 1020 75 -300 240/06 RMK AO2 T00171022
14926KSTC STC20191101061510811/01/19 06:15:31  5-MIN KSTC 011215Z 25007KT 10SM OVC028 02/M02 A2994 1020 75 -200 250/07 RMK AO2 T00221017
14926KSTC STC20191101062010811/01/19 06:20:31  5-MIN KSTC 011220Z 26008KT 10SM OVC027 02/M01 A2994 1020 78 -200 260/08 RMK AO2 T00221011
14926KSTC STC20191101062510811/01/19 06:25:31  5-MIN KSTC 011225Z 26007KT 10SM OVC027 02/M01 A2994 1010 78 -200 260/07 RMK AO2 T00221011
14926KSTC STC20191101063010811/01/19 06:30:31  5-MIN KSTC 011230Z 26008KT 10SM OVC026 02/M01 A2994 1010 78 -200 260/08 RMK AO2 T00221011
14926KSTC STC20191101063510811/01/19 06:35:31  5-MIN KSTC 011235Z 26008KT 10SM OVC026 02/M01 A2995 1010 78 -200 260/08 RMK AO2 T00221011
14926KSTC STC20191101064010811/01/19 06:40:31  5-MIN KSTC 011240Z 26008KT 10SM OVC024 02/M01 A2995 1010 78 -200 260/08 RMK AO2 T00221011
14926KSTC STC20191101064510811/01/19 06:45:31  5-MIN KSTC 011245Z 26008KT 10SM OVC024 02/M01 A2995 1000 78 -200 260/08 RMK AO2 T00221011
14926KSTC STC20191101065011511/01/19 06:50:31  5-MIN KSTC 011250Z 26007KT 10SM OVC024 02/M01 A2995 1000 78 -200 260/07 RMK AO2 SLP163 T00221011
14926KSTC STC20191101065510811/01/19 06:55:31  5-MIN KSTC 011255Z 26007KT 10SM OVC023 02/M01 A2996 1000 78 -200 260/07 RMK AO2 T00221011
14926KSTC STC20191101070010811/01/19 07:00:31  5-MIN KSTC 011300Z 26007KT 10SM OVC023 02/M01 A2996 1000 78 -200 260/07 RMK AO2 T00221011
14926KSTC STC20191101070511511/01/19 07:05:31  5-MIN KSTC 011305Z 26007KT 10SM BKN021 OVC032 02/M01 A2996 1000 78 -200 260/07 RMK AO2 T00221011
14926KSTC STC20191101071011511/01/19 07:10:31  5-MIN KSTC 011310Z 25006KT 10SM SCT021 OVC032 02/M01 A2996 1000 78 -200 250/06 RMK AO2 T00221011
14926KSTC STC20191101071511511/01/19 07:15:31  5-MIN KSTC 011315Z 25007KT 10SM SCT021 OVC031 02/M01 A2996 1000 78 -200 250/07 RMK AO2 T00221011
14926KSTC STC20191101072011511/01/19 07:20:31  5-MIN KSTC 011320Z 25007KT 10SM FEW021 OVC031 02/M01 A2996 1000 78 -200 250/07 RMK AO2 T00221011
14926KSTC STC20191101072511411/01/19 07:25:31  5-MIN KSTC 011325Z 25005KT 10SM FEW022 OVC031 02/M01 A2996 990 78 -200 250/05 RMK AO2 T00221011
14926KSTC STC20191101073010811/01/19 07:30:31  5-MIN KSTC 011330Z 26005KT 10SM OVC031 02/M01 A2996 1000 78 -200 260/05 RMK AO2 T00221011
14926KSTC STC20191101073510711/01/19 07:35:31  5-MIN KSTC 011335Z 26007KT 10SM OVC032 02/M01 A2996 990 78 -200 260/07 RMK AO2 T00221011
14926KSTC STC20191101074010711/01/19 07:40:31  5-MIN KSTC 011340Z 26007KT 10SM OVC032 02/M01 A2997 990 78 -200 260/07 RMK AO2 T00221011
14926KSTC STC20191101074510711/01/19 07:45:31  5-MIN KSTC 011345Z 26006KT 10SM OVC034 02/M01 A2997 990 78 -200 250/06 RMK AO2 T00221011
14926KSTC STC20191101075011411/01/19 07:50:31  5-MIN KSTC 011350Z 24006KT 10SM OVC034 02/M01 A2997 990 78 -200 240/06 RMK AO2 SLP168 T00221011
14926KSTC STC20191101075510711/01/19 07:55:31  5-MIN KSTC 011355Z 24006KT 10SM OVC034 02/M01 A2997 980 78 -200 240/06 RMK AO2 T00221011
14926KSTC STC20191101080010711/01/19 08:00:31  5-MIN KSTC 011400Z 24006KT 10SM OVC034 02/M01 A2998 980 82 -200 240/06 RMK AO2 T00221006
14926KSTC STC20191101080510711/01/19 08:05:31  5-MIN KSTC 011405Z 25008KT 10SM OVC035 02/M01 A2998 980 82 -200 250/08 RMK AO2 T00221006
14926KSTC STC20191101162511411/01/19 16:25:31  5-MIN KSTC 012225Z 30011KT 10SM BKN035 OVC047 04/M03 A3003 930 59 -100 300/11 RMK AO2 T00391033
14926KSTC STC20191101163011411/01/19 16:30:31  5-MIN KSTC 012230Z 30010KT 10SM BKN033 OVC047 04/M03 A3004 930 62 -100 300/10 RMK AO2 T00391028
14926KSTC STC20191101163511411/01/19 16:35:31  5-MIN KSTC 012235Z 31010KT 10SM BKN035 OVC045 04/M03 A3004 930 62 -100 310/10 RMK AO2 T00391028
14926KSTC STC20191101164011411/01/19 16:40:31  5-MIN KSTC 012240Z 30010KT 10SM SCT035 OVC045 03/M03 A3004 920 64 -200 300/10 RMK AO2 T00331028
14926KSTC STC20191101164511411/01/19 16:45:31  5-MIN KSTC 012245Z 31008KT 10SM SCT035 OVC045 03/M03 A3004 920 64 -200 310/08 RMK AO2 T00331028
14926KSTC STC20191101165012111/01/19 16:50:31  5-MIN KSTC 012250Z 32006KT 10SM SCT035 OVC045 03/M03 A3004 920 64 -200 320/06 RMK AO2 SLP192 T00331028
14926KSTC STC20191101165511411/01/19 16:55:31  5-MIN KSTC 012255Z 32005KT 10SM FEW033 OVC045 03/M03 A3004 920 64 -200 310/05 RMK AO2 T00331028
14926KSTC STC20191101170010711/01/19 17:00:31  5-MIN KSTC 012300Z 31006KT 10SM OVC047 03/M03 A3004 920 67 -200 310/06 RMK AO2 T00281028
14926KSTC STC20191101170510711/01/19 17:05:31  5-MIN KSTC 012305Z 31005KT 10SM OVC047 03/M03 A3004 920 67 -200 310/05 RMK AO2 T00281028
14926KSTC STC20191101171012111/01/19 17:10:31  5-MIN KSTC 012310Z 31005KT 10SM BKN047 BKN055 BKN120 03/M03 A3004 920 67 -200 300/05 RMK AO2 T00281028
14926KSTC STC20191101171510711/01/19 17:15:31  5-MIN KSTC 012315Z 29006KT 10SM BKN047 03/M03 A3004 920 67 -200 290/06 RMK AO2 T00281028
14926KSTC STC20191101172010711/01/19 17:20:31  5-MIN KSTC 012320Z 28004KT 10SM BKN047 03/M03 A3004 920 67 -200 280/04 RMK AO2 T00281028
14926KSTC STC20191101172510711/01/19 17:25:31  5-MIN KSTC 012325Z 29004KT 10SM SCT047 03/M03 A3004 920 67 -200 290/04 RMK AO2 T00281028
14926KSTC STC20191101173011411/01/19 17:30:31  5-MIN KSTC 012330Z 29003KT 10SM SCT049 SCT060 03/M03 A3004 920 67 -200 290/03 RMK AO2 T00281028
14926KSTC STC20191101173510711/01/19 17:35:31  5-MIN KSTC 012335Z 29004KT 10SM SCT049 02/M03 A3004 920 69 -300 290/04 RMK AO2 T00221028
14926KSTC STC20191101174010711/01/19 17:40:31  5-MIN KSTC 012340Z 29003KT 10SM BKN049 02/M03 A3004 920 69 -300 290/03 RMK AO2 T00221028
14926KSTC STC20191101174510711/01/19 17:45:31  5-MIN KSTC 012345Z 28003KT 10SM BKN050 03/M03 A3004 920 67 -300 280/03 RMK AO2 T00281028
14926KSTC STC20191101175013211/01/19 17:50:31  5-MIN KSTC 012350Z 27003KT 10SM BKN050 02/M03 A3004 920 69 -300 270/03 RMK AO2 SLP193 T00221028 10044 20022 53002
14926KSTC STC20191101175510711/01/19 17:55:31  5-MIN KSTC 012355Z 27004KT 10SM BKN050 02/M03 A3004 920 69 -300 270/04 RMK AO2 T00221028
14926KSTC STC20191101180010711/01/19 18:00:31  5-MIN KSTC 020000Z 27004KT 10SM BKN050 02/M03 A3005 920 72 -400 270/04 RMK AO2 T00171028
14926KSTC STC20191101180510711/01/19 18:05:31  5-MIN KSTC 020005Z 27005KT 10SM BKN050 02/M03 A3005 920 72 -400 270/05 RMK AO2 T00171028
14926KSTC STC20191101181010711/01/19 18:10:31  5-MIN KSTC 020010Z 27004KT 10SM BKN050 02/M03 A3005 920 69 -300 270/04 RMK AO2 T00221028
14926KSTC STC20191101181511411/01/19 18:15:31  5-MIN KSTC 020015Z 26003KT 10SM FEW044 BKN050 02/M03 A3005 920 72 -400 260/03 RMK AO2 T00171028
14926KSTC STC20191101182011411/01/19 18:20:31  5-MIN KSTC 020020Z 26003KT 10SM SCT044 BKN050 02/M02 A3005 920 75 -400 260/03 RMK AO2 T00171022
14926KSTC STC20191101182511411/01/19 18:25:31  5-MIN KSTC 020025Z 27003KT 10SM BKN040 OVC050 02/M02 A3005 920 72 -300 270/03 RMK AO2 T00221022
14926KSTC STC20191101183011411/01/19 18:30:31  5-MIN KSTC 020030Z 00000KT 10SM BKN040 OVC050 02/M02 A3005 910 72 -300 000/00 RMK AO2 T00221022
14926KSTC STC20191101183511411/01/19 18:35:31  5-MIN KSTC 020035Z 27003KT 10SM BKN040 OVC048 02/M02 A3005 910 72 -300 270/03 RMK AO2 T00221022
14926KSTC STC20191101184011411/01/19 18:40:31  5-MIN KSTC 020040Z 27004KT 10SM BKN039 OVC047 02/M02 A3005 910 72 -300 270/04 RMK AO2 T00221022
14926KSTC STC20191101184510711/01/19 18:45:31  5-MIN KSTC 020045Z 29004KT 10SM OVC039 02/M02 A3005 910 72 -300 290/04 RMK AO2 T00221022
14926KSTC STC20191101185011411/01/19 18:50:31  5-MIN KSTC 020050Z 31006KT 10SM OVC037 03/M03 A3005 910 67 -300 310/06 RMK AO2 SLP195 T00281028
14926KSTC STC20191101185510711/01/19 18:55:31  5-MIN KSTC 020055Z 31005KT 10SM OVC037 03/M03 A3005 910 67 -300 310/05 RMK AO2 T00281028
14926KSTC STC20191101190010711/01/19 19:00:31  5-MIN KSTC 020100Z 32006KT 10SM OVC037 03/M03 A3005 910 67 -300 320/06 RMK AO2 T00281028
14926KSTC STC20191101190510711/01/19 19:05:31  5-MIN KSTC 020105Z 32006KT 10SM OVC037 03/M03 A3005 910 67 -300 310/06 RMK AO2 T00281028
14926KSTC STC20191101191010711/01/19 19:10:31  5-MIN KSTC 020110Z 31007KT 10SM OVC037 03/M03 A3005 910 67 -300 310/07 RMK AO2 T00281028
14926KSTC STC20191101191510711/01/19 19:15:31  5-MIN KSTC 020115Z 32007KT 10SM OVC037 03/M03 A3005 910 67 -300 320/07 RMK AO2 T00281028
14926KSTC STC20191101192011411/01/19 19:20:31  5-MIN KSTC 020120Z 33005KT 10SM BKN037 OVC046 03/M03 A3005 910 67 -300 330/05 RMK AO2 T00281028
14926KSTC STC20191101192511411/01/19 19:25:31  5-MIN KSTC 020125Z 33008KT 10SM BKN037 OVC048 03/M03 A3005 910 64 -300 330/08 RMK AO2 T00281033
14926KSTC STC20191101193011411/01/19 19:30:31  5-MIN KSTC 020130Z 33007KT 10SM SCT038 OVC050 03/M03 A3006 910 64 -300 330/07 RMK AO2 T00281033
14926KSTC STC20191101193512111/01/19 19:35:31  5-MIN KSTC 020135Z 32006KT 10SM SCT038 BKN050 OVC060 03/M03 A3006 910 64 -300 320/06 RMK AO2 T00281033
14926KSTC STC20191101194012111/01/19 19:40:31  5-MIN KSTC 020140Z 32005KT 10SM SCT036 BKN047 OVC055 03/M03 A3006 910 64 -300 320/05 RMK AO2 T00281033
14926KSTC STC20191101194512111/01/19 19:45:31  5-MIN KSTC 020145Z 32004KT 10SM FEW036 BKN045 OVC055 03/M03 A3006 910 64 -300 320/04 RMK AO2 T00281033
14926KSTC STC20191101195012811/01/19 19:50:31  5-MIN KSTC 020150Z 32006KT 10SM FEW036 BKN045 OVC070 02/M03 A3006 910 67 -300 320/06 RMK AO2 SLP197 T00221033
14926KSTC STC20191101195512111/01/19 19:55:31  5-MIN KSTC 020155Z 31005KT 10SM FEW035 BKN055 OVC075 02/M03 A3005 910 67 -300 310/05 RMK AO2 T00221033
14926KSTC STC20191101200012111/01/19 20:00:31  5-MIN KSTC 020200Z 31005KT 10SM FEW035 BKN075 OVC090 02/M03 A3005 910 67 -300 310/05 RMK AO2 T00221033
14926KSTC STC20191101200512111/01/19 20:05:31  5-MIN KSTC 020205Z 30004KT 10SM FEW044 BKN075 OVC090 02/M03 A3005 910 69 -400 300/04 RMK AO2 T00171033
14926KSTC STC20191101201012111/01/19 20:10:31  5-MIN KSTC 020210Z 30005KT 10SM FEW044 SCT075 OVC090 02/M03 A3005 910 69 -400 300/05 RMK AO2 T00171033
14926KSTC STC20191101201511411/01/19 20:15:31  5-MIN KSTC 020215Z 30005KT 10SM BKN080 OVC090 02/M03 A3005 910 69 -400 300/05 RMK AO2 T00171033
14926KSTC STC20191101202010711/01/19 20:20:31  5-MIN KSTC 020220Z 29005KT 10SM OVC085 02/M03 A3005 910 69 -400 290/05 RMK AO2 T00171033
14926KSTC STC20191101202510711/01/19 20:25:31  5-MIN KSTC 020225Z 29007KT 10SM OVC090 02/M04 A3005 910 64 -300 290/07 RMK AO2 T00221039
14926KSTC STC20191101203010711/01/19 20:30:31  5-MIN KSTC 020230Z 30007KT 10SM OVC090 02/M04 A3005 910 66 -400 300/07 RMK AO2 T00171039
14926KSTC STC20191101203510711/01/19 20:35:31  5-MIN KSTC 020235Z 29006KT 10SM OVC090 02/M04 A3005 910 66 -400 290/06 RMK AO2 T00171039
14926KSTC STC20191101204011411/01/19 20:40:31  5-MIN KSTC 020240Z 31005KT 10SM BKN090 OVC120 01/M04 A3005 910 69 -500 310/05 RMK AO2 T00111039
14926KSTC STC20191101204511411/01/19 20:45:31  5-MIN KSTC 020245Z 31005KT 10SM BKN090 OVC120 01/M04 A3005 910 69 -500 300/05 RMK AO2 T00111039
14926KSTC STC20191101205012711/01/19 20:50:31  5-MIN KSTC 020250Z 31004KT 10SM BKN090 OVC120 01/M04 A3005 920 72 -500 310/04 RMK AO2 SLP195 T00061039 51009
14926KSTC STC20191101205511411/01/19 20:55:31  5-MIN KSTC 020255Z 31005KT 10SM SCT090 BKN120 01/M04 A3005 910 72 -500 300/05 RMK AO2 T00061039
14926KSTC STC20191101210011411/01/19 21:00:31  5-MIN KSTC 020300Z 30006KT 10SM SCT090 BKN120 00/M04 A3005 910 75 -600 300/06 RMK AO2 T00001039
14926KSTC STC20191101210511511/01/19 21:05:31  5-MIN KSTC 020305Z 29005KT 10SM FEW090 BKN120 M01/M04 A3005 910 78 -700 290/05 RMK AO2 T10111044
14926KSTC STC20191101211011511/01/19 21:10:31  5-MIN KSTC 020310Z 28006KT 10SM FEW090 SCT120 M01/M04 A3006 910 78 -800 280/06 RMK AO2 T10111044
14926KSTC STC20191101211511511/01/19 21:15:31  5-MIN KSTC 020315Z 28007KT 10SM FEW090 FEW120 M01/M04 A3006 910 78 -800 280/07 RMK AO2 T10111044
14926KSTC STC20191101212010811/01/19 21:20:31  5-MIN KSTC 020320Z 27008KT 10SM FEW090 M01/M04 A3006 910 75 -700 270/08 RMK AO2 T10061044
14926KSTC STC20191101212510711/01/19 21:25:31  5-MIN KSTC 020325Z 27006KT 10SM FEW090 00/M03 A3006 910 78 -600 270/06 RMK AO2 T00001033
14926KSTC STC20191101213010511/01/19 21:30:31  5-MIN KSTC 020330Z 26006KT 10SM CLR M01/M04 A3006 910 81 -800 260/06 RMK AO2 T10111039
14926KSTC STC20191101213510511/01/19 21:35:31  5-MIN KSTC 020335Z 25006KT 10SM CLR M02/M04 A3005 910 85 -800 250/06 RMK AO2 T10171039
14926KSTC STC20191101214010511/01/19 21:40:31  5-MIN KSTC 020340Z 25007KT 10SM CLR M02/M04 A3005 910 85 -800 250/07 RMK AO2 T10171039
14926KSTC STC20191101214510511/01/19 21:45:31  5-MIN KSTC 020345Z 25006KT 10SM CLR M02/M03 A3005 910 88 -800 250/06 RMK AO2 T10171033
14926KSTC STC20191101215011511/01/19 21:50:31  5-MIN KSTC 020350Z 25006KT 10SM SCT120 M02/M03 A3005 910 88 -800 250/06 RMK AO2 SLP197 T10171033
14926KSTC STC20191101215510811/01/19 21:55:31  5-MIN KSTC 020355Z 25006KT 10SM BKN120 M02/M03 A3005 910 88 -800 250/06 RMK AO2 T10171033
14926KSTC STC20191101220011311/01/19 22:00:31  5-MIN KSTC 020400Z AUTO 25006KT 10SM BKN120 M01/M03 A3005 910 88 -700 250/06 RMK AO2 T10111028
14926KSTC STC20191101220511311/01/19 22:05:31  5-MIN KSTC 020405Z AUTO 25006KT 10SM BKN120 M01/M03 A3005 910 88 -800 250/06 RMK AO2 T10111028
14926KSTC STC20191101221011311/01/19 22:10:31  5-MIN KSTC 020410Z AUTO 25006KT 10SM OVC120 M01/M02 A3005 910 88 -700 250/06 RMK AO2 T10061022
14926KSTC STC20191101221511311/01/19 22:15:31  5-MIN KSTC 020415Z AUTO 25006KT 10SM OVC120 M01/M02 A3005 910 88 -700 250/06 RMK AO2 T10061022
14926KSTC STC20191101222011311/01/19 22:20:31  5-MIN KSTC 020420Z AUTO 25005KT 10SM OVC120 M01/M02 A3005 910 88 -700 250/05 RMK AO2 T10061022
14926KSTC STC20191101222511311/01/19 22:25:31  5-MIN KSTC 020425Z AUTO 25006KT 10SM OVC120 M01/M02 A3005 910 88 -700 250/06 RMK AO2 T10061022
14926KSTC STC20191101223011311/01/19 22:30:31  5-MIN KSTC 020430Z AUTO 25006KT 10SM OVC120 M01/M02 A3005 910 88 -700 250/06 RMK AO2 T10061022
14926KSTC STC20191101223511311/01/19 22:35:31  5-MIN KSTC 020435Z AUTO 25006KT 10SM OVC120 M01/M02 A3005 910 92 -700 250/06 RMK AO2 T10111022
14926KSTC STC20191101224011311/01/19 22:40:31  5-MIN KSTC 020440Z AUTO 25006KT 10SM OVC120 M01/M02 A3005 910 92 -700 250/06 RMK AO2 T10111022
14926KSTC STC20191101224511311/01/19 22:45:31  5-MIN KSTC 020445Z AUTO 25007KT 10SM BKN120 M01/M03 A3005 910 88 -700 250/07 RMK AO2 T10111028
14926KSTC STC20191101225012011/01/19 22:50:31  5-MIN KSTC 020450Z AUTO 25007KT 10SM BKN120 M01/M03 A3005 910 88 -700 250/07 RMK AO2 SLP196 T10111028
14926KSTC STC20191101225511311/01/19 22:55:31  5-MIN KSTC 020455Z AUTO 25007KT 10SM BKN120 M01/M03 A3005 910 88 -700 250/07 RMK AO2 T10111028
14926KSTC STC20191101230011311/01/19 23:00:31  5-MIN KSTC 020500Z AUTO 26007KT 10SM BKN120 M01/M03 A3005 920 88 -700 250/07 RMK AO2 T10111028
14926KSTC STC20191101230511311/01/19 23:05:31  5-MIN KSTC 020505Z AUTO 25007KT 10SM BKN120 M01/M03 A3005 920 88 -700 250/07 RMK AO2 T10111028
14926KSTC STC20191101231011311/01/19 23:10:31  5-MIN KSTC 020510Z AUTO 24005KT 10SM SCT120 M01/M03 A3005 920 88 -700 240/05 RMK AO2 T10111028
14926KSTC STC20191101231512011/01/19 23:15:31  5-MIN KSTC 020515Z AUTO 23005KT 10SM FEW049 SCT120 M01/M02 A3005 920 92 -700 230/05 RMK AO2 T10111022
14926KSTC STC20191101232012011/01/19 23:20:31  5-MIN KSTC 020520Z AUTO 23005KT 10SM SCT049 BKN120 M01/M02 A3005 920 92 -700 230/05 RMK AO2 T10111022
14926KSTC STC20191101232512011/01/19 23:25:31  5-MIN KSTC 020525Z AUTO 24006KT 10SM BKN049 BKN120 M01/M02 A3005 920 92 -700 240/06 RMK AO2 T10111022
14926KSTC STC20191101233012011/01/19 23:30:31  5-MIN KSTC 020530Z AUTO 25007KT 10SM SCT048 BKN120 M01/M02 A3005 920 92 -700 250/07 RMK AO2 T10111022
14926KSTC STC20191101233511311/01/19 23:35:31  5-MIN KSTC 020535Z AUTO 25007KT 10SM SCT048 M01/M02 A3005 920 92 -700 250/07 RMK AO2 T10111022
14926KSTC STC20191101234011311/01/19 23:40:31  5-MIN KSTC 020540Z AUTO 25007KT 10SM SCT048 M01/M02 A3004 920 92 -700 250/07 RMK AO2 T10111022
14926KSTC STC20191101234511311/01/19 23:45:31  5-MIN KSTC 020545Z AUTO 25007KT 10SM SCT049 M01/M02 A3004 920 92 -700 250/07 RMK AO2 T10111022
14926KSTC STC20191101235014811/01/19 23:50:31  5-MIN KSTC 020550Z AUTO 26007KT 10SM FEW049 M01/M02 A3004 920 92 -700 250/07 RMK AO2 SLP193 T10111022 10028 21017 400441017 50001
14926KSTC STC20191101235511011/01/19 23:55:31  5-MIN KSTC 020555Z AUTO 26008KT 10SM CLR M01/M03 A3004 920 88 -700 260/08 RMK AO2 T10111028
14926KSTC STC20191102000011011/02/19 00:00:31  5-MIN KSTC 020600Z AUTO 26009KT 10SM CLR M01/M03 A3004 920 88 -700 260/09 RMK AO2 T10111028
14926KSTC STC20191102000511011/02/19 00:05:31  5-MIN KSTC 020605Z AUTO 26008KT 10SM CLR M01/M03 A3004 920 88 -700 260/08 RMK AO2 T10111028
14926KSTC STC20191102001011011/02/19 00:10:31  5-MIN KSTC 020610Z AUTO 26008KT 10SM CLR M01/M03 A3004 920 88 -700 260/08 RMK AO2 T10111028
14926KSTC STC20191102001511011/02/19 00:15:31  5-MIN KSTC 020615Z AUTO 26008KT 10SM CLR M01/M03 A3004 920 88 -700 250/08 RMK AO2 T10111028
14926KSTC STC20191102002011311/02/19 00:20:31  5-MIN KSTC 020620Z AUTO 25008KT 10SM FEW085 M01/M02 A3004 920 92 -700 250/08 RMK AO2 T10111022
14926KSTC STC20191102002511311/02/19 00:25:31  5-MIN KSTC 020625Z AUTO 25008KT 10SM SCT085 M01/M02 A3004 920 92 -700 250/08 RMK AO2 T10111022
14926KSTC STC20191102003011311/02/19 00:30:31  5-MIN KSTC 020630Z AUTO 26008KT 10SM BKN085 M01/M02 A3004 920 92 -700 250/08 RMK AO2 T10111022
14926KSTC STC20191102003511311/02/19 00:35:31  5-MIN KSTC 020635Z AUTO 25007KT 10SM BKN085 M01/M02 A3004 920 88 -700 250/07 RMK AO2 T10061022
14926KSTC STC20191102004011311/02/19 00:40:31  5-MIN KSTC 020640Z AUTO 25008KT 10SM BKN085 M01/M02 A3004 920 88 -700 250/08 RMK AO2 T10061022
14926KSTC STC20191102004511311/02/19 00:45:31  5-MIN KSTC 020645Z AUTO 26008KT 10SM BKN090 M01/M02 A3004 920 88 -700 250/08 RMK AO2 T10061022
14926KSTC STC20191102005012011/02/19 00:50:31  5-MIN KSTC 020650Z AUTO 26008KT 10SM OVC090 M01/M02 A3004 920 88 -700 260/08 RMK AO2 SLP192 T10061022
14926KSTC STC20191102005512011/02/19 00:55:31  5-MIN KSTC 020655Z AUTO 26009KT 10SM FEW070 OVC090 M01/M02 A3004 920 88 -700 260/09 RMK AO2 T10061022
14926KSTC STC20191102010012011/02/19 01:00:31  5-MIN KSTC 020700Z AUTO 27009KT 10SM BKN070 OVC090 M01/M02 A3004 920 88 -700 270/09 RMK AO2 T10061022
14926KSTC STC20191102010512011/02/19 01:05:31  5-MIN KSTC 020705Z AUTO 27008KT 10SM BKN065 OVC085 M01/M02 A3004 920 88 -700 270/08 RMK AO2 T10061022
14926KSTC STC20191102011012711/02/19 01:10:31  5-MIN KSTC 020710Z AUTO 27009KT 10SM BKN065 BKN080 OVC090 M01/M02 A3004 920 88 -700 270/09 RMK AO2 T10061022
14926KSTC STC20191102011512011/02/19 01:15:31  5-MIN KSTC 020715Z AUTO 27008KT 10SM BKN065 OVC085 M01/M02 A3004 920 92 -700 270/08 RMK AO2 T10061017
14926KSTC STC20191102012011311/02/19 01:20:31  5-MIN KSTC 020720Z AUTO 27008KT 10SM OVC065 M01/M02 A3004 920 88 -700 270/08 RMK AO2 T10061022
14926KSTC STC20191102012511911/02/19 01:25:31  5-MIN KSTC 020725Z AUTO 27008KT 10SM FEW029 OVC060 00/M02 A3004 920 88 -600 270/08 RMK AO2 T00001017
14926KSTC STC20191102013012711/02/19 01:30:31  5-MIN KSTC 020730Z AUTO 27008KT 10SM FEW029 SCT037 OVC060 M01/M02 A3004 920 92 -700 270/08 RMK AO2 T10061017
14926KSTC STC20191102013512711/02/19 01:35:31  5-MIN KSTC 020735Z AUTO 27007KT 10SM SCT029 BKN037 OVC060 M01/M02 A3004 920 92 -700 270/07 RMK AO2 T10061017
14926KSTC STC20191102014012711/02/19 01:40:31  5-MIN KSTC 020740Z AUTO 27006KT 10SM BKN028 BKN039 OVC060 M01/M02 A3004 920 92 -700 270/06 RMK AO2 T10061017
14926KSTC STC20191102014511911/02/19 01:45:31  5-MIN KSTC 020745Z AUTO 27006KT 10SM BKN028 OVC055 00/M02 A3004 920 88 -600 270/06 RMK AO2 T00001017
14926KSTC STC20191102015012511/02/19 01:50:31  5-MIN KSTC 020750Z AUTO 26006KT 8SM BKN028 OVC050 00/M02 A3004 920 88 -600 260/06 RMK AO2 SLP192 T00001017
14926KSTC STC20191102015513111/02/19 01:55:31  5-MIN KSTC 020755Z AUTO 27006KT 6SM -SN BR BKN028 OVC040 00/M02 A3004 920 88 -600 260/06 RMK AO2 P0000 T00001017
14926KSTC STC20191102020012411/02/19 02:00:31  5-MIN KSTC 020800Z AUTO 27006KT 6SM -SN BR OVC029 00/M02 A3004 920 88 -600 270/06 RMK AO2 P0000 T00001017
14926KSTC STC20191102020512111/02/19 02:05:31  5-MIN KSTC 020805Z AUTO 27007KT 7SM -SN OVC029 00/M02 A3004 920 88 -600 270/07 RMK AO2 P0000 T00001017
14926KSTC STC20191102021013711/02/19 02:10:31  5-MIN KSTC 020810Z AUTO 26006KT 9SM FEW020 SCT025 OVC029 00/M02 A3004 920 88 -600 260/06 RMK AO2 SNE07 P0000 T00001017
14926KSTC STC20191102021513511/02/19 02:15:31  5-MIN KSTC 020815Z AUTO 26006KT 9SM -SN FEW017 BKN025 OVC029 00/M02 A3004 920 88 -600 260/06 RMK AO2 P0000 T00001017
14926KSTC STC20191102022013511/02/19 02:20:31  5-MIN KSTC 020820Z AUTO 26007KT 9SM -SN FEW019 BKN026 OVC031 00/M02 A3004 920 88 -600 260/07 RMK AO2 P0000 T00001017
14926KSTC STC20191102022513711/02/19 02:25:31  5-MIN KSTC 020825Z AUTO 26006KT 9SM FEW019 BKN026 OVC031 00/M02 A3004 930 88 -600 250/06 RMK AO2 SNE23 P0000 T00001017
14926KSTC STC20191102023013811/02/19 02:30:31  5-MIN KSTC 020830Z AUTO 26005KT 10SM FEW019 BKN026 OVC031 00/M02 A3004 920 88 -600 260/05 RMK AO2 SNE23 P0000 T00001017
14926KSTC STC20191102023513111/02/19 02:35:31  5-MIN KSTC 020835Z AUTO 26005KT 10SM SCT026 OVC033 00/M02 A3004 920 88 -600 260/05 RMK AO2 SNE23 P0000 T00001017
14926KSTC STC20191102024013811/02/19 02:40:31  5-MIN KSTC 020840Z AUTO 28007KT 10SM FEW023 BKN030 OVC037 00/M02 A3004 920 88 -600 270/07 RMK AO2 SNE23 P0000 T00001017
14926KSTC STC20191102024513811/02/19 02:45:31  5-MIN KSTC 020845Z AUTO 28006KT 10SM SCT025 BKN030 OVC037 00/M02 A3004 920 88 -600 280/06 RMK AO2 SNE23 P0000 T00001017
14926KSTC STC20191102025015711/02/19 02:50:31  5-MIN KSTC 020850Z AUTO 27006KT 10SM FEW025 BKN030 OVC038 00/M02 A3004 920 88 -600 270/06 RMK AO2 SNE23 SLP192 P0000 60000 T00001017 58002
14926KSTC STC20191102025512611/02/19 02:55:31  5-MIN KSTC 020855Z AUTO 28008KT 10SM FEW025 BKN030 OVC038 01/M02 A3004 920 85 -500 280/08 RMK AO2 T00061017
14926KSTC STC20191102030011911/02/19 03:00:31  5-MIN KSTC 020900Z AUTO 28007KT 10SM BKN028 OVC038 01/M02 A3004 920 85 -500 280/07 RMK AO2 T00061017
14926KSTC STC20191102030512611/02/19 03:05:31  5-MIN KSTC 020905Z AUTO 28008KT 10SM FEW025 BKN030 OVC040 01/M02 A3004 920 85 -500 280/08 RMK AO2 T00061017
14926KSTC STC20191102031011211/02/19 03:10:31  5-MIN KSTC 020910Z AUTO 29010KT 10SM OVC028 01/M02 A3004 920 85 -500 290/10 RMK AO2 T00061017
14926KSTC STC20191102031511211/02/19 03:15:31  5-MIN KSTC 020915Z AUTO 29010KT 10SM OVC028 01/M02 A3004 920 85 -500 290/10 RMK AO2 T00061017
14926KSTC STC20191102032011911/02/19 03:20:31  5-MIN KSTC 020920Z AUTO 29010KT 10SM BKN028 OVC075 01/M02 A3004 920 85 -500 290/10 RMK AO2 T00061017
14926KSTC STC20191102032511911/02/19 03:25:31  5-MIN KSTC 020925Z AUTO 29008KT 10SM BKN028 OVC075 01/M02 A3004 920 82 -500 290/08 RMK AO2 T00061022
14926KSTC STC20191102033011911/02/19 03:30:31  5-MIN KSTC 020930Z AUTO 29011KT 10SM SCT028 OVC075 01/M02 A3004 920 82 -500 290/11 RMK AO2 T00061022
14926KSTC STC20191102033511911/02/19 03:35:31  5-MIN KSTC 020935Z AUTO 29010KT 10SM SCT028 OVC075 01/M02 A3004 920 82 -500 290/10 RMK AO2 T00061022
14926KSTC STC20191102034011911/02/19 03:40:31  5-MIN KSTC 020940Z AUTO 29008KT 10SM FEW028 OVC075 01/M02 A3004 920 82 -500 290/08 RMK AO2 T00061022
14926KSTC STC20191102034511211/02/19 03:45:31  5-MIN KSTC 020945Z AUTO 30012KT 10SM OVC075 01/M02 A3004 920 82 -500 300/12 RMK AO2 T00061022
14926KSTC STC20191102035011911/02/19 03:50:31  5-MIN KSTC 020950Z AUTO 29011KT 10SM OVC075 01/M02 A3005 920 82 -500 290/11 RMK AO2 SLP193 T00061022
14926KSTC STC20191102035511211/02/19 03:55:31  5-MIN KSTC 020955Z AUTO 29009KT 10SM OVC075 00/M02 A3005 920 85 -600 290/09 RMK AO2 T00001022
14926KSTC STC20191102040011211/02/19 04:00:31  5-MIN KSTC 021000Z AUTO 29011KT 10SM OVC075 00/M02 A3005 920 85 -600 290/11 RMK AO2 T00001022
14926KSTC STC20191102040511211/02/19 04:05:31  5-MIN KSTC 021005Z AUTO 29009KT 10SM OVC075 00/M02 A3005 920 85 -600 290/09 RMK AO2 T00001022
14926KSTC STC20191102041011211/02/19 04:10:31  5-MIN KSTC 021010Z AUTO 29011KT 10SM OVC075 00/M03 A3005 920 81 -600 290/11 RMK AO2 T00001028
14926KSTC STC20191102041511211/02/19 04:15:31  5-MIN KSTC 021015Z AUTO 29009KT 10SM OVC075 00/M03 A3005 910 81 -600 290/09 RMK AO2 T00001028
14926KSTC STC20191102042011211/02/19 04:20:31  5-MIN KSTC 021020Z AUTO 30012KT 10SM BKN075 00/M03 A3005 910 81 -600 290/12 RMK AO2 T00001028
14926KSTC STC20191102042511211/02/19 04:25:31  5-MIN KSTC 021025Z AUTO 29013KT 10SM SCT075 00/M03 A3005 910 81 -600 290/13 RMK AO2 T00001028
14926KSTC STC20191102043011211/02/19 04:30:31  5-MIN KSTC 021030Z AUTO 29012KT 10SM SCT075 00/M03 A3005 910 78 -600 290/12 RMK AO2 T00001033
14926KSTC STC20191102043511911/02/19 04:35:31  5-MIN KSTC 021035Z AUTO 30012KT 10SM FEW055 SCT075 00/M03 A3005 910 78 -600 300/12 RMK AO2 T00001033
14926KSTC STC20191102044011911/02/19 04:40:31  5-MIN KSTC 021040Z AUTO 30011KT 10SM SCT055 SCT070 00/M03 A3005 910 78 -600 300/11 RMK AO2 T00001033
14926KSTC STC20191102044511211/02/19 04:45:31  5-MIN KSTC 021045Z AUTO 30012KT 10SM BKN065 00/M03 A3005 910 78 -600 300/12 RMK AO2 T00001033
14926KSTC STC20191102045012411/02/19 04:50:31  5-MIN KSTC 021050Z AUTO 31013KT 10SM BKN065 00/M04 A3005 910 75 -600 310/13 RMK AO2 SLP197 T00001039 TSNO
14926KSTC STC20191102045511811/02/19 04:55:31  5-MIN KSTC 021055Z AUTO 31015G23KT 10SM BKN065 00/M04 A3006 910 72 -600 310/15G23 RMK AO2 T00001044
14926KSTC STC20191102050011811/02/19 05:00:31  5-MIN KSTC 021100Z AUTO 31012G23KT 10SM OVC065 00/M05 A3005 910 69 -600 310/12G23 RMK AO2 T00001050
14926KSTC STC20191102050511311/02/19 05:05:31  5-MIN KSTC 021105Z AUTO 31011KT 10SM OVC065 M01/M05 A3005 910 72 -700 310/11 RMK AO2 T10061050
14926KSTC STC20191102051011911/02/19 05:10:31  5-MIN KSTC 021110Z AUTO 31011G20KT 10SM OVC065 M01/M05 A3005 910 72 -700 310/11G20 RMK AO2 T10061050
14926KSTC STC20191102051511311/02/19 05:15:31  5-MIN KSTC 021115Z AUTO 31011KT 10SM OVC065 M01/M05 A3006 910 72 -700 300/11 RMK AO2 T10061050
14926KSTC STC20191102052011311/02/19 05:20:31  5-MIN KSTC 021120Z AUTO 30011KT 10SM OVC065 M01/M05 A3006 910 72 -700 290/11 RMK AO2 T10061050
14926KSTC STC20191102052511911/02/19 05:25:31  5-MIN KSTC 021125Z AUTO 31011G21KT 10SM OVC065 M01/M05 A3006 910 72 -700 310/11G21 RMK AO2 T10061050
14926KSTC STC20191102053011911/02/19 05:30:31  5-MIN KSTC 021130Z AUTO 32013G22KT 10SM OVC065 M01/M06 A3006 900 69 -700 320/13G22 RMK AO2 T10061056
14926KSTC STC20191102053511911/02/19 05:35:31  5-MIN KSTC 021135Z AUTO 32013G22KT 10SM OVC060 M01/M06 A3006 900 69 -700 320/13G22 RMK AO2 T10061056
14926KSTC STC20191102054011911/02/19 05:40:31  5-MIN KSTC 021140Z AUTO 32010G18KT 10SM OVC060 M01/M06 A3006 900 69 -700 320/10G18 RMK AO2 T10061056
14926KSTC STC20191102054511311/02/19 05:45:31  5-MIN KSTC 021145Z AUTO 31009KT 10SM OVC060 M01/M06 A3007 900 72 -800 310/09 RMK AO2 T10111056
14926KSTC STC20191102055013911/02/19 05:50:31  5-MIN KSTC 021150Z 31010KT 10SM OVC060 M01/M06 A3007 900 72 -800 310/10 RMK AO2 SLP201 60000 T10111056 10006 21011 56000
14926KSTC STC20191102055510811/02/19 05:55:31  5-MIN KSTC 021155Z 30012KT 10SM OVC060 M01/M06 A3007 900 72 -800 300/12 RMK AO2 T10111056
14926KSTC STC20191102060010811/02/19 06:00:31  5-MIN KSTC 021200Z 31015KT 10SM OVC060 M01/M06 A3006 900 72 -800 310/15 RMK AO2 T10111056
14926KSTC STC20191102060510811/02/19 06:05:31  5-MIN KSTC 021205Z 31013KT 10SM OVC055 M01/M06 A3006 900 72 -800 310/13 RMK AO2 T10111056
14926KSTC STC20191102061010811/02/19 06:10:31  5-MIN KSTC 021210Z 31014KT 10SM OVC055 M01/M06 A3006 900 72 -800 310/14 RMK AO2 T10111056
14926KSTC STC20191102061510811/02/19 06:15:31  5-MIN KSTC 021215Z 31013KT 10SM OVC050 M01/M06 A3006 900 72 -800 310/13 RMK AO2 T10111056
14926KSTC STC20191102062010811/02/19 06:20:31  5-MIN KSTC 021220Z 31012KT 10SM OVC050 M01/M06 A3007 900 72 -800 310/12 RMK AO2 T10111056
14926KSTC STC20191102062511411/02/19 06:25:31  5-MIN KSTC 021225Z 31014G20KT 10SM OVC050 M01/M06 A3007 900 72 -800 310/14G20 RMK AO2 T10111056
14926KSTC STC20191102063010811/02/19 06:30:31  5-MIN KSTC 021230Z 31014KT 10SM OVC050 M01/M06 A3007 900 69 -800 310/14 RMK AO2 T10111061
14926KSTC STC20191102063510811/02/19 06:35:31  5-MIN KSTC 021235Z 31014KT 10SM OVC050 M01/M06 A3007 900 72 -800 310/14 RMK AO2 T10111056
14926KSTC STC20191102064010811/02/19 06:40:31  5-MIN KSTC 021240Z 31014KT 10SM OVC050 M01/M06 A3007 900 69 -800 310/14 RMK AO2 T10111061
14926KSTC STC20191102064510811/02/19 06:45:31  5-MIN KSTC 021245Z 31011KT 10SM OVC050 M01/M06 A3007 900 69 -800 310/11 RMK AO2 T10111061
14926KSTC STC20191102065011511/02/19 06:50:31  5-MIN KSTC 021250Z 31009KT 10SM OVC050 M01/M06 A3007 900 69 -800 310/09 RMK AO2 SLP202 T10111061
14926KSTC STC20191102065510811/02/19 06:55:31  5-MIN KSTC 021255Z 31011KT 10SM OVC050 M01/M06 A3007 900 72 -800 310/11 RMK AO2 T10111056
14926KSTC STC20191102070010811/02/19 07:00:31  5-MIN KSTC 021300Z 31009KT 10SM OVC050 M01/M06 A3007 900 72 -800 310/09 RMK AO2 T10111056
14926KSTC STC20191102070511511/02/19 07:05:31  5-MIN KSTC 021305Z 31011KT 10SM FEW024 OVC050 M01/M06 A3007 900 72 -800 310/11 RMK AO2 T10111056
14926KSTC STC20191102071011511/02/19 07:10:31  5-MIN KSTC 021310Z 31009KT 10SM FEW024 OVC050 M01/M06 A3007 900 72 -800 300/09 RMK AO2 T10111056
14926KSTC STC20191102071510811/02/19 07:15:31  5-MIN KSTC 021315Z 31009KT 10SM OVC050 M01/M06 A3007 900 72 -800 310/09 RMK AO2 T10111056
14926KSTC STC20191102072011511/02/19 07:20:31  5-MIN KSTC 021320Z 30012KT 10SM FEW023 OVC050 M01/M06 A3007 890 72 -800 300/12 RMK AO2 T10111056
14926KSTC STC20191102072511511/02/19 07:25:31  5-MIN KSTC 021325Z 30008KT 10SM SCT023 OVC049 M01/M06 A3007 890 72 -800 300/08 RMK AO2 T10111056
14926KSTC STC20191102073011511/02/19 07:30:31  5-MIN KSTC 021330Z 30007KT 10SM SCT023 OVC047 M01/M05 A3007 890 75 -800 300/07 RMK AO2 T10111050
14926KSTC STC20191102073511511/02/19 07:35:31  5-MIN KSTC 021335Z 30009KT 10SM FEW023 OVC047 M01/M05 A3007 890 75 -800 290/09 RMK AO2 T10111050
14926KSTC STC20191102074011511/02/19 07:40:31  5-MIN KSTC 021340Z 29007KT 10SM FEW023 OVC045 M01/M05 A3008 890 75 -800 290/07 RMK AO2 T10111050
14926KSTC STC20191102074511511/02/19 07:45:31  5-MIN KSTC 021345Z 29010KT 10SM FEW023 OVC042 M01/M05 A3008 890 75 -800 290/10 RMK AO2 T10111050
14926KSTC STC20191102075012911/02/19 07:50:31  5-MIN KSTC 021350Z 29008KT 10SM FEW023 BKN039 OVC046 M01/M05 A3008 880 72 -700 290/08 RMK AO2 SLP207 T10061050
14926KSTC STC20191102075512211/02/19 07:55:31  5-MIN KSTC 021355Z 30010KT 10SM SCT026 BKN039 OVC046 M01/M05 A3008 880 72 -700 300/10 RMK AO2 T10061050
14926KSTC STC20191102080012211/02/19 08:00:31  5-MIN KSTC 021400Z 30008KT 10SM SCT024 SCT029 OVC040 M01/M05 A3008 880 72 -700 300/08 RMK AO2 T10061050
14926KSTC STC20191102080512211/02/19 08:05:31  5-MIN KSTC 021405Z 29010KT 10SM FEW024 SCT029 OVC038 M01/M05 A3009 880 72 -700 290/10 RMK AO2 T10061050
14926KSTC STC20191102081011511/02/19 08:10:31  5-MIN KSTC 021410Z 29010KT 10SM FEW026 OVC036 M01/M05 A3009 880 72 -700 290/10 RMK AO2 T10061050
14926KSTC STC20191102081511511/02/19 08:15:31  5-MIN KSTC 021415Z 29011KT 10SM SCT026 OVC034 M01/M05 A3009 880 72 -700 290/11 RMK AO2 T10061050
14926KSTC STC20191102082011511/02/19 08:20:31  5-MIN KSTC 021420Z 30011KT 10SM FEW026 OVC034 M01/M05 A3009 880 72 -700 300/11 RMK AO2 T10061050
14926KSTC STC20191102082511411/02/19 08:25:31  5-MIN KSTC 021425Z 29018G23KT 10SM OVC034 M01/M05 A3009 880 72 -700 290/18G23 RMK AO2 T10061050
14926KSTC STC20191102083012111/02/19 08:30:31  5-MIN KSTC 021430Z 31014G23KT 10SM FEW028 OVC036 M01/M06 A3009 880 69 -700 310/14G23 RMK AO2 T10061056
14926KSTC STC20191102083511511/02/19 08:35:31  5-MIN KSTC 021435Z 31014KT 10SM SCT028 OVC035 M01/M06 A3009 880 69 -700 310/14 RMK AO2 T10061056
14926KSTC STC20191102084013911/02/19 08:40:31  5-MIN KSTC 021440Z 31016G26KT 10SM BKN032 OVC040 M01/M06 A3009 880 69 -700 310/16G26 RMK AO2 PK WND 32026/1440 T10061056
14926KSTC STC20191102084513211/02/19 08:45:31  5-MIN KSTC 021445Z 31016G27KT 10SM OVC035 M01/M06 A3009 870 66 -700 310/16G27 RMK AO2 PK WND 32027/1441 T10061061
14926KSTC STC20191102085014511/02/19 08:50:31  5-MIN KSTC 021450Z 32014G27KT 10SM OVC035 M01/M06 A3010 870 66 -700 310/14G27 RMK AO2 PK WND 32027/1441 SLP212 T10061061 53008
14926KSTC STC20191102085511411/02/19 08:55:31  5-MIN KSTC 021455Z 31016G26KT 10SM OVC036 M01/M07 A3010 870 63 -700 310/16G26 RMK AO2 T10061067
14926KSTC STC20191102090011411/02/19 09:00:31  5-MIN KSTC 021500Z 32017G26KT 10SM OVC036 M01/M07 A3010 870 63 -700 320/17G26 RMK AO2 T10061067
14926KSTC STC20191102090511411/02/19 09:05:31  5-MIN KSTC 021505Z 32016G25KT 10SM OVC036 M01/M07 A3010 870 61 -700 320/16G25 RMK AO2 T10061072
14926KSTC STC20191102091011411/02/19 09:10:31  5-MIN KSTC 021510Z 31019G25KT 10SM OVC036 M01/M07 A3010 870 61 -700 310/19G25 RMK AO2 T10061072
14926KSTC STC20191102091511411/02/19 09:15:31  5-MIN KSTC 021515Z 32013G24KT 10SM OVC034 M01/M07 A3010 870 61 -700 320/13G24 RMK AO2 T10061072
14926KSTC STC20191102092011411/02/19 09:20:31  5-MIN KSTC 021520Z 32013G23KT 10SM OVC034 M01/M07 A3010 870 61 -700 320/13G23 RMK AO2 T10061072
14926KSTC STC20191102092511411/02/19 09:25:31  5-MIN KSTC 021525Z 32014G23KT 10SM OVC034 M01/M07 A3010 870 61 -700 320/14G23 RMK AO2 T10061072
14926KSTC STC20191102093011411/02/19 09:30:31  5-MIN KSTC 021530Z 33010G22KT 10SM OVC034 M01/M07 A3010 870 61 -700 330/10G22 RMK AO2 T10061072
14926KSTC STC20191102093511411/02/19 09:35:31  5-MIN KSTC 021535Z 33010G22KT 10SM OVC034 M01/M07 A3010 860 61 -700 330/10G22 RMK AO2 T10061072
14926KSTC STC20191102094011411/02/19 09:40:31  5-MIN KSTC 021540Z 32013G23KT 10SM OVC034 M01/M07 A3010 860 61 -700 320/13G23 RMK AO2 T10061072
14926KSTC STC20191102094511411/02/19 09:45:31  5-MIN KSTC 021545Z 32013G25KT 10SM OVC034 M01/M07 A3010 860 61 -700 320/13G25 RMK AO2 T10061072
14926KSTC STC20191102095013911/02/19 09:50:31  5-MIN KSTC 021550Z 32016G30KT 10SM OVC032 M01/M08 A3011 860 58 -700 320/16G30 RMK AO2 PK WND 32030/1550 SLP217 T10061078
14926KSTC STC20191102095511411/02/19 09:55:31  5-MIN KSTC 021555Z 32016G30KT 10SM OVC034 M01/M08 A3011 860 58 -700 320/16G30 RMK AO2 T10061078
14926KSTC STC20191102100011411/02/19 10:00:31  5-MIN KSTC 021600Z 31017G26KT 10SM OVC032 M01/M08 A3011 860 58 -700 310/17G26 RMK AO2 T10061078
14926KSTC STC20191102100511411/02/19 10:05:31  5-MIN KSTC 021605Z 32014G23KT 10SM OVC032 M01/M08 A3011 860 58 -700 320/14G23 RMK AO2 T10061078
14926KSTC STC20191102101011411/02/19 10:10:31  5-MIN KSTC 021610Z 32014G23KT 10SM OVC032 M01/M08 A3011 860 58 -700 320/14G23 RMK AO2 T10061078
14926KSTC STC20191102101511411/02/19 10:15:31  5-MIN KSTC 021615Z 33013G23KT 10SM OVC032 M01/M08 A3011 860 58 -700 330/13G23 RMK AO2 T10061078
14926KSTC STC20191102102011411/02/19 10:20:31  5-MIN KSTC 021620Z 32013G23KT 10SM OVC032 M01/M08 A3011 860 58 -700 310/13G23 RMK AO2 T10061078
14926KSTC STC20191102102511411/02/19 10:25:31  5-MIN KSTC 021625Z 32012G21KT 10SM OVC032 M01/M08 A3011 850 58 -700 310/12G21 RMK AO2 T10061078
14926KSTC STC20191102103010711/02/19 10:30:31  5-MIN KSTC 021630Z 31014KT 10SM OVC031 00/M07 A3011 850 58 -700 310/14 RMK AO2 T00001072
14926KSTC STC20191102103511411/02/19 10:35:31  5-MIN KSTC 021635Z 32012G21KT 10SM OVC031 M01/M08 A3011 850 58 -700 320/12G21 RMK AO2 T10061078
14926KSTC STC20191102104011411/02/19 10:40:31  5-MIN KSTC 021640Z 31013G21KT 10SM OVC031 M01/M07 A3012 850 61 -800 310/13G21 RMK AO2 T10061072
14926KSTC STC20191102104510711/02/19 10:45:31  5-MIN KSTC 021645Z 31016KT 10SM OVC031 00/M07 A3012 850 58 -700 310/16 RMK AO2 T00001072
14926KSTC STC20191102105012011/02/19 10:50:31  5-MIN KSTC 021650Z 32014G21KT 10SM OVC031 00/M07 A3012 850 58 -700 320/14G21 RMK AO2 SLP220 T00001072
14926KSTC STC20191102105510711/02/19 10:55:31  5-MIN KSTC 021655Z 31014KT 10SM OVC033 00/M07 A3012 850 58 -700 310/14 RMK AO2 T00001072
14926KSTC STC20191102110011311/02/19 11:00:31  5-MIN KSTC 021700Z 32011G20KT 10SM OVC033 00/M07 A3012 850 58 -700 320/11G20 RMK AO2 T00001072
14926KSTC STC20191102110511311/02/19 11:05:31  5-MIN KSTC 021705Z 31017G22KT 10SM OVC033 00/M07 A3012 850 58 -700 310/17G22 RMK AO2 T00001072
14926KSTC STC20191102111011311/02/19 11:10:31  5-MIN KSTC 021710Z 31015G22KT 10SM OVC033 00/M07 A3012 850 58 -700 310/15G22 RMK AO2 T00001072
14926KSTC STC20191102111510711/02/19 11:15:31  5-MIN KSTC 021715Z 32010KT 10SM OVC033 00/M07 A3012 850 58 -700 320/10 RMK AO2 T00001072
14926KSTC STC20191102112011311/02/19 11:20:31  5-MIN KSTC 021720Z 31011G18KT 10SM OVC033 00/M07 A3012 850 58 -700 310/11G18 RMK AO2 T00001072
14926KSTC STC20191102112511311/02/19 11:25:31  5-MIN KSTC 021725Z 31013G19KT 10SM OVC033 01/M07 A3011 850 56 -600 300/13G19 RMK AO2 T00061072
14926KSTC STC20191102113011311/02/19 11:30:31  5-MIN KSTC 021730Z 31014G22KT 10SM OVC033 01/M07 A3011 850 56 -600 310/14G22 RMK AO2 T00061072
14926KSTC STC20191102113511311/02/19 11:35:31  5-MIN KSTC 021735Z 30013G22KT 10SM OVC033 01/M07 A3011 860 56 -600 300/13G22 RMK AO2 T00061072
14926KSTC STC20191102114010711/02/19 11:40:31  5-MIN KSTC 021740Z 30014KT 10SM OVC033 01/M07 A3011 850 56 -600 300/14 RMK AO2 T00061072
14926KSTC STC20191102114510711/02/19 11:45:31  5-MIN KSTC 021745Z 32012KT 10SM OVC033 01/M07 A3011 850 56 -600 320/12 RMK AO2 T00061072
14926KSTC STC20191102115013211/02/19 11:50:31  5-MIN KSTC 021750Z 31012KT 10SM OVC033 01/M07 A3011 860 56 -600 310/12 RMK AO2 SLP218 T00061072 10006 21011 53010
14926KSTC STC20191102115511311/02/19 11:55:31  5-MIN KSTC 021755Z 31015G22KT 10SM OVC033 01/M07 A3011 860 56 -600 310/15G22 RMK AO2 T00061072
14926KSTC STC20191102120011311/02/19 12:00:31  5-MIN KSTC 021800Z 31012G22KT 10SM OVC033 01/M07 A3011 860 56 -600 310/12G22 RMK AO2 T00061072
14926KSTC STC20191102120511311/02/19 12:05:31  5-MIN KSTC 021805Z 32014G22KT 10SM OVC033 01/M07 A3011 860 56 -600 320/14G22 RMK AO2 T00061072
14926KSTC STC20191102121011311/02/19 12:10:31  5-MIN KSTC 021810Z 32013G22KT 10SM OVC033 01/M07 A3011 860 56 -600 320/13G22 RMK AO2 T00061072
14926KSTC STC20191102121511311/02/19 12:15:31  5-MIN KSTC 021815Z 32012G20KT 10SM OVC033 01/M07 A3011 860 56 -600 320/12G20 RMK AO2 T00061072
14926KSTC STC20191102122011311/02/19 12:20:31  5-MIN KSTC 021820Z 30014G19KT 10SM OVC034 01/M07 A3010 860 56 -600 300/14G19 RMK AO2 T00061072
14926KSTC STC20191102122510711/02/19 12:25:31  5-MIN KSTC 021825Z 32010KT 10SM OVC034 01/M07 A3010 860 54 -500 320/10 RMK AO2 T00111072
14926KSTC STC20191102123010711/02/19 12:30:31  5-MIN KSTC 021830Z 30013KT 10SM OVC034 01/M07 A3010 860 54 -500 300/13 RMK AO2 T00111072
14926KSTC STC20191102123511311/02/19 12:35:31  5-MIN KSTC 021835Z 31011G18KT 10SM OVC034 01/M07 A3010 860 56 -600 310/11G18 RMK AO2 T00061072
14926KSTC STC20191102124010711/02/19 12:40:31  5-MIN KSTC 021840Z 32013KT 10SM OVC034 01/M07 A3010 870 54 -500 320/13 RMK AO2 T00111072
14926KSTC STC20191102124510711/02/19 12:45:31  5-MIN KSTC 021845Z 29011KT 10SM OVC033 01/M07 A3010 860 56 -600 290/11 RMK AO2 T00061072
14926KSTC STC20191102125011411/02/19 12:50:31  5-MIN KSTC 021850Z 30011KT 10SM OVC033 01/M07 A3010 870 58 -600 300/11 RMK AO2 SLP215 T00061067
14926KSTC STC20191102125510711/02/19 12:55:31  5-MIN KSTC 021855Z 30014KT 10SM OVC033 01/M07 A3010 870 58 -600 300/14 RMK AO2 T00061067
14926KSTC STC20191102130010711/02/19 13:00:31  5-MIN KSTC 021900Z 30012KT 10SM OVC033 01/M07 A3010 870 58 -600 300/12 RMK AO2 T00061067
14926KSTC STC20191102130510711/02/19 13:05:31  5-MIN KSTC 021905Z 31009KT 10SM OVC033 01/M07 A3010 870 58 -600 310/09 RMK AO2 T00061067
14926KSTC STC20191102131010711/02/19 13:10:31  5-MIN KSTC 021910Z 28012KT 10SM OVC032 01/M06 A3010 870 58 -500 280/12 RMK AO2 T00111061
14926KSTC STC20191102131510711/02/19 13:15:31  5-MIN KSTC 021915Z 29012KT 10SM OVC032 01/M07 A3010 870 56 -500 290/12 RMK AO2 T00111067
14926KSTC STC20191102132010711/02/19 13:20:31  5-MIN KSTC 021920Z 29013KT 10SM OVC031 01/M07 A3010 870 56 -500 290/13 RMK AO2 T00111067
14926KSTC STC20191102132510711/02/19 13:25:31  5-MIN KSTC 021925Z 29011KT 10SM OVC031 01/M07 A3010 870 56 -500 290/11 RMK AO2 T00111067
14926KSTC STC20191102133010711/02/19 13:30:31  5-MIN KSTC 021930Z 29012KT 10SM OVC031 01/M07 A3010 870 56 -500 290/12 RMK AO2 T00111067
14926KSTC STC20191102133510711/02/19 13:35:31  5-MIN KSTC 021935Z 29010KT 10SM OVC033 01/M07 A3010 870 56 -500 290/10 RMK AO2 T00111067
14926KSTC STC20191102134010711/02/19 13:40:31  5-MIN KSTC 021940Z 30009KT 10SM OVC033 01/M07 A3009 870 56 -500 300/09 RMK AO2 T00111067
14926KSTC STC20191102134510711/02/19 13:45:31  5-MIN KSTC 021945Z 30011KT 10SM OVC033 01/M07 A3009 870 56 -500 300/11 RMK AO2 T00111067
14926KSTC STC20191102135012011/02/19 13:50:31  5-MIN KSTC 021950Z 30014G19KT 10SM OVC033 01/M07 A3010 870 56 -500 300/14G19 RMK AO2 SLP212 T00111067
14926KSTC STC20191102135510711/02/19 13:55:31  5-MIN KSTC 021955Z 28011KT 10SM OVC034 01/M07 A3009 870 56 -500 280/11 RMK AO2 T00111067
14926KSTC STC20191102140010711/02/19 14:00:31  5-MIN KSTC 022000Z 29013KT 10SM OVC034 01/M07 A3009 870 56 -500 290/13 RMK AO2 T00111067
14926KSTC STC20191102140510711/02/19 14:05:31  5-MIN KSTC 022005Z 30011KT 10SM OVC034 01/M07 A3009 880 56 -500 300/11 RMK AO2 T00111067
14926KSTC STC20191102141010711/02/19 14:10:31  5-MIN KSTC 022010Z 29010KT 10SM OVC034 01/M07 A3009 880 56 -500 290/10 RMK AO2 T00111067
14926KSTC STC20191102141510711/02/19 14:15:31  5-MIN KSTC 022015Z 30011KT 10SM OVC035 02/M07 A3009 880 54 -400 300/11 RMK AO2 T00171067
14926KSTC STC20191102142010711/02/19 14:20:31  5-MIN KSTC 022020Z 31013KT 10SM OVC035 02/M07 A3009 880 54 -400 310/13 RMK AO2 T00171067
14926KSTC STC20191102142510711/02/19 14:25:31  5-MIN KSTC 022025Z 29009KT 10SM OVC035 01/M07 A3009 880 56 -500 290/09 RMK AO2 T00111067
14926KSTC STC20191102143010711/02/19 14:30:31  5-MIN KSTC 022030Z 28011KT 10SM OVC035 01/M07 A3009 880 56 -500 280/11 RMK AO2 T00111067
14926KSTC STC20191102143511311/02/19 14:35:31  5-MIN KSTC 022035Z 31014G19KT 10SM OVC034 01/M07 A3009 880 56 -500 300/14G19 RMK AO2 T00111067
14926KSTC STC20191102144010711/02/19 14:40:31  5-MIN KSTC 022040Z 30012KT 10SM OVC034 01/M07 A3009 880 56 -500 300/12 RMK AO2 T00111067
14926KSTC STC20191102144510711/02/19 14:45:31  5-MIN KSTC 022045Z 30011KT 10SM OVC033 01/M07 A3009 880 56 -500 300/11 RMK AO2 T00111067
14926KSTC STC20191102145012011/02/19 14:50:31  5-MIN KSTC 022050Z 29013KT 10SM OVC033 02/M07 A3009 880 54 -400 290/13 RMK AO2 SLP210 T00171067 50005
14926KSTC STC20191102145510711/02/19 14:55:31  5-MIN KSTC 022055Z 29012KT 10SM OVC033 01/M06 A3009 880 58 -500 290/12 RMK AO2 T00111061
14926KSTC STC20191102150010711/02/19 15:00:31  5-MIN KSTC 022100Z 30011KT 10SM OVC033 02/M06 A3009 880 56 -400 290/11 RMK AO2 T00171061
14926KSTC STC20191102150510711/02/19 15:05:31  5-MIN KSTC 022105Z 28012KT 10SM OVC033 01/M06 A3009 880 58 -500 280/12 RMK AO2 T00111061
14926KSTC STC20191102151010711/02/19 15:10:31  5-MIN KSTC 022110Z 29008KT 10SM OVC033 01/M06 A3009 880 58 -500 290/08 RMK AO2 T00111061
14926KSTC STC20191102151510711/02/19 15:15:31  5-MIN KSTC 022115Z 28010KT 10SM OVC033 01/M06 A3009 880 58 -500 280/10 RMK AO2 T00111061
14926KSTC STC20191102152011311/02/19 15:20:31  5-MIN KSTC 022120Z 29012G19KT 10SM OVC033 01/M06 A3009 880 58 -500 280/12G19 RMK AO2 T00111061
14926KSTC STC20191102152511311/02/19 15:25:31  5-MIN KSTC 022125Z 29012G19KT 10SM OVC033 01/M06 A3009 880 58 -500 290/12G19 RMK AO2 T00111061
14926KSTC STC20191102153010711/02/19 15:30:31  5-MIN KSTC 022130Z 29011KT 10SM OVC032 01/M06 A3009 880 58 -500 290/11 RMK AO2 T00111061
14926KSTC STC20191102153510711/02/19 15:35:31  5-MIN KSTC 022135Z 30013KT 10SM OVC032 01/M06 A3009 880 58 -500 300/13 RMK AO2 T00111061
14926KSTC STC20191102154010711/02/19 15:40:31  5-MIN KSTC 022140Z 29010KT 10SM OVC032 01/M06 A3009 880 61 -500 290/10 RMK AO2 T00111056
14926KSTC STC20191102154510711/02/19 15:45:31  5-MIN KSTC 022145Z 29012KT 10SM OVC031 01/M06 A3009 880 61 -500 290/12 RMK AO2 T00111056
14926KSTC STC20191102155011411/02/19 15:50:31  5-MIN KSTC 022150Z 30012KT 10SM OVC031 01/M06 A3009 880 58 -500 300/12 RMK AO2 SLP209 T00111061
14926KSTC STC20191102155510711/02/19 15:55:31  5-MIN KSTC 022155Z 30011KT 10SM OVC030 01/M06 A3009 880 58 -500 300/11 RMK AO2 T00111061
14926KSTC STC20191102160010711/02/19 16:00:31  5-MIN KSTC 022200Z 29010KT 10SM OVC030 01/M06 A3009 880 58 -500 290/10 RMK AO2 T00111061
14926KSTC STC20191102160510711/02/19 16:05:31  5-MIN KSTC 022205Z 29011KT 10SM OVC030 01/M06 A3009 880 58 -500 290/11 RMK AO2 T00111061
14926KSTC STC20191102161010711/02/19 16:10:31  5-MIN KSTC 022210Z 30009KT 10SM OVC030 01/M06 A3008 880 58 -500 300/09 RMK AO2 T00111061
14926KSTC STC20191102161510711/02/19 16:15:31  5-MIN KSTC 022215Z 29010KT 10SM OVC030 01/M06 A3008 880 61 -500 290/10 RMK AO2 T00111056
14926KSTC STC20191102162010711/02/19 16:20:31  5-MIN KSTC 022220Z 29010KT 10SM OVC030 01/M06 A3008 880 61 -500 290/10 RMK AO2 T00111056
14926KSTC STC20191102162510711/02/19 16:25:31  5-MIN KSTC 022225Z 30007KT 10SM OVC030 01/M06 A3009 880 61 -500 290/07 RMK AO2 T00111056
14926KSTC STC20191102163010711/02/19 16:30:31  5-MIN KSTC 022230Z 29009KT 10SM OVC030 01/M06 A3008 880 61 -500 290/09 RMK AO2 T00111056
14926KSTC STC20191102163510711/02/19 16:35:31  5-MIN KSTC 022235Z 28007KT 10SM OVC030 01/M06 A3009 880 61 -500 280/07 RMK AO2 T00111056
14926KSTC STC20191102164010711/02/19 16:40:31  5-MIN KSTC 022240Z 28007KT 10SM OVC030 01/M06 A3009 880 61 -500 270/07 RMK AO2 T00111056
14926KSTC STC20191102164510711/02/19 16:45:31  5-MIN KSTC 022245Z 28007KT 10SM OVC030 01/M06 A3009 880 61 -500 270/07 RMK AO2 T00111056
14926KSTC STC20191102165011411/02/19 16:50:31  5-MIN KSTC 022250Z 28006KT 10SM OVC030 01/M06 A3009 880 61 -500 280/06 RMK AO2 SLP209 T00111056
14926KSTC STC20191102165510711/02/19 16:55:31  5-MIN KSTC 022255Z 27008KT 10SM OVC030 01/M06 A3009 880 61 -500 270/08 RMK AO2 T00111056
14926KSTC STC20191102170010711/02/19 17:00:31  5-MIN KSTC 022300Z 29009KT 10SM OVC030 01/M06 A3009 880 61 -500 290/09 RMK AO2 T00111056
14926KSTC STC20191102170510711/02/19 17:05:31  5-MIN KSTC 022305Z 27007KT 10SM OVC030 01/M06 A3009 880 61 -500 270/07 RMK AO2 T00111056
14926KSTC STC20191102171010711/02/19 17:10:31  5-MIN KSTC 022310Z 28005KT 10SM OVC030 01/M06 A3009 880 63 -600 280/05 RMK AO2 T00061056
14926KSTC STC20191102171510711/02/19 17:15:31  5-MIN KSTC 022315Z 28007KT 10SM OVC030 01/M06 A3009 880 63 -600 280/07 RMK AO2 T00061056
14926KSTC STC20191102172010711/02/19 17:20:31  5-MIN KSTC 022320Z 27007KT 10SM OVC030 01/M06 A3009 880 63 -600 270/07 RMK AO2 T00061056
14926KSTC STC20191102172510711/02/19 17:25:31  5-MIN KSTC 022325Z 27006KT 10SM OVC030 01/M06 A3009 880 63 -600 270/06 RMK AO2 T00061056
14926KSTC STC20191102173010711/02/19 17:30:31  5-MIN KSTC 022330Z 27007KT 10SM OVC030 01/M06 A3009 880 61 -500 270/07 RMK AO2 T00111056
14926KSTC STC20191102173510711/02/19 17:35:31  5-MIN KSTC 022335Z 28006KT 10SM OVC030 01/M05 A3009 880 66 -600 270/06 RMK AO2 T00061050
14926KSTC STC20191102174010711/02/19 17:40:31  5-MIN KSTC 022340Z 27004KT 10SM OVC030 01/M05 A3009 880 66 -600 270/04 RMK AO2 T00061050
14926KSTC STC20191102174510711/02/19 17:45:31  5-MIN KSTC 022345Z 26004KT 10SM OVC030 01/M05 A3009 880 66 -600 260/04 RMK AO2 T00061050
14926KSTC STC20191102175013211/02/19 17:50:31  5-MIN KSTC 022350Z 25003KT 10SM OVC030 01/M05 A3009 880 66 -600 250/03 RMK AO2 SLP209 T00061050 10017 20006 56007
14926KSTC STC20191102175510711/02/19 17:55:31  5-MIN KSTC 022355Z 25005KT 10SM OVC030 01/M05 A3009 880 66 -600 250/05 RMK AO2 T00061050
14926KSTC STC20191102180010711/02/19 18:00:31  5-MIN KSTC 030000Z 25006KT 10SM OVC030 01/M05 A3009 880 66 -600 250/06 RMK AO2 T00061050
14926KSTC STC20191102180510711/02/19 18:05:31  5-MIN KSTC 030005Z 25005KT 10SM OVC028 01/M05 A3008 880 66 -600 250/05 RMK AO2 T00061050
14926KSTC STC20191102181010711/02/19 18:10:31  5-MIN KSTC 030010Z 25005KT 10SM OVC028 01/M05 A3008 880 66 -600 250/05 RMK AO2 T00061050
14926KSTC STC20191102181510711/02/19 18:15:31  5-MIN KSTC 030015Z 25006KT 10SM OVC029 01/M05 A3008 880 66 -600 250/06 RMK AO2 T00061050
14926KSTC STC20191102182010711/02/19 18:20:31  5-MIN KSTC 030020Z 24005KT 10SM OVC029 01/M05 A3008 890 66 -600 240/05 RMK AO2 T00061050
14926KSTC STC20191102182510711/02/19 18:25:31  5-MIN KSTC 030025Z 00000KT 10SM OVC029 01/M05 A3008 890 66 -600 000/00 RMK AO2 T00061050
14926KSTC STC20191102183010711/02/19 18:30:31  5-MIN KSTC 030030Z 00000KT 10SM OVC031 01/M04 A3008 890 69 -600 000/00 RMK AO2 T00061044
14926KSTC STC20191102183510711/02/19 18:35:31  5-MIN KSTC 030035Z 24003KT 10SM OVC031 01/M05 A3008 890 66 -600 240/03 RMK AO2 T00061050
14926KSTC STC20191102184010711/02/19 18:40:31  5-MIN KSTC 030040Z 26005KT 10SM OVC031 01/M05 A3008 890 66 -600 260/05 RMK AO2 T00061050
14926KSTC STC20191102184510711/02/19 18:45:31  5-MIN KSTC 030045Z 26003KT 10SM OVC031 01/M04 A3008 890 69 -600 260/03 RMK AO2 T00061044
14926KSTC STC20191102185011411/02/19 18:50:31  5-MIN KSTC 030050Z 26004KT 10SM OVC032 01/M04 A3008 890 69 -600 260/04 RMK AO2 SLP206 T00061044
14926KSTC STC20191102185510711/02/19 18:55:31  5-MIN KSTC 030055Z 00000KT 10SM OVC032 01/M04 A3007 900 69 -600 000/00 RMK AO2 T00061044
14926KSTC STC20191102190010711/02/19 19:00:31  5-MIN KSTC 030100Z 36003KT 10SM OVC033 01/M04 A3007 900 69 -600 360/03 RMK AO2 T00061044
14926KSTC STC20191102190510711/02/19 19:05:31  5-MIN KSTC 030105Z 00000KT 10SM OVC033 01/M05 A3007 900 66 -600 000/00 RMK AO2 T00061050
14926KSTC STC20191102191010711/02/19 19:10:31  5-MIN KSTC 030110Z 00000KT 10SM OVC034 01/M04 A3006 900 69 -600 000/00 RMK AO2 T00061044
14926KSTC STC20191102191510711/02/19 19:15:31  5-MIN KSTC 030115Z 00000KT 10SM OVC034 01/M04 A3007 900 69 -600 000/00 RMK AO2 T00061044
14926KSTC STC20191102192010711/02/19 19:20:31  5-MIN KSTC 030120Z 29003KT 10SM OVC035 00/M04 A3007 900 72 -600 290/03 RMK AO2 T00001044
14926KSTC STC20191102192510711/02/19 19:25:31  5-MIN KSTC 030125Z 28004KT 10SM OVC035 00/M04 A3006 900 72 -600 280/04 RMK AO2 T00001044
14926KSTC STC20191102193010711/02/19 19:30:31  5-MIN KSTC 030130Z 28003KT 10SM OVC035 00/M04 A3006 900 72 -600 280/03 RMK AO2 T00001044
14926KSTC STC20191102193510711/02/19 19:35:31  5-MIN KSTC 030135Z 28003KT 10SM OVC035 00/M04 A3006 900 72 -600 280/03 RMK AO2 T00001044
14926KSTC STC20191102194010711/02/19 19:40:31  5-MIN KSTC 030140Z 26003KT 10SM OVC035 00/M04 A3006 900 72 -600 260/03 RMK AO2 T00001044
14926KSTC STC20191102194510811/02/19 19:45:31  5-MIN KSTC 030145Z 25003KT 10SM BKN035 M01/M04 A3006 900 75 -700 250/03 RMK AO2 T10061044
14926KSTC STC20191102195011511/02/19 19:50:31  5-MIN KSTC 030150Z 25003KT 10SM BKN035 M01/M04 A3006 910 75 -700 250/03 RMK AO2 SLP200 T10061044
14926KSTC STC20191102195510811/02/19 19:55:31  5-MIN KSTC 030155Z 24003KT 10SM SCT035 M01/M05 A3006 910 72 -700 240/03 RMK AO2 T10061050
14926KSTC STC20191102200010811/02/19 20:00:31  5-MIN KSTC 030200Z 00000KT 10SM SCT035 M01/M05 A3006 910 75 -800 000/00 RMK AO2 T10111050
14926KSTC STC20191102200510811/02/19 20:05:31  5-MIN KSTC 030205Z 23003KT 10SM FEW035 M01/M05 A3006 910 75 -800 230/03 RMK AO2 T10111050
14926KSTC STC20191102201010511/02/19 20:10:31  5-MIN KSTC 030210Z 00000KT 10SM CLR M02/M05 A3006 910 78 -800 000/00 RMK AO2 T10171050
14926KSTC STC20191102201510511/02/19 20:15:31  5-MIN KSTC 030215Z 16004KT 10SM CLR M02/M05 A3006 910 81 -900 160/04 RMK AO2 T10221050
14926KSTC STC20191102202010511/02/19 20:20:31  5-MIN KSTC 030220Z 19003KT 10SM CLR M02/M05 A3006 910 81 -900 180/03 RMK AO2 T10221050
14926KSTC STC20191102202510511/02/19 20:25:31  5-MIN KSTC 030225Z 20004KT 10SM CLR M02/M05 A3006 910 78 -800 200/04 RMK AO2 T10171050
14926KSTC STC20191102203010511/02/19 20:30:31  5-MIN KSTC 030230Z 20005KT 10SM CLR M02/M05 A3006 910 81 -900 190/05 RMK AO2 T10221050
14926KSTC STC20191102203510511/02/19 20:35:31  5-MIN KSTC 030235Z 20005KT 10SM CLR M02/M05 A3006 910 81 -900 200/05 RMK AO2 T10221050
14926KSTC STC20191102204010511/02/19 20:40:31  5-MIN KSTC 030240Z 20004KT 10SM CLR M02/M05 A3006 910 81 -900 200/04 RMK AO2 T10221050
14926KSTC STC20191102204510811/02/19 20:45:31  5-MIN KSTC 030245Z 20004KT 10SM SCT035 M02/M05 A3006 900 81 -900 200/04 RMK AO2 T10221050
14926KSTC STC20191102205012111/02/19 20:50:31  5-MIN KSTC 030250Z 22004KT 10SM BKN035 M02/M05 A3006 910 81 -900 220/04 RMK AO2 SLP201 T10221050 56002
14926KSTC STC20191102205510811/02/19 20:55:31  5-MIN KSTC 030255Z 21003KT 10SM BKN036 M02/M05 A3006 910 78 -800 210/03 RMK AO2 T10171050
14926KSTC STC20191102210010811/02/19 21:00:31  5-MIN KSTC 030300Z 19003KT 10SM BKN038 M02/M05 A3006 910 78 -800 190/03 RMK AO2 T10171050
14926KSTC STC20191102210510811/02/19 21:05:31  5-MIN KSTC 030305Z 19004KT 10SM OVC038 M02/M05 A3006 910 78 -800 190/04 RMK AO2 T10171050
14926KSTC STC20191102211010811/02/19 21:10:31  5-MIN KSTC 030310Z 20005KT 10SM OVC038 M02/M04 A3006 900 81 -800 200/05 RMK AO2 T10171044
14926KSTC STC20191102211510811/02/19 21:15:31  5-MIN KSTC 030315Z 21004KT 10SM OVC040 M01/M04 A3006 900 78 -800 210/04 RMK AO2 T10111044
14926KSTC STC20191102212010811/02/19 21:20:31  5-MIN KSTC 030320Z 21003KT 10SM OVC042 M01/M04 A3006 910 78 -800 210/03 RMK AO2 T10111044
14926KSTC STC20191102212511511/02/19 21:25:31  5-MIN KSTC 030325Z 21003KT 10SM BKN042 OVC050 M01/M04 A3006 910 78 -800 210/03 RMK AO2 T10111044
14926KSTC STC20191102213010811/02/19 21:30:31  5-MIN KSTC 030330Z 00000KT 10SM OVC045 M01/M04 A3005 910 78 -700 000/00 RMK AO2 T10111044
14926KSTC STC20191102213510811/02/19 21:35:31  5-MIN KSTC 030335Z 00000KT 10SM BKN047 M01/M04 A3005 910 78 -700 000/00 RMK AO2 T10111044
14926KSTC STC20191102214010811/02/19 21:40:31  5-MIN KSTC 030340Z 00000KT 10SM BKN047 M02/M04 A3005 910 81 -800 000/00 RMK AO2 T10171044
14926KSTC STC20191102214510811/02/19 21:45:31  5-MIN KSTC 030345Z 00000KT 10SM BKN049 M02/M04 A3005 910 81 -800 000/00 RMK AO2 T10171044
14926KSTC STC20191102215011511/02/19 21:50:31  5-MIN KSTC 030350Z 00000KT 10SM BKN049 M02/M04 A3005 910 81 -800 000/00 RMK AO2 SLP199 T10171044
14926KSTC STC20191102215510811/02/19 21:55:31  5-MIN KSTC 030355Z 00000KT 10SM BKN049 M01/M04 A3005 910 81 -700 000/00 RMK AO2 T10111039
14926KSTC STC20191102220011311/02/19 22:00:31  5-MIN KSTC 030400Z AUTO 00000KT 10SM BKN050 M01/M04 A3005 910 81 -700 000/00 RMK AO2 T10111039
14926KSTC STC20191102220511311/02/19 22:05:31  5-MIN KSTC 030405Z AUTO 00000KT 10SM BKN050 M01/M04 A3005 910 78 -700 000/00 RMK AO2 T10111044
14926KSTC STC20191102221011311/02/19 22:10:31  5-MIN KSTC 030410Z AUTO 00000KT 10SM OVC055 M01/M04 A3005 910 78 -700 000/00 RMK AO2 T10111044
14926KSTC STC20191102221512011/02/19 22:15:31  5-MIN KSTC 030415Z AUTO 00000KT 10SM FEW044 OVC055 M01/M04 A3005 920 78 -700 000/00 RMK AO2 T10111044
14926KSTC STC20191102222012011/02/19 22:20:31  5-MIN KSTC 030420Z AUTO 00000KT 10SM FEW042 OVC055 M01/M04 A3005 910 78 -700 000/00 RMK AO2 T10111044
14926KSTC STC20191102222512011/02/19 22:25:31  5-MIN KSTC 030425Z AUTO 00000KT 10SM FEW042 OVC055 M01/M04 A3005 910 78 -700 000/00 RMK AO2 T10111044
14926KSTC STC20191102223012011/02/19 22:30:31  5-MIN KSTC 030430Z AUTO 00000KT 10SM FEW042 OVC055 M01/M04 A3005 920 81 -700 000/00 RMK AO2 T10111039
14926KSTC STC20191102223512011/02/19 22:35:31  5-MIN KSTC 030435Z AUTO 00000KT 10SM FEW043 OVC055 M01/M04 A3005 920 81 -700 000/00 RMK AO2 T10111039
14926KSTC STC20191102224011311/02/19 22:40:31  5-MIN KSTC 030440Z AUTO 00000KT 10SM OVC055 M01/M04 A3005 920 81 -700 000/00 RMK AO2 T10111039
14926KSTC STC20191102224511311/02/19 22:45:31  5-MIN KSTC 030445Z AUTO 00000KT 10SM OVC055 M01/M04 A3005 920 78 -700 000/00 RMK AO2 T10111044
14926KSTC STC20191102225012011/02/19 22:50:31  5-MIN KSTC 030450Z AUTO 00000KT 10SM OVC055 M01/M04 A3005 920 81 -700 000/00 RMK AO2 SLP196 T10111039
14926KSTC STC20191102225512011/02/19 22:55:31  5-MIN KSTC 030455Z AUTO 00000KT 10SM SCT043 OVC055 M01/M04 A3004 920 81 -700 000/00 RMK AO2 T10111039
14926KSTC STC20191102230012011/02/19 23:00:31  5-MIN KSTC 030500Z AUTO 00000KT 10SM SCT043 OVC060 M01/M04 A3004 920 81 -700 000/00 RMK AO2 T10111039
14926KSTC STC20191102230512011/02/19 23:05:31  5-MIN KSTC 030505Z AUTO 00000KT 10SM FEW042 OVC055 M01/M04 A3004 920 81 -700 000/00 RMK AO2 T10111039
14926KSTC STC20191102231012011/02/19 23:10:31  5-MIN KSTC 030510Z AUTO 00000KT 10SM FEW044 OVC060 M01/M04 A3004 920 81 -700 000/00 RMK AO2 T10111039
14926KSTC STC20191102231512011/02/19 23:15:31  5-MIN KSTC 030515Z AUTO 00000KT 10SM FEW044 OVC060 M01/M04 A3004 930 81 -700 000/00 RMK AO2 T10111039
14926KSTC STC20191102232012011/02/19 23:20:31  5-MIN KSTC 030520Z AUTO 00000KT 10SM FEW044 OVC060 M01/M04 A3004 930 81 -700 000/00 RMK AO2 T10111039
14926KSTC STC20191102232512011/02/19 23:25:31  5-MIN KSTC 030525Z AUTO 00000KT 10SM FEW048 OVC060 M01/M04 A3004 930 81 -700 000/00 RMK AO2 T10111039
14926KSTC STC20191102233011311/02/19 23:30:31  5-MIN KSTC 030530Z AUTO 00000KT 10SM OVC060 M01/M04 A3003 930 81 -700 000/00 RMK AO2 T10111039
14926KSTC STC20191102233511311/02/19 23:35:31  5-MIN KSTC 030535Z AUTO 00000KT 10SM OVC065 M01/M04 A3003 930 81 -700 000/00 RMK AO2 T10111039
14926KSTC STC20191102234011311/02/19 23:40:31  5-MIN KSTC 030540Z AUTO 00000KT 10SM OVC065 M01/M04 A3003 930 81 -700 000/00 RMK AO2 T10111039
14926KSTC STC20191102234512011/02/19 23:45:31  5-MIN KSTC 030545Z AUTO 00000KT 10SM FEW048 OVC065 M01/M04 A3003 930 81 -700 000/00 RMK AO2 T10111039
14926KSTC STC20191102235015511/02/19 23:50:31  5-MIN KSTC 030550Z AUTO 00000KT 10SM FEW048 OVC070 M01/M04 A3003 930 81 -700 000/00 RMK AO2 SLP191 T10111039 10006 21022 400171022 56009
14926KSTC STC20191102235512011/02/19 23:55:31  5-MIN KSTC 030555Z AUTO 00000KT 10SM FEW048 OVC070 M01/M04 A3003 930 81 -700 000/00 RMK AO2 T10111039
14926KSTC STC20191103000012011/03/19 00:00:31  5-MIN KSTC 030600Z AUTO 00000KT 10SM FEW048 OVC070 M01/M04 A3003 930 81 -700 000/00 RMK AO2 T10111039
14926KSTC STC20191103000512011/03/19 00:05:31  5-MIN KSTC 030605Z AUTO 00000KT 10SM SCT048 OVC070 M01/M04 A3003 930 81 -700 000/00 RMK AO2 T10111039
14926KSTC STC20191103001012011/03/19 00:10:31  5-MIN KSTC 030610Z AUTO 00000KT 10SM BKN046 OVC070 M01/M04 A3003 930 81 -700 000/00 RMK AO2 T10111039
14926KSTC STC20191103001512011/03/19 00:15:31  5-MIN KSTC 030615Z AUTO 00000KT 10SM BKN046 OVC070 M02/M04 A3003 930 85 -800 000/00 RMK AO2 T10171039
14926KSTC STC20191103002012011/03/19 00:20:31  5-MIN KSTC 030620Z AUTO 00000KT 10SM BKN047 OVC070 M02/M04 A3003 930 85 -800 000/00 RMK AO2 T10171039
14926KSTC STC20191103002512011/03/19 00:25:31  5-MIN KSTC 030625Z AUTO 12003KT 10SM BKN047 OVC070 M02/M04 A3002 940 85 -800 120/03 RMK AO2 T10171039
14926KSTC STC20191103003012011/03/19 00:30:31  5-MIN KSTC 030630Z AUTO 12003KT 10SM BKN046 OVC070 M01/M04 A3002 940 81 -700 120/03 RMK AO2 T10111039
14926KSTC STC20191103003512011/03/19 00:35:31  5-MIN KSTC 030635Z AUTO 13004KT 10SM BKN046 OVC070 M01/M04 A3002 940 81 -700 120/04 RMK AO2 T10111039
14926KSTC STC20191103004012711/03/19 00:40:31  5-MIN KSTC 030640Z AUTO 12003KT 10SM SCT048 BKN055 OVC075 M01/M04 A3002 940 81 -700 120/03 RMK AO2 T10111039
14926KSTC STC20191103004512711/03/19 00:45:31  5-MIN KSTC 030645Z AUTO 13003KT 10SM FEW046 SCT055 OVC075 M01/M04 A3002 940 81 -700 130/03 RMK AO2 T10111039
14926KSTC STC20191103005013411/03/19 00:50:31  5-MIN KSTC 030650Z AUTO 00000KT 10SM FEW046 FEW055 OVC075 M01/M04 A3002 950 81 -700 000/00 RMK AO2 SLP185 T10111039
14926KSTC STC20191103005512011/03/19 00:55:31  5-MIN KSTC 030655Z AUTO 09003KT 10SM FEW048 OVC075 M01/M04 A3001 950 81 -700 090/03 RMK AO2 T10111039
14926KSTC STC20191103010012011/03/19 01:00:31  5-MIN KSTC 030700Z AUTO 12003KT 10SM FEW055 BKN075 M02/M04 A3001 950 85 -800 110/03 RMK AO2 T10171039
14926KSTC STC20191103010512711/03/19 01:05:31  5-MIN KSTC 030705Z AUTO 13003KT 10SM FEW047 SCT055 OVC075 M01/M04 A3002 950 81 -700 130/03 RMK AO2 T10111039
14926KSTC STC20191103011012711/03/19 01:10:31  5-MIN KSTC 030710Z AUTO 00000KT 10SM SCT045 BKN050 OVC075 M01/M04 A3002 940 81 -700 000/00 RMK AO2 T10111039
14926KSTC STC20191103011512711/03/19 01:15:31  5-MIN KSTC 030715Z AUTO 00000KT 10SM SCT045 BKN050 OVC075 M01/M04 A3002 940 81 -700 000/00 RMK AO2 T10111039
14926KSTC STC20191103012012711/03/19 01:20:31  5-MIN KSTC 030720Z AUTO 00000KT 10SM SCT045 BKN050 BKN075 M01/M04 A3001 950 81 -700 000/00 RMK AO2 T10111039
14926KSTC STC20191103012512711/03/19 01:25:31  5-MIN KSTC 030725Z AUTO 00000KT 10SM SCT045 BKN050 BKN075 M01/M04 A3001 950 81 -700 000/00 RMK AO2 T10111039
14926KSTC STC20191103013012011/03/19 01:30:31  5-MIN KSTC 030730Z AUTO 12003KT 10SM SCT045 OVC080 M01/M04 A3001 950 81 -700 120/03 RMK AO2 T10111039
14926KSTC STC20191103013512011/03/19 01:35:31  5-MIN KSTC 030735Z AUTO 00000KT 10SM SCT046 OVC080 M01/M04 A3001 950 81 -700 000/00 RMK AO2 T10111039
14926KSTC STC20191103014012011/03/19 01:40:31  5-MIN KSTC 030740Z AUTO 00000KT 10SM FEW048 OVC075 M01/M04 A3001 950 81 -700 000/00 RMK AO2 T10111039
14926KSTC STC20191103014512011/03/19 01:45:31  5-MIN KSTC 030745Z AUTO 10003KT 10SM FEW048 OVC075 M01/M04 A3001 950 81 -700 100/03 RMK AO2 T10111039
14926KSTC STC20191103015013411/03/19 01:50:31  5-MIN KSTC 030750Z AUTO 12004KT 10SM FEW050 SCT060 OVC075 M01/M04 A3000 960 81 -700 120/04 RMK AO2 SLP181 T10111039
14926KSTC STC20191103015512711/03/19 01:55:31  5-MIN KSTC 030755Z AUTO 12004KT 10SM SCT050 BKN060 OVC075 M01/M04 A3000 960 81 -700 120/04 RMK AO2 T10111039
14926KSTC STC20191103020012011/03/19 02:00:31  5-MIN KSTC 030800Z AUTO 11004KT 10SM BKN055 OVC070 M01/M04 A3000 960 81 -700 110/04 RMK AO2 T10111039
14926KSTC STC20191103020512011/03/19 02:05:31  5-MIN KSTC 030805Z AUTO 12004KT 10SM BKN055 OVC075 M01/M04 A3000 960 81 -700 120/04 RMK AO2 T10111039
14926KSTC STC20191103021012011/03/19 02:10:31  5-MIN KSTC 030810Z AUTO 13005KT 10SM BKN050 OVC060 M01/M04 A3000 960 81 -700 130/05 RMK AO2 T10111039
14926KSTC STC20191103021512011/03/19 02:15:31  5-MIN KSTC 030815Z AUTO 13004KT 10SM SCT050 BKN060 M01/M04 A3000 960 81 -700 130/04 RMK AO2 T10111039
14926KSTC STC20191103022011311/03/19 02:20:31  5-MIN KSTC 030820Z AUTO 11003KT 10SM BKN055 M02/M04 A3000 960 85 -800 110/03 RMK AO2 T10171039
14926KSTC STC20191103022511311/03/19 02:25:31  5-MIN KSTC 030825Z AUTO 12004KT 10SM BKN055 M02/M04 A3000 960 85 -800 120/04 RMK AO2 T10171039
14926KSTC STC20191103023012011/03/19 02:30:31  5-MIN KSTC 030830Z AUTO 11003KT 10SM FEW050 SCT060 M02/M04 A3000 960 85 -800 110/03 RMK AO2 T10171039
14926KSTC STC20191103023511311/03/19 02:35:31  5-MIN KSTC 030835Z AUTO 10003KT 10SM FEW055 M02/M04 A3000 960 85 -800 100/03 RMK AO2 T10171039
14926KSTC STC20191103024011011/03/19 02:40:31  5-MIN KSTC 030840Z AUTO 07004KT 10SM CLR M02/M04 A3000 960 81 -800 070/04 RMK AO2 T10171044
14926KSTC STC20191103024511011/03/19 02:45:31  5-MIN KSTC 030845Z AUTO 07003KT 10SM CLR M02/M04 A3000 960 85 -800 070/03 RMK AO2 T10221044
14926KSTC STC20191103025012311/03/19 02:50:31  5-MIN KSTC 030850Z AUTO 08003KT 10SM CLR M02/M04 A2999 970 85 -700 080/03 RMK AO2 SLP177 T10171039 58008
14926KSTC STC20191103025511011/03/19 02:55:31  5-MIN KSTC 030855Z AUTO 08004KT 10SM CLR M02/M04 A2999 970 88 -800 080/04 RMK AO2 T10221039
14926KSTC STC20191103030011011/03/19 03:00:31  5-MIN KSTC 030900Z AUTO 06003KT 10SM CLR M02/M04 A2999 970 88 -800 060/03 RMK AO2 T10221039
14926KSTC STC20191103030511011/03/19 03:05:31  5-MIN KSTC 030905Z AUTO 08003KT 10SM CLR M03/M04 A2999 970 88 -900 080/03 RMK AO2 T10281044
14926KSTC STC20191103031011011/03/19 03:10:31  5-MIN KSTC 030910Z AUTO 09004KT 10SM CLR M02/M04 A2999 970 88 -800 090/04 RMK AO2 T10221039
14926KSTC STC20191103031511011/03/19 03:15:31  5-MIN KSTC 030915Z AUTO 09004KT 10SM CLR M02/M04 A2999 970 88 -800 080/04 RMK AO2 T10221039
14926KSTC STC20191103032011311/03/19 03:20:31  5-MIN KSTC 030920Z AUTO 06004KT 10SM FEW100 M03/M04 A2999 970 88 -900 060/04 RMK AO2 T10281044
14926KSTC STC20191103132510411/03/19 13:25:31  5-MIN KSTC 031925Z 13006KT 10SM CLR 05/M03 A2983 1120 57 200 130/06 RMK AO2 T00501028
14926KSTC STC20191103133010711/03/19 13:30:31  5-MIN KSTC 031930Z VRB05KT 10SM FEW090 05/M03 A2982 1120 57 200 VRB/05 RMK AO2 T00501028
14926KSTC STC20191103133510711/03/19 13:35:31  5-MIN KSTC 031935Z 12008KT 10SM FEW090 05/M03 A2983 1120 57 200 120/08 RMK AO2 T00501028
14926KSTC STC20191103134010711/03/19 13:40:31  5-MIN KSTC 031940Z 16006KT 10SM FEW090 05/M03 A2982 1120 55 200 160/06 RMK AO2 T00501033
14926KSTC STC20191103134510711/03/19 13:45:31  5-MIN KSTC 031945Z 15010KT 10SM FEW090 06/M03 A2982 1130 55 300 150/10 RMK AO2 T00561028
14926KSTC STC20191103135011411/03/19 13:50:31  5-MIN KSTC 031950Z 15012KT 10SM FEW090 06/M03 A2982 1120 55 300 150/12 RMK AO2 SLP117 T00561028
14926KSTC STC20191103135510711/03/19 13:55:31  5-MIN KSTC 031955Z 16011KT 10SM SCT090 06/M03 A2982 1120 55 300 160/11 RMK AO2 T00561028
14926KSTC STC20191103140010711/03/19 14:00:31  5-MIN KSTC 032000Z 16010KT 10SM SCT090 05/M03 A2982 1120 57 200 160/10 RMK AO2 T00501028
14926KSTC STC20191103140510711/03/19 14:05:31  5-MIN KSTC 032005Z 16010KT 10SM FEW090 04/M03 A2982 1130 59 200 160/10 RMK AO2 T00441028
14926KSTC STC20191103141010711/03/19 14:10:31  5-MIN KSTC 032010Z 15009KT 10SM FEW090 04/M03 A2982 1130 59 200 150/09 RMK AO2 T00441028
14926KSTC STC20191103141510711/03/19 14:15:31  5-MIN KSTC 032015Z 15009KT 10SM SCT090 05/M03 A2982 1130 57 200 150/09 RMK AO2 T00501028
14926KSTC STC20191103142010711/03/19 14:20:31  5-MIN KSTC 032020Z 15007KT 10SM SCT090 04/M03 A2982 1130 59 200 150/07 RMK AO2 T00441028
14926KSTC STC20191103142510711/03/19 14:25:31  5-MIN KSTC 032025Z 13007KT 10SM FEW090 05/M03 A2982 1130 57 200 130/07 RMK AO2 T00501028
14926KSTC STC20191103143010711/03/19 14:30:31  5-MIN KSTC 032030Z 16007KT 10SM FEW090 05/M02 A2982 1130 59 200 160/07 RMK AO2 T00501022
14926KSTC STC20191103143510711/03/19 14:35:31  5-MIN KSTC 032035Z 14007KT 10SM FEW090 05/M02 A2981 1130 59 200 140/07 RMK AO2 T00501022
14926KSTC STC20191103144010711/03/19 14:40:31  5-MIN KSTC 032040Z 13006KT 10SM FEW090 05/M02 A2981 1130 59 200 130/06 RMK AO2 T00501022
14926KSTC STC20191103144510411/03/19 14:45:31  5-MIN KSTC 032045Z 17006KT 10SM CLR 05/M02 A2981 1130 59 200 170/06 RMK AO2 T00501022
14926KSTC STC20191103145011711/03/19 14:50:31  5-MIN KSTC 032050Z 16008KT 10SM CLR 05/M03 A2981 1130 57 200 160/08 RMK AO2 SLP114 T00501028 58012
14926KSTC STC20191103145510411/03/19 14:55:31  5-MIN KSTC 032055Z 16007KT 10SM CLR 05/M03 A2981 1130 57 200 160/07 RMK AO2 T00501028
14926KSTC STC20191103150010411/03/19 15:00:31  5-MIN KSTC 032100Z 15008KT 10SM CLR 05/M03 A2981 1130 57 200 150/08 RMK AO2 T00501028
14926KSTC STC20191103150510411/03/19 15:05:31  5-MIN KSTC 032105Z 19007KT 10SM CLR 04/M02 A2981 1130 62 200 190/07 RMK AO2 T00441022
14926KSTC STC20191103151010411/03/19 15:10:31  5-MIN KSTC 032110Z 18007KT 10SM CLR 04/M02 A2981 1130 62 200 180/07 RMK AO2 T00441022
14926KSTC STC20191103151510411/03/19 15:15:31  5-MIN KSTC 032115Z 17006KT 10SM CLR 04/M02 A2981 1130 62 200 170/06 RMK AO2 T00441022
14926KSTC STC20191103152010411/03/19 15:20:31  5-MIN KSTC 032120Z 16007KT 10SM CLR 04/M02 A2982 1130 62 200 160/07 RMK AO2 T00441022
14926KSTC STC20191103152510411/03/19 15:25:31  5-MIN KSTC 032125Z 19006KT 10SM CLR 04/M02 A2982 1130 62 200 190/06 RMK AO2 T00441022
14926KSTC STC20191103153010411/03/19 15:30:31  5-MIN KSTC 032130Z 19004KT 10SM CLR 04/M02 A2982 1130 62 200 190/04 RMK AO2 T00441022
14926KSTC STC20191103153510411/03/19 15:35:31  5-MIN KSTC 032135Z 17005KT 10SM CLR 04/M02 A2981 1130 62 200 160/05 RMK AO2 T00441022
14926KSTC STC20191103154010411/03/19 15:40:31  5-MIN KSTC 032140Z 18005KT 10SM CLR 04/M02 A2981 1130 62 200 180/05 RMK AO2 T00441022
14926KSTC STC20191103154510711/03/19 15:45:31  5-MIN KSTC 032145Z 19004KT 10SM FEW075 04/M02 A2981 1130 62 200 190/04 RMK AO2 T00441022
14926KSTC STC20191103155011411/03/19 15:50:31  5-MIN KSTC 032150Z 15004KT 10SM FEW075 04/M02 A2981 1130 64 100 150/04 RMK AO2 SLP114 T00391022
14926KSTC STC20191103155510711/03/19 15:55:31  5-MIN KSTC 032155Z 14004KT 10SM FEW075 04/M02 A2981 1130 64 100 140/04 RMK AO2 T00391022
14926KSTC STC20191103160010711/03/19 16:00:31  5-MIN KSTC 032200Z 13003KT 10SM FEW075 04/M02 A2981 1130 64 100 120/03 RMK AO2 T00391022
14926KSTC STC20191103160510711/03/19 16:05:31  5-MIN KSTC 032205Z 00000KT 10SM FEW075 04/M02 A2981 1130 64 100 000/00 RMK AO2 T00391022
14926KSTC STC20191103161010711/03/19 16:10:31  5-MIN KSTC 032210Z 11003KT 10SM FEW075 04/M02 A2981 1130 64 100 110/03 RMK AO2 T00391022
14926KSTC STC20191103161510711/03/19 16:15:31  5-MIN KSTC 032215Z 00000KT 10SM SCT080 04/M02 A2981 1130 64 100 000/00 RMK AO2 T00391022
14926KSTC STC20191103162006811/03/19 16:20:31  5-MIN KSTC 032220Z 12003KT M M M 110/03 RMK AO2 $
14926KSTC STC20191103162509711/03/19 16:25:31  5-MIN KSTC 032225Z 00000KT 04/M02 A2981 1130 64 100 000/00 RMK AO2 T00391022 $
14926KSTC STC20191103163010211/03/19 16:30:31  5-MIN KSTC 032230Z 00000KT 10SM 04/M02 A2981 1140 67 100 000/00 RMK AO2 T00391017 $
14926KSTC STC20191103163510211/03/19 16:35:31  5-MIN KSTC 032235Z 12003KT 10SM 04/M02 A2981 1140 64 100 120/03 RMK AO2 T00391022 $
14926KSTC STC20191103164010211/03/19 16:40:31  5-MIN KSTC 032240Z 11003KT 10SM 04/M02 A2981 1140 67 100 110/03 RMK AO2 T00391017 $
14926KSTC STC20191103164510211/03/19 16:45:31  5-MIN KSTC 032245Z 12003KT 10SM 04/M02 A2981 1140 67 100 120/03 RMK AO2 T00391017 $
14926KSTC STC20191103165011611/03/19 16:50:31  5-MIN KSTC 032250Z 12003KT 10SM FEW075 04/M02 A2981 1140 67 100 120/03 RMK AO2 SLP113 T00391017 $
14926KSTC STC20191103165510711/03/19 16:55:31  5-MIN KSTC 032255Z 12004KT 10SM OVC075 03/M02 A2981 1140 70 0 120/04 RMK AO2 T00331017 $
14926KSTC STC20191103170010711/03/19 17:00:31  5-MIN KSTC 032300Z 12003KT 10SM OVC075 03/M02 A2981 1140 70 0 120/03 RMK AO2 T00331017 $
14926KSTC STC20191103170510711/03/19 17:05:31  5-MIN KSTC 032305Z 12003KT 10SM OVC075 03/M02 A2981 1140 70 0 120/03 RMK AO2 T00331017 $
14926KSTC STC20191103171010711/03/19 17:10:31  5-MIN KSTC 032310Z 12003KT 10SM OVC075 03/M02 A2981 1140 70 0 120/03 RMK AO2 T00331017 $
14926KSTC STC20191103171510711/03/19 17:15:31  5-MIN KSTC 032315Z 00000KT 10SM OVC075 03/M02 A2981 1140 70 0 000/00 RMK AO2 T00331017 $
14926KSTC STC20191103172010711/03/19 17:20:31  5-MIN KSTC 032320Z 00000KT 10SM OVC075 03/M02 A2981 1130 70 0 000/00 RMK AO2 T00331017 $
14926KSTC STC20191103172510711/03/19 17:25:31  5-MIN KSTC 032325Z 00000KT 10SM OVC070 03/M02 A2981 1130 70 0 000/00 RMK AO2 T00331017 $
14926KSTC STC20191103173010711/03/19 17:30:31  5-MIN KSTC 032330Z 00000KT 10SM OVC070 03/M02 A2981 1130 72 0 000/00 RMK AO2 T00281017 $
14926KSTC STC20191103173510711/03/19 17:35:31  5-MIN KSTC 032335Z 00000KT 10SM OVC070 03/M02 A2981 1130 72 0 000/00 RMK AO2 T00281017 $
14926KSTC STC20191103174010711/03/19 17:40:31  5-MIN KSTC 032340Z 00000KT 10SM OVC070 03/M02 A2981 1130 72 0 000/00 RMK AO2 T00281017 $
14926KSTC STC20191103174510711/03/19 17:45:31  5-MIN KSTC 032345Z 08003KT 10SM OVC070 03/M02 A2981 1130 72 0 080/03 RMK AO2 T00281017 $
14926KSTC STC20191103175012611/03/19 17:50:31  5-MIN KSTC 032350Z 07003KT 10SM OVC070 03/M02 A2981 1140 72 0 070/03 RMK AO2 SLP114 T00281017 10056 20028 $
14926KSTC STC20191103175510711/03/19 17:55:31  5-MIN KSTC 032355Z 00000KT 10SM BKN070 03/M02 A2981 1140 72 0 000/00 RMK AO2 T00281017 $
14926KSTC STC20191103180011011/03/19 18:00:31  5-MIN KSTC 040000Z 00000KT 10SM BKN070 02/M02 A2981 1140 75 -100 000/00 RMK AO2 T00221017 $
14926KSTC STC20191103180511011/03/19 18:05:31  5-MIN KSTC 040005Z 00000KT 10SM BKN065 02/M02 A2981 1140 75 -100 000/00 RMK AO2 T00221017 $
14926KSTC STC20191103181011011/03/19 18:10:31  5-MIN KSTC 040010Z 00000KT 10SM BKN065 02/M02 A2981 1130 75 -100 000/00 RMK AO2 T00221017 $
14926KSTC STC20191103181511011/03/19 18:15:31  5-MIN KSTC 040015Z 00000KT 10SM BKN065 02/M02 A2981 1130 75 -100 000/00 RMK AO2 T00221017 $
14926KSTC STC20191103182011011/03/19 18:20:31  5-MIN KSTC 040020Z 00000KT 10SM BKN060 02/M02 A2981 1130 75 -100 000/00 RMK AO2 T00221017 $
14926KSTC STC20191103182511011/03/19 18:25:31  5-MIN KSTC 040025Z 00000KT 10SM BKN060 02/M02 A2981 1130 75 -100 000/00 RMK AO2 T00221017 $
14926KSTC STC20191103183011011/03/19 18:30:31  5-MIN KSTC 040030Z 00000KT 10SM BKN060 02/M02 A2981 1130 75 -100 000/00 RMK AO2 T00171022 $
14926KSTC STC20191103183511011/03/19 18:35:31  5-MIN KSTC 040035Z 00000KT 10SM BKN060 02/M02 A2982 1130 75 -100 000/00 RMK AO2 T00171022 $
14926KSTC STC20191103184011011/03/19 18:40:31  5-MIN KSTC 040040Z 05003KT 10SM BKN060 01/M02 A2982 1130 78 -200 050/03 RMK AO2 T00111022 $
14926KSTC STC20191103184511011/03/19 18:45:31  5-MIN KSTC 040045Z 06003KT 10SM BKN060 01/M02 A2982 1130 78 -200 060/03 RMK AO2 T00111022 $
14926KSTC STC20191103185011711/03/19 18:50:31  5-MIN KSTC 040050Z 06004KT 10SM BKN060 01/M02 A2982 1130 78 -200 060/04 RMK AO2 SLP116 T00111022 $
14926KSTC STC20191103185511011/03/19 18:55:31  5-MIN KSTC 040055Z 06004KT 10SM BKN060 01/M02 A2982 1130 78 -200 060/04 RMK AO2 T00111022 $
14926KSTC STC20191103190011011/03/19 19:00:31  5-MIN KSTC 040100Z 08004KT 10SM BKN060 02/M02 A2982 1130 75 -100 080/04 RMK AO2 T00171022 $
14926KSTC STC20191103190511011/03/19 19:05:31  5-MIN KSTC 040105Z 08004KT 10SM SCT060 02/M02 A2982 1130 75 -100 080/04 RMK AO2 T00171022 $
14926KSTC STC20191103191011011/03/19 19:10:31  5-MIN KSTC 040110Z 08004KT 10SM BKN060 02/M03 A2982 1130 72 -100 080/04 RMK AO2 T00171028 $
14926KSTC STC20191103191511011/03/19 19:15:31  5-MIN KSTC 040115Z 07004KT 10SM BKN060 02/M03 A2982 1130 72 -100 070/04 RMK AO2 T00171028 $
14926KSTC STC20191103192011011/03/19 19:20:31  5-MIN KSTC 040120Z 07004KT 10SM BKN060 01/M03 A2982 1130 75 -200 070/04 RMK AO2 T00111028 $
14926KSTC STC20191103192511011/03/19 19:25:31  5-MIN KSTC 040125Z 08004KT 10SM BKN060 01/M03 A2982 1130 75 -200 070/04 RMK AO2 T00111028 $
14926KSTC STC20191103193011011/03/19 19:30:31  5-MIN KSTC 040130Z 07003KT 10SM BKN060 01/M03 A2982 1130 75 -200 070/03 RMK AO2 T00111028 $
14926KSTC STC20191103193511011/03/19 19:35:31  5-MIN KSTC 040135Z VRB03KT 10SM BKN060 01/M03 A2981 1130 75 -200 VRB/03 RMK AO2 T00111028 $
14926KSTC STC20191103194011011/03/19 19:40:31  5-MIN KSTC 040140Z 09005KT 10SM BKN060 01/M03 A2981 1130 75 -200 090/05 RMK AO2 T00111028 $
14926KSTC STC20191103194511011/03/19 19:45:31  5-MIN KSTC 040145Z 08005KT 10SM BKN060 01/M03 A2981 1130 75 -200 080/05 RMK AO2 T00111028 $
14926KSTC STC20191103195011711/03/19 19:50:31  5-MIN KSTC 040150Z 27003KT 10SM SCT055 01/M03 A2981 1140 78 -300 270/03 RMK AO2 SLP115 T00061028 $
14926KSTC STC20191103195511011/03/19 19:55:31  5-MIN KSTC 040155Z 00000KT 10SM FEW055 01/M03 A2981 1140 75 -300 000/00 RMK AO2 T00061033 $
14926KSTC STC20191103200011011/03/19 20:00:31  5-MIN KSTC 040200Z 00000KT 10SM FEW055 01/M03 A2981 1140 75 -300 000/00 RMK AO2 T00061033 $
14926KSTC STC20191103200511011/03/19 20:05:31  5-MIN KSTC 040205Z 00000KT 10SM FEW055 00/M03 A2981 1140 78 -300 000/00 RMK AO2 T00001033 $
14926KSTC STC20191103201011011/03/19 20:10:31  5-MIN KSTC 040210Z 00000KT 10SM FEW055 00/M03 A2981 1140 78 -300 000/00 RMK AO2 T00001033 $
14926KSTC STC20191103201510711/03/19 20:15:31  5-MIN KSTC 040215Z 00000KT 10SM CLR 00/M03 A2981 1140 78 -300 000/00 RMK AO2 T00001033 $
14926KSTC STC20191103202010711/03/19 20:20:31  5-MIN KSTC 040220Z 00000KT 10SM CLR 00/M03 A2981 1140 78 -300 000/00 RMK AO2 T00001033 $
14926KSTC STC20191103202510811/03/19 20:25:31  5-MIN KSTC 040225Z 00000KT 10SM CLR M01/M03 A2980 1140 81 -400 000/00 RMK AO2 T10061033 $
14926KSTC STC20191103203010811/03/19 20:30:31  5-MIN KSTC 040230Z 00000KT 10SM CLR M01/M04 A2980 1140 78 -400 000/00 RMK AO2 T10061039 $
14926KSTC STC20191103203510811/03/19 20:35:31  5-MIN KSTC 040235Z 00000KT 10SM CLR M02/M04 A2980 1140 85 -500 000/00 RMK AO2 T10171039 $
14926KSTC STC20191103204010811/03/19 20:40:31  5-MIN KSTC 040240Z 00000KT 10SM CLR M01/M04 A2980 1140 81 -500 000/00 RMK AO2 T10111039 $
14926KSTC STC20191103204510811/03/19 20:45:31  5-MIN KSTC 040245Z 00000KT 10SM CLR M01/M04 A2980 1140 81 -500 000/00 RMK AO2 T10111039 $
14926KSTC STC20191103205011511/03/19 20:50:31  5-MIN KSTC 040250Z 00000KT 10SM CLR M01/M04 A2980 1140 81 -500 000/00 RMK AO2 SLP113 T10111039 $
14926KSTC STC20191103205510811/03/19 20:55:31  5-MIN KSTC 040255Z 00000KT 10SM CLR M01/M04 A2980 1140 81 -500 000/00 RMK AO2 T10111039 $
14926KSTC STC20191103210010811/03/19 21:00:31  5-MIN KSTC 040300Z 00000KT 10SM CLR M02/M04 A2981 1140 85 -500 000/00 RMK AO2 T10171039 $
14926KSTC STC20191103210510811/03/19 21:05:31  5-MIN KSTC 040305Z 00000KT 10SM CLR M02/M04 A2981 1140 85 -500 000/00 RMK AO2 T10171039 $
14926KSTC STC20191103211010811/03/19 21:10:31  5-MIN KSTC 040310Z 00000KT 10SM CLR M02/M04 A2981 1140 81 -500 000/00 RMK AO2 T10171044 $
14926KSTC STC20191103211510811/03/19 21:15:31  5-MIN KSTC 040315Z 00000KT 10SM CLR M02/M04 A2981 1140 85 -600 000/00 RMK AO2 T10221044 $
14926KSTC STC20191103212010811/03/19 21:20:31  5-MIN KSTC 040320Z 00000KT 10SM CLR M02/M04 A2981 1140 85 -600 000/00 RMK AO2 T10221044 $
14926KSTC STC20191103212510811/03/19 21:25:31  5-MIN KSTC 040325Z 00000KT 10SM CLR M02/M04 A2981 1130 85 -600 000/00 RMK AO2 T10221044 $
14926KSTC STC20191103213010811/03/19 21:30:31  5-MIN KSTC 040330Z 00000KT 10SM CLR M02/M04 A2981 1130 88 -600 000/00 RMK AO2 T10221039 $
14926KSTC STC20191103213510811/03/19 21:35:31  5-MIN KSTC 040335Z 31003KT 10SM CLR M02/M04 A2981 1130 88 -600 310/03 RMK AO2 T10221039 $
14926KSTC STC20191103214010811/03/19 21:40:31  5-MIN KSTC 040340Z 00000KT 10SM CLR M03/M04 A2981 1130 88 -700 000/00 RMK AO2 T10281044 $
14926KSTC STC20191103214510811/03/19 21:45:31  5-MIN KSTC 040345Z 00000KT 10SM CLR M03/M04 A2981 1130 88 -700 000/00 RMK AO2 T10281044 $
14926KSTC STC20191103215011811/03/19 21:50:31  5-MIN KSTC 040350Z 00000KT 10SM FEW120 M03/M04 A2982 1130 88 -700 000/00 RMK AO2 SLP117 T10281044 $
14926KSTC STC20191103215511111/03/19 21:55:31  5-MIN KSTC 040355Z 00000KT 10SM FEW120 M03/M05 A2982 1130 88 -800 000/00 RMK AO2 T10331050 $
14926KSTC STC20191103220011111/03/19 22:00:31  5-MIN KSTC 040400Z 00000KT 10SM FEW110 M03/M05 A2982 1130 88 -800 000/00 RMK AO2 T10331050 $
14926KSTC STC20191103220511811/03/19 22:05:31  5-MIN KSTC 040405Z 00000KT 10SM FEW100 SCT120 M03/M04 A2982 1130 88 -700 000/00 RMK AO2 T10281044 $
14926KSTC STC20191103221011811/03/19 22:10:31  5-MIN KSTC 040410Z 00000KT 10SM FEW100 SCT120 M03/M04 A2982 1130 88 -700 000/00 RMK AO2 T10281044 $
14926KSTC STC20191103221512511/03/19 22:15:31  5-MIN KSTC 040415Z 00000KT 10SM FEW050 FEW100 SCT120 M03/M05 A2982 1130 88 -800 000/00 RMK AO2 T10331050 $
14926KSTC STC20191103222012511/03/19 22:20:31  5-MIN KSTC 040420Z 00000KT 10SM SCT050 SCT100 BKN120 M03/M04 A2982 1130 88 -700 000/00 RMK AO2 T10281044 $
14926KSTC STC20191103222512511/03/19 22:25:31  5-MIN KSTC 040425Z 00000KT 10SM SCT050 SCT100 BKN120 M03/M04 A2981 1130 88 -700 000/00 RMK AO2 T10281044 $
14926KSTC STC20191103223011811/03/19 22:30:31  5-MIN KSTC 040430Z 00000KT 10SM SCT050 SCT120 M03/M04 A2981 1130 88 -700 000/00 RMK AO2 T10281044 $
14926KSTC STC20191103223511811/03/19 22:35:31  5-MIN KSTC 040435Z 00000KT 10SM BKN050 BKN110 M02/M04 A2981 1130 88 -600 000/00 RMK AO2 T10221039 $
14926KSTC STC20191103224011111/03/19 22:40:31  5-MIN KSTC 040440Z 00000KT 10SM BKN048 M02/M04 A2981 1130 88 -600 000/00 RMK AO2 T10221039 $
14926KSTC STC20191103224511111/03/19 22:45:31  5-MIN KSTC 040445Z 00000KT 10SM BKN048 M02/M03 A2981 1130 92 -600 000/00 RMK AO2 T10221033 $
14926KSTC STC20191103225011811/03/19 22:50:31  5-MIN KSTC 040450Z 00000KT 10SM BKN048 M02/M03 A2981 1130 92 -600 000/00 RMK AO2 SLP115 T10221033 $
14926KSTC STC20191103225511111/03/19 22:55:31  5-MIN KSTC 040455Z 00000KT 10SM OVC048 M02/M03 A2981 1140 88 -500 000/00 RMK AO2 T10171033 $
14926KSTC STC20191103230011111/03/19 23:00:31  5-MIN KSTC 040500Z 00000KT 10SM OVC045 M02/M03 A2981 1140 88 -500 000/00 RMK AO2 T10171033 $
14926KSTC STC20191103230511611/03/19 23:05:31  5-MIN KSTC 040505Z AUTO 00000KT 10SM OVC045 M02/M03 A2981 1140 88 -500 000/00 RMK AO2 T10171033 $
14926KSTC STC20191103231011611/03/19 23:10:31  5-MIN KSTC 040510Z AUTO 00000KT 10SM OVC045 M02/M03 A2981 1140 88 -500 000/00 RMK AO2 T10171033 $
14926KSTC STC20191103231511611/03/19 23:15:31  5-MIN KSTC 040515Z AUTO 00000KT 10SM OVC045 M02/M03 A2981 1140 88 -500 000/00 RMK AO2 T10171033 $
14926KSTC STC20191103232011611/03/19 23:20:31  5-MIN KSTC 040520Z AUTO 00000KT 10SM OVC046 M02/M03 A2981 1140 88 -500 000/00 RMK AO2 T10171033 $
14926KSTC STC20191103232511611/03/19 23:25:31  5-MIN KSTC 040525Z AUTO 00000KT 10SM OVC046 M02/M03 A2981 1140 88 -500 000/00 RMK AO2 T10171033 $
14926KSTC STC20191103233011611/03/19 23:30:31  5-MIN KSTC 040530Z AUTO 00000KT 10SM OVC046 M01/M03 A2981 1140 85 -500 000/00 RMK AO2 T10111033 $
14926KSTC STC20191103233511611/03/19 23:35:31  5-MIN KSTC 040535Z AUTO 00000KT 10SM OVC046 M01/M03 A2981 1140 85 -500 000/00 RMK AO2 T10111033 $
14926KSTC STC20191103234012311/03/19 23:40:31  5-MIN KSTC 040540Z AUTO 00000KT 10SM BKN046 OVC120 M01/M03 A2981 1140 88 -500 000/00 RMK AO2 T10111028 $
14926KSTC STC20191103234511311/03/19 23:45:31  5-MIN KSTC 040545Z AUTO 10SM BKN046 BKN120 M01/M03 A2981 1140 88 -500 M /M RMK AO2 T10111028 $
14926KSTC STC20191103235014811/03/19 23:50:31  5-MIN KSTC 040550Z AUTO 10SM SCT046 BKN120 M01/M03 A2981 1140 88 -500 M /M RMK AO2 SLP114 T10111028 10028 21033 400561033 58002 $
14926KSTC STC20191103235512311/03/19 23:55:31  5-MIN KSTC 040555Z AUTO 00000KT 10SM SCT046 SCT120 M01/M03 A2981 1140 88 -500 000/00 RMK AO2 T10111028 $
14926KSTC STC20191104000012311/04/19 00:00:31  5-MIN KSTC 040600Z AUTO 00000KT 10SM FEW046 SCT120 M01/M03 A2981 1130 88 -500 000/00 RMK AO2 T10111028 $
14926KSTC STC20191104000512311/04/19 00:05:31  5-MIN KSTC 040605Z AUTO 00000KT 10SM FEW085 FEW120 M01/M03 A2981 1140 85 -500 000/00 RMK AO2 T10111033 $
14926KSTC STC20191104001012311/04/19 00:10:31  5-MIN KSTC 040610Z AUTO 00000KT 10SM SCT085 SCT120 M01/M03 A2981 1140 85 -500 000/00 RMK AO2 T10111033 $
14926KSTC STC20191104001511611/04/19 00:15:31  5-MIN KSTC 040615Z AUTO 00000KT 10SM BKN080 M01/M03 A2981 1140 85 -500 000/00 RMK AO2 T10111033 $
14926KSTC STC20191104002011611/04/19 00:20:31  5-MIN KSTC 040620Z AUTO 00000KT 10SM BKN080 M01/M03 A2981 1130 85 -400 000/00 RMK AO2 T10061028 $
14926KSTC STC20191104002511511/04/19 00:25:31  5-MIN KSTC 040625Z AUTO 28007KT 10SM BKN080 00/M03 A2981 1130 81 -300 280/07 RMK AO2 T00001028 $
14926KSTC STC20191104003011511/04/19 00:30:31  5-MIN KSTC 040630Z AUTO 28008KT 10SM OVC080 01/M02 A2981 1140 82 -200 280/08 RMK AO2 T00111017 $
14926KSTC STC20191104003511511/04/19 00:35:31  5-MIN KSTC 040635Z AUTO 28008KT 10SM OVC080 01/M02 A2981 1140 82 -200 280/08 RMK AO2 T00111017 $
14926KSTC STC20191104004011511/04/19 00:40:31  5-MIN KSTC 040640Z AUTO 28008KT 10SM OVC080 02/M01 A2981 1140 82 -100 280/08 RMK AO2 T00171011 $
14926KSTC STC20191104004511511/04/19 00:45:31  5-MIN KSTC 040645Z AUTO 29007KT 10SM OVC080 02/M01 A2981 1140 82 -100 280/07 RMK AO2 T00171011 $
14926KSTC STC20191104005012211/04/19 00:50:31  5-MIN KSTC 040650Z AUTO 29008KT 10SM OVC075 02/M02 A2981 1130 78 -100 290/08 RMK AO2 SLP112 T00171017 $
14926KSTC STC20191104005511511/04/19 00:55:31  5-MIN KSTC 040655Z AUTO 29007KT 10SM OVC080 01/M02 A2981 1140 82 -200 290/07 RMK AO2 T00111017 $
14926KSTC STC20191104010011511/04/19 01:00:31  5-MIN KSTC 040700Z AUTO 30007KT 10SM OVC080 02/M01 A2981 1140 82 -100 300/07 RMK AO2 T00171011 $
14926KSTC STC20191104010512211/04/19 01:05:31  5-MIN KSTC 040705Z AUTO 31005KT 10SM BKN080 OVC110 01/M02 A2981 1140 82 -200 310/05 RMK AO2 T00111017 $
14926KSTC STC20191104011012211/04/19 01:10:31  5-MIN KSTC 040710Z AUTO 32005KT 10SM BKN080 OVC110 01/M02 A2981 1140 82 -200 320/05 RMK AO2 T00111017 $
14926KSTC STC20191104011512211/04/19 01:15:31  5-MIN KSTC 040715Z AUTO 31005KT 10SM SCT080 OVC110 01/M02 A2981 1140 85 -300 310/05 RMK AO2 T00061017 $
14926KSTC STC20191104012012211/04/19 01:20:31  5-MIN KSTC 040720Z AUTO 30007KT 10SM FEW080 OVC110 01/M02 A2981 1140 85 -300 300/07 RMK AO2 T00061017 $
14926KSTC STC20191104012512211/04/19 01:25:31  5-MIN KSTC 040725Z AUTO 31008KT 10SM FEW080 OVC110 01/M02 A2981 1140 82 -200 300/08 RMK AO2 T00111017 $
14926KSTC STC20191104013011511/04/19 01:30:31  5-MIN KSTC 040730Z AUTO 30008KT 10SM OVC110 01/M01 A2981 1130 85 -200 300/08 RMK AO2 T00111011 $
14926KSTC STC20191104013511511/04/19 01:35:31  5-MIN KSTC 040735Z AUTO 30009KT 10SM OVC110 02/M01 A2981 1130 82 -100 300/09 RMK AO2 T00171011 $
14926KSTC STC20191104014011511/04/19 01:40:31  5-MIN KSTC 040740Z AUTO 30010KT 10SM OVC110 02/M01 A2982 1130 82 -100 300/10 RMK AO2 T00171011 $
14926KSTC STC20191104014511511/04/19 01:45:31  5-MIN KSTC 040745Z AUTO 30011KT 10SM OVC110 02/M01 A2982 1130 82 -100 300/11 RMK AO2 T00171011 $
14926KSTC STC20191104015012211/04/19 01:50:31  5-MIN KSTC 040750Z AUTO 29012KT 10SM OVC110 02/M01 A2982 1130 82 -100 290/12 RMK AO2 SLP115 T00171011 $
14926KSTC STC20191104015511511/04/19 01:55:31  5-MIN KSTC 040755Z AUTO 30013KT 10SM OVC110 02/M01 A2982 1130 82 -100 300/13 RMK AO2 T00171011 $
14926KSTC STC20191104020011511/04/19 02:00:31  5-MIN KSTC 040800Z AUTO 30015KT 10SM OVC110 01/M02 A2982 1120 82 -200 300/15 RMK AO2 T00111017 $
14926KSTC STC20191104020512211/04/19 02:05:31  5-MIN KSTC 040805Z AUTO 30012KT 10SM FEW015 OVC110 01/M02 A2982 1120 82 -200 300/12 RMK AO2 T00111017 $
14926KSTC STC20191104021012211/04/19 02:10:31  5-MIN KSTC 040810Z AUTO 30013KT 10SM FEW015 OVC110 01/M02 A2983 1120 82 -200 300/13 RMK AO2 T00111017 $
14926KSTC STC20191104021512811/04/19 02:15:31  5-MIN KSTC 040815Z AUTO 31011G21KT 10SM FEW015 OVC100 01/M02 A2983 1120 82 -200 310/11G21 RMK AO2 T00111017 $
14926KSTC STC20191104022012811/04/19 02:20:31  5-MIN KSTC 040820Z AUTO 31010G21KT 10SM FEW015 BKN100 01/M02 A2983 1120 85 -300 310/10G21 RMK AO2 T00061017 $
14926KSTC STC20191104022512211/04/19 02:25:31  5-MIN KSTC 040825Z AUTO 31009KT 10SM FEW015 BKN100 00/M02 A2983 1120 85 -300 310/09 RMK AO2 T00001022 $
14926KSTC STC20191104023012211/04/19 02:30:31  5-MIN KSTC 040830Z AUTO 31009KT 10SM FEW015 SCT100 00/M02 A2983 1120 85 -400 310/09 RMK AO2 T00001022 $
14926KSTC STC20191104023512311/04/19 02:35:31  5-MIN KSTC 040835Z AUTO 31008KT 10SM FEW015 SCT100 M01/M02 A2983 1120 88 -400 310/08 RMK AO2 T10061022 $
14926KSTC STC20191104024011611/04/19 02:40:31  5-MIN KSTC 040840Z AUTO 31007KT 10SM FEW100 M01/M03 A2983 1120 85 -400 310/07 RMK AO2 T10061028 $
14926KSTC STC20191104024511311/04/19 02:45:31  5-MIN KSTC 040845Z AUTO 31007KT 10SM CLR M01/M03 A2983 1120 88 -500 300/07 RMK AO2 T10111028 $
14926KSTC STC20191104025012611/04/19 02:50:31  5-MIN KSTC 040850Z AUTO 31008KT 10SM CLR M01/M03 A2983 1110 88 -500 310/08 RMK AO2 SLP121 T10111028 51002 $
14926KSTC STC20191104025511611/04/19 02:55:31  5-MIN KSTC 040855Z AUTO 31008KT 10SM FEW019 M01/M03 A2984 1110 88 -500 300/08 RMK AO2 T10111028 $
14926KSTC STC20191104030011511/04/19 03:00:31  5-MIN KSTC 040900Z AUTO 29010KT 10SM SCT019 00/M02 A2984 1110 85 -400 290/10 RMK AO2 T00001022 $
14926KSTC STC20191104030511511/04/19 03:05:31  5-MIN KSTC 040905Z AUTO 29011KT 10SM BKN017 01/M02 A2984 1110 85 -300 290/11 RMK AO2 T00061017 $
14926KSTC STC20191104031011511/04/19 03:10:31  5-MIN KSTC 040910Z AUTO 29011KT 10SM BKN015 01/M02 A2984 1110 85 -300 290/11 RMK AO2 T00061017 $
14926KSTC STC20191104031511511/04/19 03:15:31  5-MIN KSTC 040915Z AUTO 30013KT 10SM BKN015 01/M02 A2984 1110 85 -300 300/13 RMK AO2 T00061017 $
14926KSTC STC20191104032011511/04/19 03:20:31  5-MIN KSTC 040920Z AUTO 31015KT 10SM OVC015 01/M02 A2984 1110 85 -300 310/15 RMK AO2 T00061017 $
14926KSTC STC20191104032511511/04/19 03:25:31  5-MIN KSTC 040925Z AUTO 31013KT 10SM OVC015 01/M02 A2984 1110 85 -300 310/13 RMK AO2 T00061017 $
14926KSTC STC20191104033012111/04/19 03:30:31  5-MIN KSTC 040930Z AUTO 30011G21KT 10SM OVC015 01/M02 A2985 1100 85 -300 300/11G21 RMK AO2 T00061017 $
14926KSTC STC20191104033511511/04/19 03:35:31  5-MIN KSTC 040935Z AUTO 30011KT 10SM OVC015 01/M02 A2985 1100 82 -200 300/11 RMK AO2 T00111017 $
14926KSTC STC20191104034011511/04/19 03:40:31  5-MIN KSTC 040940Z AUTO 31012KT 10SM OVC017 01/M02 A2985 1100 82 -200 300/12 RMK AO2 T00111017 $
14926KSTC STC20191104034511511/04/19 03:45:31  5-MIN KSTC 040945Z AUTO 30012KT 10SM OVC017 01/M02 A2985 1100 82 -200 300/12 RMK AO2 T00111017 $
14926KSTC STC20191104035012211/04/19 03:50:31  5-MIN KSTC 040950Z AUTO 30010KT 10SM OVC017 01/M02 A2985 1100 82 -200 300/10 RMK AO2 SLP127 T00111017 $
14926KSTC STC20191104035511511/04/19 03:55:31  5-MIN KSTC 040955Z AUTO 30009KT 10SM OVC017 01/M02 A2985 1100 78 -200 300/09 RMK AO2 T00111022 $
14926KSTC STC20191104040012211/04/19 04:00:31  5-MIN KSTC 041000Z AUTO 29008KT 10SM BKN017 OVC023 01/M02 A2985 1100 78 -200 290/08 RMK AO2 T00111022 $
14926KSTC STC20191104040512211/04/19 04:05:31  5-MIN KSTC 041005Z AUTO 29009KT 10SM BKN018 OVC023 01/M02 A2985 1090 78 -200 290/09 RMK AO2 T00111022 $
14926KSTC STC20191104041012911/04/19 04:10:31  5-MIN KSTC 041010Z AUTO 29010KT 10SM SCT018 BKN023 BKN030 01/M02 A2985 1090 82 -300 290/10 RMK AO2 T00061022 $
14926KSTC STC20191104041512911/04/19 04:15:31  5-MIN KSTC 041015Z AUTO 30010KT 10SM FEW018 BKN023 BKN030 01/M02 A2986 1090 82 -300 300/10 RMK AO2 T00061022 $
14926KSTC STC20191104042012211/04/19 04:20:31  5-MIN KSTC 041020Z AUTO 30008KT 10SM SCT021 OVC030 01/M02 A2986 1090 78 -200 300/08 RMK AO2 T00111022 $
14926KSTC STC20191104042511511/04/19 04:25:31  5-MIN KSTC 041025Z AUTO 29008KT 10SM OVC028 01/M02 A2986 1090 78 -200 290/08 RMK AO2 T00111022 $
14926KSTC STC20191104043011511/04/19 04:30:31  5-MIN KSTC 041030Z AUTO 29008KT 10SM OVC026 01/M02 A2986 1090 78 -200 290/08 RMK AO2 T00111022 $
14926KSTC STC20191104043511511/04/19 04:35:31  5-MIN KSTC 041035Z AUTO 29009KT 10SM OVC026 01/M02 A2986 1090 78 -300 290/09 RMK AO2 T00111022 $
14926KSTC STC20191104044011511/04/19 04:40:31  5-MIN KSTC 041040Z AUTO 29007KT 10SM OVC027 01/M02 A2987 1080 82 -300 290/07 RMK AO2 T00061022 $
14926KSTC STC20191104044511511/04/19 04:45:31  5-MIN KSTC 041045Z AUTO 29006KT 10SM OVC027 01/M02 A2987 1080 82 -300 280/06 RMK AO2 T00061022 $
14926KSTC STC20191104045012211/04/19 04:50:31  5-MIN KSTC 041050Z AUTO 27008KT 10SM OVC027 01/M02 A2987 1080 82 -300 270/08 RMK AO2 SLP133 T00061022 $
14926KSTC STC20191104045511511/04/19 04:55:31  5-MIN KSTC 041055Z AUTO 27008KT 10SM OVC027 01/M02 A2987 1080 82 -300 270/08 RMK AO2 T00061022 $
14926KSTC STC20191104050011511/04/19 05:00:31  5-MIN KSTC 041100Z AUTO 27007KT 10SM OVC029 01/M02 A2987 1080 82 -300 270/07 RMK AO2 T00061022 $
14926KSTC STC20191104050512211/04/19 05:05:31  5-MIN KSTC 041105Z AUTO 28008KT 10SM BKN029 BKN060 01/M02 A2987 1080 82 -300 280/08 RMK AO2 T00061022 $
14926KSTC STC20191104051012211/04/19 05:10:31  5-MIN KSTC 041110Z AUTO 28008KT 10SM BKN029 BKN065 01/M02 A2987 1080 82 -300 280/08 RMK AO2 T00061022 $
14926KSTC STC20191104051512211/04/19 05:15:31  5-MIN KSTC 041115Z AUTO 27009KT 10SM SCT029 OVC065 00/M02 A2987 1080 85 -400 270/09 RMK AO2 T00001022 $
14926KSTC STC20191104052012211/04/19 05:20:31  5-MIN KSTC 041120Z AUTO 27007KT 10SM SCT029 OVC065 01/M02 A2987 1080 85 -300 270/07 RMK AO2 T00061017 $
14926KSTC STC20191104052512211/04/19 05:25:31  5-MIN KSTC 041125Z AUTO 28008KT 10SM FEW029 OVC065 01/M02 A2987 1080 85 -300 280/08 RMK AO2 T00061017 $
14926KSTC STC20191104053011511/04/19 05:30:31  5-MIN KSTC 041130Z AUTO 28007KT 10SM OVC065 01/M02 A2987 1080 85 -300 280/07 RMK AO2 T00061017 $
14926KSTC STC20191104053511511/04/19 05:35:31  5-MIN KSTC 041135Z AUTO 28008KT 10SM OVC065 01/M02 A2988 1070 85 -300 280/08 RMK AO2 T00061017 $
14926KSTC STC20191104054011511/04/19 05:40:31  5-MIN KSTC 041140Z AUTO 28007KT 10SM OVC065 01/M02 A2988 1070 85 -300 280/07 RMK AO2 T00061017 $
14926KSTC STC20191104054512211/04/19 05:45:31  5-MIN KSTC 041145Z AUTO 28009KT 10SM FEW021 OVC065 01/M02 A2988 1070 85 -300 280/09 RMK AO2 T00061017 $
14926KSTC STC20191104055014711/04/19 05:50:31  5-MIN KSTC 041150Z AUTO 28009KT 10SM SCT021 OVC065 01/M02 A2988 1070 85 -300 280/09 RMK AO2 SLP138 T00061017 10017 21011 53009 $
14926KSTC STC20191104055512211/04/19 05:55:31  5-MIN KSTC 041155Z AUTO 29009KT 10SM BKN021 OVC065 01/M02 A2988 1070 85 -300 280/09 RMK AO2 T00061017 $
14926KSTC STC20191104060012211/04/19 06:00:31  5-MIN KSTC 041200Z AUTO 28009KT 10SM BKN021 OVC065 01/M02 A2988 1070 82 -300 280/09 RMK AO2 T00111017 $
14926KSTC STC20191104060512211/04/19 06:05:31  5-MIN KSTC 041205Z AUTO 29007KT 10SM BKN021 OVC065 01/M02 A2988 1070 82 -300 280/07 RMK AO2 T00111017 $
14926KSTC STC20191104061011511/04/19 06:10:31  5-MIN KSTC 041210Z AUTO 29009KT 10SM OVC021 01/M02 A2988 1070 82 -300 290/09 RMK AO2 T00111017 $
14926KSTC STC20191104061511511/04/19 06:15:31  5-MIN KSTC 041215Z AUTO 29008KT 10SM OVC021 01/M02 A2988 1070 82 -300 290/08 RMK AO2 T00111017 $
14926KSTC STC20191104062011511/04/19 06:20:31  5-MIN KSTC 041220Z AUTO 30010KT 10SM OVC019 01/M02 A2988 1070 82 -300 300/10 RMK AO2 T00111017 $
14926KSTC STC20191104062511511/04/19 06:25:31  5-MIN KSTC 041225Z AUTO 29008KT 10SM OVC019 01/M02 A2988 1070 82 -300 290/08 RMK AO2 T00111017 $
14926KSTC STC20191104063011511/04/19 06:30:31  5-MIN KSTC 041230Z AUTO 29007KT 10SM OVC019 01/M01 A2988 1070 85 -300 290/07 RMK AO2 T00111011 $
14926KSTC STC20191104063512211/04/19 06:35:31  5-MIN KSTC 041235Z AUTO 28008KT 10SM BKN019 OVC024 01/M01 A2989 1070 85 -300 280/08 RMK AO2 T00111011 $
14926KSTC STC20191104064011511/04/19 06:40:31  5-MIN KSTC 041240Z AUTO 28008KT 10SM OVC019 01/M01 A2989 1060 85 -300 280/08 RMK AO2 T00111011 $
14926KSTC STC20191104064511511/04/19 06:45:31  5-MIN KSTC 041245Z AUTO 28007KT 10SM OVC017 01/M01 A2989 1060 85 -300 280/07 RMK AO2 T00111011 $
14926KSTC STC20191104065011711/04/19 06:50:31  5-MIN KSTC 041250Z 28007KT 10SM OVC017 01/M01 A2989 1060 85 -300 280/07 RMK AO2 SLP142 T00111011 $
14926KSTC STC20191104065511011/04/19 06:55:31  5-MIN KSTC 041255Z 28006KT 10SM OVC017 01/M01 A2989 1060 85 -300 280/06 RMK AO2 T00111011 $
14926KSTC STC20191104070011011/04/19 07:00:31  5-MIN KSTC 041300Z 29007KT 10SM OVC019 01/M01 A2989 1060 85 -300 290/07 RMK AO2 T00111011 $
14926KSTC STC20191104070511011/04/19 07:05:31  5-MIN KSTC 041305Z 29006KT 10SM OVC019 01/M01 A2990 1060 85 -300 290/06 RMK AO2 T00111011 $
14926KSTC STC20191104071011511/04/19 07:10:31  5-MIN KSTC 041310Z 29007KT 10SM BKN017 OVC022 01/M01 A2990 1050 85 -300 290/07 RMK AO2 T00111011
14926KSTC STC20191104071511511/04/19 07:15:31  5-MIN KSTC 041315Z 30005KT 10SM BKN014 OVC019 01/M01 A2990 1050 85 -300 300/05 RMK AO2 T00111011
14926KSTC STC20191104072011511/04/19 07:20:31  5-MIN KSTC 041320Z 30005KT 10SM BKN014 OVC019 01/M01 A2990 1050 85 -300 300/05 RMK AO2 T00111011
14926KSTC STC20191104072511511/04/19 07:25:31  5-MIN KSTC 041325Z 30005KT 10SM BKN014 OVC019 01/M01 A2991 1050 85 -300 300/05 RMK AO2 T00111011
14926KSTC STC20191104073011511/04/19 07:30:31  5-MIN KSTC 041330Z 29006KT 10SM BKN014 OVC021 01/M01 A2991 1050 85 -300 290/06 RMK AO2 T00111011
14926KSTC STC20191104073512211/04/19 07:35:31  5-MIN KSTC 041335Z 29007KT 10SM BKN014 BKN021 OVC031 01/M01 A2991 1040 85 -300 290/07 RMK AO2 T00111011
14926KSTC STC20191104074012211/04/19 07:40:31  5-MIN KSTC 041340Z 28006KT 10SM SCT014 BKN023 OVC031 01/M01 A2991 1040 85 -300 280/06 RMK AO2 T00111011
14926KSTC STC20191104074512111/04/19 07:45:31  5-MIN KSTC 041345Z 28007KT 9SM SCT013 BKN023 OVC031 01/M01 A2991 1040 85 -300 280/07 RMK AO2 T00111011
14926KSTC STC20191104075012811/04/19 07:50:31  5-MIN KSTC 041350Z 28005KT 8SM FEW013 BKN023 OVC031 01/M01 A2992 1040 85 -300 280/05 RMK AO2 SLP150 T00111011
14926KSTC STC20191104075512111/04/19 07:55:31  5-MIN KSTC 041355Z 27006KT 8SM FEW014 SCT022 OVC031 01/M01 A2992 1040 89 -300 270/06 RMK AO2 T00111006
14926KSTC STC20191104080011411/04/19 08:00:31  5-MIN KSTC 041400Z 27006KT 9SM FEW016 OVC033 01/M01 A2992 1030 89 -300 270/06 RMK AO2 T00111006
14926KSTC STC20191104080512111/04/19 08:05:31  5-MIN KSTC 041405Z 28007KT 9SM FEW014 FEW023 OVC033 01/M01 A2992 1030 89 -300 280/07 RMK AO2 T00111006
14926KSTC STC20191104081013311/04/19 08:10:31  5-MIN KSTC 041410Z 28007KT 6SM -SN BR FEW019 OVC035 01/M01 A2992 1030 89 -300 280/07 RMK AO2 SNB09 P0000 T00111006
14926KSTC STC20191104081513311/04/19 08:15:31  5-MIN KSTC 041415Z 28007KT 4SM -SN BR BKN035 OVC043 01/M01 A2992 1030 89 -300 280/07 RMK AO2 SNB09 P0000 T00111006
14926KSTC STC20191104082013311/04/19 08:20:31  5-MIN KSTC 041420Z 29006KT 3SM -SN BR BKN035 OVC044 01/M01 A2992 1030 89 -300 290/06 RMK AO2 SNB09 P0000 T00111006
14926KSTC STC20191104082513311/04/19 08:25:31  5-MIN KSTC 041425Z 29008KT 5SM -SN BR BKN035 OVC043 01/M01 A2992 1030 89 -300 290/08 RMK AO2 SNB09 P0000 T00111006
14926KSTC STC20191104083013311/04/19 08:30:31  5-MIN KSTC 041430Z 29008KT 5SM -SN BR BKN035 OVC043 01/M01 A2992 1030 89 -300 280/08 RMK AO2 SNB09 P0000 T00111006
14926KSTC STC20191104083512611/04/19 08:35:31  5-MIN KSTC 041435Z 28008KT 5SM -SN BR OVC037 01/M01 A2993 1030 89 -300 280/08 RMK AO2 SNB09 P0000 T00111006
14926KSTC STC20191104084012911/04/19 08:40:31  5-MIN KSTC 041440Z 29009KT 7SM BKN039 OVC055 01/M01 A2993 1030 89 -300 290/09 RMK AO2 SNB09E38 P0000 T00111006
14926KSTC STC20191104084512911/04/19 08:45:31  5-MIN KSTC 041445Z 29009KT 8SM BKN044 OVC055 01/M01 A2993 1030 89 -300 290/09 RMK AO2 SNB09E38 P0000 T00111006
14926KSTC STC20191104085015511/04/19 08:50:31  5-MIN KSTC 041450Z 29009KT 9SM BKN044 BKN055 OVC070 01/M01 A2993 1030 89 -300 280/09 RMK AO2 SNB09E38 SLP156 P0000 60000 T00111006 51014
14926KSTC STC20191104085511411/04/19 08:55:31  5-MIN KSTC 041455Z 29009KT 9SM SCT044 OVC070 02/M01 A2993 1030 85 -300 290/09 RMK AO2 T00171006
14926KSTC STC20191104090012111/04/19 09:00:31  5-MIN KSTC 041500Z 29008KT 9SM SCT049 SCT060 OVC075 02/M01 A2993 1030 85 -300 290/08 RMK AO2 T00171006
14926KSTC STC20191104090511411/04/19 09:05:31  5-MIN KSTC 041505Z 29008KT 9SM SCT048 OVC070 02/M01 A2993 1020 85 -300 290/08 RMK AO2 T00171006
14926KSTC STC20191104091011411/04/19 09:10:31  5-MIN KSTC 041510Z 29011KT 9SM FEW050 OVC070 01/M01 A2993 1020 89 -300 280/11 RMK AO2 T00111006
14926KSTC STC20191104091511411/04/19 09:15:31  5-MIN KSTC 041515Z 30010KT 8SM FEW046 OVC070 01/M01 A2993 1020 89 -300 290/10 RMK AO2 T00111006
14926KSTC STC20191104092012111/04/19 09:20:31  5-MIN KSTC 041520Z 29010KT 8SM FEW029 SCT044 OVC070 01/M01 A2994 1020 89 -300 290/10 RMK AO2 T00111006
14926KSTC STC20191104092512111/04/19 09:25:31  5-MIN KSTC 041525Z 30008KT 8SM SCT029 BKN044 OVC070 01/M01 A2994 1020 89 -300 290/08 RMK AO2 T00111006
14926KSTC STC20191104093012111/04/19 09:30:31  5-MIN KSTC 041530Z 30008KT 7SM BKN027 BKN041 OVC070 01/M01 A2994 1020 89 -300 300/08 RMK AO2 T00111006
14926KSTC STC20191104093514011/04/19 09:35:31  5-MIN KSTC 041535Z 29008KT 6SM -SN BR FEW011 BKN027 OVC070 01/M01 A2994 1020 89 -300 290/08 RMK AO2 SNB31 P0000 T00111006
14926KSTC STC20191104094014011/04/19 09:40:31  5-MIN KSTC 041540Z 29009KT 5SM -SN BR SCT011 BKN023 OVC070 01/M01 A2994 1010 89 -300 290/09 RMK AO2 SNB31 P0000 T00111006
14926KSTC STC20191104094514011/04/19 09:45:31  5-MIN KSTC 041545Z 28008KT 4SM -SN BR SCT009 SCT014 OVC025 01/M01 A2994 1010 89 -300 280/08 RMK AO2 SNB31 P0000 T00111006
14926KSTC STC20191104095012911/04/19 09:50:31  5-MIN KSTC 041550Z 28007KT 5SM -SN BR SCT011 BKN016 OVC025 01/00 A2994 1010 92 -300 280/07 RMK AO2 SNB31 P0000
14926KSTC STC20191104095513311/04/19 09:55:31  5-MIN KSTC 041555Z 29007KT 5SM -SN BR SCT011 BKN019 OVC025 01/00 A2995 1010 92 -300 290/07 RMK AO2 P0000 T00110000
14926KSTC STC20191104100013711/04/19 10:00:31  5-MIN KSTC 041600Z 29008KT 6SM BR FEW011 BKN015 OVC022 01/00 A2995 1010 92 -300 290/08 RMK AO2 SNE1556 P0000 T00110000
14926KSTC STC20191104100513711/04/19 10:05:31  5-MIN KSTC 041605Z 29007KT 6SM BR FEW010 BKN015 OVC024 01/00 A2995 1010 92 -300 290/07 RMK AO2 SNE1556 P0000 T00110000
14926KSTC STC20191104101013711/04/19 10:10:31  5-MIN KSTC 041610Z 29007KT 6SM BR FEW010 BKN015 OVC024 01/00 A2995 1010 92 -300 290/07 RMK AO2 SNE1556 P0000 T00110000
14926KSTC STC20191104101513411/04/19 10:15:31  5-MIN KSTC 041615Z 29008KT 7SM FEW008 BKN023 OVC030 01/00 A2995 1010 92 -300 290/08 RMK AO2 SNE1556 P0000 T00110000
14926KSTC STC20191104102013411/04/19 10:20:31  5-MIN KSTC 041620Z 29008KT 7SM FEW011 BKN023 OVC033 02/00 A2995 1010 89 -300 290/08 RMK AO2 SNE1556 P0000 T00170000
14926KSTC STC20191104102513411/04/19 10:25:31  5-MIN KSTC 041625Z 30008KT 8SM FEW009 BKN022 OVC031 02/00 A2995 1010 89 -300 300/08 RMK AO2 SNE1556 P0000 T00170000
14926KSTC STC20191104103013411/04/19 10:30:31  5-MIN KSTC 041630Z 29009KT 8SM FEW009 SCT022 OVC029 02/00 A2995 1000 89 -300 290/09 RMK AO2 SNE1556 P0000 T00170000
14926KSTC STC20191104103514411/04/19 10:35:31  5-MIN KSTC 041635Z 29009KT 6SM -SN BR FEW008 BKN024 OVC029 02/00 A2995 1000 89 -300 290/09 RMK AO2 SNE1556B35 P0000 T00170000
14926KSTC STC20191104104014511/04/19 10:40:31  5-MIN KSTC 041640Z 28010KT 4SM -SN BR BKN011 BKN020 OVC031 02/M01 A2996 1000 85 -300 280/10 RMK AO2 SNE1556B35 P0000 T00171006
14926KSTC STC20191104104514911/04/19 10:45:31  5-MIN KSTC 041645Z 30011KT 2 1/2SM -SN BR FEW009 BKN014 OVC028 01/M01 A2996 1000 89 -400 290/11 RMK AO2 SNE1556B35 P0000 T00111006
14926KSTC STC20191104105015511/04/19 10:50:31  5-MIN KSTC 041650Z 29010KT 1 3/4SM -SN BR FEW009 BKN014 OVC028 01/M01 A2996 1000 89 -400 290/10 RMK AO2 VIS 1 1/4V2 1/2 SNE1556B35 P0001
14926KSTC STC20191104105513911/04/19 10:55:31  5-MIN KSTC 041655Z 29010KT 2SM -SN BR FEW009 OVC014 01/M01 A2996 1000 89 -400 290/10 RMK AO2 VIS 1 1/4V5 P0000 T00111006
14926KSTC STC20191104110012511/04/19 11:00:31  5-MIN KSTC 041700Z 30010KT 3SM -SN BR BKN014 OVC035 02/00 A2996 990 89 -300 300/10 RMK AO2 P0000 T00170000
14926KSTC STC20191104110513111/04/19 11:05:31  5-MIN KSTC 041705Z 29011KT 7SM FEW009 BKN014 OVC035 02/00 A2996 990 89 -300 290/11 RMK AO2 SNE04 P0000 T00170000
14926KSTC STC20191104111012411/04/19 11:10:31  5-MIN KSTC 041710Z 30011KT 8SM BKN014 OVC034 02/00 A2996 990 89 -300 300/11 RMK AO2 SNE04 P0000 T00170000
14926KSTC STC20191104111513111/04/19 11:15:31  5-MIN KSTC 041715Z 31012KT 9SM BKN014 BKN024 OVC035 02/00 A2997 990 89 -300 310/12 RMK AO2 SNE04 P0000 T00170000
14926KSTC STC20191104112013111/04/19 11:20:31  5-MIN KSTC 041720Z 31011KT 9SM FEW010 BKN017 OVC035 02/00 A2996 990 85 -200 300/11 RMK AO2 SNE04 P0000 T00220000
14926KSTC STC20191104112513211/04/19 11:25:31  5-MIN KSTC 041725Z 30012KT 10SM SCT013 BKN018 OVC035 02/00 A2996 990 85 -200 300/12 RMK AO2 SNE04 P0000 T00220000
14926KSTC STC20191104113013111/04/19 11:30:31  5-MIN KSTC 041730Z 30010KT 9SM SCT013 BKN018 OVC036 02/00 A2996 990 85 -200 300/10 RMK AO2 SNE04 P0000 T00220000
14926KSTC STC20191104113513811/04/19 11:35:31  5-MIN KSTC 041735Z 29009KT 9SM -SN SCT012 BKN018 OVC049 02/00 A2996 990 85 -200 290/09 RMK AO2 SNE04B31 P0000 T00220000
14926KSTC STC20191104114013711/04/19 11:40:31  5-MIN KSTC 041740Z 30009KT 9SM FEW012 BKN018 OVC049 02/00 A2996 990 85 -200 300/09 RMK AO2 SNE04B31E40 P0000 T00220000
14926KSTC STC20191104114513711/04/19 11:45:31  5-MIN KSTC 041745Z 29009KT 9SM SCT014 BKN022 OVC049 02/00 A2996 990 85 -200 290/09 RMK AO2 SNE04B31E40 P0000 T00220000
14926KSTC STC20191104115016911/04/19 11:50:31  5-MIN KSTC 041750Z 30013KT 10SM SCT015 BKN021 OVC048 03/00 A2996 990 82 -200 300/13 RMK AO2 SNE04B31E40 SLP166 P0000 60001 T00280000 10028 20006 52017
14926KSTC STC20191104115512211/04/19 11:55:31  5-MIN KSTC 041755Z 29012KT 10SM SCT015 BKN021 OVC045 03/M01 A2996 1000 79 -200 290/12 RMK AO2 T00281006
14926KSTC STC20191104120012711/04/19 12:00:31  5-MIN KSTC 041800Z 29014G22KT 10SM SCT018 BKN023 BKN030 03/00 A2996 1000 79 -100 290/14G22 RMK AO2 T00330000
14926KSTC STC20191104120512811/04/19 12:05:31  5-MIN KSTC 041805Z 30013G22KT 10SM FEW016 BKN023 BKN030 03/M01 A2996 1000 76 -100 300/13G22 RMK AO2 T00331006
14926KSTC STC20191104121012811/04/19 12:10:31  5-MIN KSTC 041810Z 29014G21KT 10SM SCT018 BKN023 OVC060 03/M01 A2996 1000 76 -100 290/14G21 RMK AO2 T00331006
14926KSTC STC20191104121512811/04/19 12:15:31  5-MIN KSTC 041815Z 29016G22KT 10SM SCT019 BKN025 OVC060 03/M01 A2996 1000 75 -200 280/16G22 RMK AO2 T00281011
14926KSTC STC20191104122012111/04/19 12:20:31  5-MIN KSTC 041820Z 30014G22KT 10SM SCT021 BKN060 03/M01 A2996 1000 75 -200 300/14G22 RMK AO2 T00281011
14926KSTC STC20191104122511911/04/19 12:25:31  5-MIN KSTC 041825Z 30015KT 10SM FEW021 SCT027 BKN060 04/M01 A2996 1000 73 0 300/15 RMK AO2 T00391006
14926KSTC STC20191104123012211/04/19 12:30:31  5-MIN KSTC 041830Z 32015KT 10SM SCT021 BKN048 BKN060 03/M01 A2996 1000 75 -200 320/15 RMK AO2 T00281011
14926KSTC STC20191104123512111/04/19 12:35:31  5-MIN KSTC 041835Z 31015KT 10SM SCT021 BKN028 BKN035 02/M02 A2996 990 75 -200 310/15 RMK AO2 T00221017
14926KSTC STC20191104124012111/04/19 12:40:31  5-MIN KSTC 041840Z 31017KT 10SM FEW021 SCT028 BKN037 02/M02 A2996 990 72 -200 310/17 RMK AO2 T00221022
14926KSTC STC20191104124512111/04/19 12:45:31  5-MIN KSTC 041845Z 31015KT 10SM FEW022 FEW028 SCT037 02/M03 A2997 990 69 -200 310/15 RMK AO2 T00221028
14926KSTC STC20191104125012811/04/19 12:50:31  5-MIN KSTC 041850Z 31018KT 10SM FEW022 FEW028 SCT037 02/M03 A2997 990 67 -200 310/18 RMK AO2 SLP166 T00221033
14926KSTC STC20191104125512011/04/19 12:55:31  5-MIN KSTC 041855Z 31017G24KT 10SM FEW022 FEW035 02/M04 A2997 990 64 -200 310/17G24 RMK AO2 T00221039
14926KSTC STC20191104130012011/04/19 13:00:31  5-MIN KSTC 041900Z 31018G24KT 10SM FEW029 FEW037 02/M04 A2997 990 61 -200 310/18G24 RMK AO2 T00221044
14926KSTC STC20191104130510711/04/19 13:05:31  5-MIN KSTC 041905Z 30017KT 10SM FEW037 03/M04 A2997 990 59 -200 300/17 RMK AO2 T00281044
14926KSTC STC20191104131010411/04/19 13:10:31  5-MIN KSTC 041910Z 30018KT 10SM CLR 03/M05 A2997 990 56 -200 300/18 RMK AO2 T00281050
14926KSTC STC20191104131510411/04/19 13:15:31  5-MIN KSTC 041915Z 29017KT 10SM CLR 03/M05 A2997 990 54 -100 290/17 RMK AO2 T00331050
14926KSTC STC20191104132012811/04/19 13:20:31  5-MIN KSTC 041920Z 29018G26KT 10SM CLR 03/M06 A2997 990 52 -100 290/18G26 RMK AO2 PK WND 30026/1917 T00331056
14926KSTC STC20191104132512811/04/19 13:25:31  5-MIN KSTC 041925Z 31016G26KT 10SM CLR 03/M05 A2997 990 54 -100 310/16G26 RMK AO2 PK WND 30026/1917 T00331050
14926KSTC STC20191104133012811/04/19 13:30:31  5-MIN KSTC 041930Z 29016G24KT 10SM CLR 03/M05 A2997 990 54 -100 290/16G24 RMK AO2 PK WND 30026/1917 T00331050
14926KSTC STC20191104133512511/04/19 13:35:31  5-MIN KSTC 041935Z 29017KT 10SM FEW039 03/M05 A2997 990 54 -100 290/17 RMK AO2 PK WND 30026/1917 T00331050
14926KSTC STC20191104134012811/04/19 13:40:31  5-MIN KSTC 041940Z 30016G23KT 10SM FEW039 04/M05 A2997 990 52 0 300/16G23 RMK AO2 PK WND 30026/1917 T00391050
14926KSTC STC20191104134512811/04/19 13:45:31  5-MIN KSTC 041945Z 31018G24KT 10SM FEW039 04/M06 A2997 990 50 0 310/18G24 RMK AO2 PK WND 30026/1917 T00391056
14926KSTC STC20191104135013511/04/19 13:50:31  5-MIN KSTC 041950Z 31016G24KT 10SM FEW040 04/M06 A2997 990 50 0 310/16G24 RMK AO2 PK WND 30026/1917 SLP168 T00391056
14926KSTC STC20191104135510411/04/19 13:55:31  5-MIN KSTC 041955Z 30016KT 10SM FEW040 04/M06 A2997 980 50 0 300/16 RMK AO2 T00391056
14926KSTC STC20191104140012811/04/19 14:00:31  5-MIN KSTC 042000Z 30018G26KT 10SM SCT040 04/M06 A2997 980 50 0 300/18G26 RMK AO2 PK WND 30026/1959 T00391056
14926KSTC STC20191104140512811/04/19 14:05:31  5-MIN KSTC 042005Z 31017G26KT 10SM SCT040 04/M06 A2998 980 50 0 310/17G26 RMK AO2 PK WND 30026/1959 T00391056
14926KSTC STC20191104141012811/04/19 14:10:31  5-MIN KSTC 042010Z 32015G24KT 10SM FEW041 04/M06 A2998 980 50 0 320/15G24 RMK AO2 PK WND 30026/1959 T00391056
14926KSTC STC20191104141512811/04/19 14:15:31  5-MIN KSTC 042015Z 31017G23KT 10SM BKN041 04/M06 A2998 980 50 0 310/17G23 RMK AO2 PK WND 30026/1959 T00391056
14926KSTC STC20191104142012811/04/19 14:20:31  5-MIN KSTC 042020Z 31018G25KT 10SM BKN041 04/M06 A2998 980 50 0 310/18G25 RMK AO2 PK WND 30026/1959 T00391056
14926KSTC STC20191104142513211/04/19 14:25:31  5-MIN KSTC 042025Z 30018KT 10SM BKN042 BKN049 03/M06 A2999 970 50 -100 300/18 RMK AO2 PK WND 30026/1959 T00331061
14926KSTC STC20191104143013811/04/19 14:30:31  5-MIN KSTC 042030Z 30013G24KT 10SM BKN042 BKN049 03/M06 A2999 970 52 -200 300/13G24 RMK AO2 PK WND 30026/1959 T00281061
14926KSTC STC20191104143513811/04/19 14:35:31  5-MIN KSTC 042035Z 30011G21KT 10SM BKN042 BKN049 03/M06 A2999 970 52 -100 300/11G21 RMK AO2 PK WND 30026/1959 T00331056
14926KSTC STC20191104144013811/04/19 14:40:31  5-MIN KSTC 042040Z 30018G22KT 10SM BKN042 OVC049 03/M06 A2999 970 50 -100 300/18G22 RMK AO2 PK WND 30026/1959 T00331061
14926KSTC STC20191104144513111/04/19 14:45:31  5-MIN KSTC 042045Z 31015G23KT 10SM OVC042 03/M06 A2999 970 50 -100 310/15G23 RMK AO2 PK WND 30026/1959 T00331061
14926KSTC STC20191104145014411/04/19 14:50:31  5-MIN KSTC 042050Z 31017G24KT 10SM OVC046 03/M06 A3000 960 52 -200 310/17G24 RMK AO2 PK WND 30026/1959 SLP178 T00281061 51010
14926KSTC STC20191104145511311/04/19 14:55:31  5-MIN KSTC 042055Z 30016G24KT 10SM OVC046 03/M06 A3000 960 52 -200 300/16G24 RMK AO2 T00281061
14926KSTC STC20191104150010711/04/19 15:00:31  5-MIN KSTC 042100Z 31013KT 10SM OVC046 03/M06 A3000 960 50 -100 300/13 RMK AO2 T00331061
14926KSTC STC20191104150511311/04/19 15:05:31  5-MIN KSTC 042105Z 32015G23KT 10SM OVC046 03/M06 A3000 960 52 -200 320/15G23 RMK AO2 T00281061
14926KSTC STC20191104151011311/04/19 15:10:31  5-MIN KSTC 042110Z 31016G23KT 10SM OVC048 03/M07 A3000 960 50 -200 310/16G23 RMK AO2 T00281067
14926KSTC STC20191104151511311/04/19 15:15:31  5-MIN KSTC 042115Z 30015G22KT 10SM OVC048 03/M06 A3000 960 50 -100 300/15G22 RMK AO2 T00331061
14926KSTC STC20191104152011311/04/19 15:20:31  5-MIN KSTC 042120Z 30016G20KT 10SM OVC048 04/M06 A3000 960 48 -100 290/16G20 RMK AO2 T00391061
14926KSTC STC20191104152510711/04/19 15:25:31  5-MIN KSTC 042125Z 30013KT 10SM BKN050 04/M07 A3000 960 46 -100 300/13 RMK AO2 T00391067
14926KSTC STC20191104153011411/04/19 15:30:31  5-MIN KSTC 042130Z 31013KT 10SM BKN050 BKN060 03/M07 A3000 960 48 -100 310/13 RMK AO2 T00331067
14926KSTC STC20191104153511311/04/19 15:35:31  5-MIN KSTC 042135Z 31014G22KT 10SM BKN055 03/M07 A3001 950 48 -200 310/14G22 RMK AO2 T00281072
14926KSTC STC20191104154011311/04/19 15:40:31  5-MIN KSTC 042140Z 31014G22KT 10SM BKN049 03/M07 A3001 950 50 -200 310/14G22 RMK AO2 T00281067
14926KSTC STC20191104154511311/04/19 15:45:31  5-MIN KSTC 042145Z 29011G20KT 10SM BKN055 03/M07 A3001 950 50 -200 290/11G20 RMK AO2 T00281067
14926KSTC STC20191104155012011/04/19 15:50:31  5-MIN KSTC 042150Z 30013G20KT 10SM BKN055 03/M07 A3001 950 48 -200 300/13G20 RMK AO2 SLP181 T00281072
14926KSTC STC20191104155510711/04/19 15:55:31  5-MIN KSTC 042155Z 31010KT 10SM OVC055 03/M07 A3001 950 50 -200 310/10 RMK AO2 T00281067
14926KSTC STC20191104160011411/04/19 16:00:31  5-MIN KSTC 042200Z 31012KT 10SM FEW049 OVC060 03/M07 A3001 950 50 -200 310/12 RMK AO2 T00281067
14926KSTC STC20191104160511411/04/19 16:05:31  5-MIN KSTC 042205Z 30010KT 10SM FEW049 OVC060 03/M06 A3001 950 52 -200 300/10 RMK AO2 T00281061
14926KSTC STC20191104161010711/04/19 16:10:31  5-MIN KSTC 042210Z 30008KT 10SM OVC060 03/M06 A3001 950 52 -200 300/08 RMK AO2 T00281061
14926KSTC STC20191104161510711/04/19 16:15:31  5-MIN KSTC 042215Z 30011KT 10SM OVC060 03/M06 A3002 950 52 -200 300/11 RMK AO2 T00281061
14926KSTC STC20191104162010711/04/19 16:20:31  5-MIN KSTC 042220Z 30011KT 10SM OVC060 03/M06 A3002 950 52 -200 300/11 RMK AO2 T00281061
14926KSTC STC20191104162510711/04/19 16:25:31  5-MIN KSTC 042225Z 29011KT 10SM OVC060 03/M06 A3002 940 52 -200 290/11 RMK AO2 T00281061
14926KSTC STC20191104163011311/04/19 16:30:31  5-MIN KSTC 042230Z 30014G20KT 10SM OVC060 03/M06 A3002 940 52 -200 300/14G20 RMK AO2 T00281061
14926KSTC STC20191104163511311/04/19 16:35:31  5-MIN KSTC 042235Z 28012G20KT 10SM OVC060 03/M06 A3002 940 52 -200 280/12G20 RMK AO2 T00281061
14926KSTC STC20191104164010711/04/19 16:40:31  5-MIN KSTC 042240Z 29011KT 10SM OVC055 03/M06 A3002 940 52 -200 290/11 RMK AO2 T00281061
14926KSTC STC20191104164510711/04/19 16:45:31  5-MIN KSTC 042245Z 29013KT 10SM OVC055 02/M06 A3002 940 56 -300 290/13 RMK AO2 T00221056
14926KSTC STC20191104165012011/04/19 16:50:31  5-MIN KSTC 042250Z 29014G21KT 10SM OVC055 02/M06 A3003 940 56 -300 290/14G21 RMK AO2 SLP187 T00221056
14926KSTC STC20191104165510711/04/19 16:55:31  5-MIN KSTC 042255Z 29013KT 10SM OVC050 02/M06 A3003 940 56 -300 290/13 RMK AO2 T00221056
14926KSTC STC20191104170010711/04/19 17:00:31  5-MIN KSTC 042300Z 29013KT 10SM OVC050 02/M06 A3003 930 56 -300 290/13 RMK AO2 T00221056
14926KSTC STC20191104170510711/04/19 17:05:31  5-MIN KSTC 042305Z 29013KT 10SM OVC055 02/M05 A3003 930 59 -300 290/13 RMK AO2 T00221050
14926KSTC STC20191104171010711/04/19 17:10:31  5-MIN KSTC 042310Z 29015KT 10SM OVC055 02/M05 A3003 930 59 -300 290/15 RMK AO2 T00221050
14926KSTC STC20191104171511411/04/19 17:15:31  5-MIN KSTC 042315Z 29015KT 10SM FEW034 OVC050 02/M05 A3003 930 59 -300 290/15 RMK AO2 T00221050
14926KSTC STC20191104172012111/04/19 17:20:31  5-MIN KSTC 042320Z 29014KT 10SM FEW034 SCT043 OVC055 02/M04 A3003 930 64 -400 290/14 RMK AO2 T00171044
14926KSTC STC20191104172512111/04/19 17:25:31  5-MIN KSTC 042325Z 29011KT 10SM FEW034 BKN050 OVC080 02/M04 A3003 930 64 -400 290/11 RMK AO2 T00171044
14926KSTC STC20191104173012711/04/19 17:30:31  5-MIN KSTC 042330Z 29013G20KT 10SM FEW034 BKN055 OVC080 02/M04 A3004 930 64 -400 290/13G20 RMK AO2 T00171044
14926KSTC STC20191104173512711/04/19 17:35:31  5-MIN KSTC 042335Z 29010G20KT 10SM FEW034 BKN060 OVC075 02/M04 A3004 920 64 -400 290/10G20 RMK AO2 T00171044
14926KSTC STC20191104174012111/04/19 17:40:31  5-MIN KSTC 042340Z 29013KT 10SM FEW034 BKN065 OVC075 02/M04 A3004 920 64 -400 290/13 RMK AO2 T00171044
14926KSTC STC20191104174512111/04/19 17:45:31  5-MIN KSTC 042345Z 29014KT 10SM FEW028 BKN050 OVC075 02/M04 A3004 920 66 -400 290/14 RMK AO2 T00171039
14926KSTC STC20191104175014611/04/19 17:50:31  5-MIN KSTC 042350Z 29012KT 10SM FEW048 BKN060 OVC080 01/M04 A3004 920 69 -500 290/12 RMK AO2 SLP193 T00111039 10039 20011 53012
14926KSTC STC20191104175512111/04/19 17:55:31  5-MIN KSTC 042355Z 29012KT 10SM SCT048 BKN060 OVC080 01/M04 A3004 920 69 -500 290/12 RMK AO2 T00111039
14926KSTC STC20191104180012111/04/19 18:00:31  5-MIN KSTC 050000Z 29014KT 10SM BKN050 BKN065 OVC080 01/M04 A3004 920 69 -500 290/14 RMK AO2 T00111039
14926KSTC STC20191104180512111/04/19 18:05:31  5-MIN KSTC 050005Z 30014KT 10SM FEW025 BKN050 OVC080 01/M04 A3005 910 69 -500 300/14 RMK AO2 T00111039
14926KSTC STC20191104181012111/04/19 18:10:31  5-MIN KSTC 050010Z 30012KT 10SM SCT023 BKN050 OVC080 01/M04 A3005 910 69 -500 300/12 RMK AO2 T00111039
14926KSTC STC20191104181512111/04/19 18:15:31  5-MIN KSTC 050015Z 30012KT 10SM BKN021 BKN050 OVC080 01/M03 A3006 910 72 -500 300/12 RMK AO2 T00111033
14926KSTC STC20191104182012711/04/19 18:20:31  5-MIN KSTC 050020Z 30016G23KT 10SM BKN021 BKN025 OVC080 01/M03 A3006 900 72 -500 300/16G23 RMK AO2 T00111033
14926KSTC STC20191104182512711/04/19 18:25:31  5-MIN KSTC 050025Z 31017G23KT 10SM BKN021 BKN025 OVC049 01/M03 A3006 900 75 -600 310/17G23 RMK AO2 T00061033
14926KSTC STC20191104183012711/04/19 18:30:31  5-MIN KSTC 050030Z 32017G24KT 10SM BKN021 BKN030 OVC035 01/M03 A3007 900 75 -600 320/17G24 RMK AO2 T00061033
14926KSTC STC20191104183514511/04/19 18:35:31  5-MIN KSTC 050035Z 32018G26KT 10SM BKN021 BKN026 OVC033 00/M04 A3007 890 75 -600 320/18G26 RMK AO2 PK WND 32026/0035 T00001039
14926KSTC STC20191104184014511/04/19 18:40:31  5-MIN KSTC 050040Z 31019G26KT 10SM SCT020 BKN028 OVC033 00/M04 A3008 890 72 -600 310/19G26 RMK AO2 PK WND 32026/0035 T00001044
14926KSTC STC20191104184513911/04/19 18:45:31  5-MIN KSTC 050045Z 31019KT 10SM FEW018 BKN029 OVC044 00/M05 A3008 890 69 -600 310/19 RMK AO2 PK WND 32026/0035 T00001050
14926KSTC STC20191104185013611/04/19 18:50:31  5-MIN KSTC 050050Z 31020G27KT 10SM FEW020 BKN034 OVC050 M01/M06 A3008 880 69 -700 310/20G27 RMK AO2 PK WND 30027/0049
14926KSTC STC20191104185512811/04/19 18:55:31  5-MIN KSTC 050055Z 30018G27KT 10SM FEW020 SCT032 BKN042 M01/M06 A3009 880 72 -800 300/18G27 RMK AO2 T10111056
14926KSTC STC20191104190012811/04/19 19:00:31  5-MIN KSTC 050100Z 31019G27KT 10SM FEW022 SCT029 BKN042 M01/M06 A3009 880 72 -800 310/19G27 RMK AO2 T10111056
14926KSTC STC20191104190512811/04/19 19:05:31  5-MIN KSTC 050105Z 31017G25KT 10SM FEW022 SCT032 BKN041 M01/M06 A3009 870 69 -800 310/17G25 RMK AO2 T10111061
14926KSTC STC20191104191012811/04/19 19:10:31  5-MIN KSTC 050110Z 32016G24KT 10SM SCT024 SCT032 BKN050 M02/M07 A3010 870 69 -900 320/16G24 RMK AO2 T10171067
14926KSTC STC20191104191512211/04/19 19:15:31  5-MIN KSTC 050115Z 32015KT 10SM SCT024 BKN029 BKN050 M02/M06 A3010 870 72 -900 320/15 RMK AO2 T10171061
14926KSTC STC20191104192011411/04/19 19:20:31  5-MIN KSTC 050120Z 32019G25KT 10SM BKN024 M02/M06 A3010 870 72 -900 310/19G25 RMK AO2 T10171061
14926KSTC STC20191104192511411/04/19 19:25:31  5-MIN KSTC 050125Z 32016G25KT 10SM BKN026 M02/M07 A3010 860 69 -900 320/16G25 RMK AO2 T10171067
14926KSTC STC20191104193011411/04/19 19:30:31  5-MIN KSTC 050130Z 32015G23KT 10SM BKN026 M02/M07 A3010 870 66 -900 320/15G23 RMK AO2 T10171072
14926KSTC STC20191104193513211/04/19 19:35:31  5-MIN KSTC 050135Z 33015G27KT 10SM OVC028 M02/M07 A3010 860 66 -900 320/15G27 RMK AO2 PK WND 34027/0133 T10171072
14926KSTC STC20191104194013211/04/19 19:40:31  5-MIN KSTC 050140Z 32013G27KT 10SM OVC028 M02/M07 A3010 860 66 -900 320/13G27 RMK AO2 PK WND 34027/0133 T10171072
14926KSTC STC20191104194513211/04/19 19:45:31  5-MIN KSTC 050145Z 31012G21KT 10SM OVC028 M02/M07 A3011 860 66 -900 310/12G21 RMK AO2 PK WND 34027/0133 T10171072
14926KSTC STC20191104195013311/04/19 19:50:31  5-MIN KSTC 050150Z 32013KT 10SM OVC028 M02/M07 A3011 860 66 -900 320/13 RMK AO2 PK WND 34027/0133 SLP217 T10171072
14926KSTC STC20191104195511411/04/19 19:55:31  5-MIN KSTC 050155Z 32010G19KT 10SM OVC028 M02/M07 A3011 860 66 -900 320/10G19 RMK AO2 T10171072
14926KSTC STC20191104200011411/04/19 20:00:31  5-MIN KSTC 050200Z 32011G19KT 10SM OVC028 M02/M07 A3011 860 66 -900 320/11G19 RMK AO2 T10171072
14926KSTC STC20191104200511411/04/19 20:05:31  5-MIN KSTC 050205Z 32013G19KT 10SM OVC028 M02/M07 A3011 860 69 -900 320/13G19 RMK AO2 T10171067
14926KSTC STC20191104201011411/04/19 20:10:31  5-MIN KSTC 050210Z 33014G24KT 10SM OVC028 M02/M07 A3011 860 66 -900 330/14G24 RMK AO2 T10171072
14926KSTC STC20191104201511411/04/19 20:15:31  5-MIN KSTC 050215Z 32014G24KT 10SM OVC028 M02/M07 A3011 860 66 -900 320/14G24 RMK AO2 T10171072
14926KSTC STC20191104202012111/04/19 20:20:31  5-MIN KSTC 050220Z 32017G23KT 10SM BKN028 OVC033 M02/M08 A3011 850 63 -900 320/17G23 RMK AO2 T10171078
14926KSTC STC20191104202511411/04/19 20:25:31  5-MIN KSTC 050225Z 32014G24KT 10SM OVC028 M02/M08 A3012 850 63 -900 320/14G24 RMK AO2 T10171078
14926KSTC STC20191104203013311/04/19 20:30:31  5-MIN KSTC 050230Z 32015G26KT 10SM OVC027 M02/M08 A3012 850 66 -1000 320/15G26 RMK AO2 PK WND 32026/0229 T10221078
14926KSTC STC20191104203513311/04/19 20:35:31  5-MIN KSTC 050235Z 31018G26KT 10SM OVC029 M02/M08 A3012 850 63 -1000 310/18G26 RMK AO2 PK WND 32026/0229 T10221083
14926KSTC STC20191104204013311/04/19 20:40:31  5-MIN KSTC 050240Z 31017G25KT 10SM OVC029 M02/M09 A3012 850 60 -1000 310/17G25 RMK AO2 PK WND 32026/0229 T10221089
14926KSTC STC20191104204513311/04/19 20:45:31  5-MIN KSTC 050245Z 32018G25KT 10SM OVC029 M02/M09 A3012 850 60 -1000 320/18G25 RMK AO2 PK WND 32026/0229 T10221089
14926KSTC STC20191104205012311/04/19 20:50:31  5-MIN KSTC 050250Z 32013G25KT 10SM OVC031 M02/M09 A3012 850 58 -1000 320/13G25 RMK AO2 PK WND 32026/0229
14926KSTC STC20191104205511511/04/19 20:55:31  5-MIN KSTC 050255Z 31017G23KT 10SM OVC032 M02/M09 A3013 840 58 -1000 310/17G23 RMK AO2 T10221094
14926KSTC STC20191104210011511/04/19 21:00:31  5-MIN KSTC 050300Z 31014G23KT 10SM OVC032 M02/M09 A3013 840 58 -1000 310/14G23 RMK AO2 T10221094
14926KSTC STC20191104210511511/04/19 21:05:31  5-MIN KSTC 050305Z 32011G22KT 10SM OVC032 M02/M09 A3013 840 60 -1000 320/11G22 RMK AO2 T10221089
14926KSTC STC20191104211011511/04/19 21:10:31  5-MIN KSTC 050310Z 32013G19KT 10SM OVC032 M02/M09 A3013 840 60 -1000 320/13G19 RMK AO2 T10221089
14926KSTC STC20191104211511511/04/19 21:15:31  5-MIN KSTC 050315Z 32014G21KT 10SM OVC032 M02/M09 A3014 830 60 -1000 320/14G21 RMK AO2 T10221089
14926KSTC STC20191104212011511/04/19 21:20:31  5-MIN KSTC 050320Z 32015G22KT 10SM OVC032 M03/M09 A3014 830 60 -1100 320/15G22 RMK AO2 T10281094
14926KSTC STC20191104212511511/04/19 21:25:31  5-MIN KSTC 050325Z 32015G22KT 10SM OVC032 M03/M10 A3014 830 58 -1100 320/15G22 RMK AO2 T10281100
14926KSTC STC20191104213011511/04/19 21:30:31  5-MIN KSTC 050330Z 32016G22KT 10SM OVC032 M03/M10 A3014 830 58 -1100 310/16G22 RMK AO2 T10281100
14926KSTC STC20191104213511511/04/19 21:35:31  5-MIN KSTC 050335Z 33011G22KT 10SM OVC032 M03/M10 A3015 830 58 -1100 330/11G22 RMK AO2 T10281100
14926KSTC STC20191104214011511/04/19 21:40:31  5-MIN KSTC 050340Z 34011G20KT 10SM OVC034 M03/M10 A3015 820 58 -1100 340/11G20 RMK AO2 T10281100
14926KSTC STC20191104214511511/04/19 21:45:31  5-MIN KSTC 050345Z 33010G18KT 10SM OVC034 M03/M11 A3015 820 55 -1100 330/10G18 RMK AO2 T10281106
14926KSTC STC20191104215012211/04/19 21:50:31  5-MIN KSTC 050350Z 33008G16KT 10SM OVC034 M03/M11 A3015 820 55 -1100 330/08G16 RMK AO2 SLP231 T10281106
14926KSTC STC20191104215511511/04/19 21:55:31  5-MIN KSTC 050355Z 32013G18KT 10SM OVC034 M03/M11 A3015 820 55 -1100 320/13G18 RMK AO2 T10281106
14926KSTC STC20191104220011511/04/19 22:00:31  5-MIN KSTC 050400Z 32011G18KT 10SM OVC035 M03/M11 A3015 820 57 -1100 320/11G18 RMK AO2 T10331106
14926KSTC STC20191104220510911/04/19 22:05:31  5-MIN KSTC 050405Z 33009KT 10SM OVC035 M03/M11 A3016 820 57 -1200 330/09 RMK AO2 T10331106
14926KSTC STC20191104221011511/04/19 22:10:31  5-MIN KSTC 050410Z 33008G16KT 10SM OVC035 M03/M11 A3016 820 57 -1200 330/08G16 RMK AO2 T10331106
14926KSTC STC20191104221511511/04/19 22:15:31  5-MIN KSTC 050415Z 32013G20KT 10SM OVC035 M03/M11 A3016 810 55 -1200 320/13G20 RMK AO2 T10331111
14926KSTC STC20191104222011511/04/19 22:20:31  5-MIN KSTC 050420Z 32014G22KT 10SM OVC035 M03/M12 A3016 810 53 -1200 320/14G22 RMK AO2 T10331117
14926KSTC STC20191104222511511/04/19 22:25:31  5-MIN KSTC 050425Z 33013G22KT 10SM OVC035 M03/M12 A3016 810 50 -1200 330/13G22 RMK AO2 T10331122
14926KSTC STC20191104223011511/04/19 22:30:31  5-MIN KSTC 050430Z 33010G21KT 10SM OVC036 M04/M12 A3016 810 52 -1200 330/10G21 RMK AO2 T10391122
14926KSTC STC20191104223510911/04/19 22:35:31  5-MIN KSTC 050435Z 33010KT 10SM OVC038 M04/M12 A3016 810 52 -1200 330/10 RMK AO2 T10391122
14926KSTC STC20191104224011511/04/19 22:40:31  5-MIN KSTC 050440Z 34013G20KT 10SM OVC038 M04/M12 A3017 810 52 -1200 330/13G20 RMK AO2 T10391122
14926KSTC STC20191104224511511/04/19 22:45:31  5-MIN KSTC 050445Z 32017G23KT 10SM OVC038 M04/M13 A3017 800 50 -1200 320/17G23 RMK AO2 T10391128
14926KSTC STC20191104225012211/04/19 22:50:31  5-MIN KSTC 050450Z 34013G23KT 10SM OVC038 M04/M13 A3017 800 50 -1200 340/13G23 RMK AO2 SLP239 T10391128
14926KSTC STC20191104225511511/04/19 22:55:31  5-MIN KSTC 050455Z 33015G25KT 10SM OVC040 M04/M13 A3017 800 50 -1200 330/15G25 RMK AO2 T10391128
14926KSTC STC20191104230011511/04/19 23:00:31  5-MIN KSTC 050500Z 31014G25KT 10SM BKN040 M04/M13 A3017 800 52 -1300 310/14G25 RMK AO2 T10441128
14926KSTC STC20191104230511411/04/19 23:05:31  5-MIN KSTC 050505Z AUTO 31013KT 10SM BKN040 M04/M13 A3017 800 52 -1300 300/13 RMK AO2 T10441128
14926KSTC STC20191104231011411/04/19 23:10:31  5-MIN KSTC 050510Z AUTO 30012KT 10SM BKN040 M04/M13 A3017 800 52 -1300 300/12 RMK AO2 T10441128
14926KSTC STC20191104231511411/04/19 23:15:31  5-MIN KSTC 050515Z AUTO 30013KT 10SM BKN040 M04/M13 A3018 800 52 -1300 300/13 RMK AO2 T10441128
14926KSTC STC20191104232011411/04/19 23:20:31  5-MIN KSTC 050520Z AUTO 31011KT 10SM BKN040 M04/M13 A3018 800 50 -1200 300/11 RMK AO2 T10391128
14926KSTC STC20191104232511411/04/19 23:25:31  5-MIN KSTC 050525Z AUTO 31014KT 10SM BKN041 M04/M13 A3018 800 50 -1200 310/14 RMK AO2 T10391128
14926KSTC STC20191104233011411/04/19 23:30:31  5-MIN KSTC 050530Z AUTO 30011KT 10SM OVC041 M04/M13 A3018 790 50 -1200 300/11 RMK AO2 T10391128
14926KSTC STC20191104233511411/04/19 23:35:31  5-MIN KSTC 050535Z AUTO 32012KT 10SM OVC041 M04/M13 A3018 790 50 -1200 320/12 RMK AO2 T10391128
14926KSTC STC20191104234011411/04/19 23:40:31  5-MIN KSTC 050540Z AUTO 32010KT 10SM OVC041 M04/M13 A3018 790 50 -1300 310/10 RMK AO2 T10391128
14926KSTC STC20191104234511411/04/19 23:45:31  5-MIN KSTC 050545Z AUTO 30011KT 10SM OVC041 M04/M13 A3018 790 50 -1300 300/11 RMK AO2 T10391128
14926KSTC STC20191104235014911/04/19 23:50:31  5-MIN KSTC 050550Z AUTO 31013KT 10SM OVC041 M04/M13 A3018 790 50 -1300 310/13 RMK AO2 SLP243 T10391128 10011 21044 400391044 51027
14926KSTC STC20191104235511411/04/19 23:55:31  5-MIN KSTC 050555Z AUTO 31009KT 10SM OVC041 M04/M12 A3018 790 52 -1300 310/09 RMK AO2 T10391122
14926KSTC STC20191105000011411/05/19 00:00:31  5-MIN KSTC 050600Z AUTO 31011KT 10SM OVC041 M04/M12 A3019 790 52 -1300 310/11 RMK AO2 T10391122
14926KSTC STC20191105000512011/05/19 00:05:31  5-MIN KSTC 050605Z AUTO 33012G18KT 10SM OVC041 M04/M12 A3018 790 52 -1300 330/12G18 RMK AO2 T10391122
14926KSTC STC20191105001012011/05/19 00:10:31  5-MIN KSTC 050610Z AUTO 33009G20KT 10SM OVC041 M04/M13 A3019 790 50 -1300 330/09G20 RMK AO2 T10441133
14926KSTC STC20191105001512011/05/19 00:15:31  5-MIN KSTC 050615Z AUTO 32009G20KT 10SM BKN041 M04/M13 A3019 790 50 -1300 320/09G20 RMK AO2 T10441133
14926KSTC STC20191105002011411/05/19 00:20:31  5-MIN KSTC 050620Z AUTO 33009KT 10SM BKN041 M04/M13 A3019 780 50 -1300 330/09 RMK AO2 T10441133
14926KSTC STC20191105002511411/05/19 00:25:31  5-MIN KSTC 050625Z AUTO 31011KT 10SM OVC043 M04/M13 A3019 780 50 -1300 310/11 RMK AO2 T10441133
14926KSTC STC20191105003011411/05/19 00:30:31  5-MIN KSTC 050630Z AUTO 31009KT 10SM BKN043 M05/M13 A3019 790 52 -1400 310/09 RMK AO2 T10501133
14926KSTC STC20191105003511411/05/19 00:35:31  5-MIN KSTC 050635Z AUTO 31011KT 10SM BKN044 M05/M13 A3019 790 52 -1400 310/11 RMK AO2 T10501133
14926KSTC STC20191105004011411/05/19 00:40:31  5-MIN KSTC 050640Z AUTO 31010KT 10SM BKN044 M05/M13 A3019 780 52 -1400 310/10 RMK AO2 T10501133
14926KSTC STC20191105004511411/05/19 00:45:31  5-MIN KSTC 050645Z AUTO 31009KT 10SM BKN044 M06/M13 A3019 780 54 -1500 310/09 RMK AO2 T10561133
14926KSTC STC20191105005012111/05/19 00:50:31  5-MIN KSTC 050650Z AUTO 31007KT 10SM SCT045 M06/M13 A3019 790 54 -1500 310/07 RMK AO2 SLP245 T10561133
14926KSTC STC20191105005511411/05/19 00:55:31  5-MIN KSTC 050655Z AUTO 31006KT 10SM SCT045 M06/M13 A3019 780 57 -1500 310/06 RMK AO2 T10611133
14926KSTC STC20191105010011411/05/19 01:00:31  5-MIN KSTC 050700Z AUTO 30006KT 10SM SCT045 M06/M13 A3019 780 57 -1500 300/06 RMK AO2 T10611133
14926KSTC STC20191105010511411/05/19 01:05:31  5-MIN KSTC 050705Z AUTO 31005KT 10SM SCT045 M06/M13 A3019 790 57 -1500 310/05 RMK AO2 T10611133
14926KSTC STC20191105011011411/05/19 01:10:31  5-MIN KSTC 050710Z AUTO 31005KT 10SM BKN046 M07/M13 A3019 790 62 -1600 300/05 RMK AO2 T10671128
14926KSTC STC20191105011511411/05/19 01:15:31  5-MIN KSTC 050715Z AUTO 31005KT 10SM BKN046 M06/M13 A3018 790 59 -1500 310/05 RMK AO2 T10611128
14926KSTC STC20191105012011411/05/19 01:20:31  5-MIN KSTC 050720Z AUTO 30006KT 10SM SCT046 M06/M13 A3019 790 59 -1500 300/06 RMK AO2 T10611128
14926KSTC STC20191105012511411/05/19 01:25:31  5-MIN KSTC 050725Z AUTO 31006KT 10SM SCT046 M06/M13 A3019 790 59 -1500 310/06 RMK AO2 T10611128
14926KSTC STC20191105013011411/05/19 01:30:31  5-MIN KSTC 050730Z AUTO 31007KT 10SM BKN046 M06/M13 A3019 790 59 -1500 300/07 RMK AO2 T10611128
14926KSTC STC20191105013511411/05/19 01:35:31  5-MIN KSTC 050735Z AUTO 31006KT 10SM BKN046 M06/M12 A3019 790 62 -1500 310/06 RMK AO2 T10611122
14926KSTC STC20191105014011411/05/19 01:40:31  5-MIN KSTC 050740Z AUTO 31005KT 10SM BKN046 M06/M12 A3019 790 59 -1500 310/05 RMK AO2 T10561122
14926KSTC STC20191105014511411/05/19 01:45:31  5-MIN KSTC 050745Z AUTO 29005KT 10SM BKN046 M06/M12 A3019 790 59 -1500 290/05 RMK AO2 T10561122
14926KSTC STC20191105015012111/05/19 01:50:31  5-MIN KSTC 050750Z AUTO 29004KT 10SM OVC046 M06/M12 A3019 790 59 -1500 290/04 RMK AO2 SLP244 T10561122
14926KSTC STC20191105015511411/05/19 01:55:31  5-MIN KSTC 050755Z AUTO 29005KT 10SM OVC046 M05/M13 A3019 790 55 -1400 290/05 RMK AO2 T10501128
14926KSTC STC20191105020011411/05/19 02:00:31  5-MIN KSTC 050800Z AUTO 30006KT 10SM OVC046 M05/M13 A3019 790 55 -1400 300/06 RMK AO2 T10501128
14926KSTC STC20191105020511411/05/19 02:05:31  5-MIN KSTC 050805Z AUTO 29005KT 10SM OVC046 M04/M13 A3019 790 52 -1300 290/05 RMK AO2 T10441128
14926KSTC STC20191105021011411/05/19 02:10:31  5-MIN KSTC 050810Z AUTO 29006KT 10SM OVC046 M04/M13 A3019 790 52 -1300 290/06 RMK AO2 T10441128
14926KSTC STC20191105021511411/05/19 02:15:31  5-MIN KSTC 050815Z AUTO 29005KT 10SM OVC046 M04/M12 A3019 790 55 -1300 290/05 RMK AO2 T10441122
14926KSTC STC20191105022011411/05/19 02:20:31  5-MIN KSTC 050820Z AUTO 30005KT 10SM OVC046 M04/M12 A3019 790 55 -1300 290/05 RMK AO2 T10441122
14926KSTC STC20191105022511411/05/19 02:25:31  5-MIN KSTC 050825Z AUTO 29007KT 10SM OVC046 M04/M12 A3019 790 55 -1300 290/07 RMK AO2 T10441122
14926KSTC STC20191105023011411/05/19 02:30:31  5-MIN KSTC 050830Z AUTO 29007KT 10SM OVC046 M04/M12 A3019 790 55 -1300 290/07 RMK AO2 T10441122
14926KSTC STC20191105023511411/05/19 02:35:31  5-MIN KSTC 050835Z AUTO 29006KT 10SM OVC046 M04/M12 A3019 790 55 -1300 290/06 RMK AO2 T10441122
14926KSTC STC20191105024011411/05/19 02:40:31  5-MIN KSTC 050840Z AUTO 30006KT 10SM OVC045 M04/M12 A3019 790 55 -1300 300/06 RMK AO2 T10441122
14926KSTC STC20191105024511411/05/19 02:45:31  5-MIN KSTC 050845Z AUTO 30005KT 10SM OVC045 M04/M12 A3019 780 55 -1300 300/05 RMK AO2 T10441122
14926KSTC STC20191105025012711/05/19 02:50:31  5-MIN KSTC 050850Z AUTO 30006KT 10SM OVC045 M04/M12 A3019 780 55 -1300 300/06 RMK AO2 SLP246 T10441122 51019
14926KSTC STC20191105025511411/05/19 02:55:31  5-MIN KSTC 050855Z AUTO 30005KT 10SM OVC044 M04/M12 A3019 780 55 -1300 300/05 RMK AO2 T10441122
14926KSTC STC20191105030011411/05/19 03:00:31  5-MIN KSTC 050900Z AUTO 30006KT 10SM OVC044 M04/M12 A3020 780 55 -1300 300/06 RMK AO2 T10441122
14926KSTC STC20191105030511411/05/19 03:05:31  5-MIN KSTC 050905Z AUTO 31005KT 10SM OVC044 M04/M12 A3020 780 57 -1300 310/05 RMK AO2 T10441117
14926KSTC STC20191105031011411/05/19 03:10:31  5-MIN KSTC 050910Z AUTO 30005KT 10SM OVC044 M05/M12 A3020 780 60 -1400 300/05 RMK AO2 T10501117
14926KSTC STC20191105031511411/05/19 03:15:31  5-MIN KSTC 050915Z AUTO 30004KT 10SM OVC044 M05/M12 A3020 780 60 -1400 300/04 RMK AO2 T10501117
14926KSTC STC20191105032011411/05/19 03:20:31  5-MIN KSTC 050920Z AUTO 30005KT 10SM OVC044 M04/M12 A3020 780 57 -1300 300/05 RMK AO2 T10441117
14926KSTC STC20191105032511411/05/19 03:25:31  5-MIN KSTC 050925Z AUTO 31006KT 10SM OVC044 M04/M12 A3020 780 57 -1300 310/06 RMK AO2 T10441117
14926KSTC STC20191105033011411/05/19 03:30:31  5-MIN KSTC 050930Z AUTO 31009KT 10SM OVC044 M04/M12 A3020 780 57 -1300 310/09 RMK AO2 T10441117
14926KSTC STC20191105033511411/05/19 03:35:31  5-MIN KSTC 050935Z AUTO 33005KT 10SM OVC044 M04/M12 A3020 780 57 -1300 330/05 RMK AO2 T10441117
14926KSTC STC20191105034011411/05/19 03:40:31  5-MIN KSTC 050940Z AUTO 33004KT 10SM OVC044 M04/M12 A3020 770 57 -1300 330/04 RMK AO2 T10441117
14926KSTC STC20191105034511411/05/19 03:45:31  5-MIN KSTC 050945Z AUTO 34006KT 10SM BKN044 M05/M12 A3021 770 60 -1400 340/06 RMK AO2 T10501117
14926KSTC STC20191105035012811/05/19 03:50:31  5-MIN KSTC 050950Z AUTO 34008KT 10SM FEW033 OVC044 M05/M12 A3021 770 60 -1400 340/08 RMK AO2 SLP252 T10501117
14926KSTC STC20191105035512111/05/19 03:55:31  5-MIN KSTC 050955Z AUTO 32008KT 10SM FEW033 OVC044 M05/M12 A3021 770 60 -1400 320/08 RMK AO2 T10501117
14926KSTC STC20191105040012111/05/19 04:00:31  5-MIN KSTC 051000Z AUTO 32011KT 10SM FEW033 BKN044 M05/M12 A3022 760 57 -1400 320/11 RMK AO2 T10501122
14926KSTC STC20191105040512111/05/19 04:05:31  5-MIN KSTC 051005Z AUTO 32010KT 10SM FEW033 BKN044 M06/M12 A3022 760 59 -1500 310/10 RMK AO2 T10561122
14926KSTC STC20191105041012111/05/19 04:10:31  5-MIN KSTC 051010Z AUTO 31012KT 10SM FEW033 BKN043 M06/M12 A3022 760 59 -1500 310/12 RMK AO2 T10561122
14926KSTC STC20191105041512111/05/19 04:15:31  5-MIN KSTC 051015Z AUTO 30011KT 10SM FEW033 SCT043 M06/M13 A3022 760 59 -1600 300/11 RMK AO2 T10611128
14926KSTC STC20191105042012111/05/19 04:20:31  5-MIN KSTC 051020Z AUTO 31011KT 10SM FEW033 SCT043 M06/M13 A3022 760 57 -1600 300/11 RMK AO2 T10611133
14926KSTC STC20191105042511411/05/19 04:25:31  5-MIN KSTC 051025Z AUTO 31012KT 10SM FEW042 M06/M14 A3022 750 54 -1600 300/12 RMK AO2 T10611139
14926KSTC STC20191105043011411/05/19 04:30:31  5-MIN KSTC 051030Z AUTO 32010KT 10SM FEW042 M06/M14 A3022 750 54 -1600 320/10 RMK AO2 T10611139
14926KSTC STC20191105043511111/05/19 04:35:31  5-MIN KSTC 051035Z AUTO 32012KT 10SM CLR M06/M14 A3023 750 54 -1600 320/12 RMK AO2 T10611139
14926KSTC STC20191105044011111/05/19 04:40:31  5-MIN KSTC 051040Z AUTO 31013KT 10SM CLR M07/M14 A3023 750 57 -1700 310/13 RMK AO2 T10671139
14926KSTC STC20191105044511111/05/19 04:45:31  5-MIN KSTC 051045Z AUTO 31010KT 10SM CLR M07/M14 A3023 750 57 -1700 310/10 RMK AO2 T10671139
14926KSTC STC20191105045011811/05/19 04:50:31  5-MIN KSTC 051050Z AUTO 31009KT 10SM CLR M07/M14 A3023 750 59 -1700 310/09 RMK AO2 SLP261 T10721139
14926KSTC STC20191105045511111/05/19 04:55:31  5-MIN KSTC 051055Z AUTO 31008KT 10SM CLR M07/M13 A3023 740 62 -1700 310/08 RMK AO2 T10721133
14926KSTC STC20191105050011111/05/19 05:00:31  5-MIN KSTC 051100Z AUTO 32007KT 10SM CLR M08/M13 A3023 740 64 -1800 310/07 RMK AO2 T10781133
14926KSTC STC20191105050511111/05/19 05:05:31  5-MIN KSTC 051105Z AUTO 31007KT 10SM CLR M08/M13 A3024 740 64 -1800 310/07 RMK AO2 T10781133
14926KSTC STC20191105051011111/05/19 05:10:31  5-MIN KSTC 051110Z AUTO 31008KT 10SM CLR M07/M14 A3024 740 59 -1700 310/08 RMK AO2 T10721139
14926KSTC STC20191105051511111/05/19 05:15:31  5-MIN KSTC 051115Z AUTO 31007KT 10SM CLR M08/M13 A3024 740 64 -1800 310/07 RMK AO2 T10781133
14926KSTC STC20191105052011111/05/19 05:20:31  5-MIN KSTC 051120Z AUTO 31006KT 10SM CLR M08/M13 A3024 740 64 -1800 310/06 RMK AO2 T10781133
14926KSTC STC20191105052511111/05/19 05:25:31  5-MIN KSTC 051125Z AUTO 31006KT 10SM CLR M08/M13 A3024 740 67 -1900 310/06 RMK AO2 T10831133
14926KSTC STC20191105053011111/05/19 05:30:31  5-MIN KSTC 051130Z AUTO 30007KT 10SM CLR M08/M13 A3024 740 67 -1900 300/07 RMK AO2 T10831133
14926KSTC STC20191105053511111/05/19 05:35:31  5-MIN KSTC 051135Z AUTO 30005KT 10SM CLR M08/M14 A3024 740 64 -1900 300/05 RMK AO2 T10831139
14926KSTC STC20191105054011111/05/19 05:40:31  5-MIN KSTC 051140Z AUTO 29005KT 10SM CLR M08/M14 A3025 730 64 -1900 280/05 RMK AO2 T10831139
14926KSTC STC20191105054511111/05/19 05:45:31  5-MIN KSTC 051145Z AUTO 29004KT 10SM CLR M08/M14 A3025 730 62 -1800 290/04 RMK AO2 T10781139
14926KSTC STC20191105055014211/05/19 05:50:31  5-MIN KSTC 051150Z AUTO 29006KT 10SM CLR M08/M14 A3025 730 62 -1800 290/06 RMK AO2 SLP267 70001 T10781139 11039 21083 52004
14926KSTC STC20191105055511111/05/19 05:55:31  5-MIN KSTC 051155Z AUTO 29006KT 10SM CLR M08/M14 A3025 730 62 -1800 290/06 RMK AO2 T10781139
14926KSTC STC20191105060011111/05/19 06:00:31  5-MIN KSTC 051200Z AUTO 28005KT 10SM CLR M08/M14 A3025 730 62 -1800 280/05 RMK AO2 T10781139
14926KSTC STC20191105060511111/05/19 06:05:31  5-MIN KSTC 051205Z AUTO 28005KT 10SM CLR M08/M14 A3025 730 62 -1800 280/05 RMK AO2 T10781139
14926KSTC STC20191105061011111/05/19 06:10:31  5-MIN KSTC 051210Z AUTO 28006KT 10SM CLR M08/M14 A3025 730 62 -1800 280/06 RMK AO2 T10781139
14926KSTC STC20191105061511111/05/19 06:15:31  5-MIN KSTC 051215Z AUTO 27006KT 10SM CLR M08/M14 A3025 730 62 -1800 270/06 RMK AO2 T10781139
14926KSTC STC20191105062011111/05/19 06:20:31  5-MIN KSTC 051220Z AUTO 27006KT 10SM CLR M08/M14 A3025 730 62 -1800 270/06 RMK AO2 T10781139
14926KSTC STC20191105062511111/05/19 06:25:31  5-MIN KSTC 051225Z AUTO 27006KT 10SM CLR M08/M14 A3025 730 64 -1900 270/06 RMK AO2 T10831139
14926KSTC STC20191105063011111/05/19 06:30:31  5-MIN KSTC 051230Z AUTO 28006KT 10SM CLR M08/M14 A3025 730 64 -1900 270/06 RMK AO2 T10831139
14926KSTC STC20191105063510611/05/19 06:35:31  5-MIN KSTC 051235Z 27006KT 10SM CLR M08/M14 A3025 730 64 -1900 270/06 RMK AO2 T10831139
14926KSTC STC20191105064010611/05/19 06:40:31  5-MIN KSTC 051240Z 27006KT 10SM CLR M08/M14 A3026 720 62 -1800 270/06 RMK AO2 T10781139
14926KSTC STC20191105064510611/05/19 06:45:31  5-MIN KSTC 051245Z 27006KT 10SM CLR M08/M14 A3026 720 62 -1800 270/06 RMK AO2 T10781139
14926KSTC STC20191105065011311/05/19 06:50:31  5-MIN KSTC 051250Z 27007KT 10SM CLR M08/M14 A3026 720 62 -1800 270/07 RMK AO2 SLP271 T10781139
14926KSTC STC20191105065510611/05/19 06:55:31  5-MIN KSTC 051255Z 28007KT 10SM CLR M08/M14 A3026 720 62 -1800 280/07 RMK AO2 T10781139
14926KSTC STC20191105070010611/05/19 07:00:31  5-MIN KSTC 051300Z 28006KT 10SM CLR M08/M13 A3026 720 64 -1800 280/06 RMK AO2 T10781133
14926KSTC STC20191105070510611/05/19 07:05:31  5-MIN KSTC 051305Z 28007KT 10SM CLR M08/M13 A3026 720 64 -1800 270/07 RMK AO2 T10781133
14926KSTC STC20191105071010611/05/19 07:10:31  5-MIN KSTC 051310Z 28006KT 10SM CLR M08/M13 A3026 720 64 -1800 280/06 RMK AO2 T10781133
14926KSTC STC20191105071510611/05/19 07:15:31  5-MIN KSTC 051315Z 28007KT 10SM CLR M08/M13 A3026 720 64 -1800 280/07 RMK AO2 T10781133
14926KSTC STC20191105072010611/05/19 07:20:31  5-MIN KSTC 051320Z 27006KT 10SM CLR M08/M13 A3026 720 64 -1800 270/06 RMK AO2 T10781133
14926KSTC STC20191105072510611/05/19 07:25:31  5-MIN KSTC 051325Z 27007KT 10SM CLR M08/M13 A3026 720 64 -1800 270/07 RMK AO2 T10781133
14926KSTC STC20191105073010611/05/19 07:30:31  5-MIN KSTC 051330Z 28006KT 10SM CLR M07/M13 A3026 720 62 -1800 280/06 RMK AO2 T10721133
14926KSTC STC20191105073510611/05/19 07:35:31  5-MIN KSTC 051335Z 28007KT 10SM CLR M07/M13 A3027 720 62 -1800 270/07 RMK AO2 T10721133
14926KSTC STC20191105074010611/05/19 07:40:31  5-MIN KSTC 051340Z 27008KT 10SM CLR M07/M13 A3027 710 62 -1800 270/08 RMK AO2 T10721133
14926KSTC STC20191105074510611/05/19 07:45:31  5-MIN KSTC 051345Z 26007KT 10SM CLR M07/M13 A3027 710 59 -1700 260/07 RMK AO2 T10671133
14926KSTC STC20191105075011311/05/19 07:50:31  5-MIN KSTC 051350Z 27007KT 10SM CLR M07/M13 A3027 710 62 -1700 270/07 RMK AO2 SLP276 T10671128
14926KSTC STC20191105075510611/05/19 07:55:31  5-MIN KSTC 051355Z 28007KT 10SM CLR M07/M13 A3027 710 62 -1700 280/07 RMK AO2 T10671128
14926KSTC STC20191105080010611/05/19 08:00:31  5-MIN KSTC 051400Z 29008KT 10SM CLR M06/M13 A3027 710 57 -1600 290/08 RMK AO2 T10611133
14926KSTC STC20191105080510611/05/19 08:05:31  5-MIN KSTC 051405Z 28008KT 10SM CLR M06/M13 A3028 700 57 -1600 280/08 RMK AO2 T10611133
14926KSTC STC20191105081010611/05/19 08:10:31  5-MIN KSTC 051410Z 28009KT 10SM CLR M06/M13 A3028 700 57 -1600 280/09 RMK AO2 T10611133
14926KSTC STC20191105081510611/05/19 08:15:31  5-MIN KSTC 051415Z 29009KT 10SM CLR M06/M13 A3028 700 57 -1700 290/09 RMK AO2 T10611133
14926KSTC STC20191105082010611/05/19 08:20:31  5-MIN KSTC 051420Z 29008KT 10SM CLR M06/M13 A3028 700 54 -1600 290/08 RMK AO2 T10561133
14926KSTC STC20191105082510611/05/19 08:25:31  5-MIN KSTC 051425Z 29010KT 10SM CLR M06/M13 A3028 700 54 -1600 290/10 RMK AO2 T10561133
14926KSTC STC20191105083010611/05/19 08:30:31  5-MIN KSTC 051430Z 31010KT 10SM CLR M06/M13 A3029 700 54 -1600 300/10 RMK AO2 T10561133
14926KSTC STC20191105083510611/05/19 08:35:31  5-MIN KSTC 051435Z 30009KT 10SM CLR M06/M13 A3029 700 54 -1600 290/09 RMK AO2 T10561133
14926KSTC STC20191105084010611/05/19 08:40:31  5-MIN KSTC 051440Z 31010KT 10SM CLR M06/M13 A3029 700 54 -1600 310/10 RMK AO2 T10561133
14926KSTC STC20191105084510611/05/19 08:45:31  5-MIN KSTC 051445Z 31012KT 10SM CLR M06/M14 A3029 700 52 -1600 310/12 RMK AO2 T10561139
14926KSTC STC20191105085011911/05/19 08:50:31  5-MIN KSTC 051450Z 31010KT 10SM CLR M06/M14 A3029 700 52 -1600 310/10 RMK AO2 SLP280 T10561139 51018
14926KSTC STC20191105085510611/05/19 08:55:31  5-MIN KSTC 051455Z 33008KT 10SM CLR M05/M13 A3029 700 52 -1500 330/08 RMK AO2 T10501133
14926KSTC STC20191105090010611/05/19 09:00:31  5-MIN KSTC 051500Z 31009KT 10SM CLR M05/M14 A3029 700 50 -1500 310/09 RMK AO2 T10501139
14926KSTC STC20191105090510611/05/19 09:05:31  5-MIN KSTC 051505Z 31009KT 10SM CLR M05/M13 A3028 700 52 -1500 310/09 RMK AO2 T10501133
14926KSTC STC20191105091010611/05/19 09:10:31  5-MIN KSTC 051510Z 29012KT 10SM CLR M05/M14 A3029 700 50 -1500 290/12 RMK AO2 T10501139
14926KSTC STC20191105091510611/05/19 09:15:31  5-MIN KSTC 051515Z 33008KT 10SM CLR M04/M13 A3028 700 50 -1400 330/08 RMK AO2 T10441133
14926KSTC STC20191105092010611/05/19 09:20:31  5-MIN KSTC 051520Z 32011KT 10SM CLR M04/M14 A3028 700 48 -1400 320/11 RMK AO2 T10441139
14926KSTC STC20191105092510611/05/19 09:25:31  5-MIN KSTC 051525Z 31011KT 10SM CLR M04/M13 A3028 700 50 -1400 310/11 RMK AO2 T10441133
14926KSTC STC20191105093010611/05/19 09:30:31  5-MIN KSTC 051530Z 31012KT 10SM CLR M04/M13 A3028 700 50 -1400 310/12 RMK AO2 T10441133
14926KSTC STC20191105093510611/05/19 09:35:31  5-MIN KSTC 051535Z 33008KT 10SM CLR M04/M13 A3028 700 50 -1400 330/08 RMK AO2 T10441133
14926KSTC STC20191105094010611/05/19 09:40:31  5-MIN KSTC 051540Z 33009KT 10SM CLR M04/M14 A3028 700 48 -1400 330/09 RMK AO2 T10441139
14926KSTC STC20191105094510611/05/19 09:45:31  5-MIN KSTC 051545Z 30006KT 10SM CLR M04/M13 A3029 700 48 -1400 300/06 RMK AO2 T10391133
14926KSTC STC20191105095011311/05/19 09:50:31  5-MIN KSTC 051550Z 30011KT 10SM CLR M04/M13 A3029 700 48 -1400 300/11 RMK AO2 SLP280 T10391133
14926KSTC STC20191105095510611/05/19 09:55:31  5-MIN KSTC 051555Z 31009KT 10SM CLR M04/M13 A3028 700 48 -1400 310/09 RMK AO2 T10391133
14926KSTC STC20191105100010611/05/19 10:00:31  5-MIN KSTC 051600Z 32008KT 10SM CLR M04/M13 A3028 700 48 -1400 320/08 RMK AO2 T10391133
14926KSTC STC20191105100510611/05/19 10:05:31  5-MIN KSTC 051605Z 29007KT 10SM CLR M03/M13 A3029 700 46 -1300 290/07 RMK AO2 T10331133
14926KSTC STC20191105101010611/05/19 10:10:31  5-MIN KSTC 051610Z 30008KT 10SM CLR M03/M13 A3029 700 46 -1300 300/08 RMK AO2 T10331133
14926KSTC STC20191105101510611/05/19 10:15:31  5-MIN KSTC 051615Z 28007KT 10SM CLR M04/M13 A3029 700 48 -1400 280/07 RMK AO2 T10391133
14926KSTC STC20191105102011511/05/19 10:20:31  5-MIN KSTC 051620Z 31010G15KT 10SM FEW039 M03/M13 A3029 700 46 -1300 310/10G15 RMK AO2 T10331133
14926KSTC STC20191105102511511/05/19 10:25:31  5-MIN KSTC 051625Z 28012G15KT 10SM FEW039 M03/M13 A3028 700 46 -1300 280/12G15 RMK AO2 T10331133
14926KSTC STC20191105103010911/05/19 10:30:31  5-MIN KSTC 051630Z 31011KT 10SM FEW039 M03/M13 A3029 700 46 -1300 310/11 RMK AO2 T10331133
14926KSTC STC20191105103510911/05/19 10:35:31  5-MIN KSTC 051635Z 29010KT 10SM FEW039 M03/M13 A3028 700 46 -1300 290/10 RMK AO2 T10331133
14926KSTC STC20191105104010911/05/19 10:40:31  5-MIN KSTC 051640Z 31008KT 10SM FEW039 M03/M13 A3029 700 46 -1300 310/08 RMK AO2 T10331133
14926KSTC STC20191105104510611/05/19 10:45:31  5-MIN KSTC 051645Z 30010KT 10SM CLR M03/M13 A3029 700 46 -1300 300/10 RMK AO2 T10331133
14926KSTC STC20191105105011911/05/19 10:50:31  5-MIN KSTC 051650Z 29014G19KT 10SM CLR M03/M13 A3029 690 44 -1200 290/14G19 RMK AO2 SLP282 T10281133
14926KSTC STC20191105105511211/05/19 10:55:31  5-MIN KSTC 051655Z 29009G21KT 10SM CLR M03/M13 A3029 690 46 -1300 290/09G21 RMK AO2 T10331133
14926KSTC STC20191105110011211/05/19 11:00:31  5-MIN KSTC 051700Z 29010G21KT 10SM CLR M03/M13 A3029 690 46 -1300 290/10G21 RMK AO2 T10331133
14926KSTC STC20191105110511511/05/19 11:05:31  5-MIN KSTC 051705Z 29012G18KT 10SM FEW040 M03/M13 A3029 690 44 -1200 280/12G18 RMK AO2 T10281133
14926KSTC STC20191105111011511/05/19 11:10:31  5-MIN KSTC 051710Z 26010G18KT 10SM FEW040 M03/M13 A3029 690 44 -1200 250/10G18 RMK AO2 T10281133
14926KSTC STC20191105111511511/05/19 11:15:31  5-MIN KSTC 051715Z 26010G17KT 10SM FEW040 M02/M13 A3029 690 42 -1200 260/10G17 RMK AO2 T10221133
14926KSTC STC20191105112010911/05/19 11:20:31  5-MIN KSTC 051720Z 26011KT 10SM SCT040 M02/M13 A3029 690 42 -1200 260/11 RMK AO2 T10221133
14926KSTC STC20191105112511511/05/19 11:25:31  5-MIN KSTC 051725Z 30008G18KT 10SM SCT040 M02/M13 A3029 690 42 -1200 300/08G18 RMK AO2 T10221133
14926KSTC STC20191105113011511/05/19 11:30:31  5-MIN KSTC 051730Z 27010G17KT 10SM SCT041 M03/M13 A3029 690 44 -1200 270/10G17 RMK AO2 T10281133
14926KSTC STC20191105113511511/05/19 11:35:31  5-MIN KSTC 051735Z 29010G17KT 10SM FEW041 M03/M13 A3029 700 44 -1200 290/10G17 RMK AO2 T10281133
14926KSTC STC20191105114010911/05/19 11:40:31  5-MIN KSTC 051740Z 27009KT 10SM SCT041 M03/M13 A3029 700 44 -1200 270/09 RMK AO2 T10281133
14926KSTC STC20191105114511511/05/19 11:45:31  5-MIN KSTC 051745Z 28013G19KT 10SM SCT041 M02/M13 A3028 700 42 -1100 280/13G19 RMK AO2 T10171128
14926KSTC STC20191105115014011/05/19 11:50:31  5-MIN KSTC 051750Z 26011G19KT 10SM FEW042 M02/M13 A3028 700 42 -1100 260/11G19 RMK AO2 SLP277 T10221133 11017 21083 53013
14926KSTC STC20191105115510911/05/19 11:55:31  5-MIN KSTC 051755Z 28011KT 10SM FEW042 M02/M13 A3028 700 42 -1100 280/11 RMK AO2 T10221133
14926KSTC STC20191105120010911/05/19 12:00:31  5-MIN KSTC 051800Z 27013KT 10SM FEW042 M02/M13 A3028 710 42 -1100 270/13 RMK AO2 T10221133
14926KSTC STC20191105120510911/05/19 12:05:31  5-MIN KSTC 051805Z 28013KT 10SM FEW042 M02/M13 A3027 710 42 -1100 280/13 RMK AO2 T10221133
14926KSTC STC20191105121011211/05/19 12:10:31  5-MIN KSTC 051810Z 28009G18KT 10SM CLR M02/M13 A3027 710 41 -1100 280/09G18 RMK AO2 T10171133
14926KSTC STC20191105121512211/05/19 12:15:31  5-MIN KSTC 051815Z 27008KT 220V280 10SM CLR M02/M13 A3027 720 42 -1100 270/08 220V280 RMK AO2 T10221133
14926KSTC STC20191105122011211/05/19 12:20:31  5-MIN KSTC 051820Z 26011G20KT 10SM CLR M02/M13 A3026 720 42 -1100 260/11G20 RMK AO2 T10171128
14926KSTC STC20191105122511211/05/19 12:25:31  5-MIN KSTC 051825Z 25014G20KT 10SM CLR M02/M13 A3026 720 42 -1100 250/14G20 RMK AO2 T10171128
14926KSTC STC20191105123011211/05/19 12:30:31  5-MIN KSTC 051830Z 25005G18KT 10SM CLR M02/M13 A3026 720 42 -1100 250/05G18 RMK AO2 T10221133
14926KSTC STC20191105123511211/05/19 12:35:31  5-MIN KSTC 051835Z 26009G15KT 10SM CLR M02/M13 A3025 730 42 -1100 260/09G15 RMK AO2 T10171128
14926KSTC STC20191105124010611/05/19 12:40:31  5-MIN KSTC 051840Z 27009KT 10SM CLR M02/M13 A3026 730 42 -1100 270/09 RMK AO2 T10171128
14926KSTC STC20191105124510611/05/19 12:45:31  5-MIN KSTC 051845Z 27008KT 10SM CLR M02/M13 A3025 730 42 -1000 270/08 RMK AO2 T10171128
14926KSTC STC20191105125011311/05/19 12:50:31  5-MIN KSTC 051850Z 27010KT 10SM CLR M02/M13 A3025 730 42 -1000 270/10 RMK AO2 SLP269 T10171128
14926KSTC STC20191105125510611/05/19 12:55:31  5-MIN KSTC 051855Z 27008KT 10SM CLR M02/M13 A3025 730 42 -1000 270/08 RMK AO2 T10171128
14926KSTC STC20191105130010611/05/19 13:00:31  5-MIN KSTC 051900Z 27006KT 10SM CLR M02/M13 A3025 730 42 -1000 270/06 RMK AO2 T10171128
14926KSTC STC20191105130511211/05/19 13:05:31  5-MIN KSTC 051905Z 26010G15KT 10SM CLR M01/M13 A3025 730 41 -1000 260/10G15 RMK AO2 T10111128
14926KSTC STC20191105131010611/05/19 13:10:31  5-MIN KSTC 051910Z 27008KT 10SM CLR M02/M13 A3025 730 42 -1000 270/08 RMK AO2 T10171128
14926KSTC STC20191105131510611/05/19 13:15:31  5-MIN KSTC 051915Z 27008KT 10SM CLR M01/M12 A3025 730 43 -1000 270/08 RMK AO2 T10111122
14926KSTC STC20191105132010611/05/19 13:20:31  5-MIN KSTC 051920Z 30006KT 10SM CLR M01/M13 A3025 730 41 -1000 300/06 RMK AO2 T10111128
14926KSTC STC20191105132511211/05/19 13:25:31  5-MIN KSTC 051925Z 26006G16KT 10SM CLR M01/M12 A3025 730 43 -1000 260/06G16 RMK AO2 T10111122
14926KSTC STC20191105133011211/05/19 13:30:31  5-MIN KSTC 051930Z 27007G16KT 10SM CLR M01/M12 A3024 730 43 -1000 260/07G16 RMK AO2 T10111122
14926KSTC STC20191105133510611/05/19 13:35:31  5-MIN KSTC 051935Z 26008KT 10SM CLR M01/M12 A3024 740 43 -1000 260/08 RMK AO2 T10111122
14926KSTC STC20191105134010611/05/19 13:40:31  5-MIN KSTC 051940Z VRB05KT 10SM CLR M01/M12 A3024 740 43 -1000 VRB/05 RMK AO2 T10111122
14926KSTC STC20191105134511211/05/19 13:45:31  5-MIN KSTC 051945Z 25012G17KT 10SM CLR M01/M12 A3024 740 43 -1000 250/12G17 RMK AO2 T10111122
14926KSTC STC20191105135011911/05/19 13:50:31  5-MIN KSTC 051950Z VRB06G17KT 10SM CLR M01/M12 A3024 740 43 -1000 VRB/06G17 RMK AO2 SLP266 T10111122
14926KSTC STC20191105135510911/05/19 13:55:31  5-MIN KSTC 051955Z 23010KT 10SM FEW043 M01/M12 A3024 740 43 -1000 230/10 RMK AO2 T10111122
14926KSTC STC20191105140010811/05/19 14:00:31  5-MIN KSTC 052000Z 24010KT 10SM SCT043 M01/M12 A3024 730 43 -900 240/10 RMK AO2 T10061117
14926KSTC STC20191105140510911/05/19 14:05:31  5-MIN KSTC 052005Z 24012KT 10SM FEW043 M01/M12 A3024 730 43 -1000 240/12 RMK AO2 T10111122
14926KSTC STC20191105141010911/05/19 14:10:31  5-MIN KSTC 052010Z 25009KT 10SM FEW043 M01/M12 A3025 730 43 -1000 250/09 RMK AO2 T10111122
14926KSTC STC20191105141510911/05/19 14:15:31  5-MIN KSTC 052015Z 24008KT 10SM FEW043 M01/M12 A3024 740 45 -1000 240/08 RMK AO2 T10111117
14926KSTC STC20191105142010811/05/19 14:20:31  5-MIN KSTC 052020Z 25010KT 10SM FEW043 M01/M12 A3024 740 43 -900 250/10 RMK AO2 T10061117
14926KSTC STC20191105142510911/05/19 14:25:31  5-MIN KSTC 052025Z 27008KT 10SM FEW043 M01/M12 A3024 730 45 -1000 260/08 RMK AO2 T10111117
14926KSTC STC20191105143010511/05/19 14:30:31  5-MIN KSTC 052030Z 27008KT 10SM CLR M01/M12 A3024 740 43 -900 270/08 RMK AO2 T10061117
14926KSTC STC20191105143510511/05/19 14:35:31  5-MIN KSTC 052035Z 29011KT 10SM CLR M01/M11 A3024 740 45 -900 290/11 RMK AO2 T10061111
14926KSTC STC20191105144010811/05/19 14:40:31  5-MIN KSTC 052040Z 28010KT 10SM FEW043 M01/M12 A3023 740 43 -900 280/10 RMK AO2 T10061117
14926KSTC STC20191105144512411/05/19 14:45:31  5-MIN KSTC 052045Z 27008KT 220V300 10SM FEW043 M01/M12 A3024 740 43 -900 270/08 220V300 RMK AO2 T10061117
14926KSTC STC20191105145012111/05/19 14:50:31  5-MIN KSTC 052050Z 26008KT 10SM FEW042 M01/M12 A3024 740 43 -900 260/08 RMK AO2 SLP263 T10061117 58002
14926KSTC STC20191105145510811/05/19 14:55:31  5-MIN KSTC 052055Z 27007KT 10SM FEW042 M01/M12 A3024 740 43 -900 270/07 RMK AO2 T10061117
14926KSTC STC20191105150010811/05/19 15:00:31  5-MIN KSTC 052100Z 26006KT 10SM FEW042 M01/M12 A3024 740 43 -900 260/06 RMK AO2 T10061117
14926KSTC STC20191105150511511/05/19 15:05:31  5-MIN KSTC 052105Z 24009G16KT 10SM FEW042 M01/M12 A3024 740 45 -1000 240/09G16 RMK AO2 T10111117
14926KSTC STC20191105151011511/05/19 15:10:31  5-MIN KSTC 052110Z 25011G16KT 10SM FEW042 M01/M12 A3024 740 45 -1000 250/11G16 RMK AO2 T10111117
14926KSTC STC20191105151510911/05/19 15:15:31  5-MIN KSTC 052115Z 24009KT 10SM FEW042 M01/M12 A3024 740 45 -1000 240/09 RMK AO2 T10111117
14926KSTC STC20191105152010911/05/19 15:20:31  5-MIN KSTC 052120Z 24011KT 10SM FEW042 M01/M12 A3024 740 45 -1000 240/11 RMK AO2 T10111117
14926KSTC STC20191105152510911/05/19 15:25:31  5-MIN KSTC 052125Z 26010KT 10SM FEW042 M02/M12 A3024 740 46 -1000 250/10 RMK AO2 T10171117
14926KSTC STC20191105153010611/05/19 15:30:31  5-MIN KSTC 052130Z 25010KT 10SM CLR M02/M12 A3024 740 46 -1000 250/10 RMK AO2 T10171117
14926KSTC STC20191105153510911/05/19 15:35:31  5-MIN KSTC 052135Z 25011KT 10SM SCT100 M02/M12 A3024 740 46 -1000 250/11 RMK AO2 T10171117
14926KSTC STC20191105154010911/05/19 15:40:31  5-MIN KSTC 052140Z 24008KT 10SM BKN100 M02/M11 A3024 740 49 -1000 240/08 RMK AO2 T10171111
14926KSTC STC20191105154510911/05/19 15:45:31  5-MIN KSTC 052145Z 25008KT 10SM BKN100 M02/M11 A3024 740 49 -1000 250/08 RMK AO2 T10171111
14926KSTC STC20191105155012911/05/19 15:50:31  5-MIN KSTC 052150Z 25011G16KT 10SM FEW041 BKN100 M02/M11 A3024 730 49 -1000 250/11G16 RMK AO2 SLP266 T10171111
14926KSTC STC20191105155511611/05/19 15:55:31  5-MIN KSTC 052155Z 22010KT 10SM FEW041 BKN100 M02/M11 A3025 730 53 -1100 220/10 RMK AO2 T10221106
14926KSTC STC20191105160011611/05/19 16:00:31  5-MIN KSTC 052200Z 21011KT 10SM FEW041 BKN100 M02/M11 A3025 730 53 -1100 210/11 RMK AO2 T10221106
14926KSTC STC20191105160510911/05/19 16:05:31  5-MIN KSTC 052205Z 21009KT 10SM SCT100 M02/M11 A3025 730 53 -1100 210/09 RMK AO2 T10221106
14926KSTC STC20191105161010911/05/19 16:10:31  5-MIN KSTC 052210Z 22009KT 10SM SCT100 M02/M11 A3025 730 53 -1100 220/09 RMK AO2 T10221106
14926KSTC STC20191105161510911/05/19 16:15:31  5-MIN KSTC 052215Z 22010KT 10SM FEW100 M02/M11 A3025 730 53 -1100 220/10 RMK AO2 T10221106
14926KSTC STC20191105162010911/05/19 16:20:31  5-MIN KSTC 052220Z 22010KT 10SM FEW100 M03/M11 A3024 740 55 -1200 220/10 RMK AO2 T10281106
14926KSTC STC20191105162510611/05/19 16:25:31  5-MIN KSTC 052225Z 22007KT 10SM CLR M03/M11 A3024 740 55 -1200 220/07 RMK AO2 T10281106
14926KSTC STC20191105163010611/05/19 16:30:31  5-MIN KSTC 052230Z 24006KT 10SM CLR M03/M11 A3024 740 55 -1200 240/06 RMK AO2 T10281106
14926KSTC STC20191105163510611/05/19 16:35:31  5-MIN KSTC 052235Z 23007KT 10SM CLR M03/M11 A3024 740 55 -1200 230/07 RMK AO2 T10281106
14926KSTC STC20191105164010611/05/19 16:40:31  5-MIN KSTC 052240Z 23007KT 10SM CLR M03/M11 A3024 740 53 -1200 230/07 RMK AO2 T10281111
14926KSTC STC20191105164510611/05/19 16:45:31  5-MIN KSTC 052245Z 22008KT 10SM CLR M03/M11 A3024 740 53 -1200 220/08 RMK AO2 T10281111
14926KSTC STC20191105165011311/05/19 16:50:31  5-MIN KSTC 052250Z 22006KT 10SM CLR M03/M11 A3024 740 53 -1200 220/06 RMK AO2 SLP266 T10281111
14926KSTC STC20191105165510611/05/19 16:55:31  5-MIN KSTC 052255Z 22006KT 10SM CLR M03/M11 A3024 740 55 -1200 220/06 RMK AO2 T10331111
14926KSTC STC20191105170010611/05/19 17:00:31  5-MIN KSTC 052300Z 22006KT 10SM CLR M03/M11 A3024 740 55 -1200 220/06 RMK AO2 T10331111
14926KSTC STC20191105170510611/05/19 17:05:31  5-MIN KSTC 052305Z 22004KT 10SM CLR M03/M11 A3024 740 55 -1200 220/04 RMK AO2 T10331111
14926KSTC STC20191105171010611/05/19 17:10:31  5-MIN KSTC 052310Z 22005KT 10SM CLR M04/M11 A3024 740 57 -1300 210/05 RMK AO2 T10391111
14926KSTC STC20191105171510611/05/19 17:15:31  5-MIN KSTC 052315Z 22005KT 10SM CLR M04/M11 A3024 740 60 -1400 220/05 RMK AO2 T10441111
14926KSTC STC20191105172010611/05/19 17:20:31  5-MIN KSTC 052320Z 22005KT 10SM CLR M04/M11 A3023 740 60 -1400 220/05 RMK AO2 T10441111
14926KSTC STC20191105172510611/05/19 17:25:31  5-MIN KSTC 052325Z 22005KT 10SM CLR M04/M11 A3023 740 57 -1300 220/05 RMK AO2 T10391111
14926KSTC STC20191105173010611/05/19 17:30:31  5-MIN KSTC 052330Z 22005KT 10SM CLR M04/M11 A3023 750 57 -1300 210/05 RMK AO2 T10391111
14926KSTC STC20191105173509611/05/19 17:35:31  5-MIN KSTC 052335Z 10SM CLR M04/M11 A3023 750 60 -1400 M /M RMK AO2 T10441111
14926KSTC STC20191105174009611/05/19 17:40:31  5-MIN KSTC 052340Z 10SM CLR M04/M11 A3023 750 57 -1300 M /M RMK AO2 T10391111
14926KSTC STC20191105174510611/05/19 17:45:31  5-MIN KSTC 052345Z 23006KT 10SM CLR M04/M11 A3023 750 57 -1300 230/06 RMK AO2 T10391111
14926KSTC STC20191105175013111/05/19 17:50:31  5-MIN KSTC 052350Z 22005KT 10SM CLR M04/M11 A3023 750 57 -1300 220/05 RMK AO2 SLP263 T10391111 11006 21044 56014
14926KSTC STC20191105175510611/05/19 17:55:31  5-MIN KSTC 052355Z 23005KT 10SM CLR M04/M11 A3023 750 60 -1400 230/05 RMK AO2 T10441111
14926KSTC STC20191105180010611/05/19 18:00:31  5-MIN KSTC 060000Z 25004KT 10SM CLR M04/M11 A3024 740 60 -1400 250/04 RMK AO2 T10441111
14926KSTC STC20191105180511311/05/19 18:05:31  5-MIN KSTC 060005Z 26005KT 10SM CLR M06/M11 A3025 730 65 -1500 260/05 RMK AO2 PRESRR T10561111
14926KSTC STC20191105181010611/05/19 18:10:31  5-MIN KSTC 060010Z 27005KT 10SM CLR M06/M11 A3026 720 65 -1500 270/05 RMK AO2 T10561111
14926KSTC STC20191105181510611/05/19 18:15:31  5-MIN KSTC 060015Z 27006KT 10SM CLR M05/M11 A3026 720 62 -1500 270/06 RMK AO2 T10501111
14926KSTC STC20191105182010611/05/19 18:20:31  5-MIN KSTC 060020Z 28005KT 10SM CLR M05/M11 A3026 720 62 -1500 280/05 RMK AO2 T10501111
14926KSTC STC20191105182510611/05/19 18:25:31  5-MIN KSTC 060025Z 28005KT 10SM CLR M04/M11 A3026 720 60 -1400 280/05 RMK AO2 T10441111
14926KSTC STC20191105183010611/05/19 18:30:31  5-MIN KSTC 060030Z 27004KT 10SM CLR M05/M11 A3026 720 62 -1500 270/04 RMK AO2 T10501111
14926KSTC STC20191105183510611/05/19 18:35:31  5-MIN KSTC 060035Z 28004KT 10SM CLR M05/M11 A3025 730 62 -1500 270/04 RMK AO2 T10501111
14926KSTC STC20191105184010611/05/19 18:40:31  5-MIN KSTC 060040Z 27004KT 10SM CLR M06/M12 A3025 730 62 -1500 270/04 RMK AO2 T10561117
14926KSTC STC20191105184510611/05/19 18:45:31  5-MIN KSTC 060045Z 26005KT 10SM CLR M06/M11 A3025 730 65 -1500 260/05 RMK AO2 T10561111
14926KSTC STC20191105185011311/05/19 18:50:31  5-MIN KSTC 060050Z 26005KT 10SM CLR M06/M11 A3026 720 65 -1500 250/05 RMK AO2 SLP273 T10561111
14926KSTC STC20191105185510611/05/19 18:55:31  5-MIN KSTC 060055Z 26005KT 10SM CLR M06/M11 A3025 730 65 -1500 250/05 RMK AO2 T10561111
14926KSTC STC20191105190010611/05/19 19:00:31  5-MIN KSTC 060100Z 26004KT 10SM CLR M06/M11 A3025 730 65 -1500 260/04 RMK AO2 T10561111
14926KSTC STC20191105190510611/05/19 19:05:31  5-MIN KSTC 060105Z 25005KT 10SM CLR M05/M11 A3025 730 62 -1500 250/05 RMK AO2 T10501111
14926KSTC STC20191105191010611/05/19 19:10:31  5-MIN KSTC 060110Z 26004KT 10SM CLR M06/M11 A3025 730 65 -1500 260/04 RMK AO2 T10561111
14926KSTC STC20191105191510611/05/19 19:15:31  5-MIN KSTC 060115Z 26005KT 10SM CLR M06/M11 A3025 730 65 -1500 260/05 RMK AO2 T10561111
14926KSTC STC20191105192010611/05/19 19:20:31  5-MIN KSTC 060120Z 25004KT 10SM CLR M05/M11 A3025 730 65 -1500 250/04 RMK AO2 T10501106
14926KSTC STC20191105192510611/05/19 19:25:31  5-MIN KSTC 060125Z 25004KT 10SM CLR M05/M11 A3025 730 65 -1500 250/04 RMK AO2 T10501106
14926KSTC STC20191105193010611/05/19 19:30:31  5-MIN KSTC 060130Z 26004KT 10SM CLR M05/M11 A3025 730 65 -1500 260/04 RMK AO2 T10501106
14926KSTC STC20191105193510611/05/19 19:35:31  5-MIN KSTC 060135Z 26004KT 10SM CLR M05/M11 A3025 730 65 -1500 250/04 RMK AO2 T10501106
14926KSTC STC20191105194010611/05/19 19:40:31  5-MIN KSTC 060140Z 25004KT 10SM CLR M06/M11 A3025 730 68 -1500 250/04 RMK AO2 T10561106
14926KSTC STC20191105194510611/05/19 19:45:31  5-MIN KSTC 060145Z 24004KT 10SM CLR M06/M11 A3025 730 68 -1500 240/04 RMK AO2 T10561106
14926KSTC STC20191105195011311/05/19 19:50:31  5-MIN KSTC 060150Z 26004KT 10SM CLR M06/M11 A3025 730 68 -1500 250/04 RMK AO2 SLP272 T10561106
14926KSTC STC20191105195510611/05/19 19:55:31  5-MIN KSTC 060155Z 25004KT 10SM CLR M06/M10 A3025 730 71 -1500 250/04 RMK AO2 T10561100
14926KSTC STC20191105200010611/05/19 20:00:31  5-MIN KSTC 060200Z 23004KT 10SM CLR M06/M10 A3025 730 71 -1500 230/04 RMK AO2 T10561100
14926KSTC STC20191105200510611/05/19 20:05:31  5-MIN KSTC 060205Z 23004KT 10SM CLR M05/M10 A3025 730 68 -1500 220/04 RMK AO2 T10501100
14926KSTC STC20191105201010611/05/19 20:10:31  5-MIN KSTC 060210Z 22003KT 10SM CLR M05/M10 A3025 730 68 -1500 220/03 RMK AO2 T10501100
14926KSTC STC20191105201510611/05/19 20:15:31  5-MIN KSTC 060215Z 22004KT 10SM CLR M05/M10 A3025 730 68 -1500 220/04 RMK AO2 T10501100
14926KSTC STC20191105202010611/05/19 20:20:31  5-MIN KSTC 060220Z 22005KT 10SM CLR M05/M10 A3024 730 68 -1500 220/05 RMK AO2 T10501100
14926KSTC STC20191105202510611/05/19 20:25:31  5-MIN KSTC 060225Z 23005KT 10SM CLR M05/M10 A3024 740 68 -1500 220/05 RMK AO2 T10501100
14926KSTC STC20191105203010611/05/19 20:30:31  5-MIN KSTC 060230Z 22005KT 10SM CLR M05/M10 A3024 740 68 -1500 220/05 RMK AO2 T10501100
14926KSTC STC20191105203510611/05/19 20:35:31  5-MIN KSTC 060235Z 23005KT 10SM CLR M05/M10 A3025 730 68 -1500 220/05 RMK AO2 T10501100
14926KSTC STC20191105204010611/05/19 20:40:31  5-MIN KSTC 060240Z 23005KT 10SM CLR M05/M10 A3025 730 68 -1500 230/05 RMK AO2 T10501100
14926KSTC STC20191105204510611/05/19 20:45:31  5-MIN KSTC 060245Z 22006KT 10SM CLR M05/M10 A3025 730 68 -1500 220/06 RMK AO2 T10501100
14926KSTC STC20191105205011911/05/19 20:50:31  5-MIN KSTC 060250Z 23006KT 10SM CLR M05/M10 A3025 730 68 -1500 230/06 RMK AO2 SLP271 T10501100 58002
14926KSTC STC20191105205510611/05/19 20:55:31  5-MIN KSTC 060255Z 24005KT 10SM CLR M05/M10 A3026 730 68 -1500 230/05 RMK AO2 T10501100
14926KSTC STC20191105210010611/05/19 21:00:31  5-MIN KSTC 060300Z 23004KT 10SM CLR M05/M10 A3026 720 68 -1500 230/04 RMK AO2 T10501100
14926KSTC STC20191105210510611/05/19 21:05:31  5-MIN KSTC 060305Z 23004KT 10SM CLR M05/M10 A3026 720 68 -1500 230/04 RMK AO2 T10501100
14926KSTC STC20191105211010611/05/19 21:10:31  5-MIN KSTC 060310Z 23004KT 10SM CLR M05/M10 A3026 720 68 -1500 230/04 RMK AO2 T10501100
14926KSTC STC20191105211510611/05/19 21:15:31  5-MIN KSTC 060315Z 22004KT 10SM CLR M05/M10 A3026 720 68 -1500 220/04 RMK AO2 T10501100
14926KSTC STC20191105212010611/05/19 21:20:31  5-MIN KSTC 060320Z 22003KT 10SM CLR M05/M10 A3026 720 68 -1500 220/03 RMK AO2 T10501100
14926KSTC STC20191105212510611/05/19 21:25:31  5-MIN KSTC 060325Z 23003KT 10SM CLR M06/M09 A3026 720 74 -1600 230/03 RMK AO2 T10561094
14926KSTC STC20191105213010611/05/19 21:30:31  5-MIN KSTC 060330Z 24003KT 10SM CLR M05/M09 A3026 720 71 -1500 240/03 RMK AO2 T10501094
14926KSTC STC20191105213510611/05/19 21:35:31  5-MIN KSTC 060335Z 24003KT 10SM CLR M05/M09 A3026 720 71 -1500 240/03 RMK AO2 T10501094
14926KSTC STC20191105214010611/05/19 21:40:31  5-MIN KSTC 060340Z 00000KT 10SM CLR M06/M09 A3026 720 74 -1600 000/00 RMK AO2 T10561094
14926KSTC STC20191105214510611/05/19 21:45:31  5-MIN KSTC 060345Z 00000KT 10SM CLR M06/M09 A3026 720 77 -1600 000/00 RMK AO2 T10561089
14926KSTC STC20191105215011311/05/19 21:50:31  5-MIN KSTC 060350Z 00000KT 10SM CLR M05/M09 A3027 720 74 -1500 000/00 RMK AO2 SLP275 T10501089
14926KSTC STC20191105215510611/05/19 21:55:31  5-MIN KSTC 060355Z 00000KT 10SM CLR M05/M09 A3027 710 74 -1500 000/00 RMK AO2 T10501089
14926KSTC STC20191105220010611/05/19 22:00:31  5-MIN KSTC 060400Z 00000KT 10SM CLR M05/M09 A3027 710 74 -1500 000/00 RMK AO2 T10501089
14926KSTC STC20191105220510611/05/19 22:05:31  5-MIN KSTC 060405Z 00000KT 10SM CLR M05/M09 A3027 710 74 -1500 000/00 RMK AO2 T10501089
14926KSTC STC20191105221010611/05/19 22:10:31  5-MIN KSTC 060410Z 27003KT 10SM CLR M05/M09 A3027 710 74 -1500 270/03 RMK AO2 T10501089
14926KSTC STC20191105221510611/05/19 22:15:31  5-MIN KSTC 060415Z 00000KT 10SM CLR M05/M09 A3027 710 74 -1500 000/00 RMK AO2 T10501089
14926KSTC STC20191105222010611/05/19 22:20:31  5-MIN KSTC 060420Z 00000KT 10SM CLR M05/M09 A3027 710 74 -1500 000/00 RMK AO2 T10501089
14926KSTC STC20191105222510611/05/19 22:25:31  5-MIN KSTC 060425Z 24003KT 10SM CLR M05/M09 A3027 710 74 -1500 240/03 RMK AO2 T10501089
14926KSTC STC20191105223010611/05/19 22:30:31  5-MIN KSTC 060430Z 24003KT 10SM CLR M05/M08 A3027 710 77 -1500 240/03 RMK AO2 T10501083
14926KSTC STC20191105223510611/05/19 22:35:31  5-MIN KSTC 060435Z 00000KT 10SM CLR M04/M09 A3027 710 71 -1400 000/00 RMK AO2 T10441089
14926KSTC STC20191105224010611/05/19 22:40:31  5-MIN KSTC 060440Z 00000KT 10SM CLR M05/M08 A3027 710 77 -1500 000/00 RMK AO2 T10501083
14926KSTC STC20191105224510611/05/19 22:45:31  5-MIN KSTC 060445Z 00000KT 10SM CLR M04/M08 A3026 720 74 -1400 000/00 RMK AO2 T10441083
14926KSTC STC20191105225011311/05/19 22:50:31  5-MIN KSTC 060450Z 00000KT 10SM CLR M04/M09 A3026 720 71 -1400 000/00 RMK AO2 SLP271 T10441089
14926KSTC STC20191105225510611/05/19 22:55:31  5-MIN KSTC 060455Z 00000KT 10SM CLR M04/M09 A3026 730 71 -1400 000/00 RMK AO2 T10441089
14926KSTC STC20191105230010611/05/19 23:00:31  5-MIN KSTC 060500Z 00000KT 10SM CLR M04/M09 A3026 720 71 -1400 000/00 RMK AO2 T10441089
14926KSTC STC20191105230511111/05/19 23:05:31  5-MIN KSTC 060505Z AUTO 00000KT 10SM CLR M04/M09 A3026 720 71 -1400 000/00 RMK AO2 T10441089
14926KSTC STC20191105231011111/05/19 23:10:31  5-MIN KSTC 060510Z AUTO 00000KT 10SM CLR M05/M08 A3026 720 77 -1500 000/00 RMK AO2 T10501083
14926KSTC STC20191105231511411/05/19 23:15:31  5-MIN KSTC 060515Z AUTO 00000KT 10SM FEW120 M04/M09 A3026 720 71 -1400 000/00 RMK AO2 T10441089
14926KSTC STC20191105232011411/05/19 23:20:31  5-MIN KSTC 060520Z AUTO 00000KT 10SM FEW120 M04/M08 A3026 720 78 -1400 000/00 RMK AO2 T10441078
14926KSTC STC20191105232511411/05/19 23:25:31  5-MIN KSTC 060525Z AUTO 00000KT 10SM FEW120 M04/M09 A3026 720 71 -1400 000/00 RMK AO2 T10441089
14926KSTC STC20191105233011411/05/19 23:30:31  5-MIN KSTC 060530Z AUTO 00000KT 10SM FEW120 M04/M08 A3026 720 78 -1400 000/00 RMK AO2 T10441078
14926KSTC STC20191105233511411/05/19 23:35:31  5-MIN KSTC 060535Z AUTO 00000KT 10SM FEW120 M04/M08 A3026 720 74 -1400 000/00 RMK AO2 T10441083
14926KSTC STC20191105234011411/05/19 23:40:31  5-MIN KSTC 060540Z AUTO 00000KT 10SM FEW120 M04/M08 A3026 720 74 -1400 000/00 RMK AO2 T10441083
14926KSTC STC20191105234511411/05/19 23:45:31  5-MIN KSTC 060545Z AUTO 00000KT 10SM FEW120 M04/M08 A3026 720 78 -1400 000/00 RMK AO2 T10441078
14926KSTC STC20191105235014911/05/19 23:50:31  5-MIN KSTC 060550Z AUTO 00000KT 10SM FEW120 M04/M08 A3026 720 78 -1400 000/00 RMK AO2 SLP272 T10441078 11044 21056 410061083 51008
14926KSTC STC20191105235511411/05/19 23:55:31  5-MIN KSTC 060555Z AUTO 00000KT 10SM FEW120 M04/M08 A3026 720 78 -1400 000/00 RMK AO2 T10441078
14926KSTC STC20191106000011411/06/19 00:00:31  5-MIN KSTC 060600Z AUTO 00000KT 10SM FEW120 M04/M08 A3026 720 78 -1400 000/00 RMK AO2 T10441078
14926KSTC STC20191106000511411/06/19 00:05:31  5-MIN KSTC 060605Z AUTO 00000KT 10SM FEW120 M04/M08 A3026 720 74 -1400 000/00 RMK AO2 T10441083
14926KSTC STC20191106001011411/06/19 00:10:31  5-MIN KSTC 060610Z AUTO 00000KT 10SM FEW120 M04/M08 A3026 720 78 -1400 000/00 RMK AO2 T10441078
14926KSTC STC20191106001511411/06/19 00:15:31  5-MIN KSTC 060615Z AUTO 00000KT 10SM FEW120 M04/M08 A3027 720 78 -1400 000/00 RMK AO2 T10441078
14926KSTC STC20191106002011411/06/19 00:20:31  5-MIN KSTC 060620Z AUTO 00000KT 10SM FEW120 M04/M08 A3027 710 78 -1400 000/00 RMK AO2 T10441078
14926KSTC STC20191106002511111/06/19 00:25:31  5-MIN KSTC 060625Z AUTO 00000KT 10SM CLR M04/M08 A3027 710 78 -1400 000/00 RMK AO2 T10441078
14926KSTC STC20191106003011111/06/19 00:30:31  5-MIN KSTC 060630Z AUTO 00000KT 10SM CLR M04/M08 A3027 710 78 -1400 000/00 RMK AO2 T10441078
14926KSTC STC20191106003511111/06/19 00:35:31  5-MIN KSTC 060635Z AUTO 00000KT 10SM CLR M04/M08 A3027 710 78 -1400 000/00 RMK AO2 T10441078
14926KSTC STC20191106004011111/06/19 00:40:31  5-MIN KSTC 060640Z AUTO 00000KT 10SM CLR M04/M07 A3027 710 81 -1400 000/00 RMK AO2 T10441072
14926KSTC STC20191106004511111/06/19 00:45:31  5-MIN KSTC 060645Z AUTO 00000KT 10SM CLR M04/M08 A3027 710 78 -1400 000/00 RMK AO2 T10441078
14926KSTC STC20191106005012111/06/19 00:50:31  5-MIN KSTC 060650Z AUTO 00000KT 10SM FEW120 M04/M08 A3027 710 78 -1400 000/00 RMK AO2 SLP274 T10441078
14926KSTC STC20191106005511411/06/19 00:55:31  5-MIN KSTC 060655Z AUTO 19003KT 10SM FEW120 M04/M08 A3027 710 78 -1400 190/03 RMK AO2 T10441078
14926KSTC STC20191106010011411/06/19 01:00:31  5-MIN KSTC 060700Z AUTO 19003KT 10SM FEW120 M05/M08 A3027 710 81 -1500 190/03 RMK AO2 T10501078
14926KSTC STC20191106010511411/06/19 01:05:31  5-MIN KSTC 060705Z AUTO 00000KT 10SM FEW120 M05/M08 A3027 710 81 -1500 000/00 RMK AO2 T10501078
14926KSTC STC20191106011011411/06/19 01:10:31  5-MIN KSTC 060710Z AUTO 00000KT 10SM FEW120 M04/M08 A3026 720 78 -1400 000/00 RMK AO2 T10441078
14926KSTC STC20191106011511411/06/19 01:15:31  5-MIN KSTC 060715Z AUTO 00000KT 10SM FEW120 M04/M08 A3026 720 78 -1400 000/00 RMK AO2 T10441078
14926KSTC STC20191106012011111/06/19 01:20:31  5-MIN KSTC 060720Z AUTO 00000KT 10SM CLR M04/M08 A3026 720 78 -1400 000/00 RMK AO2 T10441078
14926KSTC STC20191106012511411/06/19 01:25:31  5-MIN KSTC 060725Z AUTO 00000KT 10SM FEW120 M04/M08 A3025 730 78 -1400 000/00 RMK AO2 T10441078
14926KSTC STC20191106013011411/06/19 01:30:31  5-MIN KSTC 060730Z AUTO 00000KT 10SM SCT120 M04/M08 A3026 720 78 -1400 000/00 RMK AO2 T10441078
14926KSTC STC20191106013511411/06/19 01:35:31  5-MIN KSTC 060735Z AUTO 00000KT 10SM SCT120 M04/M08 A3026 720 78 -1400 000/00 RMK AO2 T10441078
14926KSTC STC20191106014011411/06/19 01:40:31  5-MIN KSTC 060740Z AUTO 00000KT 10SM SCT120 M04/M08 A3026 720 78 -1400 000/00 RMK AO2 T10441078
14926KSTC STC20191106014511411/06/19 01:45:31  5-MIN KSTC 060745Z AUTO 00000KT 10SM BKN120 M04/M08 A3026 720 78 -1400 000/00 RMK AO2 T10441078
14926KSTC STC20191106015012811/06/19 01:50:31  5-MIN KSTC 060750Z AUTO 00000KT 10SM FEW032 BKN120 M04/M08 A3026 720 78 -1400 000/00 RMK AO2 SLP272 T10441078
14926KSTC STC20191106015512111/06/19 01:55:31  5-MIN KSTC 060755Z AUTO 00000KT 10SM FEW032 BKN120 M04/M08 A3026 720 78 -1400 000/00 RMK AO2 T10441078
14926KSTC STC20191106020012111/06/19 02:00:31  5-MIN KSTC 060800Z AUTO 00000KT 10SM FEW031 BKN110 M04/M08 A3026 720 78 -1400 000/00 RMK AO2 T10441078
14926KSTC STC20191106020512111/06/19 02:05:31  5-MIN KSTC 060805Z AUTO 00000KT 10SM FEW031 BKN110 M04/M08 A3026 720 78 -1400 000/00 RMK AO2 T10441078
14926KSTC STC20191106021012111/06/19 02:10:31  5-MIN KSTC 060810Z AUTO 00000KT 10SM SCT031 BKN110 M04/M08 A3026 720 78 -1400 000/00 RMK AO2 T10441078
14926KSTC STC20191106021512111/06/19 02:15:31  5-MIN KSTC 060815Z AUTO 00000KT 10SM SCT033 BKN110 M04/M08 A3026 720 78 -1400 000/00 RMK AO2 T10441078
14926KSTC STC20191106022012111/06/19 02:20:31  5-MIN KSTC 060820Z AUTO 00000KT 10SM BKN033 BKN110 M04/M08 A3026 720 78 -1400 000/00 RMK AO2 T10441078
14926KSTC STC20191106022512111/06/19 02:25:31  5-MIN KSTC 060825Z AUTO 00000KT 10SM SCT033 BKN110 M04/M07 A3026 720 81 -1400 000/00 RMK AO2 T10441072
14926KSTC STC20191106023012111/06/19 02:30:31  5-MIN KSTC 060830Z AUTO 00000KT 10SM SCT033 BKN110 M04/M07 A3026 720 81 -1400 000/00 RMK AO2 T10441072
14926KSTC STC20191106023512111/06/19 02:35:31  5-MIN KSTC 060835Z AUTO 00000KT 10SM SCT033 SCT110 M04/M07 A3026 720 81 -1400 000/00 RMK AO2 T10441072
14926KSTC STC20191106024012111/06/19 02:40:31  5-MIN KSTC 060840Z AUTO 00000KT 10SM FEW033 SCT110 M04/M07 A3026 720 81 -1400 000/00 RMK AO2 T10441072
14926KSTC STC20191106024512111/06/19 02:45:31  5-MIN KSTC 060845Z AUTO 00000KT 10SM FEW033 FEW110 M04/M07 A3026 730 81 -1400 000/00 RMK AO2 T10441072
14926KSTC STC20191106025012711/06/19 02:50:31  5-MIN KSTC 060850Z AUTO 00000KT 10SM FEW120 M04/M07 A3026 720 81 -1400 000/00 RMK AO2 SLP269 T10441072 51003
14926KSTC STC20191106025511411/06/19 02:55:31  5-MIN KSTC 060855Z AUTO 00000KT 10SM SCT120 M04/M07 A3026 720 81 -1400 000/00 RMK AO2 T10441072
14926KSTC STC20191106030011411/06/19 03:00:31  5-MIN KSTC 060900Z AUTO 00000KT 10SM BKN120 M04/M07 A3025 730 81 -1400 000/00 RMK AO2 T10441072
14926KSTC STC20191106030511411/06/19 03:05:31  5-MIN KSTC 060905Z AUTO 00000KT 10SM BKN120 M04/M07 A3026 720 81 -1400 000/00 RMK AO2 T10441072
14926KSTC STC20191106031011411/06/19 03:10:31  5-MIN KSTC 060910Z AUTO 00000KT 10SM BKN120 M04/M07 A3026 720 78 -1300 000/00 RMK AO2 T10391072
14926KSTC STC20191106031511411/06/19 03:15:31  5-MIN KSTC 060915Z AUTO 00000KT 10SM BKN120 M04/M07 A3026 720 78 -1300 000/00 RMK AO2 T10391072
14926KSTC STC20191106032011411/06/19 03:20:31  5-MIN KSTC 060920Z AUTO 00000KT 10SM BKN120 M04/M07 A3026 720 81 -1400 000/00 RMK AO2 T10441072
14926KSTC STC20191106032511411/06/19 03:25:31  5-MIN KSTC 060925Z AUTO 00000KT 10SM BKN120 M04/M07 A3027 710 81 -1400 000/00 RMK AO2 T10441072
14926KSTC STC20191106033011411/06/19 03:30:31  5-MIN KSTC 060930Z AUTO 00000KT 10SM BKN120 M04/M07 A3026 720 81 -1400 000/00 RMK AO2 T10441072
14926KSTC STC20191106033511411/06/19 03:35:31  5-MIN KSTC 060935Z AUTO 00000KT 10SM BKN120 M04/M07 A3026 720 78 -1300 000/00 RMK AO2 T10391072
14926KSTC STC20191106034011411/06/19 03:40:31  5-MIN KSTC 060940Z AUTO 00000KT 10SM SCT120 M04/M07 A3026 720 81 -1300 000/00 RMK AO2 T10391067
14926KSTC STC20191106034511411/06/19 03:45:31  5-MIN KSTC 060945Z AUTO 00000KT 10SM SCT120 M04/M07 A3026 720 78 -1300 000/00 RMK AO2 T10391072
14926KSTC STC20191106035012111/06/19 03:50:31  5-MIN KSTC 060950Z AUTO 00000KT 10SM SCT120 M04/M07 A3026 720 81 -1400 000/00 RMK AO2 SLP272 T10441072
14926KSTC STC20191106035511411/06/19 03:55:31  5-MIN KSTC 060955Z AUTO 00000KT 10SM SCT120 M04/M07 A3026 720 84 -1400 000/00 RMK AO2 T10441067
14926KSTC STC20191106040011411/06/19 04:00:31  5-MIN KSTC 061000Z AUTO 35003KT 10SM FEW120 M04/M07 A3026 720 84 -1400 350/03 RMK AO2 T10441067
14926KSTC STC20191106040511411/06/19 04:05:31  5-MIN KSTC 061005Z AUTO 35003KT 10SM FEW120 M04/M07 A3027 710 84 -1400 350/03 RMK AO2 T10441067
14926KSTC STC20191106041011411/06/19 04:10:31  5-MIN KSTC 061010Z AUTO 00000KT 10SM SCT120 M04/M07 A3027 710 81 -1400 000/00 RMK AO2 T10441072
14926KSTC STC20191106041511411/06/19 04:15:31  5-MIN KSTC 061015Z AUTO 00000KT 10SM FEW120 M04/M07 A3028 710 81 -1400 000/00 RMK AO2 T10441072
14926KSTC STC20191106042011411/06/19 04:20:31  5-MIN KSTC 061020Z AUTO 33003KT 10SM SCT120 M04/M08 A3028 700 78 -1400 330/03 RMK AO2 T10441078
14926KSTC STC20191106042511411/06/19 04:25:31  5-MIN KSTC 061025Z AUTO 33003KT 10SM BKN120 M04/M08 A3028 700 78 -1400 330/03 RMK AO2 T10441078
14926KSTC STC20191106043011411/06/19 04:30:31  5-MIN KSTC 061030Z AUTO 33004KT 10SM BKN120 M04/M08 A3028 700 78 -1400 330/04 RMK AO2 T10441078
14926KSTC STC20191106043511411/06/19 04:35:31  5-MIN KSTC 061035Z AUTO 33003KT 10SM BKN120 M04/M08 A3028 700 78 -1400 330/03 RMK AO2 T10441078
14926KSTC STC20191106044011411/06/19 04:40:31  5-MIN KSTC 061040Z AUTO 33003KT 10SM BKN120 M04/M08 A3028 700 78 -1400 330/03 RMK AO2 T10441078
14926KSTC STC20191106044511411/06/19 04:45:31  5-MIN KSTC 061045Z AUTO 32003KT 10SM BKN120 M04/M08 A3028 700 74 -1400 320/03 RMK AO2 T10441083
14926KSTC STC20191106045012111/06/19 04:50:31  5-MIN KSTC 061050Z AUTO 33003KT 10SM BKN120 M04/M08 A3028 700 74 -1400 330/03 RMK AO2 SLP279 T10441083
14926KSTC STC20191106045511411/06/19 04:55:31  5-MIN KSTC 061055Z AUTO 33003KT 10SM BKN120 M04/M08 A3028 700 74 -1400 330/03 RMK AO2 T10441083
14926KSTC STC20191106050011411/06/19 05:00:31  5-MIN KSTC 061100Z AUTO 33003KT 10SM SCT120 M04/M08 A3028 700 74 -1400 330/03 RMK AO2 T10441083
14926KSTC STC20191106050511411/06/19 05:05:31  5-MIN KSTC 061105Z AUTO 33003KT 10SM SCT120 M04/M08 A3029 700 74 -1400 320/03 RMK AO2 T10441083
14926KSTC STC20191106051011911/06/19 05:10:31  5-MIN KSTC 061110Z AUTO 33003KT 10SM FEW120 M04/M08 A3029 690 74 -1400 330/03 RMK AO2 T10441083 TSNO
14926KSTC STC20191106051511411/06/19 05:15:31  5-MIN KSTC 061115Z AUTO 34003KT 10SM FEW120 M04/M08 A3029 700 74 -1400 340/03 RMK AO2 T10441083
14926KSTC STC20191106052011411/06/19 05:20:31  5-MIN KSTC 061120Z AUTO 33003KT 10SM FEW120 M04/M08 A3029 690 74 -1400 330/03 RMK AO2 T10441083
14926KSTC STC20191106052511411/06/19 05:25:31  5-MIN KSTC 061125Z AUTO 00000KT 10SM FEW120 M04/M08 A3029 690 74 -1400 000/00 RMK AO2 T10441083
14926KSTC STC20191106053011411/06/19 05:30:31  5-MIN KSTC 061130Z AUTO 00000KT 10SM SCT120 M04/M08 A3029 690 74 -1400 000/00 RMK AO2 T10441083
14926KSTC STC20191106053511411/06/19 05:35:31  5-MIN KSTC 061135Z AUTO 00000KT 10SM BKN120 M04/M08 A3029 690 74 -1400 000/00 RMK AO2 T10441083
14926KSTC STC20191106054011411/06/19 05:40:31  5-MIN KSTC 061140Z AUTO 00000KT 10SM BKN120 M04/M08 A3029 690 78 -1400 000/00 RMK AO2 T10441078
14926KSTC STC20191106054511411/06/19 05:45:31  5-MIN KSTC 061145Z AUTO 00000KT 10SM BKN120 M04/M08 A3029 690 78 -1500 000/00 RMK AO2 T10441078
14926KSTC STC20191106055013911/06/19 05:50:31  5-MIN KSTC 061150Z AUTO 00000KT 10SM BKN120 M04/M08 A3029 690 74 -1400 000/00 RMK AO2 SLP283 T10441083 11039 21050 58002
14926KSTC STC20191106055511411/06/19 05:55:31  5-MIN KSTC 061155Z AUTO 00000KT 10SM BKN120 M04/M08 A3030 690 74 -1500 000/00 RMK AO2 T10441083
14926KSTC STC20191106060011411/06/19 06:00:31  5-MIN KSTC 061200Z AUTO 32003KT 10SM BKN120 M04/M08 A3030 690 74 -1500 320/03 RMK AO2 T10441083
14926KSTC STC20191106060511411/06/19 06:05:31  5-MIN KSTC 061205Z AUTO 32003KT 10SM SCT120 M04/M08 A3030 690 78 -1500 310/03 RMK AO2 T10441078
14926KSTC STC20191106061011411/06/19 06:10:31  5-MIN KSTC 061210Z AUTO 32003KT 10SM FEW120 M04/M08 A3030 690 78 -1500 320/03 RMK AO2 T10441078
14926KSTC STC20191106061511411/06/19 06:15:31  5-MIN KSTC 061215Z AUTO 32003KT 10SM FEW120 M04/M08 A3030 690 74 -1500 320/03 RMK AO2 T10441083
14926KSTC STC20191106062011411/06/19 06:20:31  5-MIN KSTC 061220Z AUTO 32003KT 10SM FEW120 M04/M08 A3030 680 74 -1500 320/03 RMK AO2 T10441083
14926KSTC STC20191106062511111/06/19 06:25:31  5-MIN KSTC 061225Z AUTO 00000KT 10SM CLR M05/M08 A3030 680 77 -1500 000/00 RMK AO2 T10501083
14926KSTC STC20191106063010111/06/19 06:30:31  5-MIN KSTC 061230Z AUTO 10SM CLR M04/M08 A3030 680 74 -1500 M /M RMK AO2 T10441083
14926KSTC STC20191106063510111/06/19 06:35:31  5-MIN KSTC 061235Z AUTO 10SM CLR M04/M08 A3030 680 74 -1500 M /M RMK AO2 T10441083
14926KSTC STC20191106064010611/06/19 06:40:31  5-MIN KSTC 061240Z 00000KT 10SM CLR M05/M08 A3031 680 77 -1500 000/00 RMK AO2 T10501083
14926KSTC STC20191106064510611/06/19 06:45:31  5-MIN KSTC 061245Z 32003KT 10SM CLR M05/M08 A3031 670 77 -1500 310/03 RMK AO2 T10501083
14926KSTC STC20191106065011311/06/19 06:50:31  5-MIN KSTC 061250Z 32003KT 10SM CLR M05/M08 A3031 670 77 -1500 320/03 RMK AO2 SLP290 T10501083
14926KSTC STC20191106065510611/06/19 06:55:31  5-MIN KSTC 061255Z 31003KT 10SM CLR M05/M08 A3031 670 77 -1500 310/03 RMK AO2 T10501083
14926KSTC STC20191106070010611/06/19 07:00:31  5-MIN KSTC 061300Z 32004KT 10SM CLR M06/M08 A3031 670 81 -1600 320/04 RMK AO2 T10561083
14926KSTC STC20191106070510611/06/19 07:05:31  5-MIN KSTC 061305Z 32004KT 10SM CLR M05/M08 A3031 670 77 -1500 320/04 RMK AO2 T10501083
14926KSTC STC20191106071010611/06/19 07:10:31  5-MIN KSTC 061310Z 32004KT 10SM CLR M05/M09 A3031 670 74 -1500 320/04 RMK AO2 T10501089
14926KSTC STC20191106071510611/06/19 07:15:31  5-MIN KSTC 061315Z 33005KT 10SM CLR M05/M09 A3032 670 74 -1500 330/05 RMK AO2 T10501089
14926KSTC STC20191106072010611/06/19 07:20:31  5-MIN KSTC 061320Z 33004KT 10SM CLR M05/M09 A3032 670 74 -1500 330/04 RMK AO2 T10501089
14926KSTC STC20191106072510611/06/19 07:25:31  5-MIN KSTC 061325Z 33005KT 10SM CLR M05/M09 A3032 670 74 -1500 330/05 RMK AO2 T10501089
14926KSTC STC20191106073010611/06/19 07:30:31  5-MIN KSTC 061330Z 33005KT 10SM CLR M05/M09 A3032 660 74 -1600 330/05 RMK AO2 T10501089
14926KSTC STC20191106073510611/06/19 07:35:31  5-MIN KSTC 061335Z 34004KT 10SM CLR M05/M09 A3032 670 74 -1600 340/04 RMK AO2 T10501089
14926KSTC STC20191106074010611/06/19 07:40:31  5-MIN KSTC 061340Z 34004KT 10SM CLR M05/M09 A3032 660 74 -1600 340/04 RMK AO2 T10501089
14926KSTC STC20191106074510611/06/19 07:45:31  5-MIN KSTC 061345Z 34005KT 10SM CLR M05/M09 A3032 660 74 -1600 340/05 RMK AO2 T10501089
14926KSTC STC20191106075011611/06/19 07:50:31  5-MIN KSTC 061350Z 34005KT 10SM FEW075 M04/M09 A3032 660 71 -1500 340/05 RMK AO2 SLP295 T10441089
14926KSTC STC20191106075510911/06/19 07:55:31  5-MIN KSTC 061355Z 34005KT 10SM FEW075 M04/M09 A3033 660 71 -1500 340/05 RMK AO2 T10441089
14926KSTC STC20191106080010911/06/19 08:00:31  5-MIN KSTC 061400Z 34006KT 10SM SCT075 M04/M09 A3033 650 71 -1500 340/06 RMK AO2 T10441089
14926KSTC STC20191106080510911/06/19 08:05:31  5-MIN KSTC 061405Z 34005KT 10SM BKN070 M04/M09 A3033 650 71 -1500 340/05 RMK AO2 T10441089
14926KSTC STC20191106081010911/06/19 08:10:31  5-MIN KSTC 061410Z 34007KT 10SM BKN075 M04/M09 A3034 650 68 -1500 340/07 RMK AO2 T10441094
14926KSTC STC20191106081510911/06/19 08:15:31  5-MIN KSTC 061415Z 34006KT 10SM BKN070 M04/M09 A3034 650 68 -1500 340/06 RMK AO2 T10441094
14926KSTC STC20191106082011511/06/19 08:20:31  5-MIN KSTC 061420Z 34007G15KT 10SM BKN070 M04/M09 A3034 650 68 -1500 340/07G15 RMK AO2 T10441094
14926KSTC STC20191106082511511/06/19 08:25:31  5-MIN KSTC 061425Z 34009G15KT 10SM BKN070 M04/M09 A3034 640 68 -1500 340/09G15 RMK AO2 T10441094
14926KSTC STC20191106083010911/06/19 08:30:31  5-MIN KSTC 061430Z 34008KT 10SM SCT070 M04/M09 A3035 640 68 -1500 340/08 RMK AO2 T10441094
14926KSTC STC20191106083510911/06/19 08:35:31  5-MIN KSTC 061435Z 34009KT 10SM FEW070 M04/M09 A3034 640 68 -1500 340/09 RMK AO2 T10441094
14926KSTC STC20191106084010911/06/19 08:40:31  5-MIN KSTC 061440Z 33009KT 10SM FEW070 M04/M09 A3035 640 65 -1400 330/09 RMK AO2 T10391094
14926KSTC STC20191106084510611/06/19 08:45:31  5-MIN KSTC 061445Z 33006KT 10SM CLR M04/M09 A3036 630 65 -1400 330/06 RMK AO2 T10391094
14926KSTC STC20191106085011911/06/19 08:50:31  5-MIN KSTC 061450Z 33006KT 10SM CLR M04/M09 A3036 630 65 -1500 330/06 RMK AO2 SLP307 T10391094 53013
14926KSTC STC20191106085511511/06/19 08:55:31  5-MIN KSTC 061455Z 34011G15KT 10SM FEW090 M04/M10 A3036 630 63 -1500 340/11G15 RMK AO2 T10391100
14926KSTC STC20191106090010911/06/19 09:00:31  5-MIN KSTC 061500Z 33008KT 10SM SCT085 M04/M10 A3036 630 63 -1500 330/08 RMK AO2 T10391100
14926KSTC STC20191106090510911/06/19 09:05:31  5-MIN KSTC 061505Z 35010KT 10SM SCT080 M04/M10 A3036 630 63 -1500 350/10 RMK AO2 T10391100
14926KSTC STC20191106091010911/06/19 09:10:31  5-MIN KSTC 061510Z 34010KT 10SM BKN080 M04/M10 A3037 620 63 -1500 340/10 RMK AO2 T10391100
14926KSTC STC20191106091510911/06/19 09:15:31  5-MIN KSTC 061515Z 33008KT 10SM BKN080 M04/M10 A3037 620 63 -1500 330/08 RMK AO2 T10391100
14926KSTC STC20191106092010911/06/19 09:20:31  5-MIN KSTC 061520Z 33008KT 10SM OVC080 M04/M10 A3037 620 63 -1500 330/08 RMK AO2 T10391100
14926KSTC STC20191106092511611/06/19 09:25:31  5-MIN KSTC 061525Z 33008KT 10SM BKN065 OVC080 M04/M10 A3037 620 63 -1500 330/08 RMK AO2 T10391100
14926KSTC STC20191106093011611/06/19 09:30:31  5-MIN KSTC 061530Z 35008KT 10SM BKN065 OVC080 M04/M10 A3037 620 63 -1500 350/08 RMK AO2 T10391100
14926KSTC STC20191106093511611/06/19 09:35:31  5-MIN KSTC 061535Z 34009KT 10SM BKN065 OVC080 M03/M10 A3037 620 60 -1400 330/09 RMK AO2 T10331100
14926KSTC STC20191106094012211/06/19 09:40:31  5-MIN KSTC 061540Z 33010G17KT 10SM BKN065 OVC075 M03/M10 A3038 610 60 -1400 330/10G17 RMK AO2 T10331100
14926KSTC STC20191106094511511/06/19 09:45:31  5-MIN KSTC 061545Z 34010G17KT 10SM OVC060 M03/M11 A3038 610 57 -1400 340/10G17 RMK AO2 T10331106
14926KSTC STC20191106095012211/06/19 09:50:31  5-MIN KSTC 061550Z 33009G17KT 10SM BKN060 M03/M10 A3038 610 60 -1400 330/09G17 RMK AO2 SLP313 T10331100
14926KSTC STC20191106095511611/06/19 09:55:31  5-MIN KSTC 061555Z 32013KT 10SM FEW030 BKN060 M03/M11 A3038 610 57 -1400 320/13 RMK AO2 T10331106
14926KSTC STC20191106100011611/06/19 10:00:31  5-MIN KSTC 061600Z 33011KT 10SM FEW030 SCT060 M03/M11 A3038 610 57 -1400 330/11 RMK AO2 T10331106
14926KSTC STC20191106100511611/06/19 10:05:31  5-MIN KSTC 061605Z 32009KT 10SM FEW030 SCT060 M03/M11 A3039 610 57 -1400 310/09 RMK AO2 T10331106
14926KSTC STC20191106101012211/06/19 10:10:31  5-MIN KSTC 061610Z 35009G16KT 10SM FEW030 FEW060 M03/M11 A3038 610 57 -1400 340/09G16 RMK AO2 T10331106
14926KSTC STC20191106101510911/06/19 10:15:31  5-MIN KSTC 061615Z 35009KT 10SM FEW030 M03/M10 A3038 610 60 -1400 350/09 RMK AO2 T10331100
14926KSTC STC20191106102010911/06/19 10:20:31  5-MIN KSTC 061620Z 34010KT 10SM FEW030 M03/M10 A3038 610 58 -1300 340/10 RMK AO2 T10281100
14926KSTC STC20191106102511511/06/19 10:25:31  5-MIN KSTC 061625Z 33011G20KT 10SM FEW032 M03/M10 A3039 600 58 -1300 330/11G20 RMK AO2 T10281100
14926KSTC STC20191106103011511/06/19 10:30:31  5-MIN KSTC 061630Z 32013G21KT 10SM SCT032 M03/M11 A3039 600 53 -1300 320/13G21 RMK AO2 T10281111
14926KSTC STC20191106103511511/06/19 10:35:31  5-MIN KSTC 061635Z 33013G23KT 10SM SCT032 M03/M12 A3039 600 53 -1400 330/13G23 RMK AO2 T10331117
14926KSTC STC20191106104011511/06/19 10:40:31  5-MIN KSTC 061640Z 33014G23KT 10SM FEW032 M03/M12 A3039 600 53 -1400 320/14G23 RMK AO2 T10331117
14926KSTC STC20191106104511511/06/19 10:45:31  5-MIN KSTC 061645Z 33012G19KT 10SM FEW032 M03/M12 A3039 600 53 -1400 330/12G19 RMK AO2 T10331117
14926KSTC STC20191106105012211/06/19 10:50:31  5-MIN KSTC 061650Z 33010G18KT 10SM FEW034 M03/M11 A3040 590 55 -1400 330/10G18 RMK AO2 SLP319 T10331111
14926KSTC STC20191106105511511/06/19 10:55:31  5-MIN KSTC 061655Z 34010G16KT 10SM SCT034 M03/M11 A3040 590 55 -1400 340/10G16 RMK AO2 T10281106
14926KSTC STC20191106110011511/06/19 11:00:31  5-MIN KSTC 061700Z 33009G16KT 10SM BKN034 M03/M11 A3040 600 55 -1400 330/09G16 RMK AO2 T10281106
14926KSTC STC20191106110511511/06/19 11:05:31  5-MIN KSTC 061705Z 34010G16KT 10SM SCT034 M03/M11 A3039 600 53 -1400 340/10G16 RMK AO2 T10281111
14926KSTC STC20191106111011511/06/19 11:10:31  5-MIN KSTC 061710Z 34012G19KT 10SM SCT034 M03/M11 A3039 600 55 -1400 340/12G19 RMK AO2 T10331111
14926KSTC STC20191106111511511/06/19 11:15:31  5-MIN KSTC 061715Z 33011G19KT 10SM BKN033 M03/M11 A3039 600 53 -1400 330/11G19 RMK AO2 T10281111
14926KSTC STC20191106112011511/06/19 11:20:31  5-MIN KSTC 061720Z 31014G20KT 10SM BKN033 M03/M11 A3040 600 55 -1400 310/14G20 RMK AO2 T10331111
14926KSTC STC20191106112511511/06/19 11:25:31  5-MIN KSTC 061725Z 32009G20KT 10SM BKN033 M03/M11 A3040 600 53 -1400 320/09G20 RMK AO2 T10281111
14926KSTC STC20191106113011511/06/19 11:30:31  5-MIN KSTC 061730Z 32013G19KT 10SM SCT032 M03/M11 A3039 600 53 -1400 320/13G19 RMK AO2 T10281111
14926KSTC STC20191106113511511/06/19 11:35:31  5-MIN KSTC 061735Z 32012G20KT 10SM BKN032 M03/M11 A3040 600 53 -1400 320/12G20 RMK AO2 T10281111
14926KSTC STC20191106114011511/06/19 11:40:31  5-MIN KSTC 061740Z 34010G20KT 10SM BKN032 M03/M11 A3039 600 53 -1300 340/10G20 RMK AO2 T10281111
14926KSTC STC20191106114510911/06/19 11:45:31  5-MIN KSTC 061745Z 33012KT 10SM BKN032 M03/M12 A3039 600 50 -1300 330/12 RMK AO2 T10281117
14926KSTC STC20191106115013411/06/19 11:50:31  5-MIN KSTC 061750Z 34011KT 10SM BKN033 M03/M12 A3039 600 50 -1400 340/11 RMK AO2 SLP317 T10281117 11028 21056 53022
14926KSTC STC20191106115511511/06/19 11:55:31  5-MIN KSTC 061755Z 34011G18KT 10SM SCT033 M03/M12 A3039 600 50 -1400 330/11G18 RMK AO2 T10281117
14926KSTC STC20191106120011511/06/19 12:00:31  5-MIN KSTC 061800Z 34012G20KT 10SM SCT034 M03/M12 A3039 600 50 -1300 340/12G20 RMK AO2 T10281117
14926KSTC STC20191106120511511/06/19 12:05:31  5-MIN KSTC 061805Z 33012G20KT 10SM FEW034 M03/M12 A3039 600 50 -1400 320/12G20 RMK AO2 T10331122
14926KSTC STC20191106121010911/06/19 12:10:31  5-MIN KSTC 061810Z 32011KT 10SM FEW034 M03/M12 A3040 600 50 -1400 320/11 RMK AO2 T10331122
14926KSTC STC20191106121511511/06/19 12:15:31  5-MIN KSTC 061815Z 33014G20KT 10SM FEW034 M03/M12 A3040 600 50 -1400 330/14G20 RMK AO2 T10331122
14926KSTC STC20191106122011511/06/19 12:20:31  5-MIN KSTC 061820Z 33013G20KT 10SM FEW034 M04/M13 A3040 600 50 -1500 330/13G20 RMK AO2 T10391128
14926KSTC STC20191106122511211/06/19 12:25:31  5-MIN KSTC 061825Z 32013G22KT 10SM CLR M04/M13 A3039 600 50 -1500 320/13G22 RMK AO2 T10391128
14926KSTC STC20191106123011211/06/19 12:30:31  5-MIN KSTC 061830Z 33013G22KT 10SM CLR M04/M13 A3039 600 50 -1500 330/13G22 RMK AO2 T10391128
14926KSTC STC20191106123511211/06/19 12:35:31  5-MIN KSTC 061835Z 32013G21KT 10SM CLR M04/M13 A3040 600 50 -1500 320/13G21 RMK AO2 T10391128
14926KSTC STC20191106124011211/06/19 12:40:31  5-MIN KSTC 061840Z 32016G24KT 10SM CLR M04/M14 A3040 590 46 -1500 320/16G24 RMK AO2 T10391139
14926KSTC STC20191106124511211/06/19 12:45:31  5-MIN KSTC 061845Z 33014G24KT 10SM CLR M04/M14 A3040 590 46 -1500 330/14G24 RMK AO2 T10391139
14926KSTC STC20191106125011911/06/19 12:50:31  5-MIN KSTC 061850Z 34014G22KT 10SM CLR M04/M14 A3040 590 44 -1500 340/14G22 RMK AO2 SLP320 T10391144
14926KSTC STC20191106125511211/06/19 12:55:31  5-MIN KSTC 061855Z 34013G21KT 10SM CLR M04/M14 A3040 590 46 -1500 340/13G21 RMK AO2 T10391139
14926KSTC STC20191106130011211/06/19 13:00:31  5-MIN KSTC 061900Z 34013G20KT 10SM CLR M04/M14 A3040 590 46 -1500 340/13G20 RMK AO2 T10391139
14926KSTC STC20191106130511211/06/19 13:05:31  5-MIN KSTC 061905Z 32010G20KT 10SM CLR M04/M14 A3040 590 46 -1500 320/10G20 RMK AO2 T10391139
14926KSTC STC20191106131011211/06/19 13:10:31  5-MIN KSTC 061910Z 33013G21KT 10SM CLR M04/M14 A3040 590 46 -1500 320/13G21 RMK AO2 T10391139
14926KSTC STC20191106131511211/06/19 13:15:31  5-MIN KSTC 061915Z 33014G22KT 10SM CLR M04/M14 A3040 590 44 -1500 330/14G22 RMK AO2 T10391144
14926KSTC STC20191106132011211/06/19 13:20:31  5-MIN KSTC 061920Z 35012G22KT 10SM CLR M04/M14 A3040 590 44 -1500 350/12G22 RMK AO2 T10391144
14926KSTC STC20191106132510611/06/19 13:25:31  5-MIN KSTC 061925Z 34013KT 10SM CLR M04/M14 A3041 590 46 -1500 340/13 RMK AO2 T10391139
14926KSTC STC20191106133010611/06/19 13:30:31  5-MIN KSTC 061930Z 32011KT 10SM CLR M04/M14 A3041 580 46 -1600 320/11 RMK AO2 T10441144
14926KSTC STC20191106133511211/06/19 13:35:31  5-MIN KSTC 061935Z 33011G20KT 10SM CLR M04/M14 A3041 580 44 -1500 320/11G20 RMK AO2 T10391144
14926KSTC STC20191106134011211/06/19 13:40:31  5-MIN KSTC 061940Z 33011G20KT 10SM CLR M04/M15 A3041 580 42 -1500 320/11G20 RMK AO2 T10391150
14926KSTC STC20191106134511211/06/19 13:45:31  5-MIN KSTC 061945Z 33010G19KT 10SM CLR M04/M15 A3041 580 42 -1500 330/10G19 RMK AO2 T10391150
14926KSTC STC20191106135011911/06/19 13:50:31  5-MIN KSTC 061950Z 35011G19KT 10SM CLR M04/M15 A3041 580 42 -1500 350/11G19 RMK AO2 SLP323 T10391150
14926KSTC STC20191106135511211/06/19 13:55:31  5-MIN KSTC 061955Z 33013G19KT 10SM CLR M04/M15 A3041 580 42 -1500 330/13G19 RMK AO2 T10391150
14926KSTC STC20191106140011211/06/19 14:00:31  5-MIN KSTC 062000Z 33010G18KT 10SM CLR M04/M15 A3041 580 42 -1500 330/10G18 RMK AO2 T10391150
14926KSTC STC20191106140511211/06/19 14:05:31  5-MIN KSTC 062005Z 33012G18KT 10SM CLR M03/M14 A3042 580 42 -1400 330/12G18 RMK AO2 T10331144
14926KSTC STC20191106141010611/06/19 14:10:31  5-MIN KSTC 062010Z 32011KT 10SM CLR M04/M15 A3042 580 42 -1500 320/11 RMK AO2 T10391150
14926KSTC STC20191106141511211/06/19 14:15:31  5-MIN KSTC 062015Z 32011G19KT 10SM CLR M04/M16 A3042 580 40 -1500 320/11G19 RMK AO2 T10391156
14926KSTC STC20191106142011211/06/19 14:20:31  5-MIN KSTC 062020Z 32013G19KT 10SM CLR M04/M15 A3042 580 42 -1500 320/13G19 RMK AO2 T10391150
14926KSTC STC20191106142511211/06/19 14:25:31  5-MIN KSTC 062025Z 33011G18KT 10SM CLR M04/M15 A3042 580 42 -1500 330/11G18 RMK AO2 T10391150
14926KSTC STC20191106143011211/06/19 14:30:31  5-MIN KSTC 062030Z 33009G18KT 10SM CLR M04/M15 A3042 580 42 -1500 330/09G18 RMK AO2 T10391150
14926KSTC STC20191106143510611/06/19 14:35:31  5-MIN KSTC 062035Z 34010KT 10SM CLR M04/M16 A3042 570 40 -1500 340/10 RMK AO2 T10391156
14926KSTC STC20191106144010611/06/19 14:40:31  5-MIN KSTC 062040Z 32010KT 10SM CLR M04/M16 A3042 570 42 -1600 320/10 RMK AO2 T10441156
14926KSTC STC20191106144511211/06/19 14:45:31  5-MIN KSTC 062045Z 32012G19KT 10SM CLR M04/M16 A3042 570 42 -1600 320/12G19 RMK AO2 T10441156
14926KSTC STC20191106145012511/06/19 14:50:31  5-MIN KSTC 062050Z 32016G22KT 10SM CLR M04/M16 A3042 570 42 -1600 320/16G22 RMK AO2 SLP328 T10441156 50010
14926KSTC STC20191106145511211/06/19 14:55:31  5-MIN KSTC 062055Z 32011G22KT 10SM CLR M04/M16 A3042 570 42 -1600 320/11G22 RMK AO2 T10441156
14926KSTC STC20191106150011211/06/19 15:00:31  5-MIN KSTC 062100Z 32015G20KT 10SM CLR M04/M16 A3042 570 40 -1600 310/15G20 RMK AO2 T10441161
14926KSTC STC20191106150511211/06/19 15:05:31  5-MIN KSTC 062105Z 34010G20KT 10SM CLR M04/M16 A3042 570 40 -1600 340/10G20 RMK AO2 T10441161
14926KSTC STC20191106151011211/06/19 15:10:31  5-MIN KSTC 062110Z 33007G16KT 10SM CLR M04/M16 A3043 570 40 -1600 330/07G16 RMK AO2 T10441161
14926KSTC STC20191106151510611/06/19 15:15:31  5-MIN KSTC 062115Z 32010KT 10SM CLR M04/M16 A3043 570 42 -1600 320/10 RMK AO2 T10441156
14926KSTC STC20191106152011211/06/19 15:20:31  5-MIN KSTC 062120Z 32011G19KT 10SM CLR M04/M16 A3043 560 42 -1600 320/11G19 RMK AO2 T10441156
14926KSTC STC20191106152511211/06/19 15:25:31  5-MIN KSTC 062125Z 32010G19KT 10SM CLR M04/M16 A3043 560 42 -1600 320/10G19 RMK AO2 T10441156
14926KSTC STC20191106153011211/06/19 15:30:31  5-MIN KSTC 062130Z 33013G19KT 10SM CLR M04/M16 A3043 560 40 -1600 330/13G19 RMK AO2 T10441161
14926KSTC STC20191106153511211/06/19 15:35:31  5-MIN KSTC 062135Z 33011G19KT 10SM CLR M04/M16 A3044 560 40 -1600 330/11G19 RMK AO2 T10441161
14926KSTC STC20191106154011211/06/19 15:40:31  5-MIN KSTC 062140Z 33011G21KT 10SM CLR M05/M16 A3044 560 42 -1700 320/11G21 RMK AO2 T10501161
14926KSTC STC20191106154511211/06/19 15:45:31  5-MIN KSTC 062145Z 33012G21KT 10SM CLR M05/M16 A3044 560 42 -1700 330/12G21 RMK AO2 T10501161
14926KSTC STC20191106155011911/06/19 15:50:31  5-MIN KSTC 062150Z 33008G17KT 10SM CLR M05/M16 A3044 560 42 -1700 330/08G17 RMK AO2 SLP334 T10501161
14926KSTC STC20191106155510611/06/19 15:55:31  5-MIN KSTC 062155Z 33010KT 10SM CLR M05/M16 A3044 550 44 -1700 330/10 RMK AO2 T10501156
14926KSTC STC20191106160010611/06/19 16:00:31  5-MIN KSTC 062200Z 33010KT 10SM CLR M05/M16 A3044 550 44 -1700 330/10 RMK AO2 T10501156
14926KSTC STC20191106160510611/06/19 16:05:31  5-MIN KSTC 062205Z 32008KT 10SM CLR M05/M16 A3045 550 42 -1700 320/08 RMK AO2 T10501161
14926KSTC STC20191106161010611/06/19 16:10:31  5-MIN KSTC 062210Z 32007KT 10SM CLR M05/M16 A3045 550 44 -1700 320/07 RMK AO2 T10501156
14926KSTC STC20191106161510611/06/19 16:15:31  5-MIN KSTC 062215Z 32007KT 10SM CLR M05/M15 A3045 550 46 -1700 320/07 RMK AO2 T10501150
14926KSTC STC20191106162010611/06/19 16:20:31  5-MIN KSTC 062220Z 31009KT 10SM CLR M05/M16 A3045 550 44 -1700 310/09 RMK AO2 T10501156
14926KSTC STC20191106162510611/06/19 16:25:31  5-MIN KSTC 062225Z 32008KT 10SM CLR M06/M15 A3045 550 48 -1800 310/08 RMK AO2 T10561150
14926KSTC STC20191106163010611/06/19 16:30:31  5-MIN KSTC 062230Z 32011KT 10SM CLR M05/M16 A3045 550 44 -1700 320/11 RMK AO2 T10501156
14926KSTC STC20191106163510611/06/19 16:35:31  5-MIN KSTC 062235Z 32010KT 10SM CLR M05/M16 A3045 550 44 -1700 320/10 RMK AO2 T10501156
14926KSTC STC20191106164010611/06/19 16:40:31  5-MIN KSTC 062240Z 33009KT 10SM CLR M05/M16 A3045 550 42 -1700 330/09 RMK AO2 T10501161
14926KSTC STC20191106164510611/06/19 16:45:31  5-MIN KSTC 062245Z 33007KT 10SM CLR M05/M16 A3045 540 42 -1700 330/07 RMK AO2 T10501161
14926KSTC STC20191106165011311/06/19 16:50:31  5-MIN KSTC 062250Z 33008KT 10SM CLR M06/M16 A3045 540 43 -1800 320/08 RMK AO2 SLP339 T10561161
14926KSTC STC20191106165510611/06/19 16:55:31  5-MIN KSTC 062255Z 33006KT 10SM CLR M06/M16 A3046 540 43 -1800 330/06 RMK AO2 T10561161
14926KSTC STC20191106170010611/06/19 17:00:31  5-MIN KSTC 062300Z 32008KT 10SM CLR M06/M16 A3046 540 43 -1800 320/08 RMK AO2 T10561161
14926KSTC STC20191106170510611/06/19 17:05:31  5-MIN KSTC 062305Z 32005KT 10SM CLR M06/M16 A3046 540 43 -1800 320/05 RMK AO2 T10561161
14926KSTC STC20191106171010611/06/19 17:10:31  5-MIN KSTC 062310Z 33006KT 10SM CLR M06/M16 A3046 530 45 -1900 330/06 RMK AO2 T10611161
14926KSTC STC20191106171510611/06/19 17:15:31  5-MIN KSTC 062315Z 32007KT 10SM CLR M06/M16 A3047 530 45 -1900 320/07 RMK AO2 T10611161
14926KSTC STC20191106172010611/06/19 17:20:31  5-MIN KSTC 062320Z 32007KT 10SM CLR M06/M16 A3047 530 45 -1900 320/07 RMK AO2 T10611161
14926KSTC STC20191106172510611/06/19 17:25:31  5-MIN KSTC 062325Z 32006KT 10SM CLR M06/M16 A3047 530 45 -1900 320/06 RMK AO2 T10611161
14926KSTC STC20191106173010611/06/19 17:30:31  5-MIN KSTC 062330Z 32004KT 10SM CLR M06/M16 A3047 530 45 -1900 320/04 RMK AO2 T10611161
14926KSTC STC20191106173510611/06/19 17:35:31  5-MIN KSTC 062335Z 33005KT 10SM CLR M06/M16 A3048 520 45 -1900 320/05 RMK AO2 T10611161
14926KSTC STC20191106174010611/06/19 17:40:31  5-MIN KSTC 062340Z 32005KT 10SM CLR M07/M16 A3048 520 49 -1900 320/05 RMK AO2 T10671156
14926KSTC STC20191106174509611/06/19 17:45:31  5-MIN KSTC 062345Z 10SM CLR M07/M16 A3048 520 49 -2000 M /M RMK AO2 T10671156
14926KSTC STC20191106175012111/06/19 17:50:31  5-MIN KSTC 062350Z 10SM CLR M07/M16 A3048 520 52 -2000 M /M RMK AO2 SLP350 T10721156 11028 21072 51009
14926KSTC STC20191106175510611/06/19 17:55:31  5-MIN KSTC 062355Z 32006KT 10SM CLR M08/M15 A3048 520 59 -2200 320/06 RMK AO2 T10831150
14926KSTC STC20191106180010611/06/19 18:00:31  5-MIN KSTC 070000Z 32005KT 10SM CLR M07/M16 A3049 510 52 -2000 320/05 RMK AO2 T10721156
14926KSTC STC20191106180510611/06/19 18:05:31  5-MIN KSTC 070005Z 32005KT 10SM CLR M08/M16 A3049 510 54 -2100 320/05 RMK AO2 T10781156
14926KSTC STC20191106181010611/06/19 18:10:31  5-MIN KSTC 070010Z 32005KT 10SM CLR M08/M15 A3049 510 56 -2100 320/05 RMK AO2 T10781150
14926KSTC STC20191106181510611/06/19 18:15:31  5-MIN KSTC 070015Z 32006KT 10SM CLR M08/M15 A3049 510 56 -2100 320/06 RMK AO2 T10781150
14926KSTC STC20191106182010611/06/19 18:20:31  5-MIN KSTC 070020Z 32007KT 10SM CLR M08/M15 A3049 510 56 -2100 320/07 RMK AO2 T10781150
14926KSTC STC20191106182510611/06/19 18:25:31  5-MIN KSTC 070025Z 32007KT 10SM CLR M08/M15 A3050 500 56 -2100 320/07 RMK AO2 T10781150
14926KSTC STC20191106183010611/06/19 18:30:31  5-MIN KSTC 070030Z 32007KT 10SM CLR M08/M15 A3050 500 56 -2100 320/07 RMK AO2 T10781150
14926KSTC STC20191106183510611/06/19 18:35:31  5-MIN KSTC 070035Z 32007KT 10SM CLR M07/M15 A3050 500 54 -2000 320/07 RMK AO2 T10721150
14926KSTC STC20191106184010611/06/19 18:40:31  5-MIN KSTC 070040Z 32008KT 10SM CLR M07/M16 A3050 500 49 -2000 320/08 RMK AO2 T10671156
14926KSTC STC20191106184510611/06/19 18:45:31  5-MIN KSTC 070045Z 32007KT 10SM CLR M07/M16 A3050 500 49 -2000 320/07 RMK AO2 T10671156
14926KSTC STC20191106185011311/06/19 18:50:31  5-MIN KSTC 070050Z 32008KT 10SM CLR M07/M16 A3050 500 47 -2000 320/08 RMK AO2 SLP357 T10671161
14926KSTC STC20191106185510611/06/19 18:55:31  5-MIN KSTC 070055Z 32008KT 10SM CLR M07/M16 A3051 500 49 -2100 320/08 RMK AO2 T10721161
14926KSTC STC20191106190010611/06/19 19:00:31  5-MIN KSTC 070100Z 32007KT 10SM CLR M07/M16 A3051 500 49 -2100 320/07 RMK AO2 T10721161
14926KSTC STC20191106190510611/06/19 19:05:31  5-MIN KSTC 070105Z 32007KT 10SM CLR M08/M16 A3051 490 54 -2100 310/07 RMK AO2 T10781156
14926KSTC STC20191106191010611/06/19 19:10:31  5-MIN KSTC 070110Z 32008KT 10SM CLR M08/M16 A3051 490 54 -2100 310/08 RMK AO2 T10781156
14926KSTC STC20191106191510611/06/19 19:15:31  5-MIN KSTC 070115Z 32008KT 10SM CLR M08/M16 A3051 490 54 -2100 320/08 RMK AO2 T10781156
14926KSTC STC20191106192010611/06/19 19:20:31  5-MIN KSTC 070120Z 32008KT 10SM CLR M08/M16 A3052 490 54 -2100 310/08 RMK AO2 T10781156
14926KSTC STC20191106192510611/06/19 19:25:31  5-MIN KSTC 070125Z 32008KT 10SM CLR M08/M16 A3051 490 54 -2100 310/08 RMK AO2 T10781156
14926KSTC STC20191106193010611/06/19 19:30:31  5-MIN KSTC 070130Z 32010KT 10SM CLR M08/M16 A3052 490 51 -2100 320/10 RMK AO2 T10781161
14926KSTC STC20191106193510611/06/19 19:35:31  5-MIN KSTC 070135Z 32008KT 10SM CLR M08/M16 A3052 480 54 -2100 320/08 RMK AO2 T10781156
14926KSTC STC20191106194010611/06/19 19:40:31  5-MIN KSTC 070140Z 32009KT 10SM CLR M08/M16 A3052 480 54 -2100 310/09 RMK AO2 T10781156
14926KSTC STC20191106194510611/06/19 19:45:31  5-MIN KSTC 070145Z 31009KT 10SM CLR M08/M16 A3052 480 56 -2200 310/09 RMK AO2 T10831156
14926KSTC STC20191106195011311/06/19 19:50:31  5-MIN KSTC 070150Z 32009KT 10SM CLR M08/M16 A3052 480 56 -2200 310/09 RMK AO2 SLP363 T10831156
14926KSTC STC20191106195510611/06/19 19:55:31  5-MIN KSTC 070155Z 31009KT 10SM CLR M08/M16 A3052 480 56 -2200 310/09 RMK AO2 T10831156
14926KSTC STC20191106200010611/06/19 20:00:31  5-MIN KSTC 070200Z 32008KT 10SM CLR M08/M16 A3053 480 54 -2100 320/08 RMK AO2 T10781156
14926KSTC STC20191106200510611/06/19 20:05:31  5-MIN KSTC 070205Z 32009KT 10SM CLR M08/M16 A3053 480 54 -2100 320/09 RMK AO2 T10781156
14926KSTC STC20191106201010611/06/19 20:10:31  5-MIN KSTC 070210Z 32008KT 10SM CLR M08/M16 A3053 470 54 -2200 320/08 RMK AO2 T10781156
14926KSTC STC20191106201510611/06/19 20:15:31  5-MIN KSTC 070215Z 32009KT 10SM CLR M08/M16 A3053 470 54 -2200 320/09 RMK AO2 T10781156
14926KSTC STC20191106202010611/06/19 20:20:31  5-MIN KSTC 070220Z 32009KT 10SM CLR M08/M16 A3053 470 54 -2200 320/09 RMK AO2 T10781156
14926KSTC STC20191106202510611/06/19 20:25:31  5-MIN KSTC 070225Z 32007KT 10SM CLR M08/M16 A3053 470 56 -2200 320/07 RMK AO2 T10831156
14926KSTC STC20191106203010611/06/19 20:30:31  5-MIN KSTC 070230Z 32007KT 10SM CLR M08/M15 A3054 470 59 -2200 320/07 RMK AO2 T10831150
14926KSTC STC20191106203510611/06/19 20:35:31  5-MIN KSTC 070235Z 32006KT 10SM CLR M08/M16 A3054 470 56 -2200 320/06 RMK AO2 T10831156
14926KSTC STC20191106204010611/06/19 20:40:31  5-MIN KSTC 070240Z 32006KT 10SM CLR M08/M15 A3054 470 59 -2200 320/06 RMK AO2 T10831150
14926KSTC STC20191106204510611/06/19 20:45:31  5-MIN KSTC 070245Z 32006KT 10SM CLR M08/M15 A3054 470 59 -2200 320/06 RMK AO2 T10831150
14926KSTC STC20191106205011911/06/19 20:50:31  5-MIN KSTC 070250Z 32007KT 10SM CLR M08/M15 A3054 470 59 -2200 320/07 RMK AO2 SLP369 T10831150 53021
14926KSTC STC20191106205510611/06/19 20:55:31  5-MIN KSTC 070255Z 32007KT 10SM CLR M08/M15 A3054 470 59 -2200 320/07 RMK AO2 T10831150
14926KSTC STC20191106210010611/06/19 21:00:31  5-MIN KSTC 070300Z 33006KT 10SM CLR M08/M15 A3054 460 59 -2200 330/06 RMK AO2 T10831150
14926KSTC STC20191106210510611/06/19 21:05:31  5-MIN KSTC 070305Z 32006KT 10SM CLR M08/M15 A3054 460 59 -2200 320/06 RMK AO2 T10831150
14926KSTC STC20191106211010611/06/19 21:10:31  5-MIN KSTC 070310Z 33005KT 10SM CLR M08/M15 A3055 460 59 -2200 320/05 RMK AO2 T10831150
14926KSTC STC20191106211510611/06/19 21:15:31  5-MIN KSTC 070315Z 32006KT 10SM CLR M08/M15 A3055 460 59 -2200 320/06 RMK AO2 T10831150
14926KSTC STC20191106212010611/06/19 21:20:31  5-MIN KSTC 070320Z 32007KT 10SM CLR M08/M15 A3055 460 59 -2200 320/07 RMK AO2 T10831150
14926KSTC STC20191106212510611/06/19 21:25:31  5-MIN KSTC 070325Z 33006KT 10SM CLR M08/M15 A3055 460 59 -2200 320/06 RMK AO2 T10831150
14926KSTC STC20191106213010611/06/19 21:30:31  5-MIN KSTC 070330Z 32007KT 10SM CLR M08/M15 A3055 460 59 -2200 320/07 RMK AO2 T10831150
14926KSTC STC20191106213510611/06/19 21:35:31  5-MIN KSTC 070335Z 32006KT 10SM CLR M08/M15 A3055 460 59 -2200 320/06 RMK AO2 T10831150
14926KSTC STC20191106214010611/06/19 21:40:31  5-MIN KSTC 070340Z 32007KT 10SM CLR M08/M15 A3055 460 59 -2200 320/07 RMK AO2 T10831150
14926KSTC STC20191106214510611/06/19 21:45:31  5-MIN KSTC 070345Z 32007KT 10SM CLR M09/M15 A3055 460 61 -2300 320/07 RMK AO2 T10891150
14926KSTC STC20191106215011311/06/19 21:50:31  5-MIN KSTC 070350Z 32006KT 10SM CLR M09/M15 A3055 460 61 -2300 320/06 RMK AO2 SLP372 T10891150
14926KSTC STC20191106215510611/06/19 21:55:31  5-MIN KSTC 070355Z 32005KT 10SM CLR M09/M15 A3055 460 64 -2400 320/05 RMK AO2 T10941150
14926KSTC STC20191106220010611/06/19 22:00:31  5-MIN KSTC 070400Z 32006KT 10SM CLR M10/M15 A3055 460 67 -2500 320/06 RMK AO2 T11001150
14926KSTC STC20191106220510611/06/19 22:05:31  5-MIN KSTC 070405Z 31006KT 10SM CLR M10/M15 A3055 450 67 -2500 310/06 RMK AO2 T11001150
14926KSTC STC20191106221010611/06/19 22:10:31  5-MIN KSTC 070410Z 31006KT 10SM CLR M10/M15 A3055 460 67 -2500 310/06 RMK AO2 T11001150
14926KSTC STC20191106221510611/06/19 22:15:31  5-MIN KSTC 070415Z 32007KT 10SM CLR M10/M15 A3055 460 67 -2500 310/07 RMK AO2 T11001150
14926KSTC STC20191106222010611/06/19 22:20:31  5-MIN KSTC 070420Z 32007KT 10SM CLR M10/M15 A3055 460 67 -2500 320/07 RMK AO2 T11001150
14926KSTC STC20191106222510611/06/19 22:25:31  5-MIN KSTC 070425Z 32007KT 10SM CLR M10/M15 A3055 460 67 -2500 320/07 RMK AO2 T11001150
14926KSTC STC20191106223010611/06/19 22:30:31  5-MIN KSTC 070430Z 31007KT 10SM CLR M10/M15 A3054 460 67 -2500 310/07 RMK AO2 T11001150
14926KSTC STC20191106223510611/06/19 22:35:31  5-MIN KSTC 070435Z 32007KT 10SM CLR M10/M15 A3054 460 67 -2500 310/07 RMK AO2 T11001150
14926KSTC STC20191106224010611/06/19 22:40:31  5-MIN KSTC 070440Z 32007KT 10SM CLR M10/M15 A3054 460 67 -2500 310/07 RMK AO2 T11001150
14926KSTC STC20191106224510611/06/19 22:45:31  5-MIN KSTC 070445Z 31007KT 10SM CLR M11/M15 A3054 460 70 -2500 310/07 RMK AO2 T11061150
14926KSTC STC20191106225011311/06/19 22:50:31  5-MIN KSTC 070450Z 31007KT 10SM CLR M11/M15 A3054 470 70 -2500 310/07 RMK AO2 SLP370 T11061150
14926KSTC STC20191106225511111/06/19 22:55:31  5-MIN KSTC 070455Z AUTO 31007KT 10SM CLR M11/M15 A3054 470 70 -2500 310/07 RMK AO2 T11061150
14926KSTC STC20191106230011111/06/19 23:00:31  5-MIN KSTC 070500Z AUTO 31006KT 10SM CLR M11/M15 A3054 460 70 -2500 310/06 RMK AO2 T11061150
14926KSTC STC20191106230511111/06/19 23:05:31  5-MIN KSTC 070505Z AUTO 31006KT 10SM CLR M11/M15 A3054 470 70 -2500 310/06 RMK AO2 T11061150
14926KSTC STC20191106231011111/06/19 23:10:31  5-MIN KSTC 070510Z AUTO 32007KT 10SM CLR M10/M14 A3054 470 70 -2500 320/07 RMK AO2 T11001144
14926KSTC STC20191106231511111/06/19 23:15:31  5-MIN KSTC 070515Z AUTO 31006KT 10SM CLR M10/M14 A3054 470 70 -2500 310/06 RMK AO2 T11001144
14926KSTC STC20191106232011111/06/19 23:20:31  5-MIN KSTC 070520Z AUTO 32006KT 10SM CLR M10/M14 A3054 460 70 -2500 320/06 RMK AO2 T11001144
14926KSTC STC20191106232511111/06/19 23:25:31  5-MIN KSTC 070525Z AUTO 32007KT 10SM CLR M10/M14 A3054 460 70 -2500 320/07 RMK AO2 T11001144
14926KSTC STC20191106233011111/06/19 23:30:31  5-MIN KSTC 070530Z AUTO 32006KT 10SM CLR M10/M14 A3054 460 70 -2500 320/06 RMK AO2 T11001144
14926KSTC STC20191106233511111/06/19 23:35:31  5-MIN KSTC 070535Z AUTO 32006KT 10SM CLR M11/M14 A3054 460 73 -2500 320/06 RMK AO2 T11061144
14926KSTC STC20191106234011111/06/19 23:40:31  5-MIN KSTC 070540Z AUTO 31007KT 10SM CLR M10/M14 A3054 460 70 -2500 310/07 RMK AO2 T11001144
14926KSTC STC20191106234511111/06/19 23:45:31  5-MIN KSTC 070545Z AUTO 32007KT 10SM CLR M11/M14 A3054 460 73 -2500 320/07 RMK AO2 T11061144
14926KSTC STC20191106235014611/06/19 23:50:31  5-MIN KSTC 070550Z AUTO 32007KT 10SM CLR M11/M14 A3054 460 73 -2500 310/07 RMK AO2 SLP371 T11061144 11067 21106 410281106 51018
14926KSTC STC20191106235511111/06/19 23:55:31  5-MIN KSTC 070555Z AUTO 32006KT 10SM CLR M11/M14 A3054 460 73 -2500 310/06 RMK AO2 T11061144
14926KSTC STC20191107000011111/07/19 00:00:31  5-MIN KSTC 070600Z AUTO 31006KT 10SM CLR M11/M14 A3055 460 73 -2500 310/06 RMK AO2 T11061144
14926KSTC STC20191107000511111/07/19 00:05:31  5-MIN KSTC 070605Z AUTO 31006KT 10SM CLR M11/M14 A3055 460 77 -2600 310/06 RMK AO2 T11111144
14926KSTC STC20191107001011111/07/19 00:10:31  5-MIN KSTC 070610Z AUTO 31006KT 10SM CLR M11/M14 A3055 460 77 -2600 310/06 RMK AO2 T11111144
14926KSTC STC20191107001511111/07/19 00:15:31  5-MIN KSTC 070615Z AUTO 31007KT 10SM CLR M12/M14 A3055 450 80 -2700 310/07 RMK AO2 T11171144
14926KSTC STC20191107002011111/07/19 00:20:31  5-MIN KSTC 070620Z AUTO 31007KT 10SM CLR M12/M14 A3055 460 80 -2700 310/07 RMK AO2 T11171144
14926KSTC STC20191107002511111/07/19 00:25:31  5-MIN KSTC 070625Z AUTO 32006KT 10SM CLR M11/M14 A3055 460 77 -2600 320/06 RMK AO2 T11111144
14926KSTC STC20191107003011111/07/19 00:30:31  5-MIN KSTC 070630Z AUTO 32005KT 10SM CLR M11/M14 A3055 450 73 -2500 320/05 RMK AO2 T11061144
14926KSTC STC20191107003511111/07/19 00:35:31  5-MIN KSTC 070635Z AUTO 31006KT 10SM CLR M11/M14 A3055 450 77 -2600 310/06 RMK AO2 T11111144
14926KSTC STC20191107004011111/07/19 00:40:31  5-MIN KSTC 070640Z AUTO 31007KT 10SM CLR M11/M14 A3055 460 77 -2600 310/07 RMK AO2 T11111144
14926KSTC STC20191107004511111/07/19 00:45:31  5-MIN KSTC 070645Z AUTO 31007KT 10SM CLR M11/M14 A3055 450 77 -2600 310/07 RMK AO2 T11111144
14926KSTC STC20191107005011811/07/19 00:50:31  5-MIN KSTC 070650Z AUTO 31006KT 10SM CLR M11/M14 A3055 450 77 -2600 310/06 RMK AO2 SLP375 T11111144
14926KSTC STC20191107005511111/07/19 00:55:31  5-MIN KSTC 070655Z AUTO 31006KT 10SM CLR M12/M14 A3055 460 80 -2700 310/06 RMK AO2 T11171144
14926KSTC STC20191107010011111/07/19 01:00:31  5-MIN KSTC 070700Z AUTO 31005KT 10SM CLR M12/M14 A3055 460 80 -2700 310/05 RMK AO2 T11171144
14926KSTC STC20191107010511111/07/19 01:05:31  5-MIN KSTC 070705Z AUTO 30005KT 10SM CLR M11/M14 A3054 460 77 -2600 300/05 RMK AO2 T11111144
14926KSTC STC20191107011011111/07/19 01:10:31  5-MIN KSTC 070710Z AUTO 31005KT 10SM CLR M11/M14 A3054 460 77 -2600 310/05 RMK AO2 T11111144
14926KSTC STC20191107011511111/07/19 01:15:31  5-MIN KSTC 070715Z AUTO 31005KT 10SM CLR M11/M14 A3054 460 77 -2600 310/05 RMK AO2 T11111144
14926KSTC STC20191107012011111/07/19 01:20:31  5-MIN KSTC 070720Z AUTO 31004KT 10SM CLR M11/M14 A3054 460 77 -2600 300/04 RMK AO2 T11111144
14926KSTC STC20191107012511111/07/19 01:25:31  5-MIN KSTC 070725Z AUTO 31004KT 10SM CLR M12/M14 A3054 460 80 -2700 310/04 RMK AO2 T11171144
14926KSTC STC20191107013011111/07/19 01:30:31  5-MIN KSTC 070730Z AUTO 33003KT 10SM CLR M11/M14 A3054 460 77 -2500 330/03 RMK AO2 T11061139
14926KSTC STC20191107013511111/07/19 01:35:31  5-MIN KSTC 070735Z AUTO 33004KT 10SM CLR M11/M14 A3054 460 77 -2500 330/04 RMK AO2 T11061139
14926KSTC STC20191107014011111/07/19 01:40:31  5-MIN KSTC 070740Z AUTO 33004KT 10SM CLR M11/M14 A3054 460 77 -2500 330/04 RMK AO2 T11061139
14926KSTC STC20191107014511111/07/19 01:45:31  5-MIN KSTC 070745Z AUTO 32004KT 10SM CLR M11/M14 A3054 460 77 -2500 320/04 RMK AO2 T11061139
14926KSTC STC20191107015011811/07/19 01:50:31  5-MIN KSTC 070750Z AUTO 31003KT 10SM CLR M11/M14 A3054 460 77 -2600 310/03 RMK AO2 SLP371 T11111144
14926KSTC STC20191107015511111/07/19 01:55:31  5-MIN KSTC 070755Z AUTO 00000KT 10SM CLR M11/M14 A3054 460 80 -2600 000/00 RMK AO2 T11111139
14926KSTC STC20191107020011111/07/19 02:00:31  5-MIN KSTC 070800Z AUTO 32003KT 10SM CLR M11/M14 A3054 460 80 -2600 320/03 RMK AO2 T11111139
14926KSTC STC20191107020511111/07/19 02:05:31  5-MIN KSTC 070805Z AUTO 00000KT 10SM CLR M11/M14 A3054 460 77 -2600 000/00 RMK AO2 T11111144
14926KSTC STC20191107021011111/07/19 02:10:31  5-MIN KSTC 070810Z AUTO 31003KT 10SM CLR M11/M14 A3054 460 80 -2600 310/03 RMK AO2 T11111139
14926KSTC STC20191107021511111/07/19 02:15:31  5-MIN KSTC 070815Z AUTO 31004KT 10SM CLR M12/M14 A3054 460 80 -2700 310/04 RMK AO2 T11171144
14926KSTC STC20191107022011111/07/19 02:20:31  5-MIN KSTC 070820Z AUTO 31004KT 10SM CLR M12/M14 A3054 460 80 -2700 310/04 RMK AO2 T11171144
14926KSTC STC20191107022511111/07/19 02:25:31  5-MIN KSTC 070825Z AUTO 30004KT 10SM CLR M11/M14 A3054 460 80 -2600 300/04 RMK AO2 T11111139
14926KSTC STC20191107023011111/07/19 02:30:31  5-MIN KSTC 070830Z AUTO 30005KT 10SM CLR M12/M14 A3054 460 80 -2700 300/05 RMK AO2 T11171144
14926KSTC STC20191107023511111/07/19 02:35:31  5-MIN KSTC 070835Z AUTO 30005KT 10SM CLR M12/M14 A3054 460 80 -2700 290/05 RMK AO2 T11171144
14926KSTC STC20191107024011111/07/19 02:40:31  5-MIN KSTC 070840Z AUTO 30005KT 10SM CLR M12/M14 A3054 460 80 -2700 300/05 RMK AO2 T11171144
14926KSTC STC20191107024511111/07/19 02:45:31  5-MIN KSTC 070845Z AUTO 30005KT 10SM CLR M12/M14 A3054 460 80 -2700 300/05 RMK AO2 T11171144
14926KSTC STC20191107025012411/07/19 02:50:31  5-MIN KSTC 070850Z AUTO 29004KT 10SM CLR M12/M15 A3054 460 76 -2700 290/04 RMK AO2 SLP372 T11171150 51001
14926KSTC STC20191107025511111/07/19 02:55:31  5-MIN KSTC 070855Z AUTO 29004KT 10SM CLR M12/M14 A3054 460 80 -2700 290/04 RMK AO2 T11171144
14926KSTC STC20191107030011111/07/19 03:00:31  5-MIN KSTC 070900Z AUTO 29004KT 10SM CLR M12/M15 A3054 460 76 -2700 280/04 RMK AO2 T11171150
14926KSTC STC20191107030511111/07/19 03:05:31  5-MIN KSTC 070905Z AUTO 29004KT 10SM CLR M12/M14 A3054 460 80 -2700 290/04 RMK AO2 T11171144
14926KSTC STC20191107031011111/07/19 03:10:31  5-MIN KSTC 070910Z AUTO 29004KT 10SM CLR M12/M15 A3054 470 76 -2700 290/04 RMK AO2 T11171150
14926KSTC STC20191107031511111/07/19 03:15:31  5-MIN KSTC 070915Z AUTO 28005KT 10SM CLR M12/M14 A3054 460 80 -2700 280/05 RMK AO2 T11171144
14926KSTC STC20191107032011111/07/19 03:20:31  5-MIN KSTC 070920Z AUTO 28005KT 10SM CLR M12/M15 A3054 460 80 -2800 280/05 RMK AO2 T11221150
14926KSTC STC20191107032511111/07/19 03:25:31  5-MIN KSTC 070925Z AUTO 28004KT 10SM CLR M12/M14 A3054 470 80 -2700 280/04 RMK AO2 T11171144
14926KSTC STC20191107033011111/07/19 03:30:31  5-MIN KSTC 070930Z AUTO 29004KT 10SM CLR M12/M14 A3054 470 80 -2700 290/04 RMK AO2 T11171144
14926KSTC STC20191107033511111/07/19 03:35:31  5-MIN KSTC 070935Z AUTO 29005KT 10SM CLR M12/M14 A3054 470 80 -2700 290/05 RMK AO2 T11171144
14926KSTC STC20191107034011111/07/19 03:40:31  5-MIN KSTC 070940Z AUTO 29004KT 10SM CLR M12/M14 A3053 470 80 -2700 290/04 RMK AO2 T11171144
14926KSTC STC20191107034511111/07/19 03:45:31  5-MIN KSTC 070945Z AUTO 30004KT 10SM CLR M12/M14 A3053 470 80 -2700 300/04 RMK AO2 T11171144
14926KSTC STC20191107035011811/07/19 03:50:31  5-MIN KSTC 070950Z AUTO 30004KT 10SM CLR M11/M14 A3053 470 80 -2600 300/04 RMK AO2 SLP370 T11111139
14926KSTC STC20191107035511111/07/19 03:55:31  5-MIN KSTC 070955Z AUTO 30004KT 10SM CLR M11/M14 A3053 470 80 -2600 300/04 RMK AO2 T11111139
14926KSTC STC20191107040011111/07/19 04:00:31  5-MIN KSTC 071000Z AUTO 30004KT 10SM CLR M11/M14 A3053 470 80 -2600 300/04 RMK AO2 T11111139
14926KSTC STC20191107040511111/07/19 04:05:31  5-MIN KSTC 071005Z AUTO 30003KT 10SM CLR M11/M14 A3053 470 80 -2600 300/03 RMK AO2 T11111139
14926KSTC STC20191107041011111/07/19 04:10:31  5-MIN KSTC 071010Z AUTO 30003KT 10SM CLR M11/M14 A3053 470 80 -2600 300/03 RMK AO2 T11111139
14926KSTC STC20191107041511111/07/19 04:15:31  5-MIN KSTC 071015Z AUTO 29003KT 10SM CLR M11/M14 A3053 470 80 -2600 290/03 RMK AO2 T11111139
14926KSTC STC20191107042011111/07/19 04:20:31  5-MIN KSTC 071020Z AUTO 00000KT 10SM CLR M12/M14 A3053 470 84 -2700 000/00 RMK AO2 T11171139
14926KSTC STC20191107042511111/07/19 04:25:31  5-MIN KSTC 071025Z AUTO 00000KT 10SM CLR M12/M14 A3053 470 84 -2700 000/00 RMK AO2 T11221144
14926KSTC STC20191107043011111/07/19 04:30:31  5-MIN KSTC 071030Z AUTO 00000KT 10SM CLR M12/M14 A3053 470 80 -2700 000/00 RMK AO2 T11171144
14926KSTC STC20191107043511111/07/19 04:35:31  5-MIN KSTC 071035Z AUTO 00000KT 10SM CLR M12/M14 A3053 470 80 -2700 000/00 RMK AO2 T11171144
14926KSTC STC20191107044011111/07/19 04:40:31  5-MIN KSTC 071040Z AUTO 00000KT 10SM CLR M12/M14 A3053 470 80 -2700 000/00 RMK AO2 T11171144
14926KSTC STC20191107044511111/07/19 04:45:31  5-MIN KSTC 071045Z AUTO 00000KT 10SM CLR M12/M14 A3053 470 80 -2700 000/00 RMK AO2 T11171144
14926KSTC STC20191107045011811/07/19 04:50:31  5-MIN KSTC 071050Z AUTO 00000KT 10SM CLR M11/M14 A3053 470 77 -2600 000/00 RMK AO2 SLP370 T11111144
14926KSTC STC20191107045511111/07/19 04:55:31  5-MIN KSTC 071055Z AUTO 00000KT 10SM CLR M11/M14 A3053 470 77 -2600 000/00 RMK AO2 T11111144
14926KSTC STC20191107050011111/07/19 05:00:31  5-MIN KSTC 071100Z AUTO 25003KT 10SM CLR M12/M14 A3053 470 80 -2700 250/03 RMK AO2 T11171144
14926KSTC STC20191107050511111/07/19 05:05:31  5-MIN KSTC 071105Z AUTO 00000KT 10SM CLR M12/M14 A3053 470 80 -2700 000/00 RMK AO2 T11171144
14926KSTC STC20191107051011111/07/19 05:10:31  5-MIN KSTC 071110Z AUTO 00000KT 10SM CLR M12/M14 A3053 470 84 -2700 000/00 RMK AO2 T11221144
14926KSTC STC20191107051511411/07/19 05:15:31  5-MIN KSTC 071115Z AUTO 00000KT 10SM FEW040 M12/M14 A3053 470 80 -2700 000/00 RMK AO2 T11171144
14926KSTC STC20191107052011411/07/19 05:20:31  5-MIN KSTC 071120Z AUTO 00000KT 10SM FEW040 M12/M14 A3053 470 84 -2700 000/00 RMK AO2 T11171139
14926KSTC STC20191107052511411/07/19 05:25:31  5-MIN KSTC 071125Z AUTO 00000KT 10SM SCT040 M12/M14 A3053 470 80 -2700 000/00 RMK AO2 T11171144
14926KSTC STC20191107053011411/07/19 05:30:31  5-MIN KSTC 071130Z AUTO 00000KT 10SM SCT040 M12/M14 A3053 470 80 -2700 000/00 RMK AO2 T11171144
14926KSTC STC20191107053511411/07/19 05:35:31  5-MIN KSTC 071135Z AUTO 00000KT 10SM SCT040 M12/M14 A3053 470 84 -2700 000/00 RMK AO2 T11171139
14926KSTC STC20191107054011411/07/19 05:40:31  5-MIN KSTC 071140Z AUTO 00000KT 10SM SCT040 M12/M14 A3053 470 84 -2700 000/00 RMK AO2 T11171139
14926KSTC STC20191107054511411/07/19 05:45:31  5-MIN KSTC 071145Z AUTO 00000KT 10SM SCT040 M12/M14 A3053 470 84 -2700 000/00 RMK AO2 T11171139
14926KSTC STC20191107055013911/07/19 05:50:31  5-MIN KSTC 071150Z AUTO 00000KT 10SM SCT040 M12/M14 A3053 470 84 -2700 000/00 RMK AO2 SLP371 T11171139 11106 21122 50000
14926KSTC STC20191107055511411/07/19 05:55:31  5-MIN KSTC 071155Z AUTO 00000KT 10SM SCT040 M12/M14 A3053 470 84 -2700 000/00 RMK AO2 T11171139
14926KSTC STC20191107060011411/07/19 06:00:31  5-MIN KSTC 071200Z AUTO 00000KT 10SM FEW039 M12/M14 A3054 470 84 -2700 000/00 RMK AO2 T11171139
14926KSTC STC20191107060511411/07/19 06:05:31  5-MIN KSTC 071205Z AUTO 00000KT 10SM FEW039 M12/M14 A3054 470 84 -2700 000/00 RMK AO2 T11171139
14926KSTC STC20191107061011411/07/19 06:10:31  5-MIN KSTC 071210Z AUTO 00000KT 10SM FEW039 M12/M14 A3053 470 84 -2700 000/00 RMK AO2 T11171139
14926KSTC STC20191107061511411/07/19 06:15:31  5-MIN KSTC 071215Z AUTO 00000KT 10SM FEW039 M12/M14 A3053 470 84 -2700 000/00 RMK AO2 T11171139
14926KSTC STC20191107062011411/07/19 06:20:31  5-MIN KSTC 071220Z AUTO 00000KT 10SM SCT039 M12/M14 A3053 470 87 -2700 000/00 RMK AO2 T11221139
14926KSTC STC20191107062511411/07/19 06:25:31  5-MIN KSTC 071225Z AUTO 18003KT 10SM BKN039 M13/M14 A3053 470 87 -2800 180/03 RMK AO2 T11281144
14926KSTC STC20191107063011411/07/19 06:30:31  5-MIN KSTC 071230Z AUTO 00000KT 10SM BKN038 M12/M14 A3053 470 87 -2700 000/00 RMK AO2 T11221139
14926KSTC STC20191107063511511/07/19 06:35:31  5-MIN KSTC 071235Z 00000KT 10SM SCT038 M12/M13 A3053 470 87 -2700 000/00 RMK AO2 I1000 T11171133
14926KSTC STC20191107064011511/07/19 06:40:31  5-MIN KSTC 071240Z 00000KT 10SM SCT038 M12/M13 A3053 470 87 -2700 000/00 RMK AO2 I1000 T11171133
14926KSTC STC20191107064511511/07/19 06:45:31  5-MIN KSTC 071245Z 21003KT 10SM SCT038 M12/M13 A3053 470 87 -2700 210/03 RMK AO2 I1000 T11171133
14926KSTC STC20191107065012211/07/19 06:50:31  5-MIN KSTC 071250Z 00000KT 10SM FEW038 M12/M14 A3053 470 87 -2700 000/00 RMK AO2 SLP371 I1000 T11221139
14926KSTC STC20191107065510911/07/19 06:55:31  5-MIN KSTC 071255Z 00000KT 10SM FEW038 M12/M14 A3053 470 84 -2700 000/00 RMK AO2 T11221144
14926KSTC STC20191107070010611/07/19 07:00:31  5-MIN KSTC 071300Z 00000KT 10SM CLR M12/M14 A3053 470 84 -2700 000/00 RMK AO2 T11221144
14926KSTC STC20191107070510611/07/19 07:05:31  5-MIN KSTC 071305Z 24003KT 10SM CLR M12/M14 A3053 470 84 -2700 240/03 RMK AO2 T11221144
14926KSTC STC20191107071010611/07/19 07:10:31  5-MIN KSTC 071310Z 23003KT 10SM CLR M12/M14 A3053 470 87 -2700 230/03 RMK AO2 T11221139
14926KSTC STC20191107071510611/07/19 07:15:31  5-MIN KSTC 071315Z 00000KT 10SM CLR M13/M14 A3053 470 87 -2800 000/00 RMK AO2 T11281144
14926KSTC STC20191107072010611/07/19 07:20:31  5-MIN KSTC 071320Z 00000KT 10SM CLR M12/M14 A3053 470 87 -2700 000/00 RMK AO2 T11221139
14926KSTC STC20191107072510611/07/19 07:25:31  5-MIN KSTC 071325Z 18003KT 10SM CLR M12/M13 A3053 470 87 -2700 170/03 RMK AO2 T11171133
14926KSTC STC20191107073010611/07/19 07:30:31  5-MIN KSTC 071330Z 00000KT 10SM CLR M12/M13 A3053 470 87 -2700 000/00 RMK AO2 T11171133
14926KSTC STC20191107073510611/07/19 07:35:31  5-MIN KSTC 071335Z 19003KT 10SM CLR M12/M13 A3054 470 87 -2700 190/03 RMK AO2 T11171133
14926KSTC STC20191107074010611/07/19 07:40:31  5-MIN KSTC 071340Z 00000KT 10SM CLR M12/M13 A3054 470 87 -2700 000/00 RMK AO2 T11171133
14926KSTC STC20191107074510611/07/19 07:45:31  5-MIN KSTC 071345Z 00000KT 10SM CLR M12/M13 A3054 470 87 -2700 000/00 RMK AO2 T11171133
14926KSTC STC20191107075011311/07/19 07:50:31  5-MIN KSTC 071350Z 23003KT 10SM CLR M12/M13 A3054 470 87 -2700 230/03 RMK AO2 SLP372 T11171133
14926KSTC STC20191107075510611/07/19 07:55:31  5-MIN KSTC 071355Z 00000KT 10SM CLR M11/M13 A3054 470 84 -2600 000/00 RMK AO2 T11111133
14926KSTC STC20191107080010611/07/19 08:00:31  5-MIN KSTC 071400Z 25004KT 10SM CLR M11/M13 A3054 470 84 -2500 250/04 RMK AO2 T11061128
14926KSTC STC20191107080510611/07/19 08:05:31  5-MIN KSTC 071405Z 25005KT 10SM CLR M10/M12 A3054 470 84 -2500 250/05 RMK AO2 T11001122
14926KSTC STC20191107081010611/07/19 08:10:31  5-MIN KSTC 071410Z 25004KT 10SM CLR M10/M12 A3054 460 84 -2500 250/04 RMK AO2 T11001122
14926KSTC STC20191107081510611/07/19 08:15:31  5-MIN KSTC 071415Z 24004KT 10SM CLR M09/M12 A3054 460 80 -2400 240/04 RMK AO2 T10941122
14926KSTC STC20191107082010611/07/19 08:20:31  5-MIN KSTC 071420Z 26006KT 10SM CLR M09/M12 A3054 460 84 -2400 250/06 RMK AO2 T10941117
14926KSTC STC20191107082510611/07/19 08:25:31  5-MIN KSTC 071425Z 26007KT 10SM CLR M09/M12 A3054 460 84 -2400 260/07 RMK AO2 T10941117
14926KSTC STC20191107083010611/07/19 08:30:31  5-MIN KSTC 071430Z 26006KT 10SM CLR M09/M12 A3054 460 80 -2400 260/06 RMK AO2 T10941122
14926KSTC STC20191107083510611/07/19 08:35:31  5-MIN KSTC 071435Z 25006KT 10SM CLR M09/M12 A3054 460 84 -2400 250/06 RMK AO2 T10941117
14926KSTC STC20191107084010611/07/19 08:40:31  5-MIN KSTC 071440Z 27004KT 10SM CLR M09/M12 A3055 460 84 -2400 270/04 RMK AO2 T10941117
14926KSTC STC20191107084510611/07/19 08:45:31  5-MIN KSTC 071445Z 27004KT 10SM CLR M09/M12 A3055 460 80 -2300 270/04 RMK AO2 T10891117
14926KSTC STC20191107085012511/07/19 08:50:31  5-MIN KSTC 071450Z 27006KT 10SM CLR M09/M12 A3054 460 80 -2300 270/06 RMK AO2 SLP374 I3/// T10891117 55003
14926KSTC STC20191107085510611/07/19 08:55:31  5-MIN KSTC 071455Z 28004KT 10SM CLR M09/M12 A3054 460 80 -2300 280/04 RMK AO2 T10891117
14926KSTC STC20191107090010611/07/19 09:00:31  5-MIN KSTC 071500Z 28007KT 10SM CLR M08/M12 A3054 460 77 -2200 280/07 RMK AO2 T10831117
14926KSTC STC20191107090510611/07/19 09:05:31  5-MIN KSTC 071505Z 28006KT 10SM CLR M08/M12 A3054 460 77 -2200 280/06 RMK AO2 T10831117
14926KSTC STC20191107091010611/07/19 09:10:31  5-MIN KSTC 071510Z 29007KT 10SM CLR M08/M12 A3054 460 77 -2200 280/07 RMK AO2 T10831117
14926KSTC STC20191107091510611/07/19 09:15:31  5-MIN KSTC 071515Z 27006KT 10SM CLR M08/M11 A3054 470 77 -2200 270/06 RMK AO2 T10781111
14926KSTC STC20191107092010611/07/19 09:20:31  5-MIN KSTC 071520Z 27007KT 10SM CLR M08/M11 A3054 470 77 -2200 260/07 RMK AO2 T10781111
14926KSTC STC20191107092510611/07/19 09:25:31  5-MIN KSTC 071525Z 28007KT 10SM CLR M08/M11 A3054 470 77 -2200 270/07 RMK AO2 T10781111
14926KSTC STC20191107093010611/07/19 09:30:31  5-MIN KSTC 071530Z 29008KT 10SM CLR M07/M11 A3054 470 74 -2100 290/08 RMK AO2 T10721111
14926KSTC STC20191107093510611/07/19 09:35:31  5-MIN KSTC 071535Z 29007KT 10SM CLR M08/M11 A3054 470 77 -2200 290/07 RMK AO2 T10781111
14926KSTC STC20191107094010611/07/19 09:40:31  5-MIN KSTC 071540Z 27007KT 10SM CLR M07/M11 A3054 470 74 -2100 270/07 RMK AO2 T10721111
14926KSTC STC20191107094510611/07/19 09:45:31  5-MIN KSTC 071545Z 28007KT 10SM CLR M07/M12 A3054 470 71 -2100 280/07 RMK AO2 T10721117
14926KSTC STC20191107095011611/07/19 09:50:31  5-MIN KSTC 071550Z 30005KT 10SM FEW017 M07/M12 A3054 470 71 -2100 300/05 RMK AO2 SLP370 T10721117
14926KSTC STC20191107095510911/07/19 09:55:31  5-MIN KSTC 071555Z 30005KT 10SM FEW017 M07/M12 A3054 470 71 -2100 300/05 RMK AO2 T10721117
14926KSTC STC20191107100010911/07/19 10:00:31  5-MIN KSTC 071600Z 31007KT 10SM FEW017 M07/M12 A3053 470 68 -2000 310/07 RMK AO2 T10671117
14926KSTC STC20191107100510911/07/19 10:05:31  5-MIN KSTC 071605Z 30006KT 10SM SCT019 M06/M11 A3053 470 68 -1900 300/06 RMK AO2 T10611111
14926KSTC STC20191107101010911/07/19 10:10:31  5-MIN KSTC 071610Z 28007KT 10SM BKN019 M07/M12 A3053 470 68 -2000 280/07 RMK AO2 T10671117
14926KSTC STC20191107101510911/07/19 10:15:31  5-MIN KSTC 071615Z 31005KT 10SM SCT019 M07/M12 A3053 470 68 -2100 310/05 RMK AO2 T10721122
14926KSTC STC20191107102010911/07/19 10:20:31  5-MIN KSTC 071620Z 31009KT 10SM SCT019 M07/M12 A3053 470 68 -2000 310/09 RMK AO2 T10671117
14926KSTC STC20191107102510911/07/19 10:25:31  5-MIN KSTC 071625Z 29009KT 10SM SCT019 M07/M12 A3053 470 65 -2000 290/09 RMK AO2 T10671122
14926KSTC STC20191107103010911/07/19 10:30:31  5-MIN KSTC 071630Z 31007KT 10SM SCT019 M07/M12 A3053 470 65 -2000 310/07 RMK AO2 T10671122
14926KSTC STC20191107103510911/07/19 10:35:31  5-MIN KSTC 071635Z 31008KT 10SM SCT019 M06/M12 A3053 470 62 -1900 310/08 RMK AO2 T10611122
14926KSTC STC20191107104010911/07/19 10:40:31  5-MIN KSTC 071640Z 31007KT 10SM SCT019 M06/M12 A3053 470 62 -1900 310/07 RMK AO2 T10611122
14926KSTC STC20191107104510911/07/19 10:45:31  5-MIN KSTC 071645Z 29008KT 10SM SCT019 M06/M13 A3053 480 57 -1900 290/08 RMK AO2 T10561128
14926KSTC STC20191107105011611/07/19 10:50:31  5-MIN KSTC 071650Z 30007KT 10SM SCT019 M06/M13 A3053 480 59 -1900 290/07 RMK AO2 SLP368 T10611128
14926KSTC STC20191107105510911/07/19 10:55:31  5-MIN KSTC 071655Z 30006KT 10SM BKN028 M06/M13 A3053 480 57 -1900 300/06 RMK AO2 T10561128
14926KSTC STC20191107110010911/07/19 11:00:31  5-MIN KSTC 071700Z 29008KT 10SM BKN026 M06/M13 A3052 480 57 -1900 290/08 RMK AO2 T10561128
14926KSTC STC20191107110510911/07/19 11:05:31  5-MIN KSTC 071705Z 30007KT 10SM BKN026 M06/M13 A3052 480 54 -1900 300/07 RMK AO2 T10561133
14926KSTC STC20191107111010911/07/19 11:10:31  5-MIN KSTC 071710Z VRB06KT 10SM OVC028 M06/M13 A3052 480 54 -1900 VRB/06 RMK AO2 T10561133
14926KSTC STC20191107111510911/07/19 11:15:31  5-MIN KSTC 071715Z 24007KT 10SM OVC028 M06/M14 A3052 480 52 -1900 240/07 RMK AO2 T10561139
14926KSTC STC20191107112010911/07/19 11:20:31  5-MIN KSTC 071720Z 25010KT 10SM OVC028 M06/M14 A3052 480 52 -1900 250/10 RMK AO2 T10561139
14926KSTC STC20191107112510911/07/19 11:25:31  5-MIN KSTC 071725Z 24007KT 10SM OVC029 M07/M14 A3052 490 57 -2000 230/07 RMK AO2 T10671139
14926KSTC STC20191107113010911/07/19 11:30:31  5-MIN KSTC 071730Z 22004KT 10SM OVC029 M07/M14 A3051 490 57 -2000 220/04 RMK AO2 T10671139
14926KSTC STC20191107113510911/07/19 11:35:31  5-MIN KSTC 071735Z VRB04KT 10SM BKN029 M07/M14 A3051 490 57 -2000 VRB/04 RMK AO2 T10671139
14926KSTC STC20191107114010911/07/19 11:40:31  5-MIN KSTC 071740Z 28006KT 10SM BKN031 M07/M14 A3051 490 57 -2000 280/06 RMK AO2 T10671139
14926KSTC STC20191107114510911/07/19 11:45:31  5-MIN KSTC 071745Z 29009KT 10SM BKN031 M07/M14 A3051 490 54 -2000 290/09 RMK AO2 T10671144
14926KSTC STC20191107115014011/07/19 11:50:31  5-MIN KSTC 071750Z 30008KT 10SM SCT031 M07/M14 A3050 500 54 -2000 290/08 RMK AO2 SLP360 I6000 T10671144 11056 21128 53003
14926KSTC STC20191107115510911/07/19 11:55:31  5-MIN KSTC 071755Z 28007KT 10SM BKN034 M06/M14 A3050 500 52 -1900 280/07 RMK AO2 T10611144
14926KSTC STC20191107120010911/07/19 12:00:31  5-MIN KSTC 071800Z 28008KT 10SM BKN034 M06/M14 A3050 500 52 -1900 280/08 RMK AO2 T10611144
14926KSTC STC20191107120510911/07/19 12:05:31  5-MIN KSTC 071805Z 28008KT 10SM BKN036 M06/M14 A3050 500 52 -1900 280/08 RMK AO2 T10611144
14926KSTC STC20191107121010911/07/19 12:10:31  5-MIN KSTC 071810Z 28007KT 10SM SCT036 M06/M14 A3050 510 54 -1900 280/07 RMK AO2 T10611139
14926KSTC STC20191107121510911/07/19 12:15:31  5-MIN KSTC 071815Z 28009KT 10SM SCT038 M06/M14 A3049 510 52 -1900 280/09 RMK AO2 T10611144
14926KSTC STC20191107122010911/07/19 12:20:31  5-MIN KSTC 071820Z 26010KT 10SM SCT036 M06/M14 A3049 510 50 -1800 260/10 RMK AO2 T10561144
14926KSTC STC20191107122510911/07/19 12:25:31  5-MIN KSTC 071825Z 27008KT 10SM FEW036 M06/M14 A3049 510 50 -1800 270/08 RMK AO2 T10561144
14926KSTC STC20191107123010911/07/19 12:30:31  5-MIN KSTC 071830Z 25011KT 10SM FEW038 M05/M14 A3048 520 48 -1700 250/11 RMK AO2 T10501144
14926KSTC STC20191107123510611/07/19 12:35:31  5-MIN KSTC 071835Z 26009KT 10SM CLR M05/M14 A3048 520 48 -1700 250/09 RMK AO2 T10501144
14926KSTC STC20191107124012511/07/19 12:40:31  5-MIN KSTC 071840Z 26008KT 240V300 10SM FEW035 M05/M14 A3048 520 50 -1700 260/08 240V300 RMK AO2 T10501139
14926KSTC STC20191107124511511/07/19 12:45:31  5-MIN KSTC 071845Z 29011G23KT 10SM FEW035 M04/M14 A3048 520 46 -1700 290/11G23 RMK AO2 T10441144
14926KSTC STC20191107125012211/07/19 12:50:31  5-MIN KSTC 071850Z 27009G23KT 10SM FEW035 M05/M15 A3048 520 46 -1700 260/09G23 RMK AO2 SLP350 T10501150
14926KSTC STC20191107125510911/07/19 12:55:31  5-MIN KSTC 071855Z 29009KT 10SM FEW035 M06/M15 A3047 520 48 -1800 290/09 RMK AO2 T10561150
14926KSTC STC20191107130010911/07/19 13:00:31  5-MIN KSTC 071900Z 31006KT 10SM FEW037 M06/M14 A3047 530 50 -1800 310/06 RMK AO2 T10561144
14926KSTC STC20191107130510911/07/19 13:05:31  5-MIN KSTC 071905Z VRB05KT 10SM SCT037 M05/M14 A3047 530 48 -1700 VRB/05 RMK AO2 T10501144
14926KSTC STC20191107131013111/07/19 13:10:31  5-MIN KSTC 071910Z 29009G20KT 250V310 10SM FEW037 M04/M14 A3047 530 46 -1700 280/09G20 250V310 RMK AO2 T10441144
14926KSTC STC20191107131511511/07/19 13:15:31  5-MIN KSTC 071915Z 28008G20KT 10SM FEW037 M04/M15 A3047 530 44 -1700 280/08G20 RMK AO2 T10441150
14926KSTC STC20191107132011511/07/19 13:20:31  5-MIN KSTC 071920Z 28011G18KT 10SM FEW038 M05/M14 A3047 530 48 -1700 280/11G18 RMK AO2 T10501144
14926KSTC STC20191107132510911/07/19 13:25:31  5-MIN KSTC 071925Z 27009KT 10SM FEW038 M04/M14 A3047 530 46 -1600 270/09 RMK AO2 T10441144
14926KSTC STC20191107133010911/07/19 13:30:31  5-MIN KSTC 071930Z 30007KT 10SM FEW038 M04/M14 A3046 530 46 -1600 300/07 RMK AO2 T10441144
14926KSTC STC20191107133510911/07/19 13:35:31  5-MIN KSTC 071935Z 26009KT 10SM SCT038 M04/M14 A3046 530 46 -1600 260/09 RMK AO2 T10441144
14926KSTC STC20191107134010911/07/19 13:40:31  5-MIN KSTC 071940Z 28010KT 10SM SCT038 M04/M15 A3046 540 44 -1600 270/10 RMK AO2 T10441150
14926KSTC STC20191107134511511/07/19 13:45:31  5-MIN KSTC 071945Z VRB06G16KT 10SM SCT040 M04/M14 A3046 540 46 -1600 VRB/06G16 RMK AO2 T10441144
14926KSTC STC20191107135011611/07/19 13:50:31  5-MIN KSTC 071950Z 32012KT 10SM SCT040 M04/M15 A3046 540 44 -1600 310/12 RMK AO2 SLP344 T10441150
14926KSTC STC20191107135510911/07/19 13:55:31  5-MIN KSTC 071955Z 32009KT 10SM SCT040 M05/M15 A3046 540 46 -1700 320/09 RMK AO2 T10501150
14926KSTC STC20191107140010911/07/19 14:00:31  5-MIN KSTC 072000Z 29009KT 10SM FEW040 M05/M15 A3046 540 46 -1700 290/09 RMK AO2 T10501150
14926KSTC STC20191107140510911/07/19 14:05:31  5-MIN KSTC 072005Z 31011KT 10SM FEW040 M05/M15 A3046 540 46 -1700 310/11 RMK AO2 T10501150
14926KSTC STC20191107141010911/07/19 14:10:31  5-MIN KSTC 072010Z 30012KT 10SM FEW040 M05/M16 A3046 540 44 -1700 300/12 RMK AO2 T10501156
14926KSTC STC20191107141510611/07/19 14:15:31  5-MIN KSTC 072015Z 30011KT 10SM CLR M05/M16 A3046 540 44 -1700 300/11 RMK AO2 T10501156
14926KSTC STC20191107142010611/07/19 14:20:31  5-MIN KSTC 072020Z 30009KT 10SM CLR M05/M15 A3045 540 46 -1700 300/09 RMK AO2 T10501150
14926KSTC STC20191107142510911/07/19 14:25:31  5-MIN KSTC 072025Z 31009KT 10SM FEW044 M04/M15 A3045 540 44 -1600 310/09 RMK AO2 T10441150
14926KSTC STC20191107143011511/07/19 14:30:31  5-MIN KSTC 072030Z 27010G16KT 10SM SCT042 M04/M15 A3045 540 42 -1600 270/10G16 RMK AO2 T10391150
14926KSTC STC20191107143510911/07/19 14:35:31  5-MIN KSTC 072035Z 30010KT 10SM SCT042 M04/M15 A3045 540 44 -1600 300/10 RMK AO2 T10441150
14926KSTC STC20191107144010911/07/19 14:40:31  5-MIN KSTC 072040Z 31010KT 10SM FEW042 M04/M15 A3045 540 44 -1600 300/10 RMK AO2 T10441150
14926KSTC STC20191107144511511/07/19 14:45:31  5-MIN KSTC 072045Z 31011G17KT 10SM FEW042 M04/M15 A3045 550 44 -1600 310/11G17 RMK AO2 T10441150
14926KSTC STC20191107145012811/07/19 14:50:31  5-MIN KSTC 072050Z 30013G18KT 10SM FEW042 M04/M16 A3045 550 42 -1600 290/13G18 RMK AO2 SLP341 T10441156 58014
14926KSTC STC20191107145510911/07/19 14:55:31  5-MIN KSTC 072055Z 30014KT 10SM FEW043 M04/M16 A3045 540 42 -1600 300/14 RMK AO2 T10441156
14926KSTC STC20191107150010611/07/19 15:00:31  5-MIN KSTC 072100Z 30013KT 10SM CLR M05/M16 A3045 540 44 -1700 300/13 RMK AO2 T10501156
14926KSTC STC20191107150510611/07/19 15:05:31  5-MIN KSTC 072105Z 30011KT 10SM CLR M05/M15 A3045 540 46 -1700 300/11 RMK AO2 T10501150
14926KSTC STC20191107151010611/07/19 15:10:31  5-MIN KSTC 072110Z 30010KT 10SM CLR M05/M15 A3045 540 46 -1700 300/10 RMK AO2 T10501150
14926KSTC STC20191107151510611/07/19 15:15:31  5-MIN KSTC 072115Z 30012KT 10SM CLR M04/M15 A3045 540 44 -1600 300/12 RMK AO2 T10441150
14926KSTC STC20191107152010611/07/19 15:20:31  5-MIN KSTC 072120Z 30012KT 10SM CLR M05/M15 A3045 540 46 -1700 300/12 RMK AO2 T10501150
14926KSTC STC20191107152510611/07/19 15:25:31  5-MIN KSTC 072125Z 29012KT 10SM CLR M04/M15 A3046 540 44 -1600 290/12 RMK AO2 T10441150
14926KSTC STC20191107153010611/07/19 15:30:31  5-MIN KSTC 072130Z 30012KT 10SM CLR M04/M15 A3046 540 44 -1600 290/12 RMK AO2 T10441150
14926KSTC STC20191107153510611/07/19 15:35:31  5-MIN KSTC 072135Z 29010KT 10SM CLR M05/M15 A3046 540 46 -1700 290/10 RMK AO2 T10501150
14926KSTC STC20191107154010611/07/19 15:40:31  5-MIN KSTC 072140Z 31009KT 10SM CLR M05/M15 A3046 540 46 -1700 300/09 RMK AO2 T10501150
14926KSTC STC20191107154510611/07/19 15:45:31  5-MIN KSTC 072145Z 29008KT 10SM CLR M05/M15 A3045 540 46 -1700 290/08 RMK AO2 T10501150
14926KSTC STC20191107155011311/07/19 15:50:31  5-MIN KSTC 072150Z 29011KT 10SM CLR M05/M14 A3046 540 48 -1700 290/11 RMK AO2 SLP343 T10501144
14926KSTC STC20191107155510611/07/19 15:55:31  5-MIN KSTC 072155Z 29010KT 10SM CLR M05/M15 A3046 540 46 -1700 290/10 RMK AO2 T10501150
14926KSTC STC20191107160010611/07/19 16:00:31  5-MIN KSTC 072200Z 30010KT 10SM CLR M05/M14 A3046 540 48 -1700 300/10 RMK AO2 T10501144
14926KSTC STC20191107160510611/07/19 16:05:31  5-MIN KSTC 072205Z 30009KT 10SM CLR M05/M15 A3046 540 46 -1700 300/09 RMK AO2 T10501150
14926KSTC STC20191107161010611/07/19 16:10:31  5-MIN KSTC 072210Z 31009KT 10SM CLR M05/M15 A3046 540 46 -1700 310/09 RMK AO2 T10501150
14926KSTC STC20191107161510611/07/19 16:15:31  5-MIN KSTC 072215Z 30009KT 10SM CLR M05/M15 A3046 540 46 -1700 300/09 RMK AO2 T10501150
14926KSTC STC20191107162010611/07/19 16:20:31  5-MIN KSTC 072220Z 31007KT 10SM CLR M05/M15 A3046 540 46 -1700 310/07 RMK AO2 T10501150
14926KSTC STC20191107162510611/07/19 16:25:31  5-MIN KSTC 072225Z 30009KT 10SM CLR M06/M15 A3046 540 48 -1800 300/09 RMK AO2 T10561150
14926KSTC STC20191107163010611/07/19 16:30:31  5-MIN KSTC 072230Z 30008KT 10SM CLR M06/M15 A3046 540 48 -1800 300/08 RMK AO2 T10561150
14926KSTC STC20191107163510611/07/19 16:35:31  5-MIN KSTC 072235Z 30009KT 10SM CLR M06/M15 A3046 540 48 -1800 300/09 RMK AO2 T10561150
14926KSTC STC20191107164010611/07/19 16:40:31  5-MIN KSTC 072240Z 31008KT 10SM CLR M06/M15 A3046 540 48 -1800 310/08 RMK AO2 T10561150
14926KSTC STC20191107164510611/07/19 16:45:31  5-MIN KSTC 072245Z 30008KT 10SM CLR M06/M15 A3046 540 50 -1900 300/08 RMK AO2 T10611150
14926KSTC STC20191107165011311/07/19 16:50:31  5-MIN KSTC 072250Z 30008KT 10SM CLR M06/M15 A3046 530 50 -1900 300/08 RMK AO2 SLP347 T10611150
14926KSTC STC20191107165510611/07/19 16:55:31  5-MIN KSTC 072255Z 30006KT 10SM CLR M07/M15 A3046 530 52 -1900 300/06 RMK AO2 T10671150
14926KSTC STC20191107170010611/07/19 17:00:31  5-MIN KSTC 072300Z 31006KT 10SM CLR M07/M15 A3046 530 52 -1900 310/06 RMK AO2 T10671150
14926KSTC STC20191107170510611/07/19 17:05:31  5-MIN KSTC 072305Z 30004KT 10SM CLR M07/M15 A3047 530 52 -1900 300/04 RMK AO2 T10671150
14926KSTC STC20191107171010611/07/19 17:10:31  5-MIN KSTC 072310Z 30006KT 10SM CLR M07/M15 A3047 530 54 -2000 290/06 RMK AO2 T10721150
14926KSTC STC20191107171510611/07/19 17:15:31  5-MIN KSTC 072315Z 30005KT 10SM CLR M07/M15 A3047 530 54 -2000 300/05 RMK AO2 T10721150
14926KSTC STC20191107172010611/07/19 17:20:31  5-MIN KSTC 072320Z 30005KT 10SM CLR M08/M15 A3047 530 56 -2100 300/05 RMK AO2 T10781150
14926KSTC STC20191107172510611/07/19 17:25:31  5-MIN KSTC 072325Z 30005KT 10SM CLR M08/M14 A3047 530 59 -2100 300/05 RMK AO2 T10781144
14926KSTC STC20191107173010611/07/19 17:30:31  5-MIN KSTC 072330Z 30005KT 10SM CLR M08/M14 A3047 530 59 -2100 300/05 RMK AO2 T10781144
14926KSTC STC20191107173510611/07/19 17:35:31  5-MIN KSTC 072335Z 30005KT 10SM CLR M08/M14 A3047 530 59 -2100 300/05 RMK AO2 T10781144
14926KSTC STC20191107174010611/07/19 17:40:31  5-MIN KSTC 072340Z 30005KT 10SM CLR M08/M14 A3047 530 59 -2100 300/05 RMK AO2 T10781144
14926KSTC STC20191107174510611/07/19 17:45:31  5-MIN KSTC 072345Z 29003KT 10SM CLR M08/M14 A3048 520 59 -2100 290/03 RMK AO2 T10781144
14926KSTC STC20191107175013111/07/19 17:50:31  5-MIN KSTC 072350Z 29003KT 10SM CLR M08/M14 A3048 520 59 -2100 290/03 RMK AO2 SLP352 T10781144 11039 21078 56017
14926KSTC STC20191107175510611/07/19 17:55:31  5-MIN KSTC 072355Z 00000KT 10SM CLR M07/M14 A3048 520 56 -2000 000/00 RMK AO2 T10721144
14926KSTC STC20191107180010611/07/19 18:00:31  5-MIN KSTC 080000Z 00000KT 10SM CLR M07/M14 A3048 520 56 -2000 000/00 RMK AO2 T10721144
14926KSTC STC20191107180510611/07/19 18:05:31  5-MIN KSTC 080005Z 00000KT 10SM CLR M08/M13 A3048 520 64 -2100 000/00 RMK AO2 T10781133
14926KSTC STC20191107181010611/07/19 18:10:31  5-MIN KSTC 080010Z 00000KT 10SM CLR M08/M13 A3048 520 67 -2100 000/00 RMK AO2 T10781128
14926KSTC STC20191107181510611/07/19 18:15:31  5-MIN KSTC 080015Z 00000KT 10SM CLR M08/M13 A3048 520 64 -2100 000/00 RMK AO2 T10781133
14926KSTC STC20191107182010611/07/19 18:20:31  5-MIN KSTC 080020Z 00000KT 10SM CLR M08/M13 A3048 520 64 -2100 000/00 RMK AO2 T10781133
14926KSTC STC20191107182510611/07/19 18:25:31  5-MIN KSTC 080025Z 00000KT 10SM CLR M08/M12 A3048 520 71 -2100 000/00 RMK AO2 T10781122
14926KSTC STC20191107183010611/07/19 18:30:31  5-MIN KSTC 080030Z 00000KT 10SM CLR M08/M14 A3048 520 59 -2100 000/00 RMK AO2 T10781144
14926KSTC STC20191107183510611/07/19 18:35:31  5-MIN KSTC 080035Z 00000KT 10SM CLR M08/M14 A3048 520 64 -2200 000/00 RMK AO2 T10831139
14926KSTC STC20191107184010611/07/19 18:40:31  5-MIN KSTC 080040Z 00000KT 10SM CLR M08/M14 A3048 520 62 -2200 000/00 RMK AO2 T10831144
14926KSTC STC20191107184510611/07/19 18:45:31  5-MIN KSTC 080045Z 00000KT 10SM CLR M08/M14 A3048 520 62 -2200 000/00 RMK AO2 T10831144
14926KSTC STC20191107185011311/07/19 18:50:31  5-MIN KSTC 080050Z 00000KT 10SM CLR M08/M13 A3048 520 67 -2200 000/00 RMK AO2 SLP352 T10831133
14926KSTC STC20191107185510611/07/19 18:55:31  5-MIN KSTC 080055Z 00000KT 10SM CLR M08/M12 A3048 520 74 -2200 000/00 RMK AO2 T10831122
14926KSTC STC20191107190010611/07/19 19:00:31  5-MIN KSTC 080100Z 00000KT 10SM CLR M08/M13 A3048 520 67 -2200 000/00 RMK AO2 T10831133
14926KSTC STC20191107190510611/07/19 19:05:31  5-MIN KSTC 080105Z 00000KT 10SM CLR M09/M14 A3048 520 70 -2300 000/00 RMK AO2 T10941139
14926KSTC STC20191107191010611/07/19 19:10:31  5-MIN KSTC 080110Z 00000KT 10SM CLR M10/M13 A3048 520 77 -2400 000/00 RMK AO2 T11001133
14926KSTC STC20191107191510611/07/19 19:15:31  5-MIN KSTC 080115Z 00000KT 10SM CLR M10/M13 A3048 520 80 -2400 000/00 RMK AO2 T11001128
14926KSTC STC20191107192010611/07/19 19:20:31  5-MIN KSTC 080120Z 00000KT 10SM CLR M10/M13 A3048 520 77 -2400 000/00 RMK AO2 T11001133
14926KSTC STC20191107192510611/07/19 19:25:31  5-MIN KSTC 080125Z 00000KT 10SM CLR M09/M12 A3048 520 80 -2300 000/00 RMK AO2 T10941122
14926KSTC STC20191107193010611/07/19 19:30:31  5-MIN KSTC 080130Z 00000KT 10SM CLR M09/M12 A3048 520 84 -2300 000/00 RMK AO2 T10941117
14926KSTC STC20191107193510611/07/19 19:35:31  5-MIN KSTC 080135Z 00000KT 10SM CLR M10/M12 A3048 520 84 -2400 000/00 RMK AO2 T11001122
14926KSTC STC20191107194010611/07/19 19:40:31  5-MIN KSTC 080140Z 00000KT 10SM CLR M10/M13 A3048 520 77 -2400 000/00 RMK AO2 T11001133
14926KSTC STC20191107194510611/07/19 19:45:31  5-MIN KSTC 080145Z 00000KT 10SM CLR M10/M14 A3048 520 73 -2400 000/00 RMK AO2 T11001139
14926KSTC STC20191107195011311/07/19 19:50:31  5-MIN KSTC 080150Z 00000KT 10SM CLR M09/M14 A3048 520 70 -2300 000/00 RMK AO2 SLP353 T10941139
14926KSTC STC20191107195510611/07/19 19:55:31  5-MIN KSTC 080155Z 00000KT 10SM CLR M10/M13 A3048 520 77 -2400 000/00 RMK AO2 T11001133
14926KSTC STC20191107200010611/07/19 20:00:31  5-MIN KSTC 080200Z 00000KT 10SM CLR M10/M13 A3048 520 80 -2400 000/00 RMK AO2 T11001128
14926KSTC STC20191107200510611/07/19 20:05:31  5-MIN KSTC 080205Z 00000KT 10SM CLR M09/M13 A3048 520 73 -2300 000/00 RMK AO2 T10941133
14926KSTC STC20191107201010611/07/19 20:10:31  5-MIN KSTC 080210Z 00000KT 10SM CLR M10/M13 A3048 520 80 -2400 000/00 RMK AO2 T11001128
14926KSTC STC20191107201510611/07/19 20:15:31  5-MIN KSTC 080215Z 00000KT 10SM CLR M11/M12 A3048 520 88 -2500 000/00 RMK AO2 T11061122
14926KSTC STC20191107202010611/07/19 20:20:31  5-MIN KSTC 080220Z 00000KT 10SM CLR M11/M12 A3047 520 88 -2500 000/00 RMK AO2 T11061122
14926KSTC STC20191107202510611/07/19 20:25:31  5-MIN KSTC 080225Z 00000KT 10SM CLR M11/M12 A3047 530 88 -2500 000/00 RMK AO2 T11061122
14926KSTC STC20191107203010611/07/19 20:30:31  5-MIN KSTC 080230Z 00000KT 10SM CLR M11/M13 A3047 530 84 -2500 000/00 RMK AO2 T11061128
14926KSTC STC20191107203510611/07/19 20:35:31  5-MIN KSTC 080235Z 00000KT 10SM CLR M10/M13 A3047 530 80 -2400 000/00 RMK AO2 T11001128
14926KSTC STC20191107204010611/07/19 20:40:31  5-MIN KSTC 080240Z 00000KT 10SM CLR M11/M13 A3047 530 84 -2500 000/00 RMK AO2 T11061128
14926KSTC STC20191107204510611/07/19 20:45:31  5-MIN KSTC 080245Z 00000KT 10SM CLR M11/M13 A3047 530 84 -2500 000/00 RMK AO2 T11061128
14926KSTC STC20191107205011911/07/19 20:50:31  5-MIN KSTC 080250Z 00000KT 10SM CLR M11/M13 A3048 520 84 -2500 000/00 RMK AO2 SLP352 T11111133 53008
14926KSTC STC20191107205510611/07/19 20:55:31  5-MIN KSTC 080255Z 00000KT 10SM CLR M11/M13 A3047 520 84 -2500 000/00 RMK AO2 T11111133
14926KSTC STC20191107210010611/07/19 21:00:31  5-MIN KSTC 080300Z 00000KT 10SM CLR M11/M14 A3047 520 80 -2500 000/00 RMK AO2 T11111139
14926KSTC STC20191107210510611/07/19 21:05:31  5-MIN KSTC 080305Z 00000KT 10SM CLR M11/M13 A3047 520 84 -2500 000/00 RMK AO2 T11111133
14926KSTC STC20191107211010611/07/19 21:10:31  5-MIN KSTC 080310Z 00000KT 10SM CLR M11/M13 A3047 520 84 -2500 000/00 RMK AO2 T11111133
14926KSTC STC20191107211510611/07/19 21:15:31  5-MIN KSTC 080315Z 00000KT 10SM CLR M12/M14 A3048 520 84 -2600 000/00 RMK AO2 T11171139
14926KSTC STC20191107212010611/07/19 21:20:31  5-MIN KSTC 080320Z 00000KT 10SM CLR M11/M14 A3048 520 80 -2500 000/00 RMK AO2 T11111139
14926KSTC STC20191107212510611/07/19 21:25:31  5-MIN KSTC 080325Z 00000KT 10SM CLR M11/M14 A3048 520 80 -2500 000/00 RMK AO2 T11111139
14926KSTC STC20191107213010611/07/19 21:30:31  5-MIN KSTC 080330Z 00000KT 10SM CLR M11/M14 A3048 520 80 -2500 000/00 RMK AO2 T11111139
14926KSTC STC20191107213510611/07/19 21:35:31  5-MIN KSTC 080335Z 00000KT 10SM CLR M12/M13 A3048 520 87 -2600 000/00 RMK AO2 T11171133
14926KSTC STC20191107214010611/07/19 21:40:31  5-MIN KSTC 080340Z 15003KT 10SM CLR M12/M14 A3048 520 84 -2600 150/03 RMK AO2 T11171139
14926KSTC STC20191107214510611/07/19 21:45:31  5-MIN KSTC 080345Z 00000KT 10SM CLR M12/M14 A3048 520 84 -2600 000/00 RMK AO2 T11171139
14926KSTC STC20191107215011311/07/19 21:50:31  5-MIN KSTC 080350Z 00000KT 10SM CLR M11/M14 A3048 520 80 -2500 000/00 RMK AO2 SLP351 T11111139
14926KSTC STC20191107215510611/07/19 21:55:31  5-MIN KSTC 080355Z 00000KT 10SM CLR M11/M14 A3048 520 80 -2500 000/00 RMK AO2 T11111139
14926KSTC STC20191107220010611/07/19 22:00:31  5-MIN KSTC 080400Z 00000KT 10SM CLR M11/M14 A3047 520 80 -2500 000/00 RMK AO2 T11111139
14926KSTC STC20191107220510611/07/19 22:05:31  5-MIN KSTC 080405Z 00000KT 10SM CLR M11/M13 A3047 530 84 -2500 000/00 RMK AO2 T11111133
14926KSTC STC20191107221010611/07/19 22:10:31  5-MIN KSTC 080410Z 00000KT 10SM CLR M11/M13 A3047 530 84 -2500 000/00 RMK AO2 T11111133
14926KSTC STC20191107221510611/07/19 22:15:31  5-MIN KSTC 080415Z 00000KT 10SM CLR M11/M13 A3047 530 88 -2500 000/00 RMK AO2 T11111128
14926KSTC STC20191107222010611/07/19 22:20:31  5-MIN KSTC 080420Z 00000KT 10SM CLR M11/M13 A3047 530 88 -2500 000/00 RMK AO2 T11111128
14926KSTC STC20191107222511211/07/19 22:25:31  5-MIN KSTC 080425Z 00000KT 10SM CLR M11/M13 A3047 530 84 -2500 000/00 RMK AO2 I1000 T11111133
14926KSTC STC20191107223011211/07/19 22:30:31  5-MIN KSTC 080430Z 00000KT 10SM CLR M11/M13 A3047 530 84 -2500 000/00 RMK AO2 I1000 T11111133
14926KSTC STC20191107223511211/07/19 22:35:31  5-MIN KSTC 080435Z 00000KT 10SM CLR M12/M14 A3047 530 84 -2600 000/00 RMK AO2 I1000 T11171139
14926KSTC STC20191107224011211/07/19 22:40:31  5-MIN KSTC 080440Z 00000KT 10SM CLR M12/M14 A3047 530 84 -2600 000/00 RMK AO2 I1000 T11171139
14926KSTC STC20191107224511211/07/19 22:45:31  5-MIN KSTC 080445Z 00000KT 10SM CLR M12/M14 A3047 530 87 -2700 000/00 RMK AO2 I1000 T11221139
14926KSTC STC20191107225011911/07/19 22:50:31  5-MIN KSTC 080450Z 00000KT 10SM CLR M12/M14 A3047 530 87 -2700 000/00 RMK AO2 SLP347 I1000 T11221139
14926KSTC STC20191107225510611/07/19 22:55:31  5-MIN KSTC 080455Z 00000KT 10SM CLR M12/M14 A3047 530 87 -2700 000/00 RMK AO2 T11221139
14926KSTC STC20191107230011111/07/19 23:00:31  5-MIN KSTC 080500Z AUTO 00000KT 10SM CLR M12/M14 A3047 530 87 -2700 000/00 RMK AO2 T11221139
14926KSTC STC20191107230511111/07/19 23:05:31  5-MIN KSTC 080505Z AUTO 00000KT 10SM CLR M12/M14 A3046 530 87 -2700 000/00 RMK AO2 T11221139
14926KSTC STC20191107231011111/07/19 23:10:31  5-MIN KSTC 080510Z AUTO 00000KT 10SM CLR M12/M14 A3046 530 87 -2700 000/00 RMK AO2 T11221139
14926KSTC STC20191107231511111/07/19 23:15:31  5-MIN KSTC 080515Z AUTO 00000KT 10SM CLR M12/M14 A3046 530 84 -2600 000/00 RMK AO2 T11171139
14926KSTC STC20191107232011111/07/19 23:20:31  5-MIN KSTC 080520Z AUTO 00000KT 10SM CLR M12/M14 A3046 530 84 -2600 000/00 RMK AO2 T11171139
14926KSTC STC20191107232511111/07/19 23:25:31  5-MIN KSTC 080525Z AUTO 00000KT 10SM CLR M12/M13 A3046 540 87 -2600 000/00 RMK AO2 T11171133
14926KSTC STC20191107233011111/07/19 23:30:31  5-MIN KSTC 080530Z AUTO 00000KT 10SM CLR M11/M13 A3046 540 84 -2500 000/00 RMK AO2 T11111133
14926KSTC STC20191107233511711/07/19 23:35:31  5-MIN KSTC 080535Z AUTO 00000KT 10SM CLR M12/M13 A3046 540 91 -2700 000/00 RMK AO2 I1000 T11221133
14926KSTC STC20191107234011711/07/19 23:40:31  5-MIN KSTC 080540Z AUTO 00000KT 10SM CLR M12/M14 A3046 540 84 -2600 000/00 RMK AO2 I1000 T11171139
14926KSTC STC20191107234511711/07/19 23:45:31  5-MIN KSTC 080545Z AUTO 00000KT 10SM CLR M12/M14 A3046 540 84 -2600 000/00 RMK AO2 I1000 T11171139
14926KSTC STC20191107235015811/07/19 23:50:31  5-MIN KSTC 080550Z AUTO 00000KT 10SM CLR M12/M14 A3046 530 84 -2600 000/00 RMK AO2 SLP347 I1000 I6000 T11171139 11072 21122 410391128 58001
14926KSTC STC20191107235511111/07/19 23:55:31  5-MIN KSTC 080555Z AUTO 00000KT 10SM CLR M12/M14 A3046 530 84 -2600 000/00 RMK AO2 T11171139
14926KSTC STC20191108000011111/08/19 00:00:31  5-MIN KSTC 080600Z AUTO 00000KT 10SM CLR M12/M14 A3046 530 87 -2700 000/00 RMK AO2 T11221139
14926KSTC STC20191108000511111/08/19 00:05:31  5-MIN KSTC 080605Z AUTO 00000KT 10SM CLR M12/M14 A3047 530 84 -2700 000/00 RMK AO2 T11221144
14926KSTC STC20191108001011111/08/19 00:10:31  5-MIN KSTC 080610Z AUTO 00000KT 10SM CLR M12/M14 A3047 530 87 -2700 000/00 RMK AO2 T11221139
14926KSTC STC20191108001511111/08/19 00:15:31  5-MIN KSTC 080615Z AUTO 00000KT 10SM CLR M12/M14 A3047 530 87 -2700 000/00 RMK AO2 T11221139
14926KSTC STC20191108002011111/08/19 00:20:31  5-MIN KSTC 080620Z AUTO 00000KT 10SM CLR M12/M14 A3046 540 87 -2700 000/00 RMK AO2 T11221139
14926KSTC STC20191108002511111/08/19 00:25:31  5-MIN KSTC 080625Z AUTO 00000KT 10SM CLR M12/M14 A3046 540 87 -2700 000/00 RMK AO2 T11221139
14926KSTC STC20191108003011711/08/19 00:30:31  5-MIN KSTC 080630Z AUTO 00000KT 10SM CLR M12/M14 A3046 540 87 -2700 000/00 RMK AO2 I1000 T11221139
14926KSTC STC20191108003511711/08/19 00:35:31  5-MIN KSTC 080635Z AUTO 00000KT 10SM CLR M12/M14 A3046 540 87 -2700 000/00 RMK AO2 I1000 T11221139
14926KSTC STC20191108004011711/08/19 00:40:31  5-MIN KSTC 080640Z AUTO 00000KT 10SM CLR M12/M14 A3046 540 87 -2700 000/00 RMK AO2 I1000 T11221139
14926KSTC STC20191108004511711/08/19 00:45:31  5-MIN KSTC 080645Z AUTO 00000KT 10SM CLR M12/M14 A3046 530 87 -2700 000/00 RMK AO2 I1000 T11221139
14926KSTC STC20191108005012411/08/19 00:50:31  5-MIN KSTC 080650Z AUTO 00000KT 10SM CLR M12/M14 A3045 550 84 -2600 000/00 RMK AO2 SLP341 I1000 T11171139
14926KSTC STC20191108005511111/08/19 00:55:31  5-MIN KSTC 080655Z AUTO 00000KT 10SM CLR M12/M14 A3045 540 84 -2600 000/00 RMK AO2 T11171139
14926KSTC STC20191108010011111/08/19 01:00:31  5-MIN KSTC 080700Z AUTO 00000KT 10SM CLR M12/M13 A3045 540 87 -2600 000/00 RMK AO2 T11171133
14926KSTC STC20191108010511111/08/19 01:05:31  5-MIN KSTC 080705Z AUTO 00000KT 10SM CLR M11/M13 A3046 540 88 -2500 000/00 RMK AO2 T11111128
14926KSTC STC20191108011011111/08/19 01:10:31  5-MIN KSTC 080710Z AUTO 00000KT 10SM CLR M11/M13 A3046 540 88 -2500 000/00 RMK AO2 T11111128
14926KSTC STC20191108011511111/08/19 01:15:31  5-MIN KSTC 080715Z AUTO 00000KT 10SM CLR M11/M13 A3045 540 84 -2400 000/00 RMK AO2 T11061128
14926KSTC STC20191108012011111/08/19 01:20:31  5-MIN KSTC 080720Z AUTO 00000KT 10SM CLR M11/M12 A3045 550 88 -2400 000/00 RMK AO2 T11061122
14926KSTC STC20191108012511111/08/19 01:25:31  5-MIN KSTC 080725Z AUTO 00000KT 10SM CLR M11/M12 A3044 550 88 -2400 000/00 RMK AO2 T11061122
14926KSTC STC20191108013011111/08/19 01:30:31  5-MIN KSTC 080730Z AUTO 00000KT 10SM CLR M11/M12 A3044 550 88 -2400 000/00 RMK AO2 T11061122
14926KSTC STC20191108013511111/08/19 01:35:31  5-MIN KSTC 080735Z AUTO 00000KT 10SM CLR M11/M12 A3044 560 88 -2400 000/00 RMK AO2 T11061122
14926KSTC STC20191108014011111/08/19 01:40:31  5-MIN KSTC 080740Z AUTO 00000KT 10SM CLR M10/M12 A3044 560 84 -2300 000/00 RMK AO2 T11001122
14926KSTC STC20191108014511111/08/19 01:45:31  5-MIN KSTC 080745Z AUTO 00000KT 10SM CLR M09/M12 A3043 570 84 -2300 000/00 RMK AO2 T10941117
14926KSTC STC20191108015011811/08/19 01:50:31  5-MIN KSTC 080750Z AUTO 10003KT 10SM CLR M09/M12 A3042 570 84 -2200 100/03 RMK AO2 SLP331 T10941117
14926KSTC STC20191108015511111/08/19 01:55:31  5-MIN KSTC 080755Z AUTO 09003KT 10SM CLR M09/M12 A3042 570 84 -2200 090/03 RMK AO2 T10941117
14926KSTC STC20191108020011111/08/19 02:00:31  5-MIN KSTC 080800Z AUTO 08003KT 10SM CLR M09/M12 A3042 570 84 -2200 080/03 RMK AO2 T10941117
14926KSTC STC20191108020511111/08/19 02:05:31  5-MIN KSTC 080805Z AUTO 13003KT 10SM CLR M09/M12 A3042 570 84 -2200 130/03 RMK AO2 T10941117
14926KSTC STC20191108021011111/08/19 02:10:31  5-MIN KSTC 080810Z AUTO 00000KT 10SM CLR M09/M12 A3043 570 84 -2300 000/00 RMK AO2 T10941117
14926KSTC STC20191108021511111/08/19 02:15:31  5-MIN KSTC 080815Z AUTO 00000KT 10SM CLR M09/M12 A3042 570 84 -2200 000/00 RMK AO2 T10941117
14926KSTC STC20191108022011111/08/19 02:20:31  5-MIN KSTC 080820Z AUTO 00000KT 10SM CLR M10/M12 A3042 570 88 -2300 000/00 RMK AO2 T11001117
14926KSTC STC20191108022511111/08/19 02:25:31  5-MIN KSTC 080825Z AUTO 00000KT 10SM CLR M10/M12 A3042 570 84 -2300 000/00 RMK AO2 T11001122
14926KSTC STC20191108023011111/08/19 02:30:31  5-MIN KSTC 080830Z AUTO 00000KT 10SM CLR M10/M12 A3042 580 84 -2300 000/00 RMK AO2 T11001122
14926KSTC STC20191108023511111/08/19 02:35:31  5-MIN KSTC 080835Z AUTO 11003KT 10SM CLR M10/M12 A3042 580 84 -2300 110/03 RMK AO2 T11001122
14926KSTC STC20191108024011111/08/19 02:40:31  5-MIN KSTC 080840Z AUTO 11003KT 10SM CLR M10/M12 A3041 580 84 -2300 100/03 RMK AO2 T11001122
14926KSTC STC20191108024511111/08/19 02:45:31  5-MIN KSTC 080845Z AUTO 12003KT 10SM CLR M10/M12 A3041 580 88 -2300 120/03 RMK AO2 T11001117
14926KSTC STC20191108025013011/08/19 02:50:31  5-MIN KSTC 080850Z AUTO 00000KT 10SM CLR M09/M12 A3041 580 84 -2200 000/00 RMK AO2 SLP326 I3/// T10941117 58003
14926KSTC STC20191108025511111/08/19 02:55:31  5-MIN KSTC 080855Z AUTO 00000KT 10SM CLR M10/M12 A3041 580 84 -2300 000/00 RMK AO2 T11001122
14926KSTC STC20191108030011111/08/19 03:00:31  5-MIN KSTC 080900Z AUTO 00000KT 10SM CLR M11/M12 A3041 580 88 -2400 000/00 RMK AO2 T11061122
14926KSTC STC20191108030511111/08/19 03:05:31  5-MIN KSTC 080905Z AUTO 00000KT 10SM CLR M11/M12 A3040 590 88 -2400 000/00 RMK AO2 T11061122
14926KSTC STC20191108031011111/08/19 03:10:31  5-MIN KSTC 080910Z AUTO 14003KT 10SM CLR M10/M12 A3040 590 84 -2300 140/03 RMK AO2 T11001122
14926KSTC STC20191108031511111/08/19 03:15:31  5-MIN KSTC 080915Z AUTO 13003KT 10SM CLR M11/M12 A3040 590 88 -2400 130/03 RMK AO2 T11061122
14926KSTC STC20191108032011111/08/19 03:20:31  5-MIN KSTC 080920Z AUTO 14003KT 10SM CLR M11/M12 A3040 590 88 -2400 130/03 RMK AO2 T11061122
14926KSTC STC20191108032511111/08/19 03:25:31  5-MIN KSTC 080925Z AUTO 14004KT 10SM CLR M11/M12 A3040 590 88 -2400 140/04 RMK AO2 T11061122
14926KSTC STC20191108033011111/08/19 03:30:31  5-MIN KSTC 080930Z AUTO 13004KT 10SM CLR M11/M12 A3039 600 88 -2400 130/04 RMK AO2 T11061122
14926KSTC STC20191108033511111/08/19 03:35:31  5-MIN KSTC 080935Z AUTO 13003KT 10SM CLR M11/M12 A3039 600 88 -2400 130/03 RMK AO2 T11061122
14926KSTC STC20191108034011111/08/19 03:40:31  5-MIN KSTC 080940Z AUTO 14004KT 10SM CLR M10/M12 A3039 600 84 -2300 140/04 RMK AO2 T11001122
14926KSTC STC20191108034511111/08/19 03:45:31  5-MIN KSTC 080945Z AUTO 13005KT 10SM CLR M09/M12 A3039 600 80 -2200 130/05 RMK AO2 T10941122
14926KSTC STC20191108035011811/08/19 03:50:31  5-MIN KSTC 080950Z AUTO 14005KT 10SM CLR M09/M12 A3039 600 80 -2200 140/05 RMK AO2 SLP318 T10941122
14926KSTC STC20191108035511111/08/19 03:55:31  5-MIN KSTC 080955Z AUTO 15005KT 10SM CLR M10/M12 A3039 600 84 -2300 150/05 RMK AO2 T11001122
14926KSTC STC20191108040011111/08/19 04:00:31  5-MIN KSTC 081000Z AUTO 15005KT 10SM CLR M11/M12 A3039 600 88 -2400 150/05 RMK AO2 T11061122
14926KSTC STC20191108040511111/08/19 04:05:31  5-MIN KSTC 081005Z AUTO 14005KT 10SM CLR M11/M12 A3038 610 88 -2300 140/05 RMK AO2 T11061122
14926KSTC STC20191108041011111/08/19 04:10:31  5-MIN KSTC 081010Z AUTO 14005KT 10SM CLR M11/M12 A3038 610 88 -2300 140/05 RMK AO2 T11061122
14926KSTC STC20191108041511111/08/19 04:15:31  5-MIN KSTC 081015Z AUTO 14005KT 10SM CLR M10/M12 A3038 610 84 -2300 140/05 RMK AO2 T11001122
14926KSTC STC20191108042011111/08/19 04:20:31  5-MIN KSTC 081020Z AUTO 14005KT 10SM CLR M10/M12 A3037 620 84 -2300 140/05 RMK AO2 T11001122
14926KSTC STC20191108042511111/08/19 04:25:31  5-MIN KSTC 081025Z AUTO 14005KT 10SM CLR M10/M12 A3038 610 84 -2300 140/05 RMK AO2 T11001122
14926KSTC STC20191108043011111/08/19 04:30:31  5-MIN KSTC 081030Z AUTO 15004KT 10SM CLR M09/M12 A3038 610 84 -2200 150/04 RMK AO2 T10941117
14926KSTC STC20191108043511111/08/19 04:35:31  5-MIN KSTC 081035Z AUTO 15005KT 10SM CLR M10/M12 A3037 620 88 -2300 150/05 RMK AO2 T11001117
14926KSTC STC20191108044011111/08/19 04:40:31  5-MIN KSTC 081040Z AUTO 15005KT 10SM CLR M10/M12 A3037 620 88 -2300 150/05 RMK AO2 T11001117
14926KSTC STC20191108044511111/08/19 04:45:31  5-MIN KSTC 081045Z AUTO 14005KT 10SM CLR M10/M12 A3037 620 88 -2300 140/05 RMK AO2 T11001117
14926KSTC STC20191108045011811/08/19 04:50:31  5-MIN KSTC 081050Z AUTO 14005KT 10SM CLR M09/M12 A3036 630 84 -2200 140/05 RMK AO2 SLP311 T10941117
14926KSTC STC20191108045511411/08/19 04:55:31  5-MIN KSTC 081055Z AUTO 15005KT 10SM FEW038 M09/M12 A3036 630 84 -2200 150/05 RMK AO2 T10941117
14926KSTC STC20191108050011411/08/19 05:00:31  5-MIN KSTC 081100Z AUTO 14006KT 10SM SCT038 M09/M12 A3036 630 84 -2200 140/06 RMK AO2 T10941117
14926KSTC STC20191108050511411/08/19 05:05:31  5-MIN KSTC 081105Z AUTO 15006KT 10SM BKN036 M09/M11 A3036 630 88 -2200 140/06 RMK AO2 T10941111
14926KSTC STC20191108051011411/08/19 05:10:31  5-MIN KSTC 081110Z AUTO 14005KT 10SM BKN036 M09/M11 A3036 630 84 -2100 140/05 RMK AO2 T10891111
14926KSTC STC20191108051511411/08/19 05:15:31  5-MIN KSTC 081115Z AUTO 15004KT 10SM BKN034 M09/M11 A3035 640 84 -2100 150/04 RMK AO2 T10891111
14926KSTC STC20191108052011411/08/19 05:20:31  5-MIN KSTC 081120Z AUTO 14004KT 10SM OVC034 M09/M11 A3035 640 88 -2100 140/04 RMK AO2 T10891106
14926KSTC STC20191108052511411/08/19 05:25:31  5-MIN KSTC 081125Z AUTO 13003KT 10SM OVC034 M08/M11 A3035 640 84 -2000 130/03 RMK AO2 T10831106
14926KSTC STC20191108053011411/08/19 05:30:31  5-MIN KSTC 081130Z AUTO 13004KT 10SM OVC034 M08/M11 A3035 640 84 -2000 130/04 RMK AO2 T10831106
14926KSTC STC20191108053511411/08/19 05:35:31  5-MIN KSTC 081135Z AUTO 13005KT 10SM OVC034 M08/M11 A3034 640 84 -2000 130/05 RMK AO2 T10831106
14926KSTC STC20191108054011411/08/19 05:40:31  5-MIN KSTC 081140Z AUTO 14005KT 10SM OVC034 M08/M11 A3034 640 84 -2000 140/05 RMK AO2 T10831106
14926KSTC STC20191108054511411/08/19 05:45:31  5-MIN KSTC 081145Z AUTO 14006KT 10SM OVC034 M08/M11 A3034 650 84 -2000 140/06 RMK AO2 T10831106
14926KSTC STC20191108055014511/08/19 05:50:31  5-MIN KSTC 081150Z AUTO 14007KT 10SM OVC034 M08/M11 A3034 650 84 -2000 140/07 RMK AO2 SLP301 I6000 T10831106 11083 21122 58018
14926KSTC STC20191108055511411/08/19 05:55:31  5-MIN KSTC 081155Z AUTO 14006KT 10SM BKN034 M08/M11 A3034 650 84 -2000 140/06 RMK AO2 T10831106
14926KSTC STC20191108060011411/08/19 06:00:31  5-MIN KSTC 081200Z AUTO 14005KT 10SM BKN034 M08/M11 A3034 650 84 -2000 140/05 RMK AO2 T10831106
14926KSTC STC20191108060511411/08/19 06:05:31  5-MIN KSTC 081205Z AUTO 13006KT 10SM SCT034 M08/M11 A3033 650 84 -2000 130/06 RMK AO2 T10831106
14926KSTC STC20191108061011411/08/19 06:10:31  5-MIN KSTC 081210Z AUTO 13007KT 10SM FEW035 M08/M11 A3033 660 80 -2000 130/07 RMK AO2 T10831111
14926KSTC STC20191108061511411/08/19 06:15:31  5-MIN KSTC 081215Z AUTO 14007KT 10SM FEW035 M08/M11 A3033 660 80 -2000 140/07 RMK AO2 T10831111
14926KSTC STC20191108062011111/08/19 06:20:31  5-MIN KSTC 081220Z AUTO 14006KT 10SM CLR M08/M11 A3033 660 80 -2000 140/06 RMK AO2 T10831111
14926KSTC STC20191108062511111/08/19 06:25:31  5-MIN KSTC 081225Z AUTO 13005KT 10SM CLR M09/M11 A3033 660 84 -2100 130/05 RMK AO2 T10891111
14926KSTC STC20191108063011111/08/19 06:30:31  5-MIN KSTC 081230Z AUTO 13004KT 10SM CLR M08/M11 A3032 660 80 -2000 130/04 RMK AO2 T10831111
14926KSTC STC20191108063511111/08/19 06:35:31  5-MIN KSTC 081235Z AUTO 13006KT 10SM CLR M08/M11 A3033 660 80 -2000 130/06 RMK AO2 T10831111
14926KSTC STC20191108064011411/08/19 06:40:31  5-MIN KSTC 081240Z AUTO 12006KT 10SM FEW038 M08/M11 A3033 660 80 -2000 120/06 RMK AO2 T10831111
14926KSTC STC20191108064511411/08/19 06:45:31  5-MIN KSTC 081245Z AUTO 13006KT 10SM SCT038 M08/M11 A3032 660 80 -2000 130/06 RMK AO2 T10831111
14926KSTC STC20191108065011611/08/19 06:50:31  5-MIN KSTC 081250Z 13007KT 10SM FEW038 M08/M11 A3032 670 80 -2000 130/07 RMK AO2 SLP297 T10831111
14926KSTC STC20191108065510911/08/19 06:55:31  5-MIN KSTC 081255Z 13007KT 10SM FEW038 M08/M11 A3031 670 80 -2000 130/07 RMK AO2 T10831111
14926KSTC STC20191108070010911/08/19 07:00:31  5-MIN KSTC 081300Z 13007KT 10SM SCT038 M08/M11 A3031 670 80 -2000 130/07 RMK AO2 T10831111
14926KSTC STC20191108070510911/08/19 07:05:31  5-MIN KSTC 081305Z 14006KT 10SM BKN038 M08/M11 A3032 670 80 -2000 140/06 RMK AO2 T10831111
14926KSTC STC20191108071010911/08/19 07:10:31  5-MIN KSTC 081310Z 14004KT 10SM BKN038 M08/M11 A3032 670 77 -1900 140/04 RMK AO2 T10781111
14926KSTC STC20191108071510911/08/19 07:15:31  5-MIN KSTC 081315Z 13005KT 10SM BKN038 M08/M11 A3031 670 77 -1900 130/05 RMK AO2 T10781111
14926KSTC STC20191108072010911/08/19 07:20:31  5-MIN KSTC 081320Z 13005KT 10SM BKN039 M08/M11 A3031 680 77 -1900 130/05 RMK AO2 T10781111
14926KSTC STC20191108072510911/08/19 07:25:31  5-MIN KSTC 081325Z 13007KT 10SM BKN039 M08/M11 A3031 680 77 -1900 130/07 RMK AO2 T10781111
14926KSTC STC20191108073010911/08/19 07:30:31  5-MIN KSTC 081330Z 13008KT 10SM OVC039 M08/M11 A3031 680 77 -1900 130/08 RMK AO2 T10781111
14926KSTC STC20191108073510911/08/19 07:35:31  5-MIN KSTC 081335Z 14007KT 10SM BKN039 M08/M11 A3030 680 77 -1900 130/07 RMK AO2 T10781111
14926KSTC STC20191108074010911/08/19 07:40:31  5-MIN KSTC 081340Z 14007KT 10SM BKN039 M08/M11 A3030 680 80 -1900 140/07 RMK AO2 T10781106
14926KSTC STC20191108074510911/08/19 07:45:31  5-MIN KSTC 081345Z 14007KT 10SM BKN038 M08/M11 A3030 690 80 -1900 140/07 RMK AO2 T10781106
14926KSTC STC20191108075011611/08/19 07:50:31  5-MIN KSTC 081350Z 13008KT 10SM BKN038 M08/M11 A3030 690 80 -1900 130/08 RMK AO2 SLP289 T10781106
14926KSTC STC20191108075510911/08/19 07:55:31  5-MIN KSTC 081355Z 13009KT 10SM BKN038 M07/M11 A3029 690 77 -1800 130/09 RMK AO2 T10721106
14926KSTC STC20191108080010911/08/19 08:00:31  5-MIN KSTC 081400Z 13007KT 10SM BKN038 M07/M11 A3029 690 77 -1800 130/07 RMK AO2 T10721106
14926KSTC STC20191108080510911/08/19 08:05:31  5-MIN KSTC 081405Z 13009KT 10SM BKN038 M07/M11 A3028 700 77 -1800 130/09 RMK AO2 T10721106
14926KSTC STC20191108081010911/08/19 08:10:31  5-MIN KSTC 081410Z 13009KT 10SM BKN037 M07/M11 A3028 700 77 -1800 130/09 RMK AO2 T10721106
14926KSTC STC20191108081510911/08/19 08:15:31  5-MIN KSTC 081415Z 14010KT 10SM SCT037 M07/M11 A3028 700 74 -1700 140/10 RMK AO2 T10671106
14926KSTC STC20191108082010911/08/19 08:20:31  5-MIN KSTC 081420Z 14012KT 10SM SCT037 M07/M11 A3028 700 74 -1700 140/12 RMK AO2 T10671106
14926KSTC STC20191108082510911/08/19 08:25:31  5-MIN KSTC 081425Z 15011KT 10SM SCT037 M07/M11 A3028 700 74 -1700 150/11 RMK AO2 T10671106
14926KSTC STC20191108083010911/08/19 08:30:31  5-MIN KSTC 081430Z 15013KT 10SM FEW037 M07/M11 A3027 710 74 -1700 150/13 RMK AO2 T10671106
14926KSTC STC20191108083510911/08/19 08:35:31  5-MIN KSTC 081435Z 15010KT 10SM FEW037 M06/M11 A3028 710 71 -1600 150/10 RMK AO2 T10611106
14926KSTC STC20191108084010611/08/19 08:40:31  5-MIN KSTC 081440Z 15010KT 10SM CLR M06/M11 A3027 710 71 -1600 150/10 RMK AO2 T10611106
14926KSTC STC20191108084510611/08/19 08:45:31  5-MIN KSTC 081445Z 15011KT 10SM CLR M06/M11 A3027 710 71 -1600 150/11 RMK AO2 T10611106
14926KSTC STC20191108085011911/08/19 08:50:31  5-MIN KSTC 081450Z 15010KT 10SM CLR M06/M11 A3027 710 71 -1600 150/10 RMK AO2 SLP279 T10611106 58024
14926KSTC STC20191108085510611/08/19 08:55:31  5-MIN KSTC 081455Z 15011KT 10SM CLR M06/M11 A3026 720 71 -1600 150/11 RMK AO2 T10611106
14926KSTC STC20191108090010611/08/19 09:00:31  5-MIN KSTC 081500Z 16011KT 10SM CLR M06/M11 A3026 720 71 -1600 160/11 RMK AO2 T10611106
14926KSTC STC20191108090510611/08/19 09:05:31  5-MIN KSTC 081505Z 16010KT 10SM CLR M06/M10 A3026 720 71 -1500 160/10 RMK AO2 T10561100
14926KSTC STC20191108091010611/08/19 09:10:31  5-MIN KSTC 081510Z 16012KT 10SM CLR M06/M10 A3026 720 71 -1500 160/12 RMK AO2 T10561100
14926KSTC STC20191108091510611/08/19 09:15:31  5-MIN KSTC 081515Z 16011KT 10SM CLR M05/M11 A3026 730 65 -1500 160/11 RMK AO2 T10501106
14926KSTC STC20191108092010611/08/19 09:20:31  5-MIN KSTC 081520Z 16012KT 10SM CLR M05/M11 A3025 730 65 -1500 160/12 RMK AO2 T10501106
14926KSTC STC20191108092510611/08/19 09:25:31  5-MIN KSTC 081525Z 16012KT 10SM CLR M05/M11 A3025 730 65 -1500 160/12 RMK AO2 T10501106
14926KSTC STC20191108093010611/08/19 09:30:31  5-MIN KSTC 081530Z 17009KT 10SM CLR M05/M11 A3025 730 65 -1500 170/09 RMK AO2 T10501106
14926KSTC STC20191108093510611/08/19 09:35:31  5-MIN KSTC 081535Z 17011KT 10SM CLR M05/M10 A3024 740 68 -1500 160/11 RMK AO2 T10501100
14926KSTC STC20191108094010611/08/19 09:40:31  5-MIN KSTC 081540Z 17012KT 10SM CLR M05/M11 A3024 740 65 -1500 160/12 RMK AO2 T10501106
14926KSTC STC20191108094510611/08/19 09:45:31  5-MIN KSTC 081545Z 16014KT 10SM CLR M05/M11 A3024 740 65 -1500 160/14 RMK AO2 T10501106
14926KSTC STC20191108095011311/08/19 09:50:31  5-MIN KSTC 081550Z 17010KT 10SM CLR M05/M11 A3024 740 65 -1500 170/10 RMK AO2 SLP268 T10501106
14926KSTC STC20191108095510611/08/19 09:55:31  5-MIN KSTC 081555Z 17012KT 10SM CLR M04/M11 A3024 740 62 -1400 170/12 RMK AO2 T10441106
14926KSTC STC20191108100010611/08/19 10:00:31  5-MIN KSTC 081600Z 17015KT 10SM CLR M04/M11 A3023 750 62 -1400 170/15 RMK AO2 T10441106
14926KSTC STC20191108100510611/08/19 10:05:31  5-MIN KSTC 081605Z 17010KT 10SM CLR M04/M11 A3022 750 62 -1400 170/10 RMK AO2 T10441106
14926KSTC STC20191108101010611/08/19 10:10:31  5-MIN KSTC 081610Z 16012KT 10SM CLR M04/M10 A3022 750 65 -1400 160/12 RMK AO2 T10441100
14926KSTC STC20191108101510611/08/19 10:15:31  5-MIN KSTC 081615Z 17010KT 10SM CLR M04/M11 A3023 750 62 -1400 170/10 RMK AO2 T10441106
14926KSTC STC20191108102011211/08/19 10:20:31  5-MIN KSTC 081620Z 16014G19KT 10SM CLR M04/M11 A3022 750 62 -1400 160/14G19 RMK AO2 T10441106
14926KSTC STC20191108102510611/08/19 10:25:31  5-MIN KSTC 081625Z 17013KT 10SM CLR M04/M11 A3022 760 62 -1400 170/13 RMK AO2 T10441106
14926KSTC STC20191108103010611/08/19 10:30:31  5-MIN KSTC 081630Z 17014KT 10SM CLR M04/M11 A3022 760 62 -1400 170/14 RMK AO2 T10441106
14926KSTC STC20191108103511211/08/19 10:35:31  5-MIN KSTC 081635Z 17011G19KT 10SM CLR M04/M11 A3022 760 62 -1400 170/11G19 RMK AO2 T10441106
14926KSTC STC20191108104010611/08/19 10:40:31  5-MIN KSTC 081640Z 17010KT 10SM CLR M04/M10 A3022 760 63 -1300 170/10 RMK AO2 T10391100
14926KSTC STC20191108104510611/08/19 10:45:31  5-MIN KSTC 081645Z 16012KT 10SM CLR M04/M10 A3021 770 63 -1300 160/12 RMK AO2 T10391100
14926KSTC STC20191108105011311/08/19 10:50:31  5-MIN KSTC 081650Z 15013KT 10SM CLR M03/M10 A3021 770 60 -1200 150/13 RMK AO2 SLP259 T10331100
14926KSTC STC20191108105510611/08/19 10:55:31  5-MIN KSTC 081655Z 18011KT 10SM CLR M03/M10 A3021 770 60 -1200 180/11 RMK AO2 T10331100
14926KSTC STC20191108110010611/08/19 11:00:31  5-MIN KSTC 081700Z 17010KT 10SM CLR M03/M10 A3021 770 58 -1100 170/10 RMK AO2 T10281100
14926KSTC STC20191108110510611/08/19 11:05:31  5-MIN KSTC 081705Z 16015KT 10SM CLR M03/M10 A3020 770 58 -1100 160/15 RMK AO2 T10281100
14926KSTC STC20191108111010611/08/19 11:10:31  5-MIN KSTC 081710Z 16011KT 10SM CLR M03/M10 A3020 780 58 -1100 160/11 RMK AO2 T10281100
14926KSTC STC20191108111510611/08/19 11:15:31  5-MIN KSTC 081715Z 19012KT 10SM CLR M03/M10 A3019 780 58 -1100 190/12 RMK AO2 T10281100
14926KSTC STC20191108112010611/08/19 11:20:31  5-MIN KSTC 081720Z 18013KT 10SM CLR M02/M09 A3019 780 58 -1000 180/13 RMK AO2 T10221094
14926KSTC STC20191108112511311/08/19 11:25:31  5-MIN KSTC 081725Z 16014KT 10SM CLR M02/M09 A3018 790 58 -1000 160/14 RMK AO2 PRESFR T10221094
14926KSTC STC20191108113011211/08/19 11:30:31  5-MIN KSTC 081730Z 17013G21KT 10SM CLR M02/M09 A3018 800 58 -1000 170/13G21 RMK AO2 T10221094
14926KSTC STC20191108113510611/08/19 11:35:31  5-MIN KSTC 081735Z 15014KT 10SM CLR M02/M09 A3017 800 58 -1000 150/14 RMK AO2 T10221094
14926KSTC STC20191108114010611/08/19 11:40:31  5-MIN KSTC 081740Z 16015KT 10SM CLR M02/M09 A3017 800 58 -1000 160/15 RMK AO2 T10221094
14926KSTC STC20191108114510611/08/19 11:45:31  5-MIN KSTC 081745Z 15014KT 10SM CLR M02/M09 A3017 800 58 -1000 150/14 RMK AO2 T10221094
14926KSTC STC20191108115013711/08/19 11:50:31  5-MIN KSTC 081750Z 17013G21KT 10SM CLR M02/M09 A3017 800 55 -1000 160/13G21 RMK AO2 SLP244 T10171094 11017 21089 58024
14926KSTC STC20191108115510511/08/19 11:55:31  5-MIN KSTC 081755Z 16013KT 10SM CLR M02/M09 A3016 810 55 -900 150/13 RMK AO2 T10171094
14926KSTC STC20191108120010511/08/19 12:00:31  5-MIN KSTC 081800Z 16013KT 10SM CLR M01/M09 A3016 810 53 -900 160/13 RMK AO2 T10111094
14926KSTC STC20191108120510511/08/19 12:05:31  5-MIN KSTC 081805Z 17013KT 10SM CLR M01/M09 A3016 820 53 -900 170/13 RMK AO2 T10111094
14926KSTC STC20191108121011211/08/19 12:10:31  5-MIN KSTC 081810Z 15012KT 10SM CLR M01/M09 A3015 820 53 -900 150/12 RMK AO2 PRESFR T10111094
14926KSTC STC20191108121510511/08/19 12:15:31  5-MIN KSTC 081815Z 17012KT 10SM CLR M01/M09 A3015 820 51 -800 160/12 RMK AO2 T10061094
14926KSTC STC20191108122010511/08/19 12:20:31  5-MIN KSTC 081820Z 15012KT 10SM CLR M01/M09 A3014 830 53 -800 150/12 RMK AO2 T10111094
14926KSTC STC20191108122510511/08/19 12:25:31  5-MIN KSTC 081825Z 15014KT 10SM CLR M01/M09 A3014 830 53 -800 150/14 RMK AO2 T10061089
14926KSTC STC20191108123011111/08/19 12:30:31  5-MIN KSTC 081830Z 17013G19KT 10SM CLR M01/M09 A3013 840 53 -800 170/13G19 RMK AO2 T10061089
14926KSTC STC20191108123511011/08/19 12:35:31  5-MIN KSTC 081835Z 16015G20KT 10SM CLR 00/M09 A3013 840 51 -700 160/15G20 RMK AO2 T00001089
14926KSTC STC20191108124010511/08/19 12:40:31  5-MIN KSTC 081840Z 16015KT 10SM CLR M01/M09 A3013 840 53 -800 160/15 RMK AO2 T10061089
14926KSTC STC20191108124510411/08/19 12:45:31  5-MIN KSTC 081845Z 17011KT 10SM CLR 00/M09 A3012 850 51 -700 170/11 RMK AO2 T00001089
14926KSTC STC20191108125011711/08/19 12:50:31  5-MIN KSTC 081850Z 15015G19KT 10SM CLR 00/M09 A3012 850 51 -700 150/15G19 RMK AO2 SLP226 T00001089
14926KSTC STC20191108125511011/08/19 12:55:31  5-MIN KSTC 081855Z 16013G19KT 10SM CLR 00/M09 A3012 850 51 -700 160/13G19 RMK AO2 T00001089
14926KSTC STC20191108130010411/08/19 13:00:31  5-MIN KSTC 081900Z 18013KT 10SM CLR 00/M09 A3011 860 51 -700 180/13 RMK AO2 T00001089
14926KSTC STC20191108130510511/08/19 13:05:31  5-MIN KSTC 081905Z 16014KT 10SM CLR M01/M09 A3010 860 53 -700 160/14 RMK AO2 T10061089
14926KSTC STC20191108131010511/08/19 13:10:31  5-MIN KSTC 081910Z 16013KT 10SM CLR M01/M09 A3010 870 53 -700 160/13 RMK AO2 T10061089
14926KSTC STC20191108131510411/08/19 13:15:31  5-MIN KSTC 081915Z 15016KT 10SM CLR 00/M09 A3010 870 51 -700 150/16 RMK AO2 T00001089
14926KSTC STC20191108132010411/08/19 13:20:31  5-MIN KSTC 081920Z 16012KT 10SM CLR 00/M09 A3009 880 51 -700 160/12 RMK AO2 T00001089
14926KSTC STC20191108132510511/08/19 13:25:31  5-MIN KSTC 081925Z 17010KT 10SM CLR M01/M09 A3009 880 53 -700 160/10 RMK AO2 T10061089
14926KSTC STC20191108133011111/08/19 13:30:31  5-MIN KSTC 081930Z 16014G19KT 10SM CLR M01/M09 A3009 880 53 -700 160/14G19 RMK AO2 T10061089
14926KSTC STC20191108133511011/08/19 13:35:31  5-MIN KSTC 081935Z 16014G20KT 10SM CLR 00/M09 A3008 880 51 -600 160/14G20 RMK AO2 T00001089
14926KSTC STC20191108134010511/08/19 13:40:31  5-MIN KSTC 081940Z 16013KT 10SM CLR M01/M09 A3008 890 53 -700 150/13 RMK AO2 T10061089
14926KSTC STC20191108134510511/08/19 13:45:31  5-MIN KSTC 081945Z 17014KT 10SM CLR M01/M09 A3008 890 53 -700 170/14 RMK AO2 T10061089
14926KSTC STC20191108135011111/08/19 13:50:31  5-MIN KSTC 081950Z 15013KT 10SM CLR 00/M09 A3007 890 51 -600 150/13 RMK AO2 SLP208 T00001089
14926KSTC STC20191108135510411/08/19 13:55:31  5-MIN KSTC 081955Z 17013KT 10SM CLR 00/M08 A3007 900 53 -600 170/13 RMK AO2 T00001083
14926KSTC STC20191108140010411/08/19 14:00:31  5-MIN KSTC 082000Z 16013KT 10SM CLR 00/M08 A3006 900 53 -600 160/13 RMK AO2 T00001083
14926KSTC STC20191108140510411/08/19 14:05:31  5-MIN KSTC 082005Z 17015KT 10SM CLR 00/M08 A3006 910 53 -600 170/15 RMK AO2 T00001083
14926KSTC STC20191108141010411/08/19 14:10:31  5-MIN KSTC 082010Z 17014KT 10SM CLR 00/M08 A3006 910 53 -600 170/14 RMK AO2 T00001083
14926KSTC STC20191108141510511/08/19 14:15:31  5-MIN KSTC 082015Z 16014KT 10SM CLR M01/M08 A3006 910 56 -700 160/14 RMK AO2 T10061083
14926KSTC STC20191108142010411/08/19 14:20:31  5-MIN KSTC 082020Z 16012KT 10SM CLR 00/M08 A3005 910 53 -600 160/12 RMK AO2 T00001083
14926KSTC STC20191108142510511/08/19 14:25:31  5-MIN KSTC 082025Z 16016KT 10SM CLR M01/M08 A3004 920 56 -700 160/16 RMK AO2 T10061083
14926KSTC STC20191108143010511/08/19 14:30:31  5-MIN KSTC 082030Z 17014KT 10SM CLR M01/M08 A3004 920 56 -700 170/14 RMK AO2 T10061083
14926KSTC STC20191108143511111/08/19 14:35:31  5-MIN KSTC 082035Z 16015G22KT 10SM CLR M01/M08 A3004 920 56 -700 160/15G22 RMK AO2 T10061083
14926KSTC STC20191108144011111/08/19 14:40:31  5-MIN KSTC 082040Z 17013G22KT 10SM CLR M01/M08 A3004 930 56 -700 170/13G22 RMK AO2 T10061083
14926KSTC STC20191108144510511/08/19 14:45:31  5-MIN KSTC 082045Z 15013KT 10SM CLR M01/M08 A3004 920 56 -700 150/13 RMK AO2 T10061083
14926KSTC STC20191108145011811/08/19 14:50:31  5-MIN KSTC 082050Z 15014KT 10SM CLR M01/M08 A3003 930 56 -700 150/14 RMK AO2 SLP195 T10061083 58032
14926KSTC STC20191108145510511/08/19 14:55:31  5-MIN KSTC 082055Z 16012KT 10SM CLR M01/M08 A3002 940 56 -600 160/12 RMK AO2 T10061083
14926KSTC STC20191108150010511/08/19 15:00:31  5-MIN KSTC 082100Z 15014KT 10SM CLR M01/M08 A3002 940 56 -600 150/14 RMK AO2 T10061083
14926KSTC STC20191108150511111/08/19 15:05:31  5-MIN KSTC 082105Z 15015G21KT 10SM CLR M01/M08 A3002 940 56 -600 150/15G21 RMK AO2 T10061083
14926KSTC STC20191108151011111/08/19 15:10:31  5-MIN KSTC 082110Z 16015G21KT 10SM CLR M01/M08 A3002 940 56 -600 150/15G21 RMK AO2 T10061083
14926KSTC STC20191108151510511/08/19 15:15:31  5-MIN KSTC 082115Z 15012KT 10SM CLR M01/M08 A3003 940 58 -600 150/12 RMK AO2 T10061078
14926KSTC STC20191108152010511/08/19 15:20:31  5-MIN KSTC 082120Z 15012KT 10SM CLR M01/M08 A3002 940 58 -600 150/12 RMK AO2 T10061078
14926KSTC STC20191108152510511/08/19 15:25:31  5-MIN KSTC 082125Z 16015KT 10SM CLR M01/M08 A3002 940 58 -600 160/15 RMK AO2 T10061078
14926KSTC STC20191108153010511/08/19 15:30:31  5-MIN KSTC 082130Z 16013KT 10SM CLR M01/M08 A3002 940 58 -600 160/13 RMK AO2 T10061078
14926KSTC STC20191108153510811/08/19 15:35:31  5-MIN KSTC 082135Z 17013KT 10SM FEW120 M01/M08 A3002 940 58 -600 170/13 RMK AO2 T10061078
14926KSTC STC20191108154011411/08/19 15:40:31  5-MIN KSTC 082140Z 16012G19KT 10SM FEW120 M01/M08 A3003 940 58 -600 160/12G19 RMK AO2 T10061078
14926KSTC STC20191108154511411/08/19 15:45:31  5-MIN KSTC 082145Z 16014G19KT 10SM SCT120 M01/M08 A3003 930 58 -700 160/14G19 RMK AO2 T10061078
14926KSTC STC20191108155011511/08/19 15:50:31  5-MIN KSTC 082150Z 16015KT 10SM BKN120 M01/M08 A3003 940 58 -600 160/15 RMK AO2 SLP192 T10061078
14926KSTC STC20191108155510811/08/19 15:55:31  5-MIN KSTC 082155Z 16013KT 10SM BKN120 M01/M07 A3002 940 61 -600 160/13 RMK AO2 T10061072
14926KSTC STC20191108160010811/08/19 16:00:31  5-MIN KSTC 082200Z 16016KT 10SM SCT120 M01/M07 A3002 940 61 -600 160/16 RMK AO2 T10061072
14926KSTC STC20191108160511411/08/19 16:05:31  5-MIN KSTC 082205Z 16012G22KT 10SM SCT120 M01/M07 A3002 940 61 -600 160/12G22 RMK AO2 T10061072
14926KSTC STC20191108161011411/08/19 16:10:31  5-MIN KSTC 082210Z 17012G22KT 10SM SCT120 M01/M07 A3002 940 61 -600 160/12G22 RMK AO2 T10061072
14926KSTC STC20191108161511411/08/19 16:15:31  5-MIN KSTC 082215Z 17014G21KT 10SM FEW120 M01/M07 A3002 940 61 -600 170/14G21 RMK AO2 T10061072
14926KSTC STC20191108162011111/08/19 16:20:31  5-MIN KSTC 082220Z 16011G19KT 10SM CLR M01/M07 A3001 950 61 -600 160/11G19 RMK AO2 T10061072
14926KSTC STC20191108162510511/08/19 16:25:31  5-MIN KSTC 082225Z 15014KT 10SM CLR M01/M07 A3001 950 61 -600 150/14 RMK AO2 T10061072
14926KSTC STC20191108163010511/08/19 16:30:31  5-MIN KSTC 082230Z 16011KT 10SM CLR M01/M07 A3001 950 63 -700 160/11 RMK AO2 T10111072
14926KSTC STC20191108163510511/08/19 16:35:31  5-MIN KSTC 082235Z 15012KT 10SM CLR M01/M07 A3001 960 63 -700 150/12 RMK AO2 T10111072
14926KSTC STC20191108164010511/08/19 16:40:31  5-MIN KSTC 082240Z 16011KT 10SM CLR M01/M07 A3001 950 63 -700 160/11 RMK AO2 T10111072
14926KSTC STC20191108164510511/08/19 16:45:31  5-MIN KSTC 082245Z 16010KT 10SM CLR M01/M07 A3000 960 63 -700 160/10 RMK AO2 T10111072
14926KSTC STC20191108165011211/08/19 16:50:31  5-MIN KSTC 082250Z 16010KT 10SM CLR M01/M07 A3000 960 63 -700 160/10 RMK AO2 SLP184 T10111072
14926KSTC STC20191108165510811/08/19 16:55:31  5-MIN KSTC 082255Z 16012KT 10SM FEW100 M01/M07 A2999 970 63 -700 160/12 RMK AO2 T10111072
14926KSTC STC20191108170010811/08/19 17:00:31  5-MIN KSTC 082300Z 15010KT 10SM FEW100 M01/M07 A2999 970 63 -700 150/10 RMK AO2 T10111072
14926KSTC STC20191108170510811/08/19 17:05:31  5-MIN KSTC 082305Z 15010KT 10SM FEW100 M01/M07 A2999 970 63 -700 150/10 RMK AO2 T10111072
14926KSTC STC20191108171010811/08/19 17:10:31  5-MIN KSTC 082310Z 16010KT 10SM FEW100 M01/M07 A2999 970 63 -700 160/10 RMK AO2 T10111072
14926KSTC STC20191108171510811/08/19 17:15:31  5-MIN KSTC 082315Z 16010KT 10SM FEW100 M01/M07 A2999 970 66 -700 160/10 RMK AO2 T10111067
14926KSTC STC20191108172010811/08/19 17:20:31  5-MIN KSTC 082320Z 16011KT 10SM SCT100 M01/M07 A2998 980 66 -700 160/11 RMK AO2 T10111067
14926KSTC STC20191108172510811/08/19 17:25:31  5-MIN KSTC 082325Z 16011KT 10SM SCT100 M01/M07 A2998 970 66 -700 160/11 RMK AO2 T10111067
14926KSTC STC20191108173010811/08/19 17:30:31  5-MIN KSTC 082330Z 15009KT 10SM FEW100 M01/M07 A2998 970 66 -700 150/09 RMK AO2 T10111067
14926KSTC STC20191108173510811/08/19 17:35:31  5-MIN KSTC 082335Z 15009KT 10SM FEW100 M02/M07 A2998 970 69 -700 150/09 RMK AO2 T10171067
14926KSTC STC20191108174010811/08/19 17:40:31  5-MIN KSTC 082340Z 15009KT 10SM FEW100 M02/M07 A2998 970 69 -700 140/09 RMK AO2 T10171067
14926KSTC STC20191108174510811/08/19 17:45:31  5-MIN KSTC 082345Z 15009KT 10SM FEW100 M02/M07 A2998 970 69 -700 150/09 RMK AO2 T10171067
14926KSTC STC20191108175013011/08/19 17:50:31  5-MIN KSTC 082350Z 15009KT 10SM CLR M01/M07 A2998 980 66 -700 150/09 RMK AO2 SLP177 T10111067 10000 21017 56046
14926KSTC STC20191108175510511/08/19 17:55:31  5-MIN KSTC 082355Z 15009KT 10SM CLR M01/M07 A2997 980 66 -700 150/09 RMK AO2 T10111067
14926KSTC STC20191108180010511/08/19 18:00:31  5-MIN KSTC 090000Z 15008KT 10SM CLR M01/M07 A2997 990 66 -700 150/08 RMK AO2 T10111067
14926KSTC STC20191108180510511/08/19 18:05:31  5-MIN KSTC 090005Z 15008KT 10SM CLR M01/M06 A2997 990 69 -700 150/08 RMK AO2 T10111061
14926KSTC STC20191108181010511/08/19 18:10:31  5-MIN KSTC 090010Z 15008KT 10SM CLR M01/M06 A2997 980 69 -700 150/08 RMK AO2 T10111061
14926KSTC STC20191108181510511/08/19 18:15:31  5-MIN KSTC 090015Z 16008KT 10SM CLR M01/M06 A2997 990 69 -700 160/08 RMK AO2 T10111061
14926KSTC STC20191108182010511/08/19 18:20:31  5-MIN KSTC 090020Z 16009KT 10SM CLR M01/M06 A2997 990 69 -600 150/09 RMK AO2 T10111061
14926KSTC STC20191108182510611/08/19 18:25:31  5-MIN KSTC 090025Z 15008KT 10SM CLR M01/M06 A2996 1000 69 -600 150/08 RMK AO2 T10111061
14926KSTC STC20191108183010611/08/19 18:30:31  5-MIN KSTC 090030Z 15008KT 10SM CLR M01/M06 A2996 1000 69 -600 150/08 RMK AO2 T10111061
14926KSTC STC20191108183510611/08/19 18:35:31  5-MIN KSTC 090035Z 15008KT 10SM CLR M01/M06 A2995 1000 69 -600 150/08 RMK AO2 T10111061
14926KSTC STC20191108184010611/08/19 18:40:31  5-MIN KSTC 090040Z 16008KT 10SM CLR M01/M06 A2995 1000 69 -600 160/08 RMK AO2 T10111061
14926KSTC STC20191108184510611/08/19 18:45:31  5-MIN KSTC 090045Z 15008KT 10SM CLR M01/M06 A2995 1010 69 -600 150/08 RMK AO2 T10111061
14926KSTC STC20191108185011311/08/19 18:50:31  5-MIN KSTC 090050Z 15009KT 10SM CLR M01/M06 A2995 1010 69 -600 150/09 RMK AO2 SLP165 T10111061
14926KSTC STC20191108185510611/08/19 18:55:31  5-MIN KSTC 090055Z 15009KT 10SM CLR M01/M06 A2994 1010 69 -600 150/09 RMK AO2 T10111061
14926KSTC STC20191108190010611/08/19 19:00:31  5-MIN KSTC 090100Z 15008KT 10SM CLR M01/M06 A2994 1010 72 -600 150/08 RMK AO2 T10111056
14926KSTC STC20191108190510611/08/19 19:05:31  5-MIN KSTC 090105Z 15007KT 10SM CLR M01/M06 A2994 1010 72 -600 150/07 RMK AO2 T10111056
14926KSTC STC20191108191010611/08/19 19:10:31  5-MIN KSTC 090110Z 16008KT 10SM CLR M01/M06 A2994 1020 69 -600 160/08 RMK AO2 T10111061
14926KSTC STC20191108191510611/08/19 19:15:31  5-MIN KSTC 090115Z 16008KT 10SM CLR M01/M06 A2993 1020 72 -600 160/08 RMK AO2 T10111056
14926KSTC STC20191108192010611/08/19 19:20:31  5-MIN KSTC 090120Z 17008KT 10SM CLR M01/M06 A2993 1020 72 -600 170/08 RMK AO2 T10111056
14926KSTC STC20191108192510611/08/19 19:25:31  5-MIN KSTC 090125Z 16007KT 10SM CLR M01/M06 A2993 1020 72 -600 160/07 RMK AO2 T10111056
14926KSTC STC20191108193010611/08/19 19:30:31  5-MIN KSTC 090130Z 16008KT 10SM CLR M01/M06 A2993 1020 72 -600 160/08 RMK AO2 T10111056
14926KSTC STC20191108193510611/08/19 19:35:31  5-MIN KSTC 090135Z 16007KT 10SM CLR M01/M06 A2993 1030 72 -600 160/07 RMK AO2 T10111056
14926KSTC STC20191108194010911/08/19 19:40:31  5-MIN KSTC 090140Z 16006KT 10SM SCT100 M01/M06 A2993 1030 72 -600 160/06 RMK AO2 T10111056
14926KSTC STC20191108194510911/08/19 19:45:31  5-MIN KSTC 090145Z 15006KT 10SM BKN100 M01/M06 A2992 1030 72 -600 150/06 RMK AO2 T10111056
14926KSTC STC20191108195011611/08/19 19:50:31  5-MIN KSTC 090150Z 14006KT 10SM BKN110 M01/M06 A2992 1030 72 -600 140/06 RMK AO2 SLP156 T10111056
14926KSTC STC20191108195510911/08/19 19:55:31  5-MIN KSTC 090155Z 14006KT 10SM SCT110 M01/M06 A2992 1040 72 -600 140/06 RMK AO2 T10111056
14926KSTC STC20191108200010911/08/19 20:00:31  5-MIN KSTC 090200Z 14006KT 10SM SCT110 M01/M06 A2991 1040 72 -600 140/06 RMK AO2 T10111056
14926KSTC STC20191108200510911/08/19 20:05:31  5-MIN KSTC 090205Z 14006KT 10SM SCT110 M01/M06 A2991 1040 72 -600 140/06 RMK AO2 T10111056
14926KSTC STC20191108201010911/08/19 20:10:31  5-MIN KSTC 090210Z 15006KT 10SM FEW110 M01/M06 A2990 1050 72 -600 150/06 RMK AO2 T10111056
14926KSTC STC20191108201510911/08/19 20:15:31  5-MIN KSTC 090215Z 15007KT 10SM FEW110 M01/M05 A2990 1050 75 -600 150/07 RMK AO2 T10111050
14926KSTC STC20191108202010911/08/19 20:20:31  5-MIN KSTC 090220Z 15006KT 10SM FEW110 M01/M05 A2990 1050 75 -600 150/06 RMK AO2 T10111050
14926KSTC STC20191108202510911/08/19 20:25:31  5-MIN KSTC 090225Z 15007KT 10SM FEW110 M01/M05 A2990 1060 75 -600 150/07 RMK AO2 T10111050
14926KSTC STC20191108203010911/08/19 20:30:31  5-MIN KSTC 090230Z 16005KT 10SM SCT110 M01/M05 A2990 1060 72 -500 160/05 RMK AO2 T10061050
14926KSTC STC20191108203510911/08/19 20:35:31  5-MIN KSTC 090235Z 16005KT 10SM BKN110 M01/M05 A2990 1050 72 -500 160/05 RMK AO2 T10061050
14926KSTC STC20191108204010911/08/19 20:40:31  5-MIN KSTC 090240Z 16004KT 10SM BKN110 M01/M05 A2990 1050 72 -500 160/04 RMK AO2 T10061050
14926KSTC STC20191108204510911/08/19 20:45:31  5-MIN KSTC 090245Z 17004KT 10SM BKN100 M01/M05 A2990 1050 72 -500 160/04 RMK AO2 T10061050
14926KSTC STC20191108205012211/08/19 20:50:31  5-MIN KSTC 090250Z 17004KT 10SM BKN100 M01/M05 A2990 1050 72 -500 170/04 RMK AO2 SLP148 T10061050 58017
14926KSTC STC20191108205510911/08/19 20:55:31  5-MIN KSTC 090255Z 16005KT 10SM OVC100 M01/M05 A2989 1060 72 -500 160/05 RMK AO2 T10061050
14926KSTC STC20191108210010911/08/19 21:00:31  5-MIN KSTC 090300Z 15004KT 10SM OVC100 M01/M05 A2989 1060 72 -500 150/04 RMK AO2 T10061050
14926KSTC STC20191108210510911/08/19 21:05:31  5-MIN KSTC 090305Z 14005KT 10SM OVC090 M01/M05 A2989 1060 72 -500 140/05 RMK AO2 T10061050
14926KSTC STC20191108211010911/08/19 21:10:31  5-MIN KSTC 090310Z 14004KT 10SM OVC090 M01/M05 A2990 1060 72 -500 140/04 RMK AO2 T10061050
14926KSTC STC20191108211510911/08/19 21:15:31  5-MIN KSTC 090315Z 15004KT 10SM OVC090 M01/M05 A2990 1060 72 -500 150/04 RMK AO2 T10061050
14926KSTC STC20191108212010911/08/19 21:20:31  5-MIN KSTC 090320Z 15005KT 10SM OVC090 M01/M04 A2989 1060 75 -500 150/05 RMK AO2 T10061044
14926KSTC STC20191108212510911/08/19 21:25:31  5-MIN KSTC 090325Z 15005KT 10SM OVC095 M01/M04 A2989 1070 75 -500 150/05 RMK AO2 T10061044
14926KSTC STC20191108213010911/08/19 21:30:31  5-MIN KSTC 090330Z 15005KT 10SM OVC095 M01/M04 A2988 1070 75 -500 150/05 RMK AO2 T10061044
14926KSTC STC20191108213510911/08/19 21:35:31  5-MIN KSTC 090335Z 16006KT 10SM OVC095 M01/M04 A2988 1070 75 -500 160/06 RMK AO2 T10061044
14926KSTC STC20191108214010911/08/19 21:40:31  5-MIN KSTC 090340Z 15006KT 10SM OVC095 M01/M04 A2987 1080 75 -500 150/06 RMK AO2 T10061044
14926KSTC STC20191108214510911/08/19 21:45:31  5-MIN KSTC 090345Z 15005KT 10SM OVC095 M01/M04 A2988 1070 75 -500 150/05 RMK AO2 T10061044
14926KSTC STC20191108215012311/08/19 21:50:31  5-MIN KSTC 090350Z 15005KT 10SM BKN095 OVC120 M01/M04 A2987 1080 75 -500 150/05 RMK AO2 SLP138 T10061044
14926KSTC STC20191108215511611/08/19 21:55:31  5-MIN KSTC 090355Z 15005KT 10SM BKN095 OVC120 M01/M04 A2988 1070 75 -500 150/05 RMK AO2 T10061044
14926KSTC STC20191108220011611/08/19 22:00:31  5-MIN KSTC 090400Z 15004KT 10SM SCT100 OVC110 M01/M04 A2987 1080 75 -500 150/04 RMK AO2 T10061044
14926KSTC STC20191108220510911/08/19 22:05:31  5-MIN KSTC 090405Z 14004KT 10SM OVC110 M01/M04 A2987 1080 75 -500 140/04 RMK AO2 T10061044
14926KSTC STC20191108221010911/08/19 22:10:31  5-MIN KSTC 090410Z 14004KT 10SM OVC110 M01/M04 A2987 1080 75 -500 130/04 RMK AO2 T10061044
14926KSTC STC20191108221510911/08/19 22:15:31  5-MIN KSTC 090415Z 14004KT 10SM OVC110 M01/M04 A2987 1080 75 -500 140/04 RMK AO2 T10061044
14926KSTC STC20191108222010911/08/19 22:20:31  5-MIN KSTC 090420Z 14003KT 10SM OVC110 M01/M04 A2987 1080 75 -500 140/03 RMK AO2 T10061044
14926KSTC STC20191108222510911/08/19 22:25:31  5-MIN KSTC 090425Z 15004KT 10SM OVC110 M01/M04 A2987 1080 75 -500 150/04 RMK AO2 T10061044
14926KSTC STC20191108223010911/08/19 22:30:31  5-MIN KSTC 090430Z 16004KT 10SM OVC110 M01/M04 A2987 1080 75 -500 150/04 RMK AO2 T10061044
14926KSTC STC20191108223510911/08/19 22:35:31  5-MIN KSTC 090435Z 15004KT 10SM OVC110 M01/M04 A2987 1080 75 -500 150/04 RMK AO2 T10061044
14926KSTC STC20191108224010911/08/19 22:40:31  5-MIN KSTC 090440Z 15005KT 10SM OVC110 M01/M04 A2987 1080 75 -500 150/05 RMK AO2 T10061044
14926KSTC STC20191108224510911/08/19 22:45:31  5-MIN KSTC 090445Z 14005KT 10SM OVC110 M01/M04 A2986 1090 75 -500 140/05 RMK AO2 T10061044
14926KSTC STC20191108225011611/08/19 22:50:31  5-MIN KSTC 090450Z 15005KT 10SM OVC110 M01/M04 A2986 1090 75 -500 150/05 RMK AO2 SLP132 T10061044
14926KSTC STC20191108225511411/08/19 22:55:31  5-MIN KSTC 090455Z AUTO 14004KT 10SM OVC110 M01/M04 A2986 1090 75 -500 140/04 RMK AO2 T10061044
14926KSTC STC20191108230011411/08/19 23:00:31  5-MIN KSTC 090500Z AUTO 14004KT 10SM OVC110 M01/M04 A2985 1090 75 -500 140/04 RMK AO2 T10061044
14926KSTC STC20191108230511411/08/19 23:05:31  5-MIN KSTC 090505Z AUTO 14004KT 10SM OVC110 M01/M04 A2985 1090 75 -400 140/04 RMK AO2 T10061044
14926KSTC STC20191108231011411/08/19 23:10:31  5-MIN KSTC 090510Z AUTO 13004KT 10SM OVC110 M01/M04 A2985 1100 75 -400 130/04 RMK AO2 T10061044
14926KSTC STC20191108231511411/08/19 23:15:31  5-MIN KSTC 090515Z AUTO 13004KT 10SM OVC110 M01/M04 A2985 1100 75 -400 130/04 RMK AO2 T10061044
14926KSTC STC20191108232011411/08/19 23:20:31  5-MIN KSTC 090520Z AUTO 13004KT 10SM OVC110 M01/M04 A2985 1100 75 -400 130/04 RMK AO2 T10061044
14926KSTC STC20191108232511411/08/19 23:25:31  5-MIN KSTC 090525Z AUTO 13004KT 10SM OVC110 M01/M04 A2985 1100 75 -400 130/04 RMK AO2 T10061044
14926KSTC STC20191108233011411/08/19 23:30:31  5-MIN KSTC 090530Z AUTO 13004KT 10SM OVC100 M01/M04 A2984 1100 75 -400 130/04 RMK AO2 T10061044
14926KSTC STC20191108233511411/08/19 23:35:31  5-MIN KSTC 090535Z AUTO 13005KT 10SM OVC100 M01/M04 A2984 1110 75 -400 130/05 RMK AO2 T10061044
14926KSTC STC20191108234011311/08/19 23:40:31  5-MIN KSTC 090540Z AUTO 14006KT 10SM OVC100 00/M04 A2984 1110 72 -400 140/06 RMK AO2 T00001044
14926KSTC STC20191108234511411/08/19 23:45:31  5-MIN KSTC 090545Z AUTO 14005KT 10SM OVC100 M01/M04 A2984 1110 75 -400 140/05 RMK AO2 T10061044
14926KSTC STC20191108235014911/08/19 23:50:31  5-MIN KSTC 090550Z AUTO 14005KT 10SM OVC100 M01/M04 A2983 1110 75 -400 140/05 RMK AO2 SLP124 T10061044 10000 21011 400001122 56026
14926KSTC STC20191108235511411/08/19 23:55:31  5-MIN KSTC 090555Z AUTO 14005KT 10SM OVC100 M01/M04 A2983 1120 75 -400 140/05 RMK AO2 T10061044
14926KSTC STC20191109000011411/09/19 00:00:31  5-MIN KSTC 090600Z AUTO 15005KT 10SM OVC100 M01/M04 A2983 1120 78 -400 150/05 RMK AO2 T10061039
14926KSTC STC20191109000511411/09/19 00:05:31  5-MIN KSTC 090605Z AUTO 14005KT 10SM OVC100 M01/M04 A2983 1120 78 -400 140/05 RMK AO2 T10061039
14926KSTC STC20191109001011411/09/19 00:10:31  5-MIN KSTC 090610Z AUTO 14005KT 10SM OVC100 M01/M04 A2983 1120 78 -400 140/05 RMK AO2 T10061039
14926KSTC STC20191109001511411/09/19 00:15:31  5-MIN KSTC 090615Z AUTO 14004KT 10SM OVC100 M01/M04 A2982 1120 78 -400 140/04 RMK AO2 T10061039
14926KSTC STC20191109002011411/09/19 00:20:31  5-MIN KSTC 090620Z AUTO 15004KT 10SM OVC100 M01/M04 A2982 1130 78 -400 150/04 RMK AO2 T10061039
14926KSTC STC20191109002511411/09/19 00:25:31  5-MIN KSTC 090625Z AUTO 15004KT 10SM OVC100 M01/M04 A2982 1130 78 -400 150/04 RMK AO2 T10061039
14926KSTC STC20191109003011411/09/19 00:30:31  5-MIN KSTC 090630Z AUTO 17005KT 10SM OVC100 M01/M04 A2982 1130 78 -400 170/05 RMK AO2 T10061039
14926KSTC STC20191109003511411/09/19 00:35:31  5-MIN KSTC 090635Z AUTO 18004KT 10SM OVC100 M01/M04 A2982 1130 78 -400 180/04 RMK AO2 T10061039
14926KSTC STC20191109004011411/09/19 00:40:31  5-MIN KSTC 090640Z AUTO 17005KT 10SM OVC100 M01/M04 A2981 1130 78 -400 170/05 RMK AO2 T10061039
14926KSTC STC20191109004511311/09/19 00:45:31  5-MIN KSTC 090645Z AUTO 18004KT 10SM OVC100 00/M04 A2981 1130 75 -300 180/04 RMK AO2 T00001039
14926KSTC STC20191109005012011/09/19 00:50:31  5-MIN KSTC 090650Z AUTO 18005KT 10SM OVC100 00/M04 A2981 1130 75 -300 170/05 RMK AO2 SLP115 T00001039
14926KSTC STC20191109005511311/09/19 00:55:31  5-MIN KSTC 090655Z AUTO 18005KT 10SM OVC100 00/M04 A2981 1130 75 -300 180/05 RMK AO2 T00001039
14926KSTC STC20191109010011311/09/19 01:00:31  5-MIN KSTC 090700Z AUTO 18005KT 10SM OVC100 00/M04 A2981 1140 75 -300 180/05 RMK AO2 T00001039
14926KSTC STC20191109010510311/09/19 01:05:31  5-MIN KSTC 090705Z AUTO 10SM OVC100 00/M04 A2981 1140 75 -300 M /M RMK AO2 T00001039
14926KSTC STC20191109011010311/09/19 01:10:31  5-MIN KSTC 090710Z AUTO 10SM OVC100 00/M04 A2980 1140 75 -300 M /M RMK AO2 T00001039
14926KSTC STC20191109011511311/09/19 01:15:31  5-MIN KSTC 090715Z AUTO 17005KT 10SM OVC100 00/M04 A2980 1140 75 -300 170/05 RMK AO2 T00001039
14926KSTC STC20191109012011311/09/19 01:20:31  5-MIN KSTC 090720Z AUTO 19004KT 10SM OVC100 00/M03 A2980 1140 78 -300 180/04 RMK AO2 T00001033
14926KSTC STC20191109012511311/09/19 01:25:31  5-MIN KSTC 090725Z AUTO 19005KT 10SM OVC100 00/M03 A2981 1140 78 -300 190/05 RMK AO2 T00001033
14926KSTC STC20191109013011311/09/19 01:30:31  5-MIN KSTC 090730Z AUTO 20006KT 10SM BKN100 00/M03 A2980 1140 78 -300 200/06 RMK AO2 T00001033
14926KSTC STC20191109013511411/09/19 01:35:31  5-MIN KSTC 090735Z AUTO 20006KT 10SM OVC100 M01/M04 A2980 1140 78 -400 200/06 RMK AO2 T10061039
14926KSTC STC20191109014011411/09/19 01:40:31  5-MIN KSTC 090740Z AUTO 20006KT 10SM OVC100 M01/M04 A2980 1140 78 -400 200/06 RMK AO2 T10061039
14926KSTC STC20191109014511411/09/19 01:45:31  5-MIN KSTC 090745Z AUTO 20006KT 10SM OVC100 M01/M04 A2980 1140 78 -400 200/06 RMK AO2 T10061039
14926KSTC STC20191109015012111/09/19 01:50:31  5-MIN KSTC 090750Z AUTO 20005KT 10SM BKN100 M01/M04 A2980 1140 81 -500 200/05 RMK AO2 SLP113 T10111039
14926KSTC STC20191109015511411/09/19 01:55:31  5-MIN KSTC 090755Z AUTO 20006KT 10SM BKN100 M01/M04 A2980 1140 81 -500 200/06 RMK AO2 T10111039
14926KSTC STC20191109020011411/09/19 02:00:31  5-MIN KSTC 090800Z AUTO 19006KT 10SM BKN095 M01/M04 A2979 1150 81 -400 190/06 RMK AO2 T10111039
14926KSTC STC20191109020511411/09/19 02:05:31  5-MIN KSTC 090805Z AUTO 17005KT 10SM SCT095 M02/M04 A2979 1150 85 -500 170/05 RMK AO2 T10171039
14926KSTC STC20191109021011411/09/19 02:10:31  5-MIN KSTC 090810Z AUTO 18003KT 10SM FEW095 M01/M04 A2979 1150 81 -400 180/03 RMK AO2 T10111039
14926KSTC STC20191109021511411/09/19 02:15:31  5-MIN KSTC 090815Z AUTO 00000KT 10SM FEW095 M01/M04 A2980 1150 81 -500 000/00 RMK AO2 T10111039
14926KSTC STC20191109022011411/09/19 02:20:31  5-MIN KSTC 090820Z AUTO 19003KT 10SM FEW095 M02/M04 A2980 1150 85 -500 190/03 RMK AO2 T10171039
14926KSTC STC20191109022511111/09/19 02:25:31  5-MIN KSTC 090825Z AUTO 19004KT 10SM CLR M01/M04 A2979 1150 81 -500 190/04 RMK AO2 T10111039
14926KSTC STC20191109023011111/09/19 02:30:31  5-MIN KSTC 090830Z AUTO 19004KT 10SM CLR M01/M04 A2979 1150 81 -400 190/04 RMK AO2 T10111039
14926KSTC STC20191109023511111/09/19 02:35:31  5-MIN KSTC 090835Z AUTO 00000KT 10SM CLR M02/M04 A2979 1160 85 -500 000/00 RMK AO2 T10171039
14926KSTC STC20191109024011111/09/19 02:40:31  5-MIN KSTC 090840Z AUTO 00000KT 10SM CLR M02/M04 A2979 1150 81 -500 000/00 RMK AO2 T10171044
14926KSTC STC20191109024511111/09/19 02:45:31  5-MIN KSTC 090845Z AUTO 19003KT 10SM CLR M01/M04 A2979 1150 81 -400 190/03 RMK AO2 T10111039
14926KSTC STC20191109025012411/09/19 02:50:31  5-MIN KSTC 090850Z AUTO 19003KT 10SM CLR M01/M04 A2979 1150 81 -400 190/03 RMK AO2 SLP108 T10111039 58021
14926KSTC STC20191109025511111/09/19 02:55:31  5-MIN KSTC 090855Z AUTO 19003KT 10SM CLR M02/M04 A2979 1150 85 -500 190/03 RMK AO2 T10171039
14926KSTC STC20191109030011111/09/19 03:00:31  5-MIN KSTC 090900Z AUTO 00000KT 10SM CLR M02/M04 A2980 1150 85 -500 000/00 RMK AO2 T10171039
14926KSTC STC20191109030511111/09/19 03:05:31  5-MIN KSTC 090905Z AUTO 00000KT 10SM CLR M02/M04 A2980 1150 85 -500 000/00 RMK AO2 T10171039
14926KSTC STC20191109031011111/09/19 03:10:31  5-MIN KSTC 090910Z AUTO 00000KT 10SM CLR M02/M04 A2979 1150 85 -600 000/00 RMK AO2 T10221044
14926KSTC STC20191109031511111/09/19 03:15:31  5-MIN KSTC 090915Z AUTO 00000KT 10SM CLR M02/M04 A2979 1150 85 -600 000/00 RMK AO2 T10221044
14926KSTC STC20191109032011111/09/19 03:20:31  5-MIN KSTC 090920Z AUTO 00000KT 10SM CLR M02/M04 A2979 1150 85 -600 000/00 RMK AO2 T10221044
14926KSTC STC20191109032511111/09/19 03:25:31  5-MIN KSTC 090925Z AUTO 00000KT 10SM CLR M03/M05 A2979 1150 88 -700 000/00 RMK AO2 T10331050
14926KSTC STC20191109033011111/09/19 03:30:31  5-MIN KSTC 090930Z AUTO 00000KT 10SM CLR M02/M04 A2980 1150 85 -600 000/00 RMK AO2 T10221044
14926KSTC STC20191109033511111/09/19 03:35:31  5-MIN KSTC 090935Z AUTO 00000KT 10SM CLR M03/M05 A2980 1150 88 -700 000/00 RMK AO2 T10331050
14926KSTC STC20191109034011111/09/19 03:40:31  5-MIN KSTC 090940Z AUTO 00000KT 10SM CLR M03/M05 A2979 1150 88 -700 000/00 RMK AO2 T10331050
14926KSTC STC20191109034511111/09/19 03:45:31  5-MIN KSTC 090945Z AUTO 00000KT 10SM CLR M03/M05 A2979 1150 88 -700 000/00 RMK AO2 T10331050
14926KSTC STC20191109035011811/09/19 03:50:31  5-MIN KSTC 090950Z AUTO 00000KT 10SM CLR M03/M04 A2979 1150 92 -700 000/00 RMK AO2 SLP109 T10331044
14926KSTC STC20191109035511111/09/19 03:55:31  5-MIN KSTC 090955Z AUTO 00000KT 10SM CLR M03/M04 A2979 1150 92 -700 000/00 RMK AO2 T10331044
14926KSTC STC20191109040011111/09/19 04:00:31  5-MIN KSTC 091000Z AUTO 00000KT 10SM CLR M03/M04 A2980 1150 92 -700 000/00 RMK AO2 T10331044
14926KSTC STC20191109040511111/09/19 04:05:31  5-MIN KSTC 091005Z AUTO 00000KT 10SM CLR M03/M05 A2980 1150 88 -700 000/00 RMK AO2 T10331050
14926KSTC STC20191109041011011/09/19 04:10:31  5-MIN KSTC 091010Z AUTO 00000KT 9SM CLR M04/M05 A2980 1150 92 -800 000/00 RMK AO2 T10391050
14926KSTC STC20191109041511011/09/19 04:15:31  5-MIN KSTC 091015Z AUTO 00000KT 9SM CLR M03/M05 A2980 1150 88 -700 000/00 RMK AO2 T10331050
14926KSTC STC20191109042011011/09/19 04:20:31  5-MIN KSTC 091020Z AUTO 00000KT 8SM CLR M04/M05 A2980 1140 92 -800 000/00 RMK AO2 T10391050
14926KSTC STC20191109042511011/09/19 04:25:31  5-MIN KSTC 091025Z AUTO 00000KT 8SM CLR M04/M05 A2980 1140 92 -800 000/00 RMK AO2 T10391050
14926KSTC STC20191109043011011/09/19 04:30:31  5-MIN KSTC 091030Z AUTO 00000KT 8SM CLR M04/M06 A2980 1140 92 -900 000/00 RMK AO2 T10441056
14926KSTC STC20191109043511011/09/19 04:35:31  5-MIN KSTC 091035Z AUTO 00000KT 7SM CLR M04/M05 A2980 1140 92 -800 000/00 RMK AO2 T10391050
14926KSTC STC20191109044011011/09/19 04:40:31  5-MIN KSTC 091040Z AUTO 00000KT 7SM CLR M04/M06 A2980 1140 92 -900 000/00 RMK AO2 T10441056
14926KSTC STC20191109044511611/09/19 04:45:31  5-MIN KSTC 091045Z AUTO 00000KT 7SM CLR M04/M06 A2980 1140 92 -900 000/00 RMK AO2 I1000 T10441056
14926KSTC STC20191109045012311/09/19 04:50:31  5-MIN KSTC 091050Z AUTO 00000KT 7SM CLR M04/M06 A2980 1140 92 -900 000/00 RMK AO2 SLP115 I1000 T10441056
14926KSTC STC20191109045511011/09/19 04:55:31  5-MIN KSTC 091055Z AUTO 00000KT 7SM CLR M04/M06 A2980 1140 92 -900 000/00 RMK AO2 T10441056
14926KSTC STC20191109050011311/09/19 05:00:31  5-MIN KSTC 091100Z AUTO 00000KT 6SM BR CLR M04/M06 A2980 1140 92 -900 000/00 RMK AO2 T10441056
14926KSTC STC20191109050511411/09/19 05:05:31  5-MIN KSTC 091105Z AUTO 00000KT 6SM BR CLR M05/M06 A2981 1140 96 -1000 000/00 RMK AO2 T10501056
14926KSTC STC20191109051011411/09/19 05:10:31  5-MIN KSTC 091110Z AUTO 00000KT 6SM BR CLR M05/M06 A2981 1140 92 -1000 000/00 RMK AO2 T10501061
14926KSTC STC20191109051511411/09/19 05:15:31  5-MIN KSTC 091115Z AUTO 00000KT 6SM BR CLR M05/M06 A2981 1130 92 -1000 000/00 RMK AO2 T10501061
14926KSTC STC20191109052011411/09/19 05:20:31  5-MIN KSTC 091120Z AUTO 00000KT 6SM BR CLR M06/M07 A2981 1130 92 -1000 000/00 RMK AO2 T10561067
14926KSTC STC20191109052511411/09/19 05:25:31  5-MIN KSTC 091125Z AUTO 00000KT 6SM BR CLR M05/M07 A2981 1130 88 -1000 000/00 RMK AO2 T10501067
14926KSTC STC20191109053011911/09/19 05:30:31  5-MIN KSTC 091130Z AUTO 00000KT 5SM BR CLR M04/M06 A2981 1130 88 -900 000/00 RMK AO2 I1000 T10441061
14926KSTC STC20191109053511911/09/19 05:35:31  5-MIN KSTC 091135Z AUTO 00000KT 5SM BR CLR M04/M06 A2982 1130 88 -900 000/00 RMK AO2 I1000 T10441061
14926KSTC STC20191109054011911/09/19 05:40:31  5-MIN KSTC 091140Z AUTO 30003KT 5SM BR CLR M04/M06 A2982 1130 92 -900 300/03 RMK AO2 I1000 T10441056
14926KSTC STC20191109054512011/09/19 05:45:31  5-MIN KSTC 091145Z AUTO 31003KT 6SM BR CLR M05/M06 A2982 1130 96 -1000 310/03 RMK AO2 I1000 T10501056
14926KSTC STC20191109055015111/09/19 05:50:31  5-MIN KSTC 091150Z AUTO 31003KT 6SM BR CLR M05/M06 A2982 1130 96 -1000 310/03 RMK AO2 SLP119 I1000 I6000 T10501056 10000 21056 56013
14926KSTC STC20191109055511411/09/19 05:55:31  5-MIN KSTC 091155Z AUTO 32003KT 6SM BR CLR M05/M06 A2982 1130 92 -1000 320/03 RMK AO2 T10501061
14926KSTC STC20191109060011111/09/19 06:00:31  5-MIN KSTC 091200Z AUTO 32003KT 7SM CLR M05/M06 A2982 1130 92 -1000 320/03 RMK AO2 T10501061
14926KSTC STC20191109060511111/09/19 06:05:31  5-MIN KSTC 091205Z AUTO 32004KT 7SM CLR M05/M06 A2982 1130 92 -1000 320/04 RMK AO2 T10501061
14926KSTC STC20191109061011011/09/19 06:10:31  5-MIN KSTC 091210Z AUTO 32004KT 8SM CLR M04/M06 A2982 1120 88 -900 320/04 RMK AO2 T10441061
14926KSTC STC20191109061511011/09/19 06:15:31  5-MIN KSTC 091215Z AUTO 31004KT 8SM CLR M04/M06 A2983 1120 88 -800 310/04 RMK AO2 T10391056
14926KSTC STC20191109062011011/09/19 06:20:31  5-MIN KSTC 091220Z AUTO 30004KT 8SM CLR M04/M06 A2983 1120 88 -800 300/04 RMK AO2 T10391056
14926KSTC STC20191109062511111/09/19 06:25:31  5-MIN KSTC 091225Z AUTO 29004KT 7SM CLR M05/M06 A2983 1110 92 -1000 290/04 RMK AO2 T10501061
14926KSTC STC20191109063011111/09/19 06:30:31  5-MIN KSTC 091230Z AUTO 28004KT 8SM CLR M06/M07 A2984 1110 92 -1100 280/04 RMK AO2 T10561067
14926KSTC STC20191109063511711/09/19 06:35:31  5-MIN KSTC 091235Z AUTO 28004KT 9SM CLR M06/M07 A2984 1110 92 -1100 280/04 RMK AO2 I1000 T10561067
14926KSTC STC20191109064011711/09/19 06:40:31  5-MIN KSTC 091240Z AUTO 29004KT 9SM CLR M05/M06 A2984 1110 92 -1000 290/04 RMK AO2 I1000 T10501061
14926KSTC STC20191109064511611/09/19 06:45:31  5-MIN KSTC 091245Z AUTO 28004KT 9SM CLR M04/M06 A2984 1110 88 -900 280/04 RMK AO2 I1000 T10441061
14926KSTC STC20191109065011811/09/19 06:50:31  5-MIN KSTC 091250Z 30003KT 8SM CLR M04/M06 A2984 1110 92 -900 300/03 RMK AO2 SLP126 I1000 T10441056
14926KSTC STC20191109065510511/09/19 06:55:31  5-MIN KSTC 091255Z 31003KT 8SM CLR M04/M05 A2983 1110 92 -800 300/03 RMK AO2 T10391050
14926KSTC STC20191109070010511/09/19 07:00:31  5-MIN KSTC 091300Z 30004KT 8SM CLR M03/M05 A2984 1110 88 -800 300/04 RMK AO2 T10331050
14926KSTC STC20191109070510511/09/19 07:05:31  5-MIN KSTC 091305Z 29004KT 8SM CLR M04/M05 A2984 1110 92 -900 290/04 RMK AO2 T10391050
14926KSTC STC20191109071010511/09/19 07:10:31  5-MIN KSTC 091310Z 28003KT 7SM CLR M04/M06 A2984 1110 92 -900 280/03 RMK AO2 T10441056
14926KSTC STC20191109071510811/09/19 07:15:31  5-MIN KSTC 091315Z 28005KT 6SM BR CLR M04/M06 A2985 1100 92 -900 280/05 RMK AO2 T10441056
14926KSTC STC20191109072010811/09/19 07:20:31  5-MIN KSTC 091320Z 28006KT 6SM BR CLR M04/M06 A2985 1100 92 -900 280/06 RMK AO2 T10441056
14926KSTC STC20191109072510511/09/19 07:25:31  5-MIN KSTC 091325Z 29005KT 7SM CLR M04/M06 A2985 1100 92 -900 290/05 RMK AO2 T10441056
14926KSTC STC20191109073010511/09/19 07:30:31  5-MIN KSTC 091330Z 30005KT 7SM CLR M04/M05 A2985 1100 92 -900 300/05 RMK AO2 T10391050
14926KSTC STC20191109073510511/09/19 07:35:31  5-MIN KSTC 091335Z 31005KT 7SM CLR M03/M05 A2985 1100 88 -800 300/05 RMK AO2 T10331050
14926KSTC STC20191109074010511/09/19 07:40:31  5-MIN KSTC 091340Z 31005KT 7SM CLR M03/M05 A2985 1100 88 -800 310/05 RMK AO2 T10331050
14926KSTC STC20191109074510511/09/19 07:45:31  5-MIN KSTC 091345Z 31005KT 7SM CLR M03/M04 A2985 1100 92 -800 310/05 RMK AO2 T10331044
14926KSTC STC20191109075011211/09/19 07:50:31  5-MIN KSTC 091350Z 31005KT 7SM CLR M03/M04 A2986 1090 92 -800 310/05 RMK AO2 SLP132 T10331044
14926KSTC STC20191109075510511/09/19 07:55:31  5-MIN KSTC 091355Z 30005KT 7SM CLR M03/M04 A2986 1090 92 -800 300/05 RMK AO2 T10331044
14926KSTC STC20191109080010511/09/19 08:00:31  5-MIN KSTC 091400Z 31005KT 8SM CLR M03/M04 A2986 1090 88 -700 310/05 RMK AO2 T10281044
14926KSTC STC20191109080510511/09/19 08:05:31  5-MIN KSTC 091405Z 32004KT 8SM CLR M02/M04 A2985 1090 88 -700 320/04 RMK AO2 T10221039
14926KSTC STC20191109081010511/09/19 08:10:31  5-MIN KSTC 091410Z 32004KT 8SM CLR M02/M04 A2985 1090 88 -700 320/04 RMK AO2 T10221039
14926KSTC STC20191109081510511/09/19 08:15:31  5-MIN KSTC 091415Z 31003KT 8SM CLR M02/M03 A2986 1090 92 -700 310/03 RMK AO2 T10221033
14926KSTC STC20191109082010511/09/19 08:20:31  5-MIN KSTC 091420Z 31003KT 8SM CLR M02/M03 A2986 1090 88 -600 310/03 RMK AO2 T10171033
14926KSTC STC20191109082510511/09/19 08:25:31  5-MIN KSTC 091425Z 32003KT 8SM CLR M02/M03 A2985 1090 88 -600 320/03 RMK AO2 T10171033
14926KSTC STC20191109083010511/09/19 08:30:31  5-MIN KSTC 091430Z 31003KT 8SM CLR M01/M03 A2986 1090 88 -500 300/03 RMK AO2 T10111028
14926KSTC STC20191109083510511/09/19 08:35:31  5-MIN KSTC 091435Z 30005KT 9SM CLR M01/M03 A2985 1090 88 -500 300/05 RMK AO2 T10111028
14926KSTC STC20191109084010611/09/19 08:40:31  5-MIN KSTC 091440Z 30005KT 10SM CLR M01/M03 A2985 1090 88 -500 300/05 RMK AO2 T10111028
14926KSTC STC20191109084510611/09/19 08:45:31  5-MIN KSTC 091445Z 30005KT 10SM CLR M01/M03 A2985 1100 85 -400 300/05 RMK AO2 T10061028
14926KSTC STC20191109085012511/09/19 08:50:31  5-MIN KSTC 091450Z 30006KT 10SM CLR M01/M03 A2985 1100 85 -400 300/06 RMK AO2 SLP129 I3/// T10061028 53008
14926KSTC STC20191109085510511/09/19 08:55:31  5-MIN KSTC 091455Z 31006KT 10SM CLR 00/M03 A2985 1100 81 -400 310/06 RMK AO2 T00001028
14926KSTC STC20191109090010511/09/19 09:00:31  5-MIN KSTC 091500Z 31006KT 10SM CLR 00/M03 A2985 1100 81 -400 310/06 RMK AO2 T00001028
14926KSTC STC20191109090510511/09/19 09:05:31  5-MIN KSTC 091505Z 30008KT 10SM CLR 00/M03 A2985 1100 81 -400 300/08 RMK AO2 T00001028
14926KSTC STC20191109091010511/09/19 09:10:31  5-MIN KSTC 091510Z 30007KT 10SM CLR 00/M03 A2985 1100 81 -400 300/07 RMK AO2 T00001028
14926KSTC STC20191109091510511/09/19 09:15:31  5-MIN KSTC 091515Z 30007KT 10SM CLR 01/M03 A2985 1100 78 -300 300/07 RMK AO2 T00061028
14926KSTC STC20191109092010511/09/19 09:20:31  5-MIN KSTC 091520Z 31007KT 10SM CLR 01/M03 A2985 1100 78 -300 300/07 RMK AO2 T00061028
14926KSTC STC20191109092510511/09/19 09:25:31  5-MIN KSTC 091525Z 30007KT 10SM CLR 01/M03 A2986 1090 78 -300 290/07 RMK AO2 T00061028
14926KSTC STC20191109093010511/09/19 09:30:31  5-MIN KSTC 091530Z 30006KT 10SM CLR 01/M03 A2986 1090 75 -200 300/06 RMK AO2 T00111028
14926KSTC STC20191109093510511/09/19 09:35:31  5-MIN KSTC 091535Z 30006KT 10SM CLR 01/M03 A2986 1090 75 -300 290/06 RMK AO2 T00111028
14926KSTC STC20191109094010511/09/19 09:40:31  5-MIN KSTC 091540Z 29008KT 10SM CLR 01/M03 A2987 1080 75 -300 290/08 RMK AO2 T00111028
14926KSTC STC20191109094510511/09/19 09:45:31  5-MIN KSTC 091545Z 30005KT 10SM CLR 02/M03 A2986 1090 72 -200 300/05 RMK AO2 T00171028
14926KSTC STC20191109095011211/09/19 09:50:31  5-MIN KSTC 091550Z 29006KT 10SM CLR 02/M03 A2986 1090 72 -200 290/06 RMK AO2 SLP132 T00171028
14926KSTC STC20191109095510511/09/19 09:55:31  5-MIN KSTC 091555Z 30006KT 10SM CLR 01/M03 A2987 1080 75 -300 300/06 RMK AO2 T00111028
14926KSTC STC20191109100010511/09/19 10:00:31  5-MIN KSTC 091600Z 29006KT 10SM CLR 02/M03 A2986 1090 72 -200 290/06 RMK AO2 T00171028
14926KSTC STC20191109100510511/09/19 10:05:31  5-MIN KSTC 091605Z 30005KT 10SM CLR 02/M03 A2987 1080 69 -100 300/05 RMK AO2 T00221028
14926KSTC STC20191109101010511/09/19 10:10:31  5-MIN KSTC 091610Z 30007KT 10SM CLR 02/M03 A2987 1080 69 -100 300/07 RMK AO2 T00221028
14926KSTC STC20191109101510511/09/19 10:15:31  5-MIN KSTC 091615Z 30007KT 10SM CLR 02/M03 A2987 1080 69 -100 300/07 RMK AO2 T00221028
14926KSTC STC20191109102010511/09/19 10:20:31  5-MIN KSTC 091620Z 30006KT 10SM CLR 02/M03 A2987 1080 69 -100 300/06 RMK AO2 T00221028
14926KSTC STC20191109102510511/09/19 10:25:31  5-MIN KSTC 091625Z 30006KT 10SM CLR 02/M03 A2986 1090 72 -200 300/06 RMK AO2 T00171028
14926KSTC STC20191109103010511/09/19 10:30:31  5-MIN KSTC 091630Z 30007KT 10SM CLR 02/M03 A2987 1080 69 -100 300/07 RMK AO2 T00221028
14926KSTC STC20191109103510511/09/19 10:35:31  5-MIN KSTC 091635Z 30007KT 10SM CLR 02/M03 A2987 1080 69 -100 300/07 RMK AO2 T00221028
14926KSTC STC20191109104010511/09/19 10:40:31  5-MIN KSTC 091640Z 29006KT 10SM CLR 02/M03 A2986 1090 69 -100 290/06 RMK AO2 T00221028
14926KSTC STC20191109104510511/09/19 10:45:31  5-MIN KSTC 091645Z 31006KT 10SM CLR 02/M03 A2987 1080 69 -100 310/06 RMK AO2 T00221028
14926KSTC STC20191109105011211/09/19 10:50:31  5-MIN KSTC 091650Z 31006KT 10SM CLR 02/M03 A2987 1080 69 -100 310/06 RMK AO2 SLP133 T00221028
14926KSTC STC20191109105510511/09/19 10:55:31  5-MIN KSTC 091655Z 32005KT 10SM CLR 03/M03 A2987 1080 67 -100 320/05 RMK AO2 T00281028
14926KSTC STC20191109110010511/09/19 11:00:31  5-MIN KSTC 091700Z 30006KT 10SM CLR 03/M03 A2987 1080 67 -100 300/06 RMK AO2 T00281028
14926KSTC STC20191109110510211/09/19 11:05:31  5-MIN KSTC 091705Z 31006KT 10SM CLR 03/M03 A2987 1080 64 0 310/06 RMK AO2 T00331028
14926KSTC STC20191109111010211/09/19 11:10:31  5-MIN KSTC 091710Z 33006KT 10SM CLR 03/M03 A2987 1080 64 0 320/06 RMK AO2 T00331028
14926KSTC STC20191109111510211/09/19 11:15:31  5-MIN KSTC 091715Z 30007KT 10SM CLR 03/M03 A2987 1080 64 0 300/07 RMK AO2 T00331028
14926KSTC STC20191109112010211/09/19 11:20:31  5-MIN KSTC 091720Z 30006KT 10SM CLR 03/M03 A2987 1080 64 0 290/06 RMK AO2 T00331028
14926KSTC STC20191109112510211/09/19 11:25:31  5-MIN KSTC 091725Z 29006KT 10SM CLR 03/M03 A2986 1090 64 0 290/06 RMK AO2 T00331028
14926KSTC STC20191109113010211/09/19 11:30:31  5-MIN KSTC 091730Z 28007KT 10SM CLR 03/M03 A2986 1090 64 0 280/07 RMK AO2 T00331028
14926KSTC STC20191109113510211/09/19 11:35:31  5-MIN KSTC 091735Z 28007KT 10SM CLR 03/M03 A2987 1080 64 0 280/07 RMK AO2 T00331028
14926KSTC STC20191109114010211/09/19 11:40:31  5-MIN KSTC 091740Z 27007KT 10SM CLR 03/M03 A2986 1090 64 0 270/07 RMK AO2 T00331028
14926KSTC STC20191109114510211/09/19 11:45:31  5-MIN KSTC 091745Z 30007KT 10SM CLR 03/M03 A2986 1090 64 0 300/07 RMK AO2 T00331028
14926KSTC STC20191109115013311/09/19 11:50:31  5-MIN KSTC 091750Z 30007KT 10SM CLR 03/M03 A2986 1090 64 0 300/07 RMK AO2 SLP131 I6000 T00331028 10039 21056 50011
14926KSTC STC20191109115510211/09/19 11:55:31  5-MIN KSTC 091755Z 28008KT 10SM CLR 03/M03 A2986 1090 64 0 280/08 RMK AO2 T00331028
14926KSTC STC20191109120010211/09/19 12:00:31  5-MIN KSTC 091800Z 29006KT 10SM CLR 03/M03 A2985 1100 64 0 290/06 RMK AO2 T00331028
14926KSTC STC20191109120510211/09/19 12:05:31  5-MIN KSTC 091805Z 29006KT 10SM CLR 03/M03 A2985 1100 64 0 290/06 RMK AO2 T00331028
14926KSTC STC20191109121010211/09/19 12:10:31  5-MIN KSTC 091810Z 30006KT 10SM CLR 03/M03 A2985 1090 64 0 300/06 RMK AO2 T00331028
14926KSTC STC20191109121510511/09/19 12:15:31  5-MIN KSTC 091815Z 32007KT 10SM FEW090 03/M03 A2985 1100 64 0 310/07 RMK AO2 T00331028
14926KSTC STC20191109122010511/09/19 12:20:31  5-MIN KSTC 091820Z 31007KT 10SM SCT085 03/M03 A2985 1100 64 0 310/07 RMK AO2 T00331028
14926KSTC STC20191109122511211/09/19 12:25:31  5-MIN KSTC 091825Z 30007KT 10SM BKN080 BKN095 03/M03 A2985 1100 64 0 300/07 RMK AO2 T00331028
14926KSTC STC20191109123010511/09/19 12:30:31  5-MIN KSTC 091830Z 29007KT 10SM BKN075 03/M03 A2985 1100 64 0 280/07 RMK AO2 T00331028
14926KSTC STC20191109123510511/09/19 12:35:31  5-MIN KSTC 091835Z 29007KT 10SM BKN080 03/M03 A2985 1100 64 0 290/07 RMK AO2 T00331028
14926KSTC STC20191109124010511/09/19 12:40:31  5-MIN KSTC 091840Z 29006KT 10SM BKN080 03/M03 A2985 1090 64 0 290/06 RMK AO2 T00331028
14926KSTC STC20191109124510511/09/19 12:45:31  5-MIN KSTC 091845Z 28007KT 10SM BKN075 03/M03 A2985 1090 64 0 280/07 RMK AO2 T00331028
14926KSTC STC20191109125011211/09/19 12:50:31  5-MIN KSTC 091850Z 28008KT 10SM BKN070 03/M03 A2985 1100 64 0 270/08 RMK AO2 SLP128 T00331028
14926KSTC STC20191109125510511/09/19 12:55:31  5-MIN KSTC 091855Z 29007KT 10SM BKN065 03/M03 A2985 1100 64 0 290/07 RMK AO2 T00331028
14926KSTC STC20191109130011211/09/19 13:00:31  5-MIN KSTC 091900Z 28007KT 10SM BKN065 BKN080 03/M03 A2985 1100 64 0 280/07 RMK AO2 T00331028
14926KSTC STC20191109130511211/09/19 13:05:31  5-MIN KSTC 091905Z 29006KT 10SM BKN060 BKN075 03/M03 A2984 1100 64 0 290/06 RMK AO2 T00331028
14926KSTC STC20191109131012711/09/19 13:10:31  5-MIN KSTC 091910Z 30006KT 9SM -RA BKN060 BKN075 03/M03 A2984 1100 64 0 300/06 RMK AO2 RAB07 P0000 T00331028
14926KSTC STC20191109131512711/09/19 13:15:31  5-MIN KSTC 091915Z 31006KT 8SM -RA BKN060 BKN070 03/M02 A2984 1110 69 0 310/06 RMK AO2 RAB07 P0000 T00281022
14926KSTC STC20191109132012711/09/19 13:20:31  5-MIN KSTC 091920Z 32007KT 8SM -RA BKN055 BKN070 03/M02 A2984 1110 72 0 320/07 RMK AO2 RAB07 P0000 T00281017
14926KSTC STC20191109132512711/09/19 13:25:31  5-MIN KSTC 091925Z 31008KT 9SM -RA BKN046 BKN065 03/M02 A2984 1100 72 0 310/08 RMK AO2 RAB07 P0000 T00281017
14926KSTC STC20191109133013511/09/19 13:30:31  5-MIN KSTC 091930Z 31008KT 10SM UP BKN049 BKN065 03/M02 A2984 1100 72 0 310/08 RMK AO2 RAB07E29UPB29 P0001 T00281017
14926KSTC STC20191109133513511/09/19 13:35:31  5-MIN KSTC 091935Z 30007KT 10SM UP BKN055 OVC070 03/M01 A2985 1100 75 0 300/07 RMK AO2 RAB07E29UPB29 P0001 T00281011
14926KSTC STC20191109134013511/09/19 13:40:31  5-MIN KSTC 091940Z 30006KT 10SM UP SCT050 OVC060 03/M01 A2985 1100 75 0 300/06 RMK AO2 RAB07E29UPB29 P0001 T00281011
14926KSTC STC20191109134513411/09/19 13:45:31  5-MIN KSTC 091945Z 30007KT 9SM UP SCT048 OVC060 03/M01 A2985 1100 79 0 300/07 RMK AO2 RAB07E29UPB29 P0001 T00281006
14926KSTC STC20191109135014111/09/19 13:50:31  5-MIN KSTC 091950Z 29007KT 9SM UP BKN048 OVC060 03/M01 A2985 1100 75 0 280/07 RMK AO2 RAB07E29UPB29 SLP127 P0001 T00281011
14926KSTC STC20191109135512011/09/19 13:55:31  5-MIN KSTC 091955Z 29006KT 8SM UP BKN048 OVC060 03/M01 A2985 1100 75 0 290/06 RMK AO2 P0000 T00281011
14926KSTC STC20191109140012011/09/19 14:00:31  5-MIN KSTC 092000Z 29008KT 7SM UP BKN046 OVC060 03/M01 A2985 1100 75 0 290/08 RMK AO2 P0000 T00281011
14926KSTC STC20191109140512711/09/19 14:05:31  5-MIN KSTC 092005Z 29008KT 7SM UP BKN041 BKN049 OVC060 03/M01 A2985 1100 79 0 290/08 RMK AO2 P0000 T00281006
14926KSTC STC20191109141012311/09/19 14:10:31  5-MIN KSTC 092010Z 31009KT 8SM UP BKN044 OVC060 02/M01 A2985 1100 82 -100 310/09 RMK AO2 P0000 T00221006
14926KSTC STC20191109141511611/09/19 14:15:31  5-MIN KSTC 092015Z 30007KT 8SM UP OVC046 02/M01 A2985 1100 82 -100 300/07 RMK AO2 P0000 T00221006
14926KSTC STC20191109142012311/09/19 14:20:31  5-MIN KSTC 092020Z 29008KT 8SM UP BKN046 OVC070 02/M01 A2985 1100 82 -100 290/08 RMK AO2 P0000 T00221006
14926KSTC STC20191109142513511/09/19 14:25:31  5-MIN KSTC 092025Z 30008KT 7SM -RA BKN050 OVC065 02/M01 A2985 1100 82 -100 300/08 RMK AO2 UPE25RAB25 P0000 T00221006
14926KSTC STC20191109143012811/09/19 14:30:31  5-MIN KSTC 092030Z 29006KT 7SM -RA OVC055 02/M01 A2985 1100 82 -100 290/06 RMK AO2 UPE25RAB25 P0000 T00221006
14926KSTC STC20191109143513511/09/19 14:35:31  5-MIN KSTC 092035Z 29008KT 6SM -RA BKN055 OVC070 02/M01 A2984 1100 82 -100 290/08 RMK AO2 UPE25RAB25 P0000 T00221006
14926KSTC STC20191109144013511/09/19 14:40:31  5-MIN KSTC 092040Z 29008KT 6SM -RA BKN060 OVC070 02/M01 A2984 1110 82 -100 280/08 RMK AO2 UPE25RAB25 P0001 T00221006
14926KSTC STC20191109144512811/09/19 14:45:31  5-MIN KSTC 092045Z 28006KT 6SM -RA OVC065 02/M01 A2984 1110 82 -100 280/06 RMK AO2 UPE25RAB25 P0001 T00221006
14926KSTC STC20191109145014711/09/19 14:50:31  5-MIN KSTC 092050Z 29006KT 6SM -RA OVC065 02/M01 A2984 1110 82 -100 290/06 RMK AO2 UPE25RAB25 SLP124 P0001 60002 T00221006 50003
14926KSTC STC20191109145511711/09/19 14:55:31  5-MIN KSTC 092055Z 28009KT 6SM -RA OVC060 02/M01 A2985 1100 82 -100 280/09 RMK AO2 P0000 T00221006
14926KSTC STC20191109150012411/09/19 15:00:31  5-MIN KSTC 092100Z 28007KT 6SM -RA BKN060 OVC070 02/M01 A2985 1100 82 -100 280/07 RMK AO2 P0001 T00221006
14926KSTC STC20191109150512611/09/19 15:05:31  5-MIN KSTC 092105Z 28010KT 5SM -RA BR BKN050 OVC070 02/00 A2985 1100 89 -200 280/10 RMK AO2 P0001 T00170000
14926KSTC STC20191109151012611/09/19 15:10:31  5-MIN KSTC 092110Z 29009KT 5SM -RA BR BKN050 OVC070 02/00 A2985 1100 89 -200 290/09 RMK AO2 P0001 T00170000
14926KSTC STC20191109151512711/09/19 15:15:31  5-MIN KSTC 092115Z 29009KT 5SM -RA BR BKN050 OVC070 02/M01 A2985 1100 85 -200 290/09 RMK AO2 P0001 T00171006
14926KSTC STC20191109152013411/09/19 15:20:31  5-MIN KSTC 092120Z 29007KT 5SM -RA BR BKN045 BKN050 OVC065 02/M01 A2985 1090 85 -200 290/07 RMK AO2 P0002 T00171006
14926KSTC STC20191109152513311/09/19 15:25:31  5-MIN KSTC 092125Z 29008KT 5SM -RA BR FEW010 BKN043 OVC070 02/00 A2986 1090 89 -200 290/08 RMK AO2 P0002 T00170000
14926KSTC STC20191109153013311/09/19 15:30:31  5-MIN KSTC 092130Z 30009KT 6SM -RA BR SCT010 BKN043 OVC070 02/00 A2986 1090 89 -200 300/09 RMK AO2 P0002 T00170000
14926KSTC STC20191109153513311/09/19 15:35:31  5-MIN KSTC 092135Z 30007KT 5SM -RA BR BKN010 BKN041 OVC070 01/00 A2986 1090 92 -200 300/07 RMK AO2 P0002 T00110000
14926KSTC STC20191109154012711/09/19 15:40:31  5-MIN KSTC 092140Z 30008KT 6SM -RA BR BKN010 OVC041 01/M01 A2986 1090 89 -200 300/08 RMK AO2 P0002 T00111006
14926KSTC STC20191109154513411/09/19 15:45:31  5-MIN KSTC 092145Z 30007KT 6SM -RA BR BKN010 BKN014 OVC041 01/M01 A2986 1090 89 -300 300/07 RMK AO2 P0002 T00111006
14926KSTC STC20191109155013411/09/19 15:50:31  5-MIN KSTC 092150Z 30011KT 6SM -RA BR SCT010 OVC014 01/M01 A2987 1080 89 -300 300/11 RMK AO2 SLP136 P0003 T00111006
14926KSTC STC20191109155511611/09/19 15:55:31  5-MIN KSTC 092155Z 30010KT 7SM UP OVC012 01/M01 A2987 1080 89 -300 300/10 RMK AO2 P0000 T00111006
14926KSTC STC20191109160014211/09/19 16:00:31  5-MIN KSTC 092200Z 30009KT 5SM -SN BR BKN012 OVC025 01/M01 A2987 1080 89 -300 290/09 RMK AO2 UPE2159SNB2159 P0000 T00111006
14926KSTC STC20191109160515311/09/19 16:05:31  5-MIN KSTC 092205Z 29008KT 2 1/2SM -SN BR SCT010 BKN014 OVC025 01/M01 A2988 1080 92 -300 290/08 RMK AO2 UPE2159SNB2159 P0000 T00061006
14926KSTC STC20191109161015311/09/19 16:10:31  5-MIN KSTC 092210Z 29009KT 1 1/4SM -SN BR SCT008 BKN012 OVC025 01/M01 A2988 1070 92 -300 290/09 RMK AO2 UPE2159SNB2159 P0000 T00061006
14926KSTC STC20191109161515311/09/19 16:15:31  5-MIN KSTC 092215Z 29009KT 1 1/4SM -SN BR FEW008 SCT012 OVC025 01/M01 A2988 1070 92 -300 290/09 RMK AO2 UPE2159SNB2159 P0000 T00061006
14926KSTC STC20191109162014611/09/19 16:20:31  5-MIN KSTC 092220Z 30008KT 1 1/4SM -SN BR SCT008 OVC027 01/M01 A2988 1070 92 -300 300/08 RMK AO2 UPE2159SNB2159 P0000 T00061006
14926KSTC STC20191109162514611/09/19 16:25:31  5-MIN KSTC 092225Z 29007KT 1 1/2SM -SN BR FEW008 OVC025 00/M01 A2988 1070 96 -400 290/07 RMK AO2 UPE2159SNB2159 P0000 T00001006
14926KSTC STC20191109163015311/09/19 16:30:31  5-MIN KSTC 092230Z 30008KT 1 3/4SM -SN BR FEW008 SCT017 OVC025 00/M01 A2988 1070 96 -400 290/08 RMK AO2 UPE2159SNB2159 P0000 T00001006
14926KSTC STC20191109163515311/09/19 16:35:31  5-MIN KSTC 092235Z 30008KT 1 3/4SM -SN BR FEW008 SCT017 OVC025 00/M01 A2988 1070 96 -400 300/08 RMK AO2 UPE2159SNB2159 P0001 T00001006
14926KSTC STC20191109164015311/09/19 16:40:31  5-MIN KSTC 092240Z 30006KT 1 1/2SM -SN BR FEW007 SCT017 OVC025 00/M01 A2988 1070 96 -400 300/06 RMK AO2 UPE2159SNB2159 P0001 T00001006
14926KSTC STC20191109164515311/09/19 16:45:31  5-MIN KSTC 092245Z 30007KT 1 1/2SM -SN BR FEW007 SCT016 OVC027 00/M01 A2988 1070 96 -400 300/07 RMK AO2 UPE2159SNB2159 P0001 T00001006
14926KSTC STC20191109165016011/09/19 16:50:31  5-MIN KSTC 092250Z 30007KT 1 1/2SM -SN BR FEW007 SCT016 OVC027 00/M01 A2988 1070 96 -400 300/07 RMK AO2 UPE2159SNB2159 SLP141 P0001 T00001006
14926KSTC STC20191109165513811/09/19 16:55:31  5-MIN KSTC 092255Z 30007KT 1 3/4SM -SN BR SCT007 SCT016 OVC027 00/M01 A2989 1060 96 -400 300/07 RMK AO2 P0000 T00001006
14926KSTC STC20191109170013411/09/19 17:00:31  5-MIN KSTC 092300Z 31007KT 2SM -SN BR SCT007 BKN030 OVC035 00/M01 A2989 1060 96 -400 310/07 RMK AO2 P0000 T00001006
14926KSTC STC20191109170512711/09/19 17:05:31  5-MIN KSTC 092305Z 31008KT 2SM -SN BR FEW007 OVC032 00/M01 A2989 1060 96 -400 310/08 RMK AO2 P0000 T00001006
14926KSTC STC20191109171013111/09/19 17:10:31  5-MIN KSTC 092310Z 31006KT 2 1/2SM -SN BR SCT007 OVC030 00/M01 A2989 1060 96 -400 310/06 RMK AO2 P0000 T00001006
14926KSTC STC20191109171513111/09/19 17:15:31  5-MIN KSTC 092315Z 31008KT 2 1/2SM -SN BR BKN009 OVC032 00/M01 A2989 1060 96 -400 310/08 RMK AO2 P0000 T00001006
14926KSTC STC20191109172013111/09/19 17:20:31  5-MIN KSTC 092320Z 31006KT 2 1/2SM -SN BR BKN007 OVC030 00/M01 A2989 1060 96 -400 310/06 RMK AO2 P0001 T00001006
14926KSTC STC20191109172513411/09/19 17:25:31  5-MIN KSTC 092325Z 32006KT 2SM -SN BR BKN007 BKN014 OVC030 00/M01 A2989 1060 96 -400 320/06 RMK AO2 P0001 T00001006
14926KSTC STC20191109173013411/09/19 17:30:31  5-MIN KSTC 092330Z 32006KT 2SM -SN BR BKN007 BKN014 OVC030 00/M01 A2990 1050 96 -400 320/06 RMK AO2 P0001 T00001006
14926KSTC STC20191109173513411/09/19 17:35:31  5-MIN KSTC 092335Z 32005KT 2SM -SN BR BKN007 BKN014 OVC030 00/M01 A2990 1050 96 -400 320/05 RMK AO2 P0001 T00001006
14926KSTC STC20191109174013811/09/19 17:40:31  5-MIN KSTC 092340Z 32005KT 2 1/2SM -SN BR BKN007 BKN014 OVC030 00/M01 A2990 1050 96 -400 310/05 RMK AO2 P0001 T00001006
14926KSTC STC20191109174513411/09/19 17:45:31  5-MIN KSTC 092345Z 32006KT 3SM -SN BR BKN007 BKN014 OVC030 00/M01 A2990 1060 96 -400 320/06 RMK AO2 P0001 T00001006
14926KSTC STC20191109175016511/09/19 17:50:31  5-MIN KSTC 092350Z 31005KT 4SM -SN BR BKN009 BKN014 OVC039 00/M01 A2990 1060 96 -400 310/05 RMK AO2 SLP147 P0001 60007 T00001006 10033 20000 51018
14926KSTC STC20191109175513411/09/19 17:55:31  5-MIN KSTC 092355Z 31005KT 3SM -SN BR SCT009 BKN014 OVC037 00/M01 A2990 1050 96 -400 310/05 RMK AO2 P0000 T00001006
14926KSTC STC20191109180013111/09/19 18:00:31  5-MIN KSTC 100000Z 31006KT 2 1/2SM -SN BR SCT009 OVC035 00/M01 A2990 1050 92 -400 310/06 RMK AO2 P0000 T00001011
14926KSTC STC20191109180511711/09/19 18:05:31  5-MIN KSTC 100005Z 3SM -SN BR SCT011 OVC033 00/M01 A2990 1050 92 -400 M /M RMK AO2 P0000 T00001011
14926KSTC STC20191109181013411/09/19 18:10:31  5-MIN KSTC 100010Z 33005KT 3SM -SN BR SCT009 SCT013 OVC033 00/M01 A2991 1050 92 -400 330/05 RMK AO2 P0000 T00001011
14926KSTC STC20191109181512711/09/19 18:15:31  5-MIN KSTC 100015Z 33005KT 4SM -SN BR SCT009 BKN031 00/M01 A2990 1050 92 -400 330/05 RMK AO2 P0000 T00001011
14926KSTC STC20191109182013411/09/19 18:20:31  5-MIN KSTC 100020Z 33005KT 4SM -SN BR FEW011 BKN031 BKN085 00/M01 A2991 1040 92 -400 330/05 RMK AO2 P0000 T00001011
14926KSTC STC20191109182513411/09/19 18:25:31  5-MIN KSTC 100025Z 33005KT 5SM -SN BR SCT013 BKN029 BKN085 00/M01 A2991 1040 92 -400 330/05 RMK AO2 P0000 T00001011
14926KSTC STC20191109183013611/09/19 18:30:31  5-MIN KSTC 100030Z 33005KT 5SM BR FEW009 SCT013 BKN027 00/M01 A2991 1040 92 -400 330/05 RMK AO2 SNE30 P0000 T00001011
14926KSTC STC20191109183513611/09/19 18:35:31  5-MIN KSTC 100035Z 33005KT 6SM BR FEW009 SCT013 BKN027 00/M01 A2991 1040 92 -400 330/05 RMK AO2 SNE30 P0000 T00001011
14926KSTC STC20191109184013311/09/19 18:40:31  5-MIN KSTC 100040Z 33005KT 7SM FEW009 SCT013 BKN027 00/M01 A2991 1040 92 -400 330/05 RMK AO2 SNE30 P0000 T00001011
14926KSTC STC20191109184513311/09/19 18:45:31  5-MIN KSTC 100045Z 33005KT 8SM FEW009 SCT013 BKN027 00/M01 A2991 1040 92 -400 330/05 RMK AO2 SNE30 P0000 T00001011
14926KSTC STC20191109185011611/09/19 18:50:31  5-MIN KSTC 100050Z 33005KT 8SM FEW013 OVC085 00/M01 A2991 1040 92 -400 330/05 RMK AO2 SNE30 P0000
14926KSTC STC20191109185511411/09/19 18:55:31  5-MIN KSTC 100055Z 31004KT 9SM FEW013 OVC080 00/M01 A2991 1040 92 -400 310/04 RMK AO2 T00001011
14926KSTC STC20191109190011411/09/19 19:00:31  5-MIN KSTC 100100Z 31006KT 9SM FEW013 OVC080 00/M01 A2991 1040 92 -400 310/06 RMK AO2 T00001011
14926KSTC STC20191109190511411/09/19 19:05:31  5-MIN KSTC 100105Z 30009KT 9SM FEW013 OVC080 00/M01 A2992 1040 92 -500 300/09 RMK AO2 T00001011
14926KSTC STC20191109191011411/09/19 19:10:31  5-MIN KSTC 100110Z 30007KT 9SM FEW013 OVC075 00/M01 A2992 1040 92 -500 300/07 RMK AO2 T00001011
14926KSTC STC20191109191511411/09/19 19:15:31  5-MIN KSTC 100115Z 30007KT 9SM FEW013 BKN070 00/M01 A2992 1040 92 -500 300/07 RMK AO2 T00001011
14926KSTC STC20191109192010711/09/19 19:20:31  5-MIN KSTC 100120Z 30008KT 9SM BKN070 00/M01 A2992 1030 92 -500 300/08 RMK AO2 T00001011
14926KSTC STC20191109192511411/09/19 19:25:31  5-MIN KSTC 100125Z 30007KT 9SM SCT075 BKN090 00/M01 A2992 1030 92 -500 300/07 RMK AO2 T00001011
14926KSTC STC20191109193011411/09/19 19:30:31  5-MIN KSTC 100130Z 30008KT 9SM BKN080 BKN090 00/M01 A2992 1030 92 -500 300/08 RMK AO2 T00001011
14926KSTC STC20191109193512211/09/19 19:35:31  5-MIN KSTC 100135Z 30010KT 10SM FEW070 BKN085 BKN120 00/M02 A2993 1020 88 -500 300/10 RMK AO2 T00001017
14926KSTC STC20191109194011511/09/19 19:40:31  5-MIN KSTC 100140Z 30008KT 10SM SCT090 BKN120 00/M02 A2993 1020 88 -500 300/08 RMK AO2 T00001017
14926KSTC STC20191109194511511/09/19 19:45:31  5-MIN KSTC 100145Z 30007KT 10SM BKN090 BKN120 00/M01 A2993 1030 92 -500 300/07 RMK AO2 T00001011
14926KSTC STC20191109195012211/09/19 19:50:31  5-MIN KSTC 100150Z 30008KT 10SM BKN090 OVC120 00/M02 A2993 1020 88 -500 300/08 RMK AO2 SLP157 T00001017
14926KSTC STC20191109195511511/09/19 19:55:31  5-MIN KSTC 100155Z 30008KT 10SM BKN090 OVC120 00/M02 A2993 1030 88 -500 290/08 RMK AO2 T00001017
14926KSTC STC20191109200011511/09/19 20:00:31  5-MIN KSTC 100200Z 29008KT 10SM BKN090 OVC120 00/M02 A2992 1030 88 -500 290/08 RMK AO2 T00001017
14926KSTC STC20191109200511511/09/19 20:05:31  5-MIN KSTC 100205Z 30006KT 10SM BKN090 OVC120 00/M02 A2992 1030 88 -500 300/06 RMK AO2 T00001017
14926KSTC STC20191109201011511/09/19 20:10:31  5-MIN KSTC 100210Z 30007KT 10SM BKN090 BKN120 00/M02 A2992 1030 88 -500 300/07 RMK AO2 T00001017
14926KSTC STC20191109201511511/09/19 20:15:31  5-MIN KSTC 100215Z 30008KT 10SM BKN085 BKN120 00/M02 A2993 1030 88 -500 300/08 RMK AO2 T00001017
14926KSTC STC20191109202011511/09/19 20:20:31  5-MIN KSTC 100220Z 31006KT 10SM BKN085 BKN120 00/M02 A2993 1030 88 -500 310/06 RMK AO2 T00001017
14926KSTC STC20191109202511411/09/19 20:25:31  5-MIN KSTC 100225Z 31007KT 9SM BKN085 BKN120 00/M02 A2993 1030 88 -500 310/07 RMK AO2 T00001017
14926KSTC STC20191109203011511/09/19 20:30:31  5-MIN KSTC 100230Z 31007KT 9SM BKN085 BKN120 M01/M02 A2993 1020 92 -500 310/07 RMK AO2 T10061017
14926KSTC STC20191109203510811/09/19 20:35:31  5-MIN KSTC 100235Z 31008KT 9SM BKN085 M01/M02 A2993 1020 92 -500 310/08 RMK AO2 T10061017
14926KSTC STC20191109204010811/09/19 20:40:31  5-MIN KSTC 100240Z 31008KT 9SM SCT085 M01/M02 A2993 1020 92 -500 310/08 RMK AO2 T10061017
14926KSTC STC20191109204510911/09/19 20:45:31  5-MIN KSTC 100245Z 32007KT 10SM SCT085 M01/M02 A2993 1020 92 -500 320/07 RMK AO2 T10061017
14926KSTC STC20191109205013511/09/19 20:50:31  5-MIN KSTC 100250Z 32008KT 10SM FEW085 SCT120 M01/M02 A2993 1020 92 -500 320/08 RMK AO2 SLP157 60000 T10061017 50009
14926KSTC STC20191109205511611/09/19 20:55:31  5-MIN KSTC 100255Z 32007KT 10SM FEW085 FEW120 M01/M02 A2993 1020 92 -500 320/07 RMK AO2 T10061017
14926KSTC STC20191109210010911/09/19 21:00:31  5-MIN KSTC 100300Z 32007KT 10SM SCT120 M01/M02 A2994 1010 92 -600 320/07 RMK AO2 T10061017
14926KSTC STC20191109210510911/09/19 21:05:31  5-MIN KSTC 100305Z 31006KT 10SM SCT120 M01/M02 A2994 1010 92 -500 310/06 RMK AO2 T10061017
14926KSTC STC20191109211010911/09/19 21:10:31  5-MIN KSTC 100310Z 31007KT 10SM BKN120 M01/M02 A2994 1010 92 -600 310/07 RMK AO2 T10061017
14926KSTC STC20191109211509911/09/19 21:15:31  5-MIN KSTC 100315Z 10SM BKN120 M01/M02 A2995 1000 92 -600 M /M RMK AO2 T10061017
14926KSTC STC20191109212009911/09/19 21:20:31  5-MIN KSTC 100320Z 10SM SCT120 M01/M02 A2996 1000 88 -600 M /M RMK AO2 T10061022
14926KSTC STC20191109212510911/09/19 21:25:31  5-MIN KSTC 100325Z 32008KT 10SM SCT120 M01/M02 A2996 1000 88 -600 320/08 RMK AO2 T10061022
14926KSTC STC20191109213010911/09/19 21:30:31  5-MIN KSTC 100330Z 32008KT 10SM FEW120 M01/M02 A2996 1000 88 -600 320/08 RMK AO2 T10061022
14926KSTC STC20191109213510811/09/19 21:35:31  5-MIN KSTC 100335Z 32008KT 10SM FEW120 M01/M02 A2996 990 88 -600 320/08 RMK AO2 T10061022
14926KSTC STC20191109214010811/09/19 21:40:31  5-MIN KSTC 100340Z 32008KT 10SM FEW120 M01/M02 A2997 990 88 -600 320/08 RMK AO2 T10061022
14926KSTC STC20191109214510811/09/19 21:45:31  5-MIN KSTC 100345Z 32008KT 10SM FEW120 M01/M02 A2997 990 88 -600 320/08 RMK AO2 T10061022
14926KSTC STC20191109215011511/09/19 21:50:31  5-MIN KSTC 100350Z 32008KT 10SM FEW120 M01/M03 A2997 990 88 -700 320/08 RMK AO2 SLP169 T10111028
14926KSTC STC20191109215509511/09/19 21:55:31  5-MIN KSTC 100355Z 10SM CLR M01/M03 A2997 990 88 -700 M /M RMK AO2 T10111028
14926KSTC STC20191109220010511/09/19 22:00:31  5-MIN KSTC 100400Z 32006KT 10SM CLR M01/M03 A2997 990 88 -700 320/06 RMK AO2 T10111028
14926KSTC STC20191109220510511/09/19 22:05:31  5-MIN KSTC 100405Z 32006KT 10SM CLR M01/M03 A2998 980 88 -700 320/06 RMK AO2 T10111028
14926KSTC STC20191109221010511/09/19 22:10:31  5-MIN KSTC 100410Z 32006KT 10SM CLR M01/M03 A2998 980 88 -700 320/06 RMK AO2 T10111028
14926KSTC STC20191109221510511/09/19 22:15:31  5-MIN KSTC 100415Z 32006KT 10SM CLR M02/M03 A2998 970 92 -700 320/06 RMK AO2 T10171028
14926KSTC STC20191109222010511/09/19 22:20:31  5-MIN KSTC 100420Z 32006KT 10SM CLR M02/M03 A2998 970 88 -700 320/06 RMK AO2 T10171033
14926KSTC STC20191109222510511/09/19 22:25:31  5-MIN KSTC 100425Z 32006KT 10SM CLR M02/M03 A2999 970 88 -700 320/06 RMK AO2 T10171033
14926KSTC STC20191109223010511/09/19 22:30:31  5-MIN KSTC 100430Z 32006KT 10SM CLR M02/M03 A2999 970 92 -800 320/06 RMK AO2 T10221033
14926KSTC STC20191109223510511/09/19 22:35:31  5-MIN KSTC 100435Z 32006KT 10SM CLR M02/M04 A2999 970 88 -800 320/06 RMK AO2 T10221039
14926KSTC STC20191109224010511/09/19 22:40:31  5-MIN KSTC 100440Z 32006KT 10SM CLR M02/M03 A2999 970 92 -800 320/06 RMK AO2 T10221033
14926KSTC STC20191109224510811/09/19 22:45:31  5-MIN KSTC 100445Z 32006KT 10SM FEW080 M02/M04 A2999 960 88 -800 320/06 RMK AO2 T10221039
14926KSTC STC20191109225011511/09/19 22:50:31  5-MIN KSTC 100450Z 32006KT 10SM SCT080 M02/M03 A3000 960 88 -800 320/06 RMK AO2 SLP179 T10171033
14926KSTC STC20191109225511311/09/19 22:55:31  5-MIN KSTC 100455Z AUTO 30007KT 10SM BKN080 M02/M03 A3000 960 88 -800 300/07 RMK AO2 T10171033
14926KSTC STC20191109230011311/09/19 23:00:31  5-MIN KSTC 100500Z AUTO 30007KT 10SM BKN080 M02/M03 A2999 970 88 -700 300/07 RMK AO2 T10171033
14926KSTC STC20191109230511311/09/19 23:05:31  5-MIN KSTC 100505Z AUTO 30007KT 10SM BKN080 M02/M03 A2999 970 88 -700 300/07 RMK AO2 T10171033
14926KSTC STC20191109231011311/09/19 23:10:31  5-MIN KSTC 100510Z AUTO 30006KT 10SM OVC080 M01/M03 A2999 970 85 -700 290/06 RMK AO2 T10111033
14926KSTC STC20191109231511311/09/19 23:15:31  5-MIN KSTC 100515Z AUTO 29006KT 10SM OVC080 M01/M03 A2999 970 85 -700 290/06 RMK AO2 T10111033
14926KSTC STC20191109232011311/09/19 23:20:31  5-MIN KSTC 100520Z AUTO 30006KT 10SM OVC075 M01/M03 A2999 970 85 -700 290/06 RMK AO2 T10111033
14926KSTC STC20191109232511311/09/19 23:25:31  5-MIN KSTC 100525Z AUTO 30007KT 10SM OVC075 M01/M03 A2999 970 85 -700 300/07 RMK AO2 T10111033
14926KSTC STC20191109233011311/09/19 23:30:31  5-MIN KSTC 100530Z AUTO 30007KT 10SM OVC075 M02/M03 A2998 970 88 -700 300/07 RMK AO2 T10171033
14926KSTC STC20191109233511311/09/19 23:35:31  5-MIN KSTC 100535Z AUTO 31006KT 10SM OVC075 M02/M03 A2998 980 88 -700 310/06 RMK AO2 T10171033
14926KSTC STC20191109234011211/09/19 23:40:31  5-MIN KSTC 100540Z AUTO 30006KT 9SM OVC070 M02/M03 A2998 980 92 -700 300/06 RMK AO2 T10171028
14926KSTC STC20191109234511211/09/19 23:45:31  5-MIN KSTC 100545Z AUTO 30007KT 9SM BKN070 M02/M03 A2998 980 88 -700 300/07 RMK AO2 T10171033
14926KSTC STC20191109235015411/09/19 23:50:31  5-MIN KSTC 100550Z AUTO 31007KT 10SM BKN070 M02/M03 A2997 980 88 -700 310/07 RMK AO2 SLP170 60000 T10171033 10000 21022 400391056 51012
14926KSTC STC20191109235511311/09/19 23:55:31  5-MIN KSTC 100555Z AUTO 33006KT 10SM BKN070 M02/M03 A2997 990 92 -800 330/06 RMK AO2 T10221033
14926KSTC STC20191110000011311/10/19 00:00:31  5-MIN KSTC 100600Z AUTO 33006KT 10SM SCT070 M02/M03 A2996 990 92 -800 330/06 RMK AO2 T10221033
14926KSTC STC20191110000511311/10/19 00:05:31  5-MIN KSTC 100605Z AUTO 32006KT 10SM FEW065 M02/M04 A2997 990 88 -800 320/06 RMK AO2 T10221039
14926KSTC STC20191110001011311/10/19 00:10:31  5-MIN KSTC 100610Z AUTO 31007KT 10SM FEW065 M02/M04 A2997 990 88 -800 310/07 RMK AO2 T10221039
14926KSTC STC20191110001511311/10/19 00:15:31  5-MIN KSTC 100615Z AUTO 30006KT 10SM FEW060 M03/M04 A2997 990 92 -900 300/06 RMK AO2 T10281039
14926KSTC STC20191110002011011/10/19 00:20:31  5-MIN KSTC 100620Z AUTO 30006KT 10SM CLR M03/M04 A2998 980 88 -900 290/06 RMK AO2 T10281044
14926KSTC STC20191110002510911/10/19 00:25:31  5-MIN KSTC 100625Z AUTO 30006KT 9SM CLR M03/M04 A2998 980 88 -900 300/06 RMK AO2 T10281044
14926KSTC STC20191110003010911/10/19 00:30:31  5-MIN KSTC 100630Z AUTO 31006KT 9SM CLR M03/M04 A2998 980 92 -900 310/06 RMK AO2 T10331044
14926KSTC STC20191110003510911/10/19 00:35:31  5-MIN KSTC 100635Z AUTO 32006KT 9SM CLR M03/M04 A2998 970 88 -900 320/06 RMK AO2 T10281044
14926KSTC STC20191110004011311/10/19 00:40:31  5-MIN KSTC 100640Z AUTO 31006KT 10SM FEW060 M03/M04 A2999 970 88 -900 310/06 RMK AO2 T10281044
14926KSTC STC20191110004511311/10/19 00:45:31  5-MIN KSTC 100645Z AUTO 31008KT 10SM SCT060 M03/M04 A3000 960 88 -900 310/08 RMK AO2 T10281044
14926KSTC STC20191110005011911/10/19 00:50:31  5-MIN KSTC 100650Z AUTO 32007KT 9SM BKN060 M03/M04 A3000 960 88 -900 320/07 RMK AO2 SLP179 T10281044
14926KSTC STC20191110005510211/10/19 00:55:31  5-MIN KSTC 100655Z AUTO 9SM BKN060 M02/M04 A3000 960 88 -800 M /M RMK AO2 T10221039
14926KSTC STC20191110010010311/10/19 01:00:31  5-MIN KSTC 100700Z AUTO 10SM BKN060 M02/M04 A3000 960 88 -800 M /M RMK AO2 T10221039
14926KSTC STC20191110010511311/10/19 01:05:31  5-MIN KSTC 100705Z AUTO 31008KT 10SM OVC060 M02/M04 A3001 950 88 -800 310/08 RMK AO2 T10221039
14926KSTC STC20191110011011311/10/19 01:10:31  5-MIN KSTC 100710Z AUTO 32008KT 10SM OVC060 M02/M04 A3001 950 85 -800 320/08 RMK AO2 T10171039
14926KSTC STC20191110011511311/10/19 01:15:31  5-MIN KSTC 100715Z AUTO 33009KT 10SM OVC060 M02/M04 A3000 960 85 -800 330/09 RMK AO2 T10171039
14926KSTC STC20191110012011311/10/19 01:20:31  5-MIN KSTC 100720Z AUTO 32008KT 10SM OVC060 M02/M04 A3001 950 85 -800 320/08 RMK AO2 T10171039
14926KSTC STC20191110012511311/10/19 01:25:31  5-MIN KSTC 100725Z AUTO 32010KT 10SM OVC055 M02/M04 A3002 940 85 -800 320/10 RMK AO2 T10171039
14926KSTC STC20191110013012011/10/19 01:30:31  5-MIN KSTC 100730Z AUTO 32008KT 10SM FEW025 OVC055 M02/M04 A3002 940 85 -800 310/08 RMK AO2 T10171039
14926KSTC STC20191110013512011/10/19 01:35:31  5-MIN KSTC 100735Z AUTO 31008KT 10SM SCT023 OVC055 M02/M04 A3002 940 85 -800 310/08 RMK AO2 T10171039
14926KSTC STC20191110014012011/10/19 01:40:31  5-MIN KSTC 100740Z AUTO 30007KT 10SM BKN023 OVC055 M02/M04 A3003 940 85 -800 300/07 RMK AO2 T10171039
14926KSTC STC20191110014512011/10/19 01:45:31  5-MIN KSTC 100745Z AUTO 30007KT 10SM BKN024 OVC055 M02/M04 A3003 930 85 -800 300/07 RMK AO2 T10171039
14926KSTC STC20191110015012711/10/19 01:50:31  5-MIN KSTC 100750Z AUTO 30009KT 10SM BKN024 OVC055 M02/M04 A3004 930 85 -800 300/09 RMK AO2 SLP191 T10171039
14926KSTC STC20191110015512011/10/19 01:55:31  5-MIN KSTC 100755Z AUTO 30008KT 10SM BKN024 OVC050 M02/M04 A3004 920 85 -800 300/08 RMK AO2 T10171039
14926KSTC STC20191110020012011/10/19 02:00:31  5-MIN KSTC 100800Z AUTO 30008KT 10SM BKN024 OVC050 M02/M04 A3004 920 85 -800 300/08 RMK AO2 T10171039
14926KSTC STC20191110020511311/10/19 02:05:31  5-MIN KSTC 100805Z AUTO 30008KT 10SM OVC024 M02/M04 A3005 920 85 -800 300/08 RMK AO2 T10171039
14926KSTC STC20191110021012011/10/19 02:10:31  5-MIN KSTC 100810Z AUTO 29007KT 10SM SCT019 OVC024 M02/M04 A3005 910 85 -800 290/07 RMK AO2 T10171039
14926KSTC STC20191110021511011/10/19 02:15:31  5-MIN KSTC 100815Z AUTO 10SM BKN019 OVC024 M02/M04 A3006 910 85 -800 M /M RMK AO2 T10171039
14926KSTC STC20191110022011011/10/19 02:20:31  5-MIN KSTC 100820Z AUTO 10SM BKN019 OVC024 M02/M04 A3005 920 85 -800 M /M RMK AO2 T10171039
14926KSTC STC20191110022511011/10/19 02:25:31  5-MIN KSTC 100825Z AUTO 10SM BKN018 OVC024 M02/M04 A3004 920 85 -800 M /M RMK AO2 T10171039
14926KSTC STC20191110023010311/10/19 02:30:31  5-MIN KSTC 100830Z AUTO 10SM OVC018 M02/M04 A3005 920 81 -800 M /M RMK AO2 T10171044
14926KSTC STC20191110023510311/10/19 02:35:31  5-MIN KSTC 100835Z AUTO 10SM OVC019 M02/M04 A3004 920 81 -800 M /M RMK AO2 T10171044
14926KSTC STC20191110024010311/10/19 02:40:31  5-MIN KSTC 100840Z AUTO 10SM OVC019 M02/M05 A3004 920 78 -800 M /M RMK AO2 T10171050
14926KSTC STC20191110024510311/10/19 02:45:31  5-MIN KSTC 100845Z AUTO 10SM OVC019 M02/M05 A3004 920 78 -800 M /M RMK AO2 T10171050
14926KSTC STC20191110025012611/10/19 02:50:31  5-MIN KSTC 100850Z AUTO 32009KT 10SM OVC019 M02/M05 A3005 920 78 -800 320/09 RMK AO2 SLP194 T10171050 50013
14926KSTC STC20191110025511311/10/19 02:55:31  5-MIN KSTC 100855Z AUTO 34009KT 10SM OVC019 M02/M05 A3004 920 78 -800 330/09 RMK AO2 T10171050
14926KSTC STC20191110030011311/10/19 03:00:31  5-MIN KSTC 100900Z AUTO 34010KT 10SM OVC019 M02/M05 A3004 930 78 -800 340/10 RMK AO2 T10171050
14926KSTC STC20191110030511911/10/19 03:05:31  5-MIN KSTC 100905Z AUTO 35011G18KT 10SM OVC019 M02/M05 A3003 930 81 -900 350/11G18 RMK AO2 T10221050
14926KSTC STC20191110031011911/10/19 03:10:31  5-MIN KSTC 100910Z AUTO 34011G20KT 10SM OVC019 M02/M06 A3003 930 75 -900 340/11G20 RMK AO2 T10221061
14926KSTC STC20191110031511911/10/19 03:15:31  5-MIN KSTC 100915Z AUTO 35009G20KT 10SM OVC021 M02/M06 A3004 930 75 -900 350/09G20 RMK AO2 T10221061
14926KSTC STC20191110032012611/10/19 03:20:31  5-MIN KSTC 100920Z AUTO 35007G17KT 10SM SCT018 OVC023 M02/M06 A3004 930 75 -900 350/07G17 RMK AO2 T10221061
14926KSTC STC20191110032512611/10/19 03:25:31  5-MIN KSTC 100925Z AUTO 34009G17KT 10SM FEW018 OVC023 M02/M06 A3004 920 75 -900 340/09G17 RMK AO2 T10221061
14926KSTC STC20191110033012011/10/19 03:30:31  5-MIN KSTC 100930Z AUTO 34009KT 10SM FEW017 OVC023 M02/M06 A3005 910 75 -900 340/09 RMK AO2 T10221061
14926KSTC STC20191110033511411/10/19 03:35:31  5-MIN KSTC 100935Z AUTO 33008KT 10SM OVC023 M03/M06 A3005 910 78 -1000 330/08 RMK AO2 T10281061
14926KSTC STC20191110034011411/10/19 03:40:31  5-MIN KSTC 100940Z AUTO 34010KT 10SM OVC023 M03/M06 A3006 910 78 -1000 340/10 RMK AO2 T10281061
14926KSTC STC20191110034511411/10/19 03:45:31  5-MIN KSTC 100945Z AUTO 33007KT 10SM OVC023 M03/M06 A3005 910 78 -1000 330/07 RMK AO2 T10281061
14926KSTC STC20191110035012111/10/19 03:50:31  5-MIN KSTC 100950Z AUTO 33009KT 10SM OVC023 M03/M06 A3006 910 78 -1000 320/09 RMK AO2 SLP199 T10281061
14926KSTC STC20191110035511411/10/19 03:55:31  5-MIN KSTC 100955Z AUTO 34011KT 10SM OVC023 M03/M06 A3005 910 78 -1000 340/11 RMK AO2 T10281061
14926KSTC STC20191110040011411/10/19 04:00:31  5-MIN KSTC 101000Z AUTO 33009KT 10SM OVC024 M03/M06 A3006 910 78 -1000 330/09 RMK AO2 T10281061
14926KSTC STC20191110040511411/10/19 04:05:31  5-MIN KSTC 101005Z AUTO 33007KT 10SM OVC024 M03/M06 A3006 910 78 -1000 330/07 RMK AO2 T10281061
14926KSTC STC20191110041011411/10/19 04:10:31  5-MIN KSTC 101010Z AUTO 33008KT 10SM OVC024 M03/M06 A3006 900 78 -1000 330/08 RMK AO2 T10281061
14926KSTC STC20191110041510411/10/19 04:15:31  5-MIN KSTC 101015Z AUTO 10SM OVC024 M03/M06 A3007 900 78 -1000 M /M RMK AO2 T10281061
14926KSTC STC20191110042010411/10/19 04:20:31  5-MIN KSTC 101020Z AUTO 10SM OVC024 M03/M06 A3007 900 78 -1000 M /M RMK AO2 T10281061
14926KSTC STC20191110042510411/10/19 04:25:31  5-MIN KSTC 101025Z AUTO 10SM OVC022 M03/M07 A3007 900 75 -1000 M /M RMK AO2 T10281067
14926KSTC STC20191110043011411/10/19 04:30:31  5-MIN KSTC 101030Z AUTO 34012KT 10SM OVC022 M03/M07 A3007 900 75 -1000 340/12 RMK AO2 T10281067
14926KSTC STC20191110043512011/10/19 04:35:31  5-MIN KSTC 101035Z AUTO 34008G18KT 10SM OVC022 M03/M07 A3007 890 78 -1100 340/08G18 RMK AO2 T10331067
14926KSTC STC20191110044012011/10/19 04:40:31  5-MIN KSTC 101040Z AUTO 34011G17KT 10SM OVC022 M03/M07 A3007 890 78 -1100 340/11G17 RMK AO2 T10331067
14926KSTC STC20191110044512011/10/19 04:45:31  5-MIN KSTC 101045Z AUTO 34010G17KT 10SM OVC024 M03/M07 A3007 890 78 -1100 340/10G17 RMK AO2 T10331067
14926KSTC STC20191110045012711/10/19 04:50:31  5-MIN KSTC 101050Z AUTO 33011G18KT 10SM OVC024 M03/M07 A3008 890 74 -1100 330/11G18 RMK AO2 SLP207 T10331072
14926KSTC STC20191110045512011/10/19 04:55:31  5-MIN KSTC 101055Z AUTO 33010G18KT 10SM OVC024 M03/M07 A3008 880 74 -1100 330/10G18 RMK AO2 T10331072
14926KSTC STC20191110050012011/10/19 05:00:31  5-MIN KSTC 101100Z AUTO 34012G18KT 10SM OVC024 M03/M07 A3008 880 74 -1100 340/12G18 RMK AO2 T10331072
14926KSTC STC20191110050512011/10/19 05:05:31  5-MIN KSTC 101105Z AUTO 34009G18KT 10SM OVC025 M03/M08 A3009 880 71 -1100 330/09G18 RMK AO2 T10331078
14926KSTC STC20191110051011411/10/19 05:10:31  5-MIN KSTC 101110Z AUTO 34009KT 10SM OVC025 M03/M07 A3009 880 74 -1100 340/09 RMK AO2 T10331072
14926KSTC STC20191110051512011/10/19 05:15:31  5-MIN KSTC 101115Z AUTO 34010G18KT 10SM OVC025 M03/M08 A3009 870 71 -1100 340/10G18 RMK AO2 T10331078
14926KSTC STC20191110052012011/10/19 05:20:31  5-MIN KSTC 101120Z AUTO 34010G18KT 10SM OVC025 M03/M08 A3009 870 71 -1100 340/10G18 RMK AO2 T10331078
14926KSTC STC20191110052511411/10/19 05:25:31  5-MIN KSTC 101125Z AUTO 34009KT 10SM OVC025 M04/M08 A3010 870 74 -1200 340/09 RMK AO2 T10391078
14926KSTC STC20191110053011411/10/19 05:30:31  5-MIN KSTC 101130Z AUTO 34009KT 10SM OVC026 M04/M08 A3010 870 74 -1200 340/09 RMK AO2 T10391078
14926KSTC STC20191110053511411/10/19 05:35:31  5-MIN KSTC 101135Z AUTO 34009KT 10SM OVC026 M04/M08 A3010 870 74 -1200 340/09 RMK AO2 T10391078
14926KSTC STC20191110054011411/10/19 05:40:31  5-MIN KSTC 101140Z AUTO 34008KT 10SM OVC026 M04/M08 A3010 870 74 -1200 340/08 RMK AO2 T10391078
14926KSTC STC20191110054511411/10/19 05:45:31  5-MIN KSTC 101145Z AUTO 34009KT 10SM OVC026 M04/M08 A3010 860 74 -1200 340/09 RMK AO2 T10391078
14926KSTC STC20191110055015111/10/19 05:50:31  5-MIN KSTC 101150Z AUTO 34010G18KT 10SM OVC028 M04/M08 A3011 860 74 -1200 340/10G18 RMK AO2 SLP217 70007 T10391078 11017 21039 51025
14926KSTC STC20191110055512011/10/19 05:55:31  5-MIN KSTC 101155Z AUTO 34011G18KT 10SM OVC028 M04/M08 A3011 860 74 -1200 340/11G18 RMK AO2 T10391078
14926KSTC STC20191110060011411/10/19 06:00:31  5-MIN KSTC 101200Z AUTO 34009KT 10SM OVC030 M04/M08 A3011 860 74 -1200 340/09 RMK AO2 T10391078
14926KSTC STC20191110060511411/10/19 06:05:31  5-MIN KSTC 101205Z AUTO 34007KT 10SM OVC030 M04/M08 A3011 860 74 -1200 340/07 RMK AO2 T10391078
14926KSTC STC20191110061011411/10/19 06:10:31  5-MIN KSTC 101210Z AUTO 33009KT 10SM OVC030 M04/M08 A3011 860 74 -1200 330/09 RMK AO2 T10391078
14926KSTC STC20191110061511411/10/19 06:15:31  5-MIN KSTC 101215Z AUTO 34009KT 10SM OVC030 M04/M08 A3012 850 74 -1200 340/09 RMK AO2 T10391078
14926KSTC STC20191110062011411/10/19 06:20:31  5-MIN KSTC 101220Z AUTO 34009KT 10SM OVC030 M04/M08 A3012 850 74 -1200 340/09 RMK AO2 T10391078
14926KSTC STC20191110062511411/10/19 06:25:31  5-MIN KSTC 101225Z AUTO 34009KT 10SM OVC028 M04/M08 A3012 850 74 -1200 340/09 RMK AO2 T10391078
14926KSTC STC20191110063011411/10/19 06:30:31  5-MIN KSTC 101230Z AUTO 34009KT 10SM OVC028 M04/M08 A3012 850 74 -1200 340/09 RMK AO2 T10391078
14926KSTC STC20191110063511411/10/19 06:35:31  5-MIN KSTC 101235Z AUTO 34008KT 10SM OVC028 M04/M08 A3012 850 74 -1200 340/08 RMK AO2 T10391078
14926KSTC STC20191110064011411/10/19 06:40:31  5-MIN KSTC 101240Z AUTO 34009KT 10SM OVC027 M04/M08 A3012 850 71 -1200 340/09 RMK AO2 T10391083
14926KSTC STC20191110064512011/10/19 06:45:31  5-MIN KSTC 101245Z AUTO 34010G17KT 10SM OVC025 M04/M08 A3013 840 74 -1200 340/10G17 RMK AO2 T10391078
14926KSTC STC20191110065012711/10/19 06:50:31  5-MIN KSTC 101250Z AUTO 34011G21KT 10SM OVC025 M04/M08 A3013 840 71 -1200 340/11G21 RMK AO2 SLP225 T10391083
14926KSTC STC20191110065511511/10/19 06:55:31  5-MIN KSTC 101255Z 34010G21KT 10SM OVC025 M04/M09 A3013 840 68 -1200 340/10G21 RMK AO2 T10391089
14926KSTC STC20191110070011511/10/19 07:00:31  5-MIN KSTC 101300Z 34011G18KT 10SM OVC025 M04/M09 A3013 840 71 -1300 340/11G18 RMK AO2 T10441089
14926KSTC STC20191110070510911/10/19 07:05:31  5-MIN KSTC 101305Z 34009KT 10SM OVC025 M04/M09 A3013 840 71 -1300 340/09 RMK AO2 T10441089
14926KSTC STC20191110071010911/10/19 07:10:31  5-MIN KSTC 101310Z 34009KT 10SM OVC025 M04/M09 A3013 840 71 -1300 340/09 RMK AO2 T10441089
14926KSTC STC20191110071510911/10/19 07:15:31  5-MIN KSTC 101315Z 34011KT 10SM OVC024 M04/M09 A3012 850 71 -1300 340/11 RMK AO2 T10441089
14926KSTC STC20191110072010911/10/19 07:20:31  5-MIN KSTC 101320Z 34010KT 10SM OVC024 M04/M09 A3013 840 71 -1300 340/10 RMK AO2 T10441089
14926KSTC STC20191110072510911/10/19 07:25:31  5-MIN KSTC 101325Z 34009KT 10SM OVC024 M04/M09 A3013 840 71 -1300 340/09 RMK AO2 T10441089
14926KSTC STC20191110073010911/10/19 07:30:31  5-MIN KSTC 101330Z 34011KT 10SM OVC024 M04/M09 A3014 830 71 -1300 340/11 RMK AO2 T10441089
14926KSTC STC20191110073510911/10/19 07:35:31  5-MIN KSTC 101335Z 34011KT 10SM OVC024 M04/M09 A3014 830 71 -1300 340/11 RMK AO2 T10441089
14926KSTC STC20191110074011511/10/19 07:40:31  5-MIN KSTC 101340Z 34008G17KT 10SM OVC024 M04/M09 A3015 830 71 -1300 340/08G17 RMK AO2 T10441089
14926KSTC STC20191110074510911/10/19 07:45:31  5-MIN KSTC 101345Z 34008KT 10SM OVC025 M04/M09 A3014 830 71 -1300 340/08 RMK AO2 T10441089
14926KSTC STC20191110075011611/10/19 07:50:31  5-MIN KSTC 101350Z 34010KT 10SM OVC025 M04/M09 A3015 820 71 -1300 340/10 RMK AO2 SLP234 T10441089
14926KSTC STC20191110075510911/10/19 07:55:31  5-MIN KSTC 101355Z 34010KT 10SM OVC025 M04/M09 A3016 810 71 -1300 340/10 RMK AO2 T10441089
14926KSTC STC20191110080011511/10/19 08:00:31  5-MIN KSTC 101400Z 33011G18KT 10SM OVC027 M04/M09 A3017 810 71 -1300 330/11G18 RMK AO2 T10441089
14926KSTC STC20191110080511511/10/19 08:05:31  5-MIN KSTC 101405Z 34012G18KT 10SM OVC027 M04/M09 A3017 810 71 -1300 340/12G18 RMK AO2 T10441089
14926KSTC STC20191110081011611/10/19 08:10:31  5-MIN KSTC 101410Z 33010KT 10SM OVC029 M04/M09 A3018 800 71 -1300 330/10 RMK AO2 PRESRR T10441089
14926KSTC STC20191110081510911/10/19 08:15:31  5-MIN KSTC 101415Z 33010KT 10SM OVC029 M04/M09 A3018 790 71 -1300 330/10 RMK AO2 T10441089
14926KSTC STC20191110082010911/10/19 08:20:31  5-MIN KSTC 101420Z 33011KT 10SM OVC029 M04/M09 A3018 790 71 -1300 330/11 RMK AO2 T10441089
14926KSTC STC20191110082510911/10/19 08:25:31  5-MIN KSTC 101425Z 34011KT 10SM OVC031 M04/M09 A3018 790 71 -1300 340/11 RMK AO2 T10441089
14926KSTC STC20191110083010911/10/19 08:30:31  5-MIN KSTC 101430Z 34011KT 10SM OVC031 M04/M09 A3018 790 71 -1300 340/11 RMK AO2 T10441089
14926KSTC STC20191110083510911/10/19 08:35:31  5-MIN KSTC 101435Z 34011KT 10SM OVC031 M05/M09 A3018 790 71 -1400 340/11 RMK AO2 T10501094
14926KSTC STC20191110084011511/10/19 08:40:31  5-MIN KSTC 101440Z 34009G17KT 10SM OVC031 M04/M09 A3018 790 68 -1300 340/09G17 RMK AO2 T10441094
14926KSTC STC20191110084510911/10/19 08:45:31  5-MIN KSTC 101445Z 34008KT 10SM OVC032 M04/M09 A3019 790 71 -1300 340/08 RMK AO2 T10441089
14926KSTC STC20191110085012811/10/19 08:50:31  5-MIN KSTC 101450Z 34010G17KT 10SM OVC032 M04/M09 A3018 800 68 -1300 340/10G17 RMK AO2 SLP243 T10441094 53020
14926KSTC STC20191110085511511/10/19 08:55:31  5-MIN KSTC 101455Z 34011G17KT 10SM OVC034 M04/M09 A3019 790 68 -1300 340/11G17 RMK AO2 T10441094
14926KSTC STC20191110090010911/10/19 09:00:31  5-MIN KSTC 101500Z 36012KT 10SM BKN034 M04/M09 A3018 790 68 -1300 350/12 RMK AO2 T10441094
14926KSTC STC20191110090511511/10/19 09:05:31  5-MIN KSTC 101505Z 34013G19KT 10SM BKN034 M05/M09 A3019 780 71 -1400 340/13G19 RMK AO2 T10501094
14926KSTC STC20191110091011511/10/19 09:10:31  5-MIN KSTC 101510Z 34011G19KT 10SM OVC034 M05/M09 A3019 780 71 -1400 340/11G19 RMK AO2 T10501094
14926KSTC STC20191110091512211/10/19 09:15:31  5-MIN KSTC 101515Z 35009G18KT 10SM FEW027 OVC034 M04/M09 A3018 790 68 -1300 350/09G18 RMK AO2 T10441094
14926KSTC STC20191110092012211/10/19 09:20:31  5-MIN KSTC 101520Z 35008G18KT 10SM FEW027 BKN034 M04/M09 A3019 780 71 -1300 350/08G18 RMK AO2 T10441089
14926KSTC STC20191110092512211/10/19 09:25:31  5-MIN KSTC 101525Z 35009G18KT 10SM FEW027 BKN034 M04/M09 A3019 780 71 -1300 350/09G18 RMK AO2 T10441089
14926KSTC STC20191110093012911/10/19 09:30:31  5-MIN KSTC 101530Z 34012G20KT 10SM FEW027 BKN034 BKN080 M05/M09 A3019 780 71 -1400 340/12G20 RMK AO2 T10501094
14926KSTC STC20191110093512911/10/19 09:35:31  5-MIN KSTC 101535Z 35013G20KT 10SM SCT027 SCT034 BKN080 M05/M09 A3021 770 71 -1400 350/13G20 RMK AO2 T10501094
14926KSTC STC20191110094012311/10/19 09:40:31  5-MIN KSTC 101540Z 36013KT 10SM SCT027 BKN034 BKN080 M05/M09 A3020 780 71 -1400 360/13 RMK AO2 T10501094
14926KSTC STC20191110094512211/10/19 09:45:31  5-MIN KSTC 101545Z 36013G20KT 10SM SCT027 BKN075 M05/M09 A3019 780 71 -1400 360/13G20 RMK AO2 T10501094
14926KSTC STC20191110095013611/10/19 09:50:31  5-MIN KSTC 101550Z 36010G20KT 10SM FEW027 SCT075 SCT110 M05/M09 A3020 780 71 -1400 360/10G20 RMK AO2 SLP250 T10501094
14926KSTC STC20191110095512911/10/19 09:55:31  5-MIN KSTC 101555Z 36013G19KT 10SM FEW027 SCT080 SCT110 M05/M09 A3020 780 71 -1400 360/13G19 RMK AO2 T10501094
14926KSTC STC20191110100012211/10/19 10:00:31  5-MIN KSTC 101600Z 36012G19KT 10SM FEW027 SCT110 M05/M10 A3020 780 68 -1400 360/12G19 RMK AO2 T10501100
14926KSTC STC20191110100511611/10/19 10:05:31  5-MIN KSTC 101605Z 36011KT 10SM FEW027 BKN100 M05/M10 A3020 780 68 -1400 360/11 RMK AO2 T10501100
14926KSTC STC20191110101011611/10/19 10:10:31  5-MIN KSTC 101610Z 35012KT 10SM FEW023 BKN100 M05/M09 A3020 780 71 -1400 350/12 RMK AO2 T10501094
14926KSTC STC20191110101512311/10/19 10:15:31  5-MIN KSTC 101615Z 36011KT 10SM FEW023 SCT090 BKN110 M05/M09 A3020 770 71 -1400 360/11 RMK AO2 T10501094
14926KSTC STC20191110102012911/10/19 10:20:31  5-MIN KSTC 101620Z 34007G17KT 10SM FEW023 BKN085 BKN100 M05/M09 A3021 760 71 -1400 340/07G17 RMK AO2 T10501094
14926KSTC STC20191110102512911/10/19 10:25:31  5-MIN KSTC 101625Z 34009G17KT 10SM SCT024 BKN080 OVC100 M05/M09 A3021 760 71 -1400 340/09G17 RMK AO2 T10501094
14926KSTC STC20191110103012311/10/19 10:30:31  5-MIN KSTC 101630Z 35010KT 10SM BKN024 BKN080 OVC100 M05/M09 A3022 760 71 -1400 350/10 RMK AO2 T10501094
14926KSTC STC20191110103512311/10/19 10:35:31  5-MIN KSTC 101635Z 35010KT 10SM BKN024 BKN075 OVC095 M05/M09 A3021 770 71 -1400 350/10 RMK AO2 T10501094
14926KSTC STC20191110104012911/10/19 10:40:31  5-MIN KSTC 101640Z 35012G16KT 10SM SCT024 BKN075 OVC090 M04/M09 A3021 770 68 -1400 350/12G16 RMK AO2 T10441094
14926KSTC STC20191110104511611/10/19 10:45:31  5-MIN KSTC 101645Z 35009KT 10SM SCT024 OVC075 M05/M09 A3021 770 71 -1400 350/09 RMK AO2 T10501094
14926KSTC STC20191110105012311/10/19 10:50:31  5-MIN KSTC 101650Z 35010KT 10SM SCT024 OVC075 M05/M09 A3021 770 71 -1400 350/10 RMK AO2 SLP255 T10501094
14926KSTC STC20191110105511611/10/19 10:55:31  5-MIN KSTC 101655Z 35009KT 10SM SCT024 OVC075 M04/M09 A3022 760 68 -1400 350/09 RMK AO2 T10441094
14926KSTC STC20191110110012211/10/19 11:00:31  5-MIN KSTC 101700Z 34009G15KT 10SM SCT024 OVC075 M05/M09 A3022 760 71 -1400 340/09G15 RMK AO2 T10501094
14926KSTC STC20191110110511611/10/19 11:05:31  5-MIN KSTC 101705Z 36009KT 10SM SCT024 OVC075 M04/M09 A3022 760 68 -1400 360/09 RMK AO2 T10441094
14926KSTC STC20191110111011611/10/19 11:10:31  5-MIN KSTC 101710Z 33009KT 10SM BKN024 OVC080 M04/M09 A3022 760 68 -1400 330/09 RMK AO2 T10441094
14926KSTC STC20191110111511611/10/19 11:15:31  5-MIN KSTC 101715Z 36008KT 10SM SCT024 OVC080 M04/M09 A3022 760 68 -1400 360/08 RMK AO2 T10441094
14926KSTC STC20191110112011611/10/19 11:20:31  5-MIN KSTC 101720Z 33008KT 10SM SCT024 OVC080 M04/M09 A3022 760 68 -1400 330/08 RMK AO2 T10441094
14926KSTC STC20191110112511611/10/19 11:25:31  5-MIN KSTC 101725Z 35010KT 10SM SCT024 OVC080 M04/M09 A3022 760 68 -1400 350/10 RMK AO2 T10441094
14926KSTC STC20191110113011611/10/19 11:30:31  5-MIN KSTC 101730Z 35009KT 10SM SCT024 OVC080 M04/M09 A3022 760 68 -1400 350/09 RMK AO2 T10441094
14926KSTC STC20191110113511611/10/19 11:35:31  5-MIN KSTC 101735Z 34009KT 10SM SCT024 OVC080 M04/M09 A3022 760 68 -1400 340/09 RMK AO2 T10441094
14926KSTC STC20191110114011611/10/19 11:40:31  5-MIN KSTC 101740Z 36009KT 10SM SCT024 OVC080 M04/M10 A3021 760 65 -1400 360/09 RMK AO2 T10441100
14926KSTC STC20191110114511611/10/19 11:45:31  5-MIN KSTC 101745Z 36010KT 10SM SCT024 OVC080 M05/M10 A3021 770 68 -1400 360/10 RMK AO2 T10501100
14926KSTC STC20191110115009911/10/19 11:50:31  5-MIN KSTC 101750Z 35010KT 10SM OVC027 M05/M10 A3021 770 68 -1400 350/10 RMK AO2
14926KSTC STC20191110115510911/10/19 11:55:31  5-MIN KSTC 101755Z 35009KT 10SM OVC027 M05/M10 A3021 770 68 -1400 350/09 RMK AO2 T10501100
14926KSTC STC20191110120012211/10/19 12:00:31  5-MIN KSTC 101800Z 34010G17KT 10SM BKN027 OVC044 M05/M11 A3021 770 65 -1400 340/10G17 RMK AO2 T10501106
14926KSTC STC20191110120511611/10/19 12:05:31  5-MIN KSTC 101805Z 35010KT 10SM BKN027 OVC044 M05/M10 A3021 770 68 -1400 350/10 RMK AO2 T10501100
14926KSTC STC20191110121011611/10/19 12:10:31  5-MIN KSTC 101810Z 35009KT 10SM BKN027 OVC035 M04/M10 A3021 770 65 -1400 350/09 RMK AO2 T10441100
14926KSTC STC20191110121510911/10/19 12:15:31  5-MIN KSTC 101815Z 35010KT 10SM OVC028 M05/M10 A3021 770 68 -1400 350/10 RMK AO2 T10501100
14926KSTC STC20191110122012411/10/19 12:20:31  5-MIN KSTC 101820Z 35010KT 8SM -SN OVC028 M05/M10 A3022 760 68 -1400 340/10 RMK AO2 SNB20 P0000 T10501100
14926KSTC STC20191110122513111/10/19 12:25:31  5-MIN KSTC 101825Z 34012KT 4SM -SN BKN025 OVC030 M06/M10 A3022 760 71 -1500 340/12 RMK AO2 SNB20 P0000 T10561100
14926KSTC STC20191110123013111/10/19 12:30:31  5-MIN KSTC 101830Z 35010KT 4SM -SN BKN023 OVC030 M06/M10 A3022 760 71 -1500 340/10 RMK AO2 SNB20 P0000 T10561100
14926KSTC STC20191110123513111/10/19 12:35:31  5-MIN KSTC 101835Z 33011KT 6SM -SN BKN023 OVC030 M06/M10 A3022 750 71 -1500 330/11 RMK AO2 SNB20 P0000 T10561100
14926KSTC STC20191110124012411/10/19 12:40:31  5-MIN KSTC 101840Z 34011KT 3SM -SN OVC023 M06/M10 A3022 750 71 -1500 340/11 RMK AO2 SNB20 P0000 T10561100
14926KSTC STC20191110124512411/10/19 12:45:31  5-MIN KSTC 101845Z 35012KT 2SM -SN OVC023 M06/M09 A3022 750 74 -1500 350/12 RMK AO2 SNB20 P0000 T10561094
14926KSTC STC20191110125013111/10/19 12:50:31  5-MIN KSTC 101850Z 34010KT 2SM -SN OVC023 M06/M09 A3022 750 74 -1500 330/10 RMK AO2 SNB20 SLP259 P0000 T10561094
14926KSTC STC20191110125511811/10/19 12:55:31  5-MIN KSTC 101855Z 35011KT 2SM -SN OVC023 M06/M09 A3023 750 74 -1500 340/11 RMK AO2 P0000 T10561094
14926KSTC STC20191110130012911/10/19 13:00:31  5-MIN KSTC 101900Z 34011KT 1 3/4SM -SN FEW017 OVC023 M06/M09 A3022 750 77 -1500 340/11 RMK AO2 P0000 T10561089
14926KSTC STC20191110130512911/10/19 13:05:31  5-MIN KSTC 101905Z 33010KT 1 3/4SM -SN FEW017 OVC023 M06/M09 A3024 740 77 -1500 330/10 RMK AO2 P0000 T10561089
14926KSTC STC20191110131013111/10/19 13:10:31  5-MIN KSTC 101910Z 34013G19KT 2SM -SN SCT017 OVC025 M06/M09 A3024 740 77 -1500 340/13G19 RMK AO2 P0000 T10561089
14926KSTC STC20191110131513511/10/19 13:15:31  5-MIN KSTC 101915Z 34011G20KT 2 1/2SM -SN SCT017 OVC025 M06/M09 A3024 740 77 -1600 340/11G20 RMK AO2 P0000 T10611094
14926KSTC STC20191110132014211/10/19 13:20:31  5-MIN KSTC 101920Z 34013G20KT 2 1/2SM -SN FEW016 BKN027 OVC035 M06/M09 A3024 740 81 -1600 340/13G20 RMK AO2 P0000 T10611089
14926KSTC STC20191110132513811/10/19 13:25:31  5-MIN KSTC 101925Z 34012G19KT 3SM -SN FEW016 SCT021 OVC029 M06/M09 A3024 740 77 -1500 340/12G19 RMK AO2 P0000 T10561089
14926KSTC STC20191110133014211/10/19 13:30:31  5-MIN KSTC 101930Z 35012G19KT 2 1/2SM -SN FEW016 SCT021 OVC029 M06/M09 A3024 740 77 -1600 350/12G19 RMK AO2 P0000 T10611094
14926KSTC STC20191110133513211/10/19 13:35:31  5-MIN KSTC 101935Z 34012KT 2SM -SN FEW016 BKN029 OVC035 M06/M09 A3024 740 81 -1600 340/12 RMK AO2 P0000 T10611089
14926KSTC STC20191110134013111/10/19 13:40:31  5-MIN KSTC 101940Z 33015G22KT 2SM -SN SCT019 OVC030 M06/M09 A3025 730 77 -1600 330/15G22 RMK AO2 P0000 T10611094
14926KSTC STC20191110134513511/10/19 13:45:31  5-MIN KSTC 101945Z 34011G22KT 1 3/4SM -SN SCT019 OVC028 M06/M09 A3025 730 77 -1600 340/11G22 RMK AO2 P0000 T10611094
14926KSTC STC20191110135012511/10/19 13:50:31  5-MIN KSTC 101950Z 34012G21KT 1 3/4SM -SN FEW015 OVC028 M07/M09 A3025 730 81 -1700 340/12G21 RMK AO2 P0000
14926KSTC STC20191110135513811/10/19 13:55:31  5-MIN KSTC 101955Z 35015G21KT 3SM -SN FEW015 BKN028 OVC036 M07/M10 A3025 730 77 -1700 350/15G21 RMK AO2 P0000 T10671100
14926KSTC STC20191110140013111/10/19 14:00:31  5-MIN KSTC 102000Z 34012G21KT 4SM -SN FEW017 OVC029 M07/M10 A3025 730 77 -1700 340/12G21 RMK AO2 P0000 T10671100
14926KSTC STC20191110140513111/10/19 14:05:31  5-MIN KSTC 102005Z 34015G22KT 5SM -SN FEW017 OVC032 M07/M11 A3024 740 74 -1700 340/15G22 RMK AO2 P0000 T10671106
14926KSTC STC20191110141013811/10/19 14:10:31  5-MIN KSTC 102010Z 35014G22KT 6SM -SN FEW017 BKN032 OVC048 M07/M11 A3024 740 71 -1700 350/14G22 RMK AO2 P0000 T10671111
14926KSTC STC20191110141512711/10/19 14:15:31  5-MIN KSTC 102015Z 34013KT 8SM BKN034 OVC046 M07/M11 A3024 740 71 -1700 340/13 RMK AO2 SNE15 P0000 T10671111
14926KSTC STC20191110142012511/10/19 14:20:31  5-MIN KSTC 102020Z 35015KT 6SM -SN BKN034 OVC046 M07/M11 A3025 730 71 -1700 350/15 RMK AO2 P0000 T10671111
14926KSTC STC20191110142513111/10/19 14:25:31  5-MIN KSTC 102025Z 36014G23KT 3SM -SN BKN034 OVC047 M07/M12 A3025 730 65 -1700 360/14G23 RMK AO2 P0000 T10671122
14926KSTC STC20191110143013511/10/19 14:30:31  5-MIN KSTC 102030Z 34014G23KT 2 1/2SM -SN BKN036 OVC047 M07/M12 A3025 730 68 -1700 340/14G23 RMK AO2 P0000 T10671117
14926KSTC STC20191110143513111/10/19 14:35:31  5-MIN KSTC 102035Z 35011G21KT 3SM -SN BKN038 OVC047 M07/M12 A3026 720 65 -1700 340/11G21 RMK AO2 P0000 T10671122
14926KSTC STC20191110144013611/10/19 14:40:31  5-MIN KSTC 102040Z 35012G21KT 3SM HZ BKN040 OVC049 M07/M12 A3026 720 65 -1700 350/12G21 RMK AO2 SNE40 P0000 T10671122
14926KSTC STC20191110144513611/10/19 14:45:31  5-MIN KSTC 102045Z 35012G20KT 3SM HZ BKN040 OVC055 M07/M13 A3026 720 62 -1700 350/12G20 RMK AO2 SNE40 P0000 T10671128
14926KSTC STC20191110145016011/10/19 14:50:31  5-MIN KSTC 102050Z 35008G20KT 10SM FEW036 BKN046 OVC060 M07/M13 A3026 720 59 -1700 340/08G20 RMK AO2 SNE40 SLP271 P0000 60000 T10671133 50009
14926KSTC STC20191110145511511/10/19 14:55:31  5-MIN KSTC 102055Z 35012G18KT 10SM OVC046 M07/M13 A3026 720 59 -1700 350/12G18 RMK AO2 T10671133
14926KSTC STC20191110150012211/10/19 15:00:31  5-MIN KSTC 102100Z 36012G20KT 10SM BKN044 OVC055 M07/M14 A3026 720 57 -1700 360/12G20 RMK AO2 T10671139
14926KSTC STC20191110150512211/10/19 15:05:31  5-MIN KSTC 102105Z 01014G22KT 10SM BKN044 OVC055 M07/M14 A3026 720 57 -1700 010/14G22 RMK AO2 T10671139
14926KSTC STC20191110151012211/10/19 15:10:31  5-MIN KSTC 102110Z 35011G22KT 10SM BKN042 OVC055 M07/M14 A3027 720 57 -1700 350/11G22 RMK AO2 T10671139
14926KSTC STC20191110151511511/10/19 15:15:31  5-MIN KSTC 102115Z 36013G20KT 10SM OVC045 M07/M14 A3027 710 57 -1700 360/13G20 RMK AO2 T10671139
14926KSTC STC20191110152012211/10/19 15:20:31  5-MIN KSTC 102120Z 36014G20KT 10SM BKN045 OVC055 M07/M14 A3027 710 56 -1800 360/14G20 RMK AO2 T10721144
14926KSTC STC20191110152512211/10/19 15:25:31  5-MIN KSTC 102125Z 35012G20KT 10SM BKN047 OVC060 M07/M14 A3027 710 56 -1800 350/12G20 RMK AO2 T10721144
14926KSTC STC20191110153011511/10/19 15:30:31  5-MIN KSTC 102130Z 36013G20KT 10SM OVC049 M07/M15 A3027 710 54 -1800 350/13G20 RMK AO2 T10721150
14926KSTC STC20191110153511511/10/19 15:35:31  5-MIN KSTC 102135Z 35012G21KT 10SM OVC049 M07/M15 A3027 710 54 -1800 350/12G21 RMK AO2 T10721150
14926KSTC STC20191110154011511/10/19 15:40:31  5-MIN KSTC 102140Z 36014G21KT 10SM OVC050 M07/M15 A3028 700 54 -1800 360/14G21 RMK AO2 T10721150
14926KSTC STC20191110154511511/10/19 15:45:31  5-MIN KSTC 102145Z 35011G19KT 10SM OVC050 M07/M15 A3028 700 54 -1800 350/11G19 RMK AO2 T10721150
14926KSTC STC20191110155012211/10/19 15:50:31  5-MIN KSTC 102150Z 35012G19KT 10SM OVC050 M07/M15 A3028 700 54 -1800 350/12G19 RMK AO2 SLP281 T10721150
14926KSTC STC20191110155511511/10/19 15:55:31  5-MIN KSTC 102155Z 35011G20KT 10SM OVC050 M07/M15 A3029 690 54 -1800 350/11G20 RMK AO2 T10721150
14926KSTC STC20191110160011511/10/19 16:00:31  5-MIN KSTC 102200Z 35013G20KT 10SM OVC050 M07/M15 A3029 700 54 -1800 340/13G20 RMK AO2 T10721150
14926KSTC STC20191110160510911/10/19 16:05:31  5-MIN KSTC 102205Z 35011KT 10SM OVC050 M07/M15 A3029 700 54 -1800 350/11 RMK AO2 T10721150
14926KSTC STC20191110161011611/10/19 16:10:31  5-MIN KSTC 102210Z 35012KT 10SM BKN050 OVC055 M07/M15 A3029 690 54 -1800 350/12 RMK AO2 T10721150
14926KSTC STC20191110161510911/10/19 16:15:31  5-MIN KSTC 102215Z 35012KT 10SM OVC050 M07/M14 A3029 690 56 -1800 350/12 RMK AO2 T10721144
14926KSTC STC20191110162011611/10/19 16:20:31  5-MIN KSTC 102220Z 35011KT 10SM BKN050 OVC075 M07/M14 A3029 690 56 -1800 350/11 RMK AO2 T10721144
14926KSTC STC20191110162511611/10/19 16:25:31  5-MIN KSTC 102225Z 35010KT 10SM SCT050 OVC075 M08/M14 A3029 690 62 -1900 350/10 RMK AO2 T10781139
14926KSTC STC20191110163012211/10/19 16:30:31  5-MIN KSTC 102230Z 35008G18KT 10SM SCT050 OVC075 M08/M14 A3030 690 62 -1900 350/08G18 RMK AO2 T10781139
14926KSTC STC20191110163512211/10/19 16:35:31  5-MIN KSTC 102235Z 35009G18KT 10SM FEW050 BKN075 M08/M14 A3030 690 62 -1900 350/09G18 RMK AO2 T10781139
14926KSTC STC20191110164010911/10/19 16:40:31  5-MIN KSTC 102240Z 35010KT 10SM BKN070 M08/M14 A3030 690 62 -1900 350/10 RMK AO2 T10781139
14926KSTC STC20191110164510911/10/19 16:45:31  5-MIN KSTC 102245Z 35008KT 10SM BKN075 M08/M14 A3030 680 62 -1900 350/08 RMK AO2 T10781139
14926KSTC STC20191110165011611/10/19 16:50:31  5-MIN KSTC 102250Z 35008KT 10SM BKN070 M08/M14 A3030 680 62 -1900 350/08 RMK AO2 SLP288 T10781139
14926KSTC STC20191110165511611/10/19 16:55:31  5-MIN KSTC 102255Z 35007KT 10SM SCT060 BKN070 M08/M14 A3031 680 62 -1900 350/07 RMK AO2 T10781139
14926KSTC STC20191110170011611/10/19 17:00:31  5-MIN KSTC 102300Z 35009KT 10SM BKN060 BKN070 M08/M14 A3031 680 62 -1900 350/09 RMK AO2 T10781139
14926KSTC STC20191110170511611/10/19 17:05:31  5-MIN KSTC 102305Z 35008KT 10SM BKN060 OVC070 M08/M14 A3031 670 59 -1900 350/08 RMK AO2 T10781144
14926KSTC STC20191110171011611/10/19 17:10:31  5-MIN KSTC 102310Z 36007KT 10SM BKN060 BKN070 M08/M14 A3031 670 59 -1900 350/07 RMK AO2 T10781144
14926KSTC STC20191110171510911/10/19 17:15:31  5-MIN KSTC 102315Z 36008KT 10SM BKN060 M08/M14 A3032 670 59 -1900 360/08 RMK AO2 T10781144
14926KSTC STC20191110172010911/10/19 17:20:31  5-MIN KSTC 102320Z 35007KT 10SM SCT060 M08/M14 A3032 670 62 -2000 350/07 RMK AO2 T10831144
14926KSTC STC20191110172510911/10/19 17:25:31  5-MIN KSTC 102325Z 35006KT 10SM SCT060 M08/M14 A3032 670 62 -2000 340/06 RMK AO2 T10831144
14926KSTC STC20191110173010911/10/19 17:30:31  5-MIN KSTC 102330Z 35007KT 10SM FEW060 M08/M14 A3032 670 62 -2000 340/07 RMK AO2 T10831144
14926KSTC STC20191110173510611/10/19 17:35:31  5-MIN KSTC 102335Z 34007KT 10SM CLR M08/M14 A3032 660 62 -2000 340/07 RMK AO2 T10831144
14926KSTC STC20191110174010611/10/19 17:40:31  5-MIN KSTC 102340Z VRB06KT 10SM CLR M08/M14 A3032 660 62 -2000 VRB/06 RMK AO2 T10831144
14926KSTC STC20191110174509611/10/19 17:45:31  5-MIN KSTC 102345Z 10SM CLR M08/M15 A3032 660 59 -2000 M /M RMK AO2 T10831150
14926KSTC STC20191110175013711/10/19 17:50:31  5-MIN KSTC 102350Z 36008KT 10SM CLR M08/M15 A3033 660 59 -2000 360/08 RMK AO2 SLP296 60000 T10831150 11044 21083 51011
14926KSTC STC20191110175510611/10/19 17:55:31  5-MIN KSTC 102355Z 35006KT 10SM CLR M09/M15 A3033 660 61 -2100 350/06 RMK AO2 T10891150
14926KSTC STC20191110180009611/10/19 18:00:31  5-MIN KSTC 110000Z 10SM CLR M09/M15 A3033 660 61 -2100 M /M RMK AO2 T10891150
14926KSTC STC20191110180509611/10/19 18:05:31  5-MIN KSTC 110005Z 10SM CLR M09/M15 A3033 660 61 -2100 M /M RMK AO2 T10891150
14926KSTC STC20191110181009611/10/19 18:10:31  5-MIN KSTC 110010Z 10SM CLR M09/M15 A3033 650 61 -2100 M /M RMK AO2 T10891150
14926KSTC STC20191110181509611/10/19 18:15:31  5-MIN KSTC 110015Z 10SM CLR M09/M15 A3033 650 61 -2100 M /M RMK AO2 T10891150
14926KSTC STC20191110182009611/10/19 18:20:31  5-MIN KSTC 110020Z 10SM CLR M09/M15 A3034 650 61 -2100 M /M RMK AO2 T10891150
14926KSTC STC20191110182509611/10/19 18:25:31  5-MIN KSTC 110025Z 10SM CLR M09/M16 A3034 650 59 -2100 M /M RMK AO2 T10891156
14926KSTC STC20191110183009611/10/19 18:30:31  5-MIN KSTC 110030Z 10SM CLR M09/M16 A3034 650 59 -2100 M /M RMK AO2 T10891156
14926KSTC STC20191110183509611/10/19 18:35:31  5-MIN KSTC 110035Z 10SM CLR M09/M16 A3034 650 59 -2100 M /M RMK AO2 T10891156
14926KSTC STC20191110184009611/10/19 18:40:31  5-MIN KSTC 110040Z 10SM CLR M09/M16 A3034 650 59 -2100 M /M RMK AO2 T10891156
14926KSTC STC20191110184510611/10/19 18:45:31  5-MIN KSTC 110045Z 35008KT 10SM CLR M09/M16 A3034 650 61 -2100 350/08 RMK AO2 T10941156
14926KSTC STC20191110185011311/10/19 18:50:31  5-MIN KSTC 110050Z 35008KT 10SM CLR M09/M16 A3034 650 61 -2200 350/08 RMK AO2 SLP302 T10941156
14926KSTC STC20191110185510611/10/19 18:55:31  5-MIN KSTC 110055Z 35008KT 10SM CLR M09/M16 A3034 650 61 -2200 350/08 RMK AO2 T10941156
14926KSTC STC20191110190010611/10/19 19:00:31  5-MIN KSTC 110100Z 35007KT 10SM CLR M09/M16 A3034 640 61 -2200 350/07 RMK AO2 T10941156
14926KSTC STC20191110190510611/10/19 19:05:31  5-MIN KSTC 110105Z 36008KT 10SM CLR M09/M16 A3034 640 61 -2200 360/08 RMK AO2 T10941156
14926KSTC STC20191110191010611/10/19 19:10:31  5-MIN KSTC 110110Z 36008KT 10SM CLR M09/M16 A3034 640 61 -2200 350/08 RMK AO2 T10941156
14926KSTC STC20191110191510611/10/19 19:15:31  5-MIN KSTC 110115Z 36009KT 10SM CLR M09/M16 A3034 640 59 -2200 360/09 RMK AO2 T10941161
14926KSTC STC20191110192010611/10/19 19:20:31  5-MIN KSTC 110120Z 01007KT 10SM CLR M09/M16 A3034 640 59 -2200 360/07 RMK AO2 T10941161
14926KSTC STC20191110192510611/10/19 19:25:31  5-MIN KSTC 110125Z 36007KT 10SM CLR M09/M16 A3035 640 59 -2200 360/07 RMK AO2 T10941161
14926KSTC STC20191110193010611/10/19 19:30:31  5-MIN KSTC 110130Z 36006KT 10SM CLR M09/M16 A3035 640 59 -2200 360/06 RMK AO2 T10941161
14926KSTC STC20191110193510611/10/19 19:35:31  5-MIN KSTC 110135Z 36007KT 10SM CLR M09/M16 A3036 630 59 -2200 360/07 RMK AO2 T10941161
14926KSTC STC20191110194010611/10/19 19:40:31  5-MIN KSTC 110140Z 36006KT 10SM CLR M10/M16 A3036 630 61 -2200 360/06 RMK AO2 T11001161
14926KSTC STC20191110194510611/10/19 19:45:31  5-MIN KSTC 110145Z 36007KT 10SM CLR M10/M16 A3036 630 61 -2200 360/07 RMK AO2 T11001161
14926KSTC STC20191110195011311/10/19 19:50:31  5-MIN KSTC 110150Z 36007KT 10SM CLR M10/M16 A3036 630 61 -2200 360/07 RMK AO2 SLP308 T11001161
14926KSTC STC20191110195510611/10/19 19:55:31  5-MIN KSTC 110155Z 36006KT 10SM CLR M10/M16 A3036 630 61 -2300 360/06 RMK AO2 T11001161
14926KSTC STC20191110200010611/10/19 20:00:31  5-MIN KSTC 110200Z 36006KT 10SM CLR M10/M16 A3036 620 64 -2300 350/06 RMK AO2 T11001156
14926KSTC STC20191110200510611/10/19 20:05:31  5-MIN KSTC 110205Z 36005KT 10SM CLR M10/M16 A3037 620 64 -2300 350/05 RMK AO2 T11001156
14926KSTC STC20191110201010611/10/19 20:10:31  5-MIN KSTC 110210Z 35005KT 10SM CLR M10/M16 A3038 610 64 -2300 350/05 RMK AO2 T11001156
14926KSTC STC20191110201510611/10/19 20:15:31  5-MIN KSTC 110215Z 35006KT 10SM CLR M10/M16 A3038 610 64 -2300 350/06 RMK AO2 T11001156
14926KSTC STC20191110202010611/10/19 20:20:31  5-MIN KSTC 110220Z 35006KT 10SM CLR M10/M16 A3038 610 64 -2300 350/06 RMK AO2 T11001156
14926KSTC STC20191110202510611/10/19 20:25:31  5-MIN KSTC 110225Z 34005KT 10SM CLR M10/M16 A3038 610 64 -2300 340/05 RMK AO2 T11001156
14926KSTC STC20191110203010611/10/19 20:30:31  5-MIN KSTC 110230Z 35005KT 10SM CLR M10/M16 A3038 610 64 -2300 350/05 RMK AO2 T11001156
14926KSTC STC20191110203510911/10/19 20:35:31  5-MIN KSTC 110235Z 35005KT 10SM FEW110 M10/M16 A3037 620 64 -2300 350/05 RMK AO2 T11001156
14926KSTC STC20191110204010911/10/19 20:40:31  5-MIN KSTC 110240Z 35005KT 10SM SCT110 M10/M16 A3037 620 64 -2300 350/05 RMK AO2 T11001156
14926KSTC STC20191110204510911/10/19 20:45:31  5-MIN KSTC 110245Z 36005KT 10SM BKN110 M10/M16 A3037 620 64 -2300 360/05 RMK AO2 T11001156
14926KSTC STC20191110205012211/10/19 20:50:31  5-MIN KSTC 110250Z 35006KT 10SM BKN110 M10/M15 A3037 620 67 -2300 350/06 RMK AO2 SLP314 T11001150 51023
14926KSTC STC20191110205510911/10/19 20:55:31  5-MIN KSTC 110255Z 36008KT 10SM BKN110 M09/M15 A3037 620 64 -2200 360/08 RMK AO2 T10941150
14926KSTC STC20191110210010911/10/19 21:00:31  5-MIN KSTC 110300Z 36007KT 10SM OVC110 M09/M15 A3037 620 64 -2200 360/07 RMK AO2 T10941150
14926KSTC STC20191110210510911/10/19 21:05:31  5-MIN KSTC 110305Z 36008KT 10SM OVC110 M09/M15 A3037 620 64 -2200 350/08 RMK AO2 T10941150
14926KSTC STC20191110211010911/10/19 21:10:31  5-MIN KSTC 110310Z 35008KT 10SM OVC110 M09/M15 A3038 610 64 -2200 350/08 RMK AO2 T10941150
14926KSTC STC20191110211510911/10/19 21:15:31  5-MIN KSTC 110315Z 35007KT 10SM OVC110 M09/M15 A3039 610 64 -2200 350/07 RMK AO2 T10941150
14926KSTC STC20191110212010911/10/19 21:20:31  5-MIN KSTC 110320Z 35009KT 10SM OVC110 M09/M15 A3038 610 64 -2200 350/09 RMK AO2 T10941150
14926KSTC STC20191110212510911/10/19 21:25:31  5-MIN KSTC 110325Z 35009KT 10SM OVC110 M09/M15 A3039 600 64 -2200 350/09 RMK AO2 T10941150
14926KSTC STC20191110213010911/10/19 21:30:31  5-MIN KSTC 110330Z 34009KT 10SM OVC110 M09/M15 A3040 590 64 -2200 340/09 RMK AO2 T10941150
14926KSTC STC20191110213510911/10/19 21:35:31  5-MIN KSTC 110335Z 34008KT 10SM OVC110 M09/M15 A3040 590 64 -2200 340/08 RMK AO2 T10941150
14926KSTC STC20191110214010911/10/19 21:40:31  5-MIN KSTC 110340Z 34007KT 10SM OVC110 M09/M15 A3040 590 64 -2200 340/07 RMK AO2 T10941150
14926KSTC STC20191110214510911/10/19 21:45:31  5-MIN KSTC 110345Z 34008KT 10SM OVC110 M09/M15 A3041 590 64 -2200 340/08 RMK AO2 T10941150
14926KSTC STC20191110215011611/10/19 21:50:31  5-MIN KSTC 110350Z 34008KT 10SM OVC110 M09/M15 A3041 580 64 -2200 340/08 RMK AO2 SLP326 T10941150
14926KSTC STC20191110215510911/10/19 21:55:31  5-MIN KSTC 110355Z 34010KT 10SM OVC110 M09/M15 A3042 580 64 -2200 340/10 RMK AO2 T10941150
14926KSTC STC20191110220011611/10/19 22:00:31  5-MIN KSTC 110400Z 34008KT 10SM OVC110 M09/M15 A3043 570 61 -2200 340/08 RMK AO2 PRESRR T10891150
14926KSTC STC20191110220510911/10/19 22:05:31  5-MIN KSTC 110405Z 34010KT 10SM OVC110 M09/M15 A3043 570 61 -2200 340/10 RMK AO2 T10891150
14926KSTC STC20191110221010911/10/19 22:10:31  5-MIN KSTC 110410Z 34007KT 10SM OVC100 M09/M15 A3042 570 61 -2200 340/07 RMK AO2 T10891150
14926KSTC STC20191110221511611/10/19 22:15:31  5-MIN KSTC 110415Z 34007KT 10SM FEW035 OVC100 M09/M15 A3042 570 61 -2200 340/07 RMK AO2 T10891150
14926KSTC STC20191110222011611/10/19 22:20:31  5-MIN KSTC 110420Z 35006KT 10SM SCT035 OVC100 M09/M15 A3043 570 61 -2200 350/06 RMK AO2 T10891150
14926KSTC STC20191110222511611/10/19 22:25:31  5-MIN KSTC 110425Z 35007KT 10SM BKN035 OVC100 M09/M14 A3043 570 64 -2200 350/07 RMK AO2 T10891144
14926KSTC STC20191110223011611/10/19 22:30:31  5-MIN KSTC 110430Z 35007KT 10SM BKN035 OVC100 M09/M15 A3043 570 61 -2200 350/07 RMK AO2 T10891150
14926KSTC STC20191110223511611/10/19 22:35:31  5-MIN KSTC 110435Z 35006KT 10SM BKN033 OVC100 M09/M14 A3043 570 64 -2200 350/06 RMK AO2 T10891144
14926KSTC STC20191110224010911/10/19 22:40:31  5-MIN KSTC 110440Z 35006KT 10SM OVC033 M09/M14 A3043 570 64 -2200 350/06 RMK AO2 T10891144
14926KSTC STC20191110224510911/10/19 22:45:31  5-MIN KSTC 110445Z 35006KT 10SM OVC033 M09/M14 A3043 560 64 -2200 350/06 RMK AO2 T10891144
14926KSTC STC20191110225011611/10/19 22:50:31  5-MIN KSTC 110450Z 35007KT 10SM OVC032 M09/M14 A3044 560 64 -2200 350/07 RMK AO2 SLP335 T10891144
14926KSTC STC20191110225510911/10/19 22:55:31  5-MIN KSTC 110455Z 35006KT 10SM OVC030 M09/M14 A3044 560 64 -2200 350/06 RMK AO2 T10891144
14926KSTC STC20191110230010911/10/19 23:00:31  5-MIN KSTC 110500Z 34005KT 10SM OVC030 M09/M14 A3044 560 64 -2200 340/05 RMK AO2 T10891144
14926KSTC STC20191110230511411/10/19 23:05:31  5-MIN KSTC 110505Z AUTO 35005KT 10SM OVC030 M09/M14 A3043 560 64 -2200 350/05 RMK AO2 T10891144
14926KSTC STC20191110231011411/10/19 23:10:31  5-MIN KSTC 110510Z AUTO 35008KT 10SM OVC031 M09/M14 A3043 570 64 -2200 350/08 RMK AO2 T10891144
14926KSTC STC20191110231511411/10/19 23:15:31  5-MIN KSTC 110515Z AUTO 35007KT 10SM OVC031 M09/M14 A3042 570 64 -2200 350/07 RMK AO2 T10891144
14926KSTC STC20191110232011411/10/19 23:20:31  5-MIN KSTC 110520Z AUTO 35009KT 10SM OVC031 M09/M14 A3042 570 64 -2200 350/09 RMK AO2 T10891144
14926KSTC STC20191110232511411/10/19 23:25:31  5-MIN KSTC 110525Z AUTO 35008KT 10SM OVC031 M09/M14 A3043 570 64 -2200 350/08 RMK AO2 T10891144
14926KSTC STC20191110233011411/10/19 23:30:31  5-MIN KSTC 110530Z AUTO 34008KT 10SM OVC030 M09/M15 A3043 570 61 -2200 340/08 RMK AO2 T10891150
14926KSTC STC20191110233511411/10/19 23:35:31  5-MIN KSTC 110535Z AUTO 35008KT 10SM OVC030 M09/M15 A3043 570 61 -2200 350/08 RMK AO2 T10891150
14926KSTC STC20191110234011411/10/19 23:40:31  5-MIN KSTC 110540Z AUTO 35007KT 10SM OVC030 M09/M15 A3042 570 61 -2200 350/07 RMK AO2 T10891150
14926KSTC STC20191110234511411/10/19 23:45:31  5-MIN KSTC 110545Z AUTO 35009KT 10SM OVC030 M09/M15 A3043 560 61 -2200 350/09 RMK AO2 T10891150
14926KSTC STC20191110235014911/10/19 23:50:31  5-MIN KSTC 110550Z AUTO 35009KT 10SM OVC030 M09/M15 A3043 560 61 -2200 350/09 RMK AO2 SLP334 T10891150 11089 21100 410171100 51014
14926KSTC STC20191110235511411/10/19 23:55:31  5-MIN KSTC 110555Z AUTO 35008KT 10SM OVC030 M09/M15 A3043 560 61 -2200 350/08 RMK AO2 T10891150
14926KSTC STC20191111000011411/11/19 00:00:31  5-MIN KSTC 110600Z AUTO 34007KT 10SM OVC030 M09/M15 A3043 560 61 -2200 340/07 RMK AO2 T10891150
14926KSTC STC20191111000511411/11/19 00:05:31  5-MIN KSTC 110605Z AUTO 35008KT 10SM OVC030 M09/M15 A3043 560 64 -2300 350/08 RMK AO2 T10941150
14926KSTC STC20191111001011411/11/19 00:10:31  5-MIN KSTC 110610Z AUTO 35007KT 10SM OVC031 M09/M16 A3043 560 61 -2300 350/07 RMK AO2 T10941156
14926KSTC STC20191111001511411/11/19 00:15:31  5-MIN KSTC 110615Z AUTO 35007KT 10SM OVC031 M09/M15 A3044 560 64 -2300 350/07 RMK AO2 T10941150
14926KSTC STC20191111002011411/11/19 00:20:31  5-MIN KSTC 110620Z AUTO 35007KT 10SM OVC031 M09/M15 A3044 560 64 -2300 350/07 RMK AO2 T10941150
14926KSTC STC20191111002511411/11/19 00:25:31  5-MIN KSTC 110625Z AUTO 35010KT 10SM OVC033 M09/M15 A3044 560 64 -2300 350/10 RMK AO2 T10941150
14926KSTC STC20191111003011411/11/19 00:30:31  5-MIN KSTC 110630Z AUTO 35007KT 10SM OVC033 M09/M16 A3044 560 61 -2300 340/07 RMK AO2 T10941156
14926KSTC STC20191111003512011/11/19 00:35:31  5-MIN KSTC 110635Z AUTO 35009G15KT 10SM OVC033 M09/M16 A3043 560 61 -2300 350/09G15 RMK AO2 T10941156
14926KSTC STC20191111004012011/11/19 00:40:31  5-MIN KSTC 110640Z AUTO 34008G15KT 10SM OVC033 M09/M16 A3044 550 61 -2300 340/08G15 RMK AO2 T10941156
14926KSTC STC20191111004511411/11/19 00:45:31  5-MIN KSTC 110645Z AUTO 33009KT 10SM OVC035 M09/M16 A3045 550 61 -2300 330/09 RMK AO2 T10941156
14926KSTC STC20191111005012111/11/19 00:50:31  5-MIN KSTC 110650Z AUTO 34009KT 10SM OVC035 M09/M16 A3045 550 61 -2300 340/09 RMK AO2 SLP339 T10941156
14926KSTC STC20191111005511411/11/19 00:55:31  5-MIN KSTC 110655Z AUTO 33009KT 10SM OVC035 M09/M16 A3045 550 61 -2300 330/09 RMK AO2 T10941156
14926KSTC STC20191111010011411/11/19 01:00:31  5-MIN KSTC 110700Z AUTO 33007KT 10SM OVC035 M09/M16 A3045 550 61 -2300 330/07 RMK AO2 T10941156
14926KSTC STC20191111010511411/11/19 01:05:31  5-MIN KSTC 110705Z AUTO 34010KT 10SM OVC034 M09/M16 A3046 540 61 -2300 340/10 RMK AO2 T10941156
14926KSTC STC20191111011011411/11/19 01:10:31  5-MIN KSTC 110710Z AUTO 32007KT 10SM OVC034 M10/M16 A3046 540 64 -2400 320/07 RMK AO2 T11001156
14926KSTC STC20191111011511411/11/19 01:15:31  5-MIN KSTC 110715Z AUTO 33010KT 10SM OVC034 M10/M16 A3045 540 64 -2400 330/10 RMK AO2 T11001156
14926KSTC STC20191111012011411/11/19 01:20:31  5-MIN KSTC 110720Z AUTO 33008KT 10SM OVC034 M10/M16 A3045 540 64 -2400 330/08 RMK AO2 T11001156
14926KSTC STC20191111012512011/11/19 01:25:31  5-MIN KSTC 110725Z AUTO 33011G18KT 10SM OVC034 M10/M16 A3046 540 64 -2400 330/11G18 RMK AO2 T11001156
14926KSTC STC20191111013012011/11/19 01:30:31  5-MIN KSTC 110730Z AUTO 33010G18KT 10SM OVC034 M10/M16 A3046 540 64 -2400 330/10G18 RMK AO2 T11001156
14926KSTC STC20191111013511411/11/19 01:35:31  5-MIN KSTC 110735Z AUTO 34009KT 10SM OVC034 M10/M16 A3046 530 64 -2400 340/09 RMK AO2 T11001156
14926KSTC STC20191111014011411/11/19 01:40:31  5-MIN KSTC 110740Z AUTO 33009KT 10SM OVC034 M10/M16 A3047 530 64 -2400 330/09 RMK AO2 T11001156
14926KSTC STC20191111014511411/11/19 01:45:31  5-MIN KSTC 110745Z AUTO 33010KT 10SM OVC034 M10/M16 A3047 530 64 -2400 330/10 RMK AO2 T11001156
14926KSTC STC20191111015012711/11/19 01:50:31  5-MIN KSTC 110750Z AUTO 34010G18KT 10SM OVC034 M10/M16 A3047 520 61 -2400 340/10G18 RMK AO2 SLP350 T11001161
14926KSTC STC20191111015512011/11/19 01:55:31  5-MIN KSTC 110755Z AUTO 34009G18KT 10SM OVC034 M10/M16 A3047 530 61 -2400 340/09G18 RMK AO2 T11001161
14926KSTC STC20191111020012011/11/19 02:00:31  5-MIN KSTC 110800Z AUTO 33008G17KT 10SM OVC035 M10/M16 A3047 530 61 -2400 330/08G17 RMK AO2 T11001161
14926KSTC STC20191111020512011/11/19 02:05:31  5-MIN KSTC 110805Z AUTO 33012G20KT 10SM OVC035 M11/M16 A3047 520 64 -2500 330/12G20 RMK AO2 T11061161
14926KSTC STC20191111021012011/11/19 02:10:31  5-MIN KSTC 110810Z AUTO 34013G20KT 10SM OVC035 M11/M16 A3048 520 64 -2500 340/13G20 RMK AO2 T11061161
14926KSTC STC20191111021512011/11/19 02:15:31  5-MIN KSTC 110815Z AUTO 34009G20KT 10SM OVC035 M11/M16 A3048 520 64 -2500 340/09G20 RMK AO2 T11061161
14926KSTC STC20191111022012011/11/19 02:20:31  5-MIN KSTC 110820Z AUTO 33010G18KT 10SM OVC035 M11/M16 A3048 520 64 -2500 330/10G18 RMK AO2 T11061161
14926KSTC STC20191111022512011/11/19 02:25:31  5-MIN KSTC 110825Z AUTO 33010G18KT 10SM OVC035 M11/M16 A3048 520 64 -2500 330/10G18 RMK AO2 T11061161
14926KSTC STC20191111023011411/11/19 02:30:31  5-MIN KSTC 110830Z AUTO 33009KT 10SM OVC035 M11/M16 A3048 520 64 -2500 330/09 RMK AO2 T11061161
14926KSTC STC20191111023512011/11/19 02:35:31  5-MIN KSTC 110835Z AUTO 33012G21KT 10SM OVC037 M11/M16 A3048 520 64 -2500 330/12G21 RMK AO2 T11061161
14926KSTC STC20191111024012011/11/19 02:40:31  5-MIN KSTC 110840Z AUTO 34009G21KT 10SM OVC037 M11/M16 A3048 520 64 -2500 340/09G21 RMK AO2 T11061161
14926KSTC STC20191111024511411/11/19 02:45:31  5-MIN KSTC 110845Z AUTO 33010KT 10SM OVC037 M11/M16 A3048 520 64 -2500 330/10 RMK AO2 T11061161
14926KSTC STC20191111025012711/11/19 02:50:31  5-MIN KSTC 110850Z AUTO 33010KT 10SM OVC037 M11/M16 A3048 520 64 -2500 330/10 RMK AO2 SLP353 T11061161 50021
14926KSTC STC20191111025511411/11/19 02:55:31  5-MIN KSTC 110855Z AUTO 34010KT 10SM OVC037 M11/M16 A3048 520 64 -2500 330/10 RMK AO2 T11061161
14926KSTC STC20191111030012011/11/19 03:00:31  5-MIN KSTC 110900Z AUTO 34011G18KT 10SM OVC038 M11/M16 A3048 520 67 -2500 340/11G18 RMK AO2 T11111161
14926KSTC STC20191111030512011/11/19 03:05:31  5-MIN KSTC 110905Z AUTO 34009G18KT 10SM OVC038 M11/M17 A3049 510 64 -2500 330/09G18 RMK AO2 T11111167
14926KSTC STC20191111031012011/11/19 03:10:31  5-MIN KSTC 110910Z AUTO 33011G19KT 10SM OVC039 M11/M17 A3049 510 64 -2500 330/11G19 RMK AO2 T11111167
14926KSTC STC20191111031512011/11/19 03:15:31  5-MIN KSTC 110915Z AUTO 34011G19KT 10SM OVC039 M12/M17 A3049 510 64 -2600 340/11G19 RMK AO2 T11171172
14926KSTC STC20191111032012011/11/19 03:20:31  5-MIN KSTC 110920Z AUTO 34010G17KT 10SM OVC039 M12/M17 A3049 510 64 -2600 340/10G17 RMK AO2 T11171172
14926KSTC STC20191111032511411/11/19 03:25:31  5-MIN KSTC 110925Z AUTO 34010KT 10SM BKN039 M12/M17 A3049 510 64 -2600 340/10 RMK AO2 T11171172
14926KSTC STC20191111033011411/11/19 03:30:31  5-MIN KSTC 110930Z AUTO 34010KT 10SM BKN039 M12/M17 A3049 510 64 -2600 340/10 RMK AO2 T11171172
14926KSTC STC20191111033511411/11/19 03:35:31  5-MIN KSTC 110935Z AUTO 34009KT 10SM SCT039 M12/M17 A3049 510 64 -2600 340/09 RMK AO2 T11171172
14926KSTC STC20191111034011411/11/19 03:40:31  5-MIN KSTC 110940Z AUTO 33008KT 10SM FEW039 M12/M17 A3049 510 64 -2600 330/08 RMK AO2 T11171172
14926KSTC STC20191111034511411/11/19 03:45:31  5-MIN KSTC 110945Z AUTO 33008KT 10SM FEW039 M12/M17 A3050 510 64 -2600 330/08 RMK AO2 T11171172
14926KSTC STC20191111035011811/11/19 03:50:31  5-MIN KSTC 110950Z AUTO 33007KT 10SM CLR M12/M17 A3050 500 64 -2600 330/07 RMK AO2 SLP359 T11171172
14926KSTC STC20191111035511111/11/19 03:55:31  5-MIN KSTC 110955Z AUTO 33008KT 10SM CLR M12/M17 A3050 500 67 -2700 320/08 RMK AO2 T11221172
14926KSTC STC20191111040011111/11/19 04:00:31  5-MIN KSTC 111000Z AUTO 33008KT 10SM CLR M12/M17 A3050 500 67 -2700 330/08 RMK AO2 T11221172
14926KSTC STC20191111040511111/11/19 04:05:31  5-MIN KSTC 111005Z AUTO 33008KT 10SM CLR M12/M17 A3050 500 67 -2700 330/08 RMK AO2 T11221172
14926KSTC STC20191111041011111/11/19 04:10:31  5-MIN KSTC 111010Z AUTO 33008KT 10SM CLR M12/M17 A3050 500 67 -2700 330/08 RMK AO2 T11221172
14926KSTC STC20191111041511111/11/19 04:15:31  5-MIN KSTC 111015Z AUTO 33007KT 10SM CLR M12/M17 A3051 500 67 -2700 320/07 RMK AO2 T11221172
14926KSTC STC20191111042011111/11/19 04:20:31  5-MIN KSTC 111020Z AUTO 32007KT 10SM CLR M12/M17 A3051 490 67 -2700 320/07 RMK AO2 T11221172
14926KSTC STC20191111042511111/11/19 04:25:31  5-MIN KSTC 111025Z AUTO 32007KT 10SM CLR M12/M17 A3051 500 67 -2700 320/07 RMK AO2 T11221172
14926KSTC STC20191111043011111/11/19 04:30:31  5-MIN KSTC 111030Z AUTO 33007KT 10SM CLR M12/M17 A3051 490 67 -2700 320/07 RMK AO2 T11221172
14926KSTC STC20191111043511111/11/19 04:35:31  5-MIN KSTC 111035Z AUTO 32007KT 10SM CLR M13/M17 A3051 490 70 -2800 320/07 RMK AO2 T11281172
14926KSTC STC20191111044011111/11/19 04:40:31  5-MIN KSTC 111040Z AUTO 32006KT 10SM CLR M13/M17 A3051 490 70 -2800 320/06 RMK AO2 T11281172
14926KSTC STC20191111044511111/11/19 04:45:31  5-MIN KSTC 111045Z AUTO 32007KT 10SM CLR M13/M17 A3051 490 70 -2800 320/07 RMK AO2 T11281172
14926KSTC STC20191111045011811/11/19 04:50:31  5-MIN KSTC 111050Z AUTO 32006KT 10SM CLR M13/M17 A3051 490 70 -2800 320/06 RMK AO2 SLP365 T11281172
14926KSTC STC20191111045511111/11/19 04:55:31  5-MIN KSTC 111055Z AUTO 32008KT 10SM CLR M12/M17 A3051 490 67 -2700 320/08 RMK AO2 T11221172
14926KSTC STC20191111050011111/11/19 05:00:31  5-MIN KSTC 111100Z AUTO 32007KT 10SM CLR M13/M17 A3052 490 70 -2800 320/07 RMK AO2 T11281172
14926KSTC STC20191111050511111/11/19 05:05:31  5-MIN KSTC 111105Z AUTO 31007KT 10SM CLR M13/M17 A3052 490 70 -2800 310/07 RMK AO2 T11281172
14926KSTC STC20191111051011111/11/19 05:10:31  5-MIN KSTC 111110Z AUTO 31007KT 10SM CLR M13/M17 A3052 480 73 -2900 310/07 RMK AO2 T11331172
14926KSTC STC20191111051511111/11/19 05:15:31  5-MIN KSTC 111115Z AUTO 31008KT 10SM CLR M13/M17 A3052 480 73 -2900 310/08 RMK AO2 T11331172
14926KSTC STC20191111052011111/11/19 05:20:31  5-MIN KSTC 111120Z AUTO 31007KT 10SM CLR M13/M17 A3052 480 73 -2900 310/07 RMK AO2 T11331172
14926KSTC STC20191111052511111/11/19 05:25:31  5-MIN KSTC 111125Z AUTO 32009KT 10SM CLR M13/M18 A3052 480 66 -2800 320/09 RMK AO2 T11281178
14926KSTC STC20191111053011111/11/19 05:30:31  5-MIN KSTC 111130Z AUTO 32010KT 10SM CLR M13/M18 A3052 480 66 -2800 320/10 RMK AO2 T11281178
14926KSTC STC20191111053511111/11/19 05:35:31  5-MIN KSTC 111135Z AUTO 32010KT 10SM CLR M13/M18 A3052 480 66 -2800 320/10 RMK AO2 T11281178
14926KSTC STC20191111054011111/11/19 05:40:31  5-MIN KSTC 111140Z AUTO 32009KT 10SM CLR M13/M18 A3052 480 66 -2800 320/09 RMK AO2 T11281178
14926KSTC STC20191111054511111/11/19 05:45:31  5-MIN KSTC 111145Z AUTO 32010KT 10SM CLR M13/M18 A3052 480 63 -2800 320/10 RMK AO2 T11281183
14926KSTC STC20191111055013611/11/19 05:50:31  5-MIN KSTC 111150Z AUTO 32011KT 10SM CLR M13/M18 A3052 480 63 -2800 310/11 RMK AO2 SLP369 T11281183 11089 21133 51016
14926KSTC STC20191111055511111/11/19 05:55:31  5-MIN KSTC 111155Z AUTO 32014KT 10SM CLR M13/M18 A3053 480 63 -2800 320/14 RMK AO2 T11281183
14926KSTC STC20191111060011111/11/19 06:00:31  5-MIN KSTC 111200Z AUTO 32011KT 10SM CLR M13/M19 A3053 480 60 -2800 320/11 RMK AO2 T11281189
14926KSTC STC20191111060511711/11/19 06:05:31  5-MIN KSTC 111205Z AUTO 32011G18KT 10SM CLR M13/M19 A3053 470 60 -2800 320/11G18 RMK AO2 T11281189
14926KSTC STC20191111061011711/11/19 06:10:31  5-MIN KSTC 111210Z AUTO 32010G19KT 10SM CLR M13/M19 A3053 470 60 -2800 320/10G19 RMK AO2 T11281189
14926KSTC STC20191111061511711/11/19 06:15:31  5-MIN KSTC 111215Z AUTO 32010G19KT 10SM CLR M13/M19 A3053 470 63 -2900 320/10G19 RMK AO2 T11331189
14926KSTC STC20191111062011711/11/19 06:20:31  5-MIN KSTC 111220Z AUTO 33007G17KT 10SM CLR M13/M18 A3053 470 66 -2900 320/07G17 RMK AO2 T11331183
14926KSTC STC20191111062511711/11/19 06:25:31  5-MIN KSTC 111225Z AUTO 33008G16KT 10SM CLR M13/M19 A3053 470 63 -2900 320/08G16 RMK AO2 T11331189
14926KSTC STC20191111063011111/11/19 06:30:31  5-MIN KSTC 111230Z AUTO 32009KT 10SM CLR M13/M19 A3053 470 63 -2900 320/09 RMK AO2 T11331189
14926KSTC STC20191111063511111/11/19 06:35:31  5-MIN KSTC 111235Z AUTO 32009KT 10SM CLR M13/M19 A3053 470 63 -2900 320/09 RMK AO2 T11331189
14926KSTC STC20191111064011111/11/19 06:40:31  5-MIN KSTC 111240Z AUTO 32009KT 10SM CLR M13/M19 A3053 470 63 -2900 320/09 RMK AO2 T11331189
14926KSTC STC20191111064511111/11/19 06:45:31  5-MIN KSTC 111245Z AUTO 32009KT 10SM CLR M13/M19 A3053 470 63 -2900 320/09 RMK AO2 T11331189
14926KSTC STC20191111065011311/11/19 06:50:31  5-MIN KSTC 111250Z 32008KT 10SM CLR M14/M19 A3053 470 66 -3000 310/08 RMK AO2 SLP373 T11391189
14926KSTC STC20191111065510611/11/19 06:55:31  5-MIN KSTC 111255Z 31009KT 10SM CLR M14/M19 A3054 470 66 -3000 310/09 RMK AO2 T11391189
14926KSTC STC20191111070010611/11/19 07:00:31  5-MIN KSTC 111300Z 32009KT 10SM CLR M14/M19 A3054 470 66 -3000 320/09 RMK AO2 T11391189
14926KSTC STC20191111070510611/11/19 07:05:31  5-MIN KSTC 111305Z 32009KT 10SM CLR M14/M19 A3054 470 66 -3000 320/09 RMK AO2 T11391189
14926KSTC STC20191111071010611/11/19 07:10:31  5-MIN KSTC 111310Z 32008KT 10SM CLR M14/M19 A3054 470 66 -3000 320/08 RMK AO2 T11391189
14926KSTC STC20191111071510611/11/19 07:15:31  5-MIN KSTC 111315Z 31008KT 10SM CLR M14/M19 A3054 460 66 -3000 310/08 RMK AO2 T11391189
14926KSTC STC20191111072010611/11/19 07:20:31  5-MIN KSTC 111320Z 31009KT 10SM CLR M14/M19 A3054 460 69 -3100 310/09 RMK AO2 T11441189
14926KSTC STC20191111072510611/11/19 07:25:31  5-MIN KSTC 111325Z 31009KT 10SM CLR M14/M19 A3054 460 69 -3100 310/09 RMK AO2 T11441189
14926KSTC STC20191111073010611/11/19 07:30:31  5-MIN KSTC 111330Z 32008KT 10SM CLR M14/M19 A3054 460 69 -3100 320/08 RMK AO2 T11441189
14926KSTC STC20191111073510611/11/19 07:35:31  5-MIN KSTC 111335Z 31007KT 10SM CLR M14/M19 A3055 460 69 -3100 310/07 RMK AO2 T11441189
14926KSTC STC20191111074010611/11/19 07:40:31  5-MIN KSTC 111340Z 31008KT 10SM CLR M14/M19 A3055 450 66 -3000 310/08 RMK AO2 T11391189
14926KSTC STC20191111074510611/11/19 07:45:31  5-MIN KSTC 111345Z 31009KT 10SM CLR M14/M19 A3055 450 66 -3000 310/09 RMK AO2 T11391189
14926KSTC STC20191111075011311/11/19 07:50:31  5-MIN KSTC 111350Z 31010KT 10SM CLR M13/M19 A3055 450 63 -2900 310/10 RMK AO2 SLP380 T11331189
14926KSTC STC20191111075510611/11/19 07:55:31  5-MIN KSTC 111355Z 31009KT 10SM CLR M13/M19 A3056 450 63 -2900 310/09 RMK AO2 T11331189
14926KSTC STC20191111080010611/11/19 08:00:31  5-MIN KSTC 111400Z 32010KT 10SM CLR M13/M19 A3056 450 63 -2900 310/10 RMK AO2 T11331189
14926KSTC STC20191111080510611/11/19 08:05:31  5-MIN KSTC 111405Z 31013KT 10SM CLR M13/M19 A3056 450 63 -2900 310/13 RMK AO2 T11331189
14926KSTC STC20191111081010611/11/19 08:10:31  5-MIN KSTC 111410Z 31011KT 10SM CLR M13/M19 A3056 450 63 -2900 310/11 RMK AO2 T11331189
14926KSTC STC20191111081510611/11/19 08:15:31  5-MIN KSTC 111415Z 31013KT 10SM CLR M13/M19 A3056 440 60 -2800 310/13 RMK AO2 T11281189
14926KSTC STC20191111082010611/11/19 08:20:31  5-MIN KSTC 111420Z 31014KT 10SM CLR M13/M18 A3057 440 63 -2900 310/14 RMK AO2 T11281183
14926KSTC STC20191111082510611/11/19 08:25:31  5-MIN KSTC 111425Z 32014KT 10SM CLR M13/M19 A3057 440 60 -2900 320/14 RMK AO2 T11281189
14926KSTC STC20191111083011211/11/19 08:30:31  5-MIN KSTC 111430Z 31014G21KT 10SM CLR M13/M19 A3057 440 60 -2900 310/14G21 RMK AO2 T11281189
14926KSTC STC20191111083511211/11/19 08:35:31  5-MIN KSTC 111435Z 32016G21KT 10SM CLR M13/M19 A3057 440 60 -2900 310/16G21 RMK AO2 T11281189
14926KSTC STC20191111084011211/11/19 08:40:31  5-MIN KSTC 111440Z 32013G21KT 10SM CLR M13/M18 A3057 440 63 -2900 320/13G21 RMK AO2 T11281183
14926KSTC STC20191111084510611/11/19 08:45:31  5-MIN KSTC 111445Z 32013KT 10SM CLR M13/M18 A3057 430 63 -2900 320/13 RMK AO2 T11281183
14926KSTC STC20191111085012511/11/19 08:50:31  5-MIN KSTC 111450Z 32011G21KT 10SM CLR M13/M19 A3057 430 60 -2900 320/11G21 RMK AO2 SLP386 T11281189 51015
14926KSTC STC20191111085511211/11/19 08:55:31  5-MIN KSTC 111455Z 32015G21KT 10SM CLR M13/M19 A3058 430 60 -2900 320/15G21 RMK AO2 T11281189
14926KSTC STC20191111090011211/11/19 09:00:31  5-MIN KSTC 111500Z 32013G21KT 10SM CLR M13/M18 A3058 430 63 -2900 320/13G21 RMK AO2 T11281183
14926KSTC STC20191111090511211/11/19 09:05:31  5-MIN KSTC 111505Z 32013G20KT 10SM CLR M12/M19 A3057 430 58 -2800 320/13G20 RMK AO2 T11221189
14926KSTC STC20191111091011211/11/19 09:10:31  5-MIN KSTC 111510Z 32017G23KT 10SM CLR M12/M19 A3057 430 58 -2800 320/17G23 RMK AO2 T11221189
14926KSTC STC20191111091511211/11/19 09:15:31  5-MIN KSTC 111515Z 32013G23KT 10SM CLR M12/M19 A3057 430 58 -2800 320/13G23 RMK AO2 T11221189
14926KSTC STC20191111092011211/11/19 09:20:31  5-MIN KSTC 111520Z 33016G21KT 10SM CLR M12/M19 A3057 440 55 -2800 330/16G21 RMK AO2 T11221194
14926KSTC STC20191111092511211/11/19 09:25:31  5-MIN KSTC 111525Z 33012G22KT 10SM CLR M12/M20 A3057 440 53 -2800 330/12G22 RMK AO2 T11221200
14926KSTC STC20191111093013011/11/19 09:30:31  5-MIN KSTC 111530Z 33017G26KT 10SM CLR M12/M20 A3057 440 53 -2800 330/17G26 RMK AO2 PK WND 34026/1530 T11221200
14926KSTC STC20191111093513011/11/19 09:35:31  5-MIN KSTC 111535Z 32016G26KT 10SM CLR M12/M21 A3057 440 50 -2800 320/16G26 RMK AO2 PK WND 34026/1530 T11221206
14926KSTC STC20191111094013011/11/19 09:40:31  5-MIN KSTC 111540Z 32014G22KT 10SM CLR M12/M21 A3057 440 50 -2800 320/14G22 RMK AO2 PK WND 34026/1530 T11221206
14926KSTC STC20191111094513011/11/19 09:45:31  5-MIN KSTC 111545Z 33013G24KT 10SM CLR M12/M21 A3057 440 50 -2800 330/13G24 RMK AO2 PK WND 34026/1530 T11221206
14926KSTC STC20191111095013711/11/19 09:50:31  5-MIN KSTC 111550Z 33015G24KT 10SM CLR M12/M21 A3057 440 50 -2800 330/15G24 RMK AO2 PK WND 34026/1530 SLP385 T11221206
14926KSTC STC20191111095511211/11/19 09:55:31  5-MIN KSTC 111555Z 33013G22KT 10SM CLR M12/M21 A3057 440 48 -2700 330/13G22 RMK AO2 T11171206
14926KSTC STC20191111100011211/11/19 10:00:31  5-MIN KSTC 111600Z 32016G25KT 10SM CLR M12/M21 A3057 440 48 -2700 320/16G25 RMK AO2 T11171206
14926KSTC STC20191111100511211/11/19 10:05:31  5-MIN KSTC 111605Z 32017G25KT 10SM CLR M12/M21 A3057 440 48 -2700 320/17G25 RMK AO2 T11171206
14926KSTC STC20191111101013011/11/19 10:10:31  5-MIN KSTC 111610Z 32016G28KT 10SM CLR M12/M21 A3057 440 48 -2700 320/16G28 RMK AO2 PK WND 31028/1606 T11171206
14926KSTC STC20191111101513011/11/19 10:15:31  5-MIN KSTC 111615Z 34013G28KT 10SM CLR M12/M21 A3057 440 48 -2700 340/13G28 RMK AO2 PK WND 31028/1606 T11171206
14926KSTC STC20191111102013011/11/19 10:20:31  5-MIN KSTC 111620Z 34015G22KT 10SM CLR M12/M21 A3057 440 48 -2700 340/15G22 RMK AO2 PK WND 31028/1606 T11171206
14926KSTC STC20191111102513011/11/19 10:25:31  5-MIN KSTC 111625Z 34014G22KT 10SM CLR M12/M21 A3057 440 48 -2700 340/14G22 RMK AO2 PK WND 31028/1606 T11171206
14926KSTC STC20191111103013011/11/19 10:30:31  5-MIN KSTC 111630Z 34012G23KT 10SM CLR M12/M21 A3057 440 48 -2700 340/12G23 RMK AO2 PK WND 31028/1606 T11171206
14926KSTC STC20191111103513011/11/19 10:35:31  5-MIN KSTC 111635Z 33015G24KT 10SM CLR M12/M21 A3057 440 48 -2700 330/15G24 RMK AO2 PK WND 31028/1606 T11171206
14926KSTC STC20191111104013011/11/19 10:40:31  5-MIN KSTC 111640Z 33018G26KT 10SM CLR M12/M21 A3057 440 46 -2700 330/18G26 RMK AO2 PK WND 31028/1606 T11171211
14926KSTC STC20191111104513011/11/19 10:45:31  5-MIN KSTC 111645Z 33014G26KT 10SM CLR M12/M21 A3057 440 48 -2700 330/14G26 RMK AO2 PK WND 31028/1606 T11171206
14926KSTC STC20191111105013711/11/19 10:50:31  5-MIN KSTC 111650Z 33015G25KT 10SM CLR M12/M21 A3057 440 48 -2700 330/15G25 RMK AO2 PK WND 31028/1606 SLP384 T11171206
14926KSTC STC20191111105511211/11/19 10:55:31  5-MIN KSTC 111655Z 33014G24KT 10SM CLR M12/M21 A3057 440 48 -2700 330/14G24 RMK AO2 T11171206
14926KSTC STC20191111110011511/11/19 11:00:31  5-MIN KSTC 111700Z 33013G23KT 10SM FEW043 M12/M21 A3057 440 48 -2700 320/13G23 RMK AO2 T11171206
14926KSTC STC20191111110511511/11/19 11:05:31  5-MIN KSTC 111705Z 33012G20KT 10SM FEW043 M11/M20 A3057 440 48 -2600 320/12G20 RMK AO2 T11111200
14926KSTC STC20191111111011511/11/19 11:10:31  5-MIN KSTC 111710Z 33014G22KT 10SM FEW043 M11/M20 A3057 440 48 -2600 330/14G22 RMK AO2 T11111200
14926KSTC STC20191111111511211/11/19 11:15:31  5-MIN KSTC 111715Z 34012G23KT 10SM CLR M11/M21 A3057 440 46 -2600 340/12G23 RMK AO2 T11111206
14926KSTC STC20191111112011211/11/19 11:20:31  5-MIN KSTC 111720Z 33014G23KT 10SM CLR M11/M20 A3056 440 48 -2600 330/14G23 RMK AO2 T11111200
14926KSTC STC20191111112511211/11/19 11:25:31  5-MIN KSTC 111725Z 32011G22KT 10SM CLR M11/M21 A3056 450 46 -2600 320/11G22 RMK AO2 T11111206
14926KSTC STC20191111113011211/11/19 11:30:31  5-MIN KSTC 111730Z 33016G24KT 10SM CLR M11/M20 A3056 450 48 -2600 330/16G24 RMK AO2 T11111200
14926KSTC STC20191111113511211/11/19 11:35:31  5-MIN KSTC 111735Z 34016G24KT 10SM CLR M11/M21 A3056 450 46 -2600 340/16G24 RMK AO2 T11111206
14926KSTC STC20191111114011211/11/19 11:40:31  5-MIN KSTC 111740Z 35013G22KT 10SM CLR M11/M21 A3056 450 46 -2600 350/13G22 RMK AO2 T11111206
14926KSTC STC20191111114510611/11/19 11:45:31  5-MIN KSTC 111745Z 32012KT 10SM CLR M11/M20 A3056 450 46 -2500 320/12 RMK AO2 T11061200
14926KSTC STC20191111115014011/11/19 11:50:31  5-MIN KSTC 111750Z 31017G22KT 10SM FEW041 M11/M20 A3055 450 46 -2500 310/17G22 RMK AO2 SLP377 T11061200 11106 21144 53016
14926KSTC STC20191111115510911/11/19 11:55:31  5-MIN KSTC 111755Z 32015KT 10SM SCT041 M11/M20 A3055 450 48 -2600 320/15 RMK AO2 T11111200
14926KSTC STC20191111120011511/11/19 12:00:31  5-MIN KSTC 111800Z 33012G22KT 10SM FEW041 M11/M19 A3055 460 48 -2500 320/12G22 RMK AO2 T11061194
14926KSTC STC20191111120511511/11/19 12:05:31  5-MIN KSTC 111805Z 34014G21KT 10SM SCT041 M11/M20 A3055 460 48 -2600 340/14G21 RMK AO2 T11111200
14926KSTC STC20191111121011511/11/19 12:10:31  5-MIN KSTC 111810Z 33015G24KT 10SM SCT043 M11/M20 A3055 460 48 -2600 330/15G24 RMK AO2 T11111200
14926KSTC STC20191111121511511/11/19 12:15:31  5-MIN KSTC 111815Z 33014G24KT 10SM BKN043 M11/M21 A3054 460 46 -2600 330/14G24 RMK AO2 T11111206
14926KSTC STC20191111122011511/11/19 12:20:31  5-MIN KSTC 111820Z 31019G25KT 10SM BKN043 M11/M19 A3054 460 51 -2500 310/19G25 RMK AO2 T11061189
14926KSTC STC20191111122511511/11/19 12:25:31  5-MIN KSTC 111825Z 33014G25KT 10SM BKN043 M11/M19 A3054 460 51 -2500 330/14G25 RMK AO2 T11061189
14926KSTC STC20191111123011511/11/19 12:30:31  5-MIN KSTC 111830Z 33009G22KT 10SM BKN043 M11/M19 A3054 460 51 -2500 330/09G22 RMK AO2 T11061189
14926KSTC STC20191111123511511/11/19 12:35:31  5-MIN KSTC 111835Z 33013G22KT 10SM OVC043 M11/M19 A3054 460 48 -2500 330/13G22 RMK AO2 T11061194
14926KSTC STC20191111124011511/11/19 12:40:31  5-MIN KSTC 111840Z 34012G22KT 10SM OVC043 M11/M19 A3054 460 51 -2500 340/12G22 RMK AO2 T11061189
14926KSTC STC20191111124511511/11/19 12:45:31  5-MIN KSTC 111845Z 31011G21KT 10SM OVC043 M11/M19 A3054 460 48 -2500 310/11G21 RMK AO2 T11061194
14926KSTC STC20191111125012211/11/19 12:50:31  5-MIN KSTC 111850Z 32016G24KT 10SM BKN043 M11/M19 A3054 470 51 -2600 320/16G24 RMK AO2 SLP373 T11111194
14926KSTC STC20191111125511511/11/19 12:55:31  5-MIN KSTC 111855Z 31015G24KT 10SM BKN043 M11/M20 A3054 460 48 -2600 310/15G24 RMK AO2 T11111200
14926KSTC STC20191111130011511/11/19 13:00:31  5-MIN KSTC 111900Z 31015G24KT 10SM BKN043 M11/M19 A3054 470 51 -2500 310/15G24 RMK AO2 T11061189
14926KSTC STC20191111130511511/11/19 13:05:31  5-MIN KSTC 111905Z 32016G24KT 10SM BKN045 M11/M19 A3054 470 51 -2500 320/16G24 RMK AO2 T11061189
14926KSTC STC20191111131012211/11/19 13:10:31  5-MIN KSTC 111910Z 31016G23KT 10SM BKN045 BKN050 M11/M19 A3054 470 51 -2500 310/16G23 RMK AO2 T11061189
14926KSTC STC20191111131512211/11/19 13:15:31  5-MIN KSTC 111915Z 34014G23KT 10SM BKN045 BKN050 M11/M19 A3053 470 51 -2600 330/14G23 RMK AO2 T11111194
14926KSTC STC20191111132012211/11/19 13:20:31  5-MIN KSTC 111920Z 33011G23KT 10SM BKN045 BKN050 M11/M20 A3053 470 48 -2600 330/11G23 RMK AO2 T11111200
14926KSTC STC20191111132511511/11/19 13:25:31  5-MIN KSTC 111925Z 34012G21KT 10SM BKN045 M11/M20 A3053 470 46 -2500 340/12G21 RMK AO2 T11061200
14926KSTC STC20191111133012211/11/19 13:30:31  5-MIN KSTC 111930Z 33012G24KT 10SM BKN045 BKN050 M11/M20 A3054 470 48 -2600 330/12G24 RMK AO2 T11111200
14926KSTC STC20191111133513311/11/19 13:35:31  5-MIN KSTC 111935Z 34015G26KT 10SM BKN045 M11/M19 A3054 470 51 -2500 330/15G26 RMK AO2 PK WND 34026/1934 T11061189
14926KSTC STC20191111134013311/11/19 13:40:31  5-MIN KSTC 111940Z 31014G26KT 10SM BKN043 M11/M20 A3054 470 48 -2600 310/14G26 RMK AO2 PK WND 34026/1934 T11111200
14926KSTC STC20191111134513311/11/19 13:45:31  5-MIN KSTC 111945Z 32018G25KT 10SM BKN045 M11/M19 A3053 470 48 -2500 310/18G25 RMK AO2 PK WND 34026/1934 T11061194
14926KSTC STC20191111135014011/11/19 13:50:31  5-MIN KSTC 111950Z 32014G25KT 10SM BKN043 M11/M19 A3053 470 48 -2500 320/14G25 RMK AO2 PK WND 34026/1934 SLP371 T11061194
14926KSTC STC20191111135511511/11/19 13:55:31  5-MIN KSTC 111955Z 33010G22KT 10SM BKN043 M11/M19 A3054 470 51 -2500 330/10G22 RMK AO2 T11061189
14926KSTC STC20191111140013311/11/19 14:00:31  5-MIN KSTC 112000Z 34014G26KT 10SM OVC043 M11/M19 A3054 470 48 -2500 340/14G26 RMK AO2 PK WND 32026/1956 T11061194
14926KSTC STC20191111140513311/11/19 14:05:31  5-MIN KSTC 112005Z 33011G26KT 10SM OVC043 M11/M19 A3054 470 48 -2500 330/11G26 RMK AO2 PK WND 32026/1956 T11061194
14926KSTC STC20191111141013311/11/19 14:10:31  5-MIN KSTC 112010Z 32013G20KT 10SM OVC045 M11/M19 A3054 470 48 -2500 320/13G20 RMK AO2 PK WND 32026/1956 T11061194
14926KSTC STC20191111141514011/11/19 14:15:31  5-MIN KSTC 112015Z 33014G21KT 10SM BKN047 OVC055 M11/M20 A3054 470 48 -2600 330/14G21 RMK AO2 PK WND 32026/1956 T11111200
14926KSTC STC20191111142014011/11/19 14:20:31  5-MIN KSTC 112020Z 34012G21KT 10SM BKN047 OVC055 M11/M21 A3054 460 46 -2600 340/12G21 RMK AO2 PK WND 32026/1956 T11111206
14926KSTC STC20191111142513411/11/19 14:25:31  5-MIN KSTC 112025Z 32014KT 10SM BKN047 OVC055 M12/M21 A3054 460 48 -2700 320/14 RMK AO2 PK WND 32026/1956 T11171206
14926KSTC STC20191111143014011/11/19 14:30:31  5-MIN KSTC 112030Z 32015G23KT 10SM BKN047 OVC055 M11/M20 A3054 460 48 -2600 320/15G23 RMK AO2 PK WND 32026/1956 T11111200
14926KSTC STC20191111143514011/11/19 14:35:31  5-MIN KSTC 112035Z 31016G26KT 10SM BKN047 OVC055 M11/M20 A3054 460 46 -2500 310/16G26 RMK AO2 PK WND 32026/2033 T11061200
14926KSTC STC20191111144014011/11/19 14:40:31  5-MIN KSTC 112040Z 31018G26KT 10SM BKN047 OVC055 M11/M19 A3054 460 48 -2500 310/18G26 RMK AO2 PK WND 32026/2033 T11061194
14926KSTC STC20191111144512711/11/19 14:45:31  5-MIN KSTC 112045Z 32017KT 10SM OVC047 M11/M20 A3054 460 48 -2600 320/17 RMK AO2 PK WND 32026/2033 T11111200
14926KSTC STC20191111145014611/11/19 14:50:31  5-MIN KSTC 112050Z 31018G23KT 10SM OVC047 M11/M20 A3054 460 48 -2600 310/18G23 RMK AO2 PK WND 32026/2033 SLP375 T11111200 58007
14926KSTC STC20191111145511511/11/19 14:55:31  5-MIN KSTC 112055Z 31018G23KT 10SM OVC047 M11/M19 A3054 460 51 -2500 310/18G23 RMK AO2 T11061189
14926KSTC STC20191111150011511/11/19 15:00:31  5-MIN KSTC 112100Z 33011G23KT 10SM OVC045 M11/M19 A3054 460 51 -2500 330/11G23 RMK AO2 T11061189
14926KSTC STC20191111150511511/11/19 15:05:31  5-MIN KSTC 112105Z 31016G22KT 10SM OVC045 M11/M19 A3054 460 51 -2500 310/16G22 RMK AO2 T11061189
14926KSTC STC20191111151011511/11/19 15:10:31  5-MIN KSTC 112110Z 31018G25KT 10SM BKN043 M11/M19 A3054 460 53 -2600 310/18G25 RMK AO2 T11111189
14926KSTC STC20191111151511511/11/19 15:15:31  5-MIN KSTC 112115Z 33011G25KT 10SM BKN043 M11/M19 A3054 460 51 -2600 330/11G25 RMK AO2 T11111194
14926KSTC STC20191111152012211/11/19 15:20:31  5-MIN KSTC 112120Z 34012G24KT 10SM BKN043 BKN050 M11/M19 A3055 460 51 -2600 340/12G24 RMK AO2 T11111194
14926KSTC STC20191111152512211/11/19 15:25:31  5-MIN KSTC 112125Z 33013G20KT 10SM BKN043 BKN050 M12/M20 A3055 460 50 -2700 330/13G20 RMK AO2 T11171200
14926KSTC STC20191111153012211/11/19 15:30:31  5-MIN KSTC 112130Z 32015G20KT 10SM BKN043 BKN050 M12/M21 A3055 460 48 -2700 320/15G20 RMK AO2 T11171206
14926KSTC STC20191111153512211/11/19 15:35:31  5-MIN KSTC 112135Z 34014G21KT 10SM BKN041 BKN050 M11/M19 A3055 460 51 -2600 340/14G21 RMK AO2 T11111194
14926KSTC STC20191111154013711/11/19 15:40:31  5-MIN KSTC 112140Z 33015G22KT 8SM -SN BKN037 BKN047 M12/M19 A3055 460 53 -2700 320/15G22 RMK AO2 SNB39 P0000 T11171194
14926KSTC STC20191111154513711/11/19 15:45:31  5-MIN KSTC 112145Z 34010G22KT 8SM -SN BKN037 BKN047 M12/M18 A3055 460 58 -2700 340/10G22 RMK AO2 SNB39 P0000 T11171183
14926KSTC STC20191111155014311/11/19 15:50:31  5-MIN KSTC 112150Z 33011G19KT 9SM BKN037 BKN049 M12/M18 A3055 460 64 -2800 330/11G19 RMK AO2 SNB39E48 SLP379 P0000 T11221178
14926KSTC STC20191111155512211/11/19 15:55:31  5-MIN KSTC 112155Z 32011G20KT 10SM SCT037 BKN047 M12/M20 A3055 450 53 -2800 320/11G20 RMK AO2 T11221200
14926KSTC STC20191111160012211/11/19 16:00:31  5-MIN KSTC 112200Z 32012G20KT 10SM SCT034 SCT045 M12/M19 A3055 450 55 -2800 320/12G20 RMK AO2 T11221194
14926KSTC STC20191111160511511/11/19 16:05:31  5-MIN KSTC 112205Z 32012G19KT 10SM FEW034 M12/M19 A3055 450 58 -2800 320/12G19 RMK AO2 T11221189
14926KSTC STC20191111161011511/11/19 16:10:31  5-MIN KSTC 112210Z 32011G19KT 10SM FEW034 M12/M19 A3055 450 58 -2800 320/11G19 RMK AO2 T11221189
14926KSTC STC20191111161511211/11/19 16:15:31  5-MIN KSTC 112215Z 33009G18KT 10SM CLR M13/M19 A3056 450 60 -2800 330/09G18 RMK AO2 T11281189
14926KSTC STC20191111162011211/11/19 16:20:31  5-MIN KSTC 112220Z 33011G20KT 10SM CLR M13/M19 A3056 450 60 -2800 330/11G20 RMK AO2 T11281189
14926KSTC STC20191111162511211/11/19 16:25:31  5-MIN KSTC 112225Z 33010G20KT 10SM CLR M13/M19 A3056 450 58 -2800 330/10G20 RMK AO2 T11281194
14926KSTC STC20191111163010611/11/19 16:30:31  5-MIN KSTC 112230Z 33010KT 10SM CLR M13/M19 A3056 450 58 -2800 330/10 RMK AO2 T11281194
14926KSTC STC20191111163510911/11/19 16:35:31  5-MIN KSTC 112235Z 33009KT 10SM FEW031 M13/M19 A3056 450 58 -2800 330/09 RMK AO2 T11281194
14926KSTC STC20191111164010811/11/19 16:40:31  5-MIN KSTC 112240Z 33009KT 7SM SCT026 M13/M18 A3056 450 63 -2800 330/09 RMK AO2 T11281183
14926KSTC STC20191111164513011/11/19 16:45:31  5-MIN KSTC 112245Z 33008G17KT 5SM -SN BKN026 M13/M18 A3056 450 66 -2800 320/08G17 RMK AO2 SNB42 P0000 T11281178
14926KSTC STC20191111165013111/11/19 16:50:31  5-MIN KSTC 112250Z 33011KT 6SM -SN SCT026 M13/M18 A3056 440 63 -2900 330/11 RMK AO2 SNB42 SLP384 P0000 T11281183
14926KSTC STC20191111165511411/11/19 16:55:31  5-MIN KSTC 112255Z 33006G16KT 9SM BKN028 M13/M19 A3056 440 60 -2900 330/06G16 RMK AO2 T11281189
14926KSTC STC20191111170010911/11/19 17:00:31  5-MIN KSTC 112300Z 33008KT 10SM BKN028 M13/M19 A3057 440 60 -2900 330/08 RMK AO2 T11281189
14926KSTC STC20191111170510911/11/19 17:05:31  5-MIN KSTC 112305Z 33008KT 10SM BKN028 M13/M19 A3057 440 58 -2900 330/08 RMK AO2 T11281194
14926KSTC STC20191111171010911/11/19 17:10:31  5-MIN KSTC 112310Z 33006KT 10SM SCT028 M13/M19 A3057 440 58 -2900 330/06 RMK AO2 T11281194
14926KSTC STC20191111171510911/11/19 17:15:31  5-MIN KSTC 112315Z 33006KT 10SM FEW030 M13/M19 A3057 440 63 -2900 330/06 RMK AO2 T11331189
14926KSTC STC20191111172010911/11/19 17:20:31  5-MIN KSTC 112320Z 33006KT 10SM FEW030 M13/M19 A3057 440 63 -2900 330/06 RMK AO2 T11331189
14926KSTC STC20191111172510611/11/19 17:25:31  5-MIN KSTC 112325Z 33007KT 10SM CLR M13/M19 A3057 440 60 -2900 320/07 RMK AO2 T11331194
14926KSTC STC20191111173010611/11/19 17:30:31  5-MIN KSTC 112330Z 33008KT 10SM CLR M13/M19 A3057 440 60 -2900 330/08 RMK AO2 T11331194
14926KSTC STC20191111173510611/11/19 17:35:31  5-MIN KSTC 112335Z 33006KT 10SM CLR M13/M19 A3057 440 60 -2900 330/06 RMK AO2 T11331194
14926KSTC STC20191111174010611/11/19 17:40:31  5-MIN KSTC 112340Z 33006KT 10SM CLR M13/M20 A3057 440 58 -2900 330/06 RMK AO2 T11331200
14926KSTC STC20191111174510611/11/19 17:45:31  5-MIN KSTC 112345Z 32005KT 10SM CLR M13/M20 A3057 440 58 -2900 320/05 RMK AO2 T11331200
14926KSTC STC20191111175013711/11/19 17:50:31  5-MIN KSTC 112350Z 32007KT 10SM CLR M13/M20 A3057 440 58 -2900 320/07 RMK AO2 SLP387 60000 T11331200 11106 21133 55003
14926KSTC STC20191111175510611/11/19 17:55:31  5-MIN KSTC 112355Z 32007KT 10SM CLR M13/M20 A3058 430 58 -2900 320/07 RMK AO2 T11331200
14926KSTC STC20191111180010611/11/19 18:00:31  5-MIN KSTC 120000Z 32007KT 10SM CLR M14/M19 A3058 430 63 -3000 320/07 RMK AO2 T11391194
14926KSTC STC20191111180510611/11/19 18:05:31  5-MIN KSTC 120005Z 33006KT 10SM CLR M13/M19 A3058 430 60 -2900 320/06 RMK AO2 T11331194
14926KSTC STC20191111181010611/11/19 18:10:31  5-MIN KSTC 120010Z 32006KT 10SM CLR M14/M19 A3058 430 63 -3000 320/06 RMK AO2 T11391194
14926KSTC STC20191111181510611/11/19 18:15:31  5-MIN KSTC 120015Z 32007KT 10SM CLR M14/M19 A3058 430 63 -3000 320/07 RMK AO2 T11391194
14926KSTC STC20191111182010611/11/19 18:20:31  5-MIN KSTC 120020Z 32007KT 10SM CLR M14/M19 A3058 430 63 -3000 320/07 RMK AO2 T11391194
14926KSTC STC20191111182510611/11/19 18:25:31  5-MIN KSTC 120025Z 32007KT 10SM CLR M14/M19 A3058 430 63 -3000 320/07 RMK AO2 T11391194
14926KSTC STC20191111183010611/11/19 18:30:31  5-MIN KSTC 120030Z 32006KT 10SM CLR M14/M19 A3058 430 63 -3000 320/06 RMK AO2 T11391194
14926KSTC STC20191111183510611/11/19 18:35:31  5-MIN KSTC 120035Z 32006KT 10SM CLR M14/M19 A3058 430 69 -3100 310/06 RMK AO2 T11441189
14926KSTC STC20191111184010611/11/19 18:40:31  5-MIN KSTC 120040Z 32007KT 10SM CLR M14/M19 A3058 420 69 -3100 310/07 RMK AO2 T11441189
14926KSTC STC20191111184510611/11/19 18:45:31  5-MIN KSTC 120045Z 31007KT 10SM CLR M14/M19 A3059 420 69 -3100 310/07 RMK AO2 T11441189
14926KSTC STC20191111185011311/11/19 18:50:31  5-MIN KSTC 120050Z 31008KT 10SM CLR M14/M19 A3059 420 69 -3100 310/08 RMK AO2 SLP393 T11441189
14926KSTC STC20191111185510611/11/19 18:55:31  5-MIN KSTC 120055Z 31008KT 10SM CLR M14/M19 A3059 420 69 -3100 310/08 RMK AO2 T11441189
14926KSTC STC20191111190010611/11/19 19:00:31  5-MIN KSTC 120100Z 30009KT 10SM CLR M14/M19 A3059 420 69 -3100 300/09 RMK AO2 T11441189
14926KSTC STC20191111190510611/11/19 19:05:31  5-MIN KSTC 120105Z 31008KT 10SM CLR M14/M19 A3058 420 69 -3100 310/08 RMK AO2 T11441189
14926KSTC STC20191111191010611/11/19 19:10:31  5-MIN KSTC 120110Z 31007KT 10SM CLR M14/M19 A3058 420 69 -3100 310/07 RMK AO2 T11441189
14926KSTC STC20191111191510611/11/19 19:15:31  5-MIN KSTC 120115Z 32008KT 10SM CLR M14/M19 A3058 420 69 -3100 310/08 RMK AO2 T11441189
14926KSTC STC20191111192010611/11/19 19:20:31  5-MIN KSTC 120120Z 31008KT 10SM CLR M14/M19 A3059 420 69 -3100 310/08 RMK AO2 T11441189
14926KSTC STC20191111192510611/11/19 19:25:31  5-MIN KSTC 120125Z 32007KT 10SM CLR M14/M19 A3059 420 69 -3100 320/07 RMK AO2 T11441189
14926KSTC STC20191111193010611/11/19 19:30:31  5-MIN KSTC 120130Z 32005KT 10SM CLR M14/M19 A3059 420 69 -3100 320/05 RMK AO2 T11441189
14926KSTC STC20191111193510611/11/19 19:35:31  5-MIN KSTC 120135Z 32005KT 10SM CLR M14/M19 A3059 420 69 -3100 320/05 RMK AO2 T11441189
14926KSTC STC20191111194010611/11/19 19:40:31  5-MIN KSTC 120140Z 31006KT 10SM CLR M15/M19 A3059 420 72 -3200 310/06 RMK AO2 T11501189
14926KSTC STC20191111194510611/11/19 19:45:31  5-MIN KSTC 120145Z 31006KT 10SM CLR M15/M19 A3059 420 72 -3200 310/06 RMK AO2 T11501189
14926KSTC STC20191111195011311/11/19 19:50:31  5-MIN KSTC 120150Z 31006KT 10SM CLR M16/M19 A3059 420 76 -3300 310/06 RMK AO2 SLP394 T11561189
14926KSTC STC20191111195510611/11/19 19:55:31  5-MIN KSTC 120155Z 31007KT 10SM CLR M16/M19 A3059 420 72 -3300 310/07 RMK AO2 T11561194
14926KSTC STC20191111200010611/11/19 20:00:31  5-MIN KSTC 120200Z 31007KT 10SM CLR M16/M19 A3059 420 72 -3300 310/07 RMK AO2 T11561194
14926KSTC STC20191111200510611/11/19 20:05:31  5-MIN KSTC 120205Z 31008KT 10SM CLR M16/M19 A3059 420 72 -3300 310/08 RMK AO2 T11561194
14926KSTC STC20191111201010611/11/19 20:10:31  5-MIN KSTC 120210Z 31007KT 10SM CLR M16/M19 A3059 420 72 -3300 310/07 RMK AO2 T11561194
14926KSTC STC20191111201510611/11/19 20:15:31  5-MIN KSTC 120215Z 31008KT 10SM CLR M16/M19 A3059 420 72 -3300 310/08 RMK AO2 T11561194
14926KSTC STC20191111202010611/11/19 20:20:31  5-MIN KSTC 120220Z 31007KT 10SM CLR M16/M19 A3059 420 72 -3200 310/07 RMK AO2 T11561194
14926KSTC STC20191111202510611/11/19 20:25:31  5-MIN KSTC 120225Z 31007KT 10SM CLR M15/M19 A3059 420 72 -3200 310/07 RMK AO2 T11501189
14926KSTC STC20191111203010611/11/19 20:30:31  5-MIN KSTC 120230Z 31007KT 10SM CLR M15/M19 A3059 420 72 -3200 310/07 RMK AO2 T11501189
14926KSTC STC20191111203510611/11/19 20:35:31  5-MIN KSTC 120235Z 32007KT 10SM CLR M15/M19 A3059 420 72 -3200 320/07 RMK AO2 T11501189
14926KSTC STC20191111204010611/11/19 20:40:31  5-MIN KSTC 120240Z 32006KT 10SM CLR M15/M19 A3059 420 72 -3200 320/06 RMK AO2 T11501189
14926KSTC STC20191111204510611/11/19 20:45:31  5-MIN KSTC 120245Z 32007KT 10SM CLR M14/M19 A3059 420 66 -3100 320/07 RMK AO2 T11441194
14926KSTC STC20191111205011911/11/19 20:50:31  5-MIN KSTC 120250Z 32006KT 10SM CLR M14/M19 A3059 420 66 -3100 320/06 RMK AO2 SLP394 T11441194 53010
14926KSTC STC20191111205510611/11/19 20:55:31  5-MIN KSTC 120255Z 32006KT 10SM CLR M15/M19 A3059 420 69 -3200 320/06 RMK AO2 T11501194
14926KSTC STC20191111210010611/11/19 21:00:31  5-MIN KSTC 120300Z 32005KT 10SM CLR M15/M19 A3060 410 69 -3200 320/05 RMK AO2 T11501194
14926KSTC STC20191111210510611/11/19 21:05:31  5-MIN KSTC 120305Z 32006KT 10SM CLR M15/M19 A3060 410 69 -3200 320/06 RMK AO2 T11501194
14926KSTC STC20191111211010611/11/19 21:10:31  5-MIN KSTC 120310Z 31006KT 10SM CLR M16/M19 A3060 410 72 -3300 310/06 RMK AO2 T11561194
14926KSTC STC20191111211510611/11/19 21:15:31  5-MIN KSTC 120315Z 31006KT 10SM CLR M16/M19 A3060 410 72 -3300 310/06 RMK AO2 T11561194
14926KSTC STC20191111212010611/11/19 21:20:31  5-MIN KSTC 120320Z 31006KT 10SM CLR M16/M19 A3060 410 76 -3300 300/06 RMK AO2 T11611194
14926KSTC STC20191111212510611/11/19 21:25:31  5-MIN KSTC 120325Z 31007KT 10SM CLR M16/M19 A3060 410 76 -3300 300/07 RMK AO2 T11611194
14926KSTC STC20191111213010611/11/19 21:30:31  5-MIN KSTC 120330Z 30007KT 10SM CLR M16/M19 A3060 410 76 -3300 300/07 RMK AO2 T11611194
14926KSTC STC20191111213510611/11/19 21:35:31  5-MIN KSTC 120335Z 31007KT 10SM CLR M16/M19 A3060 410 76 -3300 310/07 RMK AO2 T11611194
14926KSTC STC20191111214010611/11/19 21:40:31  5-MIN KSTC 120340Z 31007KT 10SM CLR M16/M19 A3060 410 72 -3300 310/07 RMK AO2 T11561194
14926KSTC STC20191111214510611/11/19 21:45:31  5-MIN KSTC 120345Z 30007KT 10SM CLR M16/M19 A3060 410 72 -3300 300/07 RMK AO2 T11561194
14926KSTC STC20191111215011311/11/19 21:50:31  5-MIN KSTC 120350Z 31007KT 10SM CLR M16/M19 A3060 410 72 -3300 310/07 RMK AO2 SLP399 T11561194
14926KSTC STC20191111215510611/11/19 21:55:31  5-MIN KSTC 120355Z 31008KT 10SM CLR M16/M19 A3060 410 72 -3300 310/08 RMK AO2 T11561194
14926KSTC STC20191111220010611/11/19 22:00:31  5-MIN KSTC 120400Z 31008KT 10SM CLR M16/M19 A3060 410 72 -3300 310/08 RMK AO2 T11561194
14926KSTC STC20191111220510611/11/19 22:05:31  5-MIN KSTC 120405Z 31008KT 10SM CLR M16/M19 A3060 410 72 -3300 310/08 RMK AO2 T11561194
14926KSTC STC20191111221010611/11/19 22:10:31  5-MIN KSTC 120410Z 31007KT 10SM CLR M16/M19 A3060 410 72 -3300 310/07 RMK AO2 T11561194
14926KSTC STC20191111221510611/11/19 22:15:31  5-MIN KSTC 120415Z 31007KT 10SM CLR M16/M19 A3060 410 72 -3300 310/07 RMK AO2 T11561194
14926KSTC STC20191111222010611/11/19 22:20:31  5-MIN KSTC 120420Z 31008KT 10SM CLR M16/M19 A3060 410 72 -3300 310/08 RMK AO2 T11561194
14926KSTC STC20191111222510611/11/19 22:25:31  5-MIN KSTC 120425Z 31007KT 10SM CLR M16/M19 A3060 410 72 -3300 310/07 RMK AO2 T11561194
14926KSTC STC20191111223010611/11/19 22:30:31  5-MIN KSTC 120430Z 31007KT 10SM CLR M16/M19 A3060 410 76 -3300 310/07 RMK AO2 T11611194
14926KSTC STC20191111223510611/11/19 22:35:31  5-MIN KSTC 120435Z 32007KT 10SM CLR M16/M19 A3059 420 79 -3300 310/07 RMK AO2 T11611189
14926KSTC STC20191111224010611/11/19 22:40:31  5-MIN KSTC 120440Z 32006KT 10SM CLR M16/M19 A3059 420 72 -3300 320/06 RMK AO2 T11561194
14926KSTC STC20191111224510611/11/19 22:45:31  5-MIN KSTC 120445Z 32006KT 10SM CLR M16/M19 A3059 420 76 -3300 320/06 RMK AO2 T11561189
14926KSTC STC20191111225011311/11/19 22:50:31  5-MIN KSTC 120450Z 32007KT 10SM CLR M16/M19 A3059 420 76 -3300 320/07 RMK AO2 SLP394 T11561189
14926KSTC STC20191111225510611/11/19 22:55:31  5-MIN KSTC 120455Z 32006KT 10SM CLR M16/M19 A3059 420 76 -3300 320/06 RMK AO2 T11561189
14926KSTC STC20191111230010611/11/19 23:00:31  5-MIN KSTC 120500Z 31006KT 10SM CLR M16/M19 A3059 420 76 -3300 310/06 RMK AO2 T11611194
14926KSTC STC20191111230511111/11/19 23:05:31  5-MIN KSTC 120505Z AUTO 31007KT 10SM CLR M16/M19 A3059 420 76 -3300 310/07 RMK AO2 T11611194
14926KSTC STC20191111231011111/11/19 23:10:31  5-MIN KSTC 120510Z AUTO 31007KT 10SM CLR M16/M19 A3059 420 76 -3300 310/07 RMK AO2 T11611194
14926KSTC STC20191111231511111/11/19 23:15:31  5-MIN KSTC 120515Z AUTO 31007KT 10SM CLR M17/M19 A3059 420 79 -3400 310/07 RMK AO2 T11671194
14926KSTC STC20191111232011111/11/19 23:20:31  5-MIN KSTC 120520Z AUTO 31007KT 10SM CLR M17/M19 A3059 420 79 -3400 310/07 RMK AO2 T11671194
14926KSTC STC20191111232511111/11/19 23:25:31  5-MIN KSTC 120525Z AUTO 31007KT 10SM CLR M17/M19 A3059 420 79 -3400 310/07 RMK AO2 T11671194
14926KSTC STC20191111233011111/11/19 23:30:31  5-MIN KSTC 120530Z AUTO 31007KT 10SM CLR M17/M19 A3059 420 79 -3400 310/07 RMK AO2 T11671194
14926KSTC STC20191111233511111/11/19 23:35:31  5-MIN KSTC 120535Z AUTO 31006KT 10SM CLR M17/M19 A3059 420 79 -3400 310/06 RMK AO2 T11671194
14926KSTC STC20191111234011111/11/19 23:40:31  5-MIN KSTC 120540Z AUTO 31006KT 10SM CLR M17/M19 A3058 430 79 -3400 310/06 RMK AO2 T11671194
14926KSTC STC20191111234511111/11/19 23:45:31  5-MIN KSTC 120545Z AUTO 31006KT 10SM CLR M17/M19 A3058 430 79 -3400 310/06 RMK AO2 T11671194
14926KSTC STC20191111235014611/11/19 23:50:31  5-MIN KSTC 120550Z AUTO 31007KT 10SM CLR M17/M19 A3058 430 79 -3400 310/07 RMK AO2 SLP391 T11671194 11133 21167 410891167 51006
14926KSTC STC20191111235511111/11/19 23:55:31  5-MIN KSTC 120555Z AUTO 31007KT 10SM CLR M17/M19 A3058 430 79 -3400 310/07 RMK AO2 T11671194
14926KSTC STC20191112000011111/12/19 00:00:31  5-MIN KSTC 120600Z AUTO 31007KT 10SM CLR M17/M19 A3058 430 79 -3400 310/07 RMK AO2 T11671194
14926KSTC STC20191112000511111/12/19 00:05:31  5-MIN KSTC 120605Z AUTO 32006KT 10SM CLR M17/M19 A3058 430 79 -3400 320/06 RMK AO2 T11671194
14926KSTC STC20191112001011111/12/19 00:10:31  5-MIN KSTC 120610Z AUTO 32006KT 10SM CLR M16/M19 A3058 430 79 -3300 320/06 RMK AO2 T11611189
14926KSTC STC20191112001511111/12/19 00:15:31  5-MIN KSTC 120615Z AUTO 32006KT 10SM CLR M16/M19 A3058 430 79 -3300 320/06 RMK AO2 T11611189
14926KSTC STC20191112002011111/12/19 00:20:31  5-MIN KSTC 120620Z AUTO 32005KT 10SM CLR M16/M19 A3058 430 76 -3300 320/05 RMK AO2 T11611194
14926KSTC STC20191112002511111/12/19 00:25:31  5-MIN KSTC 120625Z AUTO 31005KT 10SM CLR M16/M19 A3058 430 76 -3300 310/05 RMK AO2 T11611194
14926KSTC STC20191112003011111/12/19 00:30:31  5-MIN KSTC 120630Z AUTO 31005KT 10SM CLR M17/M19 A3058 430 79 -3400 310/05 RMK AO2 T11671194
14926KSTC STC20191112003511111/12/19 00:35:31  5-MIN KSTC 120635Z AUTO 31006KT 10SM CLR M17/M19 A3058 430 79 -3400 310/06 RMK AO2 T11671194
14926KSTC STC20191112004011111/12/19 00:40:31  5-MIN KSTC 120640Z AUTO 31006KT 10SM CLR M17/M19 A3058 430 79 -3400 310/06 RMK AO2 T11671194
14926KSTC STC20191112004511111/12/19 00:45:31  5-MIN KSTC 120645Z AUTO 30005KT 10SM CLR M17/M19 A3058 430 79 -3400 300/05 RMK AO2 T11671194
14926KSTC STC20191112005011811/12/19 00:50:31  5-MIN KSTC 120650Z AUTO 30003KT 10SM CLR M17/M19 A3057 430 79 -3400 300/03 RMK AO2 SLP389 T11671194
14926KSTC STC20191112005511111/12/19 00:55:31  5-MIN KSTC 120655Z AUTO 30003KT 10SM CLR M17/M19 A3057 430 79 -3400 290/03 RMK AO2 T11671194
14926KSTC STC20191112010011111/12/19 01:00:31  5-MIN KSTC 120700Z AUTO 30003KT 10SM CLR M17/M19 A3057 440 79 -3400 300/03 RMK AO2 T11671194
14926KSTC STC20191112010511111/12/19 01:05:31  5-MIN KSTC 120705Z AUTO 00000KT 10SM CLR M16/M19 A3057 440 76 -3300 000/00 RMK AO2 T11611194
14926KSTC STC20191112011011111/12/19 01:10:31  5-MIN KSTC 120710Z AUTO 00000KT 10SM CLR M16/M19 A3057 440 79 -3300 000/00 RMK AO2 T11611189
14926KSTC STC20191112011511111/12/19 01:15:31  5-MIN KSTC 120715Z AUTO 00000KT 10SM CLR M17/M19 A3057 440 79 -3400 000/00 RMK AO2 T11671194
14926KSTC STC20191112012011111/12/19 01:20:31  5-MIN KSTC 120720Z AUTO 00000KT 10SM CLR M17/M19 A3057 440 79 -3400 000/00 RMK AO2 T11671194
14926KSTC STC20191112012511111/12/19 01:25:31  5-MIN KSTC 120725Z AUTO 00000KT 10SM CLR M17/M19 A3056 450 79 -3400 000/00 RMK AO2 T11671194
14926KSTC STC20191112013011111/12/19 01:30:31  5-MIN KSTC 120730Z AUTO 00000KT 10SM CLR M17/M19 A3056 450 79 -3400 000/00 RMK AO2 T11671194
14926KSTC STC20191112013511111/12/19 01:35:31  5-MIN KSTC 120735Z AUTO 00000KT 10SM CLR M17/M19 A3056 450 79 -3400 000/00 RMK AO2 T11671194
14926KSTC STC20191112014011111/12/19 01:40:31  5-MIN KSTC 120740Z AUTO 00000KT 10SM CLR M17/M19 A3056 450 79 -3400 000/00 RMK AO2 T11671194
14926KSTC STC20191112014511111/12/19 01:45:31  5-MIN KSTC 120745Z AUTO 00000KT 10SM CLR M17/M19 A3056 450 79 -3400 000/00 RMK AO2 T11671194
14926KSTC STC20191112015011811/12/19 01:50:31  5-MIN KSTC 120750Z AUTO 00000KT 10SM CLR M17/M19 A3056 450 79 -3400 000/00 RMK AO2 SLP382 T11671194
14926KSTC STC20191112015511111/12/19 01:55:31  5-MIN KSTC 120755Z AUTO 00000KT 10SM CLR M17/M19 A3056 450 79 -3400 000/00 RMK AO2 T11671194
14926KSTC STC20191112020011111/12/19 02:00:31  5-MIN KSTC 120800Z AUTO 00000KT 10SM CLR M17/M19 A3056 450 83 -3400 000/00 RMK AO2 T11721194
14926KSTC STC20191112020511111/12/19 02:05:31  5-MIN KSTC 120805Z AUTO 00000KT 10SM CLR M17/M19 A3056 450 83 -3400 000/00 RMK AO2 T11721194
14926KSTC STC20191112021011111/12/19 02:10:31  5-MIN KSTC 120810Z AUTO 00000KT 10SM CLR M17/M19 A3056 450 79 -3400 000/00 RMK AO2 T11671194
14926KSTC STC20191112021511111/12/19 02:15:31  5-MIN KSTC 120815Z AUTO 00000KT 10SM CLR M17/M19 A3056 450 79 -3400 000/00 RMK AO2 T11671194
14926KSTC STC20191112022011111/12/19 02:20:31  5-MIN KSTC 120820Z AUTO 00000KT 10SM CLR M17/M19 A3056 450 79 -3400 000/00 RMK AO2 T11671194
14926KSTC STC20191112022511111/12/19 02:25:31  5-MIN KSTC 120825Z AUTO 00000KT 10SM CLR M17/M19 A3056 450 79 -3400 000/00 RMK AO2 T11671194
14926KSTC STC20191112023011111/12/19 02:30:31  5-MIN KSTC 120830Z AUTO 00000KT 10SM CLR M17/M19 A3056 450 83 -3400 000/00 RMK AO2 T11721194
14926KSTC STC20191112023511111/12/19 02:35:31  5-MIN KSTC 120835Z AUTO 00000KT 10SM CLR M17/M20 A3056 450 79 -3400 000/00 RMK AO2 T11721200
14926KSTC STC20191112024011111/12/19 02:40:31  5-MIN KSTC 120840Z AUTO 00000KT 10SM CLR M17/M20 A3056 450 79 -3400 000/00 RMK AO2 T11721200
14926KSTC STC20191112024511111/12/19 02:45:31  5-MIN KSTC 120845Z AUTO 22003KT 10SM CLR M17/M19 A3056 450 83 -3400 220/03 RMK AO2 T11721194
14926KSTC STC20191112025012411/12/19 02:50:31  5-MIN KSTC 120850Z AUTO 22004KT 10SM CLR M17/M19 A3056 450 79 -3400 220/04 RMK AO2 SLP384 T11671194 58004
14926KSTC STC20191112025511111/12/19 02:55:31  5-MIN KSTC 120855Z AUTO 22004KT 10SM CLR M17/M19 A3056 450 79 -3400 220/04 RMK AO2 T11671194
14926KSTC STC20191112030011111/12/19 03:00:31  5-MIN KSTC 120900Z AUTO 22004KT 10SM CLR M17/M19 A3055 450 79 -3400 220/04 RMK AO2 T11671194
14926KSTC STC20191112030511111/12/19 03:05:31  5-MIN KSTC 120905Z AUTO 21003KT 10SM CLR M17/M19 A3055 460 79 -3400 210/03 RMK AO2 T11671194
14926KSTC STC20191112031011111/12/19 03:10:31  5-MIN KSTC 120910Z AUTO 19003KT 10SM CLR M17/M19 A3054 460 83 -3400 190/03 RMK AO2 T11721194
14926KSTC STC20191112031511111/12/19 03:15:31  5-MIN KSTC 120915Z AUTO 20004KT 10SM CLR M17/M20 A3054 460 79 -3400 200/04 RMK AO2 T11721200
14926KSTC STC20191112032011111/12/19 03:20:31  5-MIN KSTC 120920Z AUTO 19003KT 10SM CLR M17/M20 A3054 470 79 -3400 190/03 RMK AO2 T11721200
14926KSTC STC20191112032511111/12/19 03:25:31  5-MIN KSTC 120925Z AUTO 20003KT 10SM CLR M17/M19 A3054 470 83 -3400 200/03 RMK AO2 T11721194
14926KSTC STC20191112033011111/12/19 03:30:31  5-MIN KSTC 120930Z AUTO 21004KT 10SM CLR M17/M20 A3054 470 79 -3400 210/04 RMK AO2 T11721200
14926KSTC STC20191112033511111/12/19 03:35:31  5-MIN KSTC 120935Z AUTO 21004KT 10SM CLR M18/M20 A3054 470 83 -3500 210/04 RMK AO2 T11781200
14926KSTC STC20191112034011111/12/19 03:40:31  5-MIN KSTC 120940Z AUTO 21004KT 10SM CLR M18/M20 A3054 470 83 -3500 210/04 RMK AO2 T11781200
14926KSTC STC20191112034511111/12/19 03:45:31  5-MIN KSTC 120945Z AUTO 21003KT 10SM CLR M17/M20 A3054 470 79 -3400 210/03 RMK AO2 T11721200
14926KSTC STC20191112035011811/12/19 03:50:31  5-MIN KSTC 120950Z AUTO 22003KT 10SM CLR M17/M19 A3053 470 83 -3400 210/03 RMK AO2 SLP376 T11721194
14926KSTC STC20191112035511111/12/19 03:55:31  5-MIN KSTC 120955Z AUTO 22004KT 10SM CLR M17/M19 A3053 470 83 -3400 210/04 RMK AO2 T11721194
14926KSTC STC20191112040011111/12/19 04:00:31  5-MIN KSTC 121000Z AUTO 21003KT 10SM CLR M18/M19 A3053 470 87 -3500 210/03 RMK AO2 T11781194
14926KSTC STC20191112040511111/12/19 04:05:31  5-MIN KSTC 121005Z AUTO 22003KT 10SM CLR M17/M20 A3053 470 79 -3400 220/03 RMK AO2 T11721200
14926KSTC STC20191112041011111/12/19 04:10:31  5-MIN KSTC 121010Z AUTO 00000KT 10SM CLR M18/M20 A3053 480 83 -3500 000/00 RMK AO2 T11781200
14926KSTC STC20191112041511111/12/19 04:15:31  5-MIN KSTC 121015Z AUTO 00000KT 10SM CLR M18/M20 A3052 480 83 -3500 000/00 RMK AO2 T11781200
14926KSTC STC20191112042011711/12/19 04:20:31  5-MIN KSTC 121020Z AUTO 00000KT 10SM CLR M17/M20 A3052 480 79 -3400 000/00 RMK AO2 I1000 T11721200
14926KSTC STC20191112042511711/12/19 04:25:31  5-MIN KSTC 121025Z AUTO 19003KT 10SM CLR M17/M19 A3052 490 83 -3400 190/03 RMK AO2 I1000 T11721194
14926KSTC STC20191112043011711/12/19 04:30:31  5-MIN KSTC 121030Z AUTO 00000KT 10SM CLR M17/M19 A3051 490 83 -3400 000/00 RMK AO2 I1000 T11721194
14926KSTC STC20191112043511711/12/19 04:35:31  5-MIN KSTC 121035Z AUTO 00000KT 10SM CLR M17/M19 A3051 490 83 -3400 000/00 RMK AO2 I1000 T11721194
14926KSTC STC20191112044011711/12/19 04:40:31  5-MIN KSTC 121040Z AUTO 00000KT 10SM CLR M17/M19 A3051 490 83 -3400 000/00 RMK AO2 I1000 T11721194
14926KSTC STC20191112044511711/12/19 04:45:31  5-MIN KSTC 121045Z AUTO 19003KT 10SM CLR M17/M19 A3051 490 87 -3400 190/03 RMK AO2 I1000 T11721189
14926KSTC STC20191112045012411/12/19 04:50:31  5-MIN KSTC 121050Z AUTO 18003KT 10SM CLR M17/M19 A3051 490 83 -3400 170/03 RMK AO2 SLP367 I1000 T11721194
14926KSTC STC20191112045511111/12/19 04:55:31  5-MIN KSTC 121055Z AUTO 19003KT 10SM CLR M17/M19 A3051 490 87 -3400 190/03 RMK AO2 T11721189
14926KSTC STC20191112050011111/12/19 05:00:31  5-MIN KSTC 121100Z AUTO 19003KT 10SM CLR M17/M19 A3051 490 87 -3400 190/03 RMK AO2 T11721189
14926KSTC STC20191112050511111/12/19 05:05:31  5-MIN KSTC 121105Z AUTO 21003KT 10SM CLR M17/M19 A3051 490 87 -3400 210/03 RMK AO2 T11721189
14926KSTC STC20191112051011111/12/19 05:10:31  5-MIN KSTC 121110Z AUTO 19003KT 10SM CLR M17/M19 A3051 490 83 -3300 190/03 RMK AO2 T11671189
14926KSTC STC20191112051511111/12/19 05:15:31  5-MIN KSTC 121115Z AUTO 20003KT 10SM CLR M17/M19 A3051 490 87 -3400 200/03 RMK AO2 T11721189
14926KSTC STC20191112052011111/12/19 05:20:31  5-MIN KSTC 121120Z AUTO 20003KT 10SM CLR M17/M19 A3051 490 83 -3400 200/03 RMK AO2 T11721194
14926KSTC STC20191112052511111/12/19 05:25:31  5-MIN KSTC 121125Z AUTO 19004KT 10SM CLR M17/M19 A3051 500 83 -3400 190/04 RMK AO2 T11721194
14926KSTC STC20191112053011111/12/19 05:30:31  5-MIN KSTC 121130Z AUTO 19003KT 10SM CLR M17/M19 A3051 500 83 -3400 190/03 RMK AO2 T11721194
14926KSTC STC20191112053511111/12/19 05:35:31  5-MIN KSTC 121135Z AUTO 19004KT 10SM CLR M17/M19 A3051 500 83 -3400 190/04 RMK AO2 T11721194
14926KSTC STC20191112054011711/12/19 05:40:31  5-MIN KSTC 121140Z AUTO 19004KT 10SM CLR M17/M19 A3051 500 83 -3400 180/04 RMK AO2 I1000 T11721194
14926KSTC STC20191112054511711/12/19 05:45:31  5-MIN KSTC 121145Z AUTO 19003KT 10SM CLR M17/M19 A3050 500 83 -3400 190/03 RMK AO2 I1000 T11721194
14926KSTC STC20191112055014811/12/19 05:50:31  5-MIN KSTC 121150Z AUTO 18004KT 10SM CLR M17/M19 A3050 500 83 -3400 180/04 RMK AO2 SLP365 I1000 I6000 T11721194 11161 21178 55008
14926KSTC STC20191112055511111/12/19 05:55:31  5-MIN KSTC 121155Z AUTO 17004KT 10SM CLR M17/M19 A3049 510 83 -3400 170/04 RMK AO2 T11721194
14926KSTC STC20191112060011111/12/19 06:00:31  5-MIN KSTC 121200Z AUTO 17003KT 10SM CLR M17/M19 A3049 510 83 -3400 170/03 RMK AO2 T11721194
14926KSTC STC20191112060511111/12/19 06:05:31  5-MIN KSTC 121205Z AUTO 16003KT 10SM CLR M17/M19 A3049 510 83 -3400 150/03 RMK AO2 T11721194
14926KSTC STC20191112061011111/12/19 06:10:31  5-MIN KSTC 121210Z AUTO 16003KT 10SM CLR M17/M19 A3049 510 83 -3400 160/03 RMK AO2 T11721194
14926KSTC STC20191112061511111/12/19 06:15:31  5-MIN KSTC 121215Z AUTO 18003KT 10SM CLR M17/M19 A3049 510 83 -3400 180/03 RMK AO2 T11721194
14926KSTC STC20191112062011111/12/19 06:20:31  5-MIN KSTC 121220Z AUTO 18003KT 10SM CLR M17/M19 A3049 510 87 -3400 180/03 RMK AO2 T11721189
14926KSTC STC20191112062510611/12/19 06:25:31  5-MIN KSTC 121225Z 17003KT 10SM CLR M17/M19 A3049 510 83 -3400 170/03 RMK AO2 T11721194
14926KSTC STC20191112063010611/12/19 06:30:31  5-MIN KSTC 121230Z 00000KT 10SM CLR M17/M19 A3049 510 87 -3400 000/00 RMK AO2 T11721189
14926KSTC STC20191112063510611/12/19 06:35:31  5-MIN KSTC 121235Z 00000KT 10SM CLR M17/M19 A3048 520 87 -3400 000/00 RMK AO2 T11721189
14926KSTC STC20191112064010611/12/19 06:40:31  5-MIN KSTC 121240Z 00000KT 10SM CLR M17/M19 A3048 520 83 -3400 000/00 RMK AO2 T11721194
14926KSTC STC20191112064511211/12/19 06:45:31  5-MIN KSTC 121245Z 00000KT 10SM CLR M17/M20 A3048 520 79 -3400 000/00 RMK AO2 I1000 T11721200
14926KSTC STC20191112065011911/12/19 06:50:31  5-MIN KSTC 121250Z 00000KT 10SM CLR M18/M20 A3048 520 83 -3400 000/00 RMK AO2 SLP360 I1000 T11781200
14926KSTC STC20191112065510611/12/19 06:55:31  5-MIN KSTC 121255Z 00000KT 10SM CLR M17/M19 A3048 520 83 -3400 000/00 RMK AO2 T11721194
14926KSTC STC20191112070010611/12/19 07:00:31  5-MIN KSTC 121300Z 00000KT 10SM CLR M17/M19 A3048 520 87 -3400 000/00 RMK AO2 T11721189
14926KSTC STC20191112070510611/12/19 07:05:31  5-MIN KSTC 121305Z 00000KT 10SM CLR M17/M19 A3048 520 87 -3400 000/00 RMK AO2 T11721189
14926KSTC STC20191112071010611/12/19 07:10:31  5-MIN KSTC 121310Z 00000KT 10SM CLR M17/M19 A3048 520 83 -3400 000/00 RMK AO2 T11721194
14926KSTC STC20191112071510611/12/19 07:15:31  5-MIN KSTC 121315Z 17003KT 10SM CLR M17/M19 A3048 520 83 -3400 160/03 RMK AO2 T11721194
14926KSTC STC20191112072010611/12/19 07:20:31  5-MIN KSTC 121320Z 16003KT 10SM CLR M17/M19 A3047 530 83 -3300 150/03 RMK AO2 T11721194
14926KSTC STC20191112072510611/12/19 07:25:31  5-MIN KSTC 121325Z 16003KT 10SM CLR M17/M19 A3047 530 83 -3300 160/03 RMK AO2 T11721194
14926KSTC STC20191112073010611/12/19 07:30:31  5-MIN KSTC 121330Z 15003KT 10SM CLR M17/M19 A3047 530 83 -3300 150/03 RMK AO2 T11721194
14926KSTC STC20191112073510611/12/19 07:35:31  5-MIN KSTC 121335Z 15003KT 10SM CLR M17/M19 A3047 530 83 -3300 150/03 RMK AO2 T11721194
14926KSTC STC20191112074010611/12/19 07:40:31  5-MIN KSTC 121340Z 15003KT 10SM CLR M17/M19 A3047 530 83 -3300 150/03 RMK AO2 T11721194
14926KSTC STC20191112074510611/12/19 07:45:31  5-MIN KSTC 121345Z 15003KT 10SM CLR M17/M19 A3047 530 87 -3300 150/03 RMK AO2 T11721189
14926KSTC STC20191112075011311/12/19 07:50:31  5-MIN KSTC 121350Z 00000KT 10SM CLR M17/M19 A3047 530 83 -3300 000/00 RMK AO2 SLP357 T11671189
14926KSTC STC20191112075510611/12/19 07:55:31  5-MIN KSTC 121355Z 15004KT 10SM CLR M17/M18 A3047 530 87 -3300 150/04 RMK AO2 T11671183
14926KSTC STC20191112080010611/12/19 08:00:31  5-MIN KSTC 121400Z 14004KT 10SM CLR M17/M18 A3047 530 87 -3300 140/04 RMK AO2 T11671183
14926KSTC STC20191112080510611/12/19 08:05:31  5-MIN KSTC 121405Z 15004KT 10SM CLR M16/M18 A3047 530 83 -3200 150/04 RMK AO2 T11611183
14926KSTC STC20191112081010611/12/19 08:10:31  5-MIN KSTC 121410Z 15004KT 10SM CLR M16/M18 A3047 530 87 -3200 150/04 RMK AO2 T11611178
14926KSTC STC20191112081510611/12/19 08:15:31  5-MIN KSTC 121415Z 16004KT 10SM CLR M16/M18 A3047 530 83 -3100 160/04 RMK AO2 T11561178
14926KSTC STC20191112082010611/12/19 08:20:31  5-MIN KSTC 121420Z 18005KT 10SM CLR M16/M17 A3047 530 87 -3100 180/05 RMK AO2 T11561172
14926KSTC STC20191112082510611/12/19 08:25:31  5-MIN KSTC 121425Z 18006KT 10SM CLR M15/M17 A3047 530 83 -3000 180/06 RMK AO2 T11501172
14926KSTC STC20191112083010611/12/19 08:30:31  5-MIN KSTC 121430Z 19005KT 10SM CLR M15/M17 A3047 530 83 -3000 190/05 RMK AO2 T11501172
14926KSTC STC20191112083510611/12/19 08:35:31  5-MIN KSTC 121435Z 19005KT 10SM CLR M15/M17 A3047 530 83 -3000 190/05 RMK AO2 T11501172
14926KSTC STC20191112084010611/12/19 08:40:31  5-MIN KSTC 121440Z 19007KT 10SM CLR M14/M17 A3047 530 80 -3000 190/07 RMK AO2 T11441172
14926KSTC STC20191112084510611/12/19 08:45:31  5-MIN KSTC 121445Z 19007KT 10SM CLR M14/M17 A3046 540 80 -3000 190/07 RMK AO2 T11441172
14926KSTC STC20191112085012511/12/19 08:50:31  5-MIN KSTC 121450Z 19007KT 10SM CLR M14/M17 A3046 540 80 -2900 190/07 RMK AO2 SLP350 I3/// T11391167 56019
14926KSTC STC20191112085510611/12/19 08:55:31  5-MIN KSTC 121455Z 20006KT 10SM CLR M14/M17 A3046 540 80 -2900 190/06 RMK AO2 T11391167
14926KSTC STC20191112090010611/12/19 09:00:31  5-MIN KSTC 121500Z 20007KT 10SM CLR M13/M16 A3046 540 80 -2800 200/07 RMK AO2 T11331161
14926KSTC STC20191112090510611/12/19 09:05:31  5-MIN KSTC 121505Z 19008KT 10SM CLR M13/M17 A3045 540 76 -2800 190/08 RMK AO2 T11331167
14926KSTC STC20191112091010611/12/19 09:10:31  5-MIN KSTC 121510Z 20008KT 10SM CLR M13/M16 A3045 550 80 -2800 190/08 RMK AO2 T11331161
14926KSTC STC20191112091510611/12/19 09:15:31  5-MIN KSTC 121515Z 17008KT 10SM CLR M13/M16 A3044 550 76 -2700 170/08 RMK AO2 T11281161
14926KSTC STC20191112092010611/12/19 09:20:31  5-MIN KSTC 121520Z 17008KT 10SM CLR M13/M16 A3044 550 76 -2700 170/08 RMK AO2 T11281161
14926KSTC STC20191112092510611/12/19 09:25:31  5-MIN KSTC 121525Z 19009KT 10SM CLR M13/M16 A3044 560 76 -2700 180/09 RMK AO2 T11281161
14926KSTC STC20191112093010611/12/19 09:30:31  5-MIN KSTC 121530Z 19009KT 10SM CLR M12/M16 A3044 560 73 -2600 190/09 RMK AO2 T11221161
14926KSTC STC20191112093510611/12/19 09:35:31  5-MIN KSTC 121535Z 18010KT 10SM CLR M12/M17 A3043 560 70 -2600 180/10 RMK AO2 T11221167
14926KSTC STC20191112094011211/12/19 09:40:31  5-MIN KSTC 121540Z 18009G17KT 10SM CLR M12/M17 A3043 570 70 -2600 180/09G17 RMK AO2 T11221167
14926KSTC STC20191112094511211/12/19 09:45:31  5-MIN KSTC 121545Z 18010G17KT 10SM CLR M12/M17 A3043 570 70 -2600 180/10G17 RMK AO2 T11221167
14926KSTC STC20191112095011611/12/19 09:50:31  5-MIN KSTC 121550Z 18011KT 10SM FEW022 M12/M16 A3042 570 70 -2500 180/11 RMK AO2 SLP336 T11171161
14926KSTC STC20191112095510911/12/19 09:55:31  5-MIN KSTC 121555Z 19011KT 10SM FEW022 M12/M16 A3042 580 70 -2500 180/11 RMK AO2 T11171161
14926KSTC STC20191112100011511/12/19 10:00:31  5-MIN KSTC 121600Z 20011G20KT 10SM FEW022 M12/M17 A3041 580 67 -2500 200/11G20 RMK AO2 T11171167
14926KSTC STC20191112100511511/12/19 10:05:31  5-MIN KSTC 121605Z 19014G20KT 10SM FEW022 M12/M18 A3041 580 61 -2500 190/14G20 RMK AO2 T11171178
14926KSTC STC20191112101010911/12/19 10:10:31  5-MIN KSTC 121610Z 19013KT 10SM FEW022 M12/M18 A3040 590 61 -2500 190/13 RMK AO2 T11171178
14926KSTC STC20191112101510911/12/19 10:15:31  5-MIN KSTC 121615Z 20013KT 10SM FEW022 M11/M17 A3040 590 61 -2400 200/13 RMK AO2 T11111172
14926KSTC STC20191112102010611/12/19 10:20:31  5-MIN KSTC 121620Z 20014KT 10SM CLR M11/M18 A3040 600 58 -2400 200/14 RMK AO2 T11111178
14926KSTC STC20191112102510611/12/19 10:25:31  5-MIN KSTC 121625Z 18014KT 10SM CLR M11/M18 A3039 600 58 -2400 180/14 RMK AO2 T11111178
14926KSTC STC20191112103010611/12/19 10:30:31  5-MIN KSTC 121630Z 18015KT 10SM CLR M11/M18 A3039 600 55 -2400 180/15 RMK AO2 T11111183
14926KSTC STC20191112103510611/12/19 10:35:31  5-MIN KSTC 121635Z 17013KT 10SM CLR M11/M18 A3039 600 55 -2400 170/13 RMK AO2 T11111183
14926KSTC STC20191112104010611/12/19 10:40:31  5-MIN KSTC 121640Z 18010KT 10SM CLR M11/M18 A3038 610 56 -2400 180/10 RMK AO2 T11061178
14926KSTC STC20191112104511211/12/19 10:45:31  5-MIN KSTC 121645Z 19012G20KT 10SM CLR M11/M18 A3039 610 56 -2400 190/12G20 RMK AO2 T11061178
14926KSTC STC20191112105011911/12/19 10:50:31  5-MIN KSTC 121650Z 18015G21KT 10SM CLR M11/M18 A3038 610 53 -2300 180/15G21 RMK AO2 SLP323 T11061183
14926KSTC STC20191112105511211/12/19 10:55:31  5-MIN KSTC 121655Z 18013G21KT 10SM CLR M11/M19 A3038 610 51 -2300 180/13G21 RMK AO2 T11061189
14926KSTC STC20191112110011211/12/19 11:00:31  5-MIN KSTC 121700Z 17013G21KT 10SM CLR M10/M18 A3038 610 53 -2300 170/13G21 RMK AO2 T11001178
14926KSTC STC20191112110510611/12/19 11:05:31  5-MIN KSTC 121705Z 20013KT 10SM CLR M11/M18 A3037 620 53 -2300 200/13 RMK AO2 T11061183
14926KSTC STC20191112111011211/12/19 11:10:31  5-MIN KSTC 121710Z 17016G22KT 10SM CLR M10/M18 A3038 610 51 -2300 170/16G22 RMK AO2 T11001183
14926KSTC STC20191112111511211/12/19 11:15:31  5-MIN KSTC 121715Z 18013G22KT 10SM CLR M10/M18 A3038 610 51 -2300 180/13G22 RMK AO2 T11001183
14926KSTC STC20191112112011211/12/19 11:20:31  5-MIN KSTC 121720Z 19013G21KT 10SM CLR M10/M18 A3038 620 51 -2300 190/13G21 RMK AO2 T11001183
14926KSTC STC20191112112510611/12/19 11:25:31  5-MIN KSTC 121725Z 19014KT 10SM CLR M10/M18 A3037 620 51 -2300 190/14 RMK AO2 T11001183
14926KSTC STC20191112113010611/12/19 11:30:31  5-MIN KSTC 121730Z 21014KT 10SM CLR M10/M18 A3037 620 51 -2300 210/14 RMK AO2 T11001183
14926KSTC STC20191112113510611/12/19 11:35:31  5-MIN KSTC 121735Z 17012KT 10SM CLR M10/M18 A3037 620 51 -2300 170/12 RMK AO2 T11001183
14926KSTC STC20191112114011211/12/19 11:40:31  5-MIN KSTC 121740Z 18009G18KT 10SM CLR M10/M18 A3036 630 53 -2200 180/09G18 RMK AO2 T11001178
14926KSTC STC20191112114511211/12/19 11:45:31  5-MIN KSTC 121745Z 18012G20KT 10SM CLR M10/M18 A3036 630 53 -2300 180/12G20 RMK AO2 T11001178
14926KSTC STC20191112115014311/12/19 11:50:31  5-MIN KSTC 121750Z 19013G20KT 10SM CLR M09/M18 A3036 630 51 -2200 190/13G20 RMK AO2 SLP315 I6000 T10941178 11094 21178 56012
14926KSTC STC20191112115510611/12/19 11:55:31  5-MIN KSTC 121755Z 19011KT 10SM CLR M10/M18 A3036 630 53 -2200 180/11 RMK AO2 T11001178
14926KSTC STC20191112120010611/12/19 12:00:31  5-MIN KSTC 121800Z 19012KT 10SM CLR M09/M18 A3036 630 51 -2200 190/12 RMK AO2 T10941178
14926KSTC STC20191112120510611/12/19 12:05:31  5-MIN KSTC 121805Z 16012KT 10SM CLR M10/M18 A3035 640 53 -2200 160/12 RMK AO2 T11001178
14926KSTC STC20191112121010611/12/19 12:10:31  5-MIN KSTC 121810Z 18013KT 10SM CLR M09/M18 A3035 640 51 -2200 180/13 RMK AO2 T10941178
14926KSTC STC20191112121510611/12/19 12:15:31  5-MIN KSTC 121815Z 16014KT 10SM CLR M09/M18 A3034 650 51 -2200 160/14 RMK AO2 T10941178
14926KSTC STC20191112122010611/12/19 12:20:31  5-MIN KSTC 121820Z 17012KT 10SM CLR M09/M18 A3034 650 51 -2200 170/12 RMK AO2 T10941178
14926KSTC STC20191112122511211/12/19 12:25:31  5-MIN KSTC 121825Z 17012G18KT 10SM CLR M09/M18 A3034 650 51 -2100 170/12G18 RMK AO2 T10941178
14926KSTC STC20191112123010611/12/19 12:30:31  5-MIN KSTC 121830Z 16013KT 10SM CLR M09/M18 A3033 650 51 -2100 160/13 RMK AO2 T10941178
14926KSTC STC20191112123511211/12/19 12:35:31  5-MIN KSTC 121835Z 17012G20KT 10SM CLR M09/M17 A3033 660 51 -2100 170/12G20 RMK AO2 T10891172
14926KSTC STC20191112124011211/12/19 12:40:31  5-MIN KSTC 121840Z 17009G20KT 10SM CLR M09/M18 A3032 670 51 -2100 170/09G20 RMK AO2 T10941178
14926KSTC STC20191112124511311/12/19 12:45:31  5-MIN KSTC 121845Z 18010KT 10SM CLR M09/M17 A3031 670 51 -2000 180/10 RMK AO2 PRESFR T10891172
14926KSTC STC20191112125011911/12/19 12:50:31  5-MIN KSTC 121850Z 15012G20KT 10SM CLR M08/M17 A3031 680 49 -2000 150/12G20 RMK AO2 SLP296 T10831172
14926KSTC STC20191112125511211/12/19 12:55:31  5-MIN KSTC 121855Z 15016G22KT 10SM CLR M08/M17 A3030 680 51 -2000 150/16G22 RMK AO2 T10831167
14926KSTC STC20191112130011911/12/19 13:00:31  5-MIN KSTC 121900Z 15015G22KT 10SM CLR M08/M17 A3030 690 49 -2000 150/15G22 RMK AO2 PRESFR T10831172
14926KSTC STC20191112130510611/12/19 13:05:31  5-MIN KSTC 121905Z 15014KT 10SM CLR M08/M17 A3029 690 49 -2000 150/14 RMK AO2 T10831172
14926KSTC STC20191112131011911/12/19 13:10:31  5-MIN KSTC 121910Z 17015G22KT 10SM CLR M08/M17 A3028 700 49 -1900 170/15G22 RMK AO2 PRESFR T10831172
14926KSTC STC20191112131511211/12/19 13:15:31  5-MIN KSTC 121915Z 16012G21KT 10SM CLR M08/M17 A3028 700 49 -1900 160/12G21 RMK AO2 T10831172
14926KSTC STC20191112132011211/12/19 13:20:31  5-MIN KSTC 121920Z 15014G21KT 10SM CLR M08/M17 A3028 700 49 -1900 150/14G21 RMK AO2 T10831172
14926KSTC STC20191112132511211/12/19 13:25:31  5-MIN KSTC 121925Z 15014G21KT 10SM CLR M09/M18 A3028 710 49 -2000 150/14G21 RMK AO2 T10891178
14926KSTC STC20191112133011211/12/19 13:30:31  5-MIN KSTC 121930Z 15016G23KT 10SM CLR M09/M18 A3027 710 49 -2000 150/16G23 RMK AO2 T10891178
14926KSTC STC20191112133511211/12/19 13:35:31  5-MIN KSTC 121935Z 17013G23KT 10SM CLR M09/M18 A3027 710 49 -2000 170/13G23 RMK AO2 T10891178
14926KSTC STC20191112134011211/12/19 13:40:31  5-MIN KSTC 121940Z 17015G22KT 10SM CLR M08/M17 A3026 720 49 -1900 170/15G22 RMK AO2 T10831172
14926KSTC STC20191112134511211/12/19 13:45:31  5-MIN KSTC 121945Z 17013G24KT 10SM CLR M08/M18 A3026 720 47 -1900 170/13G24 RMK AO2 T10831178
14926KSTC STC20191112135011911/12/19 13:50:31  5-MIN KSTC 121950Z 16017G24KT 10SM CLR M08/M17 A3025 730 47 -1800 160/17G24 RMK AO2 SLP277 T10781172
14926KSTC STC20191112135511911/12/19 13:55:31  5-MIN KSTC 121955Z 17016G24KT 10SM CLR M08/M18 A3024 740 47 -1900 170/16G24 RMK AO2 PRESFR T10831178
14926KSTC STC20191112140011311/12/19 14:00:31  5-MIN KSTC 122000Z 16016KT 10SM CLR M08/M17 A3023 750 49 -1900 160/16 RMK AO2 PRESFR T10831172
14926KSTC STC20191112140511211/12/19 14:05:31  5-MIN KSTC 122005Z 16015G22KT 10SM CLR M08/M17 A3023 750 49 -1900 160/15G22 RMK AO2 T10831172
14926KSTC STC20191112141011311/12/19 14:10:31  5-MIN KSTC 122010Z 16017KT 10SM CLR M08/M17 A3022 760 49 -1800 160/17 RMK AO2 PRESFR T10781167
14926KSTC STC20191112141511911/12/19 14:15:31  5-MIN KSTC 122015Z 16016G24KT 10SM CLR M08/M18 A3021 760 47 -1900 160/16G24 RMK AO2 PRESFR T10831178
14926KSTC STC20191112142011911/12/19 14:20:31  5-MIN KSTC 122020Z 15015G24KT 10SM CLR M08/M17 A3021 770 49 -1900 140/15G24 RMK AO2 PRESFR T10831172
14926KSTC STC20191112142511911/12/19 14:25:31  5-MIN KSTC 122025Z 16018G24KT 10SM CLR M08/M17 A3020 770 49 -1800 150/18G24 RMK AO2 PRESFR T10831172
14926KSTC STC20191112143010611/12/19 14:30:31  5-MIN KSTC 122030Z 15019KT 10SM CLR M08/M18 A3020 780 47 -1800 150/19 RMK AO2 T10831178
14926KSTC STC20191112143510611/12/19 14:35:31  5-MIN KSTC 122035Z 14014KT 10SM CLR M08/M17 A3020 780 49 -1800 140/14 RMK AO2 T10831172
14926KSTC STC20191112144010611/12/19 14:40:31  5-MIN KSTC 122040Z 16015KT 10SM CLR M08/M17 A3020 780 49 -1800 150/15 RMK AO2 T10831172
14926KSTC STC20191112144511211/12/19 14:45:31  5-MIN KSTC 122045Z 16016G22KT 10SM CLR M08/M17 A3019 780 49 -1800 160/16G22 RMK AO2 T10831172
14926KSTC STC20191112145011911/12/19 14:50:31  5-MIN KSTC 122050Z 16015KT 10SM CLR M08/M17 A3019 790 49 -1800 160/15 RMK AO2 SLP255 T10831172 56033
14926KSTC STC20191112145511211/12/19 14:55:31  5-MIN KSTC 122055Z 15013G20KT 10SM CLR M08/M17 A3018 790 49 -1800 150/13G20 RMK AO2 T10831172
14926KSTC STC20191112150011211/12/19 15:00:31  5-MIN KSTC 122100Z 15017G22KT 10SM CLR M08/M17 A3018 790 49 -1800 150/17G22 RMK AO2 T10831172
14926KSTC STC20191112150510611/12/19 15:05:31  5-MIN KSTC 122105Z 16016KT 10SM CLR M08/M18 A3018 800 47 -1800 160/16 RMK AO2 T10831178
14926KSTC STC20191112151010611/12/19 15:10:31  5-MIN KSTC 122110Z 16016KT 10SM CLR M08/M18 A3018 790 47 -1800 160/16 RMK AO2 T10831178
14926KSTC STC20191112151511211/12/19 15:15:31  5-MIN KSTC 122115Z 16018G23KT 10SM CLR M08/M18 A3017 800 47 -1800 150/18G23 RMK AO2 T10831178
14926KSTC STC20191112152010611/12/19 15:20:31  5-MIN KSTC 122120Z 16016KT 10SM CLR M08/M18 A3017 810 47 -1800 160/16 RMK AO2 T10831178
14926KSTC STC20191112152510611/12/19 15:25:31  5-MIN KSTC 122125Z 16013KT 10SM CLR M08/M18 A3016 810 47 -1800 160/13 RMK AO2 T10831178
14926KSTC STC20191112153011211/12/19 15:30:31  5-MIN KSTC 122130Z 16015G22KT 10SM CLR M08/M17 A3016 810 49 -1800 160/15G22 RMK AO2 T10831172
14926KSTC STC20191112153511911/12/19 15:35:31  5-MIN KSTC 122135Z 16017G22KT 10SM CLR M08/M18 A3015 820 47 -1800 160/17G22 RMK AO2 PRESFR T10831178
14926KSTC STC20191112154011211/12/19 15:40:31  5-MIN KSTC 122140Z 15014G22KT 10SM CLR M08/M17 A3015 820 49 -1800 150/14G22 RMK AO2 T10831172
14926KSTC STC20191112154510611/12/19 15:45:31  5-MIN KSTC 122145Z 16013KT 10SM CLR M08/M17 A3014 830 49 -1800 150/13 RMK AO2 T10831172
14926KSTC STC20191112155014411/12/19 15:50:31  5-MIN KSTC 122150Z 15020G26KT 10SM CLR M08/M18 A3013 840 47 -1800 150/20G26 RMK AO2 PK WND 16026/2147 PRESFR SLP237 T10831178
14926KSTC STC20191112155513011/12/19 15:55:31  5-MIN KSTC 122155Z 16017G26KT 10SM CLR M09/M18 A3014 830 49 -1800 160/17G26 RMK AO2 PK WND 15026/2154 T10891178
14926KSTC STC20191112160013011/12/19 16:00:31  5-MIN KSTC 122200Z 16016G26KT 10SM CLR M08/M18 A3014 840 47 -1800 160/16G26 RMK AO2 PK WND 15026/2154 T10831178
14926KSTC STC20191112160513011/12/19 16:05:31  5-MIN KSTC 122205Z 16019G26KT 10SM CLR M09/M18 A3013 840 49 -1800 160/19G26 RMK AO2 PK WND 17026/2204 T10891178
14926KSTC STC20191112161013011/12/19 16:10:31  5-MIN KSTC 122210Z 15017G26KT 10SM CLR M09/M18 A3012 850 49 -1800 150/17G26 RMK AO2 PK WND 17026/2204 T10891178
14926KSTC STC20191112161513011/12/19 16:15:31  5-MIN KSTC 122215Z 15018G26KT 10SM CLR M09/M17 A3012 850 51 -1800 150/18G26 RMK AO2 PK WND 17026/2204 T10891172
14926KSTC STC20191112162013011/12/19 16:20:31  5-MIN KSTC 122220Z 16014G26KT 10SM CLR M09/M17 A3012 850 51 -1800 160/14G26 RMK AO2 PK WND 17026/2204 T10891172
14926KSTC STC20191112162513011/12/19 16:25:31  5-MIN KSTC 122225Z 16012G22KT 10SM CLR M09/M18 A3012 850 49 -1800 160/12G22 RMK AO2 PK WND 17026/2204 T10891178
14926KSTC STC20191112163013011/12/19 16:30:31  5-MIN KSTC 122230Z 16018G27KT 10SM CLR M09/M17 A3012 850 51 -1800 160/18G27 RMK AO2 PK WND 18027/2229 T10891172
14926KSTC STC20191112163513011/12/19 16:35:31  5-MIN KSTC 122235Z 16016G27KT 10SM CLR M09/M18 A3012 850 49 -1800 150/16G27 RMK AO2 PK WND 18027/2229 T10891178
14926KSTC STC20191112164013011/12/19 16:40:31  5-MIN KSTC 122240Z 15017G25KT 10SM CLR M09/M18 A3012 850 49 -1800 150/17G25 RMK AO2 PK WND 18027/2229 T10891178
14926KSTC STC20191112164513011/12/19 16:45:31  5-MIN KSTC 122245Z 15016G25KT 10SM CLR M09/M18 A3012 850 49 -1800 150/16G25 RMK AO2 PK WND 18027/2229 T10891178
14926KSTC STC20191112165013711/12/19 16:50:31  5-MIN KSTC 122250Z 16018G25KT 10SM CLR M09/M17 A3012 850 51 -1800 160/18G25 RMK AO2 PK WND 18027/2229 SLP232 T10891172
14926KSTC STC20191112165511211/12/19 16:55:31  5-MIN KSTC 122255Z 16018G25KT 10SM CLR M09/M17 A3012 850 51 -1800 160/18G25 RMK AO2 T10891172
14926KSTC STC20191112170011211/12/19 17:00:31  5-MIN KSTC 122300Z 17014G25KT 10SM CLR M09/M17 A3012 850 51 -1800 170/14G25 RMK AO2 T10891172
14926KSTC STC20191112170510611/12/19 17:05:31  5-MIN KSTC 122305Z 16014KT 10SM CLR M09/M17 A3012 850 51 -1800 160/14 RMK AO2 T10891172
14926KSTC STC20191112171010611/12/19 17:10:31  5-MIN KSTC 122310Z 16012KT 10SM CLR M09/M17 A3011 850 51 -1800 160/12 RMK AO2 T10891172
14926KSTC STC20191112171511211/12/19 17:15:31  5-MIN KSTC 122315Z 16013G22KT 10SM CLR M09/M17 A3011 860 54 -1800 160/13G22 RMK AO2 T10891167
14926KSTC STC20191112172011211/12/19 17:20:31  5-MIN KSTC 122320Z 16014G22KT 10SM CLR M09/M17 A3011 860 54 -1800 160/14G22 RMK AO2 T10891167
14926KSTC STC20191112172511211/12/19 17:25:31  5-MIN KSTC 122325Z 16015G22KT 10SM CLR M09/M17 A3010 870 54 -1800 160/15G22 RMK AO2 T10891167
14926KSTC STC20191112173011211/12/19 17:30:31  5-MIN KSTC 122330Z 16014G22KT 10SM CLR M09/M17 A3010 870 54 -1800 160/14G22 RMK AO2 T10891167
14926KSTC STC20191112173511211/12/19 17:35:31  5-MIN KSTC 122335Z 17015G21KT 10SM CLR M09/M17 A3010 870 54 -1800 170/15G21 RMK AO2 T10891167
14926KSTC STC20191112174011211/12/19 17:40:31  5-MIN KSTC 122340Z 15014G21KT 10SM CLR M09/M16 A3010 870 56 -1800 150/14G21 RMK AO2 T10891161
14926KSTC STC20191112174510611/12/19 17:45:31  5-MIN KSTC 122345Z 16011KT 10SM CLR M09/M16 A3010 870 56 -1800 160/11 RMK AO2 T10891161
14926KSTC STC20191112175013111/12/19 17:50:31  5-MIN KSTC 122350Z 16013KT 10SM CLR M09/M16 A3009 880 56 -1800 160/13 RMK AO2 SLP223 T10891161 11078 21100 58057
14926KSTC STC20191112175510611/12/19 17:55:31  5-MIN KSTC 122355Z 17011KT 10SM CLR M09/M16 A3009 880 56 -1800 170/11 RMK AO2 T10891161
14926KSTC STC20191112180011211/12/19 18:00:31  5-MIN KSTC 130000Z 17012G20KT 10SM CLR M08/M16 A3009 880 54 -1700 170/12G20 RMK AO2 T10831161
14926KSTC STC20191112180511211/12/19 18:05:31  5-MIN KSTC 130005Z 18015G23KT 10SM CLR M08/M16 A3009 880 54 -1700 180/15G23 RMK AO2 T10831161
14926KSTC STC20191112181011211/12/19 18:10:31  5-MIN KSTC 130010Z 17014G23KT 10SM CLR M08/M16 A3009 880 56 -1700 170/14G23 RMK AO2 T10831156
14926KSTC STC20191112181511211/12/19 18:15:31  5-MIN KSTC 130015Z 18015G22KT 10SM CLR M08/M16 A3009 880 54 -1700 180/15G22 RMK AO2 T10831161
14926KSTC STC20191112182011211/12/19 18:20:31  5-MIN KSTC 130020Z 18014G22KT 10SM CLR M08/M16 A3009 880 56 -1700 180/14G22 RMK AO2 T10831156
14926KSTC STC20191112182510611/12/19 18:25:31  5-MIN KSTC 130025Z 18014KT 10SM CLR M08/M16 A3009 880 56 -1700 170/14 RMK AO2 T10831156
14926KSTC STC20191112183011211/12/19 18:30:31  5-MIN KSTC 130030Z 17015G24KT 10SM CLR M08/M16 A3009 880 56 -1700 170/15G24 RMK AO2 T10831156
14926KSTC STC20191112183511211/12/19 18:35:31  5-MIN KSTC 130035Z 17015G24KT 10SM CLR M08/M16 A3009 880 56 -1700 170/15G24 RMK AO2 T10831156
14926KSTC STC20191112184011211/12/19 18:40:31  5-MIN KSTC 130040Z 17014G22KT 10SM CLR M08/M16 A3009 880 56 -1700 170/14G22 RMK AO2 T10831156
14926KSTC STC20191112184510611/12/19 18:45:31  5-MIN KSTC 130045Z 17014KT 10SM CLR M08/M16 A3008 880 56 -1700 170/14 RMK AO2 T10831156
14926KSTC STC20191112185011311/12/19 18:50:31  5-MIN KSTC 130050Z 18014KT 10SM CLR M08/M16 A3008 880 56 -1700 180/14 RMK AO2 SLP221 T10831156
14926KSTC STC20191112185511211/12/19 18:55:31  5-MIN KSTC 130055Z 17012G23KT 10SM CLR M08/M16 A3008 880 56 -1700 170/12G23 RMK AO2 T10831156
14926KSTC STC20191112190011211/12/19 19:00:31  5-MIN KSTC 130100Z 18012G23KT 10SM CLR M08/M16 A3008 880 56 -1700 170/12G23 RMK AO2 T10831156
14926KSTC STC20191112190511511/12/19 19:05:31  5-MIN KSTC 130105Z 18014G24KT 10SM FEW120 M08/M16 A3008 880 56 -1700 180/14G24 RMK AO2 T10831156
14926KSTC STC20191112191011511/12/19 19:10:31  5-MIN KSTC 130110Z 18012G24KT 10SM SCT120 M08/M16 A3008 880 56 -1700 180/12G24 RMK AO2 T10831156
14926KSTC STC20191112191511511/12/19 19:15:31  5-MIN KSTC 130115Z 17010G20KT 10SM SCT120 M08/M16 A3008 890 56 -1700 170/10G20 RMK AO2 T10831156
14926KSTC STC20191112192011511/12/19 19:20:31  5-MIN KSTC 130120Z 18013G20KT 10SM SCT120 M08/M16 A3008 890 56 -1700 180/13G20 RMK AO2 T10831156
14926KSTC STC20191112192511511/12/19 19:25:31  5-MIN KSTC 130125Z 18014G21KT 10SM FEW120 M08/M16 A3008 890 56 -1700 180/14G21 RMK AO2 T10831156
14926KSTC STC20191112193011511/12/19 19:30:31  5-MIN KSTC 130130Z 18016G21KT 10SM FEW120 M08/M16 A3007 890 56 -1700 180/16G21 RMK AO2 T10831156
14926KSTC STC20191112193510911/12/19 19:35:31  5-MIN KSTC 130135Z 18014KT 10SM FEW120 M08/M16 A3007 890 56 -1700 180/14 RMK AO2 T10831156
14926KSTC STC20191112194011211/12/19 19:40:31  5-MIN KSTC 130140Z 18017G24KT 10SM CLR M08/M16 A3007 890 56 -1700 180/17G24 RMK AO2 T10831156
14926KSTC STC20191112194511211/12/19 19:45:31  5-MIN KSTC 130145Z 17014G24KT 10SM CLR M08/M15 A3007 900 59 -1700 170/14G24 RMK AO2 T10831150
14926KSTC STC20191112195011911/12/19 19:50:31  5-MIN KSTC 130150Z 17016G22KT 10SM CLR M08/M15 A3006 910 59 -1700 170/16G22 RMK AO2 SLP211 T10831150
14926KSTC STC20191112195511211/12/19 19:55:31  5-MIN KSTC 130155Z 17014G26KT 10SM CLR M08/M16 A3006 910 56 -1700 170/14G26 RMK AO2 T10831156
14926KSTC STC20191112200011511/12/19 20:00:31  5-MIN KSTC 130200Z 17014G26KT 10SM FEW110 M08/M15 A3005 910 59 -1700 170/14G26 RMK AO2 T10831150
14926KSTC STC20191112200511511/12/19 20:05:31  5-MIN KSTC 130205Z 18015G23KT 10SM SCT110 M08/M15 A3005 920 59 -1700 180/15G23 RMK AO2 T10831150
14926KSTC STC20191112201011511/12/19 20:10:31  5-MIN KSTC 130210Z 17017G23KT 10SM SCT110 M08/M15 A3004 920 59 -1700 170/17G23 RMK AO2 T10831150
14926KSTC STC20191112201511511/12/19 20:15:31  5-MIN KSTC 130215Z 17016G22KT 10SM FEW110 M08/M15 A3004 920 59 -1700 170/16G22 RMK AO2 T10831150
14926KSTC STC20191112202010911/12/19 20:20:31  5-MIN KSTC 130220Z 17017KT 10SM SCT120 M08/M15 A3004 920 59 -1700 170/17 RMK AO2 T10831150
14926KSTC STC20191112202513311/12/19 20:25:31  5-MIN KSTC 130225Z 18013G27KT 10SM BKN110 M08/M15 A3004 930 59 -1700 180/13G27 RMK AO2 PK WND 17027/0221 T10831150
14926KSTC STC20191112203013311/12/19 20:30:31  5-MIN KSTC 130230Z 18012G27KT 10SM BKN110 M08/M15 A3003 930 59 -1700 180/12G27 RMK AO2 PK WND 17027/0221 T10831150
14926KSTC STC20191112203514011/12/19 20:35:31  5-MIN KSTC 130235Z 18015G21KT 10SM FEW035 BKN110 M08/M15 A3003 930 59 -1600 180/15G21 RMK AO2 PK WND 17027/0221 T10831150
14926KSTC STC20191112204014011/12/19 20:40:31  5-MIN KSTC 130240Z 18017G22KT 10SM SCT035 BKN110 M08/M15 A3003 930 59 -1600 180/17G22 RMK AO2 PK WND 17027/0221 T10831150
14926KSTC STC20191112204514011/12/19 20:45:31  5-MIN KSTC 130245Z 17013G22KT 10SM BKN035 OVC110 M08/M15 A3003 930 59 -1600 160/13G22 RMK AO2 PK WND 17027/0221 T10831150
14926KSTC STC20191112205015311/12/19 20:50:31  5-MIN KSTC 130250Z 17014G21KT 10SM BKN035 OVC110 M08/M15 A3003 930 59 -1600 170/14G21 RMK AO2 PK WND 17027/0221 SLP200 T10831150 56031
14926KSTC STC20191112205512211/12/19 20:55:31  5-MIN KSTC 130255Z 17014G27KT 10SM BKN035 OVC110 M08/M15 A3003 930 59 -1600 170/14G27 RMK AO2 T10831150
14926KSTC STC20191112210013311/12/19 21:00:31  5-MIN KSTC 130300Z 18018G27KT 10SM OVC035 M08/M15 A3002 940 59 -1600 170/18G27 RMK AO2 PK WND 18026/0259 T10831150
14926KSTC STC20191112210514011/12/19 21:05:31  5-MIN KSTC 130305Z 16012G26KT 10SM BKN034 BKN110 M08/M15 A3002 940 59 -1600 160/12G26 RMK AO2 PK WND 18026/0259 T10831150
14926KSTC STC20191112211014011/12/19 21:10:31  5-MIN KSTC 130310Z 17013G23KT 10SM BKN034 BKN110 M08/M15 A3002 940 59 -1600 170/13G23 RMK AO2 PK WND 18026/0259 T10831150
14926KSTC STC20191112211514011/12/19 21:15:31  5-MIN KSTC 130315Z 18014G23KT 10SM BKN034 BKN110 M08/M14 A3003 940 62 -1600 180/14G23 RMK AO2 PK WND 18026/0259 T10831144
14926KSTC STC20191112212014011/12/19 21:20:31  5-MIN KSTC 130320Z 18016G22KT 10SM BKN034 BKN110 M08/M15 A3003 930 59 -1600 180/16G22 RMK AO2 PK WND 18026/0259 T10831150
14926KSTC STC20191112212513411/12/19 21:25:31  5-MIN KSTC 130325Z 19015KT 10SM SCT034 BKN110 M08/M15 A3003 940 59 -1600 180/15 RMK AO2 PK WND 18026/0259 T10831150
14926KSTC STC20191112213013411/12/19 21:30:31  5-MIN KSTC 130330Z 18014KT 10SM FEW034 SCT110 M08/M14 A3002 940 62 -1600 180/14 RMK AO2 PK WND 18026/0259 T10831144
14926KSTC STC20191112213513411/12/19 21:35:31  5-MIN KSTC 130335Z 17012KT 10SM FEW034 SCT110 M08/M14 A3002 940 62 -1600 170/12 RMK AO2 PK WND 18026/0259 T10831144
14926KSTC STC20191112214013311/12/19 21:40:31  5-MIN KSTC 130340Z 18016G21KT 10SM FEW034 M08/M15 A3001 950 59 -1600 180/16G21 RMK AO2 PK WND 18026/0259 T10831150
14926KSTC STC20191112214514011/12/19 21:45:31  5-MIN KSTC 130345Z 17013G22KT 10SM FEW034 SCT110 M08/M14 A3001 950 62 -1600 170/13G22 RMK AO2 PK WND 18026/0259 T10831144
14926KSTC STC20191112215014011/12/19 21:50:31  5-MIN KSTC 130350Z 17011G22KT 10SM SCT110 M08/M14 A3001 950 62 -1600 170/11G22 RMK AO2 PK WND 18026/0259 SLP193 T10831144
14926KSTC STC20191112215511511/12/19 21:55:31  5-MIN KSTC 130355Z 18014G21KT 10SM BKN110 M08/M14 A3001 950 62 -1600 170/14G21 RMK AO2 T10831144
14926KSTC STC20191112220011511/12/19 22:00:31  5-MIN KSTC 130400Z 17011G21KT 10SM BKN100 M08/M14 A3001 950 62 -1600 170/11G21 RMK AO2 T10831144
14926KSTC STC20191112220511511/12/19 22:05:31  5-MIN KSTC 130405Z 16013G19KT 10SM BKN110 M08/M14 A3001 950 62 -1600 160/13G19 RMK AO2 T10831144
14926KSTC STC20191112221010911/12/19 22:10:31  5-MIN KSTC 130410Z 17014KT 10SM BKN110 M08/M14 A3000 960 62 -1600 170/14 RMK AO2 T10831144
14926KSTC STC20191112221511511/12/19 22:15:31  5-MIN KSTC 130415Z 16014G21KT 10SM BKN110 M08/M14 A3000 960 62 -1600 160/14G21 RMK AO2 T10831144
14926KSTC STC20191112222010911/12/19 22:20:31  5-MIN KSTC 130420Z 17014KT 10SM SCT110 M08/M14 A3000 960 62 -1600 160/14 RMK AO2 T10831144
14926KSTC STC20191112222511511/12/19 22:25:31  5-MIN KSTC 130425Z 17012G21KT 10SM FEW110 M08/M14 A2999 970 62 -1600 170/12G21 RMK AO2 T10831144
14926KSTC STC20191112223010911/12/19 22:30:31  5-MIN KSTC 130430Z 17015KT 10SM FEW120 M08/M14 A2999 970 62 -1600 170/15 RMK AO2 T10831144
14926KSTC STC20191112223511511/12/19 22:35:31  5-MIN KSTC 130435Z 16014G22KT 10SM FEW120 M08/M14 A2999 970 62 -1600 160/14G22 RMK AO2 T10831144
14926KSTC STC20191112224011211/12/19 22:40:31  5-MIN KSTC 130440Z 16013G22KT 10SM CLR M08/M14 A2998 980 62 -1600 160/13G22 RMK AO2 T10831144
14926KSTC STC20191112224510611/12/19 22:45:31  5-MIN KSTC 130445Z 17016KT 10SM CLR M08/M14 A2998 980 62 -1600 160/16 RMK AO2 T10831144
14926KSTC STC20191112225011911/12/19 22:50:31  5-MIN KSTC 130450Z 16012G20KT 10SM CLR M08/M14 A2998 980 62 -1600 160/12G20 RMK AO2 SLP181 T10831144
14926KSTC STC20191112225511711/12/19 22:55:31  5-MIN KSTC 130455Z AUTO 16013G20KT 10SM CLR M09/M14 A2997 980 64 -1700 160/13G20 RMK AO2 T10891144
14926KSTC STC20191112230011111/12/19 23:00:31  5-MIN KSTC 130500Z AUTO 17011KT 10SM CLR M09/M14 A2997 990 64 -1700 170/11 RMK AO2 T10891144
14926KSTC STC20191112230511111/12/19 23:05:31  5-MIN KSTC 130505Z AUTO 16013KT 10SM CLR M09/M14 A2997 990 64 -1600 160/13 RMK AO2 T10891144
14926KSTC STC20191112231011111/12/19 23:10:31  5-MIN KSTC 130510Z AUTO 16014KT 10SM CLR M09/M14 A2996 990 64 -1600 160/14 RMK AO2 T10891144
14926KSTC STC20191112231511111/12/19 23:15:31  5-MIN KSTC 130515Z AUTO 16012KT 10SM CLR M09/M14 A2996 990 64 -1600 160/12 RMK AO2 T10891144
14926KSTC STC20191112232011211/12/19 23:20:31  5-MIN KSTC 130520Z AUTO 16014KT 10SM CLR M09/M14 A2996 1000 64 -1600 160/14 RMK AO2 T10891144
14926KSTC STC20191112232511211/12/19 23:25:31  5-MIN KSTC 130525Z AUTO 16013KT 10SM CLR M09/M14 A2995 1000 64 -1600 160/13 RMK AO2 T10891144
14926KSTC STC20191112233011211/12/19 23:30:31  5-MIN KSTC 130530Z AUTO 16014KT 10SM CLR M09/M14 A2995 1000 64 -1600 160/14 RMK AO2 T10891144
14926KSTC STC20191112233511211/12/19 23:35:31  5-MIN KSTC 130535Z AUTO 17014KT 10SM CLR M09/M14 A2995 1010 64 -1600 170/14 RMK AO2 T10891144
14926KSTC STC20191112234011211/12/19 23:40:31  5-MIN KSTC 130540Z AUTO 16013KT 10SM CLR M09/M14 A2995 1010 64 -1600 160/13 RMK AO2 T10891144
14926KSTC STC20191112234511811/12/19 23:45:31  5-MIN KSTC 130545Z AUTO 16012G20KT 10SM CLR M09/M14 A2995 1010 64 -1600 160/12G20 RMK AO2 T10891144
14926KSTC STC20191112235015311/12/19 23:50:31  5-MIN KSTC 130550Z AUTO 16011G20KT 10SM CLR M09/M14 A2995 1010 64 -1600 160/11G20 RMK AO2 SLP171 T10891144 11083 21089 410781178 58020
14926KSTC STC20191112235511211/12/19 23:55:31  5-MIN KSTC 130555Z AUTO 16012KT 10SM CLR M09/M14 A2994 1010 67 -1600 160/12 RMK AO2 T10891139
14926KSTC STC20191113000011211/13/19 00:00:31  5-MIN KSTC 130600Z AUTO 16011KT 10SM CLR M09/M14 A2994 1010 67 -1600 160/11 RMK AO2 T10891139
14926KSTC STC20191113000511211/13/19 00:05:31  5-MIN KSTC 130605Z AUTO 15012KT 10SM CLR M08/M14 A2994 1020 64 -1500 150/12 RMK AO2 T10831139
14926KSTC STC20191113001011211/13/19 00:10:31  5-MIN KSTC 130610Z AUTO 16012KT 10SM CLR M08/M14 A2994 1020 64 -1500 160/12 RMK AO2 T10831139
14926KSTC STC20191113001511511/13/19 00:15:31  5-MIN KSTC 130615Z AUTO 16012KT 10SM FEW120 M08/M14 A2994 1020 64 -1500 160/12 RMK AO2 T10831139
14926KSTC STC20191113002011511/13/19 00:20:31  5-MIN KSTC 130620Z AUTO 15012KT 10SM SCT120 M08/M14 A2993 1020 64 -1500 150/12 RMK AO2 T10831139
14926KSTC STC20191113002511511/13/19 00:25:31  5-MIN KSTC 130625Z AUTO 16010KT 10SM FEW120 M08/M14 A2993 1020 64 -1500 160/10 RMK AO2 T10831139
14926KSTC STC20191113003011511/13/19 00:30:31  5-MIN KSTC 130630Z AUTO 16012KT 10SM FEW120 M08/M14 A2992 1030 64 -1500 160/12 RMK AO2 T10831139
14926KSTC STC20191113003512211/13/19 00:35:31  5-MIN KSTC 130635Z AUTO 15014KT 10SM FEW120 M08/M14 A2992 1040 64 -1500 150/14 RMK AO2 PRESFR T10831139
14926KSTC STC20191113004011511/13/19 00:40:31  5-MIN KSTC 130640Z AUTO 16011KT 10SM FEW120 M08/M14 A2992 1040 64 -1500 160/11 RMK AO2 T10831139
14926KSTC STC20191113004511511/13/19 00:45:31  5-MIN KSTC 130645Z AUTO 16015KT 10SM FEW120 M08/M14 A2991 1040 64 -1500 160/15 RMK AO2 T10831139
14926KSTC STC20191113005012211/13/19 00:50:31  5-MIN KSTC 130650Z AUTO 15010KT 10SM FEW120 M08/M14 A2991 1040 64 -1500 150/10 RMK AO2 SLP157 T10831139
14926KSTC STC20191113005511511/13/19 00:55:31  5-MIN KSTC 130655Z AUTO 16013KT 10SM SCT120 M08/M13 A2991 1040 67 -1500 160/13 RMK AO2 T10831133
14926KSTC STC20191113010011511/13/19 01:00:31  5-MIN KSTC 130700Z AUTO 16012KT 10SM SCT120 M08/M13 A2991 1040 64 -1400 160/12 RMK AO2 T10781133
14926KSTC STC20191113010511511/13/19 01:05:31  5-MIN KSTC 130705Z AUTO 16013KT 10SM BKN120 M08/M13 A2991 1050 64 -1400 160/13 RMK AO2 T10781133
14926KSTC STC20191113011012111/13/19 01:10:31  5-MIN KSTC 130710Z AUTO 16012G19KT 10SM BKN120 M08/M13 A2991 1040 64 -1400 160/12G19 RMK AO2 T10781133
14926KSTC STC20191113011511511/13/19 01:15:31  5-MIN KSTC 130715Z AUTO 16012KT 10SM BKN120 M08/M13 A2991 1050 64 -1400 160/12 RMK AO2 T10781133
14926KSTC STC20191113012011511/13/19 01:20:31  5-MIN KSTC 130720Z AUTO 16012KT 10SM BKN110 M08/M13 A2990 1050 64 -1400 150/12 RMK AO2 T10781133
14926KSTC STC20191113012511511/13/19 01:25:31  5-MIN KSTC 130725Z AUTO 16011KT 10SM BKN110 M08/M13 A2990 1050 64 -1400 160/11 RMK AO2 T10781133
14926KSTC STC20191113013011511/13/19 01:30:31  5-MIN KSTC 130730Z AUTO 16012KT 10SM OVC110 M08/M13 A2990 1050 64 -1400 160/12 RMK AO2 T10781133
14926KSTC STC20191113013511511/13/19 01:35:31  5-MIN KSTC 130735Z AUTO 17011KT 10SM OVC100 M08/M13 A2990 1050 64 -1400 170/11 RMK AO2 T10781133
14926KSTC STC20191113014011511/13/19 01:40:31  5-MIN KSTC 130740Z AUTO 16010KT 10SM OVC100 M08/M13 A2990 1060 64 -1400 160/10 RMK AO2 T10781133
14926KSTC STC20191113014511511/13/19 01:45:31  5-MIN KSTC 130745Z AUTO 15011KT 10SM OVC100 M08/M13 A2990 1060 64 -1400 150/11 RMK AO2 T10781133
14926KSTC STC20191113015012211/13/19 01:50:31  5-MIN KSTC 130750Z AUTO 16011KT 10SM OVC100 M08/M13 A2990 1050 64 -1400 160/11 RMK AO2 SLP152 T10781133
14926KSTC STC20191113015511511/13/19 01:55:31  5-MIN KSTC 130755Z AUTO 17009KT 10SM OVC100 M08/M13 A2990 1060 64 -1400 170/09 RMK AO2 T10781133
14926KSTC STC20191113020011511/13/19 02:00:31  5-MIN KSTC 130800Z AUTO 16011KT 10SM OVC100 M08/M13 A2990 1060 64 -1400 160/11 RMK AO2 T10781133
14926KSTC STC20191113020511511/13/19 02:05:31  5-MIN KSTC 130805Z AUTO 17011KT 10SM OVC100 M07/M13 A2989 1060 62 -1300 160/11 RMK AO2 T10721133
14926KSTC STC20191113021011511/13/19 02:10:31  5-MIN KSTC 130810Z AUTO 17010KT 10SM OVC110 M07/M13 A2990 1050 65 -1400 170/10 RMK AO2 T10721128
14926KSTC STC20191113021511511/13/19 02:15:31  5-MIN KSTC 130815Z AUTO 16010KT 10SM OVC110 M07/M13 A2990 1050 65 -1400 160/10 RMK AO2 T10721128
14926KSTC STC20191113022012211/13/19 02:20:31  5-MIN KSTC 130820Z AUTO 17012KT 10SM FEW032 OVC110 M07/M13 A2990 1050 65 -1400 170/12 RMK AO2 T10721128
14926KSTC STC20191113022512211/13/19 02:25:31  5-MIN KSTC 130825Z AUTO 16009KT 10SM FEW032 OVC110 M07/M13 A2990 1050 65 -1400 160/09 RMK AO2 T10721128
14926KSTC STC20191113023012211/13/19 02:30:31  5-MIN KSTC 130830Z AUTO 16011KT 10SM FEW032 OVC110 M07/M13 A2990 1060 65 -1300 160/11 RMK AO2 T10721128
14926KSTC STC20191113023512211/13/19 02:35:31  5-MIN KSTC 130835Z AUTO 16012KT 10SM FEW032 OVC110 M07/M13 A2989 1060 65 -1300 160/12 RMK AO2 T10721128
14926KSTC STC20191113024012211/13/19 02:40:31  5-MIN KSTC 130840Z AUTO 17011KT 10SM FEW032 OVC110 M07/M13 A2989 1060 65 -1300 160/11 RMK AO2 T10721128
14926KSTC STC20191113024512211/13/19 02:45:31  5-MIN KSTC 130845Z AUTO 16010KT 10SM FEW032 OVC110 M07/M13 A2989 1070 65 -1300 160/10 RMK AO2 T10721128
14926KSTC STC20191113025012811/13/19 02:50:31  5-MIN KSTC 130850Z AUTO 16009KT 10SM OVC110 M07/M13 A2988 1070 65 -1300 160/09 RMK AO2 SLP146 T10721128 58028
14926KSTC STC20191113025511511/13/19 02:55:31  5-MIN KSTC 130855Z AUTO 16011KT 10SM OVC110 M07/M13 A2988 1070 65 -1300 160/11 RMK AO2 T10721128
14926KSTC STC20191113030011511/13/19 03:00:31  5-MIN KSTC 130900Z AUTO 16011KT 10SM OVC110 M07/M13 A2987 1080 65 -1300 160/11 RMK AO2 T10721128
14926KSTC STC20191113030511511/13/19 03:05:31  5-MIN KSTC 130905Z AUTO 16011KT 10SM OVC100 M07/M13 A2987 1080 65 -1300 160/11 RMK AO2 T10721128
14926KSTC STC20191113031011511/13/19 03:10:31  5-MIN KSTC 130910Z AUTO 16010KT 10SM OVC100 M07/M13 A2987 1080 65 -1300 160/10 RMK AO2 T10721128
14926KSTC STC20191113031512211/13/19 03:15:31  5-MIN KSTC 130915Z AUTO 15010KT 10SM BKN095 OVC110 M07/M13 A2986 1090 65 -1300 150/10 RMK AO2 T10721128
14926KSTC STC20191113032012211/13/19 03:20:31  5-MIN KSTC 130920Z AUTO 16010KT 10SM BKN090 OVC100 M07/M13 A2986 1090 65 -1300 160/10 RMK AO2 T10721128
14926KSTC STC20191113032511511/13/19 03:25:31  5-MIN KSTC 130925Z AUTO 16010KT 10SM OVC090 M07/M13 A2986 1090 65 -1300 160/10 RMK AO2 T10721128
14926KSTC STC20191113033011511/13/19 03:30:31  5-MIN KSTC 130930Z AUTO 17010KT 10SM OVC085 M07/M13 A2986 1090 65 -1300 170/10 RMK AO2 T10721128
14926KSTC STC20191113033511511/13/19 03:35:31  5-MIN KSTC 130935Z AUTO 16011KT 10SM OVC090 M07/M13 A2985 1100 65 -1300 160/11 RMK AO2 T10721128
14926KSTC STC20191113034011511/13/19 03:40:31  5-MIN KSTC 130940Z AUTO 16009KT 10SM OVC090 M07/M13 A2985 1100 65 -1300 160/09 RMK AO2 T10721128
14926KSTC STC20191113034511511/13/19 03:45:31  5-MIN KSTC 130945Z AUTO 16012KT 10SM OVC095 M07/M13 A2984 1110 62 -1200 160/12 RMK AO2 T10671128
14926KSTC STC20191113035012211/13/19 03:50:31  5-MIN KSTC 130950Z AUTO 15010KT 10SM OVC100 M07/M13 A2984 1110 65 -1300 150/10 RMK AO2 SLP132 T10721128
14926KSTC STC20191113035511511/13/19 03:55:31  5-MIN KSTC 130955Z AUTO 16010KT 10SM OVC100 M07/M13 A2984 1110 62 -1200 160/10 RMK AO2 T10671128
14926KSTC STC20191113040011511/13/19 04:00:31  5-MIN KSTC 131000Z AUTO 16010KT 10SM OVC100 M07/M12 A2984 1110 65 -1200 160/10 RMK AO2 T10671122
14926KSTC STC20191113040511511/13/19 04:05:31  5-MIN KSTC 131005Z AUTO 16010KT 10SM OVC100 M07/M12 A2984 1110 65 -1200 160/10 RMK AO2 T10671122
14926KSTC STC20191113041012211/13/19 04:10:31  5-MIN KSTC 131010Z AUTO 16012KT 10SM BKN090 OVC110 M07/M12 A2983 1110 65 -1200 160/12 RMK AO2 T10671122
14926KSTC STC20191113041512211/13/19 04:15:31  5-MIN KSTC 131015Z AUTO 16011KT 10SM BKN090 OVC110 M07/M12 A2984 1110 65 -1200 160/11 RMK AO2 T10671122
14926KSTC STC20191113042011511/13/19 04:20:31  5-MIN KSTC 131020Z AUTO 16010KT 10SM OVC090 M07/M12 A2984 1110 65 -1200 160/10 RMK AO2 T10671122
14926KSTC STC20191113042511511/13/19 04:25:31  5-MIN KSTC 131025Z AUTO 16008KT 10SM OVC090 M07/M12 A2984 1100 65 -1200 160/08 RMK AO2 T10671122
14926KSTC STC20191113043011511/13/19 04:30:31  5-MIN KSTC 131030Z AUTO 16009KT 10SM BKN090 M07/M12 A2985 1100 65 -1200 160/09 RMK AO2 T10671122
14926KSTC STC20191113043511511/13/19 04:35:31  5-MIN KSTC 131035Z AUTO 16008KT 10SM BKN090 M07/M12 A2985 1100 65 -1200 160/08 RMK AO2 T10671122
14926KSTC STC20191113044011511/13/19 04:40:31  5-MIN KSTC 131040Z AUTO 17008KT 10SM SCT090 M07/M12 A2985 1100 65 -1200 160/08 RMK AO2 T10671122
14926KSTC STC20191113044511511/13/19 04:45:31  5-MIN KSTC 131045Z AUTO 18008KT 10SM FEW090 M07/M12 A2985 1100 65 -1200 180/08 RMK AO2 T10671122
14926KSTC STC20191113045012211/13/19 04:50:31  5-MIN KSTC 131050Z AUTO 17007KT 10SM FEW090 M07/M12 A2985 1100 65 -1200 170/07 RMK AO2 SLP135 T10671122
14926KSTC STC20191113045511211/13/19 04:55:31  5-MIN KSTC 131055Z AUTO 17007KT 10SM CLR M07/M12 A2985 1100 65 -1200 170/07 RMK AO2 T10671122
14926KSTC STC20191113050011211/13/19 05:00:31  5-MIN KSTC 131100Z AUTO 18009KT 10SM CLR M07/M12 A2985 1100 65 -1200 170/09 RMK AO2 T10671122
14926KSTC STC20191113050511211/13/19 05:05:31  5-MIN KSTC 131105Z AUTO 17007KT 10SM CLR M07/M12 A2985 1100 65 -1200 170/07 RMK AO2 T10671122
14926KSTC STC20191113051011511/13/19 05:10:31  5-MIN KSTC 131110Z AUTO 16006KT 10SM SCT085 M07/M12 A2985 1100 65 -1200 160/06 RMK AO2 T10671122
14926KSTC STC20191113051511511/13/19 05:15:31  5-MIN KSTC 131115Z AUTO 17008KT 10SM SCT080 M07/M12 A2985 1100 68 -1200 170/08 RMK AO2 T10671117
14926KSTC STC20191113052011511/13/19 05:20:31  5-MIN KSTC 131120Z AUTO 16009KT 10SM SCT080 M07/M12 A2985 1100 68 -1200 160/09 RMK AO2 T10671117
14926KSTC STC20191113052511511/13/19 05:25:31  5-MIN KSTC 131125Z AUTO 16010KT 10SM BKN080 M07/M12 A2984 1100 68 -1200 160/10 RMK AO2 T10671117
14926KSTC STC20191113053011511/13/19 05:30:31  5-MIN KSTC 131130Z AUTO 17008KT 10SM BKN075 M07/M12 A2984 1110 68 -1200 160/08 RMK AO2 T10671117
14926KSTC STC20191113053511511/13/19 05:35:31  5-MIN KSTC 131135Z AUTO 16008KT 10SM OVC075 M07/M12 A2984 1110 68 -1200 160/08 RMK AO2 T10671117
14926KSTC STC20191113054011511/13/19 05:40:31  5-MIN KSTC 131140Z AUTO 17008KT 10SM BKN075 M07/M12 A2984 1110 68 -1200 170/08 RMK AO2 T10671117
14926KSTC STC20191113054511511/13/19 05:45:31  5-MIN KSTC 131145Z AUTO 15007KT 10SM SCT075 M07/M12 A2984 1110 68 -1200 150/07 RMK AO2 T10671117
14926KSTC STC20191113055014011/13/19 05:50:31  5-MIN KSTC 131150Z AUTO 16008KT 10SM SCT075 M07/M12 A2984 1110 68 -1200 160/08 RMK AO2 SLP132 T10671117 11067 21089 56022
14926KSTC STC20191113055511511/13/19 05:55:31  5-MIN KSTC 131155Z AUTO 16007KT 10SM SCT070 M07/M12 A2984 1110 68 -1200 160/07 RMK AO2 T10671117
14926KSTC STC20191113060011511/13/19 06:00:31  5-MIN KSTC 131200Z AUTO 15007KT 10SM FEW070 M07/M12 A2984 1110 68 -1200 150/07 RMK AO2 T10671117
14926KSTC STC20191113060511211/13/19 06:05:31  5-MIN KSTC 131205Z AUTO 17006KT 10SM CLR M07/M12 A2984 1110 68 -1200 160/06 RMK AO2 T10671117
14926KSTC STC20191113061011211/13/19 06:10:31  5-MIN KSTC 131210Z AUTO 16005KT 10SM CLR M07/M12 A2984 1110 68 -1200 160/05 RMK AO2 T10671117
14926KSTC STC20191113061511211/13/19 06:15:31  5-MIN KSTC 131215Z AUTO 16005KT 10SM CLR M07/M12 A2984 1110 68 -1200 160/05 RMK AO2 T10671117
14926KSTC STC20191113062011511/13/19 06:20:31  5-MIN KSTC 131220Z AUTO 15005KT 10SM FEW060 M07/M12 A2984 1100 68 -1200 150/05 RMK AO2 T10671117
14926KSTC STC20191113062512211/13/19 06:25:31  5-MIN KSTC 131225Z AUTO 17005KT 10SM FEW050 SCT060 M07/M12 A2985 1100 68 -1200 160/05 RMK AO2 T10671117
14926KSTC STC20191113063012211/13/19 06:30:31  5-MIN KSTC 131230Z AUTO 16004KT 10SM SCT049 BKN060 M07/M12 A2985 1100 68 -1200 160/04 RMK AO2 T10671117
14926KSTC STC20191113063512211/13/19 06:35:31  5-MIN KSTC 131235Z AUTO 17005KT 10SM SCT046 BKN060 M07/M12 A2985 1100 68 -1200 170/05 RMK AO2 T10671117
14926KSTC STC20191113064012211/13/19 06:40:31  5-MIN KSTC 131240Z AUTO 16005KT 10SM BKN044 BKN055 M07/M12 A2985 1100 68 -1200 160/05 RMK AO2 T10671117
14926KSTC STC20191113064511711/13/19 06:45:31  5-MIN KSTC 131245Z 15004KT 10SM BKN044 OVC055 M07/M12 A2985 1100 68 -1200 150/04 RMK AO2 T10671117
14926KSTC STC20191113065012411/13/19 06:50:31  5-MIN KSTC 131250Z 15005KT 10SM BKN042 OVC055 M07/M12 A2985 1100 68 -1200 150/05 RMK AO2 SLP135 T10671117
14926KSTC STC20191113065511011/13/19 06:55:31  5-MIN KSTC 131255Z 16006KT 10SM OVC042 M07/M11 A2985 1100 71 -1200 160/06 RMK AO2 T10671111
14926KSTC STC20191113070011011/13/19 07:00:31  5-MIN KSTC 131300Z 16005KT 10SM OVC042 M06/M12 A2985 1100 65 -1200 160/05 RMK AO2 T10611117
14926KSTC STC20191113070511011/13/19 07:05:31  5-MIN KSTC 131305Z 17006KT 10SM OVC040 M06/M11 A2985 1100 68 -1200 170/06 RMK AO2 T10611111
14926KSTC STC20191113071011011/13/19 07:10:31  5-MIN KSTC 131310Z 16007KT 10SM OVC040 M06/M11 A2985 1100 68 -1100 150/07 RMK AO2 T10611111
14926KSTC STC20191113071511011/13/19 07:15:31  5-MIN KSTC 131315Z 15006KT 10SM OVC042 M06/M11 A2985 1100 68 -1100 150/06 RMK AO2 T10611111
14926KSTC STC20191113072011011/13/19 07:20:31  5-MIN KSTC 131320Z 16005KT 10SM OVC042 M06/M11 A2985 1100 68 -1100 160/05 RMK AO2 T10611111
14926KSTC STC20191113072511011/13/19 07:25:31  5-MIN KSTC 131325Z 15006KT 10SM OVC042 M06/M11 A2985 1100 68 -1200 150/06 RMK AO2 T10611111
14926KSTC STC20191113073011011/13/19 07:30:31  5-MIN KSTC 131330Z 16005KT 10SM OVC042 M06/M11 A2985 1090 71 -1200 160/05 RMK AO2 T10611106
14926KSTC STC20191113073511711/13/19 07:35:31  5-MIN KSTC 131335Z 17004KT 10SM BKN042 OVC060 M06/M11 A2986 1090 68 -1200 170/04 RMK AO2 T10611111
14926KSTC STC20191113074011711/13/19 07:40:31  5-MIN KSTC 131340Z 17006KT 10SM BKN044 OVC060 M06/M11 A2986 1090 68 -1200 160/06 RMK AO2 T10611111
14926KSTC STC20191113074511711/13/19 07:45:31  5-MIN KSTC 131345Z 17004KT 10SM SCT044 OVC055 M06/M11 A2986 1090 68 -1200 170/04 RMK AO2 T10611111
14926KSTC STC20191113075012411/13/19 07:50:31  5-MIN KSTC 131350Z 17004KT 10SM SCT040 OVC055 M06/M11 A2987 1080 71 -1200 170/04 RMK AO2 SLP140 T10611106
14926KSTC STC20191113075511711/13/19 07:55:31  5-MIN KSTC 131355Z 17005KT 10SM BKN038 OVC055 M06/M11 A2987 1080 71 -1200 170/05 RMK AO2 T10611106
14926KSTC STC20191113080011711/13/19 08:00:31  5-MIN KSTC 131400Z 18004KT 10SM BKN040 OVC055 M06/M11 A2987 1080 71 -1200 170/04 RMK AO2 T10611106
14926KSTC STC20191113080511611/13/19 08:05:31  5-MIN KSTC 131405Z 17005KT 8SM BKN038 OVC055 M06/M11 A2987 1080 71 -1200 170/05 RMK AO2 T10611106
14926KSTC STC20191113081011211/13/19 08:10:31  5-MIN KSTC 131410Z 16005KT 6SM HZ OVC036 M06/M10 A2987 1080 74 -1200 160/05 RMK AO2 T10611100
14926KSTC STC20191113081512511/13/19 08:15:31  5-MIN KSTC 131415Z 18005KT 4SM -SN OVC034 M06/M10 A2988 1070 74 -1200 170/05 RMK AO2 SNB12 P0000 T10611100
14926KSTC STC20191113082013211/13/19 08:20:31  5-MIN KSTC 131420Z 19005KT 3SM -SN BKN031 OVC038 M06/M10 A2988 1070 74 -1200 190/05 RMK AO2 SNB12 P0000 T10611100
14926KSTC STC20191113082512911/13/19 08:25:31  5-MIN KSTC 131425Z 18006KT 2 1/2SM -SN OVC031 M06/M10 A2988 1070 74 -1200 180/06 RMK AO2 SNB12 P0000 T10611100
14926KSTC STC20191113083012911/13/19 08:30:31  5-MIN KSTC 131430Z 18006KT 2 1/2SM -SN OVC029 M07/M10 A2988 1070 77 -1300 180/06 RMK AO2 SNB12 P0000 T10671100
14926KSTC STC20191113083512511/13/19 08:35:31  5-MIN KSTC 131435Z 17005KT 2SM -SN OVC027 M07/M09 A2988 1070 81 -1300 170/05 RMK AO2 SNB12 P0000 T10671094
14926KSTC STC20191113084012911/13/19 08:40:31  5-MIN KSTC 131440Z 16006KT 1 3/4SM -SN OVC027 M07/M09 A2988 1070 81 -1300 160/06 RMK AO2 SNB12 P0000 T10671094
14926KSTC STC20191113084512511/13/19 08:45:31  5-MIN KSTC 131445Z 17005KT 2SM -SN OVC025 M07/M09 A2988 1070 81 -1300 170/05 RMK AO2 SNB12 P0001 T10671094
14926KSTC STC20191113085012211/13/19 08:50:31  5-MIN KSTC 131450Z 16004KT 1 1/2SM -SN BR OVC025 M07/M09 A2988 1070 84 -1300 160/04 RMK AO2 SNB12 P0001
14926KSTC STC20191113085512611/13/19 08:55:31  5-MIN KSTC 131455Z 16005KT 1 1/4SM -SN BR OVC025 M07/M09 A2988 1070 84 -1300 160/05 RMK AO2 P0000 T10671089
14926KSTC STC20191113090012611/13/19 09:00:31  5-MIN KSTC 131500Z 18005KT 1 1/4SM -SN BR OVC024 M07/M09 A2988 1070 84 -1300 180/05 RMK AO2 P0000 T10671089
14926KSTC STC20191113090512611/13/19 09:05:31  5-MIN KSTC 131505Z 14004KT 1 1/4SM -SN BR OVC024 M07/M09 A2988 1070 84 -1300 140/04 RMK AO2 P0000 T10671089
14926KSTC STC20191113091012211/13/19 09:10:31  5-MIN KSTC 131510Z 14005KT 1SM -SN BR OVC024 M07/M09 A2988 1070 84 -1300 140/05 RMK AO2 P0000 T10671089
14926KSTC STC20191113091512211/13/19 09:15:31  5-MIN KSTC 131515Z 15004KT 1SM -SN BR OVC023 M07/M09 A2988 1070 84 -1300 150/04 RMK AO2 P0000 T10671089
14926KSTC STC20191113092012211/13/19 09:20:31  5-MIN KSTC 131520Z 15004KT 1SM -SN BR OVC023 M07/M08 A2988 1070 88 -1300 150/04 RMK AO2 P0000 T10671083
14926KSTC STC20191113092512211/13/19 09:25:31  5-MIN KSTC 131525Z 14004KT 1SM -SN BR OVC023 M07/M08 A2988 1070 88 -1300 140/04 RMK AO2 P0000 T10671083
14926KSTC STC20191113093012611/13/19 09:30:31  5-MIN KSTC 131530Z 15004KT 1 1/4SM -SN BR OVC023 M07/M08 A2989 1070 88 -1300 150/04 RMK AO2 P0001 T10671083
14926KSTC STC20191113093512611/13/19 09:35:31  5-MIN KSTC 131535Z 14004KT 1 1/4SM -SN BR OVC025 M06/M08 A2988 1070 84 -1200 140/04 RMK AO2 P0001 T10611083
14926KSTC STC20191113094012611/13/19 09:40:31  5-MIN KSTC 131540Z 14004KT 1 1/4SM -SN BR OVC025 M06/M08 A2989 1070 84 -1200 140/04 RMK AO2 P0001 T10611083
14926KSTC STC20191113094512611/13/19 09:45:31  5-MIN KSTC 131545Z 14005KT 1 1/4SM -SN BR OVC025 M06/M08 A2988 1070 84 -1200 140/05 RMK AO2 P0001 T10611083
14926KSTC STC20191113095012911/13/19 09:50:31  5-MIN KSTC 131550Z 14005KT 1SM -SN BR OVC023 M06/M08 A2989 1070 84 -1200 140/05 RMK AO2 SLP146 P0001 T10611083
14926KSTC STC20191113095512411/13/19 09:55:31  5-MIN KSTC 131555Z 14005KT 3/4SM -SN BR OVC023 M06/M08 A2989 1060 84 -1200 140/05 RMK AO2 P0000 T10611083
14926KSTC STC20191113100012411/13/19 10:00:31  5-MIN KSTC 131600Z 15004KT 3/4SM -SN BR OVC023 M06/M08 A2989 1060 88 -1200 140/04 RMK AO2 P0000 T10611078
14926KSTC STC20191113100512411/13/19 10:05:31  5-MIN KSTC 131605Z 14004KT 3/4SM -SN BR OVC023 M06/M08 A2989 1060 84 -1200 140/04 RMK AO2 P0001 T10611083
14926KSTC STC20191113101013311/13/19 10:10:31  5-MIN KSTC 131610Z 15003KT 1 1/4SM -SN BR FEW010 OVC023 M06/M08 A2989 1060 84 -1200 150/03 RMK AO2 P0001 T10611083
14926KSTC STC20191113101513311/13/19 10:15:31  5-MIN KSTC 131615Z 15004KT 1 1/2SM -SN BR FEW010 OVC021 M06/M08 A2989 1060 88 -1200 150/04 RMK AO2 P0001 T10611078
14926KSTC STC20191113102014011/13/19 10:20:31  5-MIN KSTC 131620Z 14004KT 1 1/2SM -SN BR FEW010 BKN021 OVC040 M06/M08 A2990 1060 88 -1200 140/04 RMK AO2 P0001 T10611078
14926KSTC STC20191113102514011/13/19 10:25:31  5-MIN KSTC 131625Z 14003KT 2 1/2SM -SN BR FEW009 BKN021 OVC038 M06/M08 A2990 1050 88 -1200 130/03 RMK AO2 P0001 T10611078
14926KSTC STC20191113103013611/13/19 10:30:31  5-MIN KSTC 131630Z 13003KT 5SM -SN BR SCT009 BKN021 OVC038 M06/M08 A2990 1050 84 -1200 120/03 RMK AO2 P0001 T10611083
14926KSTC STC20191113103513511/13/19 10:35:31  5-MIN KSTC 131635Z 13003KT 8SM SCT009 BKN019 OVC038 M06/M08 A2990 1050 81 -1100 120/03 RMK AO2 SNE32 P0001 T10561083
14926KSTC STC20191113104013611/13/19 10:40:31  5-MIN KSTC 131640Z 13003KT 10SM SCT010 BKN015 OVC038 M06/M08 A2990 1050 81 -1100 130/03 RMK AO2 SNE32 P0001 T10561083
14926KSTC STC20191113104513611/13/19 10:45:31  5-MIN KSTC 131645Z 00000KT 10SM BKN010 BKN037 OVC090 M06/M08 A2990 1050 81 -1100 000/00 RMK AO2 SNE32 P0001 T10561083
14926KSTC STC20191113105014311/13/19 10:50:31  5-MIN KSTC 131650Z 00000KT 10SM SCT010 BKN037 BKN090 M06/M08 A2990 1050 81 -1100 000/00 RMK AO2 SNE32 SLP151 P0001 T10561083
14926KSTC STC20191113105512411/13/19 10:55:31  5-MIN KSTC 131655Z 14003KT 10SM BKN010 BKN037 BKN090 M06/M08 A2990 1050 81 -1100 140/03 RMK AO2 T10561083
14926KSTC STC20191113110012411/13/19 11:00:31  5-MIN KSTC 131700Z 00000KT 10SM BKN010 BKN037 BKN090 M06/M08 A2990 1050 84 -1100 000/00 RMK AO2 T10561078
14926KSTC STC20191113110512411/13/19 11:05:31  5-MIN KSTC 131705Z 00000KT 10SM BKN010 BKN055 BKN090 M06/M08 A2990 1050 84 -1100 000/00 RMK AO2 T10561078
14926KSTC STC20191113111011711/13/19 11:10:31  5-MIN KSTC 131710Z 00000KT 10SM BKN010 BKN090 M06/M08 A2991 1050 84 -1100 000/00 RMK AO2 T10561078
14926KSTC STC20191113111511011/13/19 11:15:31  5-MIN KSTC 131715Z 00000KT 10SM BKN012 M06/M08 A2991 1050 84 -1100 000/00 RMK AO2 T10561078
14926KSTC STC20191113112011711/13/19 11:20:31  5-MIN KSTC 131720Z 00000KT 10SM BKN012 BKN090 M05/M08 A2991 1050 81 -1100 000/00 RMK AO2 T10501078
14926KSTC STC20191113112511011/13/19 11:25:31  5-MIN KSTC 131725Z 19003KT 10SM BKN012 M06/M08 A2991 1050 84 -1100 190/03 RMK AO2 T10561078
14926KSTC STC20191113113011011/13/19 11:30:31  5-MIN KSTC 131730Z 00000KT 10SM BKN014 M05/M08 A2991 1050 81 -1100 000/00 RMK AO2 T10501078
14926KSTC STC20191113113511011/13/19 11:35:31  5-MIN KSTC 131735Z 00000KT 10SM OVC014 M05/M08 A2991 1050 81 -1100 000/00 RMK AO2 T10501078
14926KSTC STC20191113114011011/13/19 11:40:31  5-MIN KSTC 131740Z 00000KT 10SM OVC014 M05/M08 A2991 1040 81 -1100 000/00 RMK AO2 T10501078
14926KSTC STC20191113114511011/13/19 11:45:31  5-MIN KSTC 131745Z 23003KT 10SM OVC014 M05/M08 A2991 1040 81 -1100 230/03 RMK AO2 T10501078
14926KSTC STC20191113115014111/13/19 11:50:31  5-MIN KSTC 131750Z 22003KT 10SM OVC014 M05/M08 A2991 1050 81 -1100 220/03 RMK AO2 SLP154 60003 T10501078 11050 21067 52012
14926KSTC STC20191113115511011/13/19 11:55:31  5-MIN KSTC 131755Z 23004KT 10SM BKN014 M05/M08 A2991 1050 81 -1100 230/04 RMK AO2 T10501078
14926KSTC STC20191113120011711/13/19 12:00:31  5-MIN KSTC 131800Z 24004KT 10SM BKN014 BKN090 M05/M08 A2990 1050 81 -1100 230/04 RMK AO2 T10501078
14926KSTC STC20191113120511711/13/19 12:05:31  5-MIN KSTC 131805Z 26003KT 10SM BKN014 BKN085 M04/M08 A2990 1050 78 -1000 260/03 RMK AO2 T10441078
14926KSTC STC20191113121012411/13/19 12:10:31  5-MIN KSTC 131810Z 00000KT 10SM SCT016 BKN060 BKN090 M05/M08 A2990 1050 81 -1100 000/00 RMK AO2 T10501078
14926KSTC STC20191113121512411/13/19 12:15:31  5-MIN KSTC 131815Z 00000KT 10SM BKN016 BKN055 BKN090 M04/M08 A2990 1050 78 -1000 000/00 RMK AO2 T10441078
14926KSTC STC20191113122012411/13/19 12:20:31  5-MIN KSTC 131820Z 29003KT 10SM BKN016 BKN060 BKN090 M04/M08 A2990 1050 78 -1000 290/03 RMK AO2 T10441078
14926KSTC STC20191113122512411/13/19 12:25:31  5-MIN KSTC 131825Z 00000KT 10SM BKN016 BKN060 BKN085 M04/M08 A2990 1050 78 -1000 000/00 RMK AO2 T10441078
14926KSTC STC20191113123011711/13/19 12:30:31  5-MIN KSTC 131830Z 29005KT 10SM BKN016 BKN060 M04/M08 A2990 1050 78 -1000 290/05 RMK AO2 T10441078
14926KSTC STC20191113123510911/13/19 12:35:31  5-MIN KSTC 131835Z 31005KT 10SM BKN016 M04/M08 A2990 1050 74 -900 310/05 RMK AO2 T10391078
14926KSTC STC20191113124011611/13/19 12:40:31  5-MIN KSTC 131840Z 29005KT 10SM BKN016 OVC046 M04/M08 A2990 1050 74 -900 290/05 RMK AO2 T10391078
14926KSTC STC20191113124511611/13/19 12:45:31  5-MIN KSTC 131845Z 00000KT 10SM BKN015 OVC046 M04/M08 A2990 1050 74 -900 000/00 RMK AO2 T10391078
14926KSTC STC20191113125012311/13/19 12:50:31  5-MIN KSTC 131850Z 31004KT 10SM BKN015 OVC046 M04/M07 A2990 1060 78 -900 310/04 RMK AO2 SLP149 T10391072
14926KSTC STC20191113125511611/13/19 12:55:31  5-MIN KSTC 131855Z 28003KT 10SM BKN015 OVC046 M04/M08 A2989 1060 74 -900 280/03 RMK AO2 T10391078
14926KSTC STC20191113130011611/13/19 13:00:31  5-MIN KSTC 131900Z 31005KT 10SM BKN015 OVC046 M04/M07 A2989 1060 78 -900 310/05 RMK AO2 T10391072
14926KSTC STC20191113130512311/13/19 13:05:31  5-MIN KSTC 131905Z 32004KT 10SM SCT015 SCT029 OVC044 M04/M08 A2989 1060 74 -900 320/04 RMK AO2 T10391078
14926KSTC STC20191113131012311/13/19 13:10:31  5-MIN KSTC 131910Z 31005KT 10SM SCT015 BKN027 OVC044 M04/M07 A2989 1060 78 -900 310/05 RMK AO2 T10391072
14926KSTC STC20191113131512311/13/19 13:15:31  5-MIN KSTC 131915Z 29004KT 10SM SCT015 BKN027 OVC044 M04/M07 A2989 1060 78 -900 290/04 RMK AO2 T10391072
14926KSTC STC20191113132012311/13/19 13:20:31  5-MIN KSTC 131920Z 31005KT 10SM FEW015 BKN027 OVC044 M03/M07 A2989 1060 74 -800 310/05 RMK AO2 T10331072
14926KSTC STC20191113132511611/13/19 13:25:31  5-MIN KSTC 131925Z 31005KT 10SM BKN027 OVC044 M03/M07 A2989 1060 74 -800 310/05 RMK AO2 T10331072
14926KSTC STC20191113133011611/13/19 13:30:31  5-MIN KSTC 131930Z 29006KT 10SM FEW016 OVC027 M04/M07 A2990 1060 78 -900 290/06 RMK AO2 T10391072
14926KSTC STC20191113133511611/13/19 13:35:31  5-MIN KSTC 131935Z 31006KT 10SM SCT016 OVC027 M03/M07 A2990 1050 74 -900 310/06 RMK AO2 T10331072
14926KSTC STC20191113134011611/13/19 13:40:31  5-MIN KSTC 131940Z 31005KT 10SM SCT016 OVC027 M03/M07 A2990 1050 74 -900 310/05 RMK AO2 T10331072
14926KSTC STC20191113134511611/13/19 13:45:31  5-MIN KSTC 131945Z 32005KT 10SM SCT016 OVC026 M03/M07 A2990 1050 74 -900 320/05 RMK AO2 T10331072
14926KSTC STC20191113135012311/13/19 13:50:31  5-MIN KSTC 131950Z 30005KT 10SM BKN016 OVC026 M03/M07 A2991 1050 78 -900 300/05 RMK AO2 SLP152 T10331067
14926KSTC STC20191113135511611/13/19 13:55:31  5-MIN KSTC 131955Z 31006KT 10SM BKN016 OVC026 M03/M07 A2991 1050 74 -900 310/06 RMK AO2 T10331072
14926KSTC STC20191113140011611/13/19 14:00:31  5-MIN KSTC 132000Z 30004KT 10SM BKN016 OVC026 M03/M07 A2991 1050 74 -900 300/04 RMK AO2 T10331072
14926KSTC STC20191113140511611/13/19 14:05:31  5-MIN KSTC 132005Z 31009KT 10SM BKN018 OVC026 M03/M07 A2991 1040 74 -900 310/09 RMK AO2 T10331072
14926KSTC STC20191113141010911/13/19 14:10:31  5-MIN KSTC 132010Z 32005KT 10SM OVC018 M03/M07 A2991 1040 74 -900 320/05 RMK AO2 T10331072
14926KSTC STC20191113141511611/13/19 14:15:31  5-MIN KSTC 132015Z 32005KT 10SM BKN018 OVC027 M03/M07 A2992 1040 74 -900 320/05 RMK AO2 T10331072
14926KSTC STC20191113142011611/13/19 14:20:31  5-MIN KSTC 132020Z 32007KT 10SM BKN018 OVC027 M03/M07 A2992 1040 74 -900 320/07 RMK AO2 T10331072
14926KSTC STC20191113142511611/13/19 14:25:31  5-MIN KSTC 132025Z 33007KT 10SM BKN020 OVC026 M03/M07 A2992 1040 71 -800 330/07 RMK AO2 T10281072
14926KSTC STC20191113143011611/13/19 14:30:31  5-MIN KSTC 132030Z 32007KT 10SM BKN020 OVC026 M03/M07 A2992 1040 71 -800 320/07 RMK AO2 T10281072
14926KSTC STC20191113143511611/13/19 14:35:31  5-MIN KSTC 132035Z 33006KT 10SM BKN020 OVC026 M03/M07 A2992 1040 71 -800 330/06 RMK AO2 T10281072
14926KSTC STC20191113144011611/13/19 14:40:31  5-MIN KSTC 132040Z 33006KT 10SM BKN020 OVC026 M03/M07 A2992 1030 71 -800 320/06 RMK AO2 T10281072
14926KSTC STC20191113144511611/13/19 14:45:31  5-MIN KSTC 132045Z 33007KT 10SM BKN020 OVC026 M03/M07 A2992 1030 71 -800 330/07 RMK AO2 T10281072
14926KSTC STC20191113145012211/13/19 14:50:31  5-MIN KSTC 132050Z 33006KT 10SM OVC020 M03/M07 A2992 1030 74 -900 330/06 RMK AO2 SLP157 T10331072 51007
14926KSTC STC20191113145510911/13/19 14:55:31  5-MIN KSTC 132055Z 32005KT 10SM OVC020 M03/M07 A2992 1030 71 -800 320/05 RMK AO2 T10281072
14926KSTC STC20191113150010911/13/19 15:00:31  5-MIN KSTC 132100Z 31007KT 10SM OVC020 M03/M07 A2992 1030 71 -800 310/07 RMK AO2 T10281072
14926KSTC STC20191113150510911/13/19 15:05:31  5-MIN KSTC 132105Z 32007KT 10SM OVC020 M03/M07 A2992 1030 71 -800 320/07 RMK AO2 T10281072
14926KSTC STC20191113151010911/13/19 15:10:31  5-MIN KSTC 132110Z 32005KT 10SM OVC020 M03/M07 A2993 1030 71 -800 320/05 RMK AO2 T10281072
14926KSTC STC20191113151510911/13/19 15:15:31  5-MIN KSTC 132115Z 33005KT 10SM OVC020 M03/M07 A2993 1030 71 -800 330/05 RMK AO2 T10281072
14926KSTC STC20191113152010911/13/19 15:20:31  5-MIN KSTC 132120Z 34005KT 10SM OVC020 M03/M07 A2993 1030 71 -800 340/05 RMK AO2 T10281072
14926KSTC STC20191114012511411/14/19 01:25:31  5-MIN KSTC 140725Z AUTO 33008KT 10SM OVC022 M07/M11 A3013 840 71 -1600 330/08 RMK AO2 T10671111
14926KSTC STC20191114013011411/14/19 01:30:31  5-MIN KSTC 140730Z AUTO 33008KT 10SM OVC022 M07/M12 A3014 830 68 -1600 330/08 RMK AO2 T10671117
14926KSTC STC20191114013511411/14/19 01:35:31  5-MIN KSTC 140735Z AUTO 32008KT 10SM OVC023 M07/M12 A3014 830 68 -1600 320/08 RMK AO2 T10671117
14926KSTC STC20191114014011411/14/19 01:40:31  5-MIN KSTC 140740Z AUTO 32008KT 10SM OVC023 M07/M12 A3014 830 68 -1600 320/08 RMK AO2 T10671117
14926KSTC STC20191114014511411/14/19 01:45:31  5-MIN KSTC 140745Z AUTO 34009KT 10SM OVC023 M07/M12 A3014 830 68 -1600 340/09 RMK AO2 T10671117
14926KSTC STC20191114015012111/14/19 01:50:31  5-MIN KSTC 140750Z AUTO 33009KT 10SM OVC023 M07/M12 A3014 830 65 -1600 330/09 RMK AO2 SLP232 T10671122
14926KSTC STC20191114015511411/14/19 01:55:31  5-MIN KSTC 140755Z AUTO 32008KT 10SM OVC024 M07/M13 A3014 830 65 -1600 320/08 RMK AO2 T10721128
14926KSTC STC20191114020011411/14/19 02:00:31  5-MIN KSTC 140800Z AUTO 33007KT 10SM OVC024 M07/M13 A3015 830 65 -1600 330/07 RMK AO2 T10721128
14926KSTC STC20191114020511411/14/19 02:05:31  5-MIN KSTC 140805Z AUTO 33005KT 10SM OVC024 M07/M13 A3015 820 65 -1600 330/05 RMK AO2 T10721128
14926KSTC STC20191114021011411/14/19 02:10:31  5-MIN KSTC 140810Z AUTO 32007KT 10SM OVC025 M07/M13 A3015 820 65 -1600 320/07 RMK AO2 T10721128
14926KSTC STC20191114021511411/14/19 02:15:31  5-MIN KSTC 140815Z AUTO 33008KT 10SM OVC025 M07/M13 A3015 820 65 -1600 330/08 RMK AO2 T10721128
14926KSTC STC20191114022011411/14/19 02:20:31  5-MIN KSTC 140820Z AUTO 33006KT 10SM OVC025 M07/M13 A3015 820 65 -1600 330/06 RMK AO2 T10721128
14926KSTC STC20191114022511411/14/19 02:25:31  5-MIN KSTC 140825Z AUTO 34004KT 10SM OVC026 M07/M13 A3015 820 65 -1600 340/04 RMK AO2 T10721128
14926KSTC STC20191114023011411/14/19 02:30:31  5-MIN KSTC 140830Z AUTO 34003KT 10SM OVC026 M07/M13 A3015 820 65 -1600 340/03 RMK AO2 T10721128
14926KSTC STC20191114023511411/14/19 02:35:31  5-MIN KSTC 140835Z AUTO 33004KT 10SM OVC026 M07/M12 A3015 820 68 -1600 330/04 RMK AO2 T10721122
14926KSTC STC20191114024011411/14/19 02:40:31  5-MIN KSTC 140840Z AUTO 34003KT 10SM OVC025 M07/M12 A3016 820 68 -1600 340/03 RMK AO2 T10721122
14926KSTC STC20191114024511411/14/19 02:45:31  5-MIN KSTC 140845Z AUTO 33005KT 10SM OVC025 M07/M12 A3016 810 68 -1700 330/05 RMK AO2 T10721122
14926KSTC STC20191114025012711/14/19 02:50:31  5-MIN KSTC 140850Z AUTO 31008KT 10SM OVC025 M07/M12 A3016 810 68 -1700 310/08 RMK AO2 SLP238 T10721122 52020
14926KSTC STC20191114025511411/14/19 02:55:31  5-MIN KSTC 140855Z AUTO 32008KT 10SM OVC024 M07/M12 A3016 810 68 -1700 320/08 RMK AO2 T10721122
14926KSTC STC20191114030011411/14/19 03:00:31  5-MIN KSTC 140900Z AUTO 34007KT 10SM OVC024 M07/M12 A3016 810 68 -1700 340/07 RMK AO2 T10721122
14926KSTC STC20191114030511411/14/19 03:05:31  5-MIN KSTC 140905Z AUTO 34006KT 10SM OVC024 M07/M12 A3017 810 68 -1700 340/06 RMK AO2 T10721122
14926KSTC STC20191114031011411/14/19 03:10:31  5-MIN KSTC 140910Z AUTO 34007KT 10SM OVC024 M07/M12 A3017 810 68 -1700 330/07 RMK AO2 T10721122
14926KSTC STC20191114031511411/14/19 03:15:31  5-MIN KSTC 140915Z AUTO 33006KT 10SM OVC024 M07/M12 A3017 800 68 -1700 330/06 RMK AO2 T10721122
14926KSTC STC20191114032011411/14/19 03:20:31  5-MIN KSTC 140920Z AUTO 32004KT 10SM OVC024 M07/M12 A3017 800 68 -1700 320/04 RMK AO2 T10721122
14926KSTC STC20191114032511411/14/19 03:25:31  5-MIN KSTC 140925Z AUTO 30005KT 10SM OVC024 M07/M12 A3017 800 71 -1700 300/05 RMK AO2 T10721117
14926KSTC STC20191114033011411/14/19 03:30:31  5-MIN KSTC 140930Z AUTO 33007KT 10SM OVC023 M07/M12 A3017 800 71 -1700 320/07 RMK AO2 T10721117
14926KSTC STC20191114033511411/14/19 03:35:31  5-MIN KSTC 140935Z AUTO 32007KT 10SM OVC023 M07/M12 A3017 810 68 -1700 320/07 RMK AO2 T10721122
14926KSTC STC20191114034011411/14/19 03:40:31  5-MIN KSTC 140940Z AUTO 33006KT 10SM OVC023 M07/M12 A3017 810 68 -1700 330/06 RMK AO2 T10721122
14926KSTC STC20191114034511411/14/19 03:45:31  5-MIN KSTC 140945Z AUTO 31006KT 10SM OVC023 M07/M12 A3017 800 68 -1700 310/06 RMK AO2 T10721122
14926KSTC STC20191114035012111/14/19 03:50:31  5-MIN KSTC 140950Z AUTO 29011KT 10SM OVC023 M07/M12 A3017 800 71 -1700 290/11 RMK AO2 SLP242 T10721117
14926KSTC STC20191114035511411/14/19 03:55:31  5-MIN KSTC 140955Z AUTO 30010KT 10SM OVC022 M07/M12 A3017 800 68 -1700 300/10 RMK AO2 T10721122
14926KSTC STC20191114040011411/14/19 04:00:31  5-MIN KSTC 141000Z AUTO 29008KT 10SM OVC022 M07/M12 A3017 800 68 -1700 290/08 RMK AO2 T10721122
14926KSTC STC20191114040511411/14/19 04:05:31  5-MIN KSTC 141005Z AUTO 31008KT 10SM OVC022 M08/M12 A3017 800 71 -1700 310/08 RMK AO2 T10781122
14926KSTC STC20191114041011411/14/19 04:10:31  5-MIN KSTC 141010Z AUTO 30008KT 10SM OVC022 M08/M12 A3017 800 71 -1700 300/08 RMK AO2 T10781122
14926KSTC STC20191114041511411/14/19 04:15:31  5-MIN KSTC 141015Z AUTO 29009KT 10SM OVC022 M08/M12 A3018 800 71 -1700 290/09 RMK AO2 T10781122
14926KSTC STC20191114042011411/14/19 04:20:31  5-MIN KSTC 141020Z AUTO 30009KT 10SM OVC022 M08/M12 A3018 800 71 -1700 300/09 RMK AO2 T10781122
14926KSTC STC20191114042511411/14/19 04:25:31  5-MIN KSTC 141025Z AUTO 32009KT 10SM OVC022 M08/M12 A3018 790 71 -1700 320/09 RMK AO2 T10781122
14926KSTC STC20191114043011411/14/19 04:30:31  5-MIN KSTC 141030Z AUTO 31007KT 10SM OVC022 M08/M12 A3018 790 71 -1800 310/07 RMK AO2 T10781122
14926KSTC STC20191114043511411/14/19 04:35:31  5-MIN KSTC 141035Z AUTO 30008KT 10SM OVC022 M08/M12 A3018 790 71 -1800 300/08 RMK AO2 T10781122
14926KSTC STC20191114044011411/14/19 04:40:31  5-MIN KSTC 141040Z AUTO 29008KT 10SM OVC022 M08/M12 A3018 790 71 -1700 290/08 RMK AO2 T10781122
14926KSTC STC20191114044511411/14/19 04:45:31  5-MIN KSTC 141045Z AUTO 30006KT 10SM OVC022 M08/M12 A3018 800 71 -1700 300/06 RMK AO2 T10781122
14926KSTC STC20191114045012111/14/19 04:50:31  5-MIN KSTC 141050Z AUTO 31006KT 10SM OVC022 M08/M12 A3018 790 71 -1700 310/06 RMK AO2 SLP246 T10781122
14926KSTC STC20191114045511411/14/19 04:55:31  5-MIN KSTC 141055Z AUTO 32007KT 10SM OVC021 M08/M12 A3018 790 74 -1800 310/07 RMK AO2 T10781117
14926KSTC STC20191114050011411/14/19 05:00:31  5-MIN KSTC 141100Z AUTO 32007KT 10SM OVC021 M08/M12 A3018 790 71 -1800 320/07 RMK AO2 T10781122
14926KSTC STC20191114050511411/14/19 05:05:31  5-MIN KSTC 141105Z AUTO 31007KT 10SM OVC020 M08/M12 A3018 790 71 -1800 310/07 RMK AO2 T10781122
14926KSTC STC20191114051011411/14/19 05:10:31  5-MIN KSTC 141110Z AUTO 31007KT 10SM OVC020 M08/M12 A3018 790 71 -1800 310/07 RMK AO2 T10781122
14926KSTC STC20191114051510411/14/19 05:15:31  5-MIN KSTC 141115Z AUTO 10SM OVC020 M08/M12 A3019 790 74 -1800 M /M RMK AO2 T10781117
14926KSTC STC20191114052010411/14/19 05:20:31  5-MIN KSTC 141120Z AUTO 10SM OVC020 M08/M12 A3019 790 74 -1800 M /M RMK AO2 T10781117
14926KSTC STC20191114052511411/14/19 05:25:31  5-MIN KSTC 141125Z AUTO 29009KT 10SM OVC020 M08/M12 A3018 790 71 -1800 290/09 RMK AO2 T10781122
14926KSTC STC20191114053011411/14/19 05:30:31  5-MIN KSTC 141130Z AUTO 29009KT 10SM OVC020 M08/M12 A3019 790 74 -1800 280/09 RMK AO2 T10831122
14926KSTC STC20191114053511411/14/19 05:35:31  5-MIN KSTC 141135Z AUTO 29009KT 10SM BKN020 M08/M13 A3019 790 70 -1800 290/09 RMK AO2 T10831128
14926KSTC STC20191114054011411/14/19 05:40:31  5-MIN KSTC 141140Z AUTO 29008KT 10SM BKN020 M09/M13 A3019 790 74 -1900 290/08 RMK AO2 T10891128
14926KSTC STC20191114054511411/14/19 05:45:31  5-MIN KSTC 141145Z AUTO 29007KT 10SM BKN020 M09/M13 A3019 790 74 -1900 290/07 RMK AO2 T10891128
14926KSTC STC20191114055010411/14/19 05:50:31  5-MIN KSTC 141150Z AUTO 29005KT 10SM SCT020 M09/M13 A3019 790 74 -1900 290/05 RMK AO2
14926KSTC STC20191114055511411/14/19 05:55:31  5-MIN KSTC 141155Z AUTO 29005KT 10SM FEW020 M09/M13 A3019 780 77 -2000 290/05 RMK AO2 T10941128
14926KSTC STC20191114060011411/14/19 06:00:31  5-MIN KSTC 141200Z AUTO 28006KT 10SM FEW020 M09/M13 A3019 780 77 -2000 280/06 RMK AO2 T10941128
14926KSTC STC20191114060511411/14/19 06:05:31  5-MIN KSTC 141205Z AUTO 29008KT 10SM FEW020 M09/M13 A3019 780 77 -2000 290/08 RMK AO2 T10941128
14926KSTC STC20191114061011111/14/19 06:10:31  5-MIN KSTC 141210Z AUTO 29007KT 10SM CLR M09/M13 A3020 780 77 -2000 280/07 RMK AO2 T10941128
14926KSTC STC20191114061511111/14/19 06:15:31  5-MIN KSTC 141215Z AUTO 28005KT 10SM CLR M09/M13 A3020 780 77 -2000 280/05 RMK AO2 T10941128
14926KSTC STC20191114062011111/14/19 06:20:31  5-MIN KSTC 141220Z AUTO 29006KT 10SM CLR M10/M13 A3020 780 77 -2100 290/06 RMK AO2 T11001133
14926KSTC STC20191114062511111/14/19 06:25:31  5-MIN KSTC 141225Z AUTO 30006KT 10SM CLR M10/M13 A3020 770 77 -2100 300/06 RMK AO2 T11001133
14926KSTC STC20191114063011111/14/19 06:30:31  5-MIN KSTC 141230Z AUTO 29007KT 10SM CLR M10/M13 A3020 770 77 -2100 290/07 RMK AO2 T11001133
14926KSTC STC20191114063511111/14/19 06:35:31  5-MIN KSTC 141235Z AUTO 28006KT 10SM CLR M09/M13 A3020 770 73 -2000 280/06 RMK AO2 T10941133
14926KSTC STC20191114064010611/14/19 06:40:31  5-MIN KSTC 141240Z 29006KT 10SM CLR M10/M13 A3020 770 77 -2100 290/06 RMK AO2 T11001133
14926KSTC STC20191114064510611/14/19 06:45:31  5-MIN KSTC 141245Z 28006KT 10SM CLR M10/M13 A3020 770 77 -2100 280/06 RMK AO2 T11001133
14926KSTC STC20191114065011311/14/19 06:50:31  5-MIN KSTC 141250Z 29007KT 10SM CLR M10/M13 A3021 770 77 -2100 290/07 RMK AO2 SLP256 T11001133
14926KSTC STC20191114065510611/14/19 06:55:31  5-MIN KSTC 141255Z 29007KT 10SM CLR M10/M13 A3021 770 77 -2100 290/07 RMK AO2 T11001133
14926KSTC STC20191114070010611/14/19 07:00:31  5-MIN KSTC 141300Z 28006KT 10SM CLR M10/M13 A3020 770 77 -2100 280/06 RMK AO2 T11001133
14926KSTC STC20191114070510611/14/19 07:05:31  5-MIN KSTC 141305Z 28006KT 10SM CLR M11/M13 A3020 770 80 -2100 280/06 RMK AO2 T11061133
14926KSTC STC20191114071010611/14/19 07:10:31  5-MIN KSTC 141310Z 28005KT 10SM CLR M11/M14 A3020 770 77 -2100 280/05 RMK AO2 T11061139
14926KSTC STC20191114071510611/14/19 07:15:31  5-MIN KSTC 141315Z 28005KT 10SM CLR M11/M14 A3020 770 77 -2100 280/05 RMK AO2 T11061139
14926KSTC STC20191114072010611/14/19 07:20:31  5-MIN KSTC 141320Z 28005KT 10SM CLR M11/M14 A3020 770 77 -2100 270/05 RMK AO2 T11061139
14926KSTC STC20191114072510611/14/19 07:25:31  5-MIN KSTC 141325Z 27005KT 10SM CLR M11/M14 A3020 780 77 -2100 260/05 RMK AO2 T11061139
14926KSTC STC20191114073010611/14/19 07:30:31  5-MIN KSTC 141330Z 27005KT 10SM CLR M11/M13 A3020 780 80 -2100 260/05 RMK AO2 T11061133
14926KSTC STC20191114073510611/14/19 07:35:31  5-MIN KSTC 141335Z 26005KT 10SM CLR M11/M13 A3020 770 84 -2200 260/05 RMK AO2 T11111133
14926KSTC STC20191114074010611/14/19 07:40:31  5-MIN KSTC 141340Z 27005KT 10SM CLR M11/M13 A3020 770 80 -2100 270/05 RMK AO2 T11061133
14926KSTC STC20191114074510611/14/19 07:45:31  5-MIN KSTC 141345Z 26004KT 10SM CLR M11/M13 A3021 770 80 -2100 260/04 RMK AO2 T11061133
14926KSTC STC20191114075011311/14/19 07:50:31  5-MIN KSTC 141350Z 24005KT 10SM CLR M11/M13 A3021 770 80 -2100 240/05 RMK AO2 SLP256 T11061133
14926KSTC STC20191114075510611/14/19 07:55:31  5-MIN KSTC 141355Z 24005KT 10SM CLR M11/M13 A3021 770 80 -2100 240/05 RMK AO2 T11061133
14926KSTC STC20191114080010611/14/19 08:00:31  5-MIN KSTC 141400Z 23005KT 10SM CLR M10/M13 A3021 770 80 -2100 230/05 RMK AO2 T11001128
14926KSTC STC20191114080510611/14/19 08:05:31  5-MIN KSTC 141405Z 23006KT 10SM CLR M10/M13 A3020 770 80 -2100 230/06 RMK AO2 T11001128
14926KSTC STC20191114081010611/14/19 08:10:31  5-MIN KSTC 141410Z 24006KT 10SM CLR M10/M13 A3021 770 80 -2100 240/06 RMK AO2 T11001128
14926KSTC STC20191114081510611/14/19 08:15:31  5-MIN KSTC 141415Z 23006KT 10SM CLR M09/M13 A3021 770 77 -2000 230/06 RMK AO2 T10941128
14926KSTC STC20191114082010611/14/19 08:20:31  5-MIN KSTC 141420Z 25007KT 10SM CLR M09/M13 A3021 760 77 -2000 250/07 RMK AO2 T10941128
14926KSTC STC20191114082510611/14/19 08:25:31  5-MIN KSTC 141425Z 25007KT 10SM CLR M09/M13 A3022 760 77 -2000 250/07 RMK AO2 T10941128
14926KSTC STC20191114083011311/14/19 08:30:31  5-MIN KSTC 141430Z 27007KT 10SM CLR M09/M12 A3023 750 77 -1900 270/07 RMK AO2 PRESRR T10891122
14926KSTC STC20191114083510611/14/19 08:35:31  5-MIN KSTC 141435Z 26006KT 10SM CLR M09/M13 A3022 750 74 -1900 260/06 RMK AO2 T10891128
14926KSTC STC20191114084010611/14/19 08:40:31  5-MIN KSTC 141440Z 27007KT 10SM CLR M09/M13 A3022 750 74 -1900 270/07 RMK AO2 T10891128
14926KSTC STC20191114084510611/14/19 08:45:31  5-MIN KSTC 141445Z 27007KT 10SM CLR M08/M13 A3023 750 70 -1900 270/07 RMK AO2 T10831128
14926KSTC STC20191114085011911/14/19 08:50:31  5-MIN KSTC 141450Z 28008KT 10SM CLR M08/M13 A3023 750 70 -1900 280/08 RMK AO2 SLP263 T10831128 51009
14926KSTC STC20191114085510611/14/19 08:55:31  5-MIN KSTC 141455Z 29008KT 10SM CLR M08/M13 A3023 750 70 -1900 290/08 RMK AO2 T10831128
14926KSTC STC20191114090010611/14/19 09:00:31  5-MIN KSTC 141500Z 27008KT 10SM CLR M08/M13 A3023 750 70 -1900 270/08 RMK AO2 T10831128
14926KSTC STC20191114090510611/14/19 09:05:31  5-MIN KSTC 141505Z 27011KT 10SM CLR M08/M13 A3023 740 67 -1800 270/11 RMK AO2 T10781128
14926KSTC STC20191114091010611/14/19 09:10:31  5-MIN KSTC 141510Z 28007KT 10SM CLR M08/M13 A3023 750 67 -1800 280/07 RMK AO2 T10781128
14926KSTC STC20191114091510611/14/19 09:15:31  5-MIN KSTC 141515Z 27008KT 10SM CLR M08/M13 A3023 750 67 -1800 270/08 RMK AO2 T10781128
14926KSTC STC20191114092010611/14/19 09:20:31  5-MIN KSTC 141520Z 28008KT 10SM CLR M08/M12 A3023 750 71 -1800 280/08 RMK AO2 T10781122
14926KSTC STC20191114092510611/14/19 09:25:31  5-MIN KSTC 141525Z 28006KT 10SM CLR M07/M12 A3023 750 68 -1700 280/06 RMK AO2 T10721122
14926KSTC STC20191114093010611/14/19 09:30:31  5-MIN KSTC 141530Z 26007KT 10SM CLR M07/M12 A3023 750 68 -1700 260/07 RMK AO2 T10721122
14926KSTC STC20191114093510611/14/19 09:35:31  5-MIN KSTC 141535Z 27007KT 10SM CLR M07/M12 A3023 750 68 -1700 270/07 RMK AO2 T10721122
14926KSTC STC20191114094010611/14/19 09:40:31  5-MIN KSTC 141540Z 28012KT 10SM CLR M07/M12 A3023 750 68 -1700 280/12 RMK AO2 T10721122
14926KSTC STC20191114094510611/14/19 09:45:31  5-MIN KSTC 141545Z 27008KT 10SM CLR M07/M12 A3022 750 65 -1700 270/08 RMK AO2 T10671122
14926KSTC STC20191114095011311/14/19 09:50:31  5-MIN KSTC 141550Z 25009KT 10SM CLR M07/M12 A3022 760 65 -1700 250/09 RMK AO2 SLP261 T10671122
14926KSTC STC20191114095510611/14/19 09:55:31  5-MIN KSTC 141555Z 27008KT 10SM CLR M07/M12 A3022 760 68 -1700 270/08 RMK AO2 T10671117
14926KSTC STC20191114100010611/14/19 10:00:31  5-MIN KSTC 141600Z 26009KT 10SM CLR M06/M12 A3021 760 65 -1600 260/09 RMK AO2 T10611117
14926KSTC STC20191114100510611/14/19 10:05:31  5-MIN KSTC 141605Z 25011KT 10SM CLR M07/M12 A3021 770 68 -1600 250/11 RMK AO2 T10671117
14926KSTC STC20191114101010611/14/19 10:10:31  5-MIN KSTC 141610Z 24008KT 10SM CLR M06/M11 A3021 770 68 -1600 230/08 RMK AO2 T10611111
14926KSTC STC20191114101510611/14/19 10:15:31  5-MIN KSTC 141615Z 23009KT 10SM CLR M07/M11 A3021 770 71 -1600 230/09 RMK AO2 T10671111
14926KSTC STC20191114102010611/14/19 10:20:31  5-MIN KSTC 141620Z 25009KT 10SM CLR M06/M11 A3021 770 68 -1600 250/09 RMK AO2 T10611111
14926KSTC STC20191114102510611/14/19 10:25:31  5-MIN KSTC 141625Z 25009KT 10SM CLR M06/M11 A3022 760 68 -1600 250/09 RMK AO2 T10611111
14926KSTC STC20191114103010611/14/19 10:30:31  5-MIN KSTC 141630Z 25010KT 10SM CLR M06/M11 A3022 760 65 -1500 250/10 RMK AO2 T10561111
14926KSTC STC20191114103510611/14/19 10:35:31  5-MIN KSTC 141635Z 26012KT 10SM CLR M06/M11 A3022 760 65 -1500 260/12 RMK AO2 T10561111
14926KSTC STC20191114104010611/14/19 10:40:31  5-MIN KSTC 141640Z 27011KT 10SM CLR M06/M11 A3022 760 65 -1500 270/11 RMK AO2 T10561111
14926KSTC STC20191114104510611/14/19 10:45:31  5-MIN KSTC 141645Z 26009KT 10SM CLR M06/M11 A3022 760 65 -1500 260/09 RMK AO2 T10561111
14926KSTC STC20191114105011311/14/19 10:50:31  5-MIN KSTC 141650Z 24008KT 10SM CLR M05/M11 A3022 760 65 -1400 240/08 RMK AO2 SLP258 T10501106
14926KSTC STC20191114105510611/14/19 10:55:31  5-MIN KSTC 141655Z 26010KT 10SM CLR M06/M11 A3021 760 68 -1500 250/10 RMK AO2 T10561106
14926KSTC STC20191114110010611/14/19 11:00:31  5-MIN KSTC 141700Z 24009KT 10SM CLR M06/M11 A3021 760 68 -1500 240/09 RMK AO2 T10561106
14926KSTC STC20191114110510611/14/19 11:05:31  5-MIN KSTC 141705Z 24009KT 10SM CLR M05/M11 A3022 760 65 -1400 240/09 RMK AO2 T10501106
14926KSTC STC20191114111010611/14/19 11:10:31  5-MIN KSTC 141710Z 26010KT 10SM CLR M05/M11 A3021 760 65 -1400 260/10 RMK AO2 T10501106
14926KSTC STC20191114111510611/14/19 11:15:31  5-MIN KSTC 141715Z 24010KT 10SM CLR M04/M10 A3021 760 65 -1400 240/10 RMK AO2 T10441100
14926KSTC STC20191114112010611/14/19 11:20:31  5-MIN KSTC 141720Z 25008KT 10SM CLR M04/M11 A3021 770 62 -1400 240/08 RMK AO2 T10441106
14926KSTC STC20191114112511211/14/19 11:25:31  5-MIN KSTC 141725Z 23012G17KT 10SM CLR M04/M10 A3021 760 65 -1400 230/12G17 RMK AO2 T10441100
14926KSTC STC20191114113010611/14/19 11:30:31  5-MIN KSTC 141730Z 24011KT 10SM CLR M04/M10 A3021 760 65 -1400 230/11 RMK AO2 T10441100
14926KSTC STC20191114113510611/14/19 11:35:31  5-MIN KSTC 141735Z 25013KT 10SM CLR M04/M10 A3021 770 65 -1400 250/13 RMK AO2 T10441100
14926KSTC STC20191114114010611/14/19 11:40:31  5-MIN KSTC 141740Z 23009KT 10SM CLR M04/M10 A3020 770 65 -1300 230/09 RMK AO2 T10441100
14926KSTC STC20191114114510611/14/19 11:45:31  5-MIN KSTC 141745Z 24010KT 10SM CLR M04/M10 A3021 770 63 -1300 240/10 RMK AO2 T10391100
14926KSTC STC20191114115013111/14/19 11:50:31  5-MIN KSTC 141750Z 24011KT 10SM CLR M04/M10 A3021 770 63 -1300 230/11 RMK AO2 SLP254 T10391100 11039 21111 53013
14926KSTC STC20191114115510611/14/19 11:55:31  5-MIN KSTC 141755Z 25011KT 10SM CLR M03/M09 A3020 770 63 -1200 250/11 RMK AO2 T10331094
14926KSTC STC20191114120010611/14/19 12:00:31  5-MIN KSTC 141800Z 23009KT 10SM CLR M03/M10 A3020 780 60 -1200 230/09 RMK AO2 T10331100
14926KSTC STC20191114120511511/14/19 12:05:31  5-MIN KSTC 141805Z 25012G17KT 10SM FEW060 M03/M10 A3020 780 60 -1200 240/12G17 RMK AO2 T10331100
14926KSTC STC20191114121010911/14/19 12:10:31  5-MIN KSTC 141810Z 24011KT 10SM SCT060 M03/M10 A3019 780 60 -1200 240/11 RMK AO2 T10331100
14926KSTC STC20191114121510911/14/19 12:15:31  5-MIN KSTC 141815Z 23011KT 10SM BKN055 M03/M10 A3019 790 60 -1200 230/11 RMK AO2 T10331100
14926KSTC STC20191114122010911/14/19 12:20:31  5-MIN KSTC 141820Z 24011KT 10SM BKN055 M03/M10 A3018 790 60 -1200 230/11 RMK AO2 T10331100
14926KSTC STC20191114122510911/14/19 12:25:31  5-MIN KSTC 141825Z 21010KT 10SM BKN055 M03/M09 A3019 790 63 -1200 210/10 RMK AO2 T10331094
14926KSTC STC20191114123010911/14/19 12:30:31  5-MIN KSTC 141830Z 23010KT 10SM OVC055 M03/M09 A3019 790 60 -1100 230/10 RMK AO2 T10281094
14926KSTC STC20191114123510911/14/19 12:35:31  5-MIN KSTC 141835Z 24014KT 10SM OVC060 M03/M09 A3018 790 60 -1100 240/14 RMK AO2 T10281094
14926KSTC STC20191114124010911/14/19 12:40:31  5-MIN KSTC 141840Z 24012KT 10SM OVC060 M03/M09 A3019 790 60 -1100 240/12 RMK AO2 T10281094
14926KSTC STC20191114124510911/14/19 12:45:31  5-MIN KSTC 141845Z 25009KT 10SM OVC060 M03/M09 A3018 790 60 -1100 250/09 RMK AO2 T10281094
14926KSTC STC20191114125011611/14/19 12:50:31  5-MIN KSTC 141850Z 23010KT 10SM OVC060 M03/M09 A3019 790 60 -1100 230/10 RMK AO2 SLP248 T10281094
14926KSTC STC20191114125510911/14/19 12:55:31  5-MIN KSTC 141855Z 24010KT 10SM OVC060 M03/M09 A3018 790 60 -1100 240/10 RMK AO2 T10281094
14926KSTC STC20191114130010911/14/19 13:00:31  5-MIN KSTC 141900Z 21012KT 10SM OVC060 M03/M09 A3018 790 60 -1100 210/12 RMK AO2 T10281094
14926KSTC STC20191114130511511/14/19 13:05:31  5-MIN KSTC 141905Z 24012G17KT 10SM OVC060 M03/M09 A3018 800 60 -1100 240/12G17 RMK AO2 T10281094
14926KSTC STC20191114131010911/14/19 13:10:31  5-MIN KSTC 141910Z 21012KT 10SM OVC060 M03/M09 A3017 800 60 -1100 210/12 RMK AO2 T10281094
14926KSTC STC20191114131510911/14/19 13:15:31  5-MIN KSTC 141915Z 21012KT 10SM OVC060 M03/M09 A3017 800 60 -1100 210/12 RMK AO2 T10281094
14926KSTC STC20191114132010911/14/19 13:20:31  5-MIN KSTC 141920Z 21011KT 10SM OVC055 M03/M09 A3017 810 63 -1100 200/11 RMK AO2 T10281089
14926KSTC STC20191114132510911/14/19 13:25:31  5-MIN KSTC 141925Z 22011KT 10SM OVC055 M03/M09 A3017 810 60 -1100 220/11 RMK AO2 T10281094
14926KSTC STC20191114133010911/14/19 13:30:31  5-MIN KSTC 141930Z 22011KT 10SM OVC055 M02/M09 A3016 810 58 -1000 220/11 RMK AO2 T10221094
14926KSTC STC20191114133510911/14/19 13:35:31  5-MIN KSTC 141935Z 22011KT 10SM OVC055 M02/M09 A3016 820 58 -1000 220/11 RMK AO2 T10221094
14926KSTC STC20191114134010911/14/19 13:40:31  5-MIN KSTC 141940Z 22010KT 10SM OVC055 M02/M09 A3016 820 58 -1000 220/10 RMK AO2 T10221094
14926KSTC STC20191114134510911/14/19 13:45:31  5-MIN KSTC 141945Z 20011KT 10SM OVC055 M02/M09 A3015 820 60 -1000 200/11 RMK AO2 T10221089
14926KSTC STC20191114135011611/14/19 13:50:31  5-MIN KSTC 141950Z 21012KT 10SM OVC055 M02/M09 A3015 820 60 -1000 210/12 RMK AO2 SLP234 T10221089
14926KSTC STC20191114135510911/14/19 13:55:31  5-MIN KSTC 141955Z 22010KT 10SM OVC055 M02/M09 A3016 820 58 -1000 220/10 RMK AO2 T10221094
14926KSTC STC20191114140010911/14/19 14:00:31  5-MIN KSTC 142000Z 21011KT 10SM OVC055 M02/M09 A3015 820 58 -1000 210/11 RMK AO2 T10221094
14926KSTC STC20191114140510911/14/19 14:05:31  5-MIN KSTC 142005Z 22013KT 10SM OVC055 M02/M09 A3015 820 58 -1000 210/13 RMK AO2 T10221094
14926KSTC STC20191114141010811/14/19 14:10:31  5-MIN KSTC 142010Z 22012KT 10SM OVC055 M02/M09 A3015 820 58 -900 220/12 RMK AO2 T10171089
14926KSTC STC20191114141510811/14/19 14:15:31  5-MIN KSTC 142015Z 22011KT 10SM OVC055 M02/M09 A3014 830 55 -900 220/11 RMK AO2 T10171094
14926KSTC STC20191114142010811/14/19 14:20:31  5-MIN KSTC 142020Z 22009KT 10SM OVC060 M02/M09 A3015 820 58 -900 220/09 RMK AO2 T10171089
14926KSTC STC20191114142510811/14/19 14:25:31  5-MIN KSTC 142025Z 22011KT 10SM OVC060 M02/M09 A3014 830 58 -900 220/11 RMK AO2 T10171089
14926KSTC STC20191114143010811/14/19 14:30:31  5-MIN KSTC 142030Z 22010KT 10SM OVC060 M02/M09 A3013 840 58 -900 210/10 RMK AO2 T10171089
14926KSTC STC20191114143510811/14/19 14:35:31  5-MIN KSTC 142035Z 22012KT 10SM OVC060 M01/M09 A3013 840 55 -800 220/12 RMK AO2 T10111089
14926KSTC STC20191114144010811/14/19 14:40:31  5-MIN KSTC 142040Z 22011KT 10SM OVC060 M01/M09 A3014 830 55 -800 220/11 RMK AO2 T10111089
14926KSTC STC20191114144510811/14/19 14:45:31  5-MIN KSTC 142045Z 22011KT 10SM OVC060 M01/M09 A3014 830 55 -900 220/11 RMK AO2 T10111089
14926KSTC STC20191114145012111/14/19 14:50:31  5-MIN KSTC 142050Z 22011KT 10SM BKN060 M01/M09 A3014 830 53 -800 220/11 RMK AO2 SLP230 T10111094 58008
14926KSTC STC20191114145510811/14/19 14:55:31  5-MIN KSTC 142055Z 23012KT 10SM BKN060 M01/M09 A3014 840 51 -800 220/12 RMK AO2 T10061094
14926KSTC STC20191114150010811/14/19 15:00:31  5-MIN KSTC 142100Z 22011KT 10SM BKN060 M01/M09 A3013 840 51 -800 220/11 RMK AO2 T10061094
14926KSTC STC20191114150510811/14/19 15:05:31  5-MIN KSTC 142105Z 23011KT 10SM SCT060 M01/M09 A3014 840 51 -800 230/11 RMK AO2 T10061094
14926KSTC STC20191114151010811/14/19 15:10:31  5-MIN KSTC 142110Z 21009KT 10SM FEW060 M01/M09 A3013 840 51 -800 210/09 RMK AO2 T10061094
14926KSTC STC20191114151510811/14/19 15:15:31  5-MIN KSTC 142115Z 21009KT 10SM FEW060 M01/M09 A3013 840 53 -800 210/09 RMK AO2 T10061089
14926KSTC STC20191114152010811/14/19 15:20:31  5-MIN KSTC 142120Z 21011KT 10SM FEW060 M01/M09 A3013 840 53 -800 210/11 RMK AO2 T10061089
14926KSTC STC20191114152510511/14/19 15:25:31  5-MIN KSTC 142125Z 21010KT 10SM CLR M01/M09 A3013 840 53 -800 210/10 RMK AO2 T10061089
14926KSTC STC20191114153010511/14/19 15:30:31  5-MIN KSTC 142130Z 22012KT 10SM CLR M01/M09 A3013 840 53 -800 220/12 RMK AO2 T10061089
14926KSTC STC20191114153510511/14/19 15:35:31  5-MIN KSTC 142135Z 22010KT 10SM CLR M01/M09 A3013 840 53 -800 220/10 RMK AO2 T10061089
14926KSTC STC20191114154010511/14/19 15:40:31  5-MIN KSTC 142140Z 22010KT 10SM CLR M01/M09 A3012 850 53 -800 220/10 RMK AO2 T10061089
14926KSTC STC20191114154510511/14/19 15:45:31  5-MIN KSTC 142145Z 21009KT 10SM CLR M01/M09 A3012 850 53 -800 210/09 RMK AO2 T10061089
14926KSTC STC20191114155011211/14/19 15:50:31  5-MIN KSTC 142150Z 21011KT 10SM CLR M01/M09 A3012 850 53 -800 210/11 RMK AO2 SLP225 T10061089
14926KSTC STC20191114155510511/14/19 15:55:31  5-MIN KSTC 142155Z 22010KT 10SM CLR M01/M09 A3012 850 53 -800 220/10 RMK AO2 T10061089
14926KSTC STC20191114160010511/14/19 16:00:31  5-MIN KSTC 142200Z 22010KT 10SM CLR M01/M08 A3012 840 56 -800 210/10 RMK AO2 T10061083
14926KSTC STC20191114160510511/14/19 16:05:31  5-MIN KSTC 142205Z 22011KT 10SM CLR M01/M08 A3012 840 56 -800 220/11 RMK AO2 T10061083
14926KSTC STC20191114161010511/14/19 16:10:31  5-MIN KSTC 142210Z 22010KT 10SM CLR M01/M08 A3012 850 56 -800 220/10 RMK AO2 T10061083
14926KSTC STC20191114161510511/14/19 16:15:31  5-MIN KSTC 142215Z 21008KT 10SM CLR M01/M08 A3012 850 56 -800 210/08 RMK AO2 T10061083
14926KSTC STC20191114162010511/14/19 16:20:31  5-MIN KSTC 142220Z 22007KT 10SM CLR M01/M08 A3012 850 56 -800 210/07 RMK AO2 T10061083
14926KSTC STC20191114162510511/14/19 16:25:31  5-MIN KSTC 142225Z 21009KT 10SM CLR M01/M08 A3012 850 56 -800 210/09 RMK AO2 T10061083
14926KSTC STC20191114163010511/14/19 16:30:31  5-MIN KSTC 142230Z 22008KT 10SM CLR M01/M08 A3011 850 56 -700 210/08 RMK AO2 T10061083
14926KSTC STC20191114163510511/14/19 16:35:31  5-MIN KSTC 142235Z 22007KT 10SM CLR M01/M08 A3011 860 56 -700 220/07 RMK AO2 T10061083
14926KSTC STC20191114164010511/14/19 16:40:31  5-MIN KSTC 142240Z 22006KT 10SM CLR M01/M08 A3011 860 56 -700 210/06 RMK AO2 T10061083
14926KSTC STC20191114164510511/14/19 16:45:31  5-MIN KSTC 142245Z 21006KT 10SM CLR M01/M08 A3011 860 56 -700 210/06 RMK AO2 T10061083
14926KSTC STC20191114165011211/14/19 16:50:31  5-MIN KSTC 142250Z 22006KT 10SM CLR M01/M08 A3012 850 58 -800 220/06 RMK AO2 SLP223 T10111083
14926KSTC STC20191114165510511/14/19 16:55:31  5-MIN KSTC 142255Z 21006KT 10SM CLR M01/M08 A3011 850 58 -800 210/06 RMK AO2 T10111083
14926KSTC STC20191114170010511/14/19 17:00:31  5-MIN KSTC 142300Z 21006KT 10SM CLR M01/M08 A3011 850 58 -800 210/06 RMK AO2 T10111083
14926KSTC STC20191114170510611/14/19 17:05:31  5-MIN KSTC 142305Z 21006KT 10SM CLR M02/M08 A3011 860 63 -1000 210/06 RMK AO2 T10221083
14926KSTC STC20191114171010611/14/19 17:10:31  5-MIN KSTC 142310Z 21006KT 10SM CLR M02/M08 A3011 860 63 -1000 210/06 RMK AO2 T10221083
14926KSTC STC20191114171510611/14/19 17:15:31  5-MIN KSTC 142315Z 20005KT 10SM CLR M02/M08 A3011 850 63 -1000 200/05 RMK AO2 T10221083
14926KSTC STC20191114172009611/14/19 17:20:31  5-MIN KSTC 142320Z 10SM CLR M02/M08 A3012 850 63 -1000 M /M RMK AO2 T10221083
14926KSTC STC20191114172509611/14/19 17:25:31  5-MIN KSTC 142325Z 10SM CLR M02/M08 A3012 850 63 -1000 M /M RMK AO2 T10221083
14926KSTC STC20191114173010611/14/19 17:30:31  5-MIN KSTC 142330Z 20007KT 10SM CLR M03/M08 A3011 860 66 -1000 200/07 RMK AO2 T10281083
14926KSTC STC20191114173510611/14/19 17:35:31  5-MIN KSTC 142335Z 20007KT 10SM CLR M03/M08 A3011 860 68 -1100 200/07 RMK AO2 T10331083
14926KSTC STC20191114174010611/14/19 17:40:31  5-MIN KSTC 142340Z 21007KT 10SM CLR M03/M08 A3011 860 68 -1100 210/07 RMK AO2 T10331083
14926KSTC STC20191114174510611/14/19 17:45:31  5-MIN KSTC 142345Z 21007KT 10SM CLR M03/M08 A3011 860 66 -1000 200/07 RMK AO2 T10281083
14926KSTC STC20191114175013111/14/19 17:50:31  5-MIN KSTC 142350Z 21007KT 10SM CLR M03/M08 A3011 860 68 -1100 210/07 RMK AO2 SLP222 T10331083 11006 21039 58022
14926KSTC STC20191114175510611/14/19 17:55:31  5-MIN KSTC 142355Z 21007KT 10SM CLR M03/M08 A3011 860 66 -1000 210/07 RMK AO2 T10281083
14926KSTC STC20191114180010611/14/19 18:00:31  5-MIN KSTC 150000Z 21007KT 10SM CLR M02/M08 A3011 860 66 -1000 210/07 RMK AO2 T10221078
14926KSTC STC20191114180510611/14/19 18:05:31  5-MIN KSTC 150005Z 21007KT 10SM CLR M03/M08 A3011 860 68 -1000 210/07 RMK AO2 T10281078
14926KSTC STC20191114181010611/14/19 18:10:31  5-MIN KSTC 150010Z 22005KT 10SM CLR M02/M08 A3011 860 66 -1000 220/05 RMK AO2 T10221078
14926KSTC STC20191114181510611/14/19 18:15:31  5-MIN KSTC 150015Z 21005KT 10SM CLR M02/M08 A3012 850 66 -1000 210/05 RMK AO2 T10221078
14926KSTC STC20191114182010511/14/19 18:20:31  5-MIN KSTC 150020Z 22005KT 10SM CLR M02/M08 A3012 850 63 -900 220/05 RMK AO2 T10171078
14926KSTC STC20191114182510511/14/19 18:25:31  5-MIN KSTC 150025Z 23007KT 10SM CLR M02/M08 A3012 850 63 -900 230/07 RMK AO2 T10171078
14926KSTC STC20191114183010511/14/19 18:30:31  5-MIN KSTC 150030Z 21006KT 10SM CLR M02/M08 A3011 860 63 -900 210/06 RMK AO2 T10171078
14926KSTC STC20191114183510511/14/19 18:35:31  5-MIN KSTC 150035Z 22007KT 10SM CLR M02/M08 A3012 850 63 -900 210/07 RMK AO2 T10171078
14926KSTC STC20191114184010511/14/19 18:40:31  5-MIN KSTC 150040Z 22005KT 10SM CLR M02/M08 A3012 850 63 -900 220/05 RMK AO2 T10171078
14926KSTC STC20191114184510611/14/19 18:45:31  5-MIN KSTC 150045Z 20007KT 10SM CLR M02/M08 A3011 860 66 -1000 200/07 RMK AO2 T10221078
14926KSTC STC20191114185011311/14/19 18:50:31  5-MIN KSTC 150050Z 20008KT 10SM CLR M02/M08 A3012 850 66 -1000 200/08 RMK AO2 SLP224 T10221078
14926KSTC STC20191114185510611/14/19 18:55:31  5-MIN KSTC 150055Z 21006KT 10SM CLR M02/M08 A3012 850 66 -1000 210/06 RMK AO2 T10221078
14926KSTC STC20191114190010611/14/19 19:00:31  5-MIN KSTC 150100Z 21005KT 10SM CLR M02/M08 A3012 850 66 -1000 210/05 RMK AO2 T10221078
14926KSTC STC20191114190510611/14/19 19:05:31  5-MIN KSTC 150105Z VRB03KT 10SM CLR M02/M08 A3012 850 66 -1000 VRB/03 RMK AO2 T10221078
14926KSTC STC20191114191010611/14/19 19:10:31  5-MIN KSTC 150110Z 22004KT 10SM CLR M03/M08 A3012 850 68 -1000 220/04 RMK AO2 T10281078
14926KSTC STC20191114191510611/14/19 19:15:31  5-MIN KSTC 150115Z 26003KT 10SM CLR M03/M08 A3012 850 68 -1000 250/03 RMK AO2 T10281078
14926KSTC STC20191114192010611/14/19 19:20:31  5-MIN KSTC 150120Z 25003KT 10SM CLR M03/M08 A3012 850 71 -1100 240/03 RMK AO2 T10331078
14926KSTC STC20191114192510611/14/19 19:25:31  5-MIN KSTC 150125Z 23003KT 10SM CLR M03/M08 A3012 850 68 -1000 230/03 RMK AO2 T10281078
14926KSTC STC20191114193010611/14/19 19:30:31  5-MIN KSTC 150130Z 00000KT 10SM CLR M04/M08 A3012 850 71 -1200 000/00 RMK AO2 T10391083
14926KSTC STC20191114193510611/14/19 19:35:31  5-MIN KSTC 150135Z 00000KT 10SM CLR M03/M08 A3012 840 71 -1100 000/00 RMK AO2 T10331078
14926KSTC STC20191114194010611/14/19 19:40:31  5-MIN KSTC 150140Z 00000KT 10SM CLR M03/M08 A3012 850 71 -1100 000/00 RMK AO2 T10331078
14926KSTC STC20191114194510611/14/19 19:45:31  5-MIN KSTC 150145Z 00000KT 10SM CLR M03/M08 A3012 850 71 -1100 000/00 RMK AO2 T10331078
14926KSTC STC20191114195011311/14/19 19:50:31  5-MIN KSTC 150150Z 00000KT 10SM CLR M03/M08 A3012 850 71 -1100 000/00 RMK AO2 SLP227 T10331078
14926KSTC STC20191114195510611/14/19 19:55:31  5-MIN KSTC 150155Z 00000KT 10SM CLR M03/M08 A3012 850 71 -1100 000/00 RMK AO2 T10331078
14926KSTC STC20191114200010611/14/19 20:00:31  5-MIN KSTC 150200Z 00000KT 10SM CLR M04/M08 A3012 850 78 -1200 000/00 RMK AO2 T10441078
14926KSTC STC20191114200510611/14/19 20:05:31  5-MIN KSTC 150205Z 00000KT 10SM CLR M05/M08 A3012 850 81 -1300 000/00 RMK AO2 T10501078
14926KSTC STC20191114201010611/14/19 20:10:31  5-MIN KSTC 150210Z 00000KT 10SM CLR M05/M08 A3012 850 81 -1300 000/00 RMK AO2 T10501078
14926KSTC STC20191114201510611/14/19 20:15:31  5-MIN KSTC 150215Z 00000KT 10SM CLR M04/M08 A3012 850 78 -1200 000/00 RMK AO2 T10441078
14926KSTC STC20191114202010611/14/19 20:20:31  5-MIN KSTC 150220Z 00000KT 10SM CLR M05/M08 A3012 850 81 -1300 000/00 RMK AO2 T10501078
14926KSTC STC20191114202510611/14/19 20:25:31  5-MIN KSTC 150225Z 00000KT 10SM CLR M06/M08 A3012 850 81 -1400 000/00 RMK AO2 T10561083
14926KSTC STC20191114203010911/14/19 20:30:31  5-MIN KSTC 150230Z 00000KT 10SM FEW031 M06/M08 A3013 840 81 -1400 000/00 RMK AO2 T10561083
14926KSTC STC20191114203510911/14/19 20:35:31  5-MIN KSTC 150235Z 00000KT 10SM SCT031 M05/M08 A3013 840 77 -1300 000/00 RMK AO2 T10501083
14926KSTC STC20191114204010911/14/19 20:40:31  5-MIN KSTC 150240Z 00000KT 10SM BKN031 M05/M08 A3013 840 77 -1300 000/00 RMK AO2 T10501083
14926KSTC STC20191114204510911/14/19 20:45:31  5-MIN KSTC 150245Z 00000KT 10SM SCT029 M05/M08 A3013 840 81 -1300 000/00 RMK AO2 T10501078
14926KSTC STC20191114205012211/14/19 20:50:31  5-MIN KSTC 150250Z 02003KT 10SM SCT029 M06/M08 A3013 840 81 -1400 020/03 RMK AO2 SLP232 T10561083 56009
14926KSTC STC20191114205510911/14/19 20:55:31  5-MIN KSTC 150255Z 00000KT 10SM SCT029 M06/M08 A3014 830 81 -1400 000/00 RMK AO2 T10561083
14926KSTC STC20191114210010911/14/19 21:00:31  5-MIN KSTC 150300Z 00000KT 10SM FEW029 M06/M08 A3014 830 81 -1400 000/00 RMK AO2 T10561083
14926KSTC STC20191114210510911/14/19 21:05:31  5-MIN KSTC 150305Z 00000KT 10SM FEW029 M06/M08 A3014 830 81 -1400 000/00 RMK AO2 T10561083
14926KSTC STC20191114211010611/14/19 21:10:31  5-MIN KSTC 150310Z 00000KT 10SM CLR M05/M08 A3014 830 77 -1300 000/00 RMK AO2 T10501083
14926KSTC STC20191114211510611/14/19 21:15:31  5-MIN KSTC 150315Z 00000KT 10SM CLR M05/M08 A3014 830 77 -1300 000/00 RMK AO2 T10501083
14926KSTC STC20191114212010611/14/19 21:20:31  5-MIN KSTC 150320Z 00000KT 10SM CLR M06/M08 A3014 830 81 -1400 000/00 RMK AO2 T10561083
14926KSTC STC20191114212510611/14/19 21:25:31  5-MIN KSTC 150325Z 00000KT 10SM CLR M07/M09 A3014 830 84 -1600 000/00 RMK AO2 T10671089
14926KSTC STC20191114213010611/14/19 21:30:31  5-MIN KSTC 150330Z 00000KT 10SM CLR M07/M09 A3014 830 84 -1600 000/00 RMK AO2 T10671089
14926KSTC STC20191114213510611/14/19 21:35:31  5-MIN KSTC 150335Z 00000KT 10SM CLR M06/M08 A3014 830 84 -1500 000/00 RMK AO2 T10611083
14926KSTC STC20191114214010611/14/19 21:40:31  5-MIN KSTC 150340Z 00000KT 10SM CLR M06/M08 A3014 830 84 -1500 000/00 RMK AO2 T10611083
14926KSTC STC20191114214510611/14/19 21:45:31  5-MIN KSTC 150345Z 00000KT 10SM CLR M06/M08 A3015 820 81 -1400 000/00 RMK AO2 T10561083
14926KSTC STC20191114215011311/14/19 21:50:31  5-MIN KSTC 150350Z 00000KT 10SM CLR M06/M08 A3015 820 84 -1500 000/00 RMK AO2 SLP235 T10611083
14926KSTC STC20191114215510611/14/19 21:55:31  5-MIN KSTC 150355Z 00000KT 10SM CLR M06/M08 A3015 830 84 -1500 000/00 RMK AO2 T10611083
14926KSTC STC20191114220010611/14/19 22:00:31  5-MIN KSTC 150400Z 00000KT 10SM CLR M06/M09 A3015 820 81 -1500 000/00 RMK AO2 T10611089
14926KSTC STC20191114220510611/14/19 22:05:31  5-MIN KSTC 150405Z 00000KT 10SM CLR M06/M08 A3015 820 84 -1500 000/00 RMK AO2 T10611083
14926KSTC STC20191114221010611/14/19 22:10:31  5-MIN KSTC 150410Z 00000KT 10SM CLR M06/M08 A3015 820 84 -1500 000/00 RMK AO2 T10611083
14926KSTC STC20191114221510611/14/19 22:15:31  5-MIN KSTC 150415Z 00000KT 10SM CLR M06/M08 A3016 820 84 -1500 000/00 RMK AO2 T10611083
14926KSTC STC20191114222010611/14/19 22:20:31  5-MIN KSTC 150420Z 00000KT 10SM CLR M07/M09 A3016 820 84 -1600 000/00 RMK AO2 T10671089
14926KSTC STC20191114222510911/14/19 22:25:31  5-MIN KSTC 150425Z 00000KT 10SM FEW027 M07/M09 A3016 810 84 -1600 000/00 RMK AO2 T10671089
14926KSTC STC20191114223010911/14/19 22:30:31  5-MIN KSTC 150430Z 00000KT 10SM SCT027 M07/M09 A3016 810 84 -1600 000/00 RMK AO2 T10671089
14926KSTC STC20191114223510911/14/19 22:35:31  5-MIN KSTC 150435Z 00000KT 10SM SCT027 M07/M09 A3016 810 84 -1600 000/00 RMK AO2 T10671089
14926KSTC STC20191114224010911/14/19 22:40:31  5-MIN KSTC 150440Z 00000KT 10SM BKN027 M06/M08 A3016 810 84 -1500 000/00 RMK AO2 T10611083
14926KSTC STC20191114224510911/14/19 22:45:31  5-MIN KSTC 150445Z 00000KT 10SM BKN027 M07/M09 A3016 810 84 -1600 000/00 RMK AO2 T10671089
14926KSTC STC20191114225011611/14/19 22:50:31  5-MIN KSTC 150450Z 00000KT 10SM BKN027 M06/M08 A3016 810 84 -1500 000/00 RMK AO2 SLP240 T10611083
14926KSTC STC20191114225511411/14/19 22:55:31  5-MIN KSTC 150455Z AUTO 00000KT 10SM BKN027 M06/M08 A3016 810 84 -1500 000/00 RMK AO2 T10611083
14926KSTC STC20191114230011411/14/19 23:00:31  5-MIN KSTC 150500Z AUTO 00000KT 10SM OVC027 M06/M08 A3016 810 84 -1500 000/00 RMK AO2 T10611083
14926KSTC STC20191114230511411/14/19 23:05:31  5-MIN KSTC 150505Z AUTO 00000KT 10SM OVC027 M06/M08 A3016 810 84 -1500 000/00 RMK AO2 T10611083
14926KSTC STC20191114231011411/14/19 23:10:31  5-MIN KSTC 150510Z AUTO 00000KT 10SM OVC027 M06/M08 A3017 810 84 -1400 000/00 RMK AO2 T10561078
14926KSTC STC20191114231511411/14/19 23:15:31  5-MIN KSTC 150515Z AUTO 00000KT 10SM OVC026 M05/M07 A3017 810 84 -1400 000/00 RMK AO2 T10501072
14926KSTC STC20191114232011411/14/19 23:20:31  5-MIN KSTC 150520Z AUTO 00000KT 10SM OVC026 M05/M07 A3017 800 88 -1400 000/00 RMK AO2 T10501067
14926KSTC STC20191114232511411/14/19 23:25:31  5-MIN KSTC 150525Z AUTO 00000KT 10SM OVC026 M05/M07 A3017 800 88 -1400 000/00 RMK AO2 T10501067
14926KSTC STC20191114233011411/14/19 23:30:31  5-MIN KSTC 150530Z AUTO 00000KT 10SM OVC026 M05/M07 A3017 800 88 -1400 000/00 RMK AO2 T10501067
14926KSTC STC20191114233511411/14/19 23:35:31  5-MIN KSTC 150535Z AUTO 00000KT 10SM OVC026 M05/M07 A3017 800 88 -1400 000/00 RMK AO2 T10501067
14926KSTC STC20191114234011411/14/19 23:40:31  5-MIN KSTC 150540Z AUTO 22003KT 10SM OVC026 M05/M07 A3017 800 88 -1400 220/03 RMK AO2 T10501067
14926KSTC STC20191114234511411/14/19 23:45:31  5-MIN KSTC 150545Z AUTO 00000KT 10SM OVC026 M04/M07 A3018 800 84 -1300 000/00 RMK AO2 T10441067
14926KSTC STC20191114235014911/14/19 23:50:31  5-MIN KSTC 150550Z AUTO 00000KT 10SM OVC026 M04/M07 A3018 800 84 -1300 000/00 RMK AO2 SLP243 T10441067 11017 21067 410061111 53009
14926KSTC STC20191114235511411/14/19 23:55:31  5-MIN KSTC 150555Z AUTO 00000KT 10SM OVC026 M04/M07 A3018 800 81 -1200 000/00 RMK AO2 T10391067
14926KSTC STC20191115000011411/15/19 00:00:31  5-MIN KSTC 150600Z AUTO 00000KT 10SM OVC026 M04/M06 A3018 790 85 -1200 000/00 RMK AO2 T10391061
14926KSTC STC20191115000511411/15/19 00:05:31  5-MIN KSTC 150605Z AUTO 00000KT 10SM OVC026 M04/M06 A3018 790 85 -1300 000/00 RMK AO2 T10391061
14926KSTC STC20191115001011411/15/19 00:10:31  5-MIN KSTC 150610Z AUTO 00000KT 10SM OVC026 M03/M06 A3019 790 85 -1200 000/00 RMK AO2 T10331056
14926KSTC STC20191115001511411/15/19 00:15:31  5-MIN KSTC 150615Z AUTO 00000KT 10SM OVC026 M03/M06 A3019 780 85 -1200 000/00 RMK AO2 T10331056
14926KSTC STC20191115002011411/15/19 00:20:31  5-MIN KSTC 150620Z AUTO 15003KT 10SM OVC026 M03/M06 A3019 780 85 -1200 150/03 RMK AO2 T10331056
14926KSTC STC20191115212510811/15/19 21:25:31  5-MIN KSTC 160325Z 10007KT 10SM BKN075 M01/M11 A3026 720 45 -900 100/07 RMK AO2 T10061111
14926KSTC STC20191115213010811/15/19 21:30:31  5-MIN KSTC 160330Z 10007KT 10SM BKN075 M01/M11 A3026 720 45 -900 100/07 RMK AO2 T10061111
14926KSTC STC20191115213510811/15/19 21:35:31  5-MIN KSTC 160335Z 10007KT 10SM BKN075 M01/M11 A3026 720 45 -900 100/07 RMK AO2 T10061111
14926KSTC STC20191115214010811/15/19 21:40:31  5-MIN KSTC 160340Z 09006KT 10SM OVC075 M01/M11 A3026 720 45 -900 090/06 RMK AO2 T10061111
14926KSTC STC20191115214510811/15/19 21:45:31  5-MIN KSTC 160345Z 09006KT 10SM BKN075 M01/M11 A3026 720 47 -900 090/06 RMK AO2 T10061106
14926KSTC STC20191115215011511/15/19 21:50:31  5-MIN KSTC 160350Z 10008KT 10SM OVC075 M01/M11 A3025 730 47 -900 100/08 RMK AO2 SLP267 T10061106
14926KSTC STC20191115215510811/15/19 21:55:31  5-MIN KSTC 160355Z 10007KT 10SM OVC075 M01/M11 A3026 720 47 -900 100/07 RMK AO2 T10061106
14926KSTC STC20191115220010811/15/19 22:00:31  5-MIN KSTC 160400Z 10007KT 10SM OVC070 M01/M11 A3025 730 47 -900 100/07 RMK AO2 T10061106
14926KSTC STC20191115220510811/15/19 22:05:31  5-MIN KSTC 160405Z 10007KT 10SM OVC070 M01/M11 A3025 730 47 -900 100/07 RMK AO2 T10061106
14926KSTC STC20191115221010811/15/19 22:10:31  5-MIN KSTC 160410Z 11007KT 10SM OVC070 M01/M11 A3025 730 47 -900 110/07 RMK AO2 T10061106
14926KSTC STC20191115221510811/15/19 22:15:31  5-MIN KSTC 160415Z 11007KT 10SM OVC070 M01/M11 A3025 730 47 -900 110/07 RMK AO2 T10061106
14926KSTC STC20191115222010811/15/19 22:20:31  5-MIN KSTC 160420Z 11007KT 10SM OVC070 M01/M10 A3025 730 49 -900 110/07 RMK AO2 T10061100
14926KSTC STC20191115222510811/15/19 22:25:31  5-MIN KSTC 160425Z 11007KT 10SM OVC070 M01/M10 A3025 730 49 -900 110/07 RMK AO2 T10061100
14926KSTC STC20191115223010711/15/19 22:30:31  5-MIN KSTC 160430Z 11007KT 10SM OVC070 00/M10 A3025 730 47 -800 110/07 RMK AO2 T00001100
14926KSTC STC20191115223510711/15/19 22:35:31  5-MIN KSTC 160435Z 11007KT 10SM OVC070 00/M09 A3025 730 49 -800 110/07 RMK AO2 T00001094
14926KSTC STC20191115224010711/15/19 22:40:31  5-MIN KSTC 160440Z 11007KT 10SM OVC070 00/M09 A3025 730 49 -800 110/07 RMK AO2 T00001094
14926KSTC STC20191115224510711/15/19 22:45:31  5-MIN KSTC 160445Z 12007KT 10SM OVC070 00/M09 A3025 730 49 -800 120/07 RMK AO2 T00001094
14926KSTC STC20191115225011411/15/19 22:50:31  5-MIN KSTC 160450Z 12006KT 10SM OVC075 00/M09 A3025 730 49 -800 120/06 RMK AO2 SLP265 T00001094
14926KSTC STC20191115225511211/15/19 22:55:31  5-MIN KSTC 160455Z AUTO 12007KT 10SM BKN075 00/M09 A3025 730 49 -800 120/07 RMK AO2 T00001094
14926KSTC STC20191115230011211/15/19 23:00:31  5-MIN KSTC 160500Z AUTO 12007KT 10SM BKN075 00/M09 A3025 730 51 -800 120/07 RMK AO2 T00001089
14926KSTC STC20191115230511211/15/19 23:05:31  5-MIN KSTC 160505Z AUTO 12006KT 10SM BKN075 00/M09 A3024 740 51 -800 120/06 RMK AO2 T00001089
14926KSTC STC20191115231011211/15/19 23:10:31  5-MIN KSTC 160510Z AUTO 11008KT 10SM BKN075 00/M09 A3024 740 51 -800 110/08 RMK AO2 T00001089
14926KSTC STC20191115231511311/15/19 23:15:31  5-MIN KSTC 160515Z AUTO 12007KT 10SM BKN075 M01/M09 A3024 740 53 -900 120/07 RMK AO2 T10061089
14926KSTC STC20191115232011311/15/19 23:20:31  5-MIN KSTC 160520Z AUTO 12006KT 10SM SCT075 M01/M09 A3024 740 53 -900 120/06 RMK AO2 T10061089
14926KSTC STC20191115232511311/15/19 23:25:31  5-MIN KSTC 160525Z AUTO 11006KT 10SM SCT075 M01/M09 A3024 740 53 -900 110/06 RMK AO2 T10061089
14926KSTC STC20191115233011311/15/19 23:30:31  5-MIN KSTC 160530Z AUTO 12007KT 10SM FEW075 M01/M09 A3024 740 53 -900 120/07 RMK AO2 T10061089
14926KSTC STC20191115233511311/15/19 23:35:31  5-MIN KSTC 160535Z AUTO 11007KT 10SM FEW075 M01/M08 A3023 750 56 -900 110/07 RMK AO2 T10061083
14926KSTC STC20191115234011011/15/19 23:40:31  5-MIN KSTC 160540Z AUTO 12008KT 10SM CLR M01/M08 A3023 750 56 -900 120/08 RMK AO2 T10061083
14926KSTC STC20191115234511011/15/19 23:45:31  5-MIN KSTC 160545Z AUTO 12008KT 10SM CLR M01/M08 A3023 750 56 -900 120/08 RMK AO2 T10061083
14926KSTC STC20191115235014411/15/19 23:50:31  5-MIN KSTC 160550Z AUTO 12009KT 10SM CLR 00/M08 A3023 750 56 -800 120/09 RMK AO2 SLP257 T00001078 10000 21006 400221039 58005
14926KSTC STC20191115235510911/15/19 23:55:31  5-MIN KSTC 160555Z AUTO 13008KT 10SM CLR 00/M08 A3022 750 56 -800 130/08 RMK AO2 T00001078
14926KSTC STC20191116000010911/16/19 00:00:31  5-MIN KSTC 160600Z AUTO 12007KT 10SM CLR 00/M08 A3022 750 56 -800 120/07 RMK AO2 T00001078
14926KSTC STC20191116000510911/16/19 00:05:31  5-MIN KSTC 160605Z AUTO 12007KT 10SM CLR 00/M07 A3022 750 58 -800 120/07 RMK AO2 T00001072
14926KSTC STC20191116001010911/16/19 00:10:31  5-MIN KSTC 160610Z AUTO 12007KT 10SM CLR 00/M07 A3022 760 58 -800 120/07 RMK AO2 T00001072
14926KSTC STC20191116001510911/16/19 00:15:31  5-MIN KSTC 160615Z AUTO 12008KT 10SM CLR 00/M07 A3022 760 58 -800 120/08 RMK AO2 T00001072
14926KSTC STC20191116002010911/16/19 00:20:31  5-MIN KSTC 160620Z AUTO 12006KT 10SM CLR 00/M07 A3021 760 61 -800 120/06 RMK AO2 T00001067
14926KSTC STC20191116002510911/16/19 00:25:31  5-MIN KSTC 160625Z AUTO 13009KT 10SM CLR 00/M07 A3021 760 61 -800 120/09 RMK AO2 T00001067
14926KSTC STC20191116003010911/16/19 00:30:31  5-MIN KSTC 160630Z AUTO 13008KT 10SM CLR 00/M07 A3021 770 61 -800 120/08 RMK AO2 T00001067
14926KSTC STC20191116003510911/16/19 00:35:31  5-MIN KSTC 160635Z AUTO 12009KT 10SM CLR 00/M07 A3021 770 61 -800 120/09 RMK AO2 T00001067
14926KSTC STC20191116004010911/16/19 00:40:31  5-MIN KSTC 160640Z AUTO 13008KT 10SM CLR 00/M06 A3021 770 63 -800 120/08 RMK AO2 T00001061
14926KSTC STC20191116004511511/16/19 00:45:31  5-MIN KSTC 160645Z AUTO 12007G16KT 10SM CLR 00/M06 A3021 770 63 -800 120/07G16 RMK AO2 T00001061
14926KSTC STC20191116005012211/16/19 00:50:31  5-MIN KSTC 160650Z AUTO 12008G16KT 10SM CLR 00/M06 A3021 770 63 -800 120/08G16 RMK AO2 SLP250 T00001061
14926KSTC STC20191116005510911/16/19 00:55:31  5-MIN KSTC 160655Z AUTO 12007KT 10SM CLR 00/M06 A3021 770 63 -800 120/07 RMK AO2 T00001061
14926KSTC STC20191116010010911/16/19 01:00:31  5-MIN KSTC 160700Z AUTO 12006KT 10SM CLR 00/M06 A3020 770 63 -800 120/06 RMK AO2 T00001061
14926KSTC STC20191116010510911/16/19 01:05:31  5-MIN KSTC 160705Z AUTO 13008KT 10SM CLR 00/M06 A3020 780 66 -800 120/08 RMK AO2 T00001056
14926KSTC STC20191116011011211/16/19 01:10:31  5-MIN KSTC 160710Z AUTO 13007KT 10SM FEW085 00/M06 A3020 780 66 -800 130/07 RMK AO2 T00001056
14926KSTC STC20191116011511211/16/19 01:15:31  5-MIN KSTC 160715Z AUTO 13009KT 10SM SCT085 00/M06 A3019 780 66 -800 130/09 RMK AO2 T00001056
14926KSTC STC20191116012011211/16/19 01:20:31  5-MIN KSTC 160720Z AUTO 12007KT 10SM BKN085 00/M06 A3019 780 66 -800 120/07 RMK AO2 T00001056
14926KSTC STC20191116012511211/16/19 01:25:31  5-MIN KSTC 160725Z AUTO 13009KT 10SM BKN085 00/M06 A3019 780 66 -800 130/09 RMK AO2 T00001056
14926KSTC STC20191116013011211/16/19 01:30:31  5-MIN KSTC 160730Z AUTO 13009KT 10SM BKN085 00/M06 A3019 790 66 -800 130/09 RMK AO2 T00001056
14926KSTC STC20191116013511211/16/19 01:35:31  5-MIN KSTC 160735Z AUTO 12007KT 10SM OVC085 00/M06 A3019 790 66 -800 120/07 RMK AO2 T00001056
14926KSTC STC20191116014011211/16/19 01:40:31  5-MIN KSTC 160740Z AUTO 12008KT 10SM OVC085 00/M05 A3019 790 69 -800 120/08 RMK AO2 T00001050
14926KSTC STC20191116014511211/16/19 01:45:31  5-MIN KSTC 160745Z AUTO 12008KT 10SM OVC085 00/M05 A3019 790 69 -800 120/08 RMK AO2 T00001050
14926KSTC STC20191116015011911/16/19 01:50:31  5-MIN KSTC 160750Z AUTO 12007KT 10SM OVC085 00/M05 A3018 790 69 -800 120/07 RMK AO2 SLP242 T00001050
14926KSTC STC20191116015511211/16/19 01:55:31  5-MIN KSTC 160755Z AUTO 12007KT 10SM OVC080 00/M05 A3018 790 69 -800 120/07 RMK AO2 T00001050
14926KSTC STC20191116020011211/16/19 02:00:31  5-MIN KSTC 160800Z AUTO 13007KT 10SM OVC080 00/M05 A3018 790 69 -800 120/07 RMK AO2 T00001050
14926KSTC STC20191116020511211/16/19 02:05:31  5-MIN KSTC 160805Z AUTO 13008KT 10SM OVC080 00/M05 A3018 790 69 -800 130/08 RMK AO2 T00001050
14926KSTC STC20191116021011211/16/19 02:10:31  5-MIN KSTC 160810Z AUTO 13009KT 10SM OVC080 00/M04 A3018 790 72 -800 130/09 RMK AO2 T00001044
14926KSTC STC20191116021511211/16/19 02:15:31  5-MIN KSTC 160815Z AUTO 13008KT 10SM OVC080 00/M04 A3018 800 72 -800 120/08 RMK AO2 T00001044
14926KSTC STC20191116022011211/16/19 02:20:31  5-MIN KSTC 160820Z AUTO 13009KT 10SM OVC080 00/M04 A3017 800 72 -700 130/09 RMK AO2 T00001044
14926KSTC STC20191116022511211/16/19 02:25:31  5-MIN KSTC 160825Z AUTO 12008KT 10SM OVC080 00/M04 A3017 800 72 -700 120/08 RMK AO2 T00001044
14926KSTC STC20191116023011211/16/19 02:30:31  5-MIN KSTC 160830Z AUTO 13008KT 10SM OVC080 00/M04 A3017 800 72 -700 120/08 RMK AO2 T00001044
14926KSTC STC20191116023511211/16/19 02:35:31  5-MIN KSTC 160835Z AUTO 12007KT 10SM OVC080 00/M04 A3017 800 72 -700 120/07 RMK AO2 T00001044
14926KSTC STC20191116024011211/16/19 02:40:31  5-MIN KSTC 160840Z AUTO 12007KT 10SM BKN080 00/M04 A3017 800 72 -700 120/07 RMK AO2 T00001044
14926KSTC STC20191116024511211/16/19 02:45:31  5-MIN KSTC 160845Z AUTO 12008KT 10SM SCT080 00/M04 A3016 810 72 -700 120/08 RMK AO2 T00001044
14926KSTC STC20191116025012611/16/19 02:50:31  5-MIN KSTC 160850Z AUTO 13009KT 10SM SCT075 M01/M04 A3016 810 78 -800 130/09 RMK AO2 SLP234 T10061039 58014
14926KSTC STC20191116025511311/16/19 02:55:31  5-MIN KSTC 160855Z AUTO 12009KT 10SM FEW075 M01/M04 A3016 810 78 -800 120/09 RMK AO2 T10061039
14926KSTC STC20191116030011311/16/19 03:00:31  5-MIN KSTC 160900Z AUTO 13009KT 10SM FEW075 M01/M04 A3016 820 78 -800 120/09 RMK AO2 T10061039
14926KSTC STC20191116030511011/16/19 03:05:31  5-MIN KSTC 160905Z AUTO 13009KT 10SM CLR M01/M04 A3015 820 78 -800 120/09 RMK AO2 T10061039
14926KSTC STC20191116031011011/16/19 03:10:31  5-MIN KSTC 160910Z AUTO 13009KT 10SM CLR M01/M04 A3015 820 78 -800 120/09 RMK AO2 T10061039
14926KSTC STC20191116031511011/16/19 03:15:31  5-MIN KSTC 160915Z AUTO 13009KT 10SM CLR M01/M03 A3015 820 81 -800 130/09 RMK AO2 T10061033
14926KSTC STC20191116032011011/16/19 03:20:31  5-MIN KSTC 160920Z AUTO 13008KT 10SM CLR M01/M03 A3015 830 81 -800 120/08 RMK AO2 T10061033
14926KSTC STC20191116032511011/16/19 03:25:31  5-MIN KSTC 160925Z AUTO 12008KT 10SM CLR M01/M03 A3014 830 81 -800 120/08 RMK AO2 T10061033
14926KSTC STC20191116033010011/16/19 03:30:31  5-MIN KSTC 160930Z AUTO 10SM CLR M01/M03 A3014 830 81 -800 M /M RMK AO2 T10061033
14926KSTC STC20191116033510011/16/19 03:35:31  5-MIN KSTC 160935Z AUTO 10SM CLR M01/M03 A3014 830 81 -800 M /M RMK AO2 T10061033
14926KSTC STC20191116034010011/16/19 03:40:31  5-MIN KSTC 160940Z AUTO 10SM CLR M01/M03 A3014 830 81 -800 M /M RMK AO2 T10061033
14926KSTC STC20191116034510011/16/19 03:45:31  5-MIN KSTC 160945Z AUTO 10SM CLR M01/M03 A3014 830 81 -800 M /M RMK AO2 T10061033
14926KSTC STC20191116035010711/16/19 03:50:31  5-MIN KSTC 160950Z AUTO 10SM CLR M01/M03 A3014 830 81 -800 M /M RMK AO2 SLP227 T10061033
14926KSTC STC20191116035510011/16/19 03:55:31  5-MIN KSTC 160955Z AUTO 10SM CLR M01/M03 A3014 830 81 -800 M /M RMK AO2 T10061033
14926KSTC STC20191116040010011/16/19 04:00:31  5-MIN KSTC 161000Z AUTO 10SM CLR M01/M03 A3014 830 81 -800 M /M RMK AO2 T10061033
14926KSTC STC20191116040511011/16/19 04:05:31  5-MIN KSTC 161005Z AUTO 13008KT 10SM CLR M01/M03 A3013 840 81 -800 130/08 RMK AO2 T10061033
14926KSTC STC20191116041011011/16/19 04:10:31  5-MIN KSTC 161010Z AUTO 13008KT 10SM CLR M01/M03 A3013 840 81 -800 130/08 RMK AO2 T10061033
14926KSTC STC20191116041511011/16/19 04:15:31  5-MIN KSTC 161015Z AUTO 13007KT 10SM CLR M01/M03 A3013 840 81 -800 130/07 RMK AO2 T10061033
14926KSTC STC20191116042011011/16/19 04:20:31  5-MIN KSTC 161020Z AUTO 13008KT 10SM CLR M01/M03 A3013 840 81 -800 130/08 RMK AO2 T10061033
14926KSTC STC20191116042511011/16/19 04:25:31  5-MIN KSTC 161025Z AUTO 13008KT 10SM CLR M01/M03 A3013 840 81 -800 130/08 RMK AO2 T10061033
14926KSTC STC20191116043010911/16/19 04:30:31  5-MIN KSTC 161030Z AUTO 13008KT 10SM CLR 00/M03 A3013 840 81 -700 130/08 RMK AO2 T00001028
14926KSTC STC20191116043510911/16/19 04:35:31  5-MIN KSTC 161035Z AUTO 13008KT 9SM CLR M01/M03 A3013 840 85 -800 130/08 RMK AO2 T10061028
14926KSTC STC20191116044010811/16/19 04:40:31  5-MIN KSTC 161040Z AUTO 13008KT 9SM CLR 00/M03 A3013 840 81 -700 130/08 RMK AO2 T00001028
14926KSTC STC20191116044510911/16/19 04:45:31  5-MIN KSTC 161045Z AUTO 14007KT 9SM CLR M01/M03 A3013 840 85 -800 140/07 RMK AO2 T10061028
14926KSTC STC20191116045011611/16/19 04:50:31  5-MIN KSTC 161050Z AUTO 14009KT 9SM CLR M01/M03 A3013 840 81 -800 140/09 RMK AO2 SLP223 T10061033
14926KSTC STC20191116045510911/16/19 04:55:31  5-MIN KSTC 161055Z AUTO 14008KT 9SM CLR M01/M03 A3013 840 85 -800 140/08 RMK AO2 T10111033
14926KSTC STC20191116050010911/16/19 05:00:31  5-MIN KSTC 161100Z AUTO 14008KT 9SM CLR M01/M03 A3013 840 85 -800 140/08 RMK AO2 T10111033
14926KSTC STC20191116050510911/16/19 05:05:31  5-MIN KSTC 161105Z AUTO 14007KT 9SM CLR M01/M03 A3013 840 85 -800 140/07 RMK AO2 T10111033
14926KSTC STC20191116051010911/16/19 05:10:31  5-MIN KSTC 161110Z AUTO 14007KT 9SM CLR M01/M03 A3013 840 85 -800 140/07 RMK AO2 T10111033
14926KSTC STC20191116051510911/16/19 05:15:31  5-MIN KSTC 161115Z AUTO 14008KT 9SM CLR M01/M03 A3012 850 85 -800 140/08 RMK AO2 T10111033
14926KSTC STC20191116052010911/16/19 05:20:31  5-MIN KSTC 161120Z AUTO 14009KT 9SM CLR M01/M03 A3013 840 81 -800 140/09 RMK AO2 T10061033
14926KSTC STC20191116052510911/16/19 05:25:31  5-MIN KSTC 161125Z AUTO 14010KT 9SM CLR M01/M03 A3013 840 85 -800 140/10 RMK AO2 T10061028
14926KSTC STC20191116053010911/16/19 05:30:31  5-MIN KSTC 161130Z AUTO 14010KT 9SM CLR M01/M03 A3012 850 85 -800 140/10 RMK AO2 T10061028
14926KSTC STC20191116053510911/16/19 05:35:31  5-MIN KSTC 161135Z AUTO 14009KT 9SM CLR M01/M03 A3012 850 85 -800 140/09 RMK AO2 T10061028
14926KSTC STC20191116054010911/16/19 05:40:31  5-MIN KSTC 161140Z AUTO 14009KT 9SM CLR M01/M03 A3012 850 85 -800 140/09 RMK AO2 T10061028
14926KSTC STC20191116054510911/16/19 05:45:31  5-MIN KSTC 161145Z AUTO 14009KT 9SM CLR M01/M03 A3012 850 85 -800 140/09 RMK AO2 T10061028
14926KSTC STC20191116055013411/16/19 05:50:31  5-MIN KSTC 161150Z AUTO 14010KT 9SM CLR M01/M03 A3012 850 85 -800 140/10 RMK AO2 SLP221 T10061028 10000 21011 58022
14926KSTC STC20191116055510811/16/19 05:55:31  5-MIN KSTC 161155Z AUTO 14010KT 9SM CLR 00/M03 A3012 850 81 -700 140/10 RMK AO2 T00001028
14926KSTC STC20191116060010811/16/19 06:00:31  5-MIN KSTC 161200Z AUTO 14010KT 9SM CLR 00/M03 A3012 850 81 -700 140/10 RMK AO2 T00001028
14926KSTC STC20191116060510811/16/19 06:05:31  5-MIN KSTC 161205Z AUTO 14009KT 9SM CLR 00/M03 A3011 850 81 -700 140/09 RMK AO2 T00001028
14926KSTC STC20191116061010811/16/19 06:10:31  5-MIN KSTC 161210Z AUTO 14010KT 9SM CLR 00/M03 A3011 860 81 -700 140/10 RMK AO2 T00001028
14926KSTC STC20191116061510911/16/19 06:15:31  5-MIN KSTC 161215Z AUTO 13011KT 10SM CLR 01/M03 A3011 860 78 -600 130/11 RMK AO2 T00061028
14926KSTC STC20191116062010911/16/19 06:20:31  5-MIN KSTC 161220Z AUTO 13011KT 10SM CLR 00/M03 A3011 860 81 -700 130/11 RMK AO2 T00001028
14926KSTC STC20191116062510911/16/19 06:25:31  5-MIN KSTC 161225Z AUTO 14010KT 10SM CLR 01/M03 A3011 860 78 -600 130/10 RMK AO2 T00061028
14926KSTC STC20191116063010911/16/19 06:30:31  5-MIN KSTC 161230Z AUTO 13011KT 10SM CLR 01/M03 A3011 860 78 -600 130/11 RMK AO2 T00061028
14926KSTC STC20191116063510911/16/19 06:35:31  5-MIN KSTC 161235Z AUTO 13010KT 10SM CLR 01/M03 A3011 860 78 -600 130/10 RMK AO2 T00061028
14926KSTC STC20191116064010911/16/19 06:40:31  5-MIN KSTC 161240Z AUTO 14011KT 10SM CLR 01/M02 A3010 860 82 -600 130/11 RMK AO2 T00061022
14926KSTC STC20191116064510911/16/19 06:45:31  5-MIN KSTC 161245Z AUTO 13013KT 10SM CLR 01/M02 A3010 860 82 -600 130/13 RMK AO2 T00061022
14926KSTC STC20191116065011111/16/19 06:50:31  5-MIN KSTC 161250Z 13011KT 10SM CLR 01/M02 A3010 860 78 -500 130/11 RMK AO2 SLP214 T00111022
14926KSTC STC20191116065510411/16/19 06:55:31  5-MIN KSTC 161255Z 14012KT 10SM CLR 01/M02 A3010 870 82 -600 140/12 RMK AO2 T00061022
14926KSTC STC20191116070010411/16/19 07:00:31  5-MIN KSTC 161300Z 13011KT 10SM CLR 01/M02 A3010 870 82 -600 130/11 RMK AO2 T00061022
14926KSTC STC20191116070510411/16/19 07:05:31  5-MIN KSTC 161305Z 13012KT 10SM CLR 01/M02 A3010 870 78 -500 130/12 RMK AO2 T00111022
14926KSTC STC20191116071010411/16/19 07:10:31  5-MIN KSTC 161310Z 13011KT 10SM CLR 01/M03 A3010 870 75 -500 130/11 RMK AO2 T00111028
14926KSTC STC20191116071510411/16/19 07:15:31  5-MIN KSTC 161315Z 14011KT 10SM CLR 01/M03 A3010 870 75 -500 140/11 RMK AO2 T00111028
14926KSTC STC20191116072010411/16/19 07:20:31  5-MIN KSTC 161320Z 14010KT 10SM CLR 01/M03 A3010 870 75 -500 140/10 RMK AO2 T00111028
14926KSTC STC20191116072510411/16/19 07:25:31  5-MIN KSTC 161325Z 13010KT 10SM CLR 01/M02 A3010 870 78 -500 130/10 RMK AO2 T00111022
14926KSTC STC20191116073010411/16/19 07:30:31  5-MIN KSTC 161330Z 14012KT 10SM CLR 01/M03 A3009 880 75 -500 140/12 RMK AO2 T00111028
14926KSTC STC20191116073510711/16/19 07:35:31  5-MIN KSTC 161335Z 14011KT 10SM FEW120 01/M03 A3009 880 75 -500 140/11 RMK AO2 T00111028
14926KSTC STC20191116074010711/16/19 07:40:31  5-MIN KSTC 161340Z 14012KT 10SM FEW120 02/M03 A3009 880 72 -400 130/12 RMK AO2 T00171028
14926KSTC STC20191116074510711/16/19 07:45:31  5-MIN KSTC 161345Z 14012KT 10SM SCT120 02/M03 A3009 880 72 -400 140/12 RMK AO2 T00171028
14926KSTC STC20191116075012011/16/19 07:50:31  5-MIN KSTC 161350Z 16015G21KT 10SM BKN110 02/M03 A3009 880 72 -400 160/15G21 RMK AO2 SLP209 T00171028
14926KSTC STC20191116075511311/16/19 07:55:31  5-MIN KSTC 161355Z 15015G24KT 10SM BKN110 02/M03 A3009 880 67 -400 150/15G24 RMK AO2 T00221033
14926KSTC STC20191116080011311/16/19 08:00:31  5-MIN KSTC 161400Z 15014G24KT 10SM BKN110 02/M03 A3009 880 67 -400 150/14G24 RMK AO2 T00221033
14926KSTC STC20191116080510711/16/19 08:05:31  5-MIN KSTC 161405Z 15014KT 10SM BKN110 02/M03 A3009 880 67 -400 150/14 RMK AO2 T00221033
14926KSTC STC20191116081010711/16/19 08:10:31  5-MIN KSTC 161410Z 15014KT 10SM BKN110 02/M03 A3009 880 67 -400 150/14 RMK AO2 T00221033
14926KSTC STC20191116081511311/16/19 08:15:31  5-MIN KSTC 161415Z 16013G21KT 10SM SCT110 02/M03 A3009 880 67 -400 150/13G21 RMK AO2 T00221033
14926KSTC STC20191116082010711/16/19 08:20:31  5-MIN KSTC 161420Z 16013KT 10SM SCT110 03/M03 A3009 880 64 -300 160/13 RMK AO2 T00281033
14926KSTC STC20191116082513111/16/19 08:25:31  5-MIN KSTC 161425Z 17017G26KT 10SM FEW120 03/M04 A3009 880 61 -300 160/17G26 RMK AO2 PK WND 17026/1425 T00281039
14926KSTC STC20191116083013111/16/19 08:30:31  5-MIN KSTC 161430Z 16018G26KT 10SM FEW120 03/M04 A3009 880 61 -300 160/18G26 RMK AO2 PK WND 17026/1425 T00281039
14926KSTC STC20191116083512811/16/19 08:35:31  5-MIN KSTC 161435Z 16017G25KT 10SM CLR 03/M04 A3009 880 61 -300 160/17G25 RMK AO2 PK WND 17026/1425 T00281039
14926KSTC STC20191116084013111/16/19 08:40:31  5-MIN KSTC 161440Z 16019G28KT 10SM FEW120 03/M04 A3008 880 61 -300 160/19G28 RMK AO2 PK WND 16028/1440 T00281039
14926KSTC STC20191116084513111/16/19 08:45:31  5-MIN KSTC 161445Z 16018G28KT 10SM FEW120 03/M04 A3008 880 61 -300 160/18G28 RMK AO2 PK WND 16028/1440 T00281039
14926KSTC STC20191116085014111/16/19 08:50:31  5-MIN KSTC 161450Z 16017G27KT 10SM CLR 03/M04 A3008 880 61 -300 160/17G27 RMK AO2 PK WND 16028/1440 SLP207 T00281039 56014
14926KSTC STC20191116085511011/16/19 08:55:31  5-MIN KSTC 161455Z 16015G24KT 10SM CLR 03/M04 A3008 880 61 -300 160/15G24 RMK AO2 T00281039
14926KSTC STC20191116090011011/16/19 09:00:31  5-MIN KSTC 161500Z 16017G25KT 10SM CLR 03/M04 A3008 890 61 -300 160/17G25 RMK AO2 T00281039
14926KSTC STC20191116090511011/16/19 09:05:31  5-MIN KSTC 161505Z 16015G25KT 10SM CLR 03/M04 A3008 880 59 -200 160/15G25 RMK AO2 T00331039
14926KSTC STC20191116091011011/16/19 09:10:31  5-MIN KSTC 161510Z 16016G24KT 10SM CLR 03/M04 A3009 880 59 -200 160/16G24 RMK AO2 T00331039
14926KSTC STC20191116091511011/16/19 09:15:31  5-MIN KSTC 161515Z 16015G25KT 10SM CLR 03/M04 A3009 880 59 -200 160/15G25 RMK AO2 T00331039
14926KSTC STC20191116092012811/16/19 09:20:31  5-MIN KSTC 161520Z 16017G26KT 10SM CLR 03/M04 A3008 880 59 -200 160/17G26 RMK AO2 PK WND 16026/1519 T00331039
14926KSTC STC20191116100512811/16/19 10:05:31  5-MIN KSTC 161605Z 17016G29KT 10SM CLR 04/M04 A3007 890 54 -100 160/16G29 RMK AO2 PK WND 17029/1559 T00391044
14926KSTC STC20191116101012811/16/19 10:10:31  5-MIN KSTC 161610Z 17016G24KT 10SM CLR 04/M04 A3007 890 52 -100 170/16G24 RMK AO2 PK WND 17029/1559 T00441044
14926KSTC STC20191116101512811/16/19 10:15:31  5-MIN KSTC 161615Z 17016G23KT 10SM CLR 04/M04 A3007 890 52 -100 160/16G23 RMK AO2 PK WND 17029/1559 T00441044
14926KSTC STC20191116102012811/16/19 10:20:31  5-MIN KSTC 161620Z 17018G27KT 10SM CLR 04/M04 A3007 890 52 -100 170/18G27 RMK AO2 PK WND 17029/1559 T00441044
14926KSTC STC20191116102512811/16/19 10:25:31  5-MIN KSTC 161625Z 16012G27KT 10SM CLR 04/M04 A3007 890 52 -100 160/12G27 RMK AO2 PK WND 17029/1559 T00441044
14926KSTC STC20191116103012511/16/19 10:30:31  5-MIN KSTC 161630Z 16014G25KT 10SM CLR 05/M04 A3007 890 50 0 160/14G25 RMK AO2 PK WND 17029/1559 T00501044
14926KSTC STC20191116103512511/16/19 10:35:31  5-MIN KSTC 161635Z 17017G24KT 10SM CLR 05/M04 A3007 890 50 0 170/17G24 RMK AO2 PK WND 17029/1559 T00501044
14926KSTC STC20191116104012511/16/19 10:40:31  5-MIN KSTC 161640Z 16015G24KT 10SM CLR 05/M04 A3007 890 50 0 160/15G24 RMK AO2 PK WND 17029/1559 T00501044
14926KSTC STC20191116104512511/16/19 10:45:31  5-MIN KSTC 161645Z 16017G26KT 10SM CLR 05/M05 A3007 900 48 0 160/17G26 RMK AO2 PK WND 17029/1559 T00501050
14926KSTC STC20191116105013211/16/19 10:50:31  5-MIN KSTC 161650Z 17016G26KT 10SM CLR 05/M05 A3007 900 48 0 170/16G26 RMK AO2 PK WND 17029/1559 SLP201 T00501050
14926KSTC STC20191116105510711/16/19 10:55:31  5-MIN KSTC 161655Z 17018G25KT 10SM CLR 06/M05 A3007 900 46 0 170/18G25 RMK AO2 T00561050
14926KSTC STC20191116110010911/16/19 11:00:31  5-MIN KSTC 161700Z 16014G25KT 10SM CLR 06/M05 A3007 900 45 100 160/14G25 RMK AO2 T00611050
14926KSTC STC20191116110510911/16/19 11:05:31  5-MIN KSTC 161705Z 16015G23KT 10SM CLR 06/M05 A3006 900 45 100 160/15G23 RMK AO2 T00611050
14926KSTC STC20191116111010911/16/19 11:10:31  5-MIN KSTC 161710Z 16016G23KT 10SM CLR 06/M04 A3006 910 46 100 160/16G23 RMK AO2 T00611044
14926KSTC STC20191116111510911/16/19 11:15:31  5-MIN KSTC 161715Z 16016G25KT 10SM CLR 06/M05 A3005 910 45 100 160/16G25 RMK AO2 T00611050
14926KSTC STC20191116112010911/16/19 11:20:31  5-MIN KSTC 161720Z 16018G25KT 10SM CLR 06/M05 A3005 910 45 100 160/18G25 RMK AO2 T00611050
14926KSTC STC20191116112511211/16/19 11:25:31  5-MIN KSTC 161725Z 16016G25KT 10SM FEW120 07/M04 A3005 920 45 200 160/16G25 RMK AO2 T00671044
14926KSTC STC20191116113013011/16/19 11:30:31  5-MIN KSTC 161730Z 16018G28KT 10SM FEW120 07/M04 A3004 920 43 200 160/18G28 RMK AO2 PK WND 18028/1726 T00721044
14926KSTC STC20191116113512711/16/19 11:35:31  5-MIN KSTC 161735Z 17018G28KT 10SM CLR 07/M05 A3004 920 43 200 170/18G28 RMK AO2 PK WND 18028/1726 T00671050
14926KSTC STC20191116114012711/16/19 11:40:31  5-MIN KSTC 161740Z 16019G27KT 10SM CLR 06/M05 A3004 930 45 100 160/19G27 RMK AO2 PK WND 18028/1726 T00611050
14926KSTC STC20191116114512711/16/19 11:45:31  5-MIN KSTC 161745Z 16017G28KT 10SM CLR 06/M05 A3003 930 45 100 160/17G28 RMK AO2 PK WND 15028/1741 T00611050
14926KSTC STC20191116115015211/16/19 11:50:31  5-MIN KSTC 161750Z 16018G28KT 10SM CLR 06/M05 A3003 930 45 100 160/18G28 RMK AO2 PK WND 15028/1741 SLP186 T00611050 10072 20000 56011
14926KSTC STC20191116115510911/16/19 11:55:31  5-MIN KSTC 161755Z 16018G25KT 10SM CLR 07/M05 A3003 940 43 200 160/18G25 RMK AO2 T00671050
14926KSTC STC20191116120012711/16/19 12:00:31  5-MIN KSTC 161800Z 17019G28KT 10SM CLR 07/M06 A3002 940 41 200 170/19G28 RMK AO2 PK WND 17028/1758 T00671056
14926KSTC STC20191116120512711/16/19 12:05:31  5-MIN KSTC 161805Z 16020G29KT 10SM CLR 07/M06 A3001 950 41 200 160/20G29 RMK AO2 PK WND 16029/1805 T00671056
14926KSTC STC20191116121012711/16/19 12:10:31  5-MIN KSTC 161810Z 16020G30KT 10SM CLR 06/M06 A3001 950 43 100 160/20G30 RMK AO2 PK WND 15030/1808 T00611056
14926KSTC STC20191116121512711/16/19 12:15:31  5-MIN KSTC 161815Z 16018G30KT 10SM CLR 07/M06 A3001 950 41 200 160/18G30 RMK AO2 PK WND 15030/1808 T00671056
14926KSTC STC20191116122012711/16/19 12:20:31  5-MIN KSTC 161820Z 16019G28KT 10SM CLR 07/M06 A3001 950 41 200 160/19G28 RMK AO2 PK WND 15030/1808 T00671056
14926KSTC STC20191116122512711/16/19 12:25:31  5-MIN KSTC 161825Z 17016G25KT 10SM CLR 07/M05 A3001 950 43 200 160/16G25 RMK AO2 PK WND 15030/1808 T00671050
14926KSTC STC20191116123012711/16/19 12:30:31  5-MIN KSTC 161830Z 17015G23KT 10SM CLR 07/M05 A3001 950 43 200 170/15G23 RMK AO2 PK WND 15030/1808 T00671050
14926KSTC STC20191116123512711/16/19 12:35:31  5-MIN KSTC 161835Z 17018G23KT 10SM CLR 07/M05 A3000 960 41 300 170/18G23 RMK AO2 PK WND 15030/1808 T00721050
14926KSTC STC20191116124012711/16/19 12:40:31  5-MIN KSTC 161840Z 16022G28KT 10SM CLR 07/M05 A3000 960 43 200 160/22G28 RMK AO2 PK WND 15030/1808 T00671050
14926KSTC STC20191116124512711/16/19 12:45:31  5-MIN KSTC 161845Z 17020G28KT 10SM CLR 07/M05 A3000 960 43 200 170/20G28 RMK AO2 PK WND 15030/1808 T00671050
14926KSTC STC20191116125013411/16/19 12:50:31  5-MIN KSTC 161850Z 17017G27KT 10SM CLR 07/M05 A3000 960 43 200 160/17G27 RMK AO2 PK WND 15030/1808 SLP176 T00671050
14926KSTC STC20191116125510911/16/19 12:55:31  5-MIN KSTC 161855Z 16018G27KT 10SM CLR 07/M05 A3000 960 43 200 160/18G27 RMK AO2 T00671050
14926KSTC STC20191116130012711/16/19 13:00:31  5-MIN KSTC 161900Z 16018G27KT 10SM CLR 07/M05 A2999 970 43 200 160/18G27 RMK AO2 PK WND 17026/1858 T00671050
14926KSTC STC20191116130512711/16/19 13:05:31  5-MIN KSTC 161905Z 16021G29KT 10SM CLR 07/M05 A2999 970 41 300 160/21G29 RMK AO2 PK WND 16029/1904 T00721050
14926KSTC STC20191116131012711/16/19 13:10:31  5-MIN KSTC 161910Z 17018G29KT 10SM CLR 07/M05 A2998 980 41 300 170/18G29 RMK AO2 PK WND 16029/1904 T00721050
14926KSTC STC20191116131513411/16/19 13:15:31  5-MIN KSTC 161915Z 17015G25KT 10SM CLR 07/M05 A2997 980 41 300 170/15G25 RMK AO2 PK WND 16029/1904 PRESFR T00721050
14926KSTC STC20191116132012711/16/19 13:20:31  5-MIN KSTC 161920Z 17017G27KT 10SM CLR 08/M05 A2998 980 40 400 170/17G27 RMK AO2 PK WND 16029/1904 T00781050
14926KSTC STC20191116132512711/16/19 13:25:31  5-MIN KSTC 161925Z 17018G27KT 10SM CLR 08/M05 A2998 980 40 400 170/18G27 RMK AO2 PK WND 16029/1904 T00781050
14926KSTC STC20191116133012711/16/19 13:30:31  5-MIN KSTC 161930Z 17015G27KT 10SM CLR 08/M04 A2998 980 41 400 170/15G27 RMK AO2 PK WND 16029/1904 T00781044
14926KSTC STC20191116133512711/16/19 13:35:31  5-MIN KSTC 161935Z 17017G25KT 10SM CLR 07/M04 A2997 980 43 300 160/17G25 RMK AO2 PK WND 16029/1904 T00721044
14926KSTC STC20191116134012711/16/19 13:40:31  5-MIN KSTC 161940Z 17015G25KT 10SM CLR 07/M04 A2997 990 43 300 170/15G25 RMK AO2 PK WND 16029/1904 T00721044
14926KSTC STC20191116134512711/16/19 13:45:31  5-MIN KSTC 161945Z 17016G25KT 10SM CLR 08/M04 A2998 980 41 400 160/16G25 RMK AO2 PK WND 16029/1904 T00781044
14926KSTC STC20191116135013411/16/19 13:50:31  5-MIN KSTC 161950Z 17014G25KT 10SM CLR 08/M04 A2997 980 41 400 160/14G25 RMK AO2 PK WND 16029/1904 SLP168 T00781044
14926KSTC STC20191116135510911/16/19 13:55:31  5-MIN KSTC 161955Z 16015G23KT 10SM CLR 08/M04 A2997 980 41 400 160/15G23 RMK AO2 T00781044
14926KSTC STC20191116140010911/16/19 14:00:31  5-MIN KSTC 162000Z 17015G23KT 10SM CLR 08/M04 A2997 980 41 400 160/15G23 RMK AO2 T00781044
14926KSTC STC20191116140510911/16/19 14:05:31  5-MIN KSTC 162005Z 17013G23KT 10SM CLR 08/M04 A2997 990 41 400 170/13G23 RMK AO2 T00781044
14926KSTC STC20191116141010911/16/19 14:10:31  5-MIN KSTC 162010Z 16014G23KT 10SM CLR 08/M04 A2997 990 43 400 160/14G23 RMK AO2 T00781039
14926KSTC STC20191116141510911/16/19 14:15:31  5-MIN KSTC 162015Z 16015G22KT 10SM CLR 08/M04 A2997 990 41 400 150/15G22 RMK AO2 T00781044
14926KSTC STC20191116142010911/16/19 14:20:31  5-MIN KSTC 162020Z 18018G23KT 10SM CLR 08/M04 A2997 990 41 400 170/18G23 RMK AO2 T00781044
14926KSTC STC20191116142510911/16/19 14:25:31  5-MIN KSTC 162025Z 17017G25KT 10SM CLR 07/M04 A2997 990 43 300 170/17G25 RMK AO2 T00721044
14926KSTC STC20191116143010911/16/19 14:30:31  5-MIN KSTC 162030Z 17017G25KT 10SM CLR 07/M04 A2997 990 43 300 170/17G25 RMK AO2 T00721044
14926KSTC STC20191116143510311/16/19 14:35:31  5-MIN KSTC 162035Z 17017KT 10SM CLR 07/M04 A2997 990 43 300 170/17 RMK AO2 T00721044
14926KSTC STC20191116144010311/16/19 14:40:31  5-MIN KSTC 162040Z 18015KT 10SM CLR 07/M04 A2997 990 43 300 170/15 RMK AO2 T00721044
14926KSTC STC20191116144510311/16/19 14:45:31  5-MIN KSTC 162045Z 17015KT 10SM CLR 07/M04 A2997 990 45 300 170/15 RMK AO2 T00721039
14926KSTC STC20191116145012311/16/19 14:50:31  5-MIN KSTC 162050Z 17010G21KT 10SM CLR 07/M04 A2996 1000 45 300 160/10G21 RMK AO2 SLP164 T00721039 58018
14926KSTC STC20191116145511011/16/19 14:55:31  5-MIN KSTC 162055Z 16015G21KT 10SM CLR 07/M04 A2996 1000 47 300 160/15G21 RMK AO2 T00671039
14926KSTC STC20191116150011011/16/19 15:00:31  5-MIN KSTC 162100Z 17014G21KT 10SM CLR 07/M04 A2996 1000 47 300 170/14G21 RMK AO2 T00671039
14926KSTC STC20191116150511011/16/19 15:05:31  5-MIN KSTC 162105Z 16012G21KT 10SM CLR 07/M04 A2996 1000 47 300 160/12G21 RMK AO2 T00671039
14926KSTC STC20191116151011011/16/19 15:10:31  5-MIN KSTC 162110Z 16013G21KT 10SM CLR 07/M04 A2996 1000 47 300 160/13G21 RMK AO2 T00671039
14926KSTC STC20191116151511011/16/19 15:15:31  5-MIN KSTC 162115Z 16016G22KT 10SM CLR 07/M04 A2996 1000 47 300 160/16G22 RMK AO2 T00671039
14926KSTC STC20191116152011011/16/19 15:20:31  5-MIN KSTC 162120Z 16018G24KT 10SM CLR 07/M03 A2996 1000 49 300 160/18G24 RMK AO2 T00671033
14926KSTC STC20191116152511011/16/19 15:25:31  5-MIN KSTC 162125Z 17013G24KT 10SM CLR 07/M03 A2996 1000 49 300 170/13G24 RMK AO2 T00671033
14926KSTC STC20191116153010411/16/19 15:30:31  5-MIN KSTC 162130Z 17015KT 10SM CLR 06/M03 A2996 1000 51 200 170/15 RMK AO2 T00611033
14926KSTC STC20191116153511011/16/19 15:35:31  5-MIN KSTC 162135Z 17013G21KT 10SM CLR 06/M03 A2996 1000 51 200 170/13G21 RMK AO2 T00611033
14926KSTC STC20191116154010411/16/19 15:40:31  5-MIN KSTC 162140Z 16013KT 10SM CLR 06/M03 A2996 1000 51 200 160/13 RMK AO2 T00611033
14926KSTC STC20191116154510411/16/19 15:45:31  5-MIN KSTC 162145Z 16012KT 10SM CLR 06/M03 A2996 1000 51 200 160/12 RMK AO2 T00611033
14926KSTC STC20191116155011111/16/19 15:50:31  5-MIN KSTC 162150Z 16012KT 10SM CLR 06/M03 A2996 1000 51 200 160/12 RMK AO2 SLP163 T00611033
14926KSTC STC20191116155510411/16/19 15:55:31  5-MIN KSTC 162155Z 16013KT 10SM CLR 06/M03 A2996 1000 51 200 160/13 RMK AO2 T00611033
14926KSTC STC20191116160010411/16/19 16:00:31  5-MIN KSTC 162200Z 16012KT 10SM CLR 06/M03 A2995 1000 51 200 160/12 RMK AO2 T00611033
14926KSTC STC20191116160510411/16/19 16:05:31  5-MIN KSTC 162205Z 16013KT 10SM CLR 06/M03 A2995 1000 53 200 160/13 RMK AO2 T00611028
14926KSTC STC20191116161010411/16/19 16:10:31  5-MIN KSTC 162210Z 16011KT 10SM CLR 06/M03 A2995 1000 53 200 160/11 RMK AO2 T00611028
14926KSTC STC20191116161510411/16/19 16:15:31  5-MIN KSTC 162215Z 16012KT 10SM CLR 06/M03 A2995 1000 55 100 160/12 RMK AO2 T00561028
14926KSTC STC20191116162010411/16/19 16:20:31  5-MIN KSTC 162220Z 16010KT 10SM CLR 06/M03 A2995 1000 55 100 160/10 RMK AO2 T00561028
14926KSTC STC20191116162510411/16/19 16:25:31  5-MIN KSTC 162225Z 16010KT 10SM CLR 06/M03 A2996 1000 55 100 160/10 RMK AO2 T00561028
14926KSTC STC20191116163010311/16/19 16:30:31  5-MIN KSTC 162230Z 16008KT 10SM CLR 06/M03 A2996 990 55 100 160/08 RMK AO2 T00561028
14926KSTC STC20191116163510311/16/19 16:35:31  5-MIN KSTC 162235Z 16007KT 10SM CLR 06/M03 A2996 990 55 100 160/07 RMK AO2 T00561028
14926KSTC STC20191116164010411/16/19 16:40:31  5-MIN KSTC 162240Z 16008KT 10SM CLR 05/M03 A2996 1000 57 100 160/08 RMK AO2 T00501028
14926KSTC STC20191116164510411/16/19 16:45:31  5-MIN KSTC 162245Z 16009KT 10SM CLR 05/M03 A2996 1000 57 100 150/09 RMK AO2 T00501028
14926KSTC STC20191116165011111/16/19 16:50:31  5-MIN KSTC 162250Z 16009KT 10SM CLR 05/M03 A2996 1000 57 100 160/09 RMK AO2 SLP163 T00501028
14926KSTC STC20191116165510411/16/19 16:55:31  5-MIN KSTC 162255Z 15008KT 10SM CLR 05/M03 A2996 1000 57 100 150/08 RMK AO2 T00501028
14926KSTC STC20191116170010211/16/19 17:00:31  5-MIN KSTC 162300Z 15008KT 10SM CLR 04/M03 A2996 1000 59 0 150/08 RMK AO2 T00441028
14926KSTC STC20191116170510211/16/19 17:05:31  5-MIN KSTC 162305Z 15009KT 10SM CLR 04/M03 A2996 1000 59 0 150/09 RMK AO2 T00441028
14926KSTC STC20191116171010111/16/19 17:10:31  5-MIN KSTC 162310Z 15008KT 10SM CLR 04/M03 A2996 990 59 0 150/08 RMK AO2 T00441028
14926KSTC STC20191116171510111/16/19 17:15:31  5-MIN KSTC 162315Z 15009KT 10SM CLR 04/M03 A2996 990 59 0 150/09 RMK AO2 T00441028
14926KSTC STC20191116172010111/16/19 17:20:31  5-MIN KSTC 162320Z 15007KT 10SM CLR 04/M03 A2996 990 62 0 150/07 RMK AO2 T00391028
14926KSTC STC20191116172510111/16/19 17:25:31  5-MIN KSTC 162325Z 15010KT 10SM CLR 04/M03 A2996 990 62 0 150/10 RMK AO2 T00391028
14926KSTC STC20191116173010111/16/19 17:30:31  5-MIN KSTC 162330Z 16009KT 10SM CLR 04/M02 A2996 990 62 0 160/09 RMK AO2 T00441022
14926KSTC STC20191116173510111/16/19 17:35:31  5-MIN KSTC 162335Z 16010KT 10SM CLR 04/M02 A2996 990 62 0 160/10 RMK AO2 T00441022
14926KSTC STC20191116174010111/16/19 17:40:31  5-MIN KSTC 162340Z 16009KT 10SM CLR 04/M02 A2996 990 62 0 160/09 RMK AO2 T00441022
14926KSTC STC20191116174510411/16/19 17:45:31  5-MIN KSTC 162345Z 16009KT 10SM FEW120 04/M02 A2997 990 62 0 160/09 RMK AO2 T00441022
14926KSTC STC20191116175012911/16/19 17:50:31  5-MIN KSTC 162350Z 16010KT 10SM FEW120 04/M02 A2997 990 62 0 160/10 RMK AO2 SLP166 T00441022 10078 20039 56023
14926KSTC STC20191116175510411/16/19 17:55:31  5-MIN KSTC 162355Z 15010KT 10SM SCT120 04/M02 A2997 990 62 0 150/10 RMK AO2 T00441022
14926KSTC STC20191116180010411/16/19 18:00:31  5-MIN KSTC 170000Z 16009KT 10SM FEW120 04/M02 A2997 990 62 0 160/09 RMK AO2 T00441022
14926KSTC STC20191116180510411/16/19 18:05:31  5-MIN KSTC 170005Z 16009KT 10SM FEW120 04/M02 A2997 990 64 0 160/09 RMK AO2 T00441017
14926KSTC STC20191116181010411/16/19 18:10:31  5-MIN KSTC 170010Z 16009KT 10SM SCT120 04/M02 A2997 990 64 0 160/09 RMK AO2 T00441017
14926KSTC STC20191116181510411/16/19 18:15:31  5-MIN KSTC 170015Z 16010KT 10SM BKN120 04/M02 A2997 990 64 0 160/10 RMK AO2 T00441017
14926KSTC STC20191116182010411/16/19 18:20:31  5-MIN KSTC 170020Z 16010KT 10SM BKN110 04/M02 A2997 990 64 0 160/10 RMK AO2 T00441017
14926KSTC STC20191116182510411/16/19 18:25:31  5-MIN KSTC 170025Z 16010KT 10SM BKN110 04/M02 A2997 990 64 0 160/10 RMK AO2 T00441017
14926KSTC STC20191116183010411/16/19 18:30:31  5-MIN KSTC 170030Z 16009KT 10SM OVC110 04/M02 A2997 990 64 0 160/09 RMK AO2 T00441017
14926KSTC STC20191116183510411/16/19 18:35:31  5-MIN KSTC 170035Z 16009KT 10SM BKN110 04/M02 A2997 990 64 0 160/09 RMK AO2 T00441017
14926KSTC STC20191116184010411/16/19 18:40:31  5-MIN KSTC 170040Z 16010KT 10SM BKN110 04/M02 A2997 990 64 0 160/10 RMK AO2 T00441017
14926KSTC STC20191116184510411/16/19 18:45:31  5-MIN KSTC 170045Z 16009KT 10SM OVC110 04/M02 A2997 990 64 0 160/09 RMK AO2 T00441017
14926KSTC STC20191116185011111/16/19 18:50:31  5-MIN KSTC 170050Z 16009KT 10SM OVC110 04/M01 A2997 990 67 0 160/09 RMK AO2 SLP167 T00441011
14926KSTC STC20191116185510411/16/19 18:55:31  5-MIN KSTC 170055Z 16009KT 10SM OVC110 04/M01 A2997 990 67 0 160/09 RMK AO2 T00441011
14926KSTC STC20191116190010411/16/19 19:00:31  5-MIN KSTC 170100Z 16009KT 10SM BKN110 04/M01 A2996 990 67 0 160/09 RMK AO2 T00441011
14926KSTC STC20191116190510411/16/19 19:05:31  5-MIN KSTC 170105Z 16010KT 10SM BKN110 04/M01 A2996 990 67 0 160/10 RMK AO2 T00441011
14926KSTC STC20191116191010411/16/19 19:10:31  5-MIN KSTC 170110Z 16010KT 10SM BKN110 04/M01 A2996 990 67 0 160/10 RMK AO2 T00441011
14926KSTC STC20191116191510411/16/19 19:15:31  5-MIN KSTC 170115Z 16010KT 10SM BKN110 04/M01 A2996 990 67 0 160/10 RMK AO2 T00441011
14926KSTC STC20191116192010511/16/19 19:20:31  5-MIN KSTC 170120Z 16010KT 10SM BKN110 04/M01 A2996 1000 67 0 160/10 RMK AO2 T00441011
14926KSTC STC20191116192510511/16/19 19:25:31  5-MIN KSTC 170125Z 16010KT 10SM OVC100 04/M01 A2996 1000 67 0 160/10 RMK AO2 T00441011
14926KSTC STC20191116193010511/16/19 19:30:31  5-MIN KSTC 170130Z 16011KT 10SM OVC110 04/M01 A2996 1000 67 0 160/11 RMK AO2 T00441011
14926KSTC STC20191116193510511/16/19 19:35:31  5-MIN KSTC 170135Z 17011KT 10SM OVC110 04/M01 A2996 1000 67 0 170/11 RMK AO2 T00441011
14926KSTC STC20191116194010511/16/19 19:40:31  5-MIN KSTC 170140Z 17009KT 10SM OVC110 04/M01 A2996 1000 67 0 160/09 RMK AO2 T00441011
14926KSTC STC20191116194510711/16/19 19:45:31  5-MIN KSTC 170145Z 17011KT 10SM OVC110 05/M01 A2996 1000 64 100 160/11 RMK AO2 T00501011
14926KSTC STC20191116195011211/16/19 19:50:31  5-MIN KSTC 170150Z 17013KT 10SM OVC110 04/M01 A2996 1000 67 0 170/13 RMK AO2 SLP162 T00441011
14926KSTC STC20191116195510711/16/19 19:55:31  5-MIN KSTC 170155Z 17011KT 10SM OVC110 05/M01 A2996 1000 64 100 170/11 RMK AO2 T00501011
14926KSTC STC20191116200010711/16/19 20:00:31  5-MIN KSTC 170200Z 17012KT 10SM OVC100 05/M01 A2995 1000 64 100 170/12 RMK AO2 T00501011
14926KSTC STC20191116200510511/16/19 20:05:31  5-MIN KSTC 170205Z 17011KT 10SM OVC100 04/M01 A2995 1000 67 0 170/11 RMK AO2 T00441011
14926KSTC STC20191116201010711/16/19 20:10:31  5-MIN KSTC 170210Z 17012KT 10SM OVC100 05/M01 A2995 1000 64 100 170/12 RMK AO2 T00501011
14926KSTC STC20191116201510511/16/19 20:15:31  5-MIN KSTC 170215Z 17010KT 10SM OVC100 04/M01 A2995 1000 67 0 170/10 RMK AO2 T00441011
14926KSTC STC20191116202010511/16/19 20:20:31  5-MIN KSTC 170220Z 17013KT 10SM OVC100 04/M01 A2995 1010 67 0 170/13 RMK AO2 T00441011
14926KSTC STC20191116202510511/16/19 20:25:31  5-MIN KSTC 170225Z 17010KT 10SM OVC100 04/M01 A2995 1000 67 0 170/10 RMK AO2 T00441011
14926KSTC STC20191116203010511/16/19 20:30:31  5-MIN KSTC 170230Z 18012KT 10SM OVC100 04/M01 A2995 1000 67 0 180/12 RMK AO2 T00441011
14926KSTC STC20191116203510511/16/19 20:35:31  5-MIN KSTC 170235Z 17011KT 10SM OVC100 04/M01 A2995 1000 67 0 170/11 RMK AO2 T00441011
14926KSTC STC20191116204010511/16/19 20:40:31  5-MIN KSTC 170240Z 17008KT 10SM OVC100 04/M01 A2995 1000 67 0 170/08 RMK AO2 T00441011
14926KSTC STC20191116204510511/16/19 20:45:31  5-MIN KSTC 170245Z 17009KT 10SM OVC100 04/M01 A2995 1000 67 0 170/09 RMK AO2 T00441011
14926KSTC STC20191116205011811/16/19 20:50:31  5-MIN KSTC 170250Z 18010KT 10SM OVC095 04/M01 A2995 1000 67 0 180/10 RMK AO2 SLP160 T00441011 53002
14926KSTC STC20191116205510511/16/19 20:55:31  5-MIN KSTC 170255Z 18010KT 10SM OVC095 04/M01 A2995 1000 67 0 180/10 RMK AO2 T00441011
14926KSTC STC20191116210010511/16/19 21:00:31  5-MIN KSTC 170300Z 17010KT 10SM OVC090 04/M01 A2995 1010 70 0 170/10 RMK AO2 T00441006
14926KSTC STC20191116210510511/16/19 21:05:31  5-MIN KSTC 170305Z 18011KT 10SM OVC090 04/M01 A2995 1010 70 0 170/11 RMK AO2 T00441006
14926KSTC STC20191116211011211/16/19 21:10:31  5-MIN KSTC 170310Z 18012KT 10SM BKN090 OVC100 04/M01 A2995 1010 70 0 180/12 RMK AO2 T00441006
14926KSTC STC20191116211510511/16/19 21:15:31  5-MIN KSTC 170315Z 17010KT 10SM OVC095 04/M01 A2995 1010 73 0 170/10 RMK AO2 T00391006
14926KSTC STC20191116212010511/16/19 21:20:31  5-MIN KSTC 170320Z 18010KT 10SM OVC095 04/M01 A2994 1010 73 0 180/10 RMK AO2 T00391006
14926KSTC STC20191116212510511/16/19 21:25:31  5-MIN KSTC 170325Z 18011KT 10SM OVC095 04/M01 A2994 1010 73 0 180/11 RMK AO2 T00391006
14926KSTC STC20191116213010511/16/19 21:30:31  5-MIN KSTC 170330Z 18009KT 10SM OVC095 04/M01 A2994 1010 73 0 180/09 RMK AO2 T00391006
14926KSTC STC20191116213511211/16/19 21:35:31  5-MIN KSTC 170335Z 17009KT 10SM SCT080 OVC100 04/M01 A2994 1010 73 0 170/09 RMK AO2 T00391006
14926KSTC STC20191116214011911/16/19 21:40:31  5-MIN KSTC 170340Z 18010KT 10SM SCT065 BKN080 OVC095 04/M01 A2994 1010 73 0 170/10 RMK AO2 T00391006
14926KSTC STC20191116214511211/16/19 21:45:31  5-MIN KSTC 170345Z 18010KT 10SM BKN070 OVC090 04/M01 A2994 1020 73 0 180/10 RMK AO2 T00391006
14926KSTC STC20191116215013411/16/19 21:50:31  5-MIN KSTC 170350Z 18009KT 9SM -RA BKN070 OVC090 04/M01 A2994 1020 73 0 180/09 RMK AO2 RAB49 SLP156 P0000 T00391006
14926KSTC STC20191116215512011/16/19 21:55:31  5-MIN KSTC 170355Z 18008KT 8SM -RA BKN060 OVC075 04/00 A2994 1020 76 0 180/08 RMK AO2 P0000 T00390000
14926KSTC STC20191116220012311/16/19 22:00:31  5-MIN KSTC 170400Z 18008KT 7SM -RA BKN060 OVC075 03/00 A2994 1020 79 -100 180/08 RMK AO2 P0000 T00330000
14926KSTC STC20191116220511611/16/19 22:05:31  5-MIN KSTC 170405Z 18008KT 7SM -RA OVC060 03/00 A2994 1010 79 -100 180/08 RMK AO2 P0001 T00330000
14926KSTC STC20191116221011611/16/19 22:10:31  5-MIN KSTC 170410Z 19007KT 6SM -RA OVC055 03/00 A2994 1010 79 -100 180/07 RMK AO2 P0001 T00330000
14926KSTC STC20191116221511611/16/19 22:15:31  5-MIN KSTC 170415Z 19008KT 6SM -RA OVC055 03/01 A2994 1010 82 -100 180/08 RMK AO2 P0002 T00330006
14926KSTC STC20191116222011611/16/19 22:20:31  5-MIN KSTC 170420Z 19007KT 5SM -RA OVC055 03/01 A2994 1010 82 -100 190/07 RMK AO2 P0002 T00330006
14926KSTC STC20191116222511911/16/19 22:25:31  5-MIN KSTC 170425Z 19006KT 5SM -RA BR OVC055 03/01 A2994 1010 85 -100 190/06 RMK AO2 P0002 T00280006
14926KSTC STC20191116223011911/16/19 22:30:31  5-MIN KSTC 170430Z 19006KT 6SM -RA BR OVC055 03/01 A2994 1020 85 -100 180/06 RMK AO2 P0003 T00280006
14926KSTC STC20191116223511911/16/19 22:35:31  5-MIN KSTC 170435Z 19006KT 6SM -RA BR OVC055 03/01 A2994 1020 85 -100 180/06 RMK AO2 P0003 T00280006
14926KSTC STC20191116224012611/16/19 22:40:31  5-MIN KSTC 170440Z 19006KT 6SM -RA BR FEW032 OVC055 03/01 A2994 1010 85 -100 190/06 RMK AO2 P0003 T00280006
14926KSTC STC20191116224512611/16/19 22:45:31  5-MIN KSTC 170445Z 18005KT 6SM -RA BR SCT032 OVC055 03/01 A2994 1020 85 -100 180/05 RMK AO2 P0003 T00280006
14926KSTC STC20191116225013311/16/19 22:50:31  5-MIN KSTC 170450Z 18006KT 6SM -RA BR BKN030 OVC055 03/01 A2993 1020 85 -100 180/06 RMK AO2 SLP154 P0003 T00280006
14926KSTC STC20191116225513111/16/19 22:55:31  5-MIN KSTC 170455Z AUTO 17007KT 5SM -RA BR BKN030 OVC055 03/01 A2993 1020 85 -100 170/07 RMK AO2 P0000 T00280006
14926KSTC STC20191116230013111/16/19 23:00:31  5-MIN KSTC 170500Z AUTO 18006KT 5SM -RA BR BKN030 OVC055 03/01 A2993 1020 89 -100 180/06 RMK AO2 P0000 T00280011
14926KSTC STC20191116230512411/16/19 23:05:31  5-MIN KSTC 170505Z AUTO 17006KT 5SM -RA BR OVC030 03/01 A2993 1020 89 -100 170/06 RMK AO2 P0000 T00280011
14926KSTC STC20191116231012411/16/19 23:10:31  5-MIN KSTC 170510Z AUTO 18006KT 5SM -RA BR OVC028 03/01 A2993 1020 89 -100 170/06 RMK AO2 P0000 T00280011
14926KSTC STC20191116231513111/16/19 23:15:31  5-MIN KSTC 170515Z AUTO 18006KT 5SM -RA BR BKN028 OVC037 02/01 A2993 1020 92 -200 180/06 RMK AO2 P0000 T00220011
14926KSTC STC20191116232013111/16/19 23:20:31  5-MIN KSTC 170520Z AUTO 17006KT 4SM -RA BR BKN028 OVC037 02/01 A2993 1020 92 -200 170/06 RMK AO2 P0001 T00220011
14926KSTC STC20191116232513111/16/19 23:25:31  5-MIN KSTC 170525Z AUTO 17006KT 4SM -RA BR BKN028 OVC038 02/01 A2993 1030 92 -200 170/06 RMK AO2 P0001 T00220011
14926KSTC STC20191116233013811/16/19 23:30:31  5-MIN KSTC 170530Z AUTO 17006KT 4SM -RA BR BKN028 BKN036 OVC048 02/01 A2992 1030 92 -200 170/06 RMK AO2 P0001 T00220011
14926KSTC STC20191116233513811/16/19 23:35:31  5-MIN KSTC 170535Z AUTO 17006KT 4SM -RA BR BKN028 BKN036 OVC048 02/01 A2993 1030 92 -200 170/06 RMK AO2 P0001 T00220011
14926KSTC STC20191116234013811/16/19 23:40:31  5-MIN KSTC 170540Z AUTO 18006KT 4SM -RA BR SCT028 BKN036 OVC050 02/01 A2993 1030 92 -200 180/06 RMK AO2 P0001 T00220011
14926KSTC STC20191116234513811/16/19 23:45:31  5-MIN KSTC 170545Z AUTO 18005KT 4SM -RA BR SCT026 BKN031 OVC050 02/01 A2993 1030 92 -200 180/05 RMK AO2 P0002 T00220011
14926KSTC STC20191116235017911/16/19 23:50:31  5-MIN KSTC 170550Z AUTO 17006KT 4SM -RA BR SCT024 BKN031 OVC050 02/01 A2992 1030 92 -200 170/06 RMK AO2 SLP150 P0002 60006 T00220011 10050 20022 400781011 58004
14926KSTC STC20191116235513811/16/19 23:55:31  5-MIN KSTC 170555Z AUTO 17007KT 4SM -RA BR BKN026 BKN042 OVC050 02/01 A2992 1030 92 -200 170/07 RMK AO2 P0001 T00220011
14926KSTC STC20191117000013811/17/19 00:00:31  5-MIN KSTC 170600Z AUTO 17008KT 3SM -RA BR BKN026 BKN039 OVC048 02/01 A2992 1030 92 -200 170/08 RMK AO2 P0001 T00220011
14926KSTC STC20191117000513811/17/19 00:05:31  5-MIN KSTC 170605Z AUTO 18007KT 3SM -RA BR SCT024 BKN029 OVC045 02/01 A2992 1030 92 -200 170/07 RMK AO2 P0001 T00220011
14926KSTC STC20191117001013811/17/19 00:10:31  5-MIN KSTC 170610Z AUTO 17007KT 3SM -RA BR BKN022 BKN029 OVC047 02/01 A2992 1030 92 -200 170/07 RMK AO2 P0001 T00220011
14926KSTC STC20191117001513811/17/19 00:15:31  5-MIN KSTC 170615Z AUTO 18007KT 3SM -RA BR BKN022 BKN029 OVC047 02/01 A2992 1030 92 -200 180/07 RMK AO2 P0002 T00220011
14926KSTC STC20191117002013811/17/19 00:20:31  5-MIN KSTC 170620Z AUTO 18006KT 4SM -RA BR BKN019 BKN024 OVC047 02/01 A2992 1030 92 -200 180/06 RMK AO2 P0002 T00220011
14926KSTC STC20191117002513811/17/19 00:25:31  5-MIN KSTC 170625Z AUTO 18007KT 3SM -RA BR BKN017 BKN022 OVC047 02/01 A2992 1030 92 -200 180/07 RMK AO2 P0002 T00220011
14926KSTC STC20191117003013111/17/19 00:30:31  5-MIN KSTC 170630Z AUTO 18007KT 3SM -RA BR BKN017 OVC021 02/01 A2992 1030 92 -200 180/07 RMK AO2 P0003 T00220011
14926KSTC STC20191117003513111/17/19 00:35:31  5-MIN KSTC 170635Z AUTO 18006KT 3SM -RA BR BKN017 OVC023 02/01 A2992 1030 92 -200 180/06 RMK AO2 P0003 T00220011
14926KSTC STC20191117004013111/17/19 00:40:31  5-MIN KSTC 170640Z AUTO 18006KT 3SM -RA BR BKN017 OVC023 02/01 A2992 1030 92 -200 180/06 RMK AO2 P0003 T00220011
14926KSTC STC20191117004512411/17/19 00:45:31  5-MIN KSTC 170645Z AUTO 18008KT 3SM -RA BR OVC015 02/01 A2992 1040 92 -200 180/08 RMK AO2 P0004 T00220011
14926KSTC STC20191117005013111/17/19 00:50:31  5-MIN KSTC 170650Z AUTO 18008KT 3SM -RA BR OVC015 02/01 A2991 1040 92 -200 180/08 RMK AO2 SLP146 P0004 T00220011
14926KSTC STC20191117005512411/17/19 00:55:31  5-MIN KSTC 170655Z AUTO 19008KT 3SM -RA BR OVC015 02/01 A2991 1040 92 -200 180/08 RMK AO2 P0000 T00220011
14926KSTC STC20191117010012411/17/19 01:00:31  5-MIN KSTC 170700Z AUTO 19007KT 3SM -RA BR OVC013 02/01 A2991 1040 92 -200 190/07 RMK AO2 P0001 T00220011
14926KSTC STC20191117010512411/17/19 01:05:31  5-MIN KSTC 170705Z AUTO 19006KT 3SM -RA BR OVC013 02/01 A2991 1040 92 -200 190/06 RMK AO2 P0001 T00220011
14926KSTC STC20191117011012411/17/19 01:10:31  5-MIN KSTC 170710Z AUTO 20006KT 3SM -RA BR OVC013 02/01 A2991 1040 92 -200 200/06 RMK AO2 P0002 T00220011
14926KSTC STC20191117011512411/17/19 01:15:31  5-MIN KSTC 170715Z AUTO 19006KT 3SM -RA BR OVC013 02/01 A2991 1050 92 -200 190/06 RMK AO2 P0002 T00220011
14926KSTC STC20191117012013111/17/19 01:20:31  5-MIN KSTC 170720Z AUTO 18006KT 4SM -RA BR BKN012 OVC023 02/01 A2991 1050 92 -200 180/06 RMK AO2 P0002 T00220011
14926KSTC STC20191117012512611/17/19 01:25:31  5-MIN KSTC 170725Z AUTO 19005KT 4SM BR OVC012 02/01 A2991 1050 96 -200 190/05 RMK AO2 RAE23 P0002 T00170011
14926KSTC STC20191117013012611/17/19 01:30:31  5-MIN KSTC 170730Z AUTO 19006KT 4SM BR OVC012 02/01 A2991 1050 92 -200 190/06 RMK AO2 RAE23 P0002 T00220011
14926KSTC STC20191117013513311/17/19 01:35:31  5-MIN KSTC 170735Z AUTO 18006KT 4SM BR BKN012 OVC023 02/01 A2990 1050 96 -200 180/06 RMK AO2 RAE23 P0002 T00170011
14926KSTC STC20191117014013311/17/19 01:40:31  5-MIN KSTC 170740Z AUTO 19005KT 3SM BR BKN012 OVC023 02/01 A2990 1050 96 -200 190/05 RMK AO2 RAE23 P0002 T00170011
14926KSTC STC20191117014513311/17/19 01:45:31  5-MIN KSTC 170745Z AUTO 18006KT 3SM BR BKN012 OVC022 02/01 A2990 1050 96 -200 180/06 RMK AO2 RAE23 P0002 T00170011
14926KSTC STC20191117015012311/17/19 01:50:31  5-MIN KSTC 170750Z AUTO 18005KT 4SM BR SCT012 OVC022 02/01 A2990 1060 96 -200 180/05 RMK AO2 RAE23 P0002
14926KSTC STC20191117015512111/17/19 01:55:31  5-MIN KSTC 170755Z AUTO 17004KT 4SM BR SCT010 OVC022 02/01 A2989 1060 96 -200 170/04 RMK AO2 T00170011
14926KSTC STC20191117020012111/17/19 02:00:31  5-MIN KSTC 170800Z AUTO 18004KT 4SM BR FEW007 BKN022 02/01 A2990 1050 96 -200 180/04 RMK AO2 T00170011
14926KSTC STC20191117020512111/17/19 02:05:31  5-MIN KSTC 170805Z AUTO 18004KT 4SM BR FEW007 OVC022 02/01 A2990 1050 96 -200 180/04 RMK AO2 T00170011
14926KSTC STC20191117021012111/17/19 02:10:31  5-MIN KSTC 170810Z AUTO 19004KT 3SM BR FEW007 OVC022 02/01 A2990 1050 96 -200 190/04 RMK AO2 T00170011
14926KSTC STC20191117021512111/17/19 02:15:31  5-MIN KSTC 170815Z AUTO 19004KT 3SM BR FEW007 OVC022 02/01 A2990 1060 96 -200 190/04 RMK AO2 T00170011
14926KSTC STC20191117022012111/17/19 02:20:31  5-MIN KSTC 170820Z AUTO 18005KT 3SM BR FEW006 OVC022 02/01 A2990 1060 96 -200 180/05 RMK AO2 T00170011
14926KSTC STC20191117022511411/17/19 02:25:31  5-MIN KSTC 170825Z AUTO 18004KT 3SM BR OVC022 02/01 A2990 1050 96 -200 180/04 RMK AO2 T00170011
14926KSTC STC20191117023011411/17/19 02:30:31  5-MIN KSTC 170830Z AUTO 19005KT 3SM BR OVC022 02/01 A2990 1050 96 -200 190/05 RMK AO2 T00170011
14926KSTC STC20191117023511411/17/19 02:35:31  5-MIN KSTC 170835Z AUTO 20004KT 3SM BR OVC023 02/01 A2990 1050 96 -200 200/04 RMK AO2 T00170011
14926KSTC STC20191117024012111/17/19 02:40:31  5-MIN KSTC 170840Z AUTO 20005KT 3SM BR SCT014 OVC023 02/01 A2990 1050 96 -200 200/05 RMK AO2 T00170011
14926KSTC STC20191117024512111/17/19 02:45:31  5-MIN KSTC 170845Z AUTO 20005KT 3SM BR BKN012 OVC023 02/01 A2989 1060 96 -200 200/05 RMK AO2 T00170011
14926KSTC STC20191117025012511/17/19 02:50:31  5-MIN KSTC 170850Z AUTO 20004KT 2 1/2SM BR BKN012 OVC023 02/01 A2989 1060 96 -200 200/04 RMK AO2 T00170011
14926KSTC STC20191117025512511/17/19 02:55:31  5-MIN KSTC 170855Z AUTO 20004KT 2 1/2SM BR BKN014 OVC023 02/01 A2989 1060 96 -200 200/04 RMK AO2 T00170011
14926KSTC STC20191117030011411/17/19 03:00:31  5-MIN KSTC 170900Z AUTO 20003KT 3SM BR OVC016 02/01 A2989 1060 96 -200 190/03 RMK AO2 T00170011
14926KSTC STC20191117030512111/17/19 03:05:31  5-MIN KSTC 170905Z AUTO 00000KT 3SM BR BKN013 OVC020 02/01 A2989 1060 96 -200 000/00 RMK AO2 T00170011
14926KSTC STC20191117031012811/17/19 03:10:31  5-MIN KSTC 170910Z AUTO 00000KT 3SM BR BKN011 BKN017 OVC022 02/01 A2989 1060 96 -200 000/00 RMK AO2 T00170011
14926KSTC STC20191117031512811/17/19 03:15:31  5-MIN KSTC 170915Z AUTO 22003KT 3SM BR FEW008 BKN015 OVC022 02/01 A2988 1070 96 -200 220/03 RMK AO2 T00170011
14926KSTC STC20191117032012811/17/19 03:20:31  5-MIN KSTC 170920Z AUTO 20003KT 4SM BR FEW010 SCT017 OVC022 02/01 A2988 1070 96 -200 200/03 RMK AO2 T00170011
14926KSTC STC20191117032512111/17/19 03:25:31  5-MIN KSTC 170925Z AUTO 20004KT 4SM BR FEW008 OVC023 02/01 A2988 1070 96 -200 200/04 RMK AO2 T00170011
14926KSTC STC20191117033012811/17/19 03:30:31  5-MIN KSTC 170930Z AUTO 20004KT 3SM BR FEW008 BKN023 OVC029 02/01 A2988 1070 96 -200 200/04 RMK AO2 T00170011
14926KSTC STC20191117033512511/17/19 03:35:31  5-MIN KSTC 170935Z AUTO 20003KT 2 1/2SM BR BKN025 OVC031 02/01 A2988 1070 96 -200 200/03 RMK AO2 T00170011
14926KSTC STC20191117034012511/17/19 03:40:31  5-MIN KSTC 170940Z AUTO 21003KT 2 1/2SM BR BKN023 OVC031 02/01 A2988 1070 96 -200 210/03 RMK AO2 T00170011
14926KSTC STC20191117034513211/17/19 03:45:31  5-MIN KSTC 170945Z AUTO 22003KT 2 1/2SM BR SCT019 BKN025 OVC031 02/01 A2988 1070 96 -200 210/03 RMK AO2 T00170011
14926KSTC STC20191117035012811/17/19 03:50:31  5-MIN KSTC 170950Z AUTO 00000KT 3SM BR BKN019 OVC028 02/01 A2988 1070 96 -200 000/00 RMK AO2 SLP137 T00170011
14926KSTC STC20191117035512511/17/19 03:55:31  5-MIN KSTC 170955Z AUTO 20003KT 2 1/2SM BR BKN019 OVC030 02/01 A2988 1070 96 -200 200/03 RMK AO2 T00170011
14926KSTC STC20191117040012511/17/19 04:00:31  5-MIN KSTC 171000Z AUTO 21003KT 2 1/2SM BR BKN019 OVC032 02/01 A2988 1070 96 -200 210/03 RMK AO2 T00170011
14926KSTC STC20191117040512111/17/19 04:05:31  5-MIN KSTC 171005Z AUTO 00000KT 2SM BR BKN019 OVC032 02/01 A2988 1070 96 -200 000/00 RMK AO2 T00170011
14926KSTC STC20191117041012511/17/19 04:10:31  5-MIN KSTC 171010Z AUTO 00000KT 2 1/2SM BR BKN019 OVC032 02/01 A2988 1070 96 -200 000/00 RMK AO2 T00170011
14926KSTC STC20191117041512511/17/19 04:15:31  5-MIN KSTC 171015Z AUTO 23003KT 2 1/2SM BR BKN019 OVC033 02/01 A2988 1070 96 -200 230/03 RMK AO2 T00170011
14926KSTC STC20191117042012111/17/19 04:20:31  5-MIN KSTC 171020Z AUTO 24003KT 3SM BR BKN020 OVC033 02/01 A2988 1070 96 -200 240/03 RMK AO2 T00170011
14926KSTC STC20191117042512111/17/19 04:25:31  5-MIN KSTC 171025Z AUTO 23004KT 3SM BR BKN020 OVC033 02/01 A2988 1070 96 -200 230/04 RMK AO2 T00170011
14926KSTC STC20191117043012111/17/19 04:30:31  5-MIN KSTC 171030Z AUTO 23004KT 3SM BR BKN020 OVC033 02/01 A2988 1070 96 -200 230/04 RMK AO2 T00170011
14926KSTC STC20191117043512111/17/19 04:35:31  5-MIN KSTC 171035Z AUTO 24004KT 4SM BR BKN020 OVC031 02/01 A2988 1070 96 -200 230/04 RMK AO2 T00170011
14926KSTC STC20191117044012111/17/19 04:40:31  5-MIN KSTC 171040Z AUTO 25004KT 4SM BR SCT020 OVC029 02/01 A2988 1070 96 -200 250/04 RMK AO2 T00170011
14926KSTC STC20191117044512111/17/19 04:45:31  5-MIN KSTC 171045Z AUTO 25005KT 4SM BR SCT018 OVC027 02/01 A2988 1070 96 -200 250/05 RMK AO2 T00170011
14926KSTC STC20191117045012811/17/19 04:50:31  5-MIN KSTC 171050Z AUTO 26005KT 4SM BR FEW018 OVC027 02/01 A2988 1070 96 -200 250/05 RMK AO2 SLP135 T00170011
14926KSTC STC20191117045511411/17/19 04:55:31  5-MIN KSTC 171055Z AUTO 26005KT 4SM BR OVC027 02/01 A2988 1070 96 -200 260/05 RMK AO2 T00170011
14926KSTC STC20191117050011411/17/19 05:00:31  5-MIN KSTC 171100Z AUTO 27005KT 5SM BR OVC028 02/01 A2988 1070 96 -200 270/05 RMK AO2 T00170011
14926KSTC STC20191117050511411/17/19 05:05:31  5-MIN KSTC 171105Z AUTO 28006KT 6SM BR OVC028 02/01 A2988 1070 92 -100 280/06 RMK AO2 T00220011
14926KSTC STC20191117051011111/17/19 05:10:31  5-MIN KSTC 171110Z AUTO 27007KT 7SM OVC028 02/01 A2988 1070 92 -100 270/07 RMK AO2 T00220011
14926KSTC STC20191117051511111/17/19 05:15:31  5-MIN KSTC 171115Z AUTO 28009KT 8SM OVC028 03/01 A2988 1070 89 -100 280/09 RMK AO2 T00280011
14926KSTC STC20191117052011111/17/19 05:20:31  5-MIN KSTC 171120Z AUTO 29009KT 9SM OVC028 03/01 A2988 1070 89 -100 290/09 RMK AO2 T00280011
14926KSTC STC20191117052511111/17/19 05:25:31  5-MIN KSTC 171125Z AUTO 29010KT 9SM OVC028 03/01 A2988 1070 89 -100 290/10 RMK AO2 T00280011
14926KSTC STC20191117053011111/17/19 05:30:31  5-MIN KSTC 171130Z AUTO 29008KT 9SM OVC028 03/01 A2988 1070 89 -100 290/08 RMK AO2 T00280011
14926KSTC STC20191117053511111/17/19 05:35:31  5-MIN KSTC 171135Z AUTO 29009KT 9SM OVC028 03/01 A2988 1070 89 -100 290/09 RMK AO2 T00280011
14926KSTC STC20191117054011111/17/19 05:40:31  5-MIN KSTC 171140Z AUTO 30010KT 9SM OVC027 03/01 A2988 1070 89 -100 290/10 RMK AO2 T00280011
14926KSTC STC20191117054511811/17/19 05:45:31  5-MIN KSTC 171145Z AUTO 29009KT 9SM FEW014 OVC027 03/01 A2988 1070 89 -100 290/09 RMK AO2 T00280011
14926KSTC STC20191117055015511/17/19 05:50:31  5-MIN KSTC 171150Z AUTO 29011KT 9SM FEW016 OVC027 03/01 A2988 1070 89 -100 280/11 RMK AO2 SLP136 60006 70012 T00280011 10028 20017 56007
14926KSTC STC20191117055511811/17/19 05:55:31  5-MIN KSTC 171155Z AUTO 29011KT 9SM FEW016 OVC025 03/01 A2988 1070 89 -100 290/11 RMK AO2 T00280011
14926KSTC STC20191117060011911/17/19 06:00:31  5-MIN KSTC 171200Z AUTO 29009KT 10SM FEW016 OVC025 03/01 A2988 1070 89 -100 290/09 RMK AO2 T00280011
14926KSTC STC20191117060511911/17/19 06:05:31  5-MIN KSTC 171205Z AUTO 29009KT 10SM FEW015 OVC025 03/01 A2988 1070 89 -100 280/09 RMK AO2 T00280011
14926KSTC STC20191117061011911/17/19 06:10:31  5-MIN KSTC 171210Z AUTO 29008KT 10SM FEW015 OVC026 02/01 A2988 1070 92 -100 290/08 RMK AO2 T00220011
14926KSTC STC20191117061511211/17/19 06:15:31  5-MIN KSTC 171215Z AUTO 29009KT 10SM OVC026 02/01 A2988 1070 92 -100 290/09 RMK AO2 T00220011
14926KSTC STC20191117062011211/17/19 06:20:31  5-MIN KSTC 171220Z AUTO 29007KT 10SM OVC027 02/01 A2988 1070 89 -100 290/07 RMK AO2 T00220006
14926KSTC STC20191117062511211/17/19 06:25:31  5-MIN KSTC 171225Z AUTO 29007KT 10SM OVC029 02/01 A2988 1070 89 -100 290/07 RMK AO2 T00220006
14926KSTC STC20191117063011211/17/19 06:30:31  5-MIN KSTC 171230Z AUTO 29006KT 10SM OVC031 02/01 A2988 1070 89 -100 290/06 RMK AO2 T00220006
14926KSTC STC20191117063512611/17/19 06:35:31  5-MIN KSTC 171235Z AUTO 28006KT 10SM FEW017 SCT027 OVC031 02/01 A2988 1070 89 -100 280/06 RMK AO2 T00220006
14926KSTC STC20191117064012611/17/19 06:40:31  5-MIN KSTC 171240Z AUTO 29007KT 10SM FEW017 SCT027 OVC033 02/01 A2988 1070 89 -100 290/07 RMK AO2 T00220006
14926KSTC STC20191117064511911/17/19 06:45:31  5-MIN KSTC 171245Z AUTO 28007KT 10SM FEW017 OVC033 02/01 A2988 1070 89 -100 280/07 RMK AO2 T00220006
14926KSTC STC20191117065012111/17/19 06:50:31  5-MIN KSTC 171250Z 28006KT 10SM FEW019 OVC033 02/01 A2988 1070 89 -100 280/06 RMK AO2 SLP135 T00220006
14926KSTC STC20191117065511411/17/19 06:55:31  5-MIN KSTC 171255Z 29009KT 10SM SCT019 OVC033 02/01 A2988 1070 89 -100 290/09 RMK AO2 T00220006
14926KSTC STC20191117070011411/17/19 07:00:31  5-MIN KSTC 171300Z 29009KT 10SM SCT019 OVC033 02/00 A2988 1070 85 -100 290/09 RMK AO2 T00220000
14926KSTC STC20191117070511411/17/19 07:05:31  5-MIN KSTC 171305Z 29010KT 10SM BKN019 OVC033 02/00 A2988 1070 85 -100 290/10 RMK AO2 T00220000
14926KSTC STC20191117071011411/17/19 07:10:31  5-MIN KSTC 171310Z 29009KT 10SM BKN019 OVC033 02/00 A2988 1070 85 -100 290/09 RMK AO2 T00220000
14926KSTC STC20191117071511411/17/19 07:15:31  5-MIN KSTC 171315Z 29011KT 10SM BKN019 OVC033 02/00 A2989 1070 85 -100 290/11 RMK AO2 T00220000
14926KSTC STC20191117072011411/17/19 07:20:31  5-MIN KSTC 171320Z 29010KT 10SM BKN019 OVC033 02/00 A2989 1070 85 -100 290/10 RMK AO2 T00220000
14926KSTC STC20191117072511411/17/19 07:25:31  5-MIN KSTC 171325Z 29010KT 10SM BKN019 OVC034 02/00 A2989 1060 85 -100 290/10 RMK AO2 T00220000
14926KSTC STC20191117073011411/17/19 07:30:31  5-MIN KSTC 171330Z 29009KT 10SM BKN020 OVC034 02/00 A2989 1060 85 -100 290/09 RMK AO2 T00220000
14926KSTC STC20191117073511411/17/19 07:35:31  5-MIN KSTC 171335Z 29009KT 10SM BKN020 OVC034 02/00 A2989 1060 89 -200 290/09 RMK AO2 T00170000
14926KSTC STC20191117074011411/17/19 07:40:31  5-MIN KSTC 171340Z 29010KT 10SM BKN020 OVC034 02/00 A2989 1060 89 -200 290/10 RMK AO2 T00170000
14926KSTC STC20191117074511411/17/19 07:45:31  5-MIN KSTC 171345Z 29009KT 10SM BKN020 OVC034 02/00 A2989 1060 89 -200 290/09 RMK AO2 T00170000
14926KSTC STC20191117075012211/17/19 07:50:31  5-MIN KSTC 171350Z 30010KT 10SM BKN020 OVC033 02/M01 A2989 1060 85 -200 300/10 RMK AO2 SLP140 T00171006
14926KSTC STC20191117075511511/17/19 07:55:31  5-MIN KSTC 171355Z 30009KT 10SM BKN020 OVC033 02/M01 A2989 1060 85 -200 300/09 RMK AO2 T00171006
14926KSTC STC20191117080011511/17/19 08:00:31  5-MIN KSTC 171400Z 30010KT 10SM BKN020 OVC033 02/M01 A2989 1060 85 -200 300/10 RMK AO2 T00171006
14926KSTC STC20191117080511511/17/19 08:05:31  5-MIN KSTC 171405Z 29008KT 10SM SCT018 OVC033 02/M01 A2989 1060 85 -200 290/08 RMK AO2 T00171006
14926KSTC STC20191117081011511/17/19 08:10:31  5-MIN KSTC 171410Z 29010KT 10SM SCT018 OVC033 02/M01 A2989 1060 85 -200 290/10 RMK AO2 T00171006
14926KSTC STC20191117081511511/17/19 08:15:31  5-MIN KSTC 171415Z 30010KT 10SM FEW018 OVC033 02/M01 A2989 1060 85 -200 300/10 RMK AO2 T00171006
14926KSTC STC20191117082011511/17/19 08:20:31  5-MIN KSTC 171420Z 29010KT 10SM FEW015 OVC032 02/M01 A2989 1060 85 -200 290/10 RMK AO2 T00171006
14926KSTC STC20191117082511511/17/19 08:25:31  5-MIN KSTC 171425Z 30010KT 10SM FEW015 OVC032 02/M01 A2990 1060 85 -200 300/10 RMK AO2 T00171006
14926KSTC STC20191117083010811/17/19 08:30:31  5-MIN KSTC 171430Z 30011KT 10SM OVC031 02/M01 A2990 1050 85 -200 290/11 RMK AO2 T00171006
14926KSTC STC20191117083511511/17/19 08:35:31  5-MIN KSTC 171435Z 30010KT 10SM FEW013 OVC031 02/M01 A2990 1050 85 -200 300/10 RMK AO2 T00171006
14926KSTC STC20191117084011511/17/19 08:40:31  5-MIN KSTC 171440Z 30010KT 10SM FEW013 OVC031 02/M01 A2990 1050 85 -200 300/10 RMK AO2 T00171006
14926KSTC STC20191117084510811/17/19 08:45:31  5-MIN KSTC 171445Z 30010KT 10SM OVC031 02/M01 A2990 1050 85 -200 300/10 RMK AO2 T00171006
14926KSTC STC20191117085012111/17/19 08:50:31  5-MIN KSTC 171450Z 29008KT 10SM OVC031 02/M01 A2990 1050 85 -200 290/08 RMK AO2 SLP142 T00171006 55004
14926KSTC STC20191117085511511/17/19 08:55:31  5-MIN KSTC 171455Z 30008KT 10SM FEW013 OVC031 02/M01 A2990 1050 85 -200 300/08 RMK AO2 T00171006
14926KSTC STC20191117090011511/17/19 09:00:31  5-MIN KSTC 171500Z 30008KT 10SM FEW013 OVC031 02/M01 A2990 1050 85 -200 300/08 RMK AO2 T00171006
14926KSTC STC20191117090512111/17/19 09:05:31  5-MIN KSTC 171505Z 30012G17KT 10SM FEW015 OVC032 02/M01 A2990 1050 85 -200 300/12G17 RMK AO2 T00171006
14926KSTC STC20191117091011511/17/19 09:10:31  5-MIN KSTC 171510Z 31009KT 10SM SCT015 OVC032 02/M01 A2990 1050 85 -200 310/09 RMK AO2 T00171006
14926KSTC STC20191117091511511/17/19 09:15:31  5-MIN KSTC 171515Z 31010KT 10SM BKN015 OVC032 02/M01 A2990 1050 85 -200 310/10 RMK AO2 T00171006
14926KSTC STC20191117092011511/17/19 09:20:31  5-MIN KSTC 171520Z 30011KT 10SM BKN014 OVC032 02/M01 A2990 1050 85 -200 300/11 RMK AO2 T00171006
14926KSTC STC20191117092511511/17/19 09:25:31  5-MIN KSTC 171525Z 31010KT 10SM BKN014 OVC032 02/M01 A2990 1050 85 -200 310/10 RMK AO2 T00171006
14926KSTC STC20191117093010811/17/19 09:30:31  5-MIN KSTC 171530Z 31012KT 10SM OVC014 02/M01 A2990 1050 85 -200 310/12 RMK AO2 T00171006
14926KSTC STC20191117093510811/17/19 09:35:31  5-MIN KSTC 171535Z 31011KT 10SM OVC014 02/M01 A2990 1060 85 -200 310/11 RMK AO2 T00171006
14926KSTC STC20191117094010811/17/19 09:40:31  5-MIN KSTC 171540Z 30012KT 10SM OVC014 02/M01 A2990 1060 85 -200 300/12 RMK AO2 T00171006
14926KSTC STC20191117094510811/17/19 09:45:31  5-MIN KSTC 171545Z 31013KT 10SM OVC014 02/M01 A2990 1060 85 -200 310/13 RMK AO2 T00171006
14926KSTC STC20191117095011511/17/19 09:50:31  5-MIN KSTC 171550Z 31013KT 10SM OVC014 02/M01 A2990 1050 85 -200 310/13 RMK AO2 SLP143 T00171006
14926KSTC STC20191117095511411/17/19 09:55:31  5-MIN KSTC 171555Z 30012G20KT 10SM OVC014 02/M01 A2990 1050 85 -200 300/12G20 RMK AO2 T00171006
14926KSTC STC20191117100011511/17/19 10:00:31  5-MIN KSTC 171600Z 31011KT 10SM BKN014 OVC031 02/M01 A2990 1050 85 -200 310/11 RMK AO2 T00171006
14926KSTC STC20191117100511511/17/19 10:05:31  5-MIN KSTC 171605Z 31012KT 10SM BKN014 OVC031 02/M01 A2990 1050 85 -200 310/12 RMK AO2 T00171006
14926KSTC STC20191117101010811/17/19 10:10:31  5-MIN KSTC 171610Z 31012KT 10SM OVC014 02/M01 A2990 1050 85 -200 310/12 RMK AO2 T00171006
14926KSTC STC20191117101510811/17/19 10:15:31  5-MIN KSTC 171615Z 31013KT 10SM OVC014 02/M01 A2990 1050 85 -200 310/13 RMK AO2 T00171006
14926KSTC STC20191117102011511/17/19 10:20:31  5-MIN KSTC 171620Z 32011KT 10SM BKN014 OVC031 02/M01 A2990 1050 85 -200 320/11 RMK AO2 T00171006
14926KSTC STC20191117102511511/17/19 10:25:31  5-MIN KSTC 171625Z 32010KT 10SM BKN015 OVC031 02/M01 A2990 1050 85 -200 320/10 RMK AO2 T00171006
14926KSTC STC20191117103010811/17/19 10:30:31  5-MIN KSTC 171630Z 31012KT 10SM OVC015 02/M01 A2990 1050 82 -200 310/12 RMK AO2 T00171011
14926KSTC STC20191117103511511/17/19 10:35:31  5-MIN KSTC 171635Z 31011KT 10SM BKN015 OVC020 02/M01 A2990 1050 85 -200 310/11 RMK AO2 T00171006
14926KSTC STC20191117104011511/17/19 10:40:31  5-MIN KSTC 171640Z 30012KT 10SM BKN017 OVC022 02/M01 A2990 1050 82 -200 300/12 RMK AO2 T00171011
14926KSTC STC20191117104511511/17/19 10:45:31  5-MIN KSTC 171645Z 31012KT 10SM BKN015 OVC022 02/M01 A2990 1050 82 -200 310/12 RMK AO2 T00171011
14926KSTC STC20191117105012211/17/19 10:50:31  5-MIN KSTC 171650Z 32010KT 10SM BKN015 OVC022 02/M01 A2990 1050 82 -200 320/10 RMK AO2 SLP144 T00171011
14926KSTC STC20191117105512211/17/19 10:55:31  5-MIN KSTC 171655Z 32009KT 10SM SCT015 BKN022 OVC028 02/M01 A2990 1050 82 -200 320/09 RMK AO2 T00171011
14926KSTC STC20191117110012211/17/19 11:00:31  5-MIN KSTC 171700Z 32012KT 10SM SCT016 BKN022 OVC028 02/M01 A2990 1050 82 -200 320/12 RMK AO2 T00171011
14926KSTC STC20191117110511511/17/19 11:05:31  5-MIN KSTC 171705Z 31013KT 10SM FEW016 OVC025 02/M02 A2990 1050 78 -200 310/13 RMK AO2 T00171017
14926KSTC STC20191117111011511/17/19 11:10:31  5-MIN KSTC 171710Z 32011KT 10SM FEW016 OVC025 02/M02 A2990 1050 78 -200 320/11 RMK AO2 T00171017
14926KSTC STC20191117111510811/17/19 11:15:31  5-MIN KSTC 171715Z 31012KT 10SM OVC025 02/M02 A2990 1050 78 -200 310/12 RMK AO2 T00171017
14926KSTC STC20191117112010811/17/19 11:20:31  5-MIN KSTC 171720Z 31012KT 10SM OVC025 02/M02 A2990 1050 78 -200 310/12 RMK AO2 T00171017
14926KSTC STC20191117112510811/17/19 11:25:31  5-MIN KSTC 171725Z 32010KT 10SM OVC025 02/M02 A2990 1050 75 -200 320/10 RMK AO2 T00171022
14926KSTC STC20191117113010811/17/19 11:30:31  5-MIN KSTC 171730Z 32011KT 10SM OVC023 02/M02 A2990 1060 75 -200 320/11 RMK AO2 T00171022
14926KSTC STC20191117113510811/17/19 11:35:31  5-MIN KSTC 171735Z 32011KT 10SM OVC023 02/M02 A2989 1060 75 -200 320/11 RMK AO2 T00171022
14926KSTC STC20191117114010811/17/19 11:40:31  5-MIN KSTC 171740Z 34008KT 10SM OVC023 02/M03 A2990 1060 72 -200 330/08 RMK AO2 T00171028
14926KSTC STC20191117114510811/17/19 11:45:31  5-MIN KSTC 171745Z 32008KT 10SM OVC021 02/M03 A2990 1050 72 -200 320/08 RMK AO2 T00171028
14926KSTC STC20191117115013311/17/19 11:50:31  5-MIN KSTC 171750Z 32009KT 10SM OVC021 02/M02 A2990 1060 75 -200 310/09 RMK AO2 SLP143 T00171022 10028 20017 53007
14926KSTC STC20191117115511411/17/19 11:55:31  5-MIN KSTC 171755Z 31012G18KT 10SM OVC019 01/M02 A2990 1050 78 -300 310/12G18 RMK AO2 T00111022
14926KSTC STC20191117120010811/17/19 12:00:31  5-MIN KSTC 171800Z 31012KT 10SM OVC019 01/M02 A2990 1060 78 -300 310/12 RMK AO2 T00111022
14926KSTC STC20191117120510811/17/19 12:05:31  5-MIN KSTC 171805Z 31013KT 10SM OVC019 01/M02 A2989 1060 78 -300 310/13 RMK AO2 T00111022
14926KSTC STC20191117121010811/17/19 12:10:31  5-MIN KSTC 171810Z 31012KT 10SM OVC019 01/M02 A2989 1060 78 -300 310/12 RMK AO2 T00111022
14926KSTC STC20191117121510811/17/19 12:15:31  5-MIN KSTC 171815Z 31015KT 10SM OVC019 01/M02 A2989 1060 78 -300 310/15 RMK AO2 T00111022
14926KSTC STC20191117122010811/17/19 12:20:31  5-MIN KSTC 171820Z 31017KT 10SM OVC018 01/M02 A2989 1060 82 -400 310/17 RMK AO2 T00061022
14926KSTC STC20191117122510811/17/19 12:25:31  5-MIN KSTC 171825Z 32014KT 10SM OVC016 01/M02 A2989 1060 82 -400 320/14 RMK AO2 T00061022
14926KSTC STC20191117123010811/17/19 12:30:31  5-MIN KSTC 171830Z 32012KT 10SM OVC016 01/M03 A2989 1060 78 -400 310/12 RMK AO2 T00061028
14926KSTC STC20191117123510811/17/19 12:35:31  5-MIN KSTC 171835Z 31014KT 10SM OVC016 01/M02 A2989 1060 82 -300 310/14 RMK AO2 T00061022
14926KSTC STC20191117124010811/17/19 12:40:31  5-MIN KSTC 171840Z 32013KT 10SM OVC015 01/M03 A2989 1060 78 -400 320/13 RMK AO2 T00061028
14926KSTC STC20191117124510811/17/19 12:45:31  5-MIN KSTC 171845Z 32012KT 10SM OVC015 01/M03 A2989 1060 78 -300 310/12 RMK AO2 T00061028
14926KSTC STC20191117125011511/17/19 12:50:31  5-MIN KSTC 171850Z 31013KT 10SM OVC015 01/M03 A2989 1060 78 -300 310/13 RMK AO2 SLP141 T00061028
14926KSTC STC20191117125511411/17/19 12:55:31  5-MIN KSTC 171855Z 33011G18KT 10SM OVC017 01/M03 A2989 1060 75 -400 320/11G18 RMK AO2 T00061033
14926KSTC STC20191117130011411/17/19 13:00:31  5-MIN KSTC 171900Z 32008G17KT 10SM OVC017 01/M03 A2989 1060 75 -300 320/08G17 RMK AO2 T00061033
14926KSTC STC20191117130511411/17/19 13:05:31  5-MIN KSTC 171905Z 32012G17KT 10SM OVC017 01/M03 A2989 1070 75 -300 320/12G17 RMK AO2 T00061033
14926KSTC STC20191117131011411/17/19 13:10:31  5-MIN KSTC 171910Z 31012G17KT 10SM OVC017 01/M03 A2989 1070 75 -300 310/12G17 RMK AO2 T00061033
14926KSTC STC20191117131510811/17/19 13:15:31  5-MIN KSTC 171915Z 33009KT 10SM OVC017 01/M03 A2989 1070 75 -300 330/09 RMK AO2 T00061033
14926KSTC STC20191117132010811/17/19 13:20:31  5-MIN KSTC 171920Z 32011KT 10SM OVC017 00/M03 A2988 1070 78 -400 320/11 RMK AO2 T00001033
14926KSTC STC20191117132510811/17/19 13:25:31  5-MIN KSTC 171925Z 32012KT 10SM OVC017 00/M03 A2988 1070 78 -400 320/12 RMK AO2 T00001033
14926KSTC STC20191117133010811/17/19 13:30:31  5-MIN KSTC 171930Z 32011KT 10SM OVC017 00/M03 A2988 1070 78 -400 320/11 RMK AO2 T00001033
14926KSTC STC20191117133510811/17/19 13:35:31  5-MIN KSTC 171935Z 32012KT 10SM OVC016 00/M03 A2988 1070 78 -400 320/12 RMK AO2 T00001033
14926KSTC STC20191117134010811/17/19 13:40:31  5-MIN KSTC 171940Z 32011KT 10SM OVC016 00/M03 A2988 1070 78 -400 320/11 RMK AO2 T00001033
14926KSTC STC20191117134510811/17/19 13:45:31  5-MIN KSTC 171945Z 32013KT 10SM OVC016 00/M03 A2988 1070 78 -400 320/13 RMK AO2 T00001033
14926KSTC STC20191117135012111/17/19 13:50:31  5-MIN KSTC 171950Z 31014G20KT 10SM OVC016 00/M04 A2988 1070 75 -400 310/14G20 RMK AO2 SLP138 T00001039
14926KSTC STC20191117135510811/17/19 13:55:31  5-MIN KSTC 171955Z 31013KT 10SM OVC016 00/M03 A2988 1070 78 -400 310/13 RMK AO2 T00001033
14926KSTC STC20191117140011411/17/19 14:00:31  5-MIN KSTC 172000Z 32013G20KT 10SM OVC016 00/M03 A2988 1070 78 -400 320/13G20 RMK AO2 T00001033
14926KSTC STC20191117140511411/17/19 14:05:31  5-MIN KSTC 172005Z 32013G20KT 10SM OVC016 00/M04 A2988 1070 75 -400 320/13G20 RMK AO2 T00001039
14926KSTC STC20191117141010911/17/19 14:10:31  5-MIN KSTC 172010Z 32011KT 10SM OVC016 M01/M04 A2988 1070 78 -500 320/11 RMK AO2 T10061039
14926KSTC STC20191117141511511/17/19 14:15:31  5-MIN KSTC 172015Z 31010G17KT 10SM OVC017 M01/M04 A2988 1070 78 -500 310/10G17 RMK AO2 T10061039
14926KSTC STC20191117142010911/17/19 14:20:31  5-MIN KSTC 172020Z 32010KT 10SM OVC017 M01/M04 A2988 1070 78 -500 320/10 RMK AO2 T10061039
14926KSTC STC20191117142510911/17/19 14:25:31  5-MIN KSTC 172025Z 32009KT 10SM OVC017 M01/M04 A2988 1070 78 -500 320/09 RMK AO2 T10061039
14926KSTC STC20191117143010911/17/19 14:30:31  5-MIN KSTC 172030Z 31010KT 10SM OVC018 M01/M04 A2988 1070 78 -500 310/10 RMK AO2 T10061039
14926KSTC STC20191117143510911/17/19 14:35:31  5-MIN KSTC 172035Z 31008KT 10SM OVC018 M01/M04 A2988 1070 78 -500 310/08 RMK AO2 T10061039
14926KSTC STC20191117144010911/17/19 14:40:31  5-MIN KSTC 172040Z 30011KT 10SM OVC019 M01/M04 A2988 1070 78 -500 300/11 RMK AO2 T10061039
14926KSTC STC20191117144510911/17/19 14:45:31  5-MIN KSTC 172045Z 31012KT 10SM OVC019 M01/M04 A2988 1070 75 -500 310/12 RMK AO2 T10061044
14926KSTC STC20191117145012211/17/19 14:50:31  5-MIN KSTC 172050Z 32008KT 10SM OVC019 M01/M04 A2988 1070 75 -500 320/08 RMK AO2 SLP138 T10061044 58001
14926KSTC STC20191117145511511/17/19 14:55:31  5-MIN KSTC 172055Z 31013G16KT 10SM OVC019 M01/M04 A2988 1070 75 -500 310/13G16 RMK AO2 T10061044
14926KSTC STC20191117150010811/17/19 15:00:31  5-MIN KSTC 172100Z 30013KT 10SM OVC019 00/M04 A2988 1070 72 -400 300/13 RMK AO2 T00001044
14926KSTC STC20191117150510911/17/19 15:05:31  5-MIN KSTC 172105Z 32009KT 10SM OVC020 M01/M04 A2988 1070 75 -500 320/09 RMK AO2 T10061044
14926KSTC STC20191117151010911/17/19 15:10:31  5-MIN KSTC 172110Z 33006KT 10SM OVC020 M01/M04 A2988 1070 75 -500 330/06 RMK AO2 T10061044
14926KSTC STC20191117151510911/17/19 15:15:31  5-MIN KSTC 172115Z 32009KT 10SM OVC020 M01/M04 A2988 1070 75 -500 320/09 RMK AO2 T10061044
14926KSTC STC20191117152010911/17/19 15:20:31  5-MIN KSTC 172120Z 32010KT 10SM OVC020 M01/M04 A2988 1070 75 -500 320/10 RMK AO2 T10061044
14926KSTC STC20191117152510911/17/19 15:25:31  5-MIN KSTC 172125Z 33007KT 10SM OVC020 M01/M04 A2988 1070 75 -500 320/07 RMK AO2 T10061044
14926KSTC STC20191117153010911/17/19 15:30:31  5-MIN KSTC 172130Z 32007KT 10SM OVC020 M01/M04 A2988 1070 75 -500 320/07 RMK AO2 T10061044
14926KSTC STC20191117153510911/17/19 15:35:31  5-MIN KSTC 172135Z 32009KT 10SM OVC020 M01/M04 A2988 1070 75 -500 320/09 RMK AO2 T10061044
14926KSTC STC20191117154010911/17/19 15:40:31  5-MIN KSTC 172140Z 32007KT 10SM OVC020 M01/M04 A2988 1070 75 -500 320/07 RMK AO2 T10061044
14926KSTC STC20191117154510911/17/19 15:45:31  5-MIN KSTC 172145Z 31008KT 10SM OVC020 M01/M04 A2989 1060 75 -500 310/08 RMK AO2 T10061044
14926KSTC STC20191117155011611/17/19 15:50:31  5-MIN KSTC 172150Z 31008KT 10SM OVC020 M01/M04 A2989 1060 75 -500 310/08 RMK AO2 SLP141 T10061044
14926KSTC STC20191117155511511/17/19 15:55:31  5-MIN KSTC 172155Z 31012G18KT 10SM OVC020 M01/M04 A2989 1060 75 -500 310/12G18 RMK AO2 T10061044
14926KSTC STC20191117160011511/17/19 16:00:31  5-MIN KSTC 172200Z 32009G18KT 10SM OVC020 M01/M04 A2989 1060 75 -500 320/09G18 RMK AO2 T10061044
14926KSTC STC20191117160510911/17/19 16:05:31  5-MIN KSTC 172205Z 32008KT 10SM OVC020 M01/M04 A2989 1060 75 -500 320/08 RMK AO2 T10061044
14926KSTC STC20191117161010911/17/19 16:10:31  5-MIN KSTC 172210Z 32007KT 10SM OVC019 M01/M04 A2989 1060 75 -500 320/07 RMK AO2 T10061044
14926KSTC STC20191117161510911/17/19 16:15:31  5-MIN KSTC 172215Z 32009KT 10SM OVC019 M01/M04 A2989 1060 75 -500 320/09 RMK AO2 T10061044
14926KSTC STC20191117162010911/17/19 16:20:31  5-MIN KSTC 172220Z 32008KT 10SM OVC019 M01/M04 A2989 1060 75 -500 320/08 RMK AO2 T10061044
14926KSTC STC20191117162510911/17/19 16:25:31  5-MIN KSTC 172225Z 32009KT 10SM OVC019 M01/M04 A2989 1060 75 -500 320/09 RMK AO2 T10061044
14926KSTC STC20191117163010911/17/19 16:30:31  5-MIN KSTC 172230Z 33007KT 10SM OVC019 M01/M04 A2989 1060 75 -500 330/07 RMK AO2 T10061044
14926KSTC STC20191117163510911/17/19 16:35:31  5-MIN KSTC 172235Z 32007KT 10SM OVC018 M01/M04 A2989 1060 75 -500 320/07 RMK AO2 T10061044
14926KSTC STC20191117164010911/17/19 16:40:31  5-MIN KSTC 172240Z 33008KT 10SM OVC018 M01/M04 A2990 1060 75 -500 330/08 RMK AO2 T10061044
14926KSTC STC20191117164510911/17/19 16:45:31  5-MIN KSTC 172245Z 33007KT 10SM OVC018 M01/M04 A2989 1060 75 -500 330/07 RMK AO2 T10061044
14926KSTC STC20191117165011611/17/19 16:50:31  5-MIN KSTC 172250Z 32009KT 10SM OVC018 M01/M04 A2989 1060 75 -500 320/09 RMK AO2 SLP143 T10061044
14926KSTC STC20191117165510911/17/19 16:55:31  5-MIN KSTC 172255Z 33007KT 10SM OVC018 M01/M04 A2989 1060 75 -500 330/07 RMK AO2 T10061044
14926KSTC STC20191117170010911/17/19 17:00:31  5-MIN KSTC 172300Z 33005KT 10SM OVC018 M01/M04 A2989 1060 75 -500 330/05 RMK AO2 T10061044
14926KSTC STC20191117170510911/17/19 17:05:31  5-MIN KSTC 172305Z 34006KT 10SM OVC018 M01/M04 A2989 1070 75 -500 330/06 RMK AO2 T10061044
14926KSTC STC20191117171010911/17/19 17:10:31  5-MIN KSTC 172310Z 33007KT 10SM OVC018 M01/M04 A2989 1060 75 -500 330/07 RMK AO2 T10061044
14926KSTC STC20191117171510911/17/19 17:15:31  5-MIN KSTC 172315Z 32006KT 10SM OVC017 M01/M04 A2989 1060 75 -500 320/06 RMK AO2 T10061044
14926KSTC STC20191117172010911/17/19 17:20:31  5-MIN KSTC 172320Z 32007KT 10SM OVC017 M01/M04 A2989 1060 75 -500 320/07 RMK AO2 T10061044
14926KSTC STC20191117172510911/17/19 17:25:31  5-MIN KSTC 172325Z 34005KT 10SM OVC017 M01/M04 A2989 1070 75 -500 340/05 RMK AO2 T10061044
14926KSTC STC20191117173010911/17/19 17:30:31  5-MIN KSTC 172330Z 34005KT 10SM OVC017 M01/M04 A2988 1070 75 -500 330/05 RMK AO2 T10061044
14926KSTC STC20191117173510911/17/19 17:35:31  5-MIN KSTC 172335Z 33004KT 10SM OVC017 M01/M04 A2988 1070 78 -600 330/04 RMK AO2 T10111044
14926KSTC STC20191117174010911/17/19 17:40:31  5-MIN KSTC 172340Z 35005KT 10SM OVC016 M01/M04 A2988 1070 78 -500 350/05 RMK AO2 T10061039
14926KSTC STC20191117174510911/17/19 17:45:31  5-MIN KSTC 172345Z 35005KT 10SM OVC016 M01/M04 A2988 1070 75 -500 350/05 RMK AO2 T10061044
14926KSTC STC20191117175013411/17/19 17:50:31  5-MIN KSTC 172350Z 34006KT 10SM OVC016 M01/M04 A2988 1080 75 -500 340/06 RMK AO2 SLP136 T10061044 10011 21011 55005
14926KSTC STC20191117175510911/17/19 17:55:31  5-MIN KSTC 172355Z 35004KT 10SM OVC016 M01/M04 A2987 1080 78 -500 350/04 RMK AO2 T10111044
14926KSTC STC20191117180010911/17/19 18:00:31  5-MIN KSTC 180000Z 35004KT 10SM OVC016 M01/M04 A2987 1080 81 -500 350/04 RMK AO2 T10111039
14926KSTC STC20191117180510911/17/19 18:05:31  5-MIN KSTC 180005Z 34003KT 10SM OVC016 M01/M04 A2987 1080 81 -500 340/03 RMK AO2 T10111039
14926KSTC STC20191117181010911/17/19 18:10:31  5-MIN KSTC 180010Z 35005KT 10SM OVC016 M01/M04 A2987 1080 81 -500 350/05 RMK AO2 T10111039
14926KSTC STC20191117181510911/17/19 18:15:31  5-MIN KSTC 180015Z 34004KT 10SM OVC016 M01/M04 A2987 1080 81 -500 340/04 RMK AO2 T10111039
14926KSTC STC20191117182010911/17/19 18:20:31  5-MIN KSTC 180020Z 35003KT 10SM OVC016 M01/M04 A2987 1080 78 -500 350/03 RMK AO2 T10111044
14926KSTC STC20191117182510911/17/19 18:25:31  5-MIN KSTC 180025Z 34003KT 10SM OVC016 M01/M04 A2987 1080 78 -500 340/03 RMK AO2 T10111044
14926KSTC STC20191117183010911/17/19 18:30:31  5-MIN KSTC 180030Z 33004KT 10SM OVC016 M01/M04 A2987 1080 78 -500 320/04 RMK AO2 T10111044
14926KSTC STC20191117183510911/17/19 18:35:31  5-MIN KSTC 180035Z 33003KT 10SM OVC016 M01/M04 A2987 1080 81 -500 330/03 RMK AO2 T10111039
14926KSTC STC20191117184010911/17/19 18:40:31  5-MIN KSTC 180040Z 33003KT 10SM OVC016 M01/M04 A2987 1080 81 -500 330/03 RMK AO2 T10111039
14926KSTC STC20191117184510911/17/19 18:45:31  5-MIN KSTC 180045Z 32004KT 10SM OVC015 M01/M04 A2987 1080 81 -500 320/04 RMK AO2 T10111039
14926KSTC STC20191117185011611/17/19 18:50:31  5-MIN KSTC 180050Z 30005KT 10SM OVC015 M01/M04 A2987 1080 81 -500 300/05 RMK AO2 SLP134 T10111039
14926KSTC STC20191117185510911/17/19 18:55:31  5-MIN KSTC 180055Z 32004KT 10SM OVC015 M01/M04 A2987 1080 81 -500 320/04 RMK AO2 T10111039
14926KSTC STC20191117190010911/17/19 19:00:31  5-MIN KSTC 180100Z 31008KT 10SM OVC015 M01/M04 A2987 1080 81 -500 300/08 RMK AO2 T10111039
14926KSTC STC20191117190510911/17/19 19:05:31  5-MIN KSTC 180105Z 30008KT 10SM OVC015 M01/M04 A2987 1080 81 -500 290/08 RMK AO2 T10111039
14926KSTC STC20191117191010911/17/19 19:10:31  5-MIN KSTC 180110Z 29008KT 10SM OVC015 M01/M04 A2987 1080 81 -500 290/08 RMK AO2 T10111039
14926KSTC STC20191117191510911/17/19 19:15:31  5-MIN KSTC 180115Z 30009KT 10SM OVC015 M01/M04 A2987 1080 78 -500 300/09 RMK AO2 T10111044
14926KSTC STC20191117192010911/17/19 19:20:31  5-MIN KSTC 180120Z 28009KT 10SM OVC015 M01/M04 A2987 1080 78 -500 280/09 RMK AO2 T10111044
14926KSTC STC20191117192510911/17/19 19:25:31  5-MIN KSTC 180125Z 28007KT 10SM OVC015 M01/M04 A2987 1080 78 -500 280/07 RMK AO2 T10111044
14926KSTC STC20191117193010911/17/19 19:30:31  5-MIN KSTC 180130Z 29007KT 10SM OVC015 M01/M04 A2987 1080 78 -500 280/07 RMK AO2 T10111044
14926KSTC STC20191117193510911/17/19 19:35:31  5-MIN KSTC 180135Z 29009KT 10SM OVC015 M01/M04 A2987 1080 78 -500 290/09 RMK AO2 T10111044
14926KSTC STC20191117194010911/17/19 19:40:31  5-MIN KSTC 180140Z 31008KT 10SM OVC015 M01/M04 A2987 1080 78 -500 310/08 RMK AO2 T10111044
14926KSTC STC20191117194510911/17/19 19:45:31  5-MIN KSTC 180145Z 33007KT 10SM OVC015 M01/M04 A2986 1080 78 -500 330/07 RMK AO2 T10111044
14926KSTC STC20191117195011611/17/19 19:50:31  5-MIN KSTC 180150Z 32008KT 10SM OVC015 M01/M04 A2987 1080 78 -500 320/08 RMK AO2 SLP133 T10111044
14926KSTC STC20191117195510911/17/19 19:55:31  5-MIN KSTC 180155Z 32007KT 10SM OVC015 M01/M04 A2987 1080 78 -500 320/07 RMK AO2 T10111044
14926KSTC STC20191117200010911/17/19 20:00:31  5-MIN KSTC 180200Z 33006KT 10SM OVC015 M01/M04 A2987 1080 78 -500 330/06 RMK AO2 T10111044
14926KSTC STC20191117200510911/17/19 20:05:31  5-MIN KSTC 180205Z 33005KT 10SM OVC015 M01/M04 A2987 1080 78 -500 330/05 RMK AO2 T10111044
14926KSTC STC20191117201010911/17/19 20:10:31  5-MIN KSTC 180210Z 33004KT 10SM OVC015 M01/M04 A2987 1080 78 -500 330/04 RMK AO2 T10111044
14926KSTC STC20191117201510911/17/19 20:15:31  5-MIN KSTC 180215Z 33004KT 10SM OVC015 M01/M04 A2986 1090 78 -500 330/04 RMK AO2 T10111044
14926KSTC STC20191117202010911/17/19 20:20:31  5-MIN KSTC 180220Z 32004KT 10SM OVC015 M01/M04 A2986 1090 78 -500 320/04 RMK AO2 T10111044
14926KSTC STC20191117202510911/17/19 20:25:31  5-MIN KSTC 180225Z 32005KT 10SM OVC015 M01/M04 A2986 1090 78 -500 320/05 RMK AO2 T10111044
14926KSTC STC20191117203010911/17/19 20:30:31  5-MIN KSTC 180230Z 32005KT 10SM OVC015 M01/M04 A2986 1090 78 -500 310/05 RMK AO2 T10111044
14926KSTC STC20191117203509911/17/19 20:35:31  5-MIN KSTC 180235Z 10SM OVC015 M01/M04 A2986 1090 78 -500 M /M RMK AO2 T10111044
14926KSTC STC20191117204009911/17/19 20:40:31  5-MIN KSTC 180240Z 10SM OVC015 M01/M04 A2986 1090 78 -500 M /M RMK AO2 T10111044
14926KSTC STC20191117204509911/17/19 20:45:31  5-MIN KSTC 180245Z 10SM OVC015 M01/M04 A2986 1090 78 -500 M /M RMK AO2 T10111044
14926KSTC STC20191117205012211/17/19 20:50:31  5-MIN KSTC 180250Z 32003KT 10SM OVC015 M01/M04 A2986 1090 78 -500 320/03 RMK AO2 SLP132 T10111044 58003
14926KSTC STC20191117205509911/17/19 20:55:31  5-MIN KSTC 180255Z 10SM OVC015 M01/M04 A2986 1090 78 -500 M /M RMK AO2 T10111044
14926KSTC STC20191117210009911/17/19 21:00:31  5-MIN KSTC 180300Z 10SM OVC015 M01/M04 A2986 1090 78 -500 M /M RMK AO2 T10111044
14926KSTC STC20191117210509911/17/19 21:05:31  5-MIN KSTC 180305Z 10SM OVC015 M01/M04 A2987 1080 78 -500 M /M RMK AO2 T10111044
14926KSTC STC20191117211009911/17/19 21:10:31  5-MIN KSTC 180310Z 10SM OVC015 M01/M04 A2986 1090 78 -500 M /M RMK AO2 T10111044
14926KSTC STC20191117211509911/17/19 21:15:31  5-MIN KSTC 180315Z 10SM OVC015 M01/M04 A2986 1090 78 -500 M /M RMK AO2 T10111044
14926KSTC STC20191117212009911/17/19 21:20:31  5-MIN KSTC 180320Z 10SM OVC015 M01/M04 A2986 1090 81 -500 M /M RMK AO2 T10111039
14926KSTC STC20191117212510911/17/19 21:25:31  5-MIN KSTC 180325Z 34003KT 10SM OVC015 M01/M04 A2986 1090 78 -500 340/03 RMK AO2 T10111044
14926KSTC STC20191117213010911/17/19 21:30:31  5-MIN KSTC 180330Z 00000KT 10SM OVC015 M01/M04 A2986 1090 81 -500 000/00 RMK AO2 T10111039
14926KSTC STC20191117213510911/17/19 21:35:31  5-MIN KSTC 180335Z 00000KT 10SM OVC015 M01/M04 A2985 1100 78 -500 000/00 RMK AO2 T10111044
14926KSTC STC20191117214010911/17/19 21:40:31  5-MIN KSTC 180340Z 00000KT 10SM OVC015 M01/M04 A2985 1100 81 -500 000/00 RMK AO2 T10111039
14926KSTC STC20191117214510911/17/19 21:45:31  5-MIN KSTC 180345Z 00000KT 10SM OVC015 M01/M04 A2985 1100 81 -500 000/00 RMK AO2 T10111039
14926KSTC STC20191117215011611/17/19 21:50:31  5-MIN KSTC 180350Z 00000KT 10SM OVC015 M01/M04 A2985 1100 81 -500 000/00 RMK AO2 SLP127 T10111039
14926KSTC STC20191117215510911/17/19 21:55:31  5-MIN KSTC 180355Z 00000KT 10SM OVC015 M01/M04 A2985 1100 81 -500 000/00 RMK AO2 T10111039
14926KSTC STC20191117220010911/17/19 22:00:31  5-MIN KSTC 180400Z 00000KT 10SM OVC015 M01/M04 A2984 1110 81 -500 000/00 RMK AO2 T10111039
14926KSTC STC20191117220510911/17/19 22:05:31  5-MIN KSTC 180405Z 00000KT 10SM OVC015 M01/M04 A2984 1110 81 -500 000/00 RMK AO2 T10111039
14926KSTC STC20191117221010911/17/19 22:10:31  5-MIN KSTC 180410Z 00000KT 10SM OVC015 M01/M04 A2984 1110 81 -500 000/00 RMK AO2 T10111039
14926KSTC STC20191117221510911/17/19 22:15:31  5-MIN KSTC 180415Z 00000KT 10SM OVC015 M01/M04 A2984 1110 81 -500 000/00 RMK AO2 T10111039
14926KSTC STC20191117222010911/17/19 22:20:31  5-MIN KSTC 180420Z 00000KT 10SM OVC015 M01/M04 A2984 1110 78 -500 000/00 RMK AO2 T10111044
14926KSTC STC20191117222510911/17/19 22:25:31  5-MIN KSTC 180425Z 00000KT 10SM OVC015 M01/M04 A2983 1110 81 -500 000/00 RMK AO2 T10111039
14926KSTC STC20191117223010911/17/19 22:30:31  5-MIN KSTC 180430Z 00000KT 10SM OVC015 M01/M04 A2983 1110 81 -500 000/00 RMK AO2 T10111039
14926KSTC STC20191117223510911/17/19 22:35:31  5-MIN KSTC 180435Z 00000KT 10SM OVC015 M01/M04 A2984 1110 78 -500 000/00 RMK AO2 T10111044
14926KSTC STC20191117224010911/17/19 22:40:31  5-MIN KSTC 180440Z 00000KT 10SM OVC015 M01/M04 A2984 1110 81 -500 000/00 RMK AO2 T10111039
14926KSTC STC20191117224510911/17/19 22:45:31  5-MIN KSTC 180445Z 00000KT 10SM OVC015 M01/M04 A2984 1110 81 -500 000/00 RMK AO2 T10111039
14926KSTC STC20191117225011611/17/19 22:50:31  5-MIN KSTC 180450Z 00000KT 10SM OVC015 M01/M04 A2983 1110 81 -500 000/00 RMK AO2 SLP122 T10111039
14926KSTC STC20191117225510911/17/19 22:55:31  5-MIN KSTC 180455Z 00000KT 10SM OVC015 M01/M04 A2983 1110 81 -500 000/00 RMK AO2 T10111039
14926KSTC STC20191117230010911/17/19 23:00:31  5-MIN KSTC 180500Z 00000KT 10SM OVC015 M01/M04 A2983 1120 81 -500 000/00 RMK AO2 T10111039
14926KSTC STC20191117230511411/17/19 23:05:31  5-MIN KSTC 180505Z AUTO 00000KT 10SM OVC015 M01/M04 A2983 1120 81 -500 000/00 RMK AO2 T10111039
14926KSTC STC20191117231011411/17/19 23:10:31  5-MIN KSTC 180510Z AUTO 00000KT 10SM OVC015 M01/M04 A2982 1120 81 -500 000/00 RMK AO2 T10111039
14926KSTC STC20191117231511411/17/19 23:15:31  5-MIN KSTC 180515Z AUTO 00000KT 10SM OVC015 M01/M04 A2983 1120 81 -500 000/00 RMK AO2 T10111039
14926KSTC STC20191117232011411/17/19 23:20:31  5-MIN KSTC 180520Z AUTO 00000KT 10SM OVC015 M01/M04 A2983 1120 81 -500 000/00 RMK AO2 T10111039
14926KSTC STC20191117232511411/17/19 23:25:31  5-MIN KSTC 180525Z AUTO 00000KT 10SM OVC015 M01/M04 A2983 1120 81 -500 000/00 RMK AO2 T10111039
14926KSTC STC20191117233011411/17/19 23:30:31  5-MIN KSTC 180530Z AUTO 00000KT 10SM OVC015 M01/M04 A2983 1120 81 -500 000/00 RMK AO2 T10111039
14926KSTC STC20191117233511411/17/19 23:35:31  5-MIN KSTC 180535Z AUTO 00000KT 10SM OVC015 M01/M04 A2983 1110 81 -500 000/00 RMK AO2 T10111039
14926KSTC STC20191117234011411/17/19 23:40:31  5-MIN KSTC 180540Z AUTO 00000KT 10SM OVC015 M01/M04 A2983 1120 81 -500 000/00 RMK AO2 T10111039
14926KSTC STC20191117234511411/17/19 23:45:31  5-MIN KSTC 180545Z AUTO 00000KT 10SM OVC015 M01/M04 A2983 1120 81 -500 000/00 RMK AO2 T10111039
14926KSTC STC20191117235014911/17/19 23:50:31  5-MIN KSTC 180550Z AUTO 00000KT 10SM OVC015 M01/M04 A2983 1120 81 -500 000/00 RMK AO2 SLP120 T10111039 11011 21011 400281011 58003
14926KSTC STC20191117235511411/17/19 23:55:31  5-MIN KSTC 180555Z AUTO 00000KT 10SM OVC014 M01/M04 A2982 1120 81 -500 000/00 RMK AO2 T10111039
14926KSTC STC20191118000011411/18/19 00:00:31  5-MIN KSTC 180600Z AUTO 00000KT 10SM OVC014 M01/M04 A2982 1120 81 -500 000/00 RMK AO2 T10111039
14926KSTC STC20191118000511411/18/19 00:05:31  5-MIN KSTC 180605Z AUTO 00000KT 10SM OVC014 M01/M03 A2982 1120 85 -500 000/00 RMK AO2 T10111033
14926KSTC STC20191118001011411/18/19 00:10:31  5-MIN KSTC 180610Z AUTO 00000KT 10SM OVC014 M01/M03 A2981 1130 85 -500 000/00 RMK AO2 T10111033
14926KSTC STC20191118001511411/18/19 00:15:31  5-MIN KSTC 180615Z AUTO 00000KT 10SM OVC014 M01/M04 A2981 1140 81 -500 000/00 RMK AO2 T10111039
14926KSTC STC20191118002011411/18/19 00:20:31  5-MIN KSTC 180620Z AUTO 00000KT 10SM OVC014 M01/M04 A2981 1140 81 -500 000/00 RMK AO2 T10111039
14926KSTC STC20191118002511411/18/19 00:25:31  5-MIN KSTC 180625Z AUTO 00000KT 10SM OVC014 M01/M04 A2981 1140 81 -500 000/00 RMK AO2 T10111039
14926KSTC STC20191118003011411/18/19 00:30:31  5-MIN KSTC 180630Z AUTO 04003KT 10SM OVC014 M01/M04 A2981 1140 81 -500 040/03 RMK AO2 T10111039
14926KSTC STC20191118003511411/18/19 00:35:31  5-MIN KSTC 180635Z AUTO 00000KT 10SM OVC014 M01/M04 A2981 1140 81 -500 000/00 RMK AO2 T10111039
14926KSTC STC20191118004011411/18/19 00:40:31  5-MIN KSTC 180640Z AUTO 00000KT 10SM OVC014 M01/M04 A2981 1140 81 -500 000/00 RMK AO2 T10111039
14926KSTC STC20191118004511411/18/19 00:45:31  5-MIN KSTC 180645Z AUTO 00000KT 10SM OVC014 M01/M04 A2980 1140 81 -500 000/00 RMK AO2 T10111039
14926KSTC STC20191118005012111/18/19 00:50:31  5-MIN KSTC 180650Z AUTO 00000KT 10SM OVC014 M01/M04 A2980 1140 81 -500 000/00 RMK AO2 SLP113 T10111039
14926KSTC STC20191118005511411/18/19 00:55:31  5-MIN KSTC 180655Z AUTO 00000KT 10SM OVC014 M01/M04 A2980 1140 81 -500 000/00 RMK AO2 T10111039
14926KSTC STC20191118010011411/18/19 01:00:31  5-MIN KSTC 180700Z AUTO 00000KT 10SM OVC014 M01/M04 A2980 1150 81 -500 000/00 RMK AO2 T10111039
14926KSTC STC20191118010511411/18/19 01:05:31  5-MIN KSTC 180705Z AUTO 20003KT 10SM OVC014 M01/M04 A2980 1150 81 -500 190/03 RMK AO2 T10111039
14926KSTC STC20191118011011411/18/19 01:10:31  5-MIN KSTC 180710Z AUTO 22004KT 10SM OVC014 M01/M04 A2980 1150 81 -500 220/04 RMK AO2 T10111039
14926KSTC STC20191118011511411/18/19 01:15:31  5-MIN KSTC 180715Z AUTO 22005KT 10SM OVC013 M01/M04 A2979 1150 81 -500 220/05 RMK AO2 T10111039
14926KSTC STC20191118012011411/18/19 01:20:31  5-MIN KSTC 180720Z AUTO 21004KT 10SM OVC013 M01/M04 A2979 1150 81 -400 210/04 RMK AO2 T10111039
14926KSTC STC20191118012511411/18/19 01:25:31  5-MIN KSTC 180725Z AUTO 19005KT 10SM OVC013 M01/M04 A2979 1160 81 -400 190/05 RMK AO2 T10111039
14926KSTC STC20191118013011411/18/19 01:30:31  5-MIN KSTC 180730Z AUTO 20004KT 10SM OVC013 M01/M04 A2979 1150 81 -400 200/04 RMK AO2 T10111039
14926KSTC STC20191118013511411/18/19 01:35:31  5-MIN KSTC 180735Z AUTO 21003KT 10SM OVC013 M01/M04 A2979 1150 81 -400 200/03 RMK AO2 T10111039
14926KSTC STC20191118014011411/18/19 01:40:31  5-MIN KSTC 180740Z AUTO 24003KT 10SM OVC013 M01/M04 A2980 1150 81 -500 240/03 RMK AO2 T10111039
14926KSTC STC20191118014511411/18/19 01:45:31  5-MIN KSTC 180745Z AUTO 20003KT 10SM OVC013 M01/M04 A2979 1160 81 -400 200/03 RMK AO2 T10111039
14926KSTC STC20191118015012111/18/19 01:50:31  5-MIN KSTC 180750Z AUTO 16004KT 10SM OVC013 M01/M04 A2978 1160 81 -400 160/04 RMK AO2 SLP106 T10111039
14926KSTC STC20191118015511411/18/19 01:55:31  5-MIN KSTC 180755Z AUTO 17003KT 10SM OVC013 M01/M04 A2978 1160 81 -400 170/03 RMK AO2 T10111039
14926KSTC STC20191118020011411/18/19 02:00:31  5-MIN KSTC 180800Z AUTO 00000KT 10SM OVC013 M01/M04 A2978 1160 81 -400 000/00 RMK AO2 T10111039
14926KSTC STC20191118020511411/18/19 02:05:31  5-MIN KSTC 180805Z AUTO 14003KT 10SM OVC014 M01/M04 A2978 1170 81 -400 140/03 RMK AO2 T10111039
14926KSTC STC20191118021011411/18/19 02:10:31  5-MIN KSTC 180810Z AUTO 00000KT 10SM OVC014 M01/M04 A2978 1160 81 -400 000/00 RMK AO2 T10111039
14926KSTC STC20191118021511411/18/19 02:15:31  5-MIN KSTC 180815Z AUTO 14004KT 10SM OVC014 M01/M04 A2977 1170 81 -400 130/04 RMK AO2 T10111039
14926KSTC STC20191118022011411/18/19 02:20:31  5-MIN KSTC 180820Z AUTO 14005KT 10SM OVC013 M01/M04 A2977 1170 81 -400 140/05 RMK AO2 T10111039
14926KSTC STC20191118022511411/18/19 02:25:31  5-MIN KSTC 180825Z AUTO 13004KT 10SM OVC013 M01/M04 A2977 1170 81 -400 130/04 RMK AO2 T10111039
14926KSTC STC20191118023011411/18/19 02:30:31  5-MIN KSTC 180830Z AUTO 00000KT 10SM OVC013 M01/M04 A2978 1160 81 -400 000/00 RMK AO2 T10111039
14926KSTC STC20191118023511411/18/19 02:35:31  5-MIN KSTC 180835Z AUTO 00000KT 10SM OVC012 M01/M04 A2978 1160 81 -400 000/00 RMK AO2 T10111039
14926KSTC STC20191118024011411/18/19 02:40:31  5-MIN KSTC 180840Z AUTO 00000KT 10SM OVC012 M01/M04 A2978 1160 81 -400 000/00 RMK AO2 T10111039
14926KSTC STC20191118024511411/18/19 02:45:31  5-MIN KSTC 180845Z AUTO 00000KT 10SM OVC012 M01/M03 A2978 1160 85 -400 000/00 RMK AO2 T10111033
14926KSTC STC20191118025012711/18/19 02:50:31  5-MIN KSTC 180850Z AUTO 17003KT 10SM OVC012 M01/M03 A2978 1160 85 -400 170/03 RMK AO2 SLP104 T10111033 56012
14926KSTC STC20191118025511411/18/19 02:55:31  5-MIN KSTC 180855Z AUTO 00000KT 10SM OVC012 M01/M03 A2978 1170 85 -400 000/00 RMK AO2 T10111033
14926KSTC STC20191118030011411/18/19 03:00:31  5-MIN KSTC 180900Z AUTO 17004KT 10SM OVC012 M01/M03 A2978 1160 85 -400 170/04 RMK AO2 T10111033
14926KSTC STC20191118030511411/18/19 03:05:31  5-MIN KSTC 180905Z AUTO 00000KT 10SM OVC012 M01/M03 A2978 1160 85 -400 000/00 RMK AO2 T10111033
14926KSTC STC20191118031011411/18/19 03:10:31  5-MIN KSTC 180910Z AUTO 17004KT 10SM OVC011 M01/M03 A2978 1170 85 -400 170/04 RMK AO2 T10111033
14926KSTC STC20191118031511411/18/19 03:15:31  5-MIN KSTC 180915Z AUTO 16003KT 10SM OVC011 M01/M03 A2977 1170 85 -400 160/03 RMK AO2 T10111033
14926KSTC STC20191118032010411/18/19 03:20:31  5-MIN KSTC 180920Z AUTO 10SM OVC011 M01/M03 A2977 1170 85 -400 M /M RMK AO2 T10111033
14926KSTC STC20191118032511411/18/19 03:25:31  5-MIN KSTC 180925Z AUTO 16003KT 10SM OVC011 M01/M03 A2977 1170 85 -400 160/03 RMK AO2 T10111033
14926KSTC STC20191118033011411/18/19 03:30:31  5-MIN KSTC 180930Z AUTO 15003KT 10SM OVC011 M01/M03 A2977 1170 85 -400 150/03 RMK AO2 T10111033
14926KSTC STC20191118033511411/18/19 03:35:31  5-MIN KSTC 180935Z AUTO 15003KT 10SM OVC010 M01/M03 A2977 1170 85 -400 150/03 RMK AO2 T10111033
14926KSTC STC20191118034011411/18/19 03:40:31  5-MIN KSTC 180940Z AUTO 16003KT 10SM OVC010 M01/M03 A2977 1170 85 -400 160/03 RMK AO2 T10111033
14926KSTC STC20191118034511411/18/19 03:45:31  5-MIN KSTC 180945Z AUTO 16004KT 10SM OVC011 M01/M03 A2976 1180 85 -400 160/04 RMK AO2 T10111033
14926KSTC STC20191118035012111/18/19 03:50:31  5-MIN KSTC 180950Z AUTO 17004KT 10SM OVC011 M01/M03 A2976 1180 85 -400 170/04 RMK AO2 SLP099 T10111033
14926KSTC STC20191118035512111/18/19 03:55:31  5-MIN KSTC 180955Z AUTO 18004KT 10SM BKN009 OVC013 M01/M03 A2976 1180 85 -400 180/04 RMK AO2 T10111033
14926KSTC STC20191118040012111/18/19 04:00:31  5-MIN KSTC 181000Z AUTO 16003KT 10SM BKN009 OVC013 M01/M03 A2976 1180 85 -400 160/03 RMK AO2 T10111033
14926KSTC STC20191118040512111/18/19 04:05:31  5-MIN KSTC 181005Z AUTO 17004KT 10SM BKN009 OVC013 M01/M03 A2976 1180 85 -400 170/04 RMK AO2 T10111033
14926KSTC STC20191118041011411/18/19 04:10:31  5-MIN KSTC 181010Z AUTO 17004KT 10SM OVC009 M01/M03 A2976 1180 85 -400 160/04 RMK AO2 T10111033
14926KSTC STC20191118041511411/18/19 04:15:31  5-MIN KSTC 181015Z AUTO 17005KT 10SM OVC009 M01/M03 A2976 1180 85 -400 170/05 RMK AO2 T10111033
14926KSTC STC20191118042011411/18/19 04:20:31  5-MIN KSTC 181020Z AUTO 18005KT 10SM OVC009 M01/M03 A2976 1180 85 -400 180/05 RMK AO2 T10111033
14926KSTC STC20191118042511411/18/19 04:25:31  5-MIN KSTC 181025Z AUTO 18006KT 10SM OVC009 M01/M03 A2977 1180 85 -400 180/06 RMK AO2 T10111033
14926KSTC STC20191118043011411/18/19 04:30:31  5-MIN KSTC 181030Z AUTO 18006KT 10SM OVC009 M01/M03 A2977 1180 85 -400 170/06 RMK AO2 T10111033
14926KSTC STC20191118043511411/18/19 04:35:31  5-MIN KSTC 181035Z AUTO 18006KT 10SM OVC009 M01/M03 A2977 1180 85 -400 180/06 RMK AO2 T10111033
14926KSTC STC20191118044011411/18/19 04:40:31  5-MIN KSTC 181040Z AUTO 17005KT 10SM OVC009 M01/M03 A2977 1180 85 -400 170/05 RMK AO2 T10111033
14926KSTC STC20191118044511411/18/19 04:45:31  5-MIN KSTC 181045Z AUTO 17005KT 10SM OVC009 M01/M03 A2977 1180 85 -400 170/05 RMK AO2 T10111033
14926KSTC STC20191118045012111/18/19 04:50:31  5-MIN KSTC 181050Z AUTO 19005KT 10SM OVC008 M01/M03 A2977 1180 85 -400 180/05 RMK AO2 SLP100 T10111033
14926KSTC STC20191118045511411/18/19 04:55:31  5-MIN KSTC 181055Z AUTO 19006KT 10SM OVC008 M01/M03 A2977 1180 85 -400 190/06 RMK AO2 T10111033
14926KSTC STC20191118050011411/18/19 05:00:31  5-MIN KSTC 181100Z AUTO 19006KT 10SM OVC008 M02/M03 A2976 1180 88 -500 190/06 RMK AO2 T10171033
14926KSTC STC20191118050511411/18/19 05:05:31  5-MIN KSTC 181105Z AUTO 18006KT 10SM OVC008 M02/M03 A2977 1180 92 -500 180/06 RMK AO2 T10171028
14926KSTC STC20191118051011311/18/19 05:10:31  5-MIN KSTC 181110Z AUTO 18006KT 7SM OVC008 M02/M03 A2977 1180 92 -500 180/06 RMK AO2 T10171028
14926KSTC STC20191118051511611/18/19 05:15:31  5-MIN KSTC 181115Z AUTO 18006KT 6SM BR OVC007 M02/M03 A2976 1180 92 -500 180/06 RMK AO2 T10171028
14926KSTC STC20191118052011311/18/19 05:20:31  5-MIN KSTC 181120Z AUTO 17006KT 7SM OVC007 M02/M03 A2976 1180 92 -500 170/06 RMK AO2 T10171028
14926KSTC STC20191118052511611/18/19 05:25:31  5-MIN KSTC 181125Z AUTO 16005KT 6SM BR OVC006 M02/M03 A2976 1180 92 -500 160/05 RMK AO2 T10171028
14926KSTC STC20191118053011611/18/19 05:30:31  5-MIN KSTC 181130Z AUTO 17004KT 5SM BR OVC006 M02/M03 A2976 1180 92 -500 170/04 RMK AO2 T10171028
14926KSTC STC20191118053511611/18/19 05:35:31  5-MIN KSTC 181135Z AUTO 16005KT 6SM BR OVC006 M02/M03 A2976 1180 92 -500 150/05 RMK AO2 T10171028
14926KSTC STC20191118054011611/18/19 05:40:31  5-MIN KSTC 181140Z AUTO 15005KT 6SM BR OVC006 M02/M03 A2976 1180 92 -500 150/05 RMK AO2 T10171028
14926KSTC STC20191118054511311/18/19 05:45:31  5-MIN KSTC 181145Z AUTO 15006KT 7SM OVC006 M02/M03 A2975 1190 92 -500 150/06 RMK AO2 T10171028
14926KSTC STC20191118055013811/18/19 05:50:31  5-MIN KSTC 181150Z AUTO 15006KT 8SM OVC005 M02/M03 A2975 1190 92 -500 150/06 RMK AO2 SLP095 T10171028 11011 21017 56016
14926KSTC STC20191118055511311/18/19 05:55:31  5-MIN KSTC 181155Z AUTO 15005KT 9SM OVC005 M02/M03 A2975 1190 92 -500 150/05 RMK AO2 T10171028
14926KSTC STC20191118060011311/18/19 06:00:31  5-MIN KSTC 181200Z AUTO 15005KT 9SM OVC005 M02/M03 A2975 1190 92 -500 150/05 RMK AO2 T10171028
14926KSTC STC20191118060511311/18/19 06:05:31  5-MIN KSTC 181205Z AUTO 16005KT 9SM OVC005 M02/M02 A2975 1190 96 -500 160/05 RMK AO2 T10171022
14926KSTC STC20191118061011311/18/19 06:10:31  5-MIN KSTC 181210Z AUTO 14005KT 8SM OVC005 M02/M02 A2975 1190 96 -500 140/05 RMK AO2 T10171022
14926KSTC STC20191118061511311/18/19 06:15:31  5-MIN KSTC 181215Z AUTO 14005KT 7SM OVC005 M02/M02 A2975 1190 96 -500 140/05 RMK AO2 T10171022
14926KSTC STC20191118062011311/18/19 06:20:31  5-MIN KSTC 181220Z AUTO 14005KT 7SM OVC005 M02/M02 A2975 1200 96 -500 140/05 RMK AO2 T10171022
14926KSTC STC20191118062511311/18/19 06:25:31  5-MIN KSTC 181225Z AUTO 14006KT 7SM OVC005 M02/M02 A2974 1200 96 -500 140/06 RMK AO2 T10171022
14926KSTC STC20191118063011311/18/19 06:30:31  5-MIN KSTC 181230Z AUTO 14006KT 7SM OVC005 M02/M02 A2974 1200 96 -500 140/06 RMK AO2 T10171022
14926KSTC STC20191118063511311/18/19 06:35:31  5-MIN KSTC 181235Z AUTO 14006KT 8SM OVC005 M02/M02 A2974 1200 96 -500 140/06 RMK AO2 T10171022
14926KSTC STC20191118064011311/18/19 06:40:31  5-MIN KSTC 181240Z AUTO 14006KT 9SM OVC005 M02/M02 A2974 1200 96 -500 140/06 RMK AO2 T10171022
14926KSTC STC20191118064510811/18/19 06:45:31  5-MIN KSTC 181245Z 13005KT 9SM OVC005 M02/M03 A2974 1200 92 -500 130/05 RMK AO2 T10171028
14926KSTC STC20191118065011511/18/19 06:50:31  5-MIN KSTC 181250Z 13006KT 9SM OVC005 M02/M02 A2974 1200 96 -500 130/06 RMK AO2 SLP093 T10171022
14926KSTC STC20191118065510911/18/19 06:55:31  5-MIN KSTC 181255Z 13006KT 10SM OVC005 M02/M03 A2975 1190 92 -500 130/06 RMK AO2 T10171028
14926KSTC STC20191118070010911/18/19 07:00:31  5-MIN KSTC 181300Z 14005KT 10SM OVC005 M01/M02 A2975 1200 92 -400 140/05 RMK AO2 T10111022
14926KSTC STC20191118070510811/18/19 07:05:31  5-MIN KSTC 181305Z 14005KT 9SM OVC005 M01/M02 A2975 1200 92 -400 140/05 RMK AO2 T10111022
14926KSTC STC20191118071010911/18/19 07:10:31  5-MIN KSTC 181310Z 14005KT 10SM OVC005 M01/M02 A2975 1190 92 -400 130/05 RMK AO2 T10111022
14926KSTC STC20191118071510811/18/19 07:15:31  5-MIN KSTC 181315Z 14006KT 9SM OVC005 M01/M02 A2975 1190 92 -400 140/06 RMK AO2 T10111022
14926KSTC STC20191118072010811/18/19 07:20:31  5-MIN KSTC 181320Z 13006KT 9SM OVC005 M01/M02 A2974 1200 92 -400 130/06 RMK AO2 T10111022
14926KSTC STC20191118072510811/18/19 07:25:31  5-MIN KSTC 181325Z 13006KT 8SM OVC005 M01/M02 A2974 1200 92 -400 130/06 RMK AO2 T10111022
14926KSTC STC20191118073010811/18/19 07:30:31  5-MIN KSTC 181330Z 12005KT 7SM OVC005 M01/M02 A2974 1200 92 -400 120/05 RMK AO2 T10111022
14926KSTC STC20191118073510811/18/19 07:35:31  5-MIN KSTC 181335Z 12006KT 7SM OVC005 M01/M02 A2974 1200 92 -400 110/06 RMK AO2 T10111022
14926KSTC STC20191118074010811/18/19 07:40:31  5-MIN KSTC 181340Z 11004KT 8SM OVC005 M01/M02 A2974 1200 92 -400 110/04 RMK AO2 T10111022
14926KSTC STC20191118074510811/18/19 07:45:31  5-MIN KSTC 181345Z 11005KT 8SM OVC005 M01/M02 A2974 1200 92 -400 110/05 RMK AO2 T10111022
14926KSTC STC20191118075011511/18/19 07:50:31  5-MIN KSTC 181350Z 12005KT 8SM OVC005 M01/M02 A2974 1200 92 -400 120/05 RMK AO2 SLP092 T10111022
14926KSTC STC20191118075510811/18/19 07:55:31  5-MIN KSTC 181355Z 14006KT 8SM OVC005 M01/M02 A2974 1200 92 -400 130/06 RMK AO2 T10111022
14926KSTC STC20191118080010811/18/19 08:00:31  5-MIN KSTC 181400Z 13006KT 8SM OVC005 M01/M02 A2974 1200 92 -400 130/06 RMK AO2 T10111022
14926KSTC STC20191118080510811/18/19 08:05:31  5-MIN KSTC 181405Z 12005KT 7SM OVC005 M01/M02 A2974 1200 92 -400 110/05 RMK AO2 T10111022
14926KSTC STC20191118081010811/18/19 08:10:31  5-MIN KSTC 181410Z 12005KT 7SM OVC005 M01/M02 A2974 1200 92 -400 120/05 RMK AO2 T10111022
14926KSTC STC20191118081511111/18/19 08:15:31  5-MIN KSTC 181415Z 12005KT 6SM BR OVC005 M01/M02 A2974 1200 92 -400 120/05 RMK AO2 T10111022
14926KSTC STC20191118082010811/18/19 08:20:31  5-MIN KSTC 181420Z 12006KT 7SM OVC005 M01/M02 A2974 1210 92 -400 120/06 RMK AO2 T10111022
14926KSTC STC20191118082510811/18/19 08:25:31  5-MIN KSTC 181425Z 13006KT 7SM OVC005 M01/M02 A2974 1200 92 -400 130/06 RMK AO2 T10111022
14926KSTC STC20191118083010811/18/19 08:30:31  5-MIN KSTC 181430Z 12006KT 7SM OVC005 M01/M02 A2973 1210 92 -400 110/06 RMK AO2 T10111022
14926KSTC STC20191118083511111/18/19 08:35:31  5-MIN KSTC 181435Z 11006KT 6SM BR OVC005 M01/M02 A2973 1210 92 -400 110/06 RMK AO2 T10111022
14926KSTC STC20191118084011111/18/19 08:40:31  5-MIN KSTC 181440Z 11006KT 6SM BR OVC005 M01/M02 A2973 1210 92 -400 110/06 RMK AO2 T10111022
14926KSTC STC20191118084511111/18/19 08:45:31  5-MIN KSTC 181445Z 11005KT 6SM BR OVC005 M01/M02 A2973 1210 92 -400 110/05 RMK AO2 T10111022
14926KSTC STC20191118085012411/18/19 08:50:31  5-MIN KSTC 181450Z 12006KT 6SM BR OVC005 M01/M02 A2972 1220 92 -400 120/06 RMK AO2 SLP086 T10111022 58009
14926KSTC STC20191118085511111/18/19 08:55:31  5-MIN KSTC 181455Z 13005KT 5SM BR OVC004 M01/M02 A2972 1220 92 -400 130/05 RMK AO2 T10111022
14926KSTC STC20191118090011111/18/19 09:00:31  5-MIN KSTC 181500Z 13007KT 4SM BR OVC004 M01/M02 A2972 1220 92 -400 130/07 RMK AO2 T10111022
14926KSTC STC20191118090511111/18/19 09:05:31  5-MIN KSTC 181505Z 13006KT 4SM BR OVC004 M01/M02 A2971 1220 92 -400 130/06 RMK AO2 T10111022
14926KSTC STC20191118091011111/18/19 09:10:31  5-MIN KSTC 181510Z 13006KT 4SM BR OVC004 M01/M02 A2971 1230 96 -400 130/06 RMK AO2 T10111017
14926KSTC STC20191118091511111/18/19 09:15:31  5-MIN KSTC 181515Z 12008KT 3SM BR OVC004 M01/M02 A2971 1230 96 -400 120/08 RMK AO2 T10111017
14926KSTC STC20191118092011111/18/19 09:20:31  5-MIN KSTC 181520Z 13008KT 3SM BR OVC004 M01/M02 A2971 1230 92 -300 130/08 RMK AO2 T10061017
14926KSTC STC20191118092511111/18/19 09:25:31  5-MIN KSTC 181525Z 13008KT 3SM BR OVC004 M01/M02 A2971 1230 92 -300 130/08 RMK AO2 T10061017
14926KSTC STC20191118093011111/18/19 09:30:31  5-MIN KSTC 181530Z 13007KT 4SM BR OVC004 M01/M02 A2971 1230 92 -300 130/07 RMK AO2 T10061017
14926KSTC STC20191118093511111/18/19 09:35:31  5-MIN KSTC 181535Z 12006KT 4SM BR OVC004 M01/M02 A2971 1230 92 -300 120/06 RMK AO2 T10061017
14926KSTC STC20191118094011111/18/19 09:40:31  5-MIN KSTC 181540Z 13006KT 4SM BR OVC004 M01/M02 A2971 1230 92 -300 130/06 RMK AO2 T10061017
14926KSTC STC20191118094511111/18/19 09:45:31  5-MIN KSTC 181545Z 14006KT 4SM BR OVC004 M01/M02 A2971 1230 92 -300 140/06 RMK AO2 T10061017
14926KSTC STC20191118095010511/18/19 09:50:31  5-MIN KSTC 181550Z 14008KT 1 1/2SM BR OVC003 M01/M02 A2971 1230 92 -300 140/08 RMK AO2
14926KSTC STC20191118095511511/18/19 09:55:31  5-MIN KSTC 181555Z 14008KT 1 1/2SM BR OVC003 M01/M02 A2971 1230 92 -300 140/08 RMK AO2 T10061017
14926KSTC STC20191118100011511/18/19 10:00:31  5-MIN KSTC 181600Z 14008KT 1 1/2SM BR OVC003 M01/M02 A2971 1230 92 -300 140/08 RMK AO2 T10061017
14926KSTC STC20191118100511511/18/19 10:05:31  5-MIN KSTC 181605Z 14008KT 1 1/2SM BR OVC003 M01/M01 A2971 1230 96 -300 140/08 RMK AO2 T10061011
14926KSTC STC20191118101011511/18/19 10:10:31  5-MIN KSTC 181610Z 14010KT 1 1/2SM BR OVC003 M01/M01 A2971 1230 96 -300 140/10 RMK AO2 T10061011
14926KSTC STC20191118101511511/18/19 10:15:31  5-MIN KSTC 181615Z 14011KT 1 1/2SM BR OVC003 M01/M01 A2971 1230 96 -300 140/11 RMK AO2 T10061011
14926KSTC STC20191118102011411/18/19 10:20:31  5-MIN KSTC 181620Z 14010KT 1 1/2SM BR OVC003 00/M01 A2970 1230 92 -200 140/10 RMK AO2 T00001011
14926KSTC STC20191118102511411/18/19 10:25:31  5-MIN KSTC 181625Z 14012KT 1 1/2SM BR OVC003 00/M01 A2971 1230 92 -200 140/12 RMK AO2 T00001011
14926KSTC STC20191118103011411/18/19 10:30:31  5-MIN KSTC 181630Z 15012KT 1 1/2SM BR OVC004 00/M01 A2971 1230 92 -200 150/12 RMK AO2 T00001011
14926KSTC STC20191118103511411/18/19 10:35:31  5-MIN KSTC 181635Z 15008KT 1 1/2SM BR OVC004 00/M01 A2971 1230 92 -200 150/08 RMK AO2 T00001011
14926KSTC STC20191118104011411/18/19 10:40:31  5-MIN KSTC 181640Z 15010KT 1 1/2SM BR OVC004 00/M01 A2971 1230 92 -200 150/10 RMK AO2 T00001011
14926KSTC STC20191118104511411/18/19 10:45:31  5-MIN KSTC 181645Z 14009KT 1 1/2SM BR OVC004 00/M01 A2970 1230 92 -200 140/09 RMK AO2 T00001011
14926KSTC STC20191118105010011/18/19 10:50:31  5-MIN KSTC 181650Z 14011KT 6SM BR OVC004 00/M01 A2970 1240 92 -200 140/11 RMK AO2
14926KSTC STC20191118105510711/18/19 10:55:31  5-MIN KSTC 181655Z 14010KT 7SM OVC004 00/M01 A2970 1240 92 -200 140/10 RMK AO2 T00001011
14926KSTC STC20191118110010711/18/19 11:00:31  5-MIN KSTC 181700Z 15012KT 8SM OVC005 01/M01 A2970 1240 89 -100 150/12 RMK AO2 T00061011
14926KSTC STC20191118110510711/18/19 11:05:31  5-MIN KSTC 181705Z 14009KT 9SM OVC005 01/M01 A2970 1240 89 -100 140/09 RMK AO2 T00061011
14926KSTC STC20191118111010811/18/19 11:10:31  5-MIN KSTC 181710Z 15012KT 10SM OVC005 01/M01 A2969 1250 89 -100 150/12 RMK AO2 T00061011
14926KSTC STC20191118111510811/18/19 11:15:31  5-MIN KSTC 181715Z 14011KT 10SM OVC006 01/M01 A2969 1250 89 -100 140/11 RMK AO2 T00061011
14926KSTC STC20191118112010811/18/19 11:20:31  5-MIN KSTC 181720Z 15013KT 10SM OVC006 01/M01 A2969 1250 89 -100 150/13 RMK AO2 T00061011
14926KSTC STC20191118112512011/18/19 11:25:31  5-MIN KSTC 181725Z 15012KT 10SM OVC006 01/M01 A2969 1250 89 -100 150/12 RMK AO2 CIG 006V010 T00061011
14926KSTC STC20191118113012011/18/19 11:30:31  5-MIN KSTC 181730Z 15011KT 10SM OVC008 01/M01 A2968 1260 89 -100 150/11 RMK AO2 CIG 006V011 T00061011
14926KSTC STC20191118113512011/18/19 11:35:31  5-MIN KSTC 181735Z 15011KT 10SM OVC008 01/M01 A2968 1260 89 -100 150/11 RMK AO2 CIG 006V011 T00061011
14926KSTC STC20191118114011911/18/19 11:40:31  5-MIN KSTC 181740Z 14010KT 8SM OVC008 01/M01 A2968 1260 89 -100 140/10 RMK AO2 CIG 006V011 T00061011
14926KSTC STC20191118114512211/18/19 11:45:31  5-MIN KSTC 181745Z 13007KT 6SM BR OVC006 01/M01 A2968 1260 89 -100 130/07 RMK AO2 CIG 006V009 T00061011
14926KSTC STC20191118115013511/18/19 11:50:31  5-MIN KSTC 181750Z 14008KT 5SM BR OVC006 01/M01 A2968 1260 89 -100 140/08 RMK AO2 SLP069 T00061011 10006 21017 58009
14926KSTC STC20191118115511011/18/19 11:55:31  5-MIN KSTC 181755Z 13007KT 5SM BR OVC006 01/M01 A2967 1260 89 -100 120/07 RMK AO2 T00061011
14926KSTC STC20191118120011011/18/19 12:00:31  5-MIN KSTC 181800Z 13007KT 5SM BR OVC006 01/M01 A2967 1260 89 -100 130/07 RMK AO2 T00061011
14926KSTC STC20191118120511011/18/19 12:05:31  5-MIN KSTC 181805Z 14010KT 6SM BR OVC006 01/M01 A2967 1260 89 -100 130/10 RMK AO2 T00061011
14926KSTC STC20191118121011011/18/19 12:10:31  5-MIN KSTC 181810Z 14010KT 5SM BR OVC007 01/M01 A2967 1260 89 -100 140/10 RMK AO2 T00061011
14926KSTC STC20191118121510711/18/19 12:15:31  5-MIN KSTC 181815Z 13007KT 5SM BR OVC007 01/M01 A2967 1270 85 0 130/07 RMK AO2 T00111011
14926KSTC STC20191118122010711/18/19 12:20:31  5-MIN KSTC 181820Z 14007KT 6SM BR OVC007 01/M01 A2967 1270 85 0 140/07 RMK AO2 T00111011
14926KSTC STC20191118122510711/18/19 12:25:31  5-MIN KSTC 181825Z 14008KT 6SM BR OVC007 01/M01 A2966 1270 89 0 140/08 RMK AO2 T00111006
14926KSTC STC20191118123010711/18/19 12:30:31  5-MIN KSTC 181830Z 14009KT 6SM BR OVC007 01/M01 A2966 1270 85 0 130/09 RMK AO2 T00111011
14926KSTC STC20191118123510711/18/19 12:35:31  5-MIN KSTC 181835Z 14009KT 6SM BR OVC007 01/M01 A2966 1280 85 0 140/09 RMK AO2 T00111011
14926KSTC STC20191118124010411/18/19 12:40:31  5-MIN KSTC 181840Z 14009KT 7SM OVC007 01/M01 A2966 1280 85 0 140/09 RMK AO2 T00111011
14926KSTC STC20191118124510411/18/19 12:45:31  5-MIN KSTC 181845Z 13008KT 7SM OVC008 01/M01 A2965 1280 89 0 130/08 RMK AO2 T00111006
14926KSTC STC20191118125011111/18/19 12:50:31  5-MIN KSTC 181850Z 12009KT 7SM OVC008 01/M01 A2965 1280 85 0 120/09 RMK AO2 SLP060 T00111011
14926KSTC STC20191118125510411/18/19 12:55:31  5-MIN KSTC 181855Z 13007KT 7SM OVC008 01/M01 A2965 1280 85 0 130/07 RMK AO2 T00111011
14926KSTC STC20191118130010411/18/19 13:00:31  5-MIN KSTC 181900Z 12008KT 8SM OVC008 01/M01 A2965 1290 85 0 120/08 RMK AO2 T00111011
14926KSTC STC20191118130510411/18/19 13:05:31  5-MIN KSTC 181905Z 12008KT 8SM OVC008 01/M01 A2965 1280 85 0 120/08 RMK AO2 T00111011
14926KSTC STC20191118131010411/18/19 13:10:31  5-MIN KSTC 181910Z 13008KT 9SM OVC009 01/M01 A2965 1290 85 0 130/08 RMK AO2 T00111011
14926KSTC STC20191118131510411/18/19 13:15:31  5-MIN KSTC 181915Z 13009KT 8SM OVC009 02/M01 A2964 1290 82 0 120/09 RMK AO2 T00171011
14926KSTC STC20191118132010411/18/19 13:20:31  5-MIN KSTC 181920Z 14010KT 8SM OVC009 02/M01 A2964 1290 82 0 140/10 RMK AO2 T00171011
14926KSTC STC20191118132510411/18/19 13:25:31  5-MIN KSTC 181925Z 14009KT 8SM OVC009 02/M01 A2964 1290 85 0 140/09 RMK AO2 T00171006
14926KSTC STC20191118133010411/18/19 13:30:31  5-MIN KSTC 181930Z 12008KT 9SM OVC009 02/M01 A2964 1290 82 0 120/08 RMK AO2 T00171011
14926KSTC STC20191118133510411/18/19 13:35:31  5-MIN KSTC 181935Z 13009KT 9SM OVC010 02/M01 A2964 1290 82 0 130/09 RMK AO2 T00171011
14926KSTC STC20191118134010411/18/19 13:40:31  5-MIN KSTC 181940Z 14007KT 9SM OVC010 02/M01 A2964 1290 82 0 130/07 RMK AO2 T00171011
14926KSTC STC20191118134510411/18/19 13:45:31  5-MIN KSTC 181945Z 14012KT 9SM OVC009 02/M01 A2964 1290 85 0 140/12 RMK AO2 T00171006
14926KSTC STC20191118135011111/18/19 13:50:31  5-MIN KSTC 181950Z 14011KT 9SM OVC009 02/M01 A2964 1300 82 0 130/11 RMK AO2 SLP055 T00171011
14926KSTC STC20191118135510411/18/19 13:55:31  5-MIN KSTC 181955Z 12007KT 9SM OVC010 02/M01 A2964 1300 82 0 120/07 RMK AO2 T00171011
14926KSTC STC20191118140010411/18/19 14:00:31  5-MIN KSTC 182000Z 14010KT 9SM OVC010 02/M01 A2964 1300 85 0 140/10 RMK AO2 T00171006
14926KSTC STC20191118140510411/18/19 14:05:31  5-MIN KSTC 182005Z 13007KT 9SM OVC010 02/M01 A2964 1300 85 0 130/07 RMK AO2 T00171006
14926KSTC STC20191118141010411/18/19 14:10:31  5-MIN KSTC 182010Z 15011KT 9SM OVC010 02/M01 A2964 1290 82 0 150/11 RMK AO2 T00171011
14926KSTC STC20191118141510411/18/19 14:15:31  5-MIN KSTC 182015Z 14010KT 9SM OVC010 02/M01 A2964 1290 85 0 140/10 RMK AO2 T00171006
14926KSTC STC20191118142010411/18/19 14:20:31  5-MIN KSTC 182020Z 14010KT 8SM OVC010 02/M01 A2964 1300 85 0 140/10 RMK AO2 T00171006
14926KSTC STC20191118142510411/18/19 14:25:31  5-MIN KSTC 182025Z 14009KT 8SM OVC010 02/M01 A2964 1300 85 0 140/09 RMK AO2 T00171006
14926KSTC STC20191118143010411/18/19 14:30:31  5-MIN KSTC 182030Z 13007KT 9SM OVC010 02/M01 A2964 1300 85 0 130/07 RMK AO2 T00171006
14926KSTC STC20191118143510411/18/19 14:35:31  5-MIN KSTC 182035Z 14010KT 8SM OVC010 02/M01 A2964 1300 82 0 140/10 RMK AO2 T00171011
14926KSTC STC20191118144010411/18/19 14:40:31  5-MIN KSTC 182040Z 14008KT 8SM OVC010 02/M01 A2964 1290 82 0 140/08 RMK AO2 T00171011
14926KSTC STC20191118144510411/18/19 14:45:31  5-MIN KSTC 182045Z 14006KT 8SM OVC010 02/M01 A2964 1290 85 0 140/06 RMK AO2 T00171006
14926KSTC STC20191118145011711/18/19 14:50:31  5-MIN KSTC 182050Z 14007KT 8SM OVC011 02/M01 A2965 1290 85 0 140/07 RMK AO2 SLP058 T00171006 58016
14926KSTC STC20191118145510411/18/19 14:55:31  5-MIN KSTC 182055Z 14009KT 8SM OVC011 02/M01 A2965 1290 85 0 140/09 RMK AO2 T00171006
14926KSTC STC20191118150010411/18/19 15:00:31  5-MIN KSTC 182100Z 15009KT 8SM OVC011 02/M01 A2964 1290 85 0 140/09 RMK AO2 T00171006
14926KSTC STC20191118150510411/18/19 15:05:31  5-MIN KSTC 182105Z 15007KT 8SM OVC011 02/M01 A2964 1290 85 0 150/07 RMK AO2 T00171006
14926KSTC STC20191118151010411/18/19 15:10:31  5-MIN KSTC 182110Z 13006KT 8SM OVC011 02/M01 A2965 1290 85 0 130/06 RMK AO2 T00171006
14926KSTC STC20191118151510411/18/19 15:15:31  5-MIN KSTC 182115Z 13006KT 9SM OVC011 02/M01 A2965 1280 85 0 130/06 RMK AO2 T00171006
14926KSTC STC20191118152010411/18/19 15:20:31  5-MIN KSTC 182120Z 14005KT 9SM OVC011 02/M01 A2965 1280 85 0 140/05 RMK AO2 T00171006
14926KSTC STC20191118152510511/18/19 15:25:31  5-MIN KSTC 182125Z 14007KT 10SM OVC011 02/M01 A2966 1280 85 0 140/07 RMK AO2 T00171006
14926KSTC STC20191118153010411/18/19 15:30:31  5-MIN KSTC 182130Z 15006KT 9SM OVC011 02/M01 A2966 1280 85 0 150/06 RMK AO2 T00171006
14926KSTC STC20191118153510411/18/19 15:35:31  5-MIN KSTC 182135Z 13005KT 9SM OVC011 02/M01 A2966 1270 85 0 130/05 RMK AO2 T00171006
14926KSTC STC20191118154010411/18/19 15:40:31  5-MIN KSTC 182140Z 15004KT 9SM OVC011 02/M01 A2967 1270 85 0 150/04 RMK AO2 T00171006
14926KSTC STC20191118154510411/18/19 15:45:31  5-MIN KSTC 182145Z 14004KT 9SM OVC011 02/M01 A2967 1270 85 0 130/04 RMK AO2 T00171006
14926KSTC STC20191118155011211/18/19 15:50:31  5-MIN KSTC 182150Z 13004KT 10SM OVC011 02/M01 A2967 1270 85 0 130/04 RMK AO2 SLP065 T00171006
14926KSTC STC20191118155510511/18/19 15:55:31  5-MIN KSTC 182155Z 12004KT 10SM OVC012 02/M01 A2966 1270 85 0 120/04 RMK AO2 T00171006
14926KSTC STC20191118160010511/18/19 16:00:31  5-MIN KSTC 182200Z 11003KT 10SM OVC012 02/M01 A2967 1270 85 0 110/03 RMK AO2 T00171006
14926KSTC STC20191118160510511/18/19 16:05:31  5-MIN KSTC 182205Z 12003KT 10SM OVC012 02/M01 A2967 1270 85 0 120/03 RMK AO2 T00171006
14926KSTC STC20191118161010511/18/19 16:10:31  5-MIN KSTC 182210Z 14005KT 10SM OVC012 02/M01 A2967 1270 82 0 140/05 RMK AO2 T00171011
14926KSTC STC20191118161510511/18/19 16:15:31  5-MIN KSTC 182215Z 13003KT 10SM OVC012 02/M01 A2967 1270 85 0 130/03 RMK AO2 T00171006
14926KSTC STC20191118162010511/18/19 16:20:31  5-MIN KSTC 182220Z 12003KT 10SM OVC012 02/M01 A2967 1270 82 0 120/03 RMK AO2 T00171011
14926KSTC STC20191118162510511/18/19 16:25:31  5-MIN KSTC 182225Z 00000KT 10SM OVC012 02/M01 A2967 1260 85 0 000/00 RMK AO2 T00171006
14926KSTC STC20191118163010511/18/19 16:30:31  5-MIN KSTC 182230Z 00000KT 10SM OVC012 02/M01 A2968 1260 85 0 000/00 RMK AO2 T00171006
14926KSTC STC20191118163510511/18/19 16:35:31  5-MIN KSTC 182235Z 00000KT 10SM OVC012 02/M01 A2967 1260 85 0 000/00 RMK AO2 T00171006
14926KSTC STC20191118164010511/18/19 16:40:31  5-MIN KSTC 182240Z 00000KT 10SM OVC012 02/M01 A2967 1260 82 0 000/00 RMK AO2 T00171011
14926KSTC STC20191118164510511/18/19 16:45:31  5-MIN KSTC 182245Z 00000KT 10SM OVC012 02/M01 A2968 1260 82 0 000/00 RMK AO2 T00171011
14926KSTC STC20191118165011211/18/19 16:50:31  5-MIN KSTC 182250Z 00000KT 10SM OVC013 02/M01 A2968 1260 82 0 000/00 RMK AO2 SLP069 T00171011
14926KSTC STC20191118165510511/18/19 16:55:31  5-MIN KSTC 182255Z 14003KT 10SM OVC013 01/M01 A2968 1260 85 0 140/03 RMK AO2 T00111011
14926KSTC STC20191118170010511/18/19 17:00:31  5-MIN KSTC 182300Z 13004KT 10SM OVC013 01/M01 A2968 1260 85 0 130/04 RMK AO2 T00111011
14926KSTC STC20191118170510511/18/19 17:05:31  5-MIN KSTC 182305Z 14003KT 10SM OVC013 01/M01 A2968 1260 85 0 130/03 RMK AO2 T00111011
14926KSTC STC20191118171010511/18/19 17:10:31  5-MIN KSTC 182310Z 13004KT 10SM OVC013 01/M01 A2967 1260 85 0 130/04 RMK AO2 T00111011
14926KSTC STC20191118171510511/18/19 17:15:31  5-MIN KSTC 182315Z 12005KT 10SM OVC013 02/M01 A2967 1270 82 0 120/05 RMK AO2 T00171011
14926KSTC STC20191118172010511/18/19 17:20:31  5-MIN KSTC 182320Z 12005KT 10SM OVC013 02/M01 A2967 1270 82 0 120/05 RMK AO2 T00171011
14926KSTC STC20191118172510511/18/19 17:25:31  5-MIN KSTC 182325Z 12004KT 10SM OVC013 02/M01 A2966 1270 82 0 120/04 RMK AO2 T00171011
14926KSTC STC20191118173010511/18/19 17:30:31  5-MIN KSTC 182330Z 12006KT 10SM OVC013 02/M01 A2966 1270 82 0 120/06 RMK AO2 T00171011
14926KSTC STC20191118173510511/18/19 17:35:31  5-MIN KSTC 182335Z 11004KT 10SM OVC013 02/M01 A2967 1270 82 0 110/04 RMK AO2 T00171011
14926KSTC STC20191118174010511/18/19 17:40:31  5-MIN KSTC 182340Z 00000KT 10SM OVC013 02/M01 A2967 1270 82 0 000/00 RMK AO2 T00171011
14926KSTC STC20191118174510511/18/19 17:45:31  5-MIN KSTC 182345Z 09004KT 10SM OVC013 02/M01 A2967 1270 82 0 090/04 RMK AO2 T00171011
14926KSTC STC20191118175012911/18/19 17:50:31  5-MIN KSTC 182350Z 00000KT 9SM OVC013 02/M01 A2967 1260 82 0 000/00 RMK AO2 SLP067 T00171011 10017 20006 55009
14926KSTC STC20191118175510411/18/19 17:55:31  5-MIN KSTC 182355Z 11004KT 9SM OVC013 02/M01 A2967 1270 82 0 110/04 RMK AO2 T00171011
14926KSTC STC20191118180010411/18/19 18:00:31  5-MIN KSTC 190000Z 11004KT 9SM OVC013 01/M01 A2967 1270 85 0 110/04 RMK AO2 T00111011
14926KSTC STC20191118180510411/18/19 18:05:31  5-MIN KSTC 190005Z 12004KT 9SM OVC013 01/M01 A2967 1270 85 0 120/04 RMK AO2 T00111011
14926KSTC STC20191118181010411/18/19 18:10:31  5-MIN KSTC 190010Z 11004KT 9SM OVC013 01/M01 A2967 1270 85 0 110/04 RMK AO2 T00111011
14926KSTC STC20191118181510411/18/19 18:15:31  5-MIN KSTC 190015Z 10003KT 9SM OVC012 01/M01 A2967 1270 85 0 100/03 RMK AO2 T00111011
14926KSTC STC20191118182010411/18/19 18:20:31  5-MIN KSTC 190020Z 11004KT 8SM OVC012 01/M01 A2967 1270 85 0 110/04 RMK AO2 T00111011
14926KSTC STC20191118182510411/18/19 18:25:31  5-MIN KSTC 190025Z 11003KT 8SM OVC012 01/M01 A2967 1270 85 0 100/03 RMK AO2 T00111011
14926KSTC STC20191118183010411/18/19 18:30:31  5-MIN KSTC 190030Z 10003KT 8SM OVC012 01/M01 A2967 1260 85 0 100/03 RMK AO2 T00111011
14926KSTC STC20191118183510411/18/19 18:35:31  5-MIN KSTC 190035Z 12004KT 8SM OVC012 01/M01 A2967 1270 85 0 120/04 RMK AO2 T00111011
14926KSTC STC20191118184010411/18/19 18:40:31  5-MIN KSTC 190040Z 12003KT 8SM OVC012 01/M01 A2967 1260 85 0 120/03 RMK AO2 T00111011
14926KSTC STC20191118184510411/18/19 18:45:31  5-MIN KSTC 190045Z 11004KT 8SM OVC012 01/M01 A2967 1260 85 0 100/04 RMK AO2 T00111011
14926KSTC STC20191118185011111/18/19 18:50:31  5-MIN KSTC 190050Z 00000KT 8SM OVC012 01/M01 A2967 1260 85 0 000/00 RMK AO2 SLP068 T00111011
14926KSTC STC20191118185510411/18/19 18:55:31  5-MIN KSTC 190055Z 00000KT 8SM OVC012 01/M01 A2967 1260 85 0 000/00 RMK AO2 T00111011
14926KSTC STC20191118190009411/18/19 19:00:31  5-MIN KSTC 190100Z 8SM OVC011 01/M01 A2967 1260 85 0 M /M RMK AO2 T00111011
14926KSTC STC20191118190509411/18/19 19:05:31  5-MIN KSTC 190105Z 8SM OVC011 01/M01 A2967 1260 85 0 M /M RMK AO2 T00111011
14926KSTC STC20191118191010411/18/19 19:10:31  5-MIN KSTC 190110Z 10003KT 8SM OVC011 01/M01 A2967 1260 85 0 100/03 RMK AO2 T00111011
14926KSTC STC20191118191510411/18/19 19:15:31  5-MIN KSTC 190115Z 00000KT 8SM OVC011 01/M01 A2968 1260 85 0 000/00 RMK AO2 T00111011
14926KSTC STC20191118192010411/18/19 19:20:31  5-MIN KSTC 190120Z 12003KT 8SM OVC011 01/M01 A2968 1260 85 0 120/03 RMK AO2 T00111011
14926KSTC STC20191118192510411/18/19 19:25:31  5-MIN KSTC 190125Z 12003KT 8SM OVC011 01/M01 A2968 1260 85 0 120/03 RMK AO2 T00111011
14926KSTC STC20191118193010411/18/19 19:30:31  5-MIN KSTC 190130Z 00000KT 8SM OVC011 01/M01 A2968 1260 85 0 000/00 RMK AO2 T00111011
14926KSTC STC20191118193510411/18/19 19:35:31  5-MIN KSTC 190135Z 00000KT 8SM OVC011 01/M01 A2968 1260 85 0 000/00 RMK AO2 T00111011
14926KSTC STC20191118194010711/18/19 19:40:31  5-MIN KSTC 190140Z 14003KT 8SM OVC011 01/M01 A2968 1260 89 -100 130/03 RMK AO2 T00061011
14926KSTC STC20191118194510711/18/19 19:45:31  5-MIN KSTC 190145Z 00000KT 8SM OVC011 01/M01 A2968 1260 89 -100 000/00 RMK AO2 T00061011
14926KSTC STC20191118195011111/18/19 19:50:31  5-MIN KSTC 190150Z 00000KT 8SM OVC011 01/M01 A2968 1260 85 0 000/00 RMK AO2 SLP069 T00111011
14926KSTC STC20191118195510411/18/19 19:55:31  5-MIN KSTC 190155Z 00000KT 8SM OVC011 01/M01 A2968 1260 85 0 000/00 RMK AO2 T00111011
14926KSTC STC20191118200010411/18/19 20:00:31  5-MIN KSTC 190200Z 00000KT 8SM OVC011 01/M01 A2968 1260 85 0 000/00 RMK AO2 T00111011
14926KSTC STC20191118200510411/18/19 20:05:31  5-MIN KSTC 190205Z 00000KT 8SM OVC011 01/M01 A2968 1260 85 0 000/00 RMK AO2 T00111011
14926KSTC STC20191118201010411/18/19 20:10:31  5-MIN KSTC 190210Z 00000KT 8SM OVC011 01/M01 A2968 1260 85 0 000/00 RMK AO2 T00111011
14926KSTC STC20191118201510711/18/19 20:15:31  5-MIN KSTC 190215Z 00000KT 7SM OVC011 01/M01 A2968 1250 89 -100 000/00 RMK AO2 T00061011
14926KSTC STC20191118202010711/18/19 20:20:31  5-MIN KSTC 190220Z 00000KT 7SM OVC011 01/M01 A2968 1260 89 -100 000/00 RMK AO2 T00061011
14926KSTC STC20191118202510711/18/19 20:25:31  5-MIN KSTC 190225Z 00000KT 7SM OVC011 01/M01 A2968 1260 89 -100 000/00 RMK AO2 T00061011
14926KSTC STC20191118203010711/18/19 20:30:31  5-MIN KSTC 190230Z 00000KT 7SM OVC011 01/M01 A2968 1250 89 -100 000/00 RMK AO2 T00061011
14926KSTC STC20191118203510411/18/19 20:35:31  5-MIN KSTC 190235Z 00000KT 7SM OVC011 01/M01 A2968 1250 85 0 000/00 RMK AO2 T00111011
14926KSTC STC20191118204010411/18/19 20:40:31  5-MIN KSTC 190240Z 00000KT 8SM OVC011 01/M01 A2968 1250 85 0 000/00 RMK AO2 T00111011
14926KSTC STC20191118204510411/18/19 20:45:31  5-MIN KSTC 190245Z 00000KT 8SM OVC011 01/M01 A2968 1250 85 0 000/00 RMK AO2 T00111011
14926KSTC STC20191118205011711/18/19 20:50:31  5-MIN KSTC 190250Z 00000KT 8SM OVC011 01/M01 A2968 1250 85 0 000/00 RMK AO2 SLP071 T00111011 50007
14926KSTC STC20191118205510411/18/19 20:55:31  5-MIN KSTC 190255Z 00000KT 8SM OVC010 01/M01 A2968 1250 85 0 000/00 RMK AO2 T00111011
14926KSTC STC20191118210010711/18/19 21:00:31  5-MIN KSTC 190300Z 00000KT 7SM OVC010 01/M01 A2968 1260 89 -100 000/00 RMK AO2 T00061011
14926KSTC STC20191118210510711/18/19 21:05:31  5-MIN KSTC 190305Z 13003KT 7SM OVC010 01/M01 A2968 1260 89 -100 130/03 RMK AO2 T00061011
14926KSTC STC20191118211010711/18/19 21:10:31  5-MIN KSTC 190310Z 00000KT 7SM OVC010 01/M01 A2968 1260 89 -100 000/00 RMK AO2 T00061011
14926KSTC STC20191118211510711/18/19 21:15:31  5-MIN KSTC 190315Z 00000KT 7SM OVC010 01/M01 A2968 1260 89 -100 000/00 RMK AO2 T00061011
14926KSTC STC20191118212010711/18/19 21:20:31  5-MIN KSTC 190320Z 12003KT 8SM OVC010 01/M01 A2967 1260 89 -100 120/03 RMK AO2 T00061011
14926KSTC STC20191118212510711/18/19 21:25:31  5-MIN KSTC 190325Z 12003KT 8SM OVC010 01/M01 A2967 1260 89 -100 120/03 RMK AO2 T00061011
14926KSTC STC20191118213010711/18/19 21:30:31  5-MIN KSTC 190330Z 11003KT 8SM OVC010 01/M01 A2967 1270 89 -100 110/03 RMK AO2 T00061011
14926KSTC STC20191118213510711/18/19 21:35:31  5-MIN KSTC 190335Z 12003KT 8SM OVC010 01/M01 A2967 1270 89 -100 120/03 RMK AO2 T00061011
14926KSTC STC20191118214010711/18/19 21:40:31  5-MIN KSTC 190340Z 13003KT 8SM OVC010 01/M01 A2967 1270 89 -100 120/03 RMK AO2 T00061011
14926KSTC STC20191118214510711/18/19 21:45:31  5-MIN KSTC 190345Z 13004KT 8SM OVC010 01/M01 A2967 1270 89 -100 130/04 RMK AO2 T00061011
14926KSTC STC20191118215009711/18/19 21:50:31  5-MIN KSTC 190350Z 13004KT 8SM OVC009 01/M01 A2967 1270 89 -100 130/04 RMK AO2
14926KSTC STC20191118215510711/18/19 21:55:31  5-MIN KSTC 190355Z 14003KT 8SM OVC009 01/M01 A2967 1270 89 -100 140/03 RMK AO2 T00061011
14926KSTC STC20191118220010711/18/19 22:00:31  5-MIN KSTC 190400Z 13004KT 8SM OVC009 01/M01 A2967 1270 89 -100 130/04 RMK AO2 T00061011
14926KSTC STC20191118220510711/18/19 22:05:31  5-MIN KSTC 190405Z 11003KT 8SM OVC009 01/M01 A2967 1270 89 -100 110/03 RMK AO2 T00061011
14926KSTC STC20191118221010711/18/19 22:10:31  5-MIN KSTC 190410Z 11003KT 8SM OVC009 01/M01 A2967 1270 89 -100 110/03 RMK AO2 T00061011
14926KSTC STC20191118221510711/18/19 22:15:31  5-MIN KSTC 190415Z 00000KT 7SM OVC009 01/M01 A2967 1260 89 -100 000/00 RMK AO2 T00061011
14926KSTC STC20191118222010711/18/19 22:20:31  5-MIN KSTC 190420Z 00000KT 7SM OVC009 01/M01 A2967 1260 89 -100 000/00 RMK AO2 T00061011
14926KSTC STC20191118222510711/18/19 22:25:31  5-MIN KSTC 190425Z 17003KT 7SM OVC009 01/M01 A2967 1260 89 -100 170/03 RMK AO2 T00061011
14926KSTC STC20191118223010711/18/19 22:30:31  5-MIN KSTC 190430Z 16003KT 7SM OVC009 01/M01 A2967 1260 89 -100 160/03 RMK AO2 T00061011
14926KSTC STC20191118223510711/18/19 22:35:31  5-MIN KSTC 190435Z 00000KT 7SM OVC009 01/M01 A2967 1260 89 -100 000/00 RMK AO2 T00061011
14926KSTC STC20191118224010711/18/19 22:40:31  5-MIN KSTC 190440Z 00000KT 7SM OVC010 01/M01 A2967 1260 89 -100 000/00 RMK AO2 T00061011
14926KSTC STC20191118224510711/18/19 22:45:31  5-MIN KSTC 190445Z 00000KT 7SM OVC010 01/M01 A2967 1260 89 -100 000/00 RMK AO2 T00061011
14926KSTC STC20191118225011411/18/19 22:50:31  5-MIN KSTC 190450Z 16003KT 7SM OVC010 01/M01 A2967 1260 89 -100 160/03 RMK AO2 SLP067 T00061011
14926KSTC STC20191118225512011/18/19 22:55:31  5-MIN KSTC 190455Z 17003KT 5SM -SN BR OVC010 01/M01 A2967 1260 89 -100 170/03 RMK AO2 P0000 T00061011
14926KSTC STC20191118230012011/18/19 23:00:31  5-MIN KSTC 190500Z 17004KT 4SM -SN BR OVC010 01/M01 A2967 1260 89 -100 170/04 RMK AO2 P0000 T00061011
14926KSTC STC20191118230512511/18/19 23:05:31  5-MIN KSTC 190505Z AUTO 17003KT 3SM -SN BR OVC010 01/M01 A2967 1260 89 -100 170/03 RMK AO2 P0000 T00061011
14926KSTC STC20191118231012511/18/19 23:10:31  5-MIN KSTC 190510Z AUTO 18003KT 2SM -SN BR OVC010 01/M01 A2967 1270 89 -100 180/03 RMK AO2 P0000 T00061011
14926KSTC STC20191118231512911/18/19 23:15:31  5-MIN KSTC 190515Z AUTO 16003KT 1 1/2SM -SN BR OVC010 00/M01 A2967 1270 92 -200 160/03 RMK AO2 P0001 T00001011
14926KSTC STC20191118232012511/18/19 23:20:31  5-MIN KSTC 190520Z AUTO 15004KT 2SM -SN BR OVC010 00/M01 A2967 1270 96 -200 150/04 RMK AO2 P0002 T00001006
14926KSTC STC20191118232512911/18/19 23:25:31  5-MIN KSTC 190525Z AUTO 15003KT 2 1/2SM -SN BR OVC012 00/M01 A2967 1270 96 -200 150/03 RMK AO2 P0003 T00001006
14926KSTC STC20191118233012911/18/19 23:30:31  5-MIN KSTC 190530Z AUTO 15004KT 2 1/2SM -SN BR OVC012 00/M01 A2967 1270 96 -200 150/04 RMK AO2 P0004 T00001006
14926KSTC STC20191118233513611/18/19 23:35:31  5-MIN KSTC 190535Z AUTO 15003KT 2 1/2SM -SN BR BKN009 OVC014 00/M01 A2967 1270 96 -200 150/03 RMK AO2 P0005 T00001006
14926KSTC STC20191118234014611/18/19 23:40:31  5-MIN KSTC 190540Z AUTO 15004KT 2 1/2SM UP BR BKN011 OVC016 00/M01 A2967 1270 96 -200 150/04 RMK AO2 UPB40SNE40 P0005 T00001006
14926KSTC STC20191118234514711/18/19 23:45:31  5-MIN KSTC 190545Z AUTO 13003KT 3SM UP BR OVC011 00/M01 A2966 1270 96 -200 130/03 RMK AO2 UPB40SNE40 CIG 007V014 P0006 T00001006
14926KSTC STC20191118235013611/18/19 23:50:31  5-MIN KSTC 190550Z AUTO 14004KT 3SM UP BR OVC009 00/M01 A2966 1270 96 -200 140/04 RMK AO2 CIG 007V012 P0000 T00001006
14926KSTC STC20191118235513611/18/19 23:55:31  5-MIN KSTC 190555Z AUTO 00000KT 3SM UP BR OVC009 00/M01 A2966 1270 96 -200 000/00 RMK AO2 CIG 007V012 P0001 T00001006
14926KSTC STC20191119000013111/19/19 00:00:31  5-MIN KSTC 190600Z AUTO 00000KT 3SM UP BR BKN007 OVC011 00/M01 A2967 1270 96 -200 000/00 RMK AO2 P0002 T00001006
14926KSTC STC20191119000513111/19/19 00:05:31  5-MIN KSTC 190605Z AUTO 00000KT 3SM UP BR BKN007 OVC011 00/M01 A2967 1270 96 -200 000/00 RMK AO2 P0002 T00001006
14926KSTC STC20191119001012411/19/19 00:10:31  5-MIN KSTC 190610Z AUTO 00000KT 3SM UP BR OVC007 00/M01 A2967 1270 96 -200 000/00 RMK AO2 P0002 T00001006
14926KSTC STC20191119001512411/19/19 00:15:31  5-MIN KSTC 190615Z AUTO 15003KT 3SM UP BR OVC007 00/M01 A2966 1270 96 -200 150/03 RMK AO2 P0003 T00001006
14926KSTC STC20191119002012411/19/19 00:20:31  5-MIN KSTC 190620Z AUTO 15004KT 3SM UP BR OVC007 00/M01 A2966 1270 96 -200 140/04 RMK AO2 P0003 T00001006
14926KSTC STC20191119002512411/19/19 00:25:31  5-MIN KSTC 190625Z AUTO 16004KT 3SM UP BR OVC007 00/M01 A2966 1280 96 -200 150/04 RMK AO2 P0004 T00001006
14926KSTC STC20191119003012811/19/19 00:30:31  5-MIN KSTC 190630Z AUTO 15004KT 2 1/2SM UP BR OVC007 00/M01 A2966 1280 96 -200 150/04 RMK AO2 P0004 T00001006
14926KSTC STC20191119003512811/19/19 00:35:31  5-MIN KSTC 190635Z AUTO 16004KT 2 1/2SM UP BR OVC007 00/M01 A2966 1280 96 -200 160/04 RMK AO2 P0005 T00001006
14926KSTC STC20191119004012811/19/19 00:40:31  5-MIN KSTC 190640Z AUTO 15003KT 2 1/2SM UP BR OVC007 00/M01 A2966 1280 96 -200 150/03 RMK AO2 P0006 T00001006
14926KSTC STC20191119004512411/19/19 00:45:31  5-MIN KSTC 190645Z AUTO 15003KT 3SM UP BR OVC007 00/M01 A2966 1280 96 -200 140/03 RMK AO2 P0006 T00001006
14926KSTC STC20191119005012111/19/19 00:50:31  5-MIN KSTC 190650Z AUTO 15003KT 3SM UP BR BKN007 OVC036 00/M01 A2966 1280 96 -100 150/03 RMK AO2 P0007
14926KSTC STC20191119005513111/19/19 00:55:31  5-MIN KSTC 190655Z AUTO 15003KT 3SM UP BR BKN006 OVC036 00/M01 A2965 1280 96 -100 140/03 RMK AO2 P0000 T00001006
14926KSTC STC20191119010012411/19/19 01:00:31  5-MIN KSTC 190700Z AUTO 00000KT 3SM UP BR OVC006 00/M01 A2965 1280 96 -100 000/00 RMK AO2 P0001 T00001006
14926KSTC STC20191119010512411/19/19 01:05:31  5-MIN KSTC 190705Z AUTO 14003KT 3SM UP BR OVC006 00/M01 A2965 1280 96 -100 140/03 RMK AO2 P0001 T00001006
14926KSTC STC20191119011012711/19/19 01:10:31  5-MIN KSTC 190710Z AUTO 00000KT 3SM BR OVC005 00/M01 A2965 1280 96 -100 000/00 RMK AO2 UPE06 P0001 T00001006
14926KSTC STC20191119011512911/19/19 01:15:31  5-MIN KSTC 190715Z AUTO 15003KT 3SM BR OVC005 00/M01 A2965 1280 96 -100 150/03 RMK AO2 UPE06 P0001 T00001006 $
14926KSTC STC20191119012013311/19/19 01:20:31  5-MIN KSTC 190720Z AUTO 00000KT 2 1/2SM BR OVC005 00/M01 A2965 1280 96 -100 000/00 RMK AO2 UPE06 P0001 T00001006 $
14926KSTC STC20191119012513311/19/19 01:25:31  5-MIN KSTC 190725Z AUTO 00000KT 2 1/2SM BR OVC004 00/M01 A2965 1280 96 -100 000/00 RMK AO2 UPE06 P0001 T00001006 $
14926KSTC STC20191119013012911/19/19 01:30:31  5-MIN KSTC 190730Z AUTO 14003KT 3SM BR OVC004 00/M01 A2965 1280 96 -100 140/03 RMK AO2 UPE06 P0001 T00001006 $
14926KSTC STC20191119013512911/19/19 01:35:31  5-MIN KSTC 190735Z AUTO 15003KT 3SM BR OVC004 00/M01 A2965 1280 96 -100 150/03 RMK AO2 UPE06 P0001 T00001006 $
14926KSTC STC20191119014013311/19/19 01:40:31  5-MIN KSTC 190740Z AUTO 14004KT 2 1/2SM BR OVC004 00/M01 A2965 1280 96 -100 140/04 RMK AO2 UPE06 P0001 T00001006 $
14926KSTC STC20191119014513311/19/19 01:45:31  5-MIN KSTC 190745Z AUTO 14004KT 2 1/2SM BR OVC004 00/M01 A2965 1280 96 -100 140/04 RMK AO2 UPE06 P0001 T00001006 $
14926KSTC STC20191119015014011/19/19 01:50:31  5-MIN KSTC 190750Z AUTO 15004KT 2 1/2SM BR OVC004 00/M01 A2965 1280 96 -100 140/04 RMK AO2 UPE06 SLP060 P0001 T00001006 $
14926KSTC STC20191119015512111/19/19 01:55:31  5-MIN KSTC 190755Z AUTO 15004KT 2 1/2SM BR OVC004 00/M01 A2965 1280 96 -100 140/04 RMK AO2 T00001006 $
14926KSTC STC20191119020012111/19/19 02:00:31  5-MIN KSTC 190800Z AUTO 14003KT 2 1/2SM BR OVC004 00/M01 A2965 1280 96 -100 140/03 RMK AO2 T00001006 $
14926KSTC STC20191119020511711/19/19 02:05:31  5-MIN KSTC 190805Z AUTO 13003KT 3SM BR OVC004 00/M01 A2965 1280 96 -100 130/03 RMK AO2 T00001006 $
14926KSTC STC20191119021011711/19/19 02:10:31  5-MIN KSTC 190810Z AUTO 13004KT 3SM BR OVC004 00/M01 A2965 1280 96 -100 130/04 RMK AO2 T00001006 $
14926KSTC STC20191119021511711/19/19 02:15:31  5-MIN KSTC 190815Z AUTO 11004KT 3SM BR OVC004 00/M01 A2965 1290 96 -100 110/04 RMK AO2 T00001006 $
14926KSTC STC20191119022012111/19/19 02:20:31  5-MIN KSTC 190820Z AUTO 10004KT 2 1/2SM BR OVC004 00/00 A2965 1290 100 -100 100/04 RMK AO2 T00000000 $
14926KSTC STC20191119022513311/19/19 02:25:31  5-MIN KSTC 190825Z AUTO 12003KT 2 1/2SM BR OVC004 00/00 A2965 1290 100 -100 120/03 RMK AO2 CIG 003V006 T00000000 $
14926KSTC STC20191119023013311/19/19 02:30:31  5-MIN KSTC 190830Z AUTO 14003KT 2 1/2SM BR OVC004 00/00 A2965 1280 100 -100 140/03 RMK AO2 CIG 003V006 T00000000 $
14926KSTC STC20191119023512911/19/19 02:35:31  5-MIN KSTC 190835Z AUTO 00000KT 3SM BR OVC005 00/00 A2965 1280 100 -100 000/00 RMK AO2 CIG 002V006 T00000000 $
14926KSTC STC20191119024013311/19/19 02:40:31  5-MIN KSTC 190840Z AUTO 00000KT 2 1/2SM BR OVC005 00/00 A2965 1280 100 -100 000/00 RMK AO2 CIG 002V006 T00000000 $
14926KSTC STC20191119024513311/19/19 02:45:31  5-MIN KSTC 190845Z AUTO 14003KT 2 1/2SM BR OVC004 00/00 A2965 1280 100 -100 140/03 RMK AO2 CIG 002V006 T00000000 $
14926KSTC STC20191119025015211/19/19 02:50:31  5-MIN KSTC 190850Z AUTO 00000KT 2 1/2SM BR OVC004 00/00 A2965 1280 100 -100 000/00 RMK AO2 CIG 002V006 SLP060 60008 T00000000 56004 $
14926KSTC STC20191119025512111/19/19 02:55:31  5-MIN KSTC 190855Z AUTO 00000KT 2 1/2SM BR OVC004 00/00 A2965 1280 100 -100 000/00 RMK AO2 T00000000 $
14926KSTC STC20191119030012111/19/19 03:00:31  5-MIN KSTC 190900Z AUTO 15003KT 2 1/2SM BR OVC003 00/00 A2965 1280 100 -100 150/03 RMK AO2 T00000000 $
14926KSTC STC20191119030511711/19/19 03:05:31  5-MIN KSTC 190905Z AUTO 15003KT 2SM BR OVC003 00/M01 A2965 1280 96 -100 150/03 RMK AO2 T00001006 $
14926KSTC STC20191119031011711/19/19 03:10:31  5-MIN KSTC 190910Z AUTO 16003KT 2SM BR OVC003 00/M01 A2965 1280 96 -100 160/03 RMK AO2 T00001006 $
14926KSTC STC20191119031511711/19/19 03:15:31  5-MIN KSTC 190915Z AUTO 16003KT 2SM BR OVC003 00/M01 A2965 1280 96 -100 160/03 RMK AO2 T00001006 $
14926KSTC STC20191119032012111/19/19 03:20:31  5-MIN KSTC 190920Z AUTO 15003KT 1 3/4SM BR OVC003 00/00 A2966 1280 100 -100 150/03 RMK AO2 T00000000 $
14926KSTC STC20191119032512111/19/19 03:25:31  5-MIN KSTC 190925Z AUTO 14004KT 1 3/4SM BR OVC003 00/00 A2965 1280 100 -100 140/04 RMK AO2 T00000000 $
14926KSTC STC20191119033011711/19/19 03:30:31  5-MIN KSTC 190930Z AUTO 13003KT 2SM BR OVC003 00/M01 A2965 1280 96 -100 130/03 RMK AO2 T00001006 $
14926KSTC STC20191119033511611/19/19 03:35:31  5-MIN KSTC 190935Z AUTO 13003KT 2SM BR OVC003 01/00 A2965 1290 96 -100 130/03 RMK AO2 T00060000 $
14926KSTC STC20191119034011711/19/19 03:40:31  5-MIN KSTC 190940Z AUTO 14003KT 2SM BR OVC003 00/00 A2965 1280 100 -100 140/03 RMK AO2 T00000000 $
14926KSTC STC20191119034511711/19/19 03:45:31  5-MIN KSTC 190945Z AUTO 15004KT 2SM BR OVC003 00/00 A2965 1290 100 -100 150/04 RMK AO2 T00000000 $
14926KSTC STC20191119035011111/19/19 03:50:31  5-MIN KSTC 190950Z AUTO 13004KT 1 1/2SM BR OVC003 00/00 A2965 1290 100 -100 130/04 RMK AO2 $
14926KSTC STC20191119035512111/19/19 03:55:31  5-MIN KSTC 190955Z AUTO 14003KT 1 1/2SM BR OVC003 00/00 A2965 1280 100 -100 140/03 RMK AO2 T00000000 $
14926KSTC STC20191119040012011/19/19 04:00:31  5-MIN KSTC 191000Z AUTO 00000KT 1 1/4SM BR OVC003 01/00 A2966 1280 96 -100 000/00 RMK AO2 T00060000 $
14926KSTC STC20191119040511611/19/19 04:05:31  5-MIN KSTC 191005Z AUTO 00000KT 1SM BR VV003 00/00 A2966 1280 100 -200 000/00 RMK AO2 T00000000 $
14926KSTC STC20191119041011811/19/19 04:10:31  5-MIN KSTC 191010Z AUTO 00000KT 3/4SM BR VV003 00/00 A2966 1280 100 -200 000/00 RMK AO2 T00000000 $
14926KSTC STC20191119041511711/19/19 04:15:31  5-MIN KSTC 191015Z AUTO 23003KT 1/2SM FG VV003 01/00 A2966 1280 96 -100 230/03 RMK AO2 T00060000 $
14926KSTC STC20191119042011811/19/19 04:20:31  5-MIN KSTC 191020Z AUTO 21003KT 1/2SM FG VV003 00/M01 A2966 1280 96 -200 210/03 RMK AO2 T00001006 $
14926KSTC STC20191119042511711/19/19 04:25:31  5-MIN KSTC 191025Z AUTO 00000KT 1/2SM FG VV003 01/00 A2966 1270 96 -100 000/00 RMK AO2 T00060000 $
14926KSTC STC20191119043011811/19/19 04:30:31  5-MIN KSTC 191030Z AUTO 21003KT 1/2SM FG VV003 00/00 A2967 1270 100 -200 210/03 RMK AO2 T00000000 $
14926KSTC STC20191119043511811/19/19 04:35:31  5-MIN KSTC 191035Z AUTO 21003KT 1/2SM FG VV003 00/00 A2966 1270 100 -200 210/03 RMK AO2 T00000000 $
14926KSTC STC20191119044011711/19/19 04:40:31  5-MIN KSTC 191040Z AUTO 00000KT 1/2SM FG VV003 01/00 A2967 1270 96 -100 000/00 RMK AO2 T00060000 $
14926KSTC STC20191119044511711/19/19 04:45:31  5-MIN KSTC 191045Z AUTO 00000KT 1/2SM FG VV003 01/00 A2967 1270 96 -100 000/00 RMK AO2 T00060000 $
14926KSTC STC20191119045012511/19/19 04:50:31  5-MIN KSTC 191050Z AUTO 00000KT 1/2SM FG VV003 00/00 A2967 1270 100 -200 000/00 RMK AO2 SLP066 T00000000 $
14926KSTC STC20191119045511711/19/19 04:55:31  5-MIN KSTC 191055Z AUTO 15003KT 1/2SM FG VV003 01/00 A2967 1270 96 -100 150/03 RMK AO2 T00060000 $
14926KSTC STC20191119050011711/19/19 05:00:31  5-MIN KSTC 191100Z AUTO 14004KT 1/2SM FG VV002 01/00 A2967 1270 96 -100 140/04 RMK AO2 T00060000 $
14926KSTC STC20191119050511711/19/19 05:05:31  5-MIN KSTC 191105Z AUTO 15004KT 1/2SM FG VV003 01/00 A2967 1260 96 -100 150/04 RMK AO2 T00060000 $
14926KSTC STC20191119051011711/19/19 05:10:31  5-MIN KSTC 191110Z AUTO 15003KT 1/2SM FG VV003 01/00 A2967 1260 96 -100 150/03 RMK AO2 T00060000 $
14926KSTC STC20191119051511711/19/19 05:15:31  5-MIN KSTC 191115Z AUTO 15003KT 1/2SM FG VV003 01/00 A2967 1260 96 -100 150/03 RMK AO2 T00060000 $
14926KSTC STC20191119052011711/19/19 05:20:31  5-MIN KSTC 191120Z AUTO 00000KT 1/2SM FG VV003 01/00 A2968 1260 96 -100 000/00 RMK AO2 T00060000 $
14926KSTC STC20191119052511711/19/19 05:25:31  5-MIN KSTC 191125Z AUTO 00000KT 1/2SM FG VV003 01/00 A2967 1260 96 -100 000/00 RMK AO2 T00060000 $
14926KSTC STC20191119053011811/19/19 05:30:31  5-MIN KSTC 191130Z AUTO 00000KT 1/2SM FG VV003 01/01 A2968 1260 100 -100 000/00 RMK AO2 T00060006 $
14926KSTC STC20191119053511811/19/19 05:35:31  5-MIN KSTC 191135Z AUTO 00000KT 1/2SM FG VV003 01/01 A2968 1260 100 -100 000/00 RMK AO2 T00060006 $
14926KSTC STC20191119054011811/19/19 05:40:31  5-MIN KSTC 191140Z AUTO 00000KT 1/4SM FG VV003 01/01 A2968 1260 100 -100 000/00 RMK AO2 T00060006 $
14926KSTC STC20191119054511811/19/19 05:45:31  5-MIN KSTC 191145Z AUTO 00000KT 1/4SM FG VV003 01/01 A2968 1260 100 -100 000/00 RMK AO2 T00060006 $
14926KSTC STC20191119055015511/19/19 05:50:31  5-MIN KSTC 191150Z AUTO 00000KT 1/4SM FG VV003 01/01 A2967 1260 100 -100 000/00 RMK AO2 SLP067 60008 70014 T00060006 10006 20000 55000 $
14926KSTC STC20191119055511711/19/19 05:55:31  5-MIN KSTC 191155Z AUTO 00000KT 1/4SM FG VV003 01/00 A2968 1260 96 -100 000/00 RMK AO2 T00060000 $
14926KSTC STC20191119060011711/19/19 06:00:31  5-MIN KSTC 191200Z AUTO 00000KT 1/2SM FG VV002 01/00 A2968 1260 96 -100 000/00 RMK AO2 T00060000 $
14926KSTC STC20191119060511711/19/19 06:05:31  5-MIN KSTC 191205Z AUTO 00000KT 1/2SM FG VV002 01/00 A2968 1260 96 -100 000/00 RMK AO2 T00060000 $
14926KSTC STC20191119061011811/19/19 06:10:31  5-MIN KSTC 191210Z AUTO 00000KT 1/2SM FG VV003 01/01 A2968 1260 100 -100 000/00 RMK AO2 T00060006 $
14926KSTC STC20191119061511811/19/19 06:15:31  5-MIN KSTC 191215Z AUTO 17003KT 1/2SM FG VV005 01/01 A2968 1260 100 -100 160/03 RMK AO2 T00060006 $
14926KSTC STC20191119062011711/19/19 06:20:31  5-MIN KSTC 191220Z AUTO 15003KT 1/2SM FG VV005 01/00 A2968 1250 96 -100 150/03 RMK AO2 T00060000 $
14926KSTC STC20191119070511411/19/19 07:05:31  5-MIN KSTC 191305Z 00000KT 3/4SM BR OVC011 01/01 A2970 1240 100 -100 000/00 RMK AO2 T00060006 $
14926KSTC STC20191119071011211/19/19 07:10:31  5-MIN KSTC 191310Z 00000KT 1SM BR OVC011 01/01 A2970 1240 100 -100 000/00 RMK AO2 T00060006 $
14926KSTC STC20191119071511511/19/19 07:15:31  5-MIN KSTC 191315Z 00000KT 1 1/4SM BR OVC011 01/01 A2970 1240 96 -100 000/00 RMK AO2 T00110006 $
14926KSTC STC20191119072011511/19/19 07:20:31  5-MIN KSTC 191320Z 25003KT 1 3/4SM BR OVC011 01/01 A2970 1240 96 -100 250/03 RMK AO2 T00110006 $
14926KSTC STC20191119072512711/19/19 07:25:31  5-MIN KSTC 191325Z 00000KT 2 1/2SM BR OVC011 01/01 A2970 1230 96 -100 000/00 RMK AO2 CIG 008V012 T00110006 $
14926KSTC STC20191119073012411/19/19 07:30:31  5-MIN KSTC 191330Z 27003KT 3SM BR OVC009 01/01 A2971 1230 100 -100 270/03 RMK AO2 CIG 007V012 T00110011 $
14926KSTC STC20191119073512411/19/19 07:35:31  5-MIN KSTC 191335Z 27003KT 4SM BR OVC009 01/01 A2971 1230 100 -100 270/03 RMK AO2 CIG 007V011 T00110011 $
14926KSTC STC20191119074012011/19/19 07:40:31  5-MIN KSTC 191340Z 28003KT 5SM BR OVC009 02/01 A2971 1230 96 0 280/03 RMK AO2 CIG 007V010 T00170011 $
14926KSTC STC20191119074510811/19/19 07:45:31  5-MIN KSTC 191345Z 28004KT 5SM BR OVC007 02/01 A2971 1230 96 0 280/04 RMK AO2 T00170011 $
14926KSTC STC20191119075012411/19/19 07:50:31  5-MIN KSTC 191350Z 28004KT 8SM OVC007 02/01 A2971 1230 96 0 270/04 RMK AO2 CIG 007V012 SLP081 T00170011 $
14926KSTC STC20191119075511311/19/19 07:55:31  5-MIN KSTC 191355Z 29004KT 10SM BKN007 OVC011 02/01 A2971 1230 96 0 290/04 RMK AO2 T00170011 $
14926KSTC STC20191119080012511/19/19 08:00:31  5-MIN KSTC 191400Z 29004KT 10SM BKN007 OVC011 02/01 A2972 1220 92 0 290/04 RMK AO2 CIG 007V010 T00220011 $
14926KSTC STC20191119080511311/19/19 08:05:31  5-MIN KSTC 191405Z 28004KT 10SM BKN007 OVC011 02/01 A2972 1220 92 0 280/04 RMK AO2 T00220011 $
14926KSTC STC20191119081011311/19/19 08:10:31  5-MIN KSTC 191410Z 29004KT 10SM BKN007 OVC011 02/01 A2972 1220 92 0 290/04 RMK AO2 T00220011 $
14926KSTC STC20191119081511311/19/19 08:15:31  5-MIN KSTC 191415Z 29005KT 10SM BKN007 OVC011 02/01 A2972 1220 92 0 290/05 RMK AO2 T00220011 $
14926KSTC STC20191119082011311/19/19 08:20:31  5-MIN KSTC 191420Z 28004KT 10SM BKN007 OVC011 02/01 A2972 1210 92 0 280/04 RMK AO2 T00220011 $
14926KSTC STC20191119082511311/19/19 08:25:31  5-MIN KSTC 191425Z 28006KT 10SM BKN007 OVC011 02/02 A2973 1210 96 0 280/06 RMK AO2 T00220017 $
14926KSTC STC20191119083011311/19/19 08:30:31  5-MIN KSTC 191430Z 28006KT 10SM BKN007 OVC011 02/02 A2973 1210 96 0 280/06 RMK AO2 T00220017 $
14926KSTC STC20191119083511311/19/19 08:35:31  5-MIN KSTC 191435Z 29006KT 10SM BKN007 OVC011 02/02 A2973 1210 96 0 290/06 RMK AO2 T00220017 $
14926KSTC STC20191119084011311/19/19 08:40:31  5-MIN KSTC 191440Z 29007KT 10SM BKN007 OVC011 02/02 A2973 1210 96 0 290/07 RMK AO2 T00220017 $
14926KSTC STC20191119084510611/19/19 08:45:31  5-MIN KSTC 191445Z 30005KT 10SM OVC011 02/02 A2973 1210 96 0 300/05 RMK AO2 T00220017 $
14926KSTC STC20191119085011911/19/19 08:50:31  5-MIN KSTC 191450Z 29005KT 10SM OVC013 02/02 A2973 1210 96 0 290/05 RMK AO2 SLP087 T00220017 51019 $
14926KSTC STC20191119085510611/19/19 08:55:31  5-MIN KSTC 191455Z 30006KT 10SM OVC013 02/02 A2973 1210 96 0 300/06 RMK AO2 T00220017 $
14926KSTC STC20191119090010611/19/19 09:00:31  5-MIN KSTC 191500Z 29007KT 10SM OVC013 02/02 A2974 1210 96 0 290/07 RMK AO2 T00220017 $
14926KSTC STC20191119090510811/19/19 09:05:31  5-MIN KSTC 191505Z 30007KT 10SM OVC013 03/02 A2974 1210 92 100 300/07 RMK AO2 T00280017 $
14926KSTC STC20191119091010811/19/19 09:10:31  5-MIN KSTC 191510Z 29007KT 10SM OVC013 03/02 A2974 1200 92 100 290/07 RMK AO2 T00280017 $
14926KSTC STC20191119091510411/19/19 09:15:31  5-MIN KSTC 191515Z 29007KT 10SM OVC014 03/02 A2974 1200 92 0 290/07 RMK AO2 T00280017
14926KSTC STC20191119092010611/19/19 09:20:31  5-MIN KSTC 191520Z 29007KT 10SM OVC014 03/02 A2974 1200 92 0 290/07 RMK AO2 T00280017 $
14926KSTC STC20191119092510611/19/19 09:25:31  5-MIN KSTC 191525Z 30006KT 10SM OVC015 03/02 A2974 1200 92 0 300/06 RMK AO2 T00280017 $
14926KSTC STC20191119093010811/19/19 09:30:31  5-MIN KSTC 191530Z 30007KT 10SM OVC015 03/02 A2974 1200 89 100 290/07 RMK AO2 T00330017 $
14926KSTC STC20191119093510811/19/19 09:35:31  5-MIN KSTC 191535Z 30008KT 10SM OVC017 03/02 A2974 1200 89 100 300/08 RMK AO2 T00330017 $
14926KSTC STC20191119094011511/19/19 09:40:31  5-MIN KSTC 191540Z 30008KT 10SM BKN017 OVC024 03/02 A2975 1190 92 100 300/08 RMK AO2 T00330022 $
14926KSTC STC20191119094511511/19/19 09:45:31  5-MIN KSTC 191545Z 30008KT 10SM BKN017 OVC024 03/02 A2975 1190 92 100 300/08 RMK AO2 T00330022 $
14926KSTC STC20191119095011511/19/19 09:50:31  5-MIN KSTC 191550Z 30008KT 10SM OVC022 04/02 A2975 1190 89 200 300/08 RMK AO2 SLP093 T00390022 $
14926KSTC STC20191119095511511/19/19 09:55:31  5-MIN KSTC 191555Z 29008KT 10SM FEW008 OVC022 04/02 A2975 1190 89 200 290/08 RMK AO2 T00390022 $
14926KSTC STC20191119100011511/19/19 10:00:31  5-MIN KSTC 191600Z 29009KT 10SM FEW008 OVC022 04/02 A2976 1190 89 200 290/09 RMK AO2 T00390022 $
14926KSTC STC20191119100511511/19/19 10:05:31  5-MIN KSTC 191605Z 31007KT 10SM FEW008 OVC022 04/02 A2976 1180 89 200 310/07 RMK AO2 T00390022 $
14926KSTC STC20191119101011511/19/19 10:10:31  5-MIN KSTC 191610Z 29008KT 10SM SCT008 OVC022 04/02 A2976 1180 89 200 290/08 RMK AO2 T00390022 $
14926KSTC STC20191119101511511/19/19 10:15:31  5-MIN KSTC 191615Z 29009KT 10SM SCT008 OVC022 04/02 A2977 1180 89 200 290/09 RMK AO2 T00390022 $
14926KSTC STC20191119102011511/19/19 10:20:31  5-MIN KSTC 191620Z 30009KT 10SM BKN009 OVC022 04/02 A2977 1180 89 200 300/09 RMK AO2 T00390022 $
14926KSTC STC20191119102511511/19/19 10:25:31  5-MIN KSTC 191625Z 30008KT 10SM BKN009 OVC022 04/02 A2977 1180 89 200 300/08 RMK AO2 T00390022 $
14926KSTC STC20191119103011511/19/19 10:30:31  5-MIN KSTC 191630Z 30008KT 10SM BKN009 OVC022 04/02 A2977 1180 89 200 300/08 RMK AO2 T00390022 $
14926KSTC STC20191119103510811/19/19 10:35:31  5-MIN KSTC 191635Z 30008KT 10SM OVC009 04/03 A2977 1170 89 200 300/08 RMK AO2 T00440028 $
14926KSTC STC20191119104010811/19/19 10:40:31  5-MIN KSTC 191640Z 29009KT 10SM OVC009 04/03 A2977 1170 89 200 290/09 RMK AO2 T00440028 $
14926KSTC STC20191119104511511/19/19 10:45:31  5-MIN KSTC 191645Z 29008KT 10SM BKN010 OVC017 04/02 A2977 1170 85 200 290/08 RMK AO2 T00440022 $
14926KSTC STC20191119105012211/19/19 10:50:31  5-MIN KSTC 191650Z 29007KT 10SM BKN010 OVC017 04/03 A2977 1170 89 200 290/07 RMK AO2 SLP100 T00440028 $
14926KSTC STC20191119105511511/19/19 10:55:31  5-MIN KSTC 191655Z 30009KT 10SM SCT010 OVC018 04/03 A2977 1170 89 200 300/09 RMK AO2 T00440028 $
14926KSTC STC20191119110011511/19/19 11:00:31  5-MIN KSTC 191700Z 31007KT 10SM SCT010 OVC018 04/03 A2977 1170 89 200 300/07 RMK AO2 T00440028 $
14926KSTC STC20191119110512211/19/19 11:05:31  5-MIN KSTC 191705Z 31008KT 10SM FEW010 BKN018 OVC026 05/03 A2977 1170 85 300 310/08 RMK AO2 T00500028 $
14926KSTC STC20191119111012211/19/19 11:10:31  5-MIN KSTC 191710Z 30009KT 10SM FEW012 BKN018 OVC026 05/03 A2978 1170 85 300 300/09 RMK AO2 T00500028 $
14926KSTC STC20191119111512211/19/19 11:15:31  5-MIN KSTC 191715Z 30009KT 10SM FEW012 BKN018 OVC026 05/03 A2978 1170 85 300 300/09 RMK AO2 T00500028 $
14926KSTC STC20191119112012211/19/19 11:20:31  5-MIN KSTC 191720Z 30009KT 10SM FEW012 BKN018 OVC026 05/03 A2978 1170 85 300 300/09 RMK AO2 T00500028 $
14926KSTC STC20191119112512211/19/19 11:25:31  5-MIN KSTC 191725Z 30008KT 10SM SCT012 BKN020 OVC026 05/03 A2978 1170 85 300 300/08 RMK AO2 T00500028 $
14926KSTC STC20191119113012211/19/19 11:30:31  5-MIN KSTC 191730Z 30011KT 10SM SCT012 BKN020 OVC026 05/03 A2978 1160 85 300 300/11 RMK AO2 T00500028 $
14926KSTC STC20191119113512211/19/19 11:35:31  5-MIN KSTC 191735Z 30009KT 10SM BKN012 BKN020 OVC028 05/03 A2978 1160 85 300 300/09 RMK AO2 T00500028 $
14926KSTC STC20191119114012211/19/19 11:40:31  5-MIN KSTC 191740Z 31009KT 10SM BKN012 BKN020 OVC028 05/03 A2978 1160 85 300 310/09 RMK AO2 T00500028 $
14926KSTC STC20191119114512211/19/19 11:45:31  5-MIN KSTC 191745Z 30008KT 10SM BKN012 BKN020 OVC028 06/03 A2978 1160 82 300 300/08 RMK AO2 T00560028 $
14926KSTC STC20191119115014711/19/19 11:50:31  5-MIN KSTC 191750Z 30009KT 10SM BKN013 BKN018 OVC028 06/03 A2978 1160 82 300 300/09 RMK AO2 SLP103 T00560028 10056 20006 51012 $
14926KSTC STC20191119115511511/19/19 11:55:31  5-MIN KSTC 191755Z 30008KT 10SM BKN013 OVC027 06/03 A2978 1160 82 300 300/08 RMK AO2 T00560028 $
14926KSTC STC20191119120011511/19/19 12:00:31  5-MIN KSTC 191800Z 31008KT 10SM BKN013 OVC027 06/03 A2978 1160 85 300 310/08 RMK AO2 T00560033 $
14926KSTC STC20191119120511511/19/19 12:05:31  5-MIN KSTC 191805Z 31008KT 10SM BKN013 OVC027 06/03 A2978 1160 85 300 310/08 RMK AO2 T00560033 $
14926KSTC STC20191119121011511/19/19 12:10:31  5-MIN KSTC 191810Z 31009KT 10SM BKN013 OVC026 06/03 A2978 1160 79 400 310/09 RMK AO2 T00610028 $
14926KSTC STC20191119121511511/19/19 12:15:31  5-MIN KSTC 191815Z 31008KT 10SM SCT013 OVC026 06/03 A2978 1160 82 400 310/08 RMK AO2 T00610033 $
14926KSTC STC20191119122011511/19/19 12:20:31  5-MIN KSTC 191820Z 32008KT 10SM SCT013 OVC026 06/03 A2978 1160 82 400 320/08 RMK AO2 T00610033 $
14926KSTC STC20191119122511511/19/19 12:25:31  5-MIN KSTC 191825Z 30008KT 10SM FEW013 OVC026 06/03 A2978 1160 79 400 300/08 RMK AO2 T00610028 $
14926KSTC STC20191119123011511/19/19 12:30:31  5-MIN KSTC 191830Z 30007KT 10SM FEW013 OVC026 06/03 A2979 1160 79 400 300/07 RMK AO2 T00610028 $
14926KSTC STC20191119123511511/19/19 12:35:31  5-MIN KSTC 191835Z 31009KT 10SM FEW013 OVC026 07/03 A2978 1160 79 500 310/09 RMK AO2 T00670033 $
14926KSTC STC20191119124010811/19/19 12:40:31  5-MIN KSTC 191840Z 32006KT 10SM OVC026 07/03 A2978 1160 76 500 320/06 RMK AO2 T00670028 $
14926KSTC STC20191119124511511/19/19 12:45:31  5-MIN KSTC 191845Z 30010KT 10SM FEW018 OVC026 07/03 A2978 1160 76 500 300/10 RMK AO2 T00670028 $
14926KSTC STC20191119125012211/19/19 12:50:31  5-MIN KSTC 191850Z 30010KT 10SM FEW018 BKN026 07/03 A2979 1160 76 500 300/10 RMK AO2 SLP104 T00670028 $
14926KSTC STC20191119125511511/19/19 12:55:31  5-MIN KSTC 191855Z 30007KT 10SM FEW018 BKN026 07/03 A2979 1150 76 500 300/07 RMK AO2 T00670028 $
14926KSTC STC20191119130011511/19/19 13:00:31  5-MIN KSTC 191900Z 28008KT 10SM FEW018 SCT026 07/03 A2979 1150 73 500 280/08 RMK AO2 T00720028 $
14926KSTC STC20191119130510811/19/19 13:05:31  5-MIN KSTC 191905Z 30007KT 10SM BKN022 07/03 A2980 1150 73 500 290/07 RMK AO2 T00720028 $
14926KSTC STC20191119131010811/19/19 13:10:31  5-MIN KSTC 191910Z 29006KT 10SM BKN020 07/03 A2980 1150 73 500 290/06 RMK AO2 T00720028 $
14926KSTC STC20191119131511411/19/19 13:15:31  5-MIN KSTC 191915Z 29009G17KT 10SM BKN020 07/03 A2980 1150 76 500 290/09G17 RMK AO2 T00670028 $
14926KSTC STC20191119132011411/19/19 13:20:31  5-MIN KSTC 191920Z 32010G20KT 10SM BKN020 07/02 A2980 1140 73 500 320/10G20 RMK AO2 T00670022 $
14926KSTC STC20191119132511411/19/19 13:25:31  5-MIN KSTC 191925Z 33008G20KT 10SM OVC020 07/02 A2980 1140 73 500 320/08G20 RMK AO2 T00670022 $
14926KSTC STC20191119133010811/19/19 13:30:31  5-MIN KSTC 191930Z 32011KT 10SM OVC021 07/02 A2980 1140 73 500 320/11 RMK AO2 T00670022 $
14926KSTC STC20191119133510811/19/19 13:35:31  5-MIN KSTC 191935Z 31009KT 10SM OVC021 07/02 A2980 1140 73 500 310/09 RMK AO2 T00670022 $
14926KSTC STC20191119134010811/19/19 13:40:31  5-MIN KSTC 191940Z 31012KT 10SM OVC021 06/03 A2981 1140 79 400 310/12 RMK AO2 T00610028 $
14926KSTC STC20191119134510811/19/19 13:45:31  5-MIN KSTC 191945Z 32008KT 10SM OVC021 06/03 A2981 1140 79 400 320/08 RMK AO2 T00610028 $
14926KSTC STC20191119135011511/19/19 13:50:31  5-MIN KSTC 191950Z 32008KT 10SM OVC021 06/03 A2981 1130 79 400 320/08 RMK AO2 SLP113 T00610028 $
14926KSTC STC20191119135510811/19/19 13:55:31  5-MIN KSTC 191955Z 33007KT 10SM OVC021 06/03 A2981 1130 79 400 330/07 RMK AO2 T00610028 $
14926KSTC STC20191119140010811/19/19 14:00:31  5-MIN KSTC 192000Z 33008KT 10SM OVC021 06/03 A2981 1130 79 400 330/08 RMK AO2 T00610028 $
14926KSTC STC20191119140510811/19/19 14:05:31  5-MIN KSTC 192005Z 33006KT 10SM OVC020 06/03 A2982 1130 79 400 330/06 RMK AO2 T00610028 $
14926KSTC STC20191119141010811/19/19 14:10:31  5-MIN KSTC 192010Z 31009KT 10SM OVC020 06/02 A2982 1130 76 400 310/09 RMK AO2 T00610022 $
14926KSTC STC20191119141510811/19/19 14:15:31  5-MIN KSTC 192015Z 31008KT 10SM OVC018 06/03 A2982 1120 82 300 300/08 RMK AO2 T00560028 $
14926KSTC STC20191119142011511/19/19 14:20:31  5-MIN KSTC 192020Z 31008KT 10SM BKN016 OVC021 06/03 A2982 1120 82 300 310/08 RMK AO2 T00560028 $
14926KSTC STC20191119142510811/19/19 14:25:31  5-MIN KSTC 192025Z 31009KT 10SM OVC016 06/02 A2982 1120 79 300 310/09 RMK AO2 T00560022 $
14926KSTC STC20191119143010811/19/19 14:30:31  5-MIN KSTC 192030Z 29008KT 10SM OVC016 06/02 A2982 1120 79 300 290/08 RMK AO2 T00560022 $
14926KSTC STC20191119143510811/19/19 14:35:31  5-MIN KSTC 192035Z 30007KT 10SM OVC016 06/02 A2983 1120 79 300 300/07 RMK AO2 T00560022 $
14926KSTC STC20191119144010811/19/19 14:40:31  5-MIN KSTC 192040Z 30008KT 10SM OVC015 06/02 A2983 1120 79 300 300/08 RMK AO2 T00560022 $
14926KSTC STC20191119144510811/19/19 14:45:31  5-MIN KSTC 192045Z 29009KT 10SM OVC015 06/02 A2983 1120 79 300 290/09 RMK AO2 T00560022 $
14926KSTC STC20191119145012111/19/19 14:50:31  5-MIN KSTC 192050Z 29009KT 10SM OVC015 05/02 A2983 1120 82 200 290/09 RMK AO2 SLP120 T00500022 51009 $
14926KSTC STC20191119145510811/19/19 14:55:31  5-MIN KSTC 192055Z 31010KT 10SM OVC015 05/02 A2983 1120 82 200 310/10 RMK AO2 T00500022 $
14926KSTC STC20191119150010811/19/19 15:00:31  5-MIN KSTC 192100Z 31010KT 10SM OVC015 05/02 A2983 1110 82 200 310/10 RMK AO2 T00500022 $
14926KSTC STC20191119150510811/19/19 15:05:31  5-MIN KSTC 192105Z 31011KT 10SM OVC015 05/02 A2984 1110 79 200 310/11 RMK AO2 T00500017 $
14926KSTC STC20191119151010811/19/19 15:10:31  5-MIN KSTC 192110Z 32008KT 10SM OVC015 05/02 A2984 1110 82 200 320/08 RMK AO2 T00500022 $
14926KSTC STC20191119151510811/19/19 15:15:31  5-MIN KSTC 192115Z 32008KT 10SM OVC015 05/02 A2984 1110 79 200 320/08 RMK AO2 T00500017 $
14926KSTC STC20191119152010811/19/19 15:20:31  5-MIN KSTC 192120Z 32009KT 10SM OVC015 04/02 A2984 1110 82 100 320/09 RMK AO2 T00440017 $
14926KSTC STC20191119152510811/19/19 15:25:31  5-MIN KSTC 192125Z 32009KT 10SM OVC015 04/02 A2985 1100 82 100 320/09 RMK AO2 T00440017 $
14926KSTC STC20191119153010811/19/19 15:30:31  5-MIN KSTC 192130Z 32010KT 10SM OVC015 04/02 A2985 1100 82 100 320/10 RMK AO2 T00440017 $
14926KSTC STC20191119153510811/19/19 15:35:31  5-MIN KSTC 192135Z 32008KT 10SM OVC015 04/02 A2985 1100 82 100 320/08 RMK AO2 T00440017 $
14926KSTC STC20191119154010811/19/19 15:40:31  5-MIN KSTC 192140Z 32008KT 10SM OVC014 04/02 A2985 1100 82 100 320/08 RMK AO2 T00440017 $
14926KSTC STC20191119154510811/19/19 15:45:31  5-MIN KSTC 192145Z 33006KT 10SM OVC014 04/02 A2986 1090 82 100 330/06 RMK AO2 T00440017 $
14926KSTC STC20191119155011511/19/19 15:50:31  5-MIN KSTC 192150Z 32005KT 10SM OVC014 04/01 A2986 1090 79 100 320/05 RMK AO2 SLP129 T00440011 $
14926KSTC STC20191119155510811/19/19 15:55:31  5-MIN KSTC 192155Z 32005KT 10SM OVC014 04/01 A2986 1090 79 100 320/05 RMK AO2 T00440011 $
14926KSTC STC20191119160010811/19/19 16:00:31  5-MIN KSTC 192200Z 33005KT 10SM OVC014 04/01 A2986 1090 82 100 330/05 RMK AO2 T00390011 $
14926KSTC STC20191119160510811/19/19 16:05:31  5-MIN KSTC 192205Z 32007KT 10SM OVC014 04/01 A2985 1090 82 100 320/07 RMK AO2 T00390011 $
14926KSTC STC20191119161010811/19/19 16:10:31  5-MIN KSTC 192210Z 32008KT 10SM OVC016 04/01 A2985 1100 79 100 320/08 RMK AO2 T00440011 $
14926KSTC STC20191119161510811/19/19 16:15:31  5-MIN KSTC 192215Z 32009KT 10SM OVC016 04/01 A2985 1090 79 100 320/09 RMK AO2 T00440011 $
14926KSTC STC20191119162010811/19/19 16:20:31  5-MIN KSTC 192220Z 32008KT 10SM OVC016 04/01 A2986 1090 79 100 320/08 RMK AO2 T00440011 $
14926KSTC STC20191119162510811/19/19 16:25:31  5-MIN KSTC 192225Z 32006KT 10SM OVC016 04/01 A2986 1090 82 100 320/06 RMK AO2 T00390011 $
14926KSTC STC20191119163010811/19/19 16:30:31  5-MIN KSTC 192230Z 33005KT 10SM OVC016 04/01 A2986 1090 82 100 330/05 RMK AO2 T00390011 $
14926KSTC STC20191119163510811/19/19 16:35:31  5-MIN KSTC 192235Z 33005KT 10SM OVC016 04/01 A2986 1090 82 100 330/05 RMK AO2 T00390011 $
14926KSTC STC20191119164010811/19/19 16:40:31  5-MIN KSTC 192240Z 33005KT 10SM OVC016 04/01 A2986 1090 82 100 330/05 RMK AO2 T00390011 $
14926KSTC STC20191119164510611/19/19 16:45:31  5-MIN KSTC 192245Z 33006KT 10SM OVC016 04/01 A2986 1090 82 0 330/06 RMK AO2 T00390011 $
14926KSTC STC20191119165011311/19/19 16:50:31  5-MIN KSTC 192250Z 31008KT 10SM OVC016 04/01 A2986 1090 82 0 310/08 RMK AO2 SLP130 T00390011 $
14926KSTC STC20191119165510611/19/19 16:55:31  5-MIN KSTC 192255Z 31007KT 10SM OVC016 04/01 A2986 1090 82 0 310/07 RMK AO2 T00390011 $
14926KSTC STC20191119170010611/19/19 17:00:31  5-MIN KSTC 192300Z 31008KT 10SM OVC016 04/01 A2986 1090 82 0 310/08 RMK AO2 T00390011 $
14926KSTC STC20191119170510611/19/19 17:05:31  5-MIN KSTC 192305Z 31007KT 10SM OVC016 04/01 A2986 1090 82 0 310/07 RMK AO2 T00390011 $
14926KSTC STC20191119171010611/19/19 17:10:31  5-MIN KSTC 192310Z 31008KT 10SM OVC016 04/01 A2986 1090 82 0 310/08 RMK AO2 T00390011 $
14926KSTC STC20191119171510611/19/19 17:15:31  5-MIN KSTC 192315Z 31007KT 10SM OVC016 04/01 A2987 1080 79 0 310/07 RMK AO2 T00390006 $
14926KSTC STC20191119172010611/19/19 17:20:31  5-MIN KSTC 192320Z 32006KT 10SM OVC016 04/01 A2987 1080 82 0 320/06 RMK AO2 T00390011 $
14926KSTC STC20191119172510611/19/19 17:25:31  5-MIN KSTC 192325Z 33004KT 10SM OVC016 04/01 A2987 1080 82 0 320/04 RMK AO2 T00390011 $
14926KSTC STC20191119173010611/19/19 17:30:31  5-MIN KSTC 192330Z 31007KT 10SM OVC016 04/01 A2987 1080 82 0 310/07 RMK AO2 T00390011 $
14926KSTC STC20191119173510611/19/19 17:35:31  5-MIN KSTC 192335Z 32004KT 10SM OVC016 04/01 A2988 1070 82 0 320/04 RMK AO2 T00390011 $
14926KSTC STC20191119174010611/19/19 17:40:31  5-MIN KSTC 192340Z 32003KT 10SM OVC016 04/01 A2988 1070 82 0 320/03 RMK AO2 T00390011 $
14926KSTC STC20191119174510611/19/19 17:45:31  5-MIN KSTC 192345Z 32003KT 10SM OVC016 03/01 A2988 1070 85 0 320/03 RMK AO2 T00330011 $
14926KSTC STC20191119175013111/19/19 17:50:31  5-MIN KSTC 192350Z 00000KT 10SM OVC016 04/01 A2988 1070 82 0 000/00 RMK AO2 SLP137 T00390011 10072 20033 53016 $
14926KSTC STC20191119175510611/19/19 17:55:31  5-MIN KSTC 192355Z 33004KT 10SM OVC016 04/01 A2988 1070 82 0 330/04 RMK AO2 T00390011 $
14926KSTC STC20191119180010611/19/19 18:00:31  5-MIN KSTC 200000Z VRB05KT 10SM OVC016 04/01 A2988 1070 79 0 VRB/05 RMK AO2 T00390006 $
14926KSTC STC20191119180511111/19/19 18:05:31  5-MIN KSTC 200005Z AUTO 33004KT 10SM OVC016 04/01 A2989 1060 79 0 330/04 RMK AO2 T00390006 $
14926KSTC STC20191119181011111/19/19 18:10:31  5-MIN KSTC 200010Z AUTO 31006KT 10SM OVC016 04/01 A2989 1060 79 0 310/06 RMK AO2 T00390006 $
14926KSTC STC20191119181511111/19/19 18:15:31  5-MIN KSTC 200015Z AUTO 34004KT 10SM OVC016 04/01 A2989 1060 79 0 340/04 RMK AO2 T00390006 $
14926KSTC STC20191119182010611/19/19 18:20:31  5-MIN KSTC 200020Z 34004KT 10SM OVC016 04/01 A2989 1060 79 0 340/04 RMK AO2 T00390006 $
14926KSTC STC20191119182509611/19/19 18:25:31  5-MIN KSTC 200025Z 10SM OVC016 04/01 A2989 1060 79 0 M /M RMK AO2 T00390006 $
14926KSTC STC20191119183009611/19/19 18:30:31  5-MIN KSTC 200030Z 10SM OVC016 04/01 A2989 1060 79 0 M /M RMK AO2 T00390006 $
14926KSTC STC20191119183509611/19/19 18:35:31  5-MIN KSTC 200035Z 10SM OVC016 04/01 A2989 1060 79 0 M /M RMK AO2 T00390006 $
14926KSTC STC20191119184009611/19/19 18:40:31  5-MIN KSTC 200040Z 10SM OVC016 04/01 A2990 1060 79 0 M /M RMK AO2 T00390006 $
14926KSTC STC20191119184510611/19/19 18:45:31  5-MIN KSTC 200045Z 00000KT 10SM OVC016 04/01 A2990 1050 79 0 000/00 RMK AO2 T00390006 $
14926KSTC STC20191119185011311/19/19 18:50:31  5-MIN KSTC 200050Z 00000KT 10SM OVC016 04/01 A2990 1050 82 0 000/00 RMK AO2 SLP143 T00390011 $
14926KSTC STC20191119185510611/19/19 18:55:31  5-MIN KSTC 200055Z 00000KT 10SM OVC015 04/01 A2990 1050 82 0 000/00 RMK AO2 T00390011 $
14926KSTC STC20191119190010611/19/19 19:00:31  5-MIN KSTC 200100Z 00000KT 10SM OVC015 04/01 A2990 1050 82 0 000/00 RMK AO2 T00390011 $
14926KSTC STC20191119190510611/19/19 19:05:31  5-MIN KSTC 200105Z 00000KT 10SM OVC015 03/01 A2990 1050 82 0 000/00 RMK AO2 T00330006 $
14926KSTC STC20191119191010611/19/19 19:10:31  5-MIN KSTC 200110Z 00000KT 10SM OVC015 03/01 A2991 1040 82 0 000/00 RMK AO2 T00330006 $
14926KSTC STC20191119191510611/19/19 19:15:31  5-MIN KSTC 200115Z 00000KT 10SM OVC015 03/01 A2991 1040 82 0 000/00 RMK AO2 T00330006 $
14926KSTC STC20191119192010611/19/19 19:20:31  5-MIN KSTC 200120Z 00000KT 10SM OVC015 03/01 A2991 1040 82 0 000/00 RMK AO2 T00330006 $
14926KSTC STC20191119192510611/19/19 19:25:31  5-MIN KSTC 200125Z 00000KT 10SM OVC015 03/01 A2991 1040 82 0 000/00 RMK AO2 T00330006 $
14926KSTC STC20191119193010611/19/19 19:30:31  5-MIN KSTC 200130Z 00000KT 10SM OVC015 03/01 A2991 1040 82 0 000/00 RMK AO2 T00330006 $
14926KSTC STC20191119193510611/19/19 19:35:31  5-MIN KSTC 200135Z 30003KT 10SM OVC015 03/01 A2992 1040 82 0 300/03 RMK AO2 T00330006 $
14926KSTC STC20191119194010611/19/19 19:40:31  5-MIN KSTC 200140Z 28007KT 10SM OVC015 03/01 A2992 1030 82 0 280/07 RMK AO2 T00330006 $
14926KSTC STC20191119194510611/19/19 19:45:31  5-MIN KSTC 200145Z 32004KT 10SM OVC016 03/01 A2992 1030 82 0 320/04 RMK AO2 T00330006 $
14926KSTC STC20191119195011311/19/19 19:50:31  5-MIN KSTC 200150Z 32005KT 10SM OVC016 03/01 A2992 1030 82 0 320/05 RMK AO2 SLP152 T00330006 $
14926KSTC STC20191119195510611/19/19 19:55:31  5-MIN KSTC 200155Z 29004KT 10SM OVC016 03/01 A2993 1030 82 0 290/04 RMK AO2 T00330006 $
14926KSTC STC20191119200010911/19/19 20:00:31  5-MIN KSTC 200200Z 32005KT 10SM OVC016 03/01 A2993 1020 82 -100 320/05 RMK AO2 T00330006 $
14926KSTC STC20191119200510611/19/19 20:05:31  5-MIN KSTC 200205Z 30006KT 10SM OVC016 04/01 A2993 1020 79 0 300/06 RMK AO2 T00390006 $
14926KSTC STC20191119201010911/19/19 20:10:31  5-MIN KSTC 200210Z 30005KT 10SM OVC016 03/01 A2993 1030 82 -100 300/05 RMK AO2 T00330006 $
14926KSTC STC20191119201510911/19/19 20:15:31  5-MIN KSTC 200215Z 31004KT 10SM OVC016 03/01 A2993 1030 82 -100 300/04 RMK AO2 T00330006 $
14926KSTC STC20191119202010611/19/19 20:20:31  5-MIN KSTC 200220Z 34003KT 10SM OVC016 03/01 A2993 1030 82 0 340/03 RMK AO2 T00330006 $
14926KSTC STC20191119202510611/19/19 20:25:31  5-MIN KSTC 200225Z 35003KT 10SM OVC016 03/01 A2993 1030 82 0 350/03 RMK AO2 T00330006 $
14926KSTC STC20191119203010911/19/19 20:30:31  5-MIN KSTC 200230Z 34003KT 10SM OVC016 03/01 A2993 1030 82 -100 340/03 RMK AO2 T00330006 $
14926KSTC STC20191119203510911/19/19 20:35:31  5-MIN KSTC 200235Z 00000KT 10SM OVC016 03/01 A2993 1020 82 -100 000/00 RMK AO2 T00330006 $
14926KSTC STC20191119204010911/19/19 20:40:31  5-MIN KSTC 200240Z 35003KT 10SM OVC016 03/01 A2994 1020 82 -100 340/03 RMK AO2 T00330006 $
14926KSTC STC20191119204510911/19/19 20:45:31  5-MIN KSTC 200245Z 29003KT 10SM OVC016 03/01 A2994 1020 82 -100 290/03 RMK AO2 T00330006 $
14926KSTC STC20191119205012211/19/19 20:50:31  5-MIN KSTC 200250Z 31005KT 10SM OVC017 03/01 A2994 1010 82 -100 310/05 RMK AO2 SLP158 T00330006 51017 $
14926KSTC STC20191119205510911/19/19 20:55:31  5-MIN KSTC 200255Z 32004KT 10SM OVC017 03/01 A2994 1010 82 -100 320/04 RMK AO2 T00330006 $
14926KSTC STC20191119210010911/19/19 21:00:31  5-MIN KSTC 200300Z 33003KT 10SM OVC016 03/01 A2994 1010 82 -100 330/03 RMK AO2 T00330006 $
14926KSTC STC20191119210510911/19/19 21:05:31  5-MIN KSTC 200305Z 33006KT 10SM OVC016 03/01 A2994 1010 82 -100 330/06 RMK AO2 T00330006 $
14926KSTC STC20191119211010611/19/19 21:10:31  5-MIN KSTC 200310Z 32003KT 10SM OVC016 04/01 A2994 1010 79 0 310/03 RMK AO2 T00390006 $
14926KSTC STC20191119211510911/19/19 21:15:31  5-MIN KSTC 200315Z 32004KT 10SM OVC016 03/01 A2994 1010 82 -100 320/04 RMK AO2 T00330006 $
14926KSTC STC20191119212010911/19/19 21:20:31  5-MIN KSTC 200320Z 33003KT 10SM OVC016 03/01 A2995 1010 82 -100 330/03 RMK AO2 T00330006 $
14926KSTC STC20191119212510911/19/19 21:25:31  5-MIN KSTC 200325Z 00000KT 10SM OVC016 03/01 A2995 1010 82 -100 000/00 RMK AO2 T00330006 $
14926KSTC STC20191119213010911/19/19 21:30:31  5-MIN KSTC 200330Z 00000KT 10SM OVC016 03/01 A2995 1000 82 -100 000/00 RMK AO2 T00330006 $
14926KSTC STC20191119213510911/19/19 21:35:31  5-MIN KSTC 200335Z 32003KT 10SM OVC016 03/01 A2995 1000 82 -100 320/03 RMK AO2 T00330006 $
14926KSTC STC20191119214010911/19/19 21:40:31  5-MIN KSTC 200340Z 00000KT 10SM OVC016 03/01 A2995 1000 82 -100 000/00 RMK AO2 T00330006 $
14926KSTC STC20191119214510911/19/19 21:45:31  5-MIN KSTC 200345Z 00000KT 10SM OVC016 03/01 A2995 1000 82 -100 000/00 RMK AO2 T00330006 $
14926KSTC STC20191119215011611/19/19 21:50:31  5-MIN KSTC 200350Z 00000KT 10SM OVC016 03/01 A2995 1010 82 -100 000/00 RMK AO2 SLP159 T00330006 $
14926KSTC STC20191119215510911/19/19 21:55:31  5-MIN KSTC 200355Z 00000KT 10SM OVC016 03/01 A2995 1010 82 -100 000/00 RMK AO2 T00330006 $
14926KSTC STC20191119220010911/19/19 22:00:31  5-MIN KSTC 200400Z 00000KT 10SM OVC016 03/01 A2995 1010 85 -100 000/00 RMK AO2 T00280006 $
14926KSTC STC20191119220511611/19/19 22:05:31  5-MIN KSTC 200405Z 16005KT 10SM BKN016 OVC024 03/01 A2994 1010 82 -100 160/05 RMK AO2 T00330006 $
14926KSTC STC20191119221011611/19/19 22:10:31  5-MIN KSTC 200410Z 18005KT 10SM BKN016 OVC026 03/01 A2995 1010 85 -100 180/05 RMK AO2 T00280006 $
14926KSTC STC20191119221511611/19/19 22:15:31  5-MIN KSTC 200415Z 17005KT 10SM SCT016 OVC026 03/01 A2994 1010 85 -100 170/05 RMK AO2 T00280006 $
14926KSTC STC20191119222011611/19/19 22:20:31  5-MIN KSTC 200420Z 18005KT 10SM SCT016 OVC026 03/01 A2995 1010 85 -100 180/05 RMK AO2 T00280006 $
14926KSTC STC20191119222511611/19/19 22:25:31  5-MIN KSTC 200425Z 18005KT 10SM FEW016 OVC026 03/01 A2995 1010 85 -100 180/05 RMK AO2 T00280006 $
14926KSTC STC20191119223010911/19/19 22:30:31  5-MIN KSTC 200430Z 20004KT 10SM OVC026 03/01 A2995 1010 82 -100 200/04 RMK AO2 T00330006 $
14926KSTC STC20191119223510911/19/19 22:35:31  5-MIN KSTC 200435Z 19004KT 10SM OVC026 03/01 A2995 1010 85 -100 190/04 RMK AO2 T00280006 $
14926KSTC STC20191119224010911/19/19 22:40:31  5-MIN KSTC 200440Z 00000KT 10SM OVC026 03/01 A2995 1010 85 -100 000/00 RMK AO2 T00280006 $
14926KSTC STC20191119224510911/19/19 22:45:31  5-MIN KSTC 200445Z 00000KT 10SM OVC026 03/01 A2995 1010 85 -100 000/00 RMK AO2 T00280006 $
14926KSTC STC20191119225011611/19/19 22:50:31  5-MIN KSTC 200450Z 15004KT 10SM OVC026 02/01 A2995 1000 89 -200 150/04 RMK AO2 SLP161 T00220006 $
14926KSTC STC20191119225510911/19/19 22:55:31  5-MIN KSTC 200455Z 18003KT 10SM OVC026 02/01 A2995 1000 89 -200 170/03 RMK AO2 T00220006 $
14926KSTC STC20191119230011411/19/19 23:00:31  5-MIN KSTC 200500Z AUTO 19003KT 10SM OVC026 02/01 A2995 1000 89 -200 190/03 RMK AO2 T00220006 $
14926KSTC STC20191119230511411/19/19 23:05:31  5-MIN KSTC 200505Z AUTO 20003KT 10SM OVC026 03/01 A2995 1000 85 -100 200/03 RMK AO2 T00280006 $
14926KSTC STC20191119231011411/19/19 23:10:31  5-MIN KSTC 200510Z AUTO 20004KT 10SM OVC026 03/01 A2996 1000 85 -200 200/04 RMK AO2 T00280006 $
14926KSTC STC20191119231511411/19/19 23:15:31  5-MIN KSTC 200515Z AUTO 23004KT 10SM OVC026 03/01 A2996 1000 85 -200 220/04 RMK AO2 T00280006 $
14926KSTC STC20191119232011411/19/19 23:20:31  5-MIN KSTC 200520Z AUTO 24003KT 10SM OVC026 03/01 A2996 1000 85 -200 240/03 RMK AO2 T00280006 $
14926KSTC STC20191119232511411/19/19 23:25:31  5-MIN KSTC 200525Z AUTO 23003KT 10SM OVC026 03/01 A2996 1000 85 -200 230/03 RMK AO2 T00280006 $
14926KSTC STC20191119233011411/19/19 23:30:31  5-MIN KSTC 200530Z AUTO 20004KT 10SM OVC026 03/01 A2996 1000 85 -200 200/04 RMK AO2 T00280006 $
14926KSTC STC20191119233511411/19/19 23:35:31  5-MIN KSTC 200535Z AUTO 21003KT 10SM OVC026 03/01 A2996 1000 85 -200 210/03 RMK AO2 T00280006 $
14926KSTC STC20191119234011311/19/19 23:40:31  5-MIN KSTC 200540Z AUTO 23004KT 10SM OVC025 03/01 A2996 990 85 -200 230/04 RMK AO2 T00280006 $
14926KSTC STC20191119234511311/19/19 23:45:31  5-MIN KSTC 200545Z AUTO 20004KT 10SM OVC025 03/01 A2996 990 85 -200 190/04 RMK AO2 T00280006 $
14926KSTC STC20191119235014811/19/19 23:50:31  5-MIN KSTC 200550Z AUTO 00000KT 10SM OVC025 03/01 A2997 990 85 -200 000/00 RMK AO2 SLP165 T00280006 10039 20022 400720000 51020 $
14926KSTC STC20191119235511311/19/19 23:55:31  5-MIN KSTC 200555Z AUTO 24003KT 10SM OVC025 02/01 A2997 990 89 -200 240/03 RMK AO2 T00220006 $
14926KSTC STC20191120000011311/20/19 00:00:31  5-MIN KSTC 200600Z AUTO 00000KT 10SM OVC025 03/01 A2997 980 85 -200 000/00 RMK AO2 T00280006 $
14926KSTC STC20191120000511311/20/19 00:05:31  5-MIN KSTC 200605Z AUTO 31004KT 10SM OVC025 03/01 A2998 980 85 -200 310/04 RMK AO2 T00280006 $
14926KSTC STC20191120001011311/20/19 00:10:31  5-MIN KSTC 200610Z AUTO 26003KT 10SM OVC025 03/01 A2998 980 85 -200 260/03 RMK AO2 T00280006 $
14926KSTC STC20191120001511311/20/19 00:15:31  5-MIN KSTC 200615Z AUTO 31003KT 10SM OVC025 03/01 A2998 970 85 -200 310/03 RMK AO2 T00280006 $
14926KSTC STC20191120002011311/20/19 00:20:31  5-MIN KSTC 200620Z AUTO 00000KT 10SM OVC025 03/01 A2999 970 85 -200 000/00 RMK AO2 T00280006 $
14926KSTC STC20191120002511311/20/19 00:25:31  5-MIN KSTC 200625Z AUTO 00000KT 10SM OVC024 03/01 A2998 980 85 -200 000/00 RMK AO2 T00280006 $
14926KSTC STC20191120003011311/20/19 00:30:31  5-MIN KSTC 200630Z AUTO 00000KT 10SM OVC024 03/01 A2998 970 85 -200 000/00 RMK AO2 T00280006 $
14926KSTC STC20191120003511311/20/19 00:35:31  5-MIN KSTC 200635Z AUTO 00000KT 10SM OVC024 03/01 A2998 970 85 -200 000/00 RMK AO2 T00280006 $
14926KSTC STC20191120004011311/20/19 00:40:31  5-MIN KSTC 200640Z AUTO 00000KT 10SM OVC024 03/01 A2999 970 85 -200 000/00 RMK AO2 T00280006 $
14926KSTC STC20191120004511311/20/19 00:45:31  5-MIN KSTC 200645Z AUTO 00000KT 10SM OVC025 02/01 A2999 970 89 -300 000/00 RMK AO2 T00220006 $
14926KSTC STC20191120005012011/20/19 00:50:31  5-MIN KSTC 200650Z AUTO 00000KT 10SM OVC025 02/01 A2999 970 89 -300 000/00 RMK AO2 SLP172 T00220006 $
14926KSTC STC20191120005511311/20/19 00:55:31  5-MIN KSTC 200655Z AUTO 00000KT 10SM OVC025 03/01 A2999 970 85 -200 000/00 RMK AO2 T00280006 $
14926KSTC STC20191120010011311/20/19 01:00:31  5-MIN KSTC 200700Z AUTO 00000KT 10SM OVC024 02/01 A2999 970 89 -300 000/00 RMK AO2 T00220006 $
14926KSTC STC20191120010511311/20/19 01:05:31  5-MIN KSTC 200705Z AUTO 00000KT 10SM OVC024 02/01 A2999 970 89 -300 000/00 RMK AO2 T00220006 $
14926KSTC STC20191120011011311/20/19 01:10:31  5-MIN KSTC 200710Z AUTO 00000KT 10SM OVC024 03/01 A2999 970 85 -200 000/00 RMK AO2 T00280006 $
14926KSTC STC20191120011511311/20/19 01:15:31  5-MIN KSTC 200715Z AUTO 00000KT 10SM OVC024 03/01 A2999 970 85 -200 000/00 RMK AO2 T00280006 $
14926KSTC STC20191120012011311/20/19 01:20:31  5-MIN KSTC 200720Z AUTO 00000KT 10SM OVC024 02/01 A2999 970 89 -300 000/00 RMK AO2 T00220006 $
14926KSTC STC20191120012511311/20/19 01:25:31  5-MIN KSTC 200725Z AUTO 00000KT 10SM OVC025 02/01 A2999 970 89 -300 000/00 RMK AO2 T00220006 $
14926KSTC STC20191120013011311/20/19 01:30:31  5-MIN KSTC 200730Z AUTO 00000KT 10SM OVC025 03/01 A2999 970 85 -200 000/00 RMK AO2 T00280006 $
14926KSTC STC20191120013511311/20/19 01:35:31  5-MIN KSTC 200735Z AUTO 00000KT 10SM OVC025 02/01 A2999 970 89 -300 000/00 RMK AO2 T00220006 $
14926KSTC STC20191120014011311/20/19 01:40:31  5-MIN KSTC 200740Z AUTO 00000KT 10SM OVC025 02/01 A2999 960 89 -300 000/00 RMK AO2 T00220006 $
14926KSTC STC20191120014511311/20/19 01:45:31  5-MIN KSTC 200745Z AUTO 00000KT 10SM OVC025 02/01 A3000 960 92 -300 000/00 RMK AO2 T00170006 $
14926KSTC STC20191120015012011/20/19 01:50:31  5-MIN KSTC 200750Z AUTO 20003KT 10SM OVC025 02/01 A3000 960 92 -300 200/03 RMK AO2 SLP178 T00170006 $
14926KSTC STC20191120015511311/20/19 01:55:31  5-MIN KSTC 200755Z AUTO 18003KT 10SM OVC025 02/00 A3000 960 89 -300 180/03 RMK AO2 T00170000 $
14926KSTC STC20191120020011311/20/19 02:00:31  5-MIN KSTC 200800Z AUTO 14003KT 10SM OVC025 02/01 A2999 970 89 -300 140/03 RMK AO2 T00220006 $
14926KSTC STC20191120020511311/20/19 02:05:31  5-MIN KSTC 200805Z AUTO 00000KT 10SM OVC025 02/01 A3000 960 89 -300 000/00 RMK AO2 T00220006 $
14926KSTC STC20191120021011311/20/19 02:10:31  5-MIN KSTC 200810Z AUTO 19003KT 10SM OVC025 02/01 A3001 950 89 -300 180/03 RMK AO2 T00220006 $
14926KSTC STC20191120021511311/20/19 02:15:31  5-MIN KSTC 200815Z AUTO 20005KT 10SM OVC025 02/01 A3002 940 92 -400 200/05 RMK AO2 T00170006 $
14926KSTC STC20191120022011311/20/19 02:20:31  5-MIN KSTC 200820Z AUTO 20005KT 10SM OVC025 02/01 A3002 940 92 -400 200/05 RMK AO2 T00170006 $
14926KSTC STC20191120022511311/20/19 02:25:31  5-MIN KSTC 200825Z AUTO 20004KT 10SM OVC025 02/01 A3002 940 92 -400 200/04 RMK AO2 T00170006 $
14926KSTC STC20191120023011311/20/19 02:30:31  5-MIN KSTC 200830Z AUTO 20005KT 10SM OVC025 02/01 A3002 940 92 -400 200/05 RMK AO2 T00170006 $
14926KSTC STC20191120023511311/20/19 02:35:31  5-MIN KSTC 200835Z AUTO 21003KT 10SM OVC025 02/01 A3002 940 92 -400 210/03 RMK AO2 T00170006 $
14926KSTC STC20191120024011311/20/19 02:40:31  5-MIN KSTC 200840Z AUTO 00000KT 10SM OVC025 02/01 A3002 940 92 -400 000/00 RMK AO2 T00170006 $
14926KSTC STC20191120024511311/20/19 02:45:31  5-MIN KSTC 200845Z AUTO 00000KT 10SM OVC025 02/01 A3002 940 92 -400 000/00 RMK AO2 T00170006 $
14926KSTC STC20191120025012611/20/19 02:50:31  5-MIN KSTC 200850Z AUTO 00000KT 10SM OVC025 02/01 A3001 950 92 -400 000/00 RMK AO2 SLP182 T00170006 53009 $
14926KSTC STC20191120025511311/20/19 02:55:31  5-MIN KSTC 200855Z AUTO 00000KT 10SM OVC025 02/01 A3002 950 92 -400 000/00 RMK AO2 T00170006 $
14926KSTC STC20191120030011311/20/19 03:00:31  5-MIN KSTC 200900Z AUTO 00000KT 10SM OVC025 02/01 A3002 940 92 -400 000/00 RMK AO2 T00170006 $
14926KSTC STC20191120030511311/20/19 03:05:31  5-MIN KSTC 200905Z AUTO 00000KT 10SM OVC025 02/01 A3002 940 92 -400 000/00 RMK AO2 T00170006 $
14926KSTC STC20191120031011311/20/19 03:10:31  5-MIN KSTC 200910Z AUTO 00000KT 10SM OVC025 02/01 A3002 940 89 -300 000/00 RMK AO2 T00220006 $
14926KSTC STC20191120031511311/20/19 03:15:31  5-MIN KSTC 200915Z AUTO 00000KT 10SM OVC025 02/01 A3001 950 92 -400 000/00 RMK AO2 T00170006 $
14926KSTC STC20191120032011311/20/19 03:20:31  5-MIN KSTC 200920Z AUTO 00000KT 10SM OVC025 02/01 A3002 940 92 -400 000/00 RMK AO2 T00170006 $
14926KSTC STC20191120032511311/20/19 03:25:31  5-MIN KSTC 200925Z AUTO 00000KT 10SM OVC025 02/01 A3002 940 92 -400 000/00 RMK AO2 T00170006 $
14926KSTC STC20191120033011311/20/19 03:30:31  5-MIN KSTC 200930Z AUTO 17003KT 10SM OVC025 02/01 A3002 940 92 -400 170/03 RMK AO2 T00170006 $
14926KSTC STC20191120033511311/20/19 03:35:31  5-MIN KSTC 200935Z AUTO 17004KT 10SM OVC025 01/01 A3002 940 96 -400 170/04 RMK AO2 T00110006 $
14926KSTC STC20191120034011311/20/19 03:40:31  5-MIN KSTC 200940Z AUTO 17003KT 10SM OVC025 01/00 A3002 940 92 -400 170/03 RMK AO2 T00110000 $
14926KSTC STC20191120034511311/20/19 03:45:31  5-MIN KSTC 200945Z AUTO 15003KT 10SM OVC025 01/00 A3001 950 92 -400 150/03 RMK AO2 T00110000 $
14926KSTC STC20191120035012011/20/19 03:50:31  5-MIN KSTC 200950Z AUTO 15003KT 10SM OVC025 02/01 A3001 950 92 -400 150/03 RMK AO2 SLP182 T00170006 $
14926KSTC STC20191120035511311/20/19 03:55:31  5-MIN KSTC 200955Z AUTO 00000KT 10SM OVC025 02/01 A3001 950 92 -400 000/00 RMK AO2 T00170006 $
14926KSTC STC20191120040011311/20/19 04:00:31  5-MIN KSTC 201000Z AUTO 14003KT 10SM OVC025 02/01 A3001 950 92 -300 140/03 RMK AO2 T00170006 $
14926KSTC STC20191120040511311/20/19 04:05:31  5-MIN KSTC 201005Z AUTO 13003KT 10SM OVC025 02/01 A3000 960 92 -300 130/03 RMK AO2 T00170006 $
14926KSTC STC20191120041011311/20/19 04:10:31  5-MIN KSTC 201010Z AUTO 00000KT 10SM OVC024 02/01 A3000 960 92 -300 000/00 RMK AO2 T00170006 $
14926KSTC STC20191120041511311/20/19 04:15:31  5-MIN KSTC 201015Z AUTO 00000KT 10SM OVC024 02/01 A3000 960 92 -300 000/00 RMK AO2 T00170006 $
14926KSTC STC20191120042011311/20/19 04:20:31  5-MIN KSTC 201020Z AUTO 00000KT 10SM OVC024 02/01 A3000 960 92 -300 000/00 RMK AO2 T00170006 $
14926KSTC STC20191120042511311/20/19 04:25:31  5-MIN KSTC 201025Z AUTO 11003KT 10SM OVC024 02/00 A3000 960 89 -300 110/03 RMK AO2 T00170000 $
14926KSTC STC20191120043011311/20/19 04:30:31  5-MIN KSTC 201030Z AUTO 00000KT 10SM OVC024 01/00 A3000 960 92 -400 000/00 RMK AO2 T00110000 $
14926KSTC STC20191120043511311/20/19 04:35:31  5-MIN KSTC 201035Z AUTO 00000KT 10SM OVC024 02/01 A3000 960 92 -300 000/00 RMK AO2 T00170006 $
14926KSTC STC20191120044011311/20/19 04:40:31  5-MIN KSTC 201040Z AUTO 13003KT 10SM OVC024 01/00 A3000 960 92 -400 130/03 RMK AO2 T00110000 $
14926KSTC STC20191120044511311/20/19 04:45:31  5-MIN KSTC 201045Z AUTO 14003KT 10SM OVC024 01/00 A3000 960 96 -500 140/03 RMK AO2 T00060000 $
14926KSTC STC20191120045012011/20/19 04:50:31  5-MIN KSTC 201050Z AUTO 15004KT 10SM OVC024 01/00 A3000 960 96 -500 150/04 RMK AO2 SLP178 T00060000 $
14926KSTC STC20191120045511811/20/19 04:55:31  5-MIN KSTC 201055Z AUTO 14004KT 10SM OVC024 01/00 A3000 960 92 -400 140/04 RMK AO2 T00110000 TSNO $
14926KSTC STC20191120050011811/20/19 05:00:31  5-MIN KSTC 201100Z AUTO 14005KT 10SM OVC024 01/00 A3000 960 92 -400 140/05 RMK AO2 T00110000 TSNO $
14926KSTC STC20191120050511811/20/19 05:05:31  5-MIN KSTC 201105Z AUTO 13005KT 10SM OVC024 01/00 A3000 960 92 -400 130/05 RMK AO2 T00110000 TSNO $
14926KSTC STC20191120051011811/20/19 05:10:31  5-MIN KSTC 201110Z AUTO 13003KT 10SM OVC024 01/00 A3000 960 92 -400 130/03 RMK AO2 T00110000 TSNO $
14926KSTC STC20191120051511311/20/19 05:15:31  5-MIN KSTC 201115Z AUTO 14004KT 10SM OVC024 01/00 A3000 960 92 -400 140/04 RMK AO2 T00110000 $
14926KSTC STC20191120052011311/20/19 05:20:31  5-MIN KSTC 201120Z AUTO 14004KT 10SM OVC024 01/00 A3001 950 92 -400 140/04 RMK AO2 T00110000 $
14926KSTC STC20191120052511311/20/19 05:25:31  5-MIN KSTC 201125Z AUTO 15004KT 10SM OVC024 01/00 A3001 950 92 -400 150/04 RMK AO2 T00110000 $
14926KSTC STC20191120053011311/20/19 05:30:31  5-MIN KSTC 201130Z AUTO 14004KT 10SM OVC023 01/00 A3001 950 92 -400 140/04 RMK AO2 T00110000 $
14926KSTC STC20191120053511311/20/19 05:35:31  5-MIN KSTC 201135Z AUTO 14004KT 10SM OVC023 01/00 A3001 950 92 -400 140/04 RMK AO2 T00110000 $
14926KSTC STC20191120054011311/20/19 05:40:31  5-MIN KSTC 201140Z AUTO 00000KT 10SM OVC023 01/00 A3002 940 92 -400 000/00 RMK AO2 T00110000 $
14926KSTC STC20191120054511311/20/19 05:45:31  5-MIN KSTC 201145Z AUTO 00000KT 10SM OVC023 01/01 A3002 940 96 -400 000/00 RMK AO2 T00110006 $
14926KSTC STC20191120055013811/20/19 05:50:31  5-MIN KSTC 201150Z AUTO 13003KT 10SM OVC023 02/01 A3002 940 92 -400 130/03 RMK AO2 SLP185 T00170006 10033 20006 51015 $
14926KSTC STC20191120055511311/20/19 05:55:31  5-MIN KSTC 201155Z AUTO 00000KT 10SM OVC022 02/01 A3002 940 92 -400 000/00 RMK AO2 T00170006 $
14926KSTC STC20191120060011311/20/19 06:00:31  5-MIN KSTC 201200Z AUTO 00000KT 10SM OVC022 02/01 A3002 940 92 -400 000/00 RMK AO2 T00170006 $
14926KSTC STC20191120060511311/20/19 06:05:31  5-MIN KSTC 201205Z AUTO 00000KT 10SM OVC022 02/01 A3001 950 92 -400 000/00 RMK AO2 T00170006 $
14926KSTC STC20191120061011311/20/19 06:10:31  5-MIN KSTC 201210Z AUTO 00000KT 10SM OVC022 02/01 A3002 940 92 -400 000/00 RMK AO2 T00170006 $
14926KSTC STC20191120061511311/20/19 06:15:31  5-MIN KSTC 201215Z AUTO 13003KT 10SM OVC022 02/01 A3002 940 92 -400 130/03 RMK AO2 T00170006 $
14926KSTC STC20191120062010611/20/19 06:20:31  5-MIN KSTC 201220Z AUTO 12003KT 02/01 A3002 940 92 -400 120/03 RMK AO2 T00170006 TSNO $
14926KSTC STC20191120062510111/20/19 06:25:31  5-MIN KSTC 201225Z AUTO 12004KT 02/01 A3002 950 92 -400 120/04 RMK AO2 T00170006 $
14926KSTC STC20191120063010611/20/19 06:30:31  5-MIN KSTC 201230Z AUTO 11004KT 10SM 02/01 A3002 940 92 -400 110/04 RMK AO2 T00170006 $
14926KSTC STC20191120063510611/20/19 06:35:31  5-MIN KSTC 201235Z AUTO 11004KT 10SM 02/01 A3002 940 92 -400 110/04 RMK AO2 T00170006 $
14926KSTC STC20191120064010611/20/19 06:40:31  5-MIN KSTC 201240Z AUTO 12003KT 10SM 02/01 A3002 940 92 -400 120/03 RMK AO2 T00170006 $
14926KSTC STC20191120064510111/20/19 06:45:31  5-MIN KSTC 201245Z 11003KT 10SM 02/01 A3002 940 92 -400 110/03 RMK AO2 T00170006 $
14926KSTC STC20191120065009811/20/19 06:50:31  5-MIN KSTC 201250Z 11003KT 10SM OVC018 02/01 A3002 940 92 -400 110/03 RMK AO2 $
14926KSTC STC20191120065510811/20/19 06:55:31  5-MIN KSTC 201255Z 00000KT 10SM OVC016 02/01 A3002 940 92 -400 000/00 RMK AO2 T00170006 $
14926KSTC STC20191120070010611/20/19 07:00:31  5-MIN KSTC 201300Z 12003KT 10SM OVC016 02/01 A3002 940 92 -400 120/03 RMK AO2 T00170006
14926KSTC STC20191120070510811/20/19 07:05:31  5-MIN KSTC 201305Z 11003KT 10SM OVC016 02/01 A3002 940 92 -400 110/03 RMK AO2 T00170006 $
14926KSTC STC20191120071010811/20/19 07:10:31  5-MIN KSTC 201310Z 10003KT 10SM OVC018 02/01 A3002 940 92 -400 100/03 RMK AO2 T00170006 $
14926KSTC STC20191120071510811/20/19 07:15:31  5-MIN KSTC 201315Z 12003KT 10SM OVC018 02/01 A3003 940 92 -400 120/03 RMK AO2 T00170006 $
14926KSTC STC20191120072010811/20/19 07:20:31  5-MIN KSTC 201320Z 12003KT 10SM OVC018 02/01 A3003 940 92 -400 120/03 RMK AO2 T00170006 $
14926KSTC STC20191120072510811/20/19 07:25:31  5-MIN KSTC 201325Z 10003KT 10SM OVC018 02/01 A3003 940 92 -400 100/03 RMK AO2 T00170006 $
14926KSTC STC20191120073010811/20/19 07:30:31  5-MIN KSTC 201330Z 09003KT 10SM OVC018 02/01 A3002 940 92 -400 090/03 RMK AO2 T00170006 $
14926KSTC STC20191120073510811/20/19 07:35:31  5-MIN KSTC 201335Z 10004KT 10SM OVC019 02/01 A3002 940 92 -400 090/04 RMK AO2 T00170006 $
14926KSTC STC20191120074010811/20/19 07:40:31  5-MIN KSTC 201340Z 10004KT 10SM OVC019 02/01 A3002 940 92 -400 100/04 RMK AO2 T00170006 $
14926KSTC STC20191120074510811/20/19 07:45:31  5-MIN KSTC 201345Z 10004KT 10SM OVC019 02/01 A3002 940 92 -400 100/04 RMK AO2 T00170006 $
14926KSTC STC20191120075011511/20/19 07:50:31  5-MIN KSTC 201350Z 10004KT 10SM OVC019 02/01 A3002 940 92 -400 100/04 RMK AO2 SLP186 T00170006 $
14926KSTC STC20191120075510811/20/19 07:55:31  5-MIN KSTC 201355Z 09004KT 10SM OVC019 02/01 A3002 940 92 -400 090/04 RMK AO2 T00170006 $
14926KSTC STC20191120080010811/20/19 08:00:31  5-MIN KSTC 201400Z 09004KT 10SM OVC019 02/01 A3002 940 89 -300 090/04 RMK AO2 T00220006 $
14926KSTC STC20191120080510811/20/19 08:05:31  5-MIN KSTC 201405Z 08005KT 10SM OVC019 02/01 A3002 940 89 -300 080/05 RMK AO2 T00220006 $
14926KSTC STC20191120081010811/20/19 08:10:31  5-MIN KSTC 201410Z 09005KT 10SM OVC018 02/01 A3002 940 89 -300 090/05 RMK AO2 T00220006 $
14926KSTC STC20191120081510811/20/19 08:15:31  5-MIN KSTC 201415Z 09004KT 10SM OVC018 02/01 A3002 940 89 -300 090/04 RMK AO2 T00220006 $
14926KSTC STC20191120082010811/20/19 08:20:31  5-MIN KSTC 201420Z 10004KT 10SM OVC018 02/01 A3003 940 89 -300 100/04 RMK AO2 T00220006 $
14926KSTC STC20191120082510811/20/19 08:25:31  5-MIN KSTC 201425Z 09003KT 10SM OVC018 02/01 A3003 940 89 -300 090/03 RMK AO2 T00220006 $
14926KSTC STC20191120083010811/20/19 08:30:31  5-MIN KSTC 201430Z 09004KT 10SM OVC018 02/01 A3002 940 89 -300 090/04 RMK AO2 T00220006 $
14926KSTC STC20191120083510811/20/19 08:35:31  5-MIN KSTC 201435Z 09005KT 10SM OVC018 02/01 A3002 940 89 -300 090/05 RMK AO2 T00220006 $
14926KSTC STC20191120084010811/20/19 08:40:31  5-MIN KSTC 201440Z 10003KT 10SM OVC017 02/01 A3002 940 89 -300 100/03 RMK AO2 T00220006 $
14926KSTC STC20191120084510811/20/19 08:45:31  5-MIN KSTC 201445Z 10004KT 10SM OVC017 02/01 A3003 930 89 -300 100/04 RMK AO2 T00220006 $
14926KSTC STC20191120085011511/20/19 08:50:31  5-MIN KSTC 201450Z 09004KT 10SM OVC017 02/01 A3003 940 89 -300 090/04 RMK AO2 SLP187 T00220006 $
14926KSTC STC20191120085510811/20/19 08:55:31  5-MIN KSTC 201455Z 10006KT 10SM OVC017 02/01 A3002 940 89 -300 100/06 RMK AO2 T00220006 $
14926KSTC STC20191120090010811/20/19 09:00:31  5-MIN KSTC 201500Z 09004KT 10SM OVC017 03/01 A3002 940 85 -200 090/04 RMK AO2 T00280006 $
14926KSTC STC20191120090510811/20/19 09:05:31  5-MIN KSTC 201505Z 11004KT 10SM OVC017 03/01 A3002 940 85 -200 110/04 RMK AO2 T00280006 $
14926KSTC STC20191120091010811/20/19 09:10:31  5-MIN KSTC 201510Z 10005KT 10SM OVC017 03/01 A3002 950 89 -200 100/05 RMK AO2 T00280011 $
14926KSTC STC20191120091510811/20/19 09:15:31  5-MIN KSTC 201515Z 10005KT 10SM OVC018 03/01 A3002 940 89 -200 100/05 RMK AO2 T00280011 $
14926KSTC STC20191120092005811/20/19 09:20:31  5-MIN KSTC 201520Z M M M M /M RMK AO2 $
14926KSTC STC20191120092509611/20/19 09:25:31  5-MIN KSTC 201525Z 11005KT 03/01 A3001 950 89 -200 110/05 RMK AO2 T00280011 $
14926KSTC STC20191120093010111/20/19 09:30:31  5-MIN KSTC 201530Z 09005KT 10SM 03/01 A3001 950 89 -200 090/05 RMK AO2 T00280011 $
14926KSTC STC20191120093510111/20/19 09:35:31  5-MIN KSTC 201535Z 10006KT 10SM 03/01 A3000 960 89 -200 100/06 RMK AO2 T00280011 $
14926KSTC STC20191120094010111/20/19 09:40:31  5-MIN KSTC 201540Z 11004KT 10SM 03/01 A3001 950 85 -100 100/04 RMK AO2 T00330011 $
14926KSTC STC20191120094510111/20/19 09:45:31  5-MIN KSTC 201545Z 11005KT 10SM 03/01 A3000 960 85 -100 110/05 RMK AO2 T00330011 $
14926KSTC STC20191120095012211/20/19 09:50:31  5-MIN KSTC 201550Z 11006KT 10SM SCT018 SCT100 03/01 A3000 960 85 -100 110/06 RMK AO2 SLP176 T00330011 $
14926KSTC STC20191120095511511/20/19 09:55:31  5-MIN KSTC 201555Z 12006KT 10SM FEW018 SCT100 03/01 A3000 960 85 -100 120/06 RMK AO2 T00330011 $
14926KSTC STC20191120100011511/20/19 10:00:31  5-MIN KSTC 201600Z 11007KT 10SM FEW018 SCT100 03/01 A3000 960 85 -100 110/07 RMK AO2 T00330011 $
14926KSTC STC20191120100510811/20/19 10:05:31  5-MIN KSTC 201605Z 10007KT 10SM SCT100 03/01 A2999 970 85 -100 100/07 RMK AO2 T00330011 $
14926KSTC STC20191120101010811/20/19 10:10:31  5-MIN KSTC 201610Z 11006KT 10SM FEW100 03/01 A3000 960 85 -100 110/06 RMK AO2 T00330011 $
14926KSTC STC20191120101510811/20/19 10:15:31  5-MIN KSTC 201615Z 11007KT 10SM FEW100 04/01 A3000 960 82 -100 110/07 RMK AO2 T00390011 $
14926KSTC STC20191120102010811/20/19 10:20:31  5-MIN KSTC 201620Z 11006KT 10SM FEW100 04/01 A3000 960 82 -100 110/06 RMK AO2 T00390011 $
14926KSTC STC20191120102510811/20/19 10:25:31  5-MIN KSTC 201625Z 12007KT 10SM FEW100 04/01 A3000 960 82 -100 120/07 RMK AO2 T00390011 $
14926KSTC STC20191120103010511/20/19 10:30:31  5-MIN KSTC 201630Z 12008KT 10SM CLR 04/01 A3000 960 82 -100 120/08 RMK AO2 T00390011 $
14926KSTC STC20191120103510511/20/19 10:35:31  5-MIN KSTC 201635Z 11008KT 10SM CLR 04/01 A2999 970 82 -100 110/08 RMK AO2 T00390011 $
14926KSTC STC20191120104010511/20/19 10:40:31  5-MIN KSTC 201640Z 11007KT 10SM FEW080 04/01 A3000 960 79 0 110/07 RMK AO2 T00440011 $
14926KSTC STC20191120104510511/20/19 10:45:31  5-MIN KSTC 201645Z 11008KT 10SM SCT080 04/01 A2999 970 79 0 110/08 RMK AO2 T00440011 $
14926KSTC STC20191120105011211/20/19 10:50:31  5-MIN KSTC 201650Z 11005KT 10SM BKN080 04/01 A2999 970 79 0 110/05 RMK AO2 SLP173 T00440011 $
14926KSTC STC20191120105511111/20/19 10:55:31  5-MIN KSTC 201655Z 13008G15KT 10SM BKN080 04/01 A2999 970 79 0 130/08G15 RMK AO2 T00440011 $
14926KSTC STC20191120110011811/20/19 11:00:31  5-MIN KSTC 201700Z 12006G15KT 10SM FEW013 BKN080 04/01 A2998 980 79 0 120/06G15 RMK AO2 T00440011 $
14926KSTC STC20191120110511211/20/19 11:05:31  5-MIN KSTC 201705Z 12005KT 10SM SCT013 BKN080 04/02 A2998 980 82 0 120/05 RMK AO2 T00440017 $
14926KSTC STC20191120111011211/20/19 11:10:31  5-MIN KSTC 201710Z 11007KT 10SM SCT013 BKN080 04/02 A2998 980 82 0 110/07 RMK AO2 T00440017 $
14926KSTC STC20191120111511211/20/19 11:15:31  5-MIN KSTC 201715Z 11006KT 10SM BKN013 BKN080 04/02 A2998 980 82 0 110/06 RMK AO2 T00440017 $
14926KSTC STC20191120112011211/20/19 11:20:31  5-MIN KSTC 201720Z 13008KT 10SM BKN013 BKN080 05/02 A2998 980 79 0 130/08 RMK AO2 T00500017 $
14926KSTC STC20191120112512811/20/19 11:25:31  5-MIN KSTC 201725Z 12008KT 080V140 10SM BKN013 OVC080 04/01 A2997 980 79 0 120/08 080V140 RMK AO2 T00440011 $
14926KSTC STC20191120113010511/20/19 11:30:31  5-MIN KSTC 201730Z 12008KT 10SM BKN015 04/02 A2997 990 82 0 120/08 RMK AO2 T00440017 $
14926KSTC STC20191120113510511/20/19 11:35:31  5-MIN KSTC 201735Z 11007KT 10SM OVC015 04/02 A2997 990 82 0 110/07 RMK AO2 T00440017 $
14926KSTC STC20191120114010511/20/19 11:40:31  5-MIN KSTC 201740Z 11007KT 10SM OVC015 04/02 A2997 990 82 0 110/07 RMK AO2 T00440017 $
14926KSTC STC20191120114510711/20/19 11:45:31  5-MIN KSTC 201745Z 12007KT 10SM OVC015 05/02 A2997 990 79 100 120/07 RMK AO2 T00500017 $
14926KSTC STC20191120115014211/20/19 11:50:31  5-MIN KSTC 201750Z 10008KT 070V140 10SM OVC015 05/02 A2996 990 79 100 100/08 070V140 RMK AO2 SLP164 T00500017 10050 20017 $
14926KSTC STC20191120115510811/20/19 11:55:31  5-MIN KSTC 201755Z 11009KT 10SM OVC015 05/02 A2996 1000 79 100 110/09 RMK AO2 T00500017 $
14926KSTC STC20191120120010811/20/19 12:00:31  5-MIN KSTC 201800Z 12009KT 10SM BKN015 05/02 A2996 1000 79 100 120/09 RMK AO2 T00500017 $
14926KSTC STC20191120120510811/20/19 12:05:31  5-MIN KSTC 201805Z 11007KT 10SM BKN015 05/02 A2996 1000 79 100 110/07 RMK AO2 T00500017 $
14926KSTC STC20191120121010811/20/19 12:10:31  5-MIN KSTC 201810Z 11009KT 10SM BKN015 05/02 A2996 1000 79 100 110/09 RMK AO2 T00500017 $
14926KSTC STC20191120121510811/20/19 12:15:31  5-MIN KSTC 201815Z 12008KT 10SM OVC015 05/02 A2995 1000 79 100 120/08 RMK AO2 T00500017 $
14926KSTC STC20191120122010811/20/19 12:20:31  5-MIN KSTC 201820Z 11006KT 10SM BKN016 06/02 A2995 1000 76 100 110/06 RMK AO2 T00560017 $
14926KSTC STC20191120122510811/20/19 12:25:31  5-MIN KSTC 201825Z 11005KT 10SM BKN016 06/02 A2995 1010 76 100 100/05 RMK AO2 T00560017 $
14926KSTC STC20191120123010811/20/19 12:30:31  5-MIN KSTC 201830Z 11008KT 10SM BKN016 06/02 A2995 1010 76 200 110/08 RMK AO2 T00560017 $
14926KSTC STC20191120123510811/20/19 12:35:31  5-MIN KSTC 201835Z 12008KT 10SM BKN017 06/02 A2995 1010 76 200 120/08 RMK AO2 T00560017 $
14926KSTC STC20191120124010811/20/19 12:40:31  5-MIN KSTC 201840Z 11008KT 10SM SCT017 06/02 A2994 1010 73 200 110/08 RMK AO2 T00610017 $
14926KSTC STC20191120124511411/20/19 12:45:31  5-MIN KSTC 201845Z 10007G16KT 10SM SCT017 06/02 A2994 1020 73 200 100/07G16 RMK AO2 T00610017 $
14926KSTC STC20191120125012111/20/19 12:50:31  5-MIN KSTC 201850Z 11007G16KT 10SM FEW017 06/02 A2993 1020 73 200 110/07G16 RMK AO2 SLP153 T00610017 $
14926KSTC STC20191120125510811/20/19 12:55:31  5-MIN KSTC 201855Z 11009KT 10SM FEW017 06/02 A2993 1030 73 200 110/09 RMK AO2 T00610017 $
14926KSTC STC20191120130010811/20/19 13:00:31  5-MIN KSTC 201900Z 10007KT 10SM FEW018 06/02 A2992 1030 73 200 100/07 RMK AO2 T00610017 $
14926KSTC STC20191120130510811/20/19 13:05:31  5-MIN KSTC 201905Z 10009KT 10SM FEW018 07/02 A2992 1030 70 300 100/09 RMK AO2 T00670017 $
14926KSTC STC20191120131010811/20/19 13:10:31  5-MIN KSTC 201910Z 10007KT 10SM FEW018 07/02 A2992 1030 73 300 100/07 RMK AO2 T00670022 $
14926KSTC STC20191120131510811/20/19 13:15:31  5-MIN KSTC 201915Z 10010KT 10SM FEW018 07/02 A2991 1040 70 400 100/10 RMK AO2 T00720022 $
14926KSTC STC20191120132010511/20/19 13:20:31  5-MIN KSTC 201920Z 10009KT 10SM CLR 07/02 A2991 1040 70 400 100/09 RMK AO2 T00720022 $
14926KSTC STC20191120132511111/20/19 13:25:31  5-MIN KSTC 201925Z 11012G18KT 10SM CLR 07/02 A2990 1050 70 300 110/12G18 RMK AO2 T00670017 $
14926KSTC STC20191120133011111/20/19 13:30:31  5-MIN KSTC 201930Z 10009G19KT 10SM CLR 07/02 A2990 1050 70 300 100/09G19 RMK AO2 T00670017 $
14926KSTC STC20191120133511111/20/19 13:35:31  5-MIN KSTC 201935Z 11008G19KT 10SM CLR 07/02 A2990 1060 73 300 110/08G19 RMK AO2 T00670022 $
14926KSTC STC20191120134011111/20/19 13:40:31  5-MIN KSTC 201940Z 10012G21KT 10SM CLR 07/02 A2989 1060 70 300 100/12G21 RMK AO2 T00670017 $
14926KSTC STC20191120134511111/20/19 13:45:31  5-MIN KSTC 201945Z 12011G21KT 10SM CLR 07/02 A2989 1060 73 300 120/11G21 RMK AO2 T00670022 $
14926KSTC STC20191120135011811/20/19 13:50:31  5-MIN KSTC 201950Z 09009G18KT 10SM CLR 07/02 A2989 1060 73 300 090/09G18 RMK AO2 SLP140 T00670022 $
14926KSTC STC20191120135511411/20/19 13:55:31  5-MIN KSTC 201955Z 09011G18KT 10SM FEW018 07/02 A2990 1060 70 300 090/11G18 RMK AO2 T00670017 $
14926KSTC STC20191120140011411/20/19 14:00:31  5-MIN KSTC 202000Z 09010G18KT 10SM FEW018 07/02 A2989 1060 70 400 090/10G18 RMK AO2 T00670017 $
14926KSTC STC20191120140511111/20/19 14:05:31  5-MIN KSTC 202005Z 10011G17KT 10SM CLR 07/02 A2989 1060 73 400 100/11G17 RMK AO2 T00670022 $
14926KSTC STC20191120141011411/20/19 14:10:31  5-MIN KSTC 202010Z 11009G17KT 10SM FEW018 07/02 A2989 1060 73 400 100/09G17 RMK AO2 T00670022 $
14926KSTC STC20191120141511411/20/19 14:15:31  5-MIN KSTC 202015Z 11009G18KT 10SM FEW018 07/02 A2989 1060 73 400 110/09G18 RMK AO2 T00670022 $
14926KSTC STC20191120142011411/20/19 14:20:31  5-MIN KSTC 202020Z 09010G19KT 10SM FEW018 07/02 A2989 1060 70 400 080/10G19 RMK AO2 T00670017 $
14926KSTC STC20191120142511411/20/19 14:25:31  5-MIN KSTC 202025Z 09011G19KT 10SM FEW017 06/02 A2988 1070 73 300 090/11G19 RMK AO2 T00610017 $
14926KSTC STC20191120143011511/20/19 14:30:31  5-MIN KSTC 202030Z 10011KT 10SM FEW017 BKN085 06/02 A2988 1070 73 300 100/11 RMK AO2 T00610017 $
14926KSTC STC20191120143512111/20/19 14:35:31  5-MIN KSTC 202035Z 10012G19KT 10SM FEW017 BKN090 06/02 A2988 1070 73 300 100/12G19 RMK AO2 T00610017 $
14926KSTC STC20191120144012111/20/19 14:40:31  5-MIN KSTC 202040Z 10011G21KT 10SM FEW017 BKN090 06/02 A2987 1080 76 200 100/11G21 RMK AO2 T00560017 $
14926KSTC STC20191120144512111/20/19 14:45:31  5-MIN KSTC 202045Z 10010G21KT 10SM FEW017 OVC090 06/02 A2987 1080 76 200 100/10G21 RMK AO2 T00560017 $
14926KSTC STC20191120145012811/20/19 14:50:31  5-MIN KSTC 202050Z 09013G22KT 10SM FEW017 OVC090 06/02 A2987 1080 76 200 090/13G22 RMK AO2 SLP132 T00560017 $
14926KSTC STC20191120145511411/20/19 14:55:31  5-MIN KSTC 202055Z 08014G22KT 10SM OVC090 06/02 A2987 1080 76 200 080/14G22 RMK AO2 T00560017 $
14926KSTC STC20191120150012111/20/19 15:00:31  5-MIN KSTC 202100Z 09009G22KT 10SM FEW014 OVC090 05/02 A2986 1090 79 200 090/09G22 RMK AO2 T00500017 $
14926KSTC STC20191120150512111/20/19 15:05:31  5-MIN KSTC 202105Z 09011G22KT 10SM FEW014 OVC090 05/02 A2986 1090 79 200 090/11G22 RMK AO2 T00500017 $
14926KSTC STC20191120151011411/20/19 15:10:31  5-MIN KSTC 202110Z 09011G22KT 10SM OVC090 05/02 A2985 1090 79 200 090/11G22 RMK AO2 T00500017 $
14926KSTC STC20191120151511411/20/19 15:15:31  5-MIN KSTC 202115Z 09009G18KT 10SM OVC090 05/02 A2985 1100 79 200 090/09G18 RMK AO2 T00500017 $
14926KSTC STC20191120152011411/20/19 15:20:31  5-MIN KSTC 202120Z 09012G20KT 10SM OVC090 05/02 A2985 1100 79 200 090/12G20 RMK AO2 T00500017 $
14926KSTC STC20191120152511411/20/19 15:25:31  5-MIN KSTC 202125Z 09008G20KT 10SM OVC090 05/02 A2985 1100 79 200 090/08G20 RMK AO2 T00500017 $
14926KSTC STC20191120153011411/20/19 15:30:31  5-MIN KSTC 202130Z 10009G18KT 10SM OVC090 05/02 A2986 1090 79 200 100/09G18 RMK AO2 T00500017 $
14926KSTC STC20191120153512111/20/19 15:35:31  5-MIN KSTC 202135Z 10009G18KT 10SM FEW013 OVC090 05/02 A2986 1090 79 200 100/09G18 RMK AO2 T00500017 $
14926KSTC STC20191120154012111/20/19 15:40:31  5-MIN KSTC 202140Z 10009G18KT 10SM SCT013 OVC090 04/02 A2986 1090 82 100 100/09G18 RMK AO2 T00440017 $
14926KSTC STC20191120154512111/20/19 15:45:31  5-MIN KSTC 202145Z 10008G18KT 10SM SCT013 OVC090 04/02 A2986 1090 82 100 100/08G18 RMK AO2 T00440017 $
14926KSTC STC20191120155010511/20/19 15:50:31  5-MIN KSTC 202150Z 10007KT 10SM BKN013 OVC090 04/02 A2986 1090 82 100 100/07 RMK AO2 $
14926KSTC STC20191120155511511/20/19 15:55:31  5-MIN KSTC 202155Z 09008KT 10SM BKN013 OVC090 04/02 A2986 1090 82 100 090/08 RMK AO2 T00440017 $
14926KSTC STC20191120160012111/20/19 16:00:31  5-MIN KSTC 202200Z 10009G16KT 10SM BKN013 OVC090 04/02 A2985 1090 82 100 100/09G16 RMK AO2 T00440017 $
14926KSTC STC20191120160512111/20/19 16:05:31  5-MIN KSTC 202205Z 10008G16KT 10SM BKN013 OVC095 04/02 A2985 1100 82 100 100/08G16 RMK AO2 T00440017 $
14926KSTC STC20191120161012111/20/19 16:10:31  5-MIN KSTC 202210Z 09008G17KT 10SM BKN013 OVC095 04/02 A2985 1100 82 100 090/08G17 RMK AO2 T00440017 $
14926KSTC STC20191120161512111/20/19 16:15:31  5-MIN KSTC 202215Z 08008G17KT 10SM BKN013 OVC095 04/02 A2984 1110 82 100 080/08G17 RMK AO2 T00440017 $
14926KSTC STC20191120162011511/20/19 16:20:31  5-MIN KSTC 202220Z 10008KT 10SM BKN013 BKN095 04/02 A2984 1110 82 100 100/08 RMK AO2 T00440017 $
14926KSTC STC20191120162511511/20/19 16:25:31  5-MIN KSTC 202225Z 09010KT 10SM BKN013 BKN095 04/02 A2984 1110 82 100 090/10 RMK AO2 T00440017 $
14926KSTC STC20191120163012111/20/19 16:30:31  5-MIN KSTC 202230Z 09010G16KT 10SM BKN013 BKN095 04/02 A2983 1110 82 100 090/10G16 RMK AO2 T00440017 $
14926KSTC STC20191120163512111/20/19 16:35:31  5-MIN KSTC 202235Z 09007G16KT 10SM BKN013 BKN095 04/02 A2983 1120 82 100 080/07G16 RMK AO2 T00440017 $
14926KSTC STC20191120164011411/20/19 16:40:31  5-MIN KSTC 202240Z 10009G17KT 10SM BKN013 04/02 A2983 1110 82 100 100/09G17 RMK AO2 T00440017 $
14926KSTC STC20191120164511411/20/19 16:45:31  5-MIN KSTC 202245Z 09010G17KT 10SM OVC013 04/02 A2983 1120 82 200 090/10G17 RMK AO2 T00440017 $
14926KSTC STC20191120165013711/20/19 16:50:31  5-MIN KSTC 202250Z 10009G16KT 070V130 10SM OVC014 04/02 A2982 1120 82 200 100/09G16 070V130 RMK AO2 SLP117 T00440017 $
14926KSTC STC20191120165510811/20/19 16:55:31  5-MIN KSTC 202255Z 09010KT 10SM OVC014 04/02 A2982 1130 82 200 090/10 RMK AO2 T00440017 $
14926KSTC STC20191120170011411/20/19 17:00:31  5-MIN KSTC 202300Z 09008G15KT 10SM OVC014 04/02 A2983 1120 82 200 090/08G15 RMK AO2 T00440017 $
14926KSTC STC20191120170510811/20/19 17:05:31  5-MIN KSTC 202305Z 11008KT 10SM OVC014 04/02 A2983 1110 82 100 100/08 RMK AO2 T00440017 $
14926KSTC STC20191120171010811/20/19 17:10:31  5-MIN KSTC 202310Z 11008KT 10SM OVC014 04/02 A2983 1120 82 100 100/08 RMK AO2 T00440017 $
14926KSTC STC20191120171510811/20/19 17:15:31  5-MIN KSTC 202315Z 10008KT 10SM OVC014 04/02 A2983 1120 82 200 100/08 RMK AO2 T00440017 $
14926KSTC STC20191120172010811/20/19 17:20:31  5-MIN KSTC 202320Z VRB06KT 10SM OVC013 04/02 A2983 1110 82 100 VRB/06 RMK AO2 T00440017 $
14926KSTC STC20191120172510811/20/19 17:25:31  5-MIN KSTC 202325Z 11007KT 10SM OVC013 04/02 A2983 1110 82 100 110/07 RMK AO2 T00440017 $
14926KSTC STC20191120173010811/20/19 17:30:31  5-MIN KSTC 202330Z 12007KT 10SM OVC013 04/02 A2984 1110 82 100 120/07 RMK AO2 T00440017 $
14926KSTC STC20191120173510811/20/19 17:35:31  5-MIN KSTC 202335Z 09007KT 10SM OVC013 04/02 A2983 1110 82 100 090/07 RMK AO2 T00440017 $
14926KSTC STC20191120174010811/20/19 17:40:31  5-MIN KSTC 202340Z 11006KT 10SM OVC013 04/02 A2984 1110 82 100 110/06 RMK AO2 T00440017 $
14926KSTC STC20191120174510811/20/19 17:45:31  5-MIN KSTC 202345Z 09007KT 10SM OVC013 04/02 A2984 1110 82 100 090/07 RMK AO2 T00440017 $
14926KSTC STC20191120175013311/20/19 17:50:31  5-MIN KSTC 202350Z 10005KT 10SM OVC012 04/02 A2984 1110 82 100 100/05 RMK AO2 SLP123 T00440017 10072 20044 56030 $
14926KSTC STC20191120175510811/20/19 17:55:31  5-MIN KSTC 202355Z 09005KT 10SM OVC012 04/02 A2984 1110 82 100 090/05 RMK AO2 T00440017 $
14926KSTC STC20191120180010811/20/19 18:00:31  5-MIN KSTC 210000Z 09005KT 10SM OVC012 04/02 A2984 1110 82 100 080/05 RMK AO2 T00440017 $
14926KSTC STC20191120180510811/20/19 18:05:31  5-MIN KSTC 210005Z 09006KT 10SM OVC012 04/02 A2983 1110 85 100 090/06 RMK AO2 T00440022 $
14926KSTC STC20191120181010811/20/19 18:10:31  5-MIN KSTC 210010Z 09006KT 10SM OVC012 04/02 A2983 1120 82 100 090/06 RMK AO2 T00440017 $
14926KSTC STC20191120181510811/20/19 18:15:31  5-MIN KSTC 210015Z 09005KT 10SM OVC012 04/02 A2983 1120 82 200 090/05 RMK AO2 T00440017 $
14926KSTC STC20191120182011311/20/19 18:20:31  5-MIN KSTC 210020Z AUTO 09006KT 10SM OVC014 04/02 A2983 1120 82 200 090/06 RMK AO2 T00440017 $
14926KSTC STC20191120182511311/20/19 18:25:31  5-MIN KSTC 210025Z AUTO 08005KT 10SM OVC014 04/02 A2983 1120 82 100 080/05 RMK AO2 T00440017 $
14926KSTC STC20191120183011311/20/19 18:30:31  5-MIN KSTC 210030Z AUTO 09004KT 10SM OVC014 04/02 A2983 1120 85 100 090/04 RMK AO2 T00440022 $
14926KSTC STC20191120183511311/20/19 18:35:31  5-MIN KSTC 210035Z AUTO 09004KT 10SM OVC014 04/02 A2983 1120 85 200 090/04 RMK AO2 T00440022 $
14926KSTC STC20191120184011311/20/19 18:40:31  5-MIN KSTC 210040Z AUTO 09005KT 10SM OVC014 04/02 A2983 1110 85 100 090/05 RMK AO2 T00440022 $
14926KSTC STC20191120184512011/20/19 18:45:31  5-MIN KSTC 210045Z AUTO 07003KT 10SM BKN014 OVC041 04/02 A2984 1110 85 100 070/03 RMK AO2 T00440022 $
14926KSTC STC20191120185012711/20/19 18:50:31  5-MIN KSTC 210050Z AUTO 08004KT 10SM BKN014 OVC041 04/02 A2984 1110 85 100 080/04 RMK AO2 SLP121 T00440022 $
14926KSTC STC20191120185511511/20/19 18:55:31  5-MIN KSTC 210055Z 08004KT 10SM BKN014 OVC042 04/02 A2983 1110 85 100 070/04 RMK AO2 T00440022 $
14926KSTC STC20191120190011511/20/19 19:00:31  5-MIN KSTC 210100Z 09005KT 10SM BKN014 OVC042 04/02 A2983 1110 85 100 090/05 RMK AO2 T00440022 $
14926KSTC STC20191120190511511/20/19 19:05:31  5-MIN KSTC 210105Z 09004KT 10SM BKN014 OVC042 04/02 A2983 1120 85 100 090/04 RMK AO2 T00440022 $
14926KSTC STC20191120191011511/20/19 19:10:31  5-MIN KSTC 210110Z 08005KT 10SM SCT014 OVC043 04/02 A2983 1120 85 100 080/05 RMK AO2 T00440022 $
14926KSTC STC20191120191511511/20/19 19:15:31  5-MIN KSTC 210115Z 08006KT 10SM SCT014 OVC043 04/02 A2983 1120 85 100 080/06 RMK AO2 T00440022 $
14926KSTC STC20191120192011511/20/19 19:20:31  5-MIN KSTC 210120Z 08005KT 10SM FEW014 OVC043 04/02 A2983 1120 85 200 080/05 RMK AO2 T00440022 $
14926KSTC STC20191120192510811/20/19 19:25:31  5-MIN KSTC 210125Z 08005KT 10SM OVC043 04/02 A2983 1120 85 200 080/05 RMK AO2 T00440022 $
14926KSTC STC20191120193010811/20/19 19:30:31  5-MIN KSTC 210130Z 08005KT 10SM OVC043 04/02 A2982 1120 85 200 080/05 RMK AO2 T00440022 $
14926KSTC STC20191120193510811/20/19 19:35:31  5-MIN KSTC 210135Z 08005KT 10SM OVC043 04/02 A2982 1130 85 200 080/05 RMK AO2 T00440022 $
14926KSTC STC20191120194010811/20/19 19:40:31  5-MIN KSTC 210140Z 07004KT 10SM OVC043 04/02 A2982 1130 85 200 070/04 RMK AO2 T00440022 $
14926KSTC STC20191120194510811/20/19 19:45:31  5-MIN KSTC 210145Z 07004KT 10SM OVC043 04/02 A2982 1130 82 200 070/04 RMK AO2 T00440017 $
14926KSTC STC20191120195011511/20/19 19:50:31  5-MIN KSTC 210150Z 08004KT 10SM OVC043 04/02 A2982 1130 82 200 080/04 RMK AO2 SLP115 T00440017 $
14926KSTC STC20191120195510811/20/19 19:55:31  5-MIN KSTC 210155Z 07004KT 10SM OVC043 04/02 A2982 1130 82 200 070/04 RMK AO2 T00440017 $
14926KSTC STC20191120200010811/20/19 20:00:31  5-MIN KSTC 210200Z 08004KT 10SM OVC043 04/02 A2981 1130 82 200 080/04 RMK AO2 T00440017 $
14926KSTC STC20191120200510811/20/19 20:05:31  5-MIN KSTC 210205Z 08005KT 10SM OVC044 04/02 A2981 1140 85 200 080/05 RMK AO2 T00440022 $
14926KSTC STC20191120201010811/20/19 20:10:31  5-MIN KSTC 210210Z 07004KT 10SM OVC044 04/02 A2981 1140 85 200 070/04 RMK AO2 T00440022 $
14926KSTC STC20191120201510811/20/19 20:15:31  5-MIN KSTC 210215Z 07006KT 10SM OVC044 04/02 A2981 1140 89 100 070/06 RMK AO2 T00390022 $
14926KSTC STC20191120202010811/20/19 20:20:31  5-MIN KSTC 210220Z 08007KT 10SM OVC044 04/02 A2980 1140 85 200 080/07 RMK AO2 T00440022 $
14926KSTC STC20191120202510811/20/19 20:25:31  5-MIN KSTC 210225Z 07006KT 10SM OVC044 04/02 A2980 1140 85 200 070/06 RMK AO2 T00440022 $
14926KSTC STC20191120203010811/20/19 20:30:31  5-MIN KSTC 210230Z 07006KT 10SM OVC044 04/02 A2980 1140 85 200 070/06 RMK AO2 T00440022 $
14926KSTC STC20191120203510811/20/19 20:35:31  5-MIN KSTC 210235Z 08005KT 10SM OVC044 04/02 A2980 1140 85 200 080/05 RMK AO2 T00440022 $
14926KSTC STC20191120204010811/20/19 20:40:31  5-MIN KSTC 210240Z 06006KT 10SM OVC044 04/02 A2980 1140 89 100 060/06 RMK AO2 T00390022 $
14926KSTC STC20191120204510811/20/19 20:45:31  5-MIN KSTC 210245Z 06006KT 10SM OVC042 04/02 A2980 1140 89 100 060/06 RMK AO2 T00390022 $
14926KSTC STC20191120205012111/20/19 20:50:31  5-MIN KSTC 210250Z 07006KT 10SM OVC042 04/02 A2980 1140 89 100 070/06 RMK AO2 SLP109 T00390022 55008 $
14926KSTC STC20191120205511511/20/19 20:55:31  5-MIN KSTC 210255Z 06006KT 10SM BKN037 OVC044 04/02 A2980 1150 89 100 060/06 RMK AO2 T00390022 $
14926KSTC STC20191120210011511/20/19 21:00:31  5-MIN KSTC 210300Z 07006KT 10SM BKN037 OVC044 04/02 A2980 1150 89 100 070/06 RMK AO2 T00390022 $
14926KSTC STC20191120210510811/20/19 21:05:31  5-MIN KSTC 210305Z 08005KT 10SM OVC037 04/02 A2980 1150 89 100 070/05 RMK AO2 T00390022 $
14926KSTC STC20191120211010811/20/19 21:10:31  5-MIN KSTC 210310Z 07005KT 10SM OVC037 04/02 A2980 1150 89 100 060/05 RMK AO2 T00390022 $
14926KSTC STC20191120211510811/20/19 21:15:31  5-MIN KSTC 210315Z 08005KT 10SM OVC037 04/02 A2979 1150 89 100 080/05 RMK AO2 T00390022 $
14926KSTC STC20191120212010811/20/19 21:20:31  5-MIN KSTC 210320Z 08005KT 10SM OVC037 04/02 A2979 1150 89 100 070/05 RMK AO2 T00390022 $
14926KSTC STC20191120212510811/20/19 21:25:31  5-MIN KSTC 210325Z 08006KT 10SM OVC035 04/02 A2979 1160 89 100 080/06 RMK AO2 T00390022 $
14926KSTC STC20191120213010811/20/19 21:30:31  5-MIN KSTC 210330Z 09007KT 10SM OVC035 04/02 A2979 1160 89 100 090/07 RMK AO2 T00390022 $
14926KSTC STC20191120213510811/20/19 21:35:31  5-MIN KSTC 210335Z 08006KT 10SM OVC035 04/02 A2978 1160 89 100 080/06 RMK AO2 T00390022 $
14926KSTC STC20191120214010811/20/19 21:40:31  5-MIN KSTC 210340Z 09006KT 10SM OVC033 04/02 A2978 1160 89 100 090/06 RMK AO2 T00390022 $
14926KSTC STC20191120214511011/20/19 21:45:31  5-MIN KSTC 210345Z 08006KT 6SM BR OVC033 04/02 A2978 1160 89 100 080/06 RMK AO2 T00390022 $
14926KSTC STC20191120215011711/20/19 21:50:31  5-MIN KSTC 210350Z 08005KT 4SM BR OVC031 04/02 A2978 1160 89 100 080/05 RMK AO2 SLP103 T00390022 $
14926KSTC STC20191120215511011/20/19 21:55:31  5-MIN KSTC 210355Z 07005KT 3SM BR OVC029 04/02 A2978 1160 89 100 070/05 RMK AO2 T00390022 $
14926KSTC STC20191120220013211/20/19 22:00:31  5-MIN KSTC 210400Z 07005KT 2 1/2SM -RA BR OVC029 04/02 A2978 1160 89 100 070/05 RMK AO2 RAB0356 P0000 T00390022 $
14926KSTC STC20191120220513911/20/19 22:05:31  5-MIN KSTC 210405Z 07005KT 2 1/2SM -RA BR FEW022 OVC029 03/02 A2978 1160 92 100 070/05 RMK AO2 RAB0356 P0000 T00330022 $
14926KSTC STC20191120221012811/20/19 22:10:31  5-MIN KSTC 210410Z 07005KT 3SM -RA BR OVC027 03/03 A2978 1170 96 100 070/05 RMK AO2 RAB0356 P0000 T00330028 $
14926KSTC STC20191120221512711/20/19 22:15:31  5-MIN KSTC 210415Z 07005KT 3SM BR OVC027 03/03 A2978 1170 96 100 070/05 RMK AO2 RAB0356E14 P0000 T00330028 $
14926KSTC STC20191120222012711/20/19 22:20:31  5-MIN KSTC 210420Z 07005KT 3SM BR OVC027 03/03 A2978 1170 96 100 070/05 RMK AO2 RAB0356E14 P0000 T00330028 $
14926KSTC STC20191120222512711/20/19 22:25:31  5-MIN KSTC 210425Z 07005KT 3SM BR OVC025 03/03 A2977 1170 96 100 060/05 RMK AO2 RAB0356E14 P0000 T00330028 $
14926KSTC STC20191120223012711/20/19 22:30:31  5-MIN KSTC 210430Z 06005KT 3SM BR OVC025 03/03 A2977 1170 96 100 060/05 RMK AO2 RAB0356E14 P0000 T00330028 $
14926KSTC STC20191120223514511/20/19 22:35:31  5-MIN KSTC 210435Z 05006KT 2 1/2SM BR FEW005 SCT021 OVC025 03/03 A2977 1170 96 100 050/06 RMK AO2 RAB0356E14 P0000 T00330028 $
14926KSTC STC20191120224014511/20/19 22:40:31  5-MIN KSTC 210440Z 04004KT 2 1/2SM BR FEW005 SCT018 OVC025 03/03 A2977 1180 96 100 040/04 RMK AO2 RAB0356E14 P0001 T00330028 $
14926KSTC STC20191120224514511/20/19 22:45:31  5-MIN KSTC 210445Z 05003KT 2 1/2SM BR SCT005 BKN016 OVC025 03/03 A2977 1180 96 100 050/03 RMK AO2 RAB0356E14 P0001 T00330028 $
14926KSTC STC20191120225014711/20/19 22:50:31  5-MIN KSTC 210450Z 03004KT 2 1/2SM BR BKN005 BKN014 OVC025 03/03 A2977 1170 96 100 030/04 RMK AO2 RAB0356E14 CIG 003V009 P0001 $
14926KSTC STC20191120225512811/20/19 22:55:31  5-MIN KSTC 210455Z 05005KT 2 1/2SM BR BKN005 BKN010 OVC016 03/03 A2977 1170 96 100 050/05 RMK AO2 T00330028 $
14926KSTC STC20191120230013811/20/19 23:00:31  5-MIN KSTC 210500Z AUTO 06005KT 2 1/2SM BR BKN005 BKN014 OVC018 03/03 A2976 1180 96 100 060/05 RMK AO2 T00330028 TSNO $
14926KSTC STC20191120230513411/20/19 23:05:31  5-MIN KSTC 210505Z AUTO 07005KT 2SM BR BKN005 BKN008 OVC016 03/03 A2976 1180 96 100 070/05 RMK AO2 T00330028 TSNO $
14926KSTC STC20191120231015011/20/19 23:10:31  5-MIN KSTC 210510Z AUTO 06005KT 2SM -RA BR BKN004 BKN012 OVC024 03/03 A2976 1180 96 100 060/05 RMK AO2 RAB10 P0000 T00330028 TSNO $
14926KSTC STC20191120231515011/20/19 23:15:31  5-MIN KSTC 210515Z AUTO 07005KT 2SM -RA BR SCT004 BKN017 OVC024 03/03 A2976 1190 96 100 070/05 RMK AO2 RAB10 P0000 T00330028 TSNO $
14926KSTC STC20191120232015311/20/19 23:20:31  5-MIN KSTC 210520Z AUTO 07006KT 2 1/2SM BR FEW004 SCT014 OVC024 03/03 A2975 1190 96 100 070/06 RMK AO2 RAB10E19 P0000 T00330028 TSNO $
14926KSTC STC20191120232514911/20/19 23:25:31  5-MIN KSTC 210525Z AUTO 08006KT 2SM BR FEW004 SCT016 OVC024 03/03 A2976 1190 96 100 080/06 RMK AO2 RAB10E19 P0001 T00330028 TSNO $
14926KSTC STC20191120233014611/20/19 23:30:31  5-MIN KSTC 210530Z AUTO 07006KT 2 1/2SM BR FEW004 OVC024 03/03 A2975 1190 96 100 070/06 RMK AO2 RAB10E19 P0001 T00330028 TSNO $
14926KSTC STC20191120233514611/20/19 23:35:31  5-MIN KSTC 210535Z AUTO 07004KT 2 1/2SM BR FEW004 OVC024 03/03 A2975 1190 96 100 070/04 RMK AO2 RAB10E19 P0001 T00330028 TSNO $
14926KSTC STC20191120234014611/20/19 23:40:31  5-MIN KSTC 210540Z AUTO 07005KT 2 1/2SM BR SCT004 OVC023 03/03 A2975 1190 96 100 070/05 RMK AO2 RAB10E19 P0001 T00330028 TSNO $
14926KSTC STC20191120234514611/20/19 23:45:31  5-MIN KSTC 210545Z AUTO 06004KT 2 1/2SM BR SCT004 OVC023 03/03 A2975 1190 96 100 060/04 RMK AO2 RAB10E19 P0001 T00330028 TSNO $
14926KSTC STC20191120235013611/20/19 23:50:31  5-MIN KSTC 210550Z AUTO 06005KT 2 1/2SM BR BKN004 OVC023 03/03 A2975 1200 96 100 060/05 RMK AO2 RAB10E19 P0001 TSNO $
14926KSTC STC20191120235512711/20/19 23:55:31  5-MIN KSTC 210555Z AUTO 07005KT 3SM BR BKN004 OVC023 03/03 A2974 1200 96 100 070/05 RMK AO2 T00330028 TSNO $
14926KSTC STC20191121000013411/21/19 00:00:31  5-MIN KSTC 210600Z AUTO 06005KT 3SM BR BKN004 BKN014 OVC023 03/03 A2974 1200 96 100 060/05 RMK AO2 T00330028 TSNO $
14926KSTC STC20191121000513411/21/19 00:05:31  5-MIN KSTC 210605Z AUTO 05005KT 3SM BR BKN004 BKN014 OVC023 03/03 A2974 1200 96 100 050/05 RMK AO2 T00330028 TSNO $
14926KSTC STC20191121001012711/21/19 00:10:31  5-MIN KSTC 210610Z AUTO 05005KT 3SM BR BKN004 OVC014 03/03 A2974 1200 96 100 050/05 RMK AO2 T00330028 TSNO $
14926KSTC STC20191121001512711/21/19 00:15:31  5-MIN KSTC 210615Z AUTO 06004KT 3SM BR BKN004 OVC014 03/03 A2973 1210 96 100 060/04 RMK AO2 T00330028 TSNO $
14926KSTC STC20191121002012711/21/19 00:20:31  5-MIN KSTC 210620Z AUTO 06005KT 3SM BR BKN004 OVC014 03/03 A2973 1210 96 100 060/05 RMK AO2 T00330028 TSNO $
14926KSTC STC20191121002513111/21/19 00:25:31  5-MIN KSTC 210625Z AUTO 05005KT 2 1/2SM BR BKN004 OVC014 03/03 A2973 1210 96 100 050/05 RMK AO2 T00330028 TSNO $
14926KSTC STC20191121003012611/21/19 00:30:31  5-MIN KSTC 210630Z AUTO 06005KT 2 1/2SM BR BKN004 OVC014 03/03 A2973 1210 96 100 060/05 RMK AO2 T00330028 $
14926KSTC STC20191121003512611/21/19 00:35:31  5-MIN KSTC 210635Z AUTO 05005KT 2 1/2SM BR BKN004 OVC014 03/03 A2972 1220 96 100 050/05 RMK AO2 T00330028 $
14926KSTC STC20191121004012611/21/19 00:40:31  5-MIN KSTC 210640Z AUTO 04005KT 2 1/2SM BR BKN004 OVC014 03/03 A2972 1220 96 100 040/05 RMK AO2 T00330028 $
14926KSTC STC20191121004512211/21/19 00:45:31  5-MIN KSTC 210645Z AUTO 03005KT 3SM BR BKN004 OVC013 03/03 A2972 1220 96 100 030/05 RMK AO2 T00330028 $
14926KSTC STC20191121005012211/21/19 00:50:31  5-MIN KSTC 210650Z AUTO 02004KT 3SM BR OVC004 03/03 A2972 1220 96 100 020/04 RMK AO2 SLP082 T00330028 $
14926KSTC STC20191121005512511/21/19 00:55:31  5-MIN KSTC 210655Z AUTO 01005KT 3SM -RA BR OVC004 03/03 A2972 1210 96 100 010/05 RMK AO2 P0000 T00330028 $
14926KSTC STC20191121010012511/21/19 01:00:31  5-MIN KSTC 210700Z AUTO 36005KT 3SM -RA BR OVC004 03/03 A2973 1210 96 100 360/05 RMK AO2 P0000 T00330028 $
14926KSTC STC20191121010512511/21/19 01:05:31  5-MIN KSTC 210705Z AUTO 35005KT 3SM -RA BR OVC004 03/02 A2972 1220 92 100 350/05 RMK AO2 P0000 T00330022 $
14926KSTC STC20191121011012511/21/19 01:10:31  5-MIN KSTC 210710Z AUTO 36005KT 3SM -RA BR OVC004 03/02 A2972 1220 92 100 360/05 RMK AO2 P0000 T00330022 $
14926KSTC STC20191121011512511/21/19 01:15:31  5-MIN KSTC 210715Z AUTO 35004KT 3SM -RA BR OVC004 03/02 A2973 1210 92 100 350/04 RMK AO2 P0001 T00330022 $
14926KSTC STC20191121012012511/21/19 01:20:31  5-MIN KSTC 210720Z AUTO 36005KT 3SM -RA BR OVC004 03/02 A2972 1220 96 100 350/05 RMK AO2 P0001 T00280022 $
14926KSTC STC20191121012512511/21/19 01:25:31  5-MIN KSTC 210725Z AUTO 35005KT 3SM -RA BR OVC004 03/02 A2972 1220 96 100 350/05 RMK AO2 P0001 T00280022 $
14926KSTC STC20191121013012511/21/19 01:30:31  5-MIN KSTC 210730Z AUTO 35005KT 3SM -RA BR OVC004 03/02 A2972 1220 96 100 350/05 RMK AO2 P0001 T00280022 $
14926KSTC STC20191121013512511/21/19 01:35:31  5-MIN KSTC 210735Z AUTO 36006KT 3SM -RA BR OVC004 03/02 A2972 1220 96 100 360/06 RMK AO2 P0002 T00280022 $
14926KSTC STC20191121014013011/21/19 01:40:31  5-MIN KSTC 210740Z AUTO 35006KT 3SM -RA BR OVC004 03/02 A2972 1220 96 100 350/06 RMK AO2 P0002 T00280022 TSNO $
14926KSTC STC20191121014513011/21/19 01:45:31  5-MIN KSTC 210745Z AUTO 36007KT 3SM -RA BR OVC004 03/02 A2972 1220 96 100 360/07 RMK AO2 P0002 T00280022 TSNO $
14926KSTC STC20191121015013711/21/19 01:50:31  5-MIN KSTC 210750Z AUTO 36005KT 3SM -RA BR OVC004 03/02 A2972 1220 96 100 360/05 RMK AO2 SLP080 P0003 T00280022 TSNO $
14926KSTC STC20191121015512511/21/19 01:55:31  5-MIN KSTC 210755Z AUTO 35007KT 4SM -RA BR OVC004 03/02 A2972 1220 96 100 350/07 RMK AO2 P0000 T00280022 $
14926KSTC STC20191121020012511/21/19 02:00:31  5-MIN KSTC 210800Z AUTO 35006KT 4SM -RA BR OVC004 03/02 A2972 1220 96 100 350/06 RMK AO2 P0001 T00280022 $
14926KSTC STC20191121020512511/21/19 02:05:31  5-MIN KSTC 210805Z AUTO 35008KT 4SM -RA BR OVC004 03/02 A2972 1220 96 100 350/08 RMK AO2 P0001 T00280022 $
14926KSTC STC20191121021012511/21/19 02:10:31  5-MIN KSTC 210810Z AUTO 35008KT 4SM -RA BR OVC004 03/02 A2972 1220 96 100 350/08 RMK AO2 P0001 T00280022 $
14926KSTC STC20191121021512511/21/19 02:15:31  5-MIN KSTC 210815Z AUTO 35007KT 4SM -RA BR OVC004 03/02 A2972 1220 96 100 350/07 RMK AO2 P0002 T00280022 $
14926KSTC STC20191121022012511/21/19 02:20:31  5-MIN KSTC 210820Z AUTO 35007KT 4SM -RA BR OVC004 03/02 A2972 1220 96 100 350/07 RMK AO2 P0003 T00280022 $
14926KSTC STC20191121123013311/21/19 12:30:31  5-MIN KSTC 211830Z 31019G26KT 10SM OVC015 M02/M04 A2995 1010 81 -700 310/19G26 RMK AO2 PK WND 32027/1802 T10171044
14926KSTC STC20191121123514011/21/19 12:35:31  5-MIN KSTC 211835Z 31015G24KT 10SM BKN015 OVC019 M02/M04 A2995 1000 81 -700 310/15G24 RMK AO2 PK WND 32027/1802 T10171044
14926KSTC STC20191121124013311/21/19 12:40:31  5-MIN KSTC 211840Z 31016G23KT 10SM OVC013 M02/M04 A2995 1010 85 -700 310/16G23 RMK AO2 PK WND 32027/1802 T10171039
14926KSTC STC20191121124513311/21/19 12:45:31  5-MIN KSTC 211845Z 32015G23KT 10SM OVC013 M02/M04 A2995 1010 85 -800 310/15G23 RMK AO2 PK WND 32027/1802 T10221044
14926KSTC STC20191121125014011/21/19 12:50:31  5-MIN KSTC 211850Z 31015G24KT 10SM OVC013 M02/M04 A2995 1000 81 -700 310/15G24 RMK AO2 PK WND 32027/1802 SLP163 T10171044
14926KSTC STC20191121125511511/21/19 12:55:31  5-MIN KSTC 211855Z 32013G25KT 10SM OVC014 M02/M05 A2996 1000 81 -800 320/13G25 RMK AO2 T10221050
14926KSTC STC20191121130011511/21/19 13:00:31  5-MIN KSTC 211900Z 32012G25KT 10SM OVC014 M02/M05 A2996 1000 81 -800 320/12G25 RMK AO2 T10221050
14926KSTC STC20191121130513211/21/19 13:05:31  5-MIN KSTC 211905Z 32020G26KT 10SM OVC014 M02/M05 A2996 990 81 -800 310/20G26 RMK AO2 PK WND 31026/1905 T10221050
14926KSTC STC20191121131013211/21/19 13:10:31  5-MIN KSTC 211910Z 31017G27KT 10SM OVC016 M02/M06 A2997 990 78 -800 310/17G27 RMK AO2 PK WND 31027/1909 T10221056
14926KSTC STC20191121131513211/21/19 13:15:31  5-MIN KSTC 211915Z 31021G29KT 10SM OVC016 M02/M06 A2997 990 75 -800 310/21G29 RMK AO2 PK WND 31029/1914 T10221061
14926KSTC STC20191121132013211/21/19 13:20:31  5-MIN KSTC 211920Z 32014G29KT 10SM OVC017 M02/M06 A2997 980 75 -700 320/14G29 RMK AO2 PK WND 31029/1914 T10171056
14926KSTC STC20191121132513211/21/19 13:25:31  5-MIN KSTC 211925Z 32017G27KT 10SM BKN019 M02/M06 A2998 980 75 -800 320/17G27 RMK AO2 PK WND 31029/1914 T10221061
14926KSTC STC20191121133013211/21/19 13:30:31  5-MIN KSTC 211930Z 31017G27KT 10SM BKN019 M03/M07 A2998 980 75 -900 310/17G27 RMK AO2 PK WND 31029/1914 T10281067
14926KSTC STC20191121133513211/21/19 13:35:31  5-MIN KSTC 211935Z 31019G25KT 10SM BKN019 M03/M07 A2998 980 75 -900 300/19G25 RMK AO2 PK WND 31029/1914 T10281067
14926KSTC STC20191121134013211/21/19 13:40:31  5-MIN KSTC 211940Z 31018G28KT 10SM OVC019 M03/M07 A2998 970 75 -900 310/18G28 RMK AO2 PK WND 31029/1914 T10281067
14926KSTC STC20191121134513211/21/19 13:45:31  5-MIN KSTC 211945Z 32012G28KT 10SM BKN019 M03/M07 A2999 970 71 -900 320/12G28 RMK AO2 PK WND 31029/1914 T10281072
14926KSTC STC20191121135013911/21/19 13:50:31  5-MIN KSTC 211950Z 33013G24KT 10SM BKN020 M02/M07 A2999 970 72 -800 330/13G24 RMK AO2 PK WND 31029/1914 SLP174 T10221067
14926KSTC STC20191121135511411/21/19 13:55:31  5-MIN KSTC 211955Z 33014G24KT 10SM BKN020 M02/M07 A2999 970 69 -800 330/14G24 RMK AO2 T10221072
14926KSTC STC20191121140011411/21/19 14:00:31  5-MIN KSTC 212000Z 30016G22KT 10SM BKN020 M03/M07 A2999 970 75 -900 300/16G22 RMK AO2 T10281067
14926KSTC STC20191121140511411/21/19 14:05:31  5-MIN KSTC 212005Z 31015G21KT 10SM BKN020 M03/M07 A2999 970 75 -900 310/15G21 RMK AO2 T10281067
14926KSTC STC20191121141011411/21/19 14:10:31  5-MIN KSTC 212010Z 31016G21KT 10SM SCT020 M03/M07 A2999 970 71 -900 310/16G21 RMK AO2 T10281072
14926KSTC STC20191121141511411/21/19 14:15:31  5-MIN KSTC 212015Z 30018G23KT 10SM SCT020 M03/M07 A3000 960 71 -900 300/18G23 RMK AO2 T10281072
14926KSTC STC20191121142010811/21/19 14:20:31  5-MIN KSTC 212020Z 31018KT 10SM SCT020 M03/M07 A3000 960 71 -900 310/18 RMK AO2 T10281072
14926KSTC STC20191121142511411/21/19 14:25:31  5-MIN KSTC 212025Z 32015G23KT 10SM FEW020 M03/M07 A3000 960 71 -900 320/15G23 RMK AO2 T10281072
14926KSTC STC20191121143011411/21/19 14:30:31  5-MIN KSTC 212030Z 31020G25KT 10SM FEW020 M03/M08 A3001 960 68 -900 310/20G25 RMK AO2 T10281078
14926KSTC STC20191121143510811/21/19 14:35:31  5-MIN KSTC 212035Z 31018KT 10SM FEW019 M03/M08 A3001 950 68 -900 310/18 RMK AO2 T10281078
14926KSTC STC20191121144010811/21/19 14:40:31  5-MIN KSTC 212040Z 31017KT 10SM FEW019 M03/M08 A3001 950 68 -900 310/17 RMK AO2 T10281078
14926KSTC STC20191121144511411/21/19 14:45:31  5-MIN KSTC 212045Z 32014G23KT 10SM FEW021 M03/M08 A3001 950 68 -900 320/14G23 RMK AO2 T10281078
14926KSTC STC20191121145012711/21/19 14:50:31  5-MIN KSTC 212050Z 30015G23KT 10SM FEW021 M03/M07 A3002 950 71 -900 300/15G23 RMK AO2 SLP185 T10281072 51018
14926KSTC STC20191121145511411/21/19 14:55:31  5-MIN KSTC 212055Z 31015G21KT 10SM FEW021 M03/M07 A3002 940 71 -900 310/15G21 RMK AO2 T10281072
14926KSTC STC20191121150011411/21/19 15:00:31  5-MIN KSTC 212100Z 33011G19KT 10SM FEW021 M03/M08 A3002 940 68 -900 320/11G19 RMK AO2 T10281078
14926KSTC STC20191121150511411/21/19 15:05:31  5-MIN KSTC 212105Z 31016G22KT 10SM FEW021 M03/M08 A3002 940 68 -900 310/16G22 RMK AO2 T10281078
14926KSTC STC20191121151011511/21/19 15:10:31  5-MIN KSTC 212110Z 31018G22KT 10SM FEW021 M03/M08 A3003 940 71 -1000 310/18G22 RMK AO2 T10331078
14926KSTC STC20191121151510511/21/19 15:15:31  5-MIN KSTC 212115Z 31016KT 10SM CLR M03/M08 A3003 930 68 -900 310/16 RMK AO2 T10281078
14926KSTC STC20191121152010611/21/19 15:20:31  5-MIN KSTC 212120Z 32016KT 10SM CLR M03/M08 A3003 930 68 -1000 310/16 RMK AO2 T10331083
14926KSTC STC20191121152511211/21/19 15:25:31  5-MIN KSTC 212125Z 31016G23KT 10SM CLR M03/M08 A3004 930 68 -1000 310/16G23 RMK AO2 T10331083
14926KSTC STC20191121153010611/21/19 15:30:31  5-MIN KSTC 212130Z 31015KT 10SM CLR M03/M08 A3004 920 71 -1000 310/15 RMK AO2 T10331078
14926KSTC STC20191121153511211/21/19 15:35:31  5-MIN KSTC 212135Z 31017G22KT 10SM CLR M03/M08 A3004 920 71 -1000 310/17G22 RMK AO2 T10331078
14926KSTC STC20191121154011211/21/19 15:40:31  5-MIN KSTC 212140Z 30017G22KT 10SM CLR M03/M08 A3004 920 71 -1000 300/17G22 RMK AO2 T10331078
14926KSTC STC20191121154510611/21/19 15:45:31  5-MIN KSTC 212145Z 31015KT 10SM CLR M03/M08 A3005 920 68 -1000 310/15 RMK AO2 T10331083
14926KSTC STC20191121155011911/21/19 15:50:31  5-MIN KSTC 212150Z 31016G22KT 10SM CLR M04/M08 A3005 910 71 -1100 310/16G22 RMK AO2 SLP198 T10391083
14926KSTC STC20191121155511211/21/19 15:55:31  5-MIN KSTC 212155Z 32016G22KT 10SM CLR M04/M08 A3005 910 71 -1100 320/16G22 RMK AO2 T10391083
14926KSTC STC20191121160011211/21/19 16:00:31  5-MIN KSTC 212200Z 32013G21KT 10SM CLR M04/M08 A3006 910 71 -1100 320/13G21 RMK AO2 T10391083
14926KSTC STC20191121160510611/21/19 16:05:31  5-MIN KSTC 212205Z 32011KT 10SM CLR M04/M08 A3006 900 71 -1100 320/11 RMK AO2 T10391083
14926KSTC STC20191121161011211/21/19 16:10:31  5-MIN KSTC 212210Z 33013G21KT 10SM CLR M04/M09 A3006 900 68 -1100 330/13G21 RMK AO2 T10391089
14926KSTC STC20191121161511211/21/19 16:15:31  5-MIN KSTC 212215Z 32013G21KT 10SM CLR M04/M09 A3007 900 68 -1100 320/13G21 RMK AO2 T10391089
14926KSTC STC20191121162011211/21/19 16:20:31  5-MIN KSTC 212220Z 31014G20KT 10SM CLR M04/M09 A3007 890 71 -1200 310/14G20 RMK AO2 T10441089
14926KSTC STC20191121162511211/21/19 16:25:31  5-MIN KSTC 212225Z 31017G21KT 10SM CLR M04/M09 A3007 890 71 -1200 310/17G21 RMK AO2 T10441089
14926KSTC STC20191121163010611/21/19 16:30:31  5-MIN KSTC 212230Z 31014KT 10SM CLR M04/M09 A3008 890 71 -1200 310/14 RMK AO2 T10441089
14926KSTC STC20191121163510611/21/19 16:35:31  5-MIN KSTC 212235Z 31014KT 10SM CLR M04/M09 A3008 880 71 -1200 310/14 RMK AO2 T10441089
14926KSTC STC20191121164011211/21/19 16:40:31  5-MIN KSTC 212240Z 32011G20KT 10SM CLR M04/M09 A3009 880 68 -1200 320/11G20 RMK AO2 T10441094
14926KSTC STC20191121164510611/21/19 16:45:31  5-MIN KSTC 212245Z 32014KT 10SM CLR M05/M09 A3009 880 71 -1300 310/14 RMK AO2 T10501094
14926KSTC STC20191121165011911/21/19 16:50:31  5-MIN KSTC 212250Z 32011G19KT 10SM CLR M05/M09 A3009 870 71 -1300 310/11G19 RMK AO2 SLP213 T10501094
14926KSTC STC20191121165510611/21/19 16:55:31  5-MIN KSTC 212255Z 31012KT 10SM CLR M05/M09 A3010 870 71 -1300 310/12 RMK AO2 T10501094
14926KSTC STC20191121170011211/21/19 17:00:31  5-MIN KSTC 212300Z 31016G21KT 10SM CLR M05/M09 A3010 870 71 -1300 310/16G21 RMK AO2 T10501094
14926KSTC STC20191121170510611/21/19 17:05:31  5-MIN KSTC 212305Z 31013KT 10SM CLR M05/M09 A3010 860 71 -1300 310/13 RMK AO2 T10501094
14926KSTC STC20191121171010611/21/19 17:10:31  5-MIN KSTC 212310Z 31014KT 10SM CLR M06/M09 A3011 860 74 -1400 310/14 RMK AO2 T10561094
14926KSTC STC20191121171510911/21/19 17:15:31  5-MIN KSTC 212315Z 31014KT 10SM FEW024 M06/M09 A3011 860 74 -1400 310/14 RMK AO2 T10561094
14926KSTC STC20191121172010911/21/19 17:20:31  5-MIN KSTC 212320Z 31013KT 10SM FEW024 M06/M09 A3011 860 74 -1400 310/13 RMK AO2 T10561094
14926KSTC STC20191121172510911/21/19 17:25:31  5-MIN KSTC 212325Z 31014KT 10SM FEW024 M06/M09 A3012 850 74 -1400 310/14 RMK AO2 T10561094
14926KSTC STC20191121173010911/21/19 17:30:31  5-MIN KSTC 212330Z 31011KT 10SM FEW024 M06/M09 A3012 850 77 -1500 310/11 RMK AO2 T10611094
14926KSTC STC20191121173510911/21/19 17:35:31  5-MIN KSTC 212335Z 31011KT 10SM FEW024 M06/M09 A3012 850 77 -1500 310/11 RMK AO2 T10611094
14926KSTC STC20191121174011511/21/19 17:40:31  5-MIN KSTC 212340Z 31013G19KT 10SM FEW024 M06/M10 A3012 850 71 -1400 310/13G19 RMK AO2 T10561100
14926KSTC STC20191121174511511/21/19 17:45:31  5-MIN KSTC 212345Z 32010G19KT 10SM SCT024 M06/M10 A3013 840 71 -1400 320/10G19 RMK AO2 T10561100
14926KSTC STC20191121175009911/21/19 17:50:31  5-MIN KSTC 212350Z 32011KT 10SM BKN024 M06/M10 A3013 840 71 -1400 320/11 RMK AO2
14926KSTC STC20191121175510911/21/19 17:55:31  5-MIN KSTC 212355Z 32010KT 10SM BKN025 M06/M10 A3013 840 71 -1400 310/10 RMK AO2 T10561100
14926KSTC STC20191121180010911/21/19 18:00:31  5-MIN KSTC 220000Z 32012KT 10SM BKN025 M06/M09 A3013 840 74 -1400 320/12 RMK AO2 T10561094
14926KSTC STC20191121180510911/21/19 18:05:31  5-MIN KSTC 220005Z 32011KT 10SM BKN025 M06/M10 A3013 840 71 -1400 320/11 RMK AO2 T10561100
14926KSTC STC20191121181010911/21/19 18:10:31  5-MIN KSTC 220010Z 33011KT 10SM OVC025 M06/M10 A3013 840 71 -1400 330/11 RMK AO2 T10561100
14926KSTC STC20191121181511511/21/19 18:15:31  5-MIN KSTC 220015Z 33011G19KT 10SM OVC025 M06/M10 A3013 840 71 -1400 330/11G19 RMK AO2 T10561100
14926KSTC STC20191121182011511/21/19 18:20:31  5-MIN KSTC 220020Z 34009G19KT 10SM OVC025 M06/M10 A3013 840 71 -1400 340/09G19 RMK AO2 T10561100
14926KSTC STC20191121182511511/21/19 18:25:31  5-MIN KSTC 220025Z 33009G18KT 10SM OVC024 M06/M10 A3013 840 71 -1400 330/09G18 RMK AO2 T10561100
14926KSTC STC20191121183011511/21/19 18:30:31  5-MIN KSTC 220030Z 33010G18KT 10SM OVC024 M06/M11 A3013 840 68 -1400 330/10G18 RMK AO2 T10561106
14926KSTC STC20191121183510911/21/19 18:35:31  5-MIN KSTC 220035Z 32012KT 10SM OVC024 M06/M11 A3013 840 71 -1500 320/12 RMK AO2 T10611106
14926KSTC STC20191121184011511/21/19 18:40:31  5-MIN KSTC 220040Z 34011G21KT 10SM OVC023 M06/M11 A3014 830 71 -1500 340/11G21 RMK AO2 T10611106
14926KSTC STC20191121184511511/21/19 18:45:31  5-MIN KSTC 220045Z 33010G22KT 10SM OVC023 M06/M11 A3014 830 68 -1500 330/10G22 RMK AO2 T10611111
14926KSTC STC20191121185012211/21/19 18:50:31  5-MIN KSTC 220050Z 32010G22KT 10SM OVC023 M06/M11 A3014 830 71 -1500 320/10G22 RMK AO2 SLP230 T10611106
14926KSTC STC20191121185511511/21/19 18:55:31  5-MIN KSTC 220055Z 35008G18KT 10SM OVC023 M06/M11 A3014 830 71 -1500 350/08G18 RMK AO2 T10611106
14926KSTC STC20191121190011511/21/19 19:00:31  5-MIN KSTC 220100Z 36013G19KT 10SM OVC023 M06/M11 A3015 820 71 -1500 360/13G19 RMK AO2 T10611106
14926KSTC STC20191121190511511/21/19 19:05:31  5-MIN KSTC 220105Z 35012G19KT 10SM OVC023 M07/M11 A3015 820 71 -1600 350/12G19 RMK AO2 T10671111
14926KSTC STC20191121191010911/21/19 19:10:31  5-MIN KSTC 220110Z 35011KT 10SM OVC023 M07/M11 A3016 810 71 -1600 350/11 RMK AO2 T10671111
14926KSTC STC20191121191511511/21/19 19:15:31  5-MIN KSTC 220115Z 34011G18KT 10SM BKN023 M07/M11 A3016 810 71 -1600 340/11G18 RMK AO2 T10671111
14926KSTC STC20191121192011511/21/19 19:20:31  5-MIN KSTC 220120Z 34009G19KT 10SM BKN023 M07/M11 A3016 810 71 -1600 330/09G19 RMK AO2 T10671111
14926KSTC STC20191121192511511/21/19 19:25:31  5-MIN KSTC 220125Z 34007G19KT 10SM BKN023 M07/M11 A3016 810 71 -1600 340/07G19 RMK AO2 T10671111
14926KSTC STC20191121193010911/21/19 19:30:31  5-MIN KSTC 220130Z 35009KT 10SM BKN023 M07/M11 A3017 800 71 -1600 350/09 RMK AO2 T10671111
14926KSTC STC20191121193510911/21/19 19:35:31  5-MIN KSTC 220135Z 35010KT 10SM BKN022 M07/M11 A3017 800 71 -1600 350/10 RMK AO2 T10671111
14926KSTC STC20191121194010911/21/19 19:40:31  5-MIN KSTC 220140Z 34009KT 10SM OVC022 M07/M11 A3017 800 71 -1600 340/09 RMK AO2 T10671111
14926KSTC STC20191121194510911/21/19 19:45:31  5-MIN KSTC 220145Z 34010KT 10SM OVC021 M07/M11 A3017 800 71 -1600 330/10 RMK AO2 T10671111
14926KSTC STC20191121195011611/21/19 19:50:31  5-MIN KSTC 220150Z 32010KT 10SM OVC021 M07/M11 A3018 800 71 -1600 320/10 RMK AO2 SLP242 T10671111
14926KSTC STC20191121195511511/21/19 19:55:31  5-MIN KSTC 220155Z 33008G17KT 10SM OVC021 M07/M11 A3018 800 71 -1600 330/08G17 RMK AO2 T10671111
14926KSTC STC20191121200011511/21/19 20:00:31  5-MIN KSTC 220200Z 33007G15KT 10SM OVC021 M07/M11 A3018 800 71 -1600 330/07G15 RMK AO2 T10671111
14926KSTC STC20191121200510911/21/19 20:05:31  5-MIN KSTC 220205Z 34007KT 10SM OVC021 M07/M11 A3018 800 71 -1600 340/07 RMK AO2 T10671111
14926KSTC STC20191121201010911/21/19 20:10:31  5-MIN KSTC 220210Z 34009KT 10SM OVC022 M07/M11 A3018 800 71 -1600 340/09 RMK AO2 T10671111
14926KSTC STC20191121201511511/21/19 20:15:31  5-MIN KSTC 220215Z 34011G17KT 10SM OVC022 M07/M11 A3018 800 71 -1600 340/11G17 RMK AO2 T10671111
14926KSTC STC20191121202011511/21/19 20:20:31  5-MIN KSTC 220220Z 34009G17KT 10SM OVC022 M07/M12 A3018 790 68 -1600 340/09G17 RMK AO2 T10671117
14926KSTC STC20191121202510911/21/19 20:25:31  5-MIN KSTC 220225Z 34009KT 10SM OVC023 M07/M11 A3018 790 71 -1600 340/09 RMK AO2 T10671111
14926KSTC STC20191121203010911/21/19 20:30:31  5-MIN KSTC 220230Z 33010KT 10SM OVC023 M07/M11 A3019 790 71 -1600 330/10 RMK AO2 T10671111
14926KSTC STC20191121203510911/21/19 20:35:31  5-MIN KSTC 220235Z 34008KT 10SM OVC023 M07/M11 A3018 790 71 -1600 340/08 RMK AO2 T10671111
14926KSTC STC20191121204010911/21/19 20:40:31  5-MIN KSTC 220240Z 35009KT 10SM OVC023 M07/M11 A3018 790 71 -1600 350/09 RMK AO2 T10671111
14926KSTC STC20191121204510911/21/19 20:45:31  5-MIN KSTC 220245Z 33009KT 10SM OVC022 M07/M11 A3019 790 71 -1600 330/09 RMK AO2 T10671111
14926KSTC STC20191121205012211/21/19 20:50:31  5-MIN KSTC 220250Z 34009KT 10SM OVC022 M07/M11 A3019 790 71 -1600 340/09 RMK AO2 SLP246 T10671111 53037
14926KSTC STC20191121205510911/21/19 20:55:31  5-MIN KSTC 220255Z 34006KT 10SM OVC022 M07/M11 A3019 790 71 -1600 340/06 RMK AO2 T10671111
14926KSTC STC20191121210010911/21/19 21:00:31  5-MIN KSTC 220300Z 34008KT 10SM OVC023 M07/M11 A3019 780 71 -1600 340/08 RMK AO2 T10671111
14926KSTC STC20191121210510911/21/19 21:05:31  5-MIN KSTC 220305Z 32008KT 10SM OVC023 M07/M11 A3019 790 71 -1600 320/08 RMK AO2 T10671111
14926KSTC STC20191121211010911/21/19 21:10:31  5-MIN KSTC 220310Z 35008KT 10SM OVC023 M07/M11 A3019 780 71 -1600 350/08 RMK AO2 T10671111
14926KSTC STC20191121211510911/21/19 21:15:31  5-MIN KSTC 220315Z 33008KT 10SM OVC023 M07/M11 A3019 780 71 -1600 330/08 RMK AO2 T10671111
14926KSTC STC20191121212010911/21/19 21:20:31  5-MIN KSTC 220320Z 34010KT 10SM OVC023 M07/M11 A3020 780 71 -1600 340/10 RMK AO2 T10671111
14926KSTC STC20191121212510911/21/19 21:25:31  5-MIN KSTC 220325Z 35008KT 10SM OVC023 M07/M11 A3020 780 71 -1600 340/08 RMK AO2 T10671111
14926KSTC STC20191121213010911/21/19 21:30:31  5-MIN KSTC 220330Z 34009KT 10SM OVC023 M07/M11 A3020 780 71 -1600 340/09 RMK AO2 T10671111
14926KSTC STC20191121213510911/21/19 21:35:31  5-MIN KSTC 220335Z 34007KT 10SM OVC023 M07/M11 A3020 780 71 -1600 340/07 RMK AO2 T10671111
14926KSTC STC20191121214010911/21/19 21:40:31  5-MIN KSTC 220340Z 34008KT 10SM OVC023 M06/M11 A3020 780 71 -1600 340/08 RMK AO2 T10611106
14926KSTC STC20191121214510911/21/19 21:45:31  5-MIN KSTC 220345Z 33006KT 10SM OVC023 M06/M11 A3020 780 71 -1600 330/06 RMK AO2 T10611106
14926KSTC STC20191121215011611/21/19 21:50:31  5-MIN KSTC 220350Z 34007KT 10SM OVC023 M06/M11 A3020 780 71 -1600 340/07 RMK AO2 SLP249 T10611106
14926KSTC STC20191121215510911/21/19 21:55:31  5-MIN KSTC 220355Z 33009KT 10SM OVC023 M06/M11 A3020 780 71 -1600 330/09 RMK AO2 T10611106
14926KSTC STC20191121220010911/21/19 22:00:31  5-MIN KSTC 220400Z 34008KT 10SM OVC023 M06/M11 A3020 780 71 -1600 330/08 RMK AO2 T10611106
14926KSTC STC20191121220510911/21/19 22:05:31  5-MIN KSTC 220405Z 33008KT 10SM OVC022 M06/M11 A3020 770 71 -1600 330/08 RMK AO2 T10611106
14926KSTC STC20191121221010911/21/19 22:10:31  5-MIN KSTC 220410Z 33008KT 10SM OVC022 M06/M11 A3020 770 71 -1600 330/08 RMK AO2 T10611106
14926KSTC STC20191121221510911/21/19 22:15:31  5-MIN KSTC 220415Z 33008KT 10SM OVC022 M06/M11 A3020 770 71 -1600 330/08 RMK AO2 T10611106
14926KSTC STC20191121222010911/21/19 22:20:31  5-MIN KSTC 220420Z 32007KT 10SM OVC022 M06/M11 A3020 770 71 -1600 320/07 RMK AO2 T10611106
14926KSTC STC20191121222510911/21/19 22:25:31  5-MIN KSTC 220425Z 33009KT 10SM OVC022 M06/M11 A3021 770 71 -1600 330/09 RMK AO2 T10611106
14926KSTC STC20191121223010911/21/19 22:30:31  5-MIN KSTC 220430Z 33005KT 10SM OVC022 M06/M11 A3020 770 71 -1600 330/05 RMK AO2 T10611106
14926KSTC STC20191121223510911/21/19 22:35:31  5-MIN KSTC 220435Z 32007KT 10SM OVC022 M06/M11 A3020 770 71 -1600 320/07 RMK AO2 T10611106
14926KSTC STC20191121224010911/21/19 22:40:31  5-MIN KSTC 220440Z 33008KT 10SM OVC022 M06/M11 A3020 770 71 -1600 330/08 RMK AO2 T10611106
14926KSTC STC20191121224510911/21/19 22:45:31  5-MIN KSTC 220445Z 32007KT 10SM OVC022 M06/M11 A3020 770 71 -1600 320/07 RMK AO2 T10611106
14926KSTC STC20191121225011611/21/19 22:50:31  5-MIN KSTC 220450Z 33006KT 10SM OVC022 M06/M11 A3021 770 71 -1600 330/06 RMK AO2 SLP252 T10611106
14926KSTC STC20191121225511411/21/19 22:55:31  5-MIN KSTC 220455Z AUTO 32007KT 10SM OVC022 M06/M11 A3021 770 71 -1600 320/07 RMK AO2 T10611106
14926KSTC STC20191121230011411/21/19 23:00:31  5-MIN KSTC 220500Z AUTO 32009KT 10SM OVC022 M06/M11 A3021 770 71 -1600 320/09 RMK AO2 T10611106
14926KSTC STC20191121230511411/21/19 23:05:31  5-MIN KSTC 220505Z AUTO 31007KT 10SM OVC022 M06/M11 A3021 770 71 -1600 310/07 RMK AO2 T10611106
14926KSTC STC20191121231011411/21/19 23:10:31  5-MIN KSTC 220510Z AUTO 33006KT 10SM OVC022 M06/M11 A3021 770 71 -1600 330/06 RMK AO2 T10611106
14926KSTC STC20191121231511411/21/19 23:15:31  5-MIN KSTC 220515Z AUTO 31007KT 10SM OVC022 M06/M11 A3021 760 71 -1600 310/07 RMK AO2 T10611106
14926KSTC STC20191121232011411/21/19 23:20:31  5-MIN KSTC 220520Z AUTO 31006KT 10SM OVC022 M06/M11 A3022 760 71 -1600 310/06 RMK AO2 T10611106
14926KSTC STC20191121232511411/21/19 23:25:31  5-MIN KSTC 220525Z AUTO 32008KT 10SM OVC022 M06/M11 A3021 760 71 -1600 320/08 RMK AO2 T10611106
14926KSTC STC20191121233011411/21/19 23:30:31  5-MIN KSTC 220530Z AUTO 32007KT 10SM OVC022 M06/M11 A3022 760 71 -1600 320/07 RMK AO2 T10611106
14926KSTC STC20191121233511411/21/19 23:35:31  5-MIN KSTC 220535Z AUTO 32007KT 10SM OVC022 M06/M11 A3022 760 71 -1600 320/07 RMK AO2 T10611106
14926KSTC STC20191121234011411/21/19 23:40:31  5-MIN KSTC 220540Z AUTO 31008KT 10SM OVC022 M06/M11 A3022 760 71 -1600 310/08 RMK AO2 T10611106
14926KSTC STC20191121234511411/21/19 23:45:31  5-MIN KSTC 220545Z AUTO 31009KT 10SM OVC022 M06/M11 A3022 760 71 -1600 310/09 RMK AO2 T10611106
14926KSTC STC20191121235014911/21/19 23:50:31  5-MIN KSTC 220550Z AUTO 31009KT 10SM OVC023 M06/M11 A3022 760 71 -1600 310/09 RMK AO2 SLP258 T10611106 11056 21067 400331067 53019
14926KSTC STC20191121235511411/21/19 23:55:31  5-MIN KSTC 220555Z AUTO 31007KT 10SM OVC023 M06/M11 A3022 760 71 -1600 310/07 RMK AO2 T10611106
14926KSTC STC20191122000011411/22/19 00:00:31  5-MIN KSTC 220600Z AUTO 31008KT 10SM OVC023 M06/M11 A3022 760 71 -1600 310/08 RMK AO2 T10611106
14926KSTC STC20191122000511411/22/19 00:05:31  5-MIN KSTC 220605Z AUTO 31008KT 10SM OVC023 M06/M11 A3022 750 71 -1600 310/08 RMK AO2 T10611106
14926KSTC STC20191122001011411/22/19 00:10:31  5-MIN KSTC 220610Z AUTO 31009KT 10SM OVC023 M06/M11 A3022 760 71 -1600 310/09 RMK AO2 T10611106
14926KSTC STC20191122001511411/22/19 00:15:31  5-MIN KSTC 220615Z AUTO 31009KT 10SM OVC023 M07/M11 A3022 760 74 -1600 310/09 RMK AO2 T10671106
14926KSTC STC20191122002011411/22/19 00:20:31  5-MIN KSTC 220620Z AUTO 31009KT 10SM OVC023 M07/M11 A3022 760 71 -1600 300/09 RMK AO2 T10671111
14926KSTC STC20191122002511411/22/19 00:25:31  5-MIN KSTC 220625Z AUTO 30008KT 10SM OVC023 M07/M11 A3022 760 71 -1700 300/08 RMK AO2 T10671111
14926KSTC STC20191122003011411/22/19 00:30:31  5-MIN KSTC 220630Z AUTO 30008KT 10SM OVC023 M07/M11 A3022 760 71 -1700 300/08 RMK AO2 T10671111
14926KSTC STC20191122003511411/22/19 00:35:31  5-MIN KSTC 220635Z AUTO 30007KT 10SM OVC023 M07/M11 A3022 760 71 -1700 300/07 RMK AO2 T10671111
14926KSTC STC20191122004011411/22/19 00:40:31  5-MIN KSTC 220640Z AUTO 30007KT 10SM OVC023 M07/M11 A3022 760 74 -1600 300/07 RMK AO2 T10671106
14926KSTC STC20191122004511411/22/19 00:45:31  5-MIN KSTC 220645Z AUTO 31008KT 10SM OVC023 M07/M11 A3022 760 74 -1700 310/08 RMK AO2 T10671106
14926KSTC STC20191122005012111/22/19 00:50:31  5-MIN KSTC 220650Z AUTO 30008KT 10SM OVC023 M07/M11 A3022 760 71 -1700 300/08 RMK AO2 SLP258 T10671111
14926KSTC STC20191122005511411/22/19 00:55:31  5-MIN KSTC 220655Z AUTO 31008KT 10SM OVC023 M07/M11 A3022 760 71 -1700 310/08 RMK AO2 T10671111
14926KSTC STC20191122010011411/22/19 01:00:31  5-MIN KSTC 220700Z AUTO 31008KT 10SM OVC023 M07/M11 A3022 760 74 -1700 310/08 RMK AO2 T10671106
14926KSTC STC20191122010511411/22/19 01:05:31  5-MIN KSTC 220705Z AUTO 32007KT 10SM OVC023 M07/M11 A3022 760 71 -1600 310/07 RMK AO2 T10671111
14926KSTC STC20191122011011411/22/19 01:10:31  5-MIN KSTC 220710Z AUTO 31006KT 10SM BKN023 M07/M11 A3022 760 74 -1700 310/06 RMK AO2 T10721111
14926KSTC STC20191122011511411/22/19 01:15:31  5-MIN KSTC 220715Z AUTO 31006KT 10SM BKN023 M07/M11 A3022 760 74 -1700 310/06 RMK AO2 T10721111
14926KSTC STC20191122012011411/22/19 01:20:31  5-MIN KSTC 220720Z AUTO 32005KT 10SM BKN023 M08/M11 A3022 760 80 -1800 310/05 RMK AO2 T10781106
14926KSTC STC20191122012511411/22/19 01:25:31  5-MIN KSTC 220725Z AUTO 32005KT 10SM OVC021 M07/M11 A3022 760 77 -1700 310/05 RMK AO2 T10721106
14926KSTC STC20191122013011411/22/19 01:30:31  5-MIN KSTC 220730Z AUTO 31006KT 10SM OVC021 M07/M11 A3021 760 77 -1700 310/06 RMK AO2 T10721106
14926KSTC STC20191122013511411/22/19 01:35:31  5-MIN KSTC 220735Z AUTO 31006KT 10SM OVC021 M07/M11 A3021 760 74 -1600 310/06 RMK AO2 T10671106
14926KSTC STC20191122014011411/22/19 01:40:31  5-MIN KSTC 220740Z AUTO 30005KT 10SM OVC020 M07/M11 A3021 760 74 -1600 300/05 RMK AO2 T10671106
14926KSTC STC20191122014511411/22/19 01:45:31  5-MIN KSTC 220745Z AUTO 30005KT 10SM OVC020 M07/M11 A3021 770 74 -1600 300/05 RMK AO2 T10671106
14926KSTC STC20191122015012111/22/19 01:50:31  5-MIN KSTC 220750Z AUTO 28006KT 10SM OVC020 M07/M11 A3021 770 74 -1600 280/06 RMK AO2 SLP255 T10671106
14926KSTC STC20191122015511411/22/19 01:55:31  5-MIN KSTC 220755Z AUTO 28008KT 10SM OVC019 M07/M11 A3021 770 74 -1600 280/08 RMK AO2 T10671106
14926KSTC STC20191122020011411/22/19 02:00:31  5-MIN KSTC 220800Z AUTO 29008KT 10SM OVC019 M07/M11 A3021 770 74 -1600 290/08 RMK AO2 T10671106
14926KSTC STC20191122020511411/22/19 02:05:31  5-MIN KSTC 220805Z AUTO 31006KT 10SM OVC019 M07/M11 A3021 770 74 -1600 310/06 RMK AO2 T10671106
14926KSTC STC20191122021011411/22/19 02:10:31  5-MIN KSTC 220810Z AUTO 32007KT 10SM OVC019 M07/M11 A3021 770 74 -1600 310/07 RMK AO2 T10671106
14926KSTC STC20191122021511411/22/19 02:15:31  5-MIN KSTC 220815Z AUTO 32006KT 10SM OVC018 M07/M11 A3021 770 74 -1600 310/06 RMK AO2 T10671106
14926KSTC STC20191122022011411/22/19 02:20:31  5-MIN KSTC 220820Z AUTO 31007KT 10SM OVC018 M07/M11 A3021 770 74 -1600 310/07 RMK AO2 T10671106
14926KSTC STC20191122022511411/22/19 02:25:31  5-MIN KSTC 220825Z AUTO 29008KT 10SM OVC018 M07/M11 A3021 760 74 -1600 290/08 RMK AO2 T10671106
14926KSTC STC20191122023011411/22/19 02:30:31  5-MIN KSTC 220830Z AUTO 29009KT 10SM OVC018 M07/M11 A3021 760 74 -1600 290/09 RMK AO2 T10671106
14926KSTC STC20191122023511411/22/19 02:35:31  5-MIN KSTC 220835Z AUTO 32009KT 10SM OVC018 M07/M11 A3021 760 77 -1700 310/09 RMK AO2 T10721106
14926KSTC STC20191122024011411/22/19 02:40:31  5-MIN KSTC 220840Z AUTO 30008KT 10SM OVC018 M07/M11 A3021 760 77 -1700 300/08 RMK AO2 T10721106
14926KSTC STC20191122024511411/22/19 02:45:31  5-MIN KSTC 220845Z AUTO 28008KT 10SM OVC018 M07/M11 A3021 760 74 -1600 280/08 RMK AO2 T10671106
14926KSTC STC20191122025012711/22/19 02:50:31  5-MIN KSTC 220850Z AUTO 28010KT 10SM OVC018 M07/M11 A3022 760 77 -1700 280/10 RMK AO2 SLP258 T10721106 53011
14926KSTC STC20191122025511411/22/19 02:55:31  5-MIN KSTC 220855Z AUTO 28008KT 10SM OVC017 M07/M11 A3021 760 77 -1700 280/08 RMK AO2 T10721106
14926KSTC STC20191122030011411/22/19 03:00:31  5-MIN KSTC 220900Z AUTO 29008KT 10SM OVC017 M07/M11 A3021 760 77 -1700 290/08 RMK AO2 T10721106
14926KSTC STC20191122030511411/22/19 03:05:31  5-MIN KSTC 220905Z AUTO 29008KT 10SM OVC017 M07/M11 A3021 770 77 -1700 290/08 RMK AO2 T10721106
14926KSTC STC20191122031011411/22/19 03:10:31  5-MIN KSTC 220910Z AUTO 30009KT 10SM OVC017 M07/M11 A3021 770 77 -1700 290/09 RMK AO2 T10721106
14926KSTC STC20191122031511411/22/19 03:15:31  5-MIN KSTC 220915Z AUTO 31008KT 10SM OVC017 M07/M11 A3021 770 74 -1700 310/08 RMK AO2 T10721111
14926KSTC STC20191122032011411/22/19 03:20:31  5-MIN KSTC 220920Z AUTO 31008KT 10SM BKN016 M08/M11 A3021 770 77 -1800 310/08 RMK AO2 T10781111
14926KSTC STC20191122032511411/22/19 03:25:31  5-MIN KSTC 220925Z AUTO 31007KT 10SM OVC016 M08/M11 A3021 770 80 -1800 310/07 RMK AO2 T10781106
14926KSTC STC20191122033011411/22/19 03:30:31  5-MIN KSTC 220930Z AUTO 31008KT 10SM OVC016 M07/M11 A3021 760 77 -1700 310/08 RMK AO2 T10721106
14926KSTC STC20191122033511411/22/19 03:35:31  5-MIN KSTC 220935Z AUTO 32009KT 10SM OVC015 M07/M11 A3021 760 77 -1700 320/09 RMK AO2 T10721106
14926KSTC STC20191122034011411/22/19 03:40:31  5-MIN KSTC 220940Z AUTO 31009KT 10SM OVC015 M07/M11 A3021 760 77 -1700 310/09 RMK AO2 T10721106
14926KSTC STC20191122034511411/22/19 03:45:31  5-MIN KSTC 220945Z AUTO 31009KT 10SM OVC015 M08/M11 A3021 760 80 -1800 310/09 RMK AO2 T10781106
14926KSTC STC20191122035012111/22/19 03:50:31  5-MIN KSTC 220950Z AUTO 32008KT 10SM OVC015 M08/M11 A3022 760 80 -1800 320/08 RMK AO2 SLP259 T10781106
14926KSTC STC20191122035511411/22/19 03:55:31  5-MIN KSTC 220955Z AUTO 31007KT 10SM OVC015 M08/M11 A3022 760 80 -1800 310/07 RMK AO2 T10781106
14926KSTC STC20191122040011411/22/19 04:00:31  5-MIN KSTC 221000Z AUTO 31008KT 10SM OVC015 M08/M11 A3021 760 80 -1800 310/08 RMK AO2 T10781106
14926KSTC STC20191122040511411/22/19 04:05:31  5-MIN KSTC 221005Z AUTO 30010KT 10SM OVC014 M08/M11 A3022 760 80 -1800 300/10 RMK AO2 T10781106
14926KSTC STC20191122041011411/22/19 04:10:31  5-MIN KSTC 221010Z AUTO 30009KT 10SM OVC014 M08/M11 A3021 760 80 -1800 300/09 RMK AO2 T10781106
14926KSTC STC20191122041511411/22/19 04:15:31  5-MIN KSTC 221015Z AUTO 30007KT 10SM OVC013 M08/M11 A3022 760 80 -1800 300/07 RMK AO2 T10781106
14926KSTC STC20191122042011411/22/19 04:20:31  5-MIN KSTC 221020Z AUTO 29008KT 10SM OVC013 M08/M11 A3022 760 77 -1800 290/08 RMK AO2 T10781111
14926KSTC STC20191122042511411/22/19 04:25:31  5-MIN KSTC 221025Z AUTO 29008KT 10SM OVC013 M08/M11 A3022 760 77 -1800 290/08 RMK AO2 T10781111
14926KSTC STC20191122043011411/22/19 04:30:31  5-MIN KSTC 221030Z AUTO 29006KT 10SM OVC013 M08/M11 A3022 760 80 -1800 290/06 RMK AO2 T10781106
14926KSTC STC20191122043511411/22/19 04:35:31  5-MIN KSTC 221035Z AUTO 29007KT 10SM OVC013 M08/M11 A3022 760 80 -1800 280/07 RMK AO2 T10781106
14926KSTC STC20191122044011411/22/19 04:40:31  5-MIN KSTC 221040Z AUTO 32006KT 10SM OVC013 M08/M11 A3021 760 80 -1800 320/06 RMK AO2 T10781106
14926KSTC STC20191122044511411/22/19 04:45:31  5-MIN KSTC 221045Z AUTO 31006KT 10SM OVC012 M08/M11 A3021 760 80 -1800 310/06 RMK AO2 T10781106
14926KSTC STC20191122045012111/22/19 04:50:31  5-MIN KSTC 221050Z AUTO 29006KT 10SM OVC012 M08/M11 A3021 760 80 -1800 290/06 RMK AO2 SLP257 T10781106
14926KSTC STC20191122045511411/22/19 04:55:31  5-MIN KSTC 221055Z AUTO 28006KT 10SM OVC012 M08/M11 A3021 760 80 -1800 280/06 RMK AO2 T10781106
14926KSTC STC20191122050011411/22/19 05:00:31  5-MIN KSTC 221100Z AUTO 27005KT 10SM OVC012 M08/M11 A3022 760 80 -1800 270/05 RMK AO2 T10781106
14926KSTC STC20191122050511411/22/19 05:05:31  5-MIN KSTC 221105Z AUTO 27006KT 10SM OVC012 M08/M11 A3021 760 80 -1800 270/06 RMK AO2 T10781106
14926KSTC STC20191122051011411/22/19 05:10:31  5-MIN KSTC 221110Z AUTO 27005KT 10SM OVC012 M08/M11 A3022 760 80 -1800 270/05 RMK AO2 T10781106
14926KSTC STC20191122051511411/22/19 05:15:31  5-MIN KSTC 221115Z AUTO 25006KT 10SM OVC012 M08/M11 A3021 760 80 -1800 250/06 RMK AO2 T10781106
14926KSTC STC20191122052011411/22/19 05:20:31  5-MIN KSTC 221120Z AUTO 26007KT 10SM OVC012 M08/M11 A3021 760 80 -1800 260/07 RMK AO2 T10781106
14926KSTC STC20191122052511411/22/19 05:25:31  5-MIN KSTC 221125Z AUTO 29005KT 10SM OVC011 M08/M11 A3021 760 84 -1900 290/05 RMK AO2 T10831106
14926KSTC STC20191122053011411/22/19 05:30:31  5-MIN KSTC 221130Z AUTO 28006KT 10SM OVC011 M08/M11 A3021 770 84 -1900 270/06 RMK AO2 T10831106
14926KSTC STC20191122053511411/22/19 05:35:31  5-MIN KSTC 221135Z AUTO 30005KT 10SM OVC011 M08/M11 A3021 770 84 -1900 300/05 RMK AO2 T10831106
14926KSTC STC20191122054011411/22/19 05:40:31  5-MIN KSTC 221140Z AUTO 28005KT 10SM OVC011 M08/M11 A3021 770 84 -1900 270/05 RMK AO2 T10831106
14926KSTC STC20191122054511411/22/19 05:45:31  5-MIN KSTC 221145Z AUTO 26004KT 10SM OVC011 M08/M11 A3021 770 84 -1900 260/04 RMK AO2 T10831106
14926KSTC STC20191122055014511/22/19 05:50:31  5-MIN KSTC 221150Z AUTO 28005KT 10SM OVC011 M08/M11 A3021 770 84 -1900 280/05 RMK AO2 SLP256 70003 T10831106 11061 21083 55002
14926KSTC STC20191122055511411/22/19 05:55:31  5-MIN KSTC 221155Z AUTO 28005KT 10SM OVC011 M08/M11 A3020 770 84 -1800 280/05 RMK AO2 T10831106
14926KSTC STC20191122060011411/22/19 06:00:31  5-MIN KSTC 221200Z AUTO 29005KT 10SM OVC011 M08/M11 A3021 770 80 -1800 290/05 RMK AO2 T10781106
14926KSTC STC20191122060511411/22/19 06:05:31  5-MIN KSTC 221205Z AUTO 27006KT 10SM OVC011 M08/M11 A3021 770 84 -1900 260/06 RMK AO2 T10831106
14926KSTC STC20191122061011411/22/19 06:10:31  5-MIN KSTC 221210Z AUTO 25006KT 10SM OVC010 M08/M11 A3021 770 84 -1900 250/06 RMK AO2 T10831106
14926KSTC STC20191122061511411/22/19 06:15:31  5-MIN KSTC 221215Z AUTO 23005KT 10SM OVC010 M08/M11 A3020 770 84 -1800 230/05 RMK AO2 T10831106
14926KSTC STC20191122062011411/22/19 06:20:31  5-MIN KSTC 221220Z AUTO 29005KT 10SM OVC010 M08/M11 A3020 770 84 -1800 290/05 RMK AO2 T10831106
14926KSTC STC20191122062511411/22/19 06:25:31  5-MIN KSTC 221225Z AUTO 29005KT 10SM OVC010 M08/M11 A3020 780 84 -1800 290/05 RMK AO2 T10831106
14926KSTC STC20191122063010411/22/19 06:30:31  5-MIN KSTC 221230Z AUTO 10SM OVC010 M08/M11 A3020 780 80 -1800 M /M RMK AO2 T10831111
14926KSTC STC20191122063510411/22/19 06:35:31  5-MIN KSTC 221235Z AUTO 10SM OVC009 M09/M11 A3020 780 84 -1900 M /M RMK AO2 T10891111
14926KSTC STC20191122064010411/22/19 06:40:31  5-MIN KSTC 221240Z AUTO 10SM BKN009 M09/M11 A3020 780 84 -1900 M /M RMK AO2 T10891111
14926KSTC STC20191122064510411/22/19 06:45:31  5-MIN KSTC 221245Z AUTO 10SM BKN009 M09/M11 A3020 780 84 -1900 M /M RMK AO2 T10891111
14926KSTC STC20191122065011611/22/19 06:50:31  5-MIN KSTC 221250Z 26003KT 10SM BKN009 M08/M11 A3020 780 84 -1800 260/03 RMK AO2 SLP253 T10831106
14926KSTC STC20191122065509911/22/19 06:55:31  5-MIN KSTC 221255Z 10SM BKN009 M08/M11 A3020 780 84 -1800 M /M RMK AO2 T10831106
14926KSTC STC20191122070010911/22/19 07:00:31  5-MIN KSTC 221300Z 21004KT 10SM BKN009 M08/M11 A3020 780 84 -1800 210/04 RMK AO2 T10831106
14926KSTC STC20191122070510911/22/19 07:05:31  5-MIN KSTC 221305Z 23004KT 10SM BKN009 M08/M11 A3020 780 84 -1800 230/04 RMK AO2 T10831106
14926KSTC STC20191122071010911/22/19 07:10:31  5-MIN KSTC 221310Z 23003KT 10SM BKN009 M08/M11 A3020 780 84 -1800 220/03 RMK AO2 T10831106
14926KSTC STC20191122071510911/22/19 07:15:31  5-MIN KSTC 221315Z 23006KT 10SM OVC009 M08/M11 A3020 780 84 -1800 230/06 RMK AO2 T10831106
14926KSTC STC20191122072010911/22/19 07:20:31  5-MIN KSTC 221320Z 22006KT 10SM OVC009 M08/M11 A3020 780 84 -1800 220/06 RMK AO2 T10831106
14926KSTC STC20191122072510911/22/19 07:25:31  5-MIN KSTC 221325Z 23006KT 10SM BKN009 M08/M11 A3020 780 84 -1800 230/06 RMK AO2 T10831106
14926KSTC STC20191122073010911/22/19 07:30:31  5-MIN KSTC 221330Z 23004KT 10SM BKN009 M08/M11 A3020 780 84 -1800 230/04 RMK AO2 T10831106
14926KSTC STC20191122073510911/22/19 07:35:31  5-MIN KSTC 221335Z 24003KT 10SM BKN018 M08/M11 A3019 780 84 -1800 230/03 RMK AO2 T10831106
14926KSTC STC20191122074010911/22/19 07:40:31  5-MIN KSTC 221340Z 00000KT 10SM BKN018 M08/M10 A3020 780 88 -1800 000/00 RMK AO2 T10831100
14926KSTC STC20191122074510911/22/19 07:45:31  5-MIN KSTC 221345Z 24005KT 10SM BKN018 M08/M10 A3020 780 88 -1800 240/05 RMK AO2 T10831100
14926KSTC STC20191122075011611/22/19 07:50:31  5-MIN KSTC 221350Z 22006KT 10SM BKN018 M08/M10 A3020 780 88 -1800 220/06 RMK AO2 SLP253 T10831100
14926KSTC STC20191122075510911/22/19 07:55:31  5-MIN KSTC 221355Z 23004KT 10SM OVC008 M08/M10 A3020 780 88 -1800 220/04 RMK AO2 T10831100
14926KSTC STC20191122080010911/22/19 08:00:31  5-MIN KSTC 221400Z 24007KT 10SM OVC008 M08/M10 A3020 780 88 -1800 240/07 RMK AO2 T10831100
14926KSTC STC20191122080510911/22/19 08:05:31  5-MIN KSTC 221405Z 22007KT 10SM OVC008 M08/M10 A3020 780 88 -1800 220/07 RMK AO2 T10831100
14926KSTC STC20191122081010911/22/19 08:10:31  5-MIN KSTC 221410Z 26006KT 10SM OVC008 M08/M10 A3020 770 84 -1800 260/06 RMK AO2 T10781100
14926KSTC STC20191122081510911/22/19 08:15:31  5-MIN KSTC 221415Z 25007KT 10SM OVC008 M08/M10 A3021 770 84 -1800 250/07 RMK AO2 T10781100
14926KSTC STC20191122082010911/22/19 08:20:31  5-MIN KSTC 221420Z 26008KT 10SM OVC008 M08/M10 A3021 770 84 -1800 260/08 RMK AO2 T10781100
14926KSTC STC20191122082510911/22/19 08:25:31  5-MIN KSTC 221425Z 25008KT 10SM OVC008 M08/M10 A3021 770 84 -1800 250/08 RMK AO2 T10781100
14926KSTC STC20191122083010911/22/19 08:30:31  5-MIN KSTC 221430Z 23007KT 10SM OVC008 M08/M10 A3021 770 88 -1900 230/07 RMK AO2 T10831100
14926KSTC STC20191122083510911/22/19 08:35:31  5-MIN KSTC 221435Z 24010KT 10SM OVC008 M08/M10 A3021 770 88 -1900 240/10 RMK AO2 T10831100
14926KSTC STC20191122084010911/22/19 08:40:31  5-MIN KSTC 221440Z 26007KT 10SM OVC008 M08/M11 A3021 770 84 -1900 260/07 RMK AO2 T10831106
14926KSTC STC20191122084510911/22/19 08:45:31  5-MIN KSTC 221445Z 24008KT 10SM OVC008 M08/M10 A3021 770 84 -1800 240/08 RMK AO2 T10781100
14926KSTC STC20191122085012211/22/19 08:50:31  5-MIN KSTC 221450Z 22006KT 10SM OVC008 M08/M10 A3021 770 88 -1900 220/06 RMK AO2 SLP256 T10831100 58003
14926KSTC STC20191122085510911/22/19 08:55:31  5-MIN KSTC 221455Z 23008KT 10SM OVC008 M08/M10 A3020 770 84 -1800 230/08 RMK AO2 T10781100
14926KSTC STC20191122090010911/22/19 09:00:31  5-MIN KSTC 221500Z 24007KT 10SM OVC008 M08/M10 A3020 770 88 -1800 240/07 RMK AO2 T10831100
14926KSTC STC20191122090510911/22/19 09:05:31  5-MIN KSTC 221505Z 25006KT 10SM BKN008 M08/M10 A3020 770 84 -1800 250/06 RMK AO2 T10781100
14926KSTC STC20191122091010911/22/19 09:10:31  5-MIN KSTC 221510Z 25008KT 10SM BKN008 M08/M10 A3020 770 84 -1800 250/08 RMK AO2 T10781100
14926KSTC STC20191122091510911/22/19 09:15:31  5-MIN KSTC 221515Z 24008KT 10SM BKN008 M08/M10 A3020 770 84 -1800 240/08 RMK AO2 T10781100
14926KSTC STC20191122092010911/22/19 09:20:31  5-MIN KSTC 221520Z 25008KT 10SM SCT019 M08/M10 A3020 780 84 -1800 240/08 RMK AO2 T10781100
14926KSTC STC20191122092510911/22/19 09:25:31  5-MIN KSTC 221525Z 23008KT 10SM SCT019 M07/M10 A3020 780 81 -1700 230/08 RMK AO2 T10721100
14926KSTC STC20191122093010911/22/19 09:30:31  5-MIN KSTC 221530Z 25008KT 10SM SCT019 M07/M09 A3020 780 84 -1700 240/08 RMK AO2 T10721094
14926KSTC STC20191122093510911/22/19 09:35:31  5-MIN KSTC 221535Z 24006KT 10SM SCT019 M07/M10 A3020 780 81 -1700 240/06 RMK AO2 T10721100
14926KSTC STC20191122094010911/22/19 09:40:31  5-MIN KSTC 221540Z 22006KT 10SM SCT019 M07/M10 A3020 770 81 -1700 210/06 RMK AO2 T10721100
14926KSTC STC20191122094510911/22/19 09:45:31  5-MIN KSTC 221545Z 21008KT 10SM SCT019 M07/M10 A3020 780 81 -1700 210/08 RMK AO2 T10721100
14926KSTC STC20191122095011611/22/19 09:50:31  5-MIN KSTC 221550Z 21008KT 10SM SCT019 M07/M10 A3020 780 81 -1700 210/08 RMK AO2 SLP254 T10721100
14926KSTC STC20191122095510611/22/19 09:55:31  5-MIN KSTC 221555Z 20007KT 10SM CLR M07/M10 A3020 780 81 -1700 200/07 RMK AO2 T10721100
14926KSTC STC20191122100010611/22/19 10:00:31  5-MIN KSTC 221600Z 21005KT 10SM CLR M07/M10 A3020 780 81 -1700 210/05 RMK AO2 T10721100
14926KSTC STC20191122100510611/22/19 10:05:31  5-MIN KSTC 221605Z 21007KT 10SM CLR M07/M10 A3020 770 77 -1600 210/07 RMK AO2 T10671100
14926KSTC STC20191122101010611/22/19 10:10:31  5-MIN KSTC 221610Z 20007KT 10SM CLR M07/M09 A3020 780 81 -1600 200/07 RMK AO2 T10671094
14926KSTC STC20191122101510611/22/19 10:15:31  5-MIN KSTC 221615Z 20008KT 10SM CLR M07/M10 A3020 780 77 -1600 200/08 RMK AO2 T10671100
14926KSTC STC20191122102010611/22/19 10:20:31  5-MIN KSTC 221620Z 20007KT 10SM CLR M07/M10 A3020 780 77 -1600 200/07 RMK AO2 T10671100
14926KSTC STC20191122102510611/22/19 10:25:31  5-MIN KSTC 221625Z 20009KT 10SM CLR M07/M10 A3020 780 77 -1600 200/09 RMK AO2 T10671100
14926KSTC STC20191122103010611/22/19 10:30:31  5-MIN KSTC 221630Z 21008KT 10SM CLR M07/M10 A3019 780 77 -1600 210/08 RMK AO2 T10671100
14926KSTC STC20191122103510611/22/19 10:35:31  5-MIN KSTC 221635Z 21005KT 10SM CLR M06/M10 A3019 780 74 -1500 210/05 RMK AO2 T10611100
14926KSTC STC20191122104010611/22/19 10:40:31  5-MIN KSTC 221640Z 18006KT 10SM CLR M06/M09 A3019 780 77 -1500 180/06 RMK AO2 T10611094
14926KSTC STC20191122104510611/22/19 10:45:31  5-MIN KSTC 221645Z 20008KT 10SM CLR M06/M10 A3019 780 74 -1500 200/08 RMK AO2 T10611100
14926KSTC STC20191122105011311/22/19 10:50:31  5-MIN KSTC 221650Z 21008KT 10SM CLR M06/M10 A3019 790 74 -1500 210/08 RMK AO2 SLP250 T10611100
14926KSTC STC20191122105510611/22/19 10:55:31  5-MIN KSTC 221655Z 21009KT 10SM CLR M06/M09 A3019 790 74 -1500 210/09 RMK AO2 T10561094
14926KSTC STC20191122110010611/22/19 11:00:31  5-MIN KSTC 221700Z 21007KT 10SM CLR M06/M10 A3019 790 74 -1500 210/07 RMK AO2 T10611100
14926KSTC STC20191122110510611/22/19 11:05:31  5-MIN KSTC 221705Z 22007KT 10SM CLR M06/M09 A3019 790 74 -1500 220/07 RMK AO2 T10561094
14926KSTC STC20191122111010611/22/19 11:10:31  5-MIN KSTC 221710Z 20007KT 10SM CLR M05/M09 A3018 790 71 -1400 200/07 RMK AO2 T10501094
14926KSTC STC20191122111510611/22/19 11:15:31  5-MIN KSTC 221715Z 20007KT 10SM CLR M05/M09 A3018 790 71 -1400 200/07 RMK AO2 T10501094
14926KSTC STC20191122112010611/22/19 11:20:31  5-MIN KSTC 221720Z 21007KT 10SM CLR M05/M09 A3017 800 71 -1400 200/07 RMK AO2 T10501094
14926KSTC STC20191122112510611/22/19 11:25:31  5-MIN KSTC 221725Z 20006KT 10SM CLR M05/M09 A3017 800 71 -1400 200/06 RMK AO2 T10501094
14926KSTC STC20191122113010611/22/19 11:30:31  5-MIN KSTC 221730Z 19008KT 10SM CLR M05/M09 A3017 800 71 -1400 190/08 RMK AO2 T10501094
14926KSTC STC20191122113510611/22/19 11:35:31  5-MIN KSTC 221735Z 23007KT 10SM CLR M05/M09 A3017 810 71 -1400 230/07 RMK AO2 T10501094
14926KSTC STC20191122114010611/22/19 11:40:31  5-MIN KSTC 221740Z 22008KT 10SM CLR M04/M09 A3017 810 71 -1300 210/08 RMK AO2 T10441089
14926KSTC STC20191122114510611/22/19 11:45:31  5-MIN KSTC 221745Z 21007KT 10SM CLR M05/M09 A3016 810 71 -1400 210/07 RMK AO2 T10501094
14926KSTC STC20191122115013111/22/19 11:50:31  5-MIN KSTC 221750Z 20008KT 10SM CLR M04/M09 A3016 820 68 -1300 200/08 RMK AO2 SLP237 T10441094 11044 21089 53001
14926KSTC STC20191122115510611/22/19 11:55:31  5-MIN KSTC 221755Z 19009KT 10SM CLR M04/M09 A3015 820 68 -1300 190/09 RMK AO2 T10441094
14926KSTC STC20191122120010611/22/19 12:00:31  5-MIN KSTC 221800Z 20007KT 10SM CLR M04/M09 A3015 820 68 -1300 200/07 RMK AO2 T10441094
14926KSTC STC20191122120510611/22/19 12:05:31  5-MIN KSTC 221805Z 18007KT 10SM CLR M04/M09 A3015 830 68 -1200 180/07 RMK AO2 T10391089
14926KSTC STC20191122121010611/22/19 12:10:31  5-MIN KSTC 221810Z 20007KT 10SM CLR M04/M09 A3014 830 65 -1200 200/07 RMK AO2 T10391094
14926KSTC STC20191122121510611/22/19 12:15:31  5-MIN KSTC 221815Z 20008KT 10SM CLR M04/M09 A3014 830 65 -1200 200/08 RMK AO2 T10391094
14926KSTC STC20191122122010611/22/19 12:20:31  5-MIN KSTC 221820Z 19007KT 10SM CLR M04/M09 A3014 830 65 -1200 190/07 RMK AO2 T10391094
14926KSTC STC20191122122510611/22/19 12:25:31  5-MIN KSTC 221825Z 20006KT 10SM CLR M03/M09 A3013 840 63 -1100 190/06 RMK AO2 T10331094
14926KSTC STC20191122123010611/22/19 12:30:31  5-MIN KSTC 221830Z 19008KT 10SM CLR M03/M09 A3013 840 65 -1100 190/08 RMK AO2 T10331089
14926KSTC STC20191122123510611/22/19 12:35:31  5-MIN KSTC 221835Z 18008KT 10SM CLR M03/M09 A3013 840 65 -1100 180/08 RMK AO2 T10331089
14926KSTC STC20191122124010611/22/19 12:40:31  5-MIN KSTC 221840Z 20006KT 10SM CLR M03/M09 A3013 840 63 -1000 200/06 RMK AO2 T10281089
14926KSTC STC20191122124510611/22/19 12:45:31  5-MIN KSTC 221845Z 18008KT 10SM CLR M03/M09 A3012 850 63 -1000 180/08 RMK AO2 T10281089
14926KSTC STC20191122125011311/22/19 12:50:31  5-MIN KSTC 221850Z 19006KT 10SM CLR M03/M09 A3012 850 63 -1000 190/06 RMK AO2 SLP225 T10281089
14926KSTC STC20191122125510611/22/19 12:55:31  5-MIN KSTC 221855Z 22010KT 10SM CLR M03/M09 A3012 850 63 -1000 220/10 RMK AO2 T10281089
14926KSTC STC20191122130010611/22/19 13:00:31  5-MIN KSTC 221900Z 21008KT 10SM CLR M02/M09 A3012 850 60 -1000 210/08 RMK AO2 T10221089
14926KSTC STC20191122130510611/22/19 13:05:31  5-MIN KSTC 221905Z 22006KT 10SM CLR M02/M09 A3012 850 60 -1000 220/06 RMK AO2 T10221089
14926KSTC STC20191122131010611/22/19 13:10:31  5-MIN KSTC 221910Z 20006KT 10SM CLR M02/M09 A3011 860 60 -1000 200/06 RMK AO2 T10221089
14926KSTC STC20191122131510611/22/19 13:15:31  5-MIN KSTC 221915Z 21007KT 10SM CLR M02/M08 A3011 860 63 -1000 200/07 RMK AO2 T10221083
14926KSTC STC20191122132010611/22/19 13:20:31  5-MIN KSTC 221920Z 20009KT 10SM CLR M02/M09 A3011 860 60 -1000 200/09 RMK AO2 T10221089
14926KSTC STC20191122132510511/22/19 13:25:31  5-MIN KSTC 221925Z 19009KT 10SM CLR M02/M09 A3011 860 58 -900 190/09 RMK AO2 T10171089
14926KSTC STC20191122133010511/22/19 13:30:31  5-MIN KSTC 221930Z 21007KT 10SM CLR M02/M09 A3011 860 60 -900 200/07 RMK AO2 T10221089
14926KSTC STC20191122133510511/22/19 13:35:31  5-MIN KSTC 221935Z 20006KT 10SM CLR M02/M09 A3010 860 58 -900 200/06 RMK AO2 T10171089
14926KSTC STC20191122134010511/22/19 13:40:31  5-MIN KSTC 221940Z 20008KT 10SM CLR M02/M09 A3011 860 58 -900 200/08 RMK AO2 T10171089
14926KSTC STC20191122134510511/22/19 13:45:31  5-MIN KSTC 221945Z 20009KT 10SM CLR M02/M09 A3010 870 58 -900 200/09 RMK AO2 T10171089
14926KSTC STC20191122135011211/22/19 13:50:31  5-MIN KSTC 221950Z 22010KT 10SM CLR M02/M09 A3010 870 55 -900 210/10 RMK AO2 SLP217 T10171094
14926KSTC STC20191122135510511/22/19 13:55:31  5-MIN KSTC 221955Z 20010KT 10SM CLR M01/M09 A3010 870 55 -800 200/10 RMK AO2 T10111089
14926KSTC STC20191122140010511/22/19 14:00:31  5-MIN KSTC 222000Z 21008KT 10SM CLR M01/M09 A3009 880 55 -800 210/08 RMK AO2 T10111089
14926KSTC STC20191122140510511/22/19 14:05:31  5-MIN KSTC 222005Z 20008KT 10SM CLR M01/M09 A3009 880 53 -800 200/08 RMK AO2 T10111094
14926KSTC STC20191122141010511/22/19 14:10:31  5-MIN KSTC 222010Z 20009KT 10SM CLR M01/M09 A3009 880 55 -800 200/09 RMK AO2 T10111089
14926KSTC STC20191122141510511/22/19 14:15:31  5-MIN KSTC 222015Z 20009KT 10SM CLR M01/M09 A3008 880 55 -800 200/09 RMK AO2 T10111089
14926KSTC STC20191122142010511/22/19 14:20:31  5-MIN KSTC 222020Z 20009KT 10SM CLR M01/M09 A3008 880 55 -800 190/09 RMK AO2 T10111089
14926KSTC STC20191122142510511/22/19 14:25:31  5-MIN KSTC 222025Z 20010KT 10SM CLR M01/M09 A3008 890 55 -800 200/10 RMK AO2 T10111089
14926KSTC STC20191122143010511/22/19 14:30:31  5-MIN KSTC 222030Z 20009KT 10SM CLR M01/M09 A3008 890 55 -800 200/09 RMK AO2 T10111089
14926KSTC STC20191122143510511/22/19 14:35:31  5-MIN KSTC 222035Z 20010KT 10SM CLR M01/M09 A3008 890 55 -800 200/10 RMK AO2 T10111089
14926KSTC STC20191122144010511/22/19 14:40:31  5-MIN KSTC 222040Z 22007KT 10SM CLR M01/M09 A3008 890 53 -700 220/07 RMK AO2 T10061089
14926KSTC STC20191122144510511/22/19 14:45:31  5-MIN KSTC 222045Z 21007KT 10SM CLR M01/M09 A3007 890 53 -700 200/07 RMK AO2 T10061089
14926KSTC STC20191122145011811/22/19 14:50:31  5-MIN KSTC 222050Z 20007KT 10SM CLR M01/M08 A3007 890 56 -700 200/07 RMK AO2 SLP208 T10061083 58018
14926KSTC STC20191122145510511/22/19 14:55:31  5-MIN KSTC 222055Z 21009KT 10SM CLR M01/M08 A3007 900 56 -700 210/09 RMK AO2 T10061083
14926KSTC STC20191122150010511/22/19 15:00:31  5-MIN KSTC 222100Z 20009KT 10SM CLR M01/M09 A3007 900 53 -700 200/09 RMK AO2 T10061089
14926KSTC STC20191122150510511/22/19 15:05:31  5-MIN KSTC 222105Z 18010KT 10SM CLR M01/M08 A3007 900 56 -700 180/10 RMK AO2 T10061083
14926KSTC STC20191122151010511/22/19 15:10:31  5-MIN KSTC 222110Z 18009KT 10SM CLR M01/M08 A3007 900 56 -700 180/09 RMK AO2 T10061083
14926KSTC STC20191122151510511/22/19 15:15:31  5-MIN KSTC 222115Z 19011KT 10SM CLR M01/M08 A3007 900 56 -700 190/11 RMK AO2 T10061083
14926KSTC STC20191122152010511/22/19 15:20:31  5-MIN KSTC 222120Z 18011KT 10SM CLR M01/M08 A3006 900 56 -700 180/11 RMK AO2 T10061083
14926KSTC STC20191122152510511/22/19 15:25:31  5-MIN KSTC 222125Z 19009KT 10SM CLR M01/M08 A3006 900 56 -700 190/09 RMK AO2 T10061083
14926KSTC STC20191122153010511/22/19 15:30:31  5-MIN KSTC 222130Z 20010KT 10SM CLR M01/M08 A3006 900 56 -700 200/10 RMK AO2 T10061083
14926KSTC STC20191122153510511/22/19 15:35:31  5-MIN KSTC 222135Z 19009KT 10SM CLR M01/M08 A3006 900 56 -700 190/09 RMK AO2 T10061083
14926KSTC STC20191122154010511/22/19 15:40:31  5-MIN KSTC 222140Z 18008KT 10SM CLR M01/M08 A3006 900 58 -700 180/08 RMK AO2 T10061078
14926KSTC STC20191122154510511/22/19 15:45:31  5-MIN KSTC 222145Z 20010KT 10SM CLR M01/M08 A3006 900 60 -800 200/10 RMK AO2 T10111078
14926KSTC STC20191122155011211/22/19 15:50:31  5-MIN KSTC 222150Z 19010KT 10SM CLR M01/M08 A3006 910 60 -800 190/10 RMK AO2 SLP204 T10111078
14926KSTC STC20191122155510511/22/19 15:55:31  5-MIN KSTC 222155Z 19009KT 10SM CLR M01/M08 A3006 910 60 -800 190/09 RMK AO2 T10111078
14926KSTC STC20191122160010511/22/19 16:00:31  5-MIN KSTC 222200Z 19010KT 10SM CLR M01/M08 A3006 910 60 -800 190/10 RMK AO2 T10111078
14926KSTC STC20191122160510511/22/19 16:05:31  5-MIN KSTC 222205Z 19009KT 10SM CLR M01/M08 A3006 910 60 -800 190/09 RMK AO2 T10111078
14926KSTC STC20191122161010511/22/19 16:10:31  5-MIN KSTC 222210Z 19009KT 10SM CLR M01/M08 A3005 910 60 -700 190/09 RMK AO2 T10111078
14926KSTC STC20191122161510511/22/19 16:15:31  5-MIN KSTC 222215Z 19009KT 10SM CLR M02/M08 A3005 920 63 -800 190/09 RMK AO2 T10171078
14926KSTC STC20191122162010511/22/19 16:20:31  5-MIN KSTC 222220Z 19008KT 10SM CLR M02/M07 A3004 920 66 -800 190/08 RMK AO2 T10171072
14926KSTC STC20191122162510511/22/19 16:25:31  5-MIN KSTC 222225Z 19009KT 10SM CLR M02/M07 A3005 920 66 -800 190/09 RMK AO2 T10171072
14926KSTC STC20191122163010511/22/19 16:30:31  5-MIN KSTC 222230Z 20008KT 10SM CLR M02/M07 A3004 920 66 -800 200/08 RMK AO2 T10171072
14926KSTC STC20191122163510511/22/19 16:35:31  5-MIN KSTC 222235Z 20006KT 10SM CLR M02/M07 A3004 920 69 -900 200/06 RMK AO2 T10221072
14926KSTC STC20191122164010511/22/19 16:40:31  5-MIN KSTC 222240Z 20006KT 10SM CLR M02/M07 A3004 920 69 -900 200/06 RMK AO2 T10221072
14926KSTC STC20191122164510511/22/19 16:45:31  5-MIN KSTC 222245Z 19007KT 10SM CLR M02/M07 A3004 920 69 -900 190/07 RMK AO2 T10221072
14926KSTC STC20191122165011211/22/19 16:50:31  5-MIN KSTC 222250Z 19006KT 10SM CLR M02/M07 A3004 920 69 -900 190/06 RMK AO2 SLP198 T10221072
14926KSTC STC20191122165510511/22/19 16:55:31  5-MIN KSTC 222255Z 19006KT 10SM CLR M03/M07 A3004 920 71 -900 190/06 RMK AO2 T10281072
14926KSTC STC20191122170010511/22/19 17:00:31  5-MIN KSTC 222300Z 20006KT 10SM CLR M03/M07 A3004 920 71 -900 190/06 RMK AO2 T10281072
14926KSTC STC20191122170510511/22/19 17:05:31  5-MIN KSTC 222305Z 19006KT 10SM CLR M03/M07 A3004 930 71 -900 190/06 RMK AO2 T10281072
14926KSTC STC20191122171010511/22/19 17:10:31  5-MIN KSTC 222310Z 19007KT 10SM CLR M03/M07 A3003 930 71 -900 190/07 RMK AO2 T10281072
14926KSTC STC20191122171510511/22/19 17:15:31  5-MIN KSTC 222315Z 18007KT 10SM CLR M03/M07 A3003 930 71 -900 180/07 RMK AO2 T10281072
14926KSTC STC20191122172010511/22/19 17:20:31  5-MIN KSTC 222320Z 18007KT 10SM CLR M03/M07 A3003 930 71 -900 180/07 RMK AO2 T10281072
14926KSTC STC20191122172510511/22/19 17:25:31  5-MIN KSTC 222325Z 18006KT 10SM CLR M03/M07 A3003 940 71 -900 180/06 RMK AO2 T10281072
14926KSTC STC20191122173010511/22/19 17:30:31  5-MIN KSTC 222330Z 17006KT 10SM CLR M03/M07 A3002 940 71 -900 170/06 RMK AO2 T10281072
14926KSTC STC20191122173510511/22/19 17:35:31  5-MIN KSTC 222335Z 17006KT 10SM CLR M03/M07 A3002 940 71 -900 170/06 RMK AO2 T10281072
14926KSTC STC20191122174010511/22/19 17:40:31  5-MIN KSTC 222340Z 17007KT 10SM CLR M03/M07 A3002 940 71 -900 170/07 RMK AO2 T10281072
14926KSTC STC20191122174510511/22/19 17:45:31  5-MIN KSTC 222345Z 17007KT 10SM CLR M03/M07 A3001 950 71 -900 170/07 RMK AO2 T10281072
14926KSTC STC20191122175013111/22/19 17:50:31  5-MIN KSTC 222350Z 17007KT 10SM CLR M03/M07 A3001 950 74 -1000 160/07 RMK AO2 SLP189 T10331072 11006 21044 56027
14926KSTC STC20191122175510611/22/19 17:55:31  5-MIN KSTC 222355Z 17007KT 10SM CLR M03/M07 A3001 950 74 -1000 170/07 RMK AO2 T10331072
14926KSTC STC20191122180010611/22/19 18:00:31  5-MIN KSTC 230000Z 17007KT 10SM CLR M03/M07 A3001 950 74 -1000 170/07 RMK AO2 T10331072
14926KSTC STC20191122180510611/22/19 18:05:31  5-MIN KSTC 230005Z 17008KT 10SM CLR M03/M07 A3001 950 74 -1000 170/08 RMK AO2 T10331072
14926KSTC STC20191122181010611/22/19 18:10:31  5-MIN KSTC 230010Z 17007KT 10SM CLR M03/M07 A3000 960 78 -1000 170/07 RMK AO2 T10331067
14926KSTC STC20191122181510611/22/19 18:15:31  5-MIN KSTC 230015Z 17009KT 10SM CLR M03/M07 A3000 960 78 -1000 170/09 RMK AO2 T10331067
14926KSTC STC20191122182010611/22/19 18:20:31  5-MIN KSTC 230020Z 18009KT 10SM CLR M03/M07 A3000 960 78 -1000 170/09 RMK AO2 T10331067
14926KSTC STC20191122182510611/22/19 18:25:31  5-MIN KSTC 230025Z 17007KT 10SM CLR M03/M07 A2999 970 78 -1000 170/07 RMK AO2 T10331067
14926KSTC STC20191122183010611/22/19 18:30:31  5-MIN KSTC 230030Z 17007KT 10SM CLR M03/M07 A2999 970 78 -1000 170/07 RMK AO2 T10331067
14926KSTC STC20191122183510611/22/19 18:35:31  5-MIN KSTC 230035Z 17008KT 10SM CLR M03/M07 A2998 970 78 -1000 170/08 RMK AO2 T10331067
14926KSTC STC20191122184010511/22/19 18:40:31  5-MIN KSTC 230040Z 17008KT 10SM CLR M03/M07 A2998 980 78 -900 170/08 RMK AO2 T10331067
14926KSTC STC20191122184510511/22/19 18:45:31  5-MIN KSTC 230045Z 17008KT 10SM CLR M03/M07 A2998 980 78 -900 170/08 RMK AO2 T10331067
14926KSTC STC20191122185011311/22/19 18:50:31  5-MIN KSTC 230050Z 17008KT 10SM CLR M04/M07 A2997 990 81 -1000 170/08 RMK AO2 SLP175 T10391067
14926KSTC STC20191122185510611/22/19 18:55:31  5-MIN KSTC 230055Z 17008KT 10SM CLR M04/M07 A2997 990 81 -1000 170/08 RMK AO2 T10391067
14926KSTC STC20191122190010611/22/19 19:00:31  5-MIN KSTC 230100Z 17007KT 10SM CLR M04/M07 A2997 990 81 -1000 170/07 RMK AO2 T10391067
14926KSTC STC20191122190510611/22/19 19:05:31  5-MIN KSTC 230105Z 17008KT 10SM CLR M04/M07 A2996 990 81 -1000 170/08 RMK AO2 T10391067
14926KSTC STC20191122191010711/22/19 19:10:31  5-MIN KSTC 230110Z 17007KT 10SM CLR M04/M07 A2996 1000 81 -1000 170/07 RMK AO2 T10391067
14926KSTC STC20191122191510711/22/19 19:15:31  5-MIN KSTC 230115Z 18007KT 10SM CLR M04/M07 A2996 1000 81 -1000 170/07 RMK AO2 T10391067
14926KSTC STC20191122192010711/22/19 19:20:31  5-MIN KSTC 230120Z 17008KT 10SM CLR M04/M07 A2996 1000 81 -1000 170/08 RMK AO2 T10391067
14926KSTC STC20191122192510711/22/19 19:25:31  5-MIN KSTC 230125Z 18007KT 10SM CLR M04/M07 A2995 1000 81 -1000 180/07 RMK AO2 T10391067
14926KSTC STC20191122193010711/22/19 19:30:31  5-MIN KSTC 230130Z 18008KT 10SM CLR M04/M07 A2995 1010 81 -1000 170/08 RMK AO2 T10391067
14926KSTC STC20191122193510711/22/19 19:35:31  5-MIN KSTC 230135Z 18007KT 10SM CLR M04/M07 A2995 1010 81 -1000 170/07 RMK AO2 T10391067
14926KSTC STC20191122194010711/22/19 19:40:31  5-MIN KSTC 230140Z 18008KT 10SM CLR M04/M07 A2994 1010 81 -1000 180/08 RMK AO2 T10391067
14926KSTC STC20191122194510711/22/19 19:45:31  5-MIN KSTC 230145Z 18008KT 10SM CLR M04/M06 A2994 1010 85 -1000 180/08 RMK AO2 T10391061
14926KSTC STC20191122195011411/22/19 19:50:31  5-MIN KSTC 230150Z 18007KT 10SM CLR M04/M06 A2994 1010 85 -1000 180/07 RMK AO2 SLP165 T10391061
14926KSTC STC20191122195510711/22/19 19:55:31  5-MIN KSTC 230155Z 18007KT 10SM CLR M04/M06 A2994 1020 85 -1000 180/07 RMK AO2 T10391061
14926KSTC STC20191122200010711/22/19 20:00:31  5-MIN KSTC 230200Z 18007KT 10SM CLR M04/M06 A2994 1020 85 -1000 180/07 RMK AO2 T10391061
14926KSTC STC20191122200510711/22/19 20:05:31  5-MIN KSTC 230205Z 19008KT 10SM CLR M04/M06 A2993 1020 85 -1000 190/08 RMK AO2 T10391061
14926KSTC STC20191122201010711/22/19 20:10:31  5-MIN KSTC 230210Z 19007KT 10SM CLR M04/M06 A2993 1020 85 -1000 190/07 RMK AO2 T10391061
14926KSTC STC20191122201510711/22/19 20:15:31  5-MIN KSTC 230215Z 19009KT 10SM CLR M04/M06 A2993 1020 85 -1000 190/09 RMK AO2 T10391061
14926KSTC STC20191122202010711/22/19 20:20:31  5-MIN KSTC 230220Z 19008KT 10SM CLR M04/M06 A2993 1020 85 -1000 190/08 RMK AO2 T10391061
14926KSTC STC20191122202510711/22/19 20:25:31  5-MIN KSTC 230225Z 20007KT 10SM CLR M04/M06 A2993 1030 85 -1000 200/07 RMK AO2 T10391061
14926KSTC STC20191122203010711/22/19 20:30:31  5-MIN KSTC 230230Z 20008KT 10SM CLR M04/M06 A2993 1020 85 -1000 200/08 RMK AO2 T10391061
14926KSTC STC20191122203510711/22/19 20:35:31  5-MIN KSTC 230235Z 20006KT 10SM CLR M04/M06 A2993 1030 88 -1000 200/06 RMK AO2 T10441061
14926KSTC STC20191122204010711/22/19 20:40:31  5-MIN KSTC 230240Z 20006KT 10SM CLR M04/M06 A2993 1030 88 -1000 200/06 RMK AO2 T10441061
14926KSTC STC20191122204510711/22/19 20:45:31  5-MIN KSTC 230245Z 20006KT 10SM CLR M04/M07 A2993 1030 84 -1000 190/06 RMK AO2 T10441067
14926KSTC STC20191122205012011/22/19 20:50:31  5-MIN KSTC 230250Z 20006KT 10SM CLR M04/M07 A2993 1030 84 -1000 200/06 RMK AO2 SLP160 T10441067 58020
14926KSTC STC20191122205510711/22/19 20:55:31  5-MIN KSTC 230255Z 19007KT 10SM CLR M04/M07 A2993 1030 84 -1000 190/07 RMK AO2 T10441067
14926KSTC STC20191122210010711/22/19 21:00:31  5-MIN KSTC 230300Z 19007KT 10SM CLR M04/M07 A2993 1030 84 -1000 190/07 RMK AO2 T10441067
14926KSTC STC20191122210510711/22/19 21:05:31  5-MIN KSTC 230305Z 19007KT 10SM CLR M04/M07 A2992 1030 84 -1000 190/07 RMK AO2 T10441067
14926KSTC STC20191122211010611/22/19 21:10:31  5-MIN KSTC 230310Z 20009KT 10SM CLR M04/M07 A2992 1040 81 -900 200/09 RMK AO2 T10391067
14926KSTC STC20191122211510611/22/19 21:15:31  5-MIN KSTC 230315Z 20010KT 10SM CLR M04/M06 A2991 1040 85 -900 200/10 RMK AO2 T10391061
14926KSTC STC20191122212010611/22/19 21:20:31  5-MIN KSTC 230320Z 20010KT 10SM CLR M03/M06 A2991 1040 81 -900 200/10 RMK AO2 T10331061
14926KSTC STC20191122212510611/22/19 21:25:31  5-MIN KSTC 230325Z 20011KT 10SM CLR M03/M06 A2991 1040 81 -900 200/11 RMK AO2 T10331061
14926KSTC STC20191122213010611/22/19 21:30:31  5-MIN KSTC 230330Z 20011KT 10SM CLR M03/M06 A2991 1040 81 -900 200/11 RMK AO2 T10331061
14926KSTC STC20191122213510611/22/19 21:35:31  5-MIN KSTC 230335Z 20010KT 10SM CLR M03/M06 A2991 1050 81 -900 200/10 RMK AO2 T10331061
14926KSTC STC20191122214010611/22/19 21:40:31  5-MIN KSTC 230340Z 19009KT 10SM CLR M04/M06 A2990 1050 85 -900 190/09 RMK AO2 T10391061
14926KSTC STC20191122214510611/22/19 21:45:31  5-MIN KSTC 230345Z 19009KT 10SM CLR M04/M06 A2990 1050 85 -900 190/09 RMK AO2 T10391061
14926KSTC STC20191122215011311/22/19 21:50:31  5-MIN KSTC 230350Z 19011KT 10SM CLR M04/M06 A2990 1060 85 -900 190/11 RMK AO2 SLP149 T10391061
14926KSTC STC20191122215510611/22/19 21:55:31  5-MIN KSTC 230355Z 19011KT 10SM CLR M04/M06 A2989 1060 85 -900 180/11 RMK AO2 T10391061
14926KSTC STC20191122220010611/22/19 22:00:31  5-MIN KSTC 230400Z 19011KT 10SM CLR M04/M06 A2989 1060 85 -900 190/11 RMK AO2 T10391061
14926KSTC STC20191122220510611/22/19 22:05:31  5-MIN KSTC 230405Z 19011KT 10SM CLR M04/M06 A2988 1070 85 -900 190/11 RMK AO2 T10391061
14926KSTC STC20191122221010611/22/19 22:10:31  5-MIN KSTC 230410Z 19010KT 10SM CLR M04/M06 A2988 1070 85 -900 190/10 RMK AO2 T10391061
14926KSTC STC20191122221510611/22/19 22:15:31  5-MIN KSTC 230415Z 20010KT 10SM CLR M04/M06 A2988 1070 85 -900 190/10 RMK AO2 T10391061
14926KSTC STC20191122222010611/22/19 22:20:31  5-MIN KSTC 230420Z 20010KT 10SM CLR M04/M07 A2987 1080 81 -900 200/10 RMK AO2 T10391067
14926KSTC STC20191123212510811/23/19 21:25:31  5-MIN KSTC 240325Z 24004KT 10SM FEW110 01/M02 A2963 1300 85 -100 240/04 RMK AO2 T00061017
14926KSTC STC20191123213010511/23/19 21:30:31  5-MIN KSTC 240330Z 22003KT 10SM FEW110 01/M02 A2963 1310 85 0 220/03 RMK AO2 T00061017
14926KSTC STC20191123213510511/23/19 21:35:31  5-MIN KSTC 240335Z 22004KT 10SM FEW110 01/M02 A2962 1310 82 0 220/04 RMK AO2 T00111017
14926KSTC STC20191123214010511/23/19 21:40:31  5-MIN KSTC 240340Z 21005KT 10SM FEW110 01/M02 A2962 1320 82 0 210/05 RMK AO2 T00111017
14926KSTC STC20191123214510511/23/19 21:45:31  5-MIN KSTC 240345Z 20004KT 10SM FEW110 01/M02 A2962 1320 82 0 200/04 RMK AO2 T00111017
14926KSTC STC20191123215011211/23/19 21:50:31  5-MIN KSTC 240350Z 19003KT 10SM SCT110 01/M02 A2961 1320 85 0 190/03 RMK AO2 SLP047 T00061017
14926KSTC STC20191123215510811/23/19 21:55:31  5-MIN KSTC 240355Z 19003KT 10SM FEW110 00/M02 A2961 1320 85 -100 190/03 RMK AO2 T00001022
14926KSTC STC20191123220010811/23/19 22:00:31  5-MIN KSTC 240400Z 19004KT 10SM FEW110 00/M02 A2961 1320 85 -100 190/04 RMK AO2 T00001022
14926KSTC STC20191123220510811/23/19 22:05:31  5-MIN KSTC 240405Z 21004KT 10SM SCT100 00/M02 A2961 1320 85 -100 210/04 RMK AO2 T00001022
14926KSTC STC20191123221010811/23/19 22:10:31  5-MIN KSTC 240410Z 22004KT 10SM BKN100 00/M02 A2961 1320 85 -100 220/04 RMK AO2 T00001022
14926KSTC STC20191123221510811/23/19 22:15:31  5-MIN KSTC 240415Z 23006KT 10SM BKN110 00/M02 A2961 1320 85 -100 230/06 RMK AO2 T00001022
14926KSTC STC20191123222010511/23/19 22:20:31  5-MIN KSTC 240420Z 24006KT 10SM BKN100 01/M02 A2961 1320 82 0 240/06 RMK AO2 T00111017
14926KSTC STC20191123222510711/23/19 22:25:31  5-MIN KSTC 240425Z 23006KT 10SM BKN100 02/M02 A2961 1320 78 100 230/06 RMK AO2 T00171017
14926KSTC STC20191123223010511/23/19 22:30:31  5-MIN KSTC 240430Z 24005KT 10SM BKN110 01/M02 A2961 1320 82 0 240/05 RMK AO2 T00111017
14926KSTC STC20191123223510511/23/19 22:35:31  5-MIN KSTC 240435Z 23006KT 10SM BKN110 01/M02 A2961 1330 82 0 230/06 RMK AO2 T00111017
14926KSTC STC20191123224010711/23/19 22:40:31  5-MIN KSTC 240440Z 23006KT 10SM BKN110 02/M02 A2960 1330 78 100 230/06 RMK AO2 T00171017
14926KSTC STC20191123224510711/23/19 22:45:31  5-MIN KSTC 240445Z 23005KT 10SM BKN110 02/M02 A2960 1330 78 100 230/05 RMK AO2 T00171017
14926KSTC STC20191123225011411/23/19 22:50:31  5-MIN KSTC 240450Z 23005KT 10SM BKN110 02/M02 A2960 1330 78 100 230/05 RMK AO2 SLP040 T00171017
14926KSTC STC20191123225511211/23/19 22:55:31  5-MIN KSTC 240455Z AUTO 22005KT 10SM OVC110 02/M01 A2960 1340 82 100 220/05 RMK AO2 T00171011
14926KSTC STC20191123230011211/23/19 23:00:31  5-MIN KSTC 240500Z AUTO 23006KT 10SM OVC110 02/M01 A2959 1340 78 100 230/06 RMK AO2 T00221011
14926KSTC STC20191123230511211/23/19 23:05:31  5-MIN KSTC 240505Z AUTO 27007KT 10SM BKN120 02/M01 A2961 1330 82 100 270/07 RMK AO2 T00171011
14926KSTC STC20191123231011011/23/19 23:10:31  5-MIN KSTC 240510Z AUTO 26007KT 10SM BKN120 01/M02 A2960 1330 82 0 260/07 RMK AO2 T00111017
14926KSTC STC20191123231511011/23/19 23:15:31  5-MIN KSTC 240515Z AUTO 25006KT 10SM BKN120 01/M02 A2959 1340 82 0 250/06 RMK AO2 T00111017
14926KSTC STC20191123232011011/23/19 23:20:31  5-MIN KSTC 240520Z AUTO 23006KT 10SM SCT120 01/M02 A2959 1340 78 0 230/06 RMK AO2 T00111022
14926KSTC STC20191123232511211/23/19 23:25:31  5-MIN KSTC 240525Z AUTO 24006KT 10SM FEW120 02/M02 A2959 1340 78 100 240/06 RMK AO2 T00171017
14926KSTC STC20191123233011011/23/19 23:30:31  5-MIN KSTC 240530Z AUTO 25006KT 10SM FEW120 01/M02 A2959 1340 82 0 250/06 RMK AO2 T00111017
14926KSTC STC20191123233510711/23/19 23:35:31  5-MIN KSTC 240535Z AUTO 25006KT 10SM CLR 01/M02 A2959 1340 82 0 250/06 RMK AO2 T00061022
14926KSTC STC20191123234011011/23/19 23:40:31  5-MIN KSTC 240540Z AUTO 26006KT 10SM CLR 00/M02 A2960 1330 85 -100 260/06 RMK AO2 T00001022
14926KSTC STC20191123234511011/23/19 23:45:31  5-MIN KSTC 240545Z AUTO 25006KT 10SM CLR 00/M03 A2960 1340 81 -100 250/06 RMK AO2 T00001028
14926KSTC STC20191123235014211/23/19 23:50:31  5-MIN KSTC 240550Z AUTO 24006KT 10SM CLR 01/M02 A2960 1330 82 0 240/06 RMK AO2 SLP040 T00061022 10022 21011 400671050 58010
14926KSTC STC20191123235510711/23/19 23:55:31  5-MIN KSTC 240555Z AUTO 24006KT 10SM CLR 01/M02 A2960 1330 78 0 240/06 RMK AO2 T00111022
14926KSTC STC20191124000010711/24/19 00:00:31  5-MIN KSTC 240600Z AUTO 23006KT 10SM CLR 01/M02 A2960 1330 78 0 230/06 RMK AO2 T00111022
14926KSTC STC20191124000510711/24/19 00:05:31  5-MIN KSTC 240605Z AUTO 23006KT 10SM CLR 01/M02 A2959 1340 78 0 230/06 RMK AO2 T00111022
14926KSTC STC20191124001010711/24/19 00:10:31  5-MIN KSTC 240610Z AUTO 23007KT 10SM CLR 01/M02 A2959 1340 78 0 230/07 RMK AO2 T00111022
14926KSTC STC20191124001510911/24/19 00:15:31  5-MIN KSTC 240615Z AUTO 23007KT 10SM CLR 02/M02 A2960 1330 78 100 230/07 RMK AO2 T00171017
14926KSTC STC20191124002010911/24/19 00:20:31  5-MIN KSTC 240620Z AUTO 23007KT 10SM CLR 02/M02 A2960 1330 78 100 230/07 RMK AO2 T00171017
14926KSTC STC20191124002510911/24/19 00:25:31  5-MIN KSTC 240625Z AUTO 22007KT 10SM CLR 02/M02 A2959 1340 78 100 220/07 RMK AO2 T00171017
14926KSTC STC20191124003010911/24/19 00:30:31  5-MIN KSTC 240630Z AUTO 22007KT 10SM CLR 02/M02 A2959 1340 75 100 220/07 RMK AO2 T00171022
14926KSTC STC20191124003510911/24/19 00:35:31  5-MIN KSTC 240635Z AUTO 23005KT 10SM CLR 02/M02 A2959 1340 75 100 230/05 RMK AO2 T00171022
14926KSTC STC20191124004010911/24/19 00:40:31  5-MIN KSTC 240640Z AUTO 24005KT 10SM CLR 02/M02 A2959 1340 75 100 240/05 RMK AO2 T00171022
14926KSTC STC20191124004510711/24/19 00:45:31  5-MIN KSTC 240645Z AUTO 27005KT 10SM CLR 01/M02 A2960 1330 78 0 270/05 RMK AO2 T00111022
14926KSTC STC20191124005011411/24/19 00:50:31  5-MIN KSTC 240650Z AUTO 26004KT 10SM CLR 01/M03 A2959 1340 78 0 260/04 RMK AO2 SLP038 T00061028
14926KSTC STC20191124005510711/24/19 00:55:31  5-MIN KSTC 240655Z AUTO 26003KT 10SM CLR 01/M03 A2959 1340 78 0 260/03 RMK AO2 T00061028
14926KSTC STC20191124010011011/24/19 01:00:31  5-MIN KSTC 240700Z AUTO 23005KT 10SM CLR 00/M03 A2958 1350 81 -100 230/05 RMK AO2 T00001028
14926KSTC STC20191124010510711/24/19 01:05:31  5-MIN KSTC 240705Z AUTO 23006KT 10SM CLR 01/M03 A2959 1340 78 0 230/06 RMK AO2 T00061028
14926KSTC STC20191124011010711/24/19 01:10:31  5-MIN KSTC 240710Z AUTO 29004KT 10SM CLR 01/M03 A2960 1330 78 0 290/04 RMK AO2 T00061028
14926KSTC STC20191124011510711/24/19 01:15:31  5-MIN KSTC 240715Z AUTO 26006KT 10SM CLR 01/M03 A2959 1340 75 0 260/06 RMK AO2 T00111028
14926KSTC STC20191124012010711/24/19 01:20:31  5-MIN KSTC 240720Z AUTO 27006KT 10SM CLR 01/M03 A2959 1340 78 0 270/06 RMK AO2 T00061028
14926KSTC STC20191124012510711/24/19 01:25:31  5-MIN KSTC 240725Z AUTO 27006KT 10SM CLR 01/M03 A2959 1340 75 0 270/06 RMK AO2 T00111028
14926KSTC STC20191124013010711/24/19 01:30:31  5-MIN KSTC 240730Z AUTO 26006KT 10SM CLR 01/M03 A2959 1340 75 0 260/06 RMK AO2 T00111028
14926KSTC STC20191124013510711/24/19 01:35:31  5-MIN KSTC 240735Z AUTO 26006KT 10SM CLR 01/M03 A2958 1350 75 0 250/06 RMK AO2 T00111028
14926KSTC STC20191124014010711/24/19 01:40:31  5-MIN KSTC 240740Z AUTO 23006KT 10SM CLR 01/M03 A2958 1350 75 0 230/06 RMK AO2 T00111028
14926KSTC STC20191124014510911/24/19 01:45:31  5-MIN KSTC 240745Z AUTO 23006KT 10SM CLR 02/M02 A2958 1350 75 100 230/06 RMK AO2 T00171022
14926KSTC STC20191124015011411/24/19 01:50:31  5-MIN KSTC 240750Z AUTO 24005KT 10SM CLR 01/M03 A2958 1350 75 0 240/05 RMK AO2 SLP034 T00111028
14926KSTC STC20191124015510711/24/19 01:55:31  5-MIN KSTC 240755Z AUTO 24005KT 10SM CLR 01/M03 A2958 1350 75 0 240/05 RMK AO2 T00111028
14926KSTC STC20191124020010711/24/19 02:00:31  5-MIN KSTC 240800Z AUTO 25006KT 10SM CLR 01/M03 A2958 1350 75 0 240/06 RMK AO2 T00111028
14926KSTC STC20191124020511011/24/19 02:05:31  5-MIN KSTC 240805Z AUTO 24007KT 10SM CLR 00/M03 A2958 1350 81 -100 240/07 RMK AO2 T00001028
14926KSTC STC20191124021011011/24/19 02:10:31  5-MIN KSTC 240810Z AUTO 25007KT 10SM CLR 00/M03 A2958 1350 78 -100 250/07 RMK AO2 T00001033
14926KSTC STC20191124021511011/24/19 02:15:31  5-MIN KSTC 240815Z AUTO 25007KT 10SM CLR 00/M03 A2958 1350 81 -100 250/07 RMK AO2 T00001028
14926KSTC STC20191124022011011/24/19 02:20:31  5-MIN KSTC 240820Z AUTO 24007KT 10SM CLR 00/M03 A2958 1350 81 -100 240/07 RMK AO2 T00001028
14926KSTC STC20191124022511011/24/19 02:25:31  5-MIN KSTC 240825Z AUTO 24008KT 10SM CLR 00/M03 A2958 1350 81 -100 240/08 RMK AO2 T00001028
14926KSTC STC20191124023011011/24/19 02:30:31  5-MIN KSTC 240830Z AUTO 24008KT 10SM CLR 00/M03 A2958 1350 81 -100 240/08 RMK AO2 T00001028
14926KSTC STC20191124023510711/24/19 02:35:31  5-MIN KSTC 240835Z AUTO 24008KT 10SM CLR 01/M03 A2958 1350 78 0 240/08 RMK AO2 T00061028
14926KSTC STC20191124024010711/24/19 02:40:31  5-MIN KSTC 240840Z AUTO 25006KT 10SM CLR 01/M03 A2958 1350 78 0 250/06 RMK AO2 T00061028
14926KSTC STC20191124024511011/24/19 02:45:31  5-MIN KSTC 240845Z AUTO 24006KT 10SM CLR 00/M03 A2958 1350 81 -100 240/06 RMK AO2 T00001028
14926KSTC STC20191124025012011/24/19 02:50:31  5-MIN KSTC 240850Z AUTO 24007KT 10SM CLR 01/M03 A2958 1350 78 0 240/07 RMK AO2 SLP033 T00061028 55014
14926KSTC STC20191124025510711/24/19 02:55:31  5-MIN KSTC 240855Z AUTO 25006KT 10SM CLR 01/M03 A2958 1350 78 0 250/06 RMK AO2 T00061028
14926KSTC STC20191124030011311/24/19 03:00:31  5-MIN KSTC 240900Z AUTO 25005KT 10SM FEW110 00/M03 A2958 1350 81 -100 250/05 RMK AO2 T00001028
14926KSTC STC20191124030511311/24/19 03:05:31  5-MIN KSTC 240905Z AUTO 25005KT 10SM FEW110 00/M03 A2958 1350 81 -100 240/05 RMK AO2 T00001028
14926KSTC STC20191124031011311/24/19 03:10:31  5-MIN KSTC 240910Z AUTO 24005KT 10SM FEW110 00/M03 A2958 1350 81 -100 240/05 RMK AO2 T00001028
14926KSTC STC20191124031511011/24/19 03:15:31  5-MIN KSTC 240915Z AUTO 24005KT 10SM FEW110 01/M03 A2958 1350 78 0 240/05 RMK AO2 T00061028
14926KSTC STC20191124032011011/24/19 03:20:31  5-MIN KSTC 240920Z AUTO 25005KT 10SM SCT110 01/M03 A2958 1350 78 0 240/05 RMK AO2 T00061028
14926KSTC STC20191124032511011/24/19 03:25:31  5-MIN KSTC 240925Z AUTO 24005KT 10SM BKN110 01/M03 A2957 1360 78 0 240/05 RMK AO2 T00061028
14926KSTC STC20191124033011011/24/19 03:30:31  5-MIN KSTC 240930Z AUTO 24005KT 10SM BKN110 01/M03 A2957 1360 78 0 240/05 RMK AO2 T00061028
14926KSTC STC20191124033511011/24/19 03:35:31  5-MIN KSTC 240935Z AUTO 24004KT 10SM BKN110 01/M03 A2957 1360 78 0 240/04 RMK AO2 T00061028
14926KSTC STC20191124034011311/24/19 03:40:31  5-MIN KSTC 240940Z AUTO 25005KT 10SM BKN110 00/M03 A2957 1360 81 -100 250/05 RMK AO2 T00001028
14926KSTC STC20191124034511411/24/19 03:45:31  5-MIN KSTC 240945Z AUTO 26005KT 10SM OVC110 M01/M03 A2957 1360 85 -100 260/05 RMK AO2 T10061028
14926KSTC STC20191124035012111/24/19 03:50:31  5-MIN KSTC 240950Z AUTO 26006KT 10SM BKN110 M01/M03 A2957 1360 85 -200 260/06 RMK AO2 SLP032 T10111033
14926KSTC STC20191124035511411/24/19 03:55:31  5-MIN KSTC 240955Z AUTO 26007KT 10SM BKN110 M01/M03 A2957 1360 81 -100 260/07 RMK AO2 T10061033
14926KSTC STC20191124040011411/24/19 04:00:31  5-MIN KSTC 241000Z AUTO 26007KT 10SM BKN110 M01/M03 A2957 1360 81 -100 260/07 RMK AO2 T10061033
14926KSTC STC20191124040511411/24/19 04:05:31  5-MIN KSTC 241005Z AUTO 26007KT 10SM BKN110 M01/M03 A2958 1350 81 -100 260/07 RMK AO2 T10061033
14926KSTC STC20191124041011411/24/19 04:10:31  5-MIN KSTC 241010Z AUTO 26007KT 10SM BKN110 M01/M03 A2958 1350 81 -100 260/07 RMK AO2 T10061033
14926KSTC STC20191124041511411/24/19 04:15:31  5-MIN KSTC 241015Z AUTO 27006KT 10SM BKN110 M01/M03 A2958 1350 81 -100 260/06 RMK AO2 T10061033
14926KSTC STC20191124042011311/24/19 04:20:31  5-MIN KSTC 241020Z AUTO 27006KT 10SM BKN110 00/M03 A2958 1350 81 -100 270/06 RMK AO2 T00001028
14926KSTC STC20191124042511011/24/19 04:25:31  5-MIN KSTC 241025Z AUTO 27007KT 10SM BKN110 01/M03 A2958 1350 78 0 270/07 RMK AO2 T00061028
14926KSTC STC20191124043011011/24/19 04:30:31  5-MIN KSTC 241030Z AUTO 28007KT 10SM BKN110 01/M02 A2958 1350 78 0 280/07 RMK AO2 T00111022
14926KSTC STC20191124043511011/24/19 04:35:31  5-MIN KSTC 241035Z AUTO 28007KT 10SM BKN110 01/M02 A2958 1350 78 0 280/07 RMK AO2 T00111022
14926KSTC STC20191124044011211/24/19 04:40:31  5-MIN KSTC 241040Z AUTO 28006KT 10SM BKN110 02/M02 A2958 1350 75 100 280/06 RMK AO2 T00171022
14926KSTC STC20191124044511011/24/19 04:45:31  5-MIN KSTC 241045Z AUTO 28007KT 10SM BKN110 01/M02 A2958 1350 78 0 280/07 RMK AO2 T00111022
14926KSTC STC20191124045011911/24/19 04:50:31  5-MIN KSTC 241050Z AUTO 29007KT 10SM SCT110 02/M02 A2958 1350 75 100 290/07 RMK AO2 SLP034 T00171022
14926KSTC STC20191124045511211/24/19 04:55:31  5-MIN KSTC 241055Z AUTO 29006KT 10SM SCT110 02/M02 A2958 1350 75 100 280/06 RMK AO2 T00171022
14926KSTC STC20191124050011211/24/19 05:00:31  5-MIN KSTC 241100Z AUTO 28007KT 10SM FEW110 02/M02 A2958 1350 75 100 280/07 RMK AO2 T00171022
14926KSTC STC20191124050511011/24/19 05:05:31  5-MIN KSTC 241105Z AUTO 27006KT 10SM FEW110 01/M02 A2958 1350 78 0 270/06 RMK AO2 T00111022
14926KSTC STC20191124051010711/24/19 05:10:31  5-MIN KSTC 241110Z AUTO 28006KT 10SM CLR 01/M02 A2958 1350 78 0 280/06 RMK AO2 T00111022
14926KSTC STC20191124051510711/24/19 05:15:31  5-MIN KSTC 241115Z AUTO 27006KT 10SM CLR 01/M02 A2959 1340 78 0 270/06 RMK AO2 T00111022
14926KSTC STC20191124052010711/24/19 05:20:31  5-MIN KSTC 241120Z AUTO 29006KT 10SM CLR 01/M02 A2959 1340 78 0 290/06 RMK AO2 T00111022
14926KSTC STC20191124052510711/24/19 05:25:31  5-MIN KSTC 241125Z AUTO 29006KT 10SM CLR 01/M02 A2959 1340 78 0 290/06 RMK AO2 T00111022
14926KSTC STC20191124053010911/24/19 05:30:31  5-MIN KSTC 241130Z AUTO 29006KT 10SM CLR 02/M02 A2959 1340 75 100 290/06 RMK AO2 T00171022
14926KSTC STC20191124053510911/24/19 05:35:31  5-MIN KSTC 241135Z AUTO 28006KT 10SM CLR 02/M02 A2959 1340 75 100 280/06 RMK AO2 T00171022
14926KSTC STC20191124054010911/24/19 05:40:31  5-MIN KSTC 241140Z AUTO 29007KT 10SM CLR 02/M02 A2959 1340 75 100 290/07 RMK AO2 T00171022
14926KSTC STC20191124054510911/24/19 05:45:31  5-MIN KSTC 241145Z AUTO 27006KT 10SM CLR 02/M02 A2959 1340 75 100 270/06 RMK AO2 T00171022
14926KSTC STC20191124055013211/24/19 05:50:31  5-MIN KSTC 241150Z AUTO 27005KT 10SM CLR 01/M02 A2960 1340 78 0 270/05 RMK AO2 SLP040 T00111022 10017 21011 55007
14926KSTC STC20191124055510711/24/19 05:55:31  5-MIN KSTC 241155Z AUTO 29005KT 10SM CLR 01/M02 A2960 1330 78 0 280/05 RMK AO2 T00111022
14926KSTC STC20191124060010711/24/19 06:00:31  5-MIN KSTC 241200Z AUTO 29005KT 10SM CLR 01/M02 A2960 1330 78 0 280/05 RMK AO2 T00111022
14926KSTC STC20191124060510711/24/19 06:05:31  5-MIN KSTC 241205Z AUTO 28004KT 10SM CLR 01/M02 A2960 1330 78 0 280/04 RMK AO2 T00111022
14926KSTC STC20191124061010711/24/19 06:10:31  5-MIN KSTC 241210Z AUTO 25005KT 10SM CLR 01/M02 A2960 1330 78 0 250/05 RMK AO2 T00111022
14926KSTC STC20191124061510711/24/19 06:15:31  5-MIN KSTC 241215Z AUTO 26004KT 10SM CLR 01/M02 A2960 1330 82 0 250/04 RMK AO2 T00061022
14926KSTC STC20191124062010711/24/19 06:20:31  5-MIN KSTC 241220Z AUTO 24005KT 10SM CLR 01/M03 A2960 1330 78 0 240/05 RMK AO2 T00061028
14926KSTC STC20191124062511011/24/19 06:25:31  5-MIN KSTC 241225Z AUTO 25005KT 10SM CLR 00/M03 A2960 1330 81 -100 250/05 RMK AO2 T00001028
14926KSTC STC20191124063010711/24/19 06:30:31  5-MIN KSTC 241230Z AUTO 24005KT 10SM CLR 01/M03 A2961 1330 78 0 240/05 RMK AO2 T00061028
14926KSTC STC20191124063509711/24/19 06:35:31  5-MIN KSTC 241235Z AUTO 10SM CLR 01/M03 A2961 1330 78 0 M /M RMK AO2 T00061028
14926KSTC STC20191124064010011/24/19 06:40:31  5-MIN KSTC 241240Z AUTO 10SM CLR 00/M03 A2961 1320 81 -100 M /M RMK AO2 T00001028
14926KSTC STC20191124064510111/24/19 06:45:31  5-MIN KSTC 241245Z AUTO 10SM CLR M01/M03 A2961 1320 85 -200 M /M RMK AO2 T10061028
14926KSTC STC20191124065011311/24/19 06:50:31  5-MIN KSTC 241250Z 22003KT 10SM CLR M01/M03 A2960 1330 85 -200 220/03 RMK AO2 SLP044 T10111033
14926KSTC STC20191124065509611/24/19 06:55:31  5-MIN KSTC 241255Z 10SM CLR M01/M03 A2961 1330 81 -200 M /M RMK AO2 T10061033
14926KSTC STC20191124070010611/24/19 07:00:31  5-MIN KSTC 241300Z 23003KT 10SM CLR M01/M03 A2961 1330 85 -200 230/03 RMK AO2 T10061028
14926KSTC STC20191124070510511/24/19 07:05:31  5-MIN KSTC 241305Z 24004KT 10SM CLR 00/M03 A2961 1330 81 -100 240/04 RMK AO2 T00001028
14926KSTC STC20191124071010511/24/19 07:10:31  5-MIN KSTC 241310Z 23004KT 10SM CLR 00/M03 A2961 1320 81 -100 230/04 RMK AO2 T00001028
14926KSTC STC20191124071510511/24/19 07:15:31  5-MIN KSTC 241315Z 24003KT 10SM CLR 00/M03 A2960 1330 81 -100 240/03 RMK AO2 T00001028
14926KSTC STC20191124072010611/24/19 07:20:31  5-MIN KSTC 241320Z 00000KT 10SM CLR M01/M03 A2960 1330 85 -200 000/00 RMK AO2 T10061028
14926KSTC STC20191124072510611/24/19 07:25:31  5-MIN KSTC 241325Z 00000KT 10SM CLR M01/M03 A2960 1330 85 -200 000/00 RMK AO2 T10061028
14926KSTC STC20191124073010611/24/19 07:30:31  5-MIN KSTC 241330Z 00000KT 10SM CLR M01/M03 A2960 1330 85 -200 000/00 RMK AO2 T10061028
14926KSTC STC20191124073510611/24/19 07:35:31  5-MIN KSTC 241335Z 00000KT 10SM CLR M01/M03 A2960 1330 88 -200 000/00 RMK AO2 T10111028
14926KSTC STC20191124074010611/24/19 07:40:31  5-MIN KSTC 241340Z 00000KT 10SM CLR M01/M03 A2960 1340 88 -200 000/00 RMK AO2 T10111028
14926KSTC STC20191124074510611/24/19 07:45:31  5-MIN KSTC 241345Z 00000KT 10SM CLR M01/M03 A2960 1330 85 -200 000/00 RMK AO2 T10061028
14926KSTC STC20191124075011311/24/19 07:50:31  5-MIN KSTC 241350Z 00000KT 10SM CLR M01/M03 A2960 1330 85 -200 000/00 RMK AO2 SLP043 T10061028
14926KSTC STC20191124075510611/24/19 07:55:31  5-MIN KSTC 241355Z 00000KT 10SM CLR M01/M03 A2960 1330 88 -200 000/00 RMK AO2 T10111028
14926KSTC STC20191124080010611/24/19 08:00:31  5-MIN KSTC 241400Z 16003KT 10SM CLR M02/M03 A2960 1330 92 -300 160/03 RMK AO2 T10171028
14926KSTC STC20191124080510611/24/19 08:05:31  5-MIN KSTC 241405Z 17004KT 10SM CLR M02/M03 A2960 1330 92 -300 170/04 RMK AO2 T10171028
14926KSTC STC20191124081010611/24/19 08:10:31  5-MIN KSTC 241410Z 18004KT 10SM CLR M02/M03 A2960 1330 92 -300 180/04 RMK AO2 T10171028
14926KSTC STC20191124081510611/24/19 08:15:31  5-MIN KSTC 241415Z 18004KT 10SM CLR M01/M03 A2960 1330 88 -200 180/04 RMK AO2 T10111028
14926KSTC STC20191124082010611/24/19 08:20:31  5-MIN KSTC 241420Z 19005KT 10SM CLR M01/M02 A2960 1330 92 -200 190/05 RMK AO2 T10111022
14926KSTC STC20191124082510611/24/19 08:25:31  5-MIN KSTC 241425Z 20005KT 10SM CLR M01/M02 A2960 1330 88 -200 200/05 RMK AO2 T10061022
14926KSTC STC20191124083010611/24/19 08:30:31  5-MIN KSTC 241430Z 20004KT 10SM CLR M01/M02 A2960 1330 92 -200 200/04 RMK AO2 T10061017
14926KSTC STC20191124083510511/24/19 08:35:31  5-MIN KSTC 241435Z 21004KT 10SM CLR 00/M02 A2960 1330 88 -100 210/04 RMK AO2 T00001017
14926KSTC STC20191124084010511/24/19 08:40:31  5-MIN KSTC 241440Z 22004KT 10SM CLR 00/M02 A2960 1330 85 -100 220/04 RMK AO2 T00001022
14926KSTC STC20191124084510211/24/19 08:45:31  5-MIN KSTC 241445Z 24005KT 10SM CLR 01/M02 A2961 1320 82 0 240/05 RMK AO2 T00061022
14926KSTC STC20191124085011811/24/19 08:50:31  5-MIN KSTC 241450Z 24007KT 10SM CLR 00/M02 A2961 1320 85 -100 240/07 RMK AO2 SLP047 T00001022 53006
14926KSTC STC20191124085510211/24/19 08:55:31  5-MIN KSTC 241455Z 24005KT 10SM CLR 01/M02 A2961 1330 82 0 240/05 RMK AO2 T00061022
14926KSTC STC20191124090010211/24/19 09:00:31  5-MIN KSTC 241500Z 24006KT 10SM CLR 01/M02 A2961 1330 82 0 240/06 RMK AO2 T00061022
14926KSTC STC20191124090510211/24/19 09:05:31  5-MIN KSTC 241505Z 24005KT 10SM CLR 01/M02 A2961 1320 85 0 240/05 RMK AO2 T00061017
14926KSTC STC20191124091010211/24/19 09:10:31  5-MIN KSTC 241510Z 24006KT 10SM CLR 01/M02 A2961 1330 85 0 240/06 RMK AO2 T00061017
14926KSTC STC20191124091510211/24/19 09:15:31  5-MIN KSTC 241515Z 23006KT 10SM CLR 01/M02 A2961 1320 85 0 230/06 RMK AO2 T00061017
14926KSTC STC20191124092010211/24/19 09:20:31  5-MIN KSTC 241520Z 24005KT 10SM CLR 01/M02 A2961 1320 82 0 240/05 RMK AO2 T00111017
14926KSTC STC20191124092510211/24/19 09:25:31  5-MIN KSTC 241525Z 26005KT 10SM CLR 01/M02 A2961 1330 82 0 260/05 RMK AO2 T00111017
14926KSTC STC20191124093010411/24/19 09:30:31  5-MIN KSTC 241530Z 25005KT 10SM CLR 02/M01 A2961 1320 82 100 250/05 RMK AO2 T00171011
14926KSTC STC20191124093510411/24/19 09:35:31  5-MIN KSTC 241535Z 25006KT 10SM CLR 02/M01 A2961 1320 82 100 240/06 RMK AO2 T00171011
14926KSTC STC20191124094010411/24/19 09:40:31  5-MIN KSTC 241540Z 25007KT 10SM CLR 02/M02 A2961 1320 78 100 250/07 RMK AO2 T00171017
14926KSTC STC20191124094510411/24/19 09:45:31  5-MIN KSTC 241545Z 24005KT 10SM CLR 02/M01 A2961 1320 82 100 240/05 RMK AO2 T00171011
14926KSTC STC20191124095011111/24/19 09:50:31  5-MIN KSTC 241550Z 23006KT 10SM CLR 02/M01 A2961 1320 82 100 230/06 RMK AO2 SLP046 T00171011
14926KSTC STC20191124095510411/24/19 09:55:31  5-MIN KSTC 241555Z 24006KT 10SM CLR 02/M01 A2961 1320 82 100 240/06 RMK AO2 T00171011
14926KSTC STC20191124100010411/24/19 10:00:31  5-MIN KSTC 241600Z 23005KT 10SM CLR 02/M01 A2961 1320 78 100 230/05 RMK AO2 T00221011
14926KSTC STC20191124100510411/24/19 10:05:31  5-MIN KSTC 241605Z 24005KT 10SM CLR 02/M01 A2961 1320 78 100 240/05 RMK AO2 T00221011
14926KSTC STC20191124101010411/24/19 10:10:31  5-MIN KSTC 241610Z 24005KT 10SM CLR 02/M01 A2961 1320 78 100 240/05 RMK AO2 T00221011
14926KSTC STC20191124101510411/24/19 10:15:31  5-MIN KSTC 241615Z 24005KT 10SM CLR 02/M01 A2961 1320 78 100 240/05 RMK AO2 T00221011
14926KSTC STC20191124102010411/24/19 10:20:31  5-MIN KSTC 241620Z 24003KT 10SM CLR 02/M01 A2960 1330 78 100 240/03 RMK AO2 T00221011
14926KSTC STC20191124102510411/24/19 10:25:31  5-MIN KSTC 241625Z 23003KT 10SM CLR 02/M01 A2961 1330 78 100 230/03 RMK AO2 T00221011
14926KSTC STC20191124103010411/24/19 10:30:31  5-MIN KSTC 241630Z 24004KT 10SM CLR 02/M01 A2960 1330 78 100 240/04 RMK AO2 T00221011
14926KSTC STC20191124103510411/24/19 10:35:31  5-MIN KSTC 241635Z 24003KT 10SM CLR 02/M01 A2960 1330 82 100 240/03 RMK AO2 T00221006
14926KSTC STC20191124104010411/24/19 10:40:31  5-MIN KSTC 241640Z 26003KT 10SM CLR 03/M01 A2960 1330 79 200 260/03 RMK AO2 T00281006
14926KSTC STC20191124104510411/24/19 10:45:31  5-MIN KSTC 241645Z 25003KT 10SM CLR 03/M01 A2960 1340 79 200 250/03 RMK AO2 T00281006
14926KSTC STC20191124105011111/24/19 10:50:31  5-MIN KSTC 241650Z 25003KT 10SM CLR 03/M01 A2959 1340 79 200 250/03 RMK AO2 SLP039 T00281006
14926KSTC STC20191124105510411/24/19 10:55:31  5-MIN KSTC 241655Z 25003KT 10SM CLR 03/M01 A2959 1340 79 200 250/03 RMK AO2 T00281006
14926KSTC STC20191124110010411/24/19 11:00:31  5-MIN KSTC 241700Z 25003KT 10SM CLR 03/M01 A2959 1340 79 200 250/03 RMK AO2 T00281006
14926KSTC STC20191124110510411/24/19 11:05:31  5-MIN KSTC 241705Z 24004KT 10SM CLR 03/M01 A2959 1340 76 300 240/04 RMK AO2 T00331006
14926KSTC STC20191124111010411/24/19 11:10:31  5-MIN KSTC 241710Z 23003KT 10SM CLR 03/M01 A2958 1350 76 300 230/03 RMK AO2 T00331006
14926KSTC STC20191124111510411/24/19 11:15:31  5-MIN KSTC 241715Z 24004KT 10SM CLR 03/M01 A2958 1350 76 300 240/04 RMK AO2 T00331006
14926KSTC STC20191124112010411/24/19 11:20:31  5-MIN KSTC 241720Z 23004KT 10SM CLR 03/M01 A2958 1350 76 300 230/04 RMK AO2 T00331006
14926KSTC STC20191124112510411/24/19 11:25:31  5-MIN KSTC 241725Z 23005KT 10SM CLR 03/M01 A2958 1350 76 300 230/05 RMK AO2 T00331006
14926KSTC STC20191124113010411/24/19 11:30:31  5-MIN KSTC 241730Z 22003KT 10SM CLR 03/M01 A2958 1350 76 300 220/03 RMK AO2 T00331006
14926KSTC STC20191124113510411/24/19 11:35:31  5-MIN KSTC 241735Z 23005KT 10SM CLR 04/M01 A2958 1350 73 400 230/05 RMK AO2 T00391006
14926KSTC STC20191124114010411/24/19 11:40:31  5-MIN KSTC 241740Z 23004KT 10SM CLR 04/M01 A2958 1350 73 400 230/04 RMK AO2 T00391006
14926KSTC STC20191124114510411/24/19 11:45:31  5-MIN KSTC 241745Z 23005KT 10SM CLR 04/M01 A2958 1350 70 400 230/05 RMK AO2 T00441006
14926KSTC STC20191124115012911/24/19 11:50:31  5-MIN KSTC 241750Z 23005KT 10SM CLR 04/M01 A2958 1350 70 400 230/05 RMK AO2 SLP033 T00441006 10044 21017 51004
14926KSTC STC20191124115510311/24/19 11:55:31  5-MIN KSTC 241755Z 24004KT 10SM CLR 04/00 A2957 1360 73 400 240/04 RMK AO2 T00440000
14926KSTC STC20191124120010711/24/19 12:00:31  5-MIN KSTC 241800Z 22005KT 10SM FEW110 04/M01 A2957 1360 70 500 220/05 RMK AO2 T00441006
14926KSTC STC20191124120510711/24/19 12:05:31  5-MIN KSTC 241805Z 22004KT 10SM FEW110 04/M01 A2957 1360 70 500 220/04 RMK AO2 T00441006
14926KSTC STC20191124121010711/24/19 12:10:31  5-MIN KSTC 241810Z 23005KT 10SM SCT100 04/M01 A2957 1360 70 500 230/05 RMK AO2 T00441006
14926KSTC STC20191124121510711/24/19 12:15:31  5-MIN KSTC 241815Z 22005KT 10SM BKN100 04/M01 A2956 1370 70 500 220/05 RMK AO2 T00441006
14926KSTC STC20191124122010711/24/19 12:20:31  5-MIN KSTC 241820Z 23004KT 10SM BKN100 04/M01 A2956 1370 70 500 230/04 RMK AO2 T00441006
14926KSTC STC20191124122510711/24/19 12:25:31  5-MIN KSTC 241825Z 23004KT 10SM SCT100 04/M01 A2956 1370 70 500 230/04 RMK AO2 T00441006
14926KSTC STC20191124123010711/24/19 12:30:31  5-MIN KSTC 241830Z 22004KT 10SM SCT100 05/M01 A2956 1370 67 500 220/04 RMK AO2 T00501006
14926KSTC STC20191124123510611/24/19 12:35:31  5-MIN KSTC 241835Z 23006KT 10SM SCT100 06/00 A2955 1370 67 600 230/06 RMK AO2 T00560000
14926KSTC STC20191124124010611/24/19 12:40:31  5-MIN KSTC 241840Z 23005KT 10SM FEW100 06/00 A2955 1380 67 600 230/05 RMK AO2 T00560000
14926KSTC STC20191124124510311/24/19 12:45:31  5-MIN KSTC 241845Z 24003KT 10SM CLR 06/00 A2955 1380 65 700 240/03 RMK AO2 T00610000
14926KSTC STC20191124125011011/24/19 12:50:31  5-MIN KSTC 241850Z 23003KT 10SM CLR 06/00 A2955 1380 65 700 230/03 RMK AO2 SLP022 T00610000
14926KSTC STC20191124125510311/24/19 12:55:31  5-MIN KSTC 241855Z 00000KT 10SM CLR 07/00 A2955 1380 62 700 000/00 RMK AO2 T00670000
14926KSTC STC20191124130010311/24/19 13:00:31  5-MIN KSTC 241900Z 23003KT 10SM CLR 07/00 A2955 1380 62 700 230/03 RMK AO2 T00670000
14926KSTC STC20191124130510311/24/19 13:05:31  5-MIN KSTC 241905Z 22004KT 10SM CLR 07/00 A2955 1380 62 700 220/04 RMK AO2 T00670000
14926KSTC STC20191124131010311/24/19 13:10:31  5-MIN KSTC 241910Z 22004KT 10SM CLR 06/00 A2955 1380 65 700 220/04 RMK AO2 T00610000
14926KSTC STC20191124131510311/24/19 13:15:31  5-MIN KSTC 241915Z 24004KT 10SM CLR 07/00 A2954 1380 62 800 240/04 RMK AO2 T00670000
14926KSTC STC20191124132010311/24/19 13:20:31  5-MIN KSTC 241920Z 22004KT 10SM CLR 07/00 A2954 1390 62 800 220/04 RMK AO2 T00670000
14926KSTC STC20191124132510311/24/19 13:25:31  5-MIN KSTC 241925Z 23003KT 10SM CLR 07/00 A2954 1390 62 800 230/03 RMK AO2 T00670000
14926KSTC STC20191124133010311/24/19 13:30:31  5-MIN KSTC 241930Z 23004KT 10SM CLR 07/00 A2954 1390 60 800 230/04 RMK AO2 T00720000
14926KSTC STC20191124133510311/24/19 13:35:31  5-MIN KSTC 241935Z 19004KT 10SM CLR 07/00 A2954 1390 60 800 190/04 RMK AO2 T00720000
14926KSTC STC20191124134010611/24/19 13:40:31  5-MIN KSTC 241940Z 22003KT 10SM FEW110 07/00 A2953 1390 62 800 220/03 RMK AO2 T00670000
14926KSTC STC20191124134510611/24/19 13:45:31  5-MIN KSTC 241945Z 19005KT 10SM FEW100 07/00 A2953 1390 62 800 190/05 RMK AO2 T00670000
14926KSTC STC20191124135011311/24/19 13:50:31  5-MIN KSTC 241950Z 21005KT 10SM FEW110 07/00 A2953 1400 62 800 210/05 RMK AO2 SLP016 T00670000
14926KSTC STC20191124135510611/24/19 13:55:31  5-MIN KSTC 241955Z 20005KT 10SM FEW110 07/00 A2953 1400 62 800 190/05 RMK AO2 T00670000
14926KSTC STC20191124140010611/24/19 14:00:31  5-MIN KSTC 242000Z 21004KT 10SM SCT110 07/00 A2953 1400 62 800 200/04 RMK AO2 T00670000
14926KSTC STC20191124140510711/24/19 14:05:31  5-MIN KSTC 242005Z 21005KT 10SM BKN110 07/M01 A2953 1390 60 800 210/05 RMK AO2 T00671006
14926KSTC STC20191124141011411/24/19 14:10:31  5-MIN KSTC 242010Z 21005KT 10SM BKN100 BKN110 07/M01 A2953 1390 60 800 210/05 RMK AO2 T00671006
14926KSTC STC20191124141512011/24/19 14:15:31  5-MIN KSTC 242015Z 19005KT 10SM FEW070 SCT090 BKN110 07/00 A2953 1400 62 800 180/05 RMK AO2 T00670000
14926KSTC STC20191124142011311/24/19 14:20:31  5-MIN KSTC 242020Z 19006KT 10SM SCT075 BKN100 07/00 A2953 1400 62 800 190/06 RMK AO2 T00670000
14926KSTC STC20191124142512011/24/19 14:25:31  5-MIN KSTC 242025Z 19005KT 10SM BKN070 BKN085 OVC110 07/00 A2953 1400 62 800 190/05 RMK AO2 T00670000
14926KSTC STC20191124143011311/24/19 14:30:31  5-MIN KSTC 242030Z 20005KT 10SM BKN070 OVC095 07/00 A2953 1400 62 800 200/05 RMK AO2 T00670000
14926KSTC STC20191124143511311/24/19 14:35:31  5-MIN KSTC 242035Z 21005KT 10SM BKN065 OVC090 07/00 A2953 1390 62 800 210/05 RMK AO2 T00670000
14926KSTC STC20191124144010611/24/19 14:40:31  5-MIN KSTC 242040Z 22005KT 10SM BKN070 07/00 A2953 1400 62 800 220/05 RMK AO2 T00670000
14926KSTC STC20191124144510711/24/19 14:45:31  5-MIN KSTC 242045Z 21005KT 10SM BKN070 07/M01 A2953 1400 60 800 210/05 RMK AO2 T00671006
14926KSTC STC20191124145012611/24/19 14:50:31  5-MIN KSTC 242050Z 20007KT 10SM BKN070 BKN090 07/00 A2952 1400 62 800 200/07 RMK AO2 SLP014 T00670000 58011
14926KSTC STC20191124145512011/24/19 14:55:31  5-MIN KSTC 242055Z 18005KT 10SM SCT065 BKN080 BKN090 06/00 A2952 1400 65 700 180/05 RMK AO2 T00610000
14926KSTC STC20191124150011311/24/19 15:00:31  5-MIN KSTC 242100Z 19005KT 10SM BKN070 BKN090 06/00 A2953 1400 65 700 190/05 RMK AO2 T00610000
14926KSTC STC20191124150511311/24/19 15:05:31  5-MIN KSTC 242105Z 19005KT 10SM BKN065 OVC090 06/00 A2952 1400 65 700 190/05 RMK AO2 T00610000
14926KSTC STC20191124151011311/24/19 15:10:31  5-MIN KSTC 242110Z 18005KT 10SM BKN060 BKN090 06/00 A2952 1410 65 700 180/05 RMK AO2 T00610000
14926KSTC STC20191124151511311/24/19 15:15:31  5-MIN KSTC 242115Z 15005KT 10SM BKN060 OVC090 06/00 A2951 1410 67 700 150/05 RMK AO2 T00560000
14926KSTC STC20191124152010611/24/19 15:20:31  5-MIN KSTC 242120Z 11004KT 10SM OVC060 06/00 A2951 1420 67 700 110/04 RMK AO2 T00560000
14926KSTC STC20191124152511311/24/19 15:25:31  5-MIN KSTC 242125Z 14005KT 10SM BKN060 OVC075 06/00 A2951 1410 67 700 140/05 RMK AO2 T00560000
14926KSTC STC20191124153011311/24/19 15:30:31  5-MIN KSTC 242130Z VRB03KT 10SM BKN060 OVC075 06/00 A2953 1400 67 600 VRB/03 RMK AO2 T00560000
14926KSTC STC20191124153511311/24/19 15:35:31  5-MIN KSTC 242135Z 25007KT 10SM SCT060 OVC080 06/00 A2953 1390 67 600 250/07 RMK AO2 T00560000
14926KSTC STC20191124154011311/24/19 15:40:31  5-MIN KSTC 242140Z 23005KT 10SM SCT060 OVC080 06/00 A2953 1400 67 600 230/05 RMK AO2 T00560000
14926KSTC STC20191124154512011/24/19 15:45:31  5-MIN KSTC 242145Z 20005KT 10SM FEW060 BKN080 OVC095 06/00 A2952 1400 67 600 200/05 RMK AO2 T00560000
14926KSTC STC20191124155012011/24/19 15:50:31  5-MIN KSTC 242150Z 20005KT 10SM BKN080 OVC095 06/00 A2952 1400 67 600 200/05 RMK AO2 SLP015 T00560000
14926KSTC STC20191124155511311/24/19 15:55:31  5-MIN KSTC 242155Z 19004KT 10SM SCT075 OVC095 05/00 A2952 1410 70 600 190/04 RMK AO2 T00500000
14926KSTC STC20191124160011311/24/19 16:00:31  5-MIN KSTC 242200Z 17005KT 10SM BKN075 OVC095 05/00 A2952 1410 70 600 170/05 RMK AO2 T00500000
14926KSTC STC20191124160511311/24/19 16:05:31  5-MIN KSTC 242205Z 16005KT 10SM BKN070 OVC090 05/00 A2952 1410 70 600 160/05 RMK AO2 T00500000
14926KSTC STC20191124161011311/24/19 16:10:31  5-MIN KSTC 242210Z 16005KT 10SM BKN070 OVC095 05/00 A2952 1410 70 600 160/05 RMK AO2 T00500000
14926KSTC STC20191124161511311/24/19 16:15:31  5-MIN KSTC 242215Z 16005KT 10SM BKN070 OVC095 04/00 A2951 1410 73 500 160/05 RMK AO2 T00440000
14926KSTC STC20191124162010611/24/19 16:20:31  5-MIN KSTC 242220Z 15006KT 10SM OVC070 04/00 A2951 1420 73 500 150/06 RMK AO2 T00440000
14926KSTC STC20191124162510611/24/19 16:25:31  5-MIN KSTC 242225Z 15007KT 10SM OVC070 04/00 A2951 1420 73 500 150/07 RMK AO2 T00440000
14926KSTC STC20191124163010611/24/19 16:30:31  5-MIN KSTC 242230Z 15006KT 10SM OVC070 04/00 A2951 1420 76 500 150/06 RMK AO2 T00390000
14926KSTC STC20191124163510611/24/19 16:35:31  5-MIN KSTC 242235Z 16006KT 10SM OVC070 04/00 A2951 1410 76 500 150/06 RMK AO2 T00390000
14926KSTC STC20191124164010611/24/19 16:40:31  5-MIN KSTC 242240Z 17004KT 10SM OVC070 04/00 A2951 1410 76 400 170/04 RMK AO2 T00390000
14926KSTC STC20191124164510611/24/19 16:45:31  5-MIN KSTC 242245Z 17005KT 10SM OVC070 04/00 A2951 1420 76 500 170/05 RMK AO2 T00390000
14926KSTC STC20191124165011311/24/19 16:50:31  5-MIN KSTC 242250Z 17005KT 10SM OVC070 04/00 A2951 1420 73 500 170/05 RMK AO2 SLP009 T00440000
14926KSTC STC20191124165510611/24/19 16:55:31  5-MIN KSTC 242255Z 16005KT 10SM OVC070 04/00 A2950 1420 73 500 160/05 RMK AO2 T00440000
14926KSTC STC20191124170010611/24/19 17:00:31  5-MIN KSTC 242300Z 15006KT 10SM OVC070 04/00 A2950 1430 76 500 150/06 RMK AO2 T00390000
14926KSTC STC20191124170510611/24/19 17:05:31  5-MIN KSTC 242305Z 15007KT 10SM OVC065 04/00 A2950 1430 76 500 140/07 RMK AO2 T00390000
14926KSTC STC20191124171010611/24/19 17:10:31  5-MIN KSTC 242310Z 15007KT 10SM OVC065 04/00 A2950 1430 76 500 150/07 RMK AO2 T00390000
14926KSTC STC20191124171510611/24/19 17:15:31  5-MIN KSTC 242315Z 15005KT 10SM OVC070 04/00 A2950 1430 76 500 150/05 RMK AO2 T00390000
14926KSTC STC20191124172010611/24/19 17:20:31  5-MIN KSTC 242320Z 15006KT 10SM OVC065 04/00 A2950 1430 76 500 150/06 RMK AO2 T00390000
14926KSTC STC20191124172510611/24/19 17:25:31  5-MIN KSTC 242325Z 15006KT 10SM OVC065 04/00 A2950 1430 76 500 150/06 RMK AO2 T00390000
14926KSTC STC20191124173010611/24/19 17:30:31  5-MIN KSTC 242330Z 16005KT 10SM OVC070 04/00 A2950 1430 76 500 160/05 RMK AO2 T00390000
14926KSTC STC20191124173510611/24/19 17:35:31  5-MIN KSTC 242335Z 16005KT 10SM OVC065 04/00 A2950 1430 76 500 160/05 RMK AO2 T00390000
14926KSTC STC20191124174010611/24/19 17:40:31  5-MIN KSTC 242340Z 16005KT 10SM OVC065 03/00 A2950 1430 79 400 160/05 RMK AO2 T00330000
14926KSTC STC20191124174511311/24/19 17:45:31  5-MIN KSTC 242345Z 16005KT 10SM BKN065 OVC085 03/00 A2949 1430 79 400 160/05 RMK AO2 T00330000
14926KSTC STC20191124175013811/24/19 17:50:31  5-MIN KSTC 242350Z 16005KT 10SM SCT060 OVC080 04/00 A2949 1430 76 500 160/05 RMK AO2 SLP004 T00390000 10072 20033 56017
14926KSTC STC20191124175511311/24/19 17:55:31  5-MIN KSTC 242355Z 16006KT 10SM BKN065 OVC085 04/00 A2949 1430 76 500 160/06 RMK AO2 T00390000
14926KSTC STC20191124180011311/24/19 18:00:31  5-MIN KSTC 250000Z 16006KT 10SM SCT060 OVC080 04/00 A2949 1440 76 500 160/06 RMK AO2 T00390000
14926KSTC STC20191124180511311/24/19 18:05:31  5-MIN KSTC 250005Z 15007KT 10SM FEW060 OVC080 04/00 A2948 1440 76 500 150/07 RMK AO2 T00390000
14926KSTC STC20191124181010611/24/19 18:10:31  5-MIN KSTC 250010Z 16005KT 10SM OVC080 04/00 A2949 1440 76 500 160/05 RMK AO2 T00390000
14926KSTC STC20191124181511311/24/19 18:15:31  5-MIN KSTC 250015Z 17006KT 10SM BKN080 OVC090 04/00 A2948 1440 73 600 170/06 RMK AO2 T00440000
14926KSTC STC20191124182010611/24/19 18:20:31  5-MIN KSTC 250020Z 16006KT 10SM OVC085 04/01 A2948 1440 76 600 160/06 RMK AO2 T00440006
14926KSTC STC20191124182510611/24/19 18:25:31  5-MIN KSTC 250025Z 16003KT 10SM OVC085 04/01 A2948 1440 79 500 160/03 RMK AO2 T00390006
14926KSTC STC20191124183010611/24/19 18:30:31  5-MIN KSTC 250030Z 17006KT 10SM OVC085 04/01 A2948 1440 79 500 160/06 RMK AO2 T00390006
14926KSTC STC20191124183511311/24/19 18:35:31  5-MIN KSTC 250035Z 17006KT 10SM BKN075 OVC090 04/01 A2949 1440 76 500 170/06 RMK AO2 T00440006
14926KSTC STC20191124184011311/24/19 18:40:31  5-MIN KSTC 250040Z 17006KT 10SM BKN075 OVC090 04/01 A2948 1440 76 500 170/06 RMK AO2 T00440006
14926KSTC STC20191124184510611/24/19 18:45:31  5-MIN KSTC 250045Z 17006KT 10SM OVC080 04/01 A2948 1440 76 600 170/06 RMK AO2 T00440006
14926KSTC STC20191124185011311/24/19 18:50:31  5-MIN KSTC 250050Z 17006KT 10SM OVC080 04/01 A2948 1440 79 500 170/06 RMK AO2 SLP001 T00390006
14926KSTC STC20191124185510611/24/19 18:55:31  5-MIN KSTC 250055Z 17007KT 10SM OVC080 04/01 A2948 1440 76 600 170/07 RMK AO2 T00440006
14926KSTC STC20191124190011311/24/19 19:00:31  5-MIN KSTC 250100Z 18007KT 10SM BKN070 OVC085 04/01 A2948 1440 76 600 170/07 RMK AO2 T00440006
14926KSTC STC20191124190511311/24/19 19:05:31  5-MIN KSTC 250105Z 18008KT 10SM BKN070 OVC085 04/01 A2948 1440 76 600 170/08 RMK AO2 T00440006
14926KSTC STC20191124191011311/24/19 19:10:31  5-MIN KSTC 250110Z 17007KT 10SM BKN070 OVC085 04/01 A2949 1440 79 500 170/07 RMK AO2 T00390006
14926KSTC STC20191124191511311/24/19 19:15:31  5-MIN KSTC 250115Z 19006KT 10SM SCT065 OVC080 04/01 A2948 1440 76 500 190/06 RMK AO2 T00440006
14926KSTC STC20191124192011311/24/19 19:20:31  5-MIN KSTC 250120Z 18005KT 10SM BKN075 OVC090 04/01 A2948 1440 79 500 180/05 RMK AO2 T00390006
14926KSTC STC20191124192510611/24/19 19:25:31  5-MIN KSTC 250125Z 17005KT 10SM OVC075 04/01 A2948 1440 79 500 170/05 RMK AO2 T00390006
14926KSTC STC20191124193011311/24/19 19:30:31  5-MIN KSTC 250130Z 17006KT 10SM BKN075 OVC090 04/01 A2948 1440 79 500 170/06 RMK AO2 T00390006
14926KSTC STC20191124193511311/24/19 19:35:31  5-MIN KSTC 250135Z 18005KT 10SM BKN075 OVC090 04/01 A2948 1440 79 500 180/05 RMK AO2 T00390006
14926KSTC STC20191124194011311/24/19 19:40:31  5-MIN KSTC 250140Z 18006KT 10SM BKN075 OVC090 04/01 A2948 1440 79 500 180/06 RMK AO2 T00390006
14926KSTC STC20191124194511311/24/19 19:45:31  5-MIN KSTC 250145Z 18006KT 10SM BKN070 OVC090 04/01 A2948 1450 79 500 180/06 RMK AO2 T00390006
14926KSTC STC20191124195012011/24/19 19:50:31  5-MIN KSTC 250150Z 18006KT 10SM BKN070 OVC090 04/01 A2948 1450 79 500 180/06 RMK AO2 SLP000 T00390006
14926KSTC STC20191124195511311/24/19 19:55:31  5-MIN KSTC 250155Z 18005KT 10SM BKN070 OVC090 04/01 A2947 1450 79 500 180/05 RMK AO2 T00390006
14926KSTC STC20191124200011311/24/19 20:00:31  5-MIN KSTC 250200Z 16007KT 10SM BKN070 OVC090 04/01 A2947 1460 79 500 160/07 RMK AO2 T00390006
14926KSTC STC20191124200511311/24/19 20:05:31  5-MIN KSTC 250205Z 16006KT 10SM BKN070 OVC100 04/01 A2946 1460 79 500 160/06 RMK AO2 T00390006
14926KSTC STC20191124201011311/24/19 20:10:31  5-MIN KSTC 250210Z 17007KT 10SM BKN070 OVC100 04/01 A2946 1460 79 500 170/07 RMK AO2 T00390006
14926KSTC STC20191124201511311/24/19 20:15:31  5-MIN KSTC 250215Z 17007KT 10SM SCT070 OVC100 04/01 A2946 1460 79 500 170/07 RMK AO2 T00390006
14926KSTC STC20191124202012011/24/19 20:20:31  5-MIN KSTC 250220Z 17008KT 10SM FEW070 BKN085 OVC100 04/01 A2946 1460 79 500 170/08 RMK AO2 T00390006
14926KSTC STC20191125084511011/25/19 08:45:31  5-MIN KSTC 251445Z 25014G22KT 10SM CLR 03/M01 A2941 1510 72 500 250/14G22 RMK AO2 T00331011
14926KSTC STC20191125085012311/25/19 08:50:31  5-MIN KSTC 251450Z 25013G22KT 10SM CLR 03/M01 A2941 1510 72 500 250/13G22 RMK AO2 SLP976 T00331011 53002
14926KSTC STC20191125085511311/25/19 08:55:31  5-MIN KSTC 251455Z 25016G24KT 10SM SCT038 04/M01 A2941 1510 70 600 250/16G24 RMK AO2 T00391011
14926KSTC STC20191125090011311/25/19 09:00:31  5-MIN KSTC 251500Z 25017G24KT 10SM BKN038 03/M01 A2941 1510 72 500 250/17G24 RMK AO2 T00331011
14926KSTC STC20191125090511311/25/19 09:05:31  5-MIN KSTC 251505Z 25015G24KT 10SM BKN038 03/M01 A2941 1510 72 500 250/15G24 RMK AO2 T00331011
14926KSTC STC20191125091011311/25/19 09:10:31  5-MIN KSTC 251510Z 25014G24KT 10SM BKN038 03/M01 A2941 1510 72 500 250/14G24 RMK AO2 T00331011
14926KSTC STC20191125091510711/25/19 09:15:31  5-MIN KSTC 251515Z 25017KT 10SM OVC039 03/M01 A2941 1510 72 500 250/17 RMK AO2 T00331011
14926KSTC STC20191125092011311/25/19 09:20:31  5-MIN KSTC 251520Z 25014G24KT 10SM OVC039 03/M01 A2942 1500 72 500 250/14G24 RMK AO2 T00331011
14926KSTC STC20191125092511311/25/19 09:25:31  5-MIN KSTC 251525Z 25015G24KT 10SM OVC039 03/M01 A2941 1510 72 500 250/15G24 RMK AO2 T00331011
14926KSTC STC20191125093013111/25/19 09:30:31  5-MIN KSTC 251530Z 25016G26KT 10SM OVC040 03/M01 A2941 1510 72 500 250/16G26 RMK AO2 PK WND 24026/1527 T00331011
14926KSTC STC20191125093513111/25/19 09:35:31  5-MIN KSTC 251535Z 25016G26KT 10SM OVC040 03/M01 A2941 1500 72 500 250/16G26 RMK AO2 PK WND 24026/1527 T00331011
14926KSTC STC20191125094013111/25/19 09:40:31  5-MIN KSTC 251540Z 25015G24KT 10SM OVC041 04/M01 A2942 1500 70 600 250/15G24 RMK AO2 PK WND 24026/1527 T00391011
14926KSTC STC20191125094512511/25/19 09:45:31  5-MIN KSTC 251545Z 25015KT 10SM OVC041 04/M01 A2942 1500 70 600 250/15 RMK AO2 PK WND 24026/1527 T00391011
14926KSTC STC20191125095013811/25/19 09:50:31  5-MIN KSTC 251550Z 25016G25KT 10SM OVC041 04/M01 A2942 1500 70 600 250/16G25 RMK AO2 PK WND 24026/1527 SLP978 T00391011
14926KSTC STC20191125095511311/25/19 09:55:31  5-MIN KSTC 251555Z 25016G25KT 10SM OVC041 04/M01 A2942 1500 70 600 250/16G25 RMK AO2 T00391011
14926KSTC STC20191125100013111/25/19 10:00:31  5-MIN KSTC 251600Z 25017G26KT 10SM OVC039 04/M01 A2942 1500 70 600 250/17G26 RMK AO2 PK WND 25026/1557 T00391011
14926KSTC STC20191125101010311/25/19 10:10:31  5-MIN KSTC 251610Z 25015G24KT 04/M01 A2942 1500 70 600 250/15G24 RMK AO2 T00391011 $
14926KSTC STC20191125101512111/25/19 10:15:31  5-MIN KSTC 251615Z 24015G27KT 04/M01 A2942 1500 70 600 240/15G27 RMK AO2 PK WND 25027/1612 T00391011 $
14926KSTC STC20191125102012611/25/19 10:20:31  5-MIN KSTC 251620Z 25015G27KT 10SM 04/M01 A2942 1500 70 600 250/15G27 RMK AO2 PK WND 25027/1612 T00391011 $
14926KSTC STC20191125102512611/25/19 10:25:31  5-MIN KSTC 251625Z 24016G24KT 10SM 04/M01 A2942 1500 70 600 240/16G24 RMK AO2 PK WND 25027/1612 T00391011 $
14926KSTC STC20191125103012611/25/19 10:30:31  5-MIN KSTC 251630Z 25016G24KT 10SM 04/M01 A2942 1500 70 600 250/16G24 RMK AO2 PK WND 25027/1612 T00391011 $
14926KSTC STC20191125103512611/25/19 10:35:31  5-MIN KSTC 251635Z 25016G24KT 10SM 04/M01 A2942 1500 70 600 240/16G24 RMK AO2 PK WND 25027/1612 T00391011 $
14926KSTC STC20191125104013311/25/19 10:40:31  5-MIN KSTC 251640Z 24013G24KT 10SM OVC037 04/M01 A2942 1500 70 600 240/13G24 RMK AO2 PK WND 25027/1612 T00391011 $
14926KSTC STC20191125104513311/25/19 10:45:31  5-MIN KSTC 251645Z 24014G23KT 10SM OVC037 04/M01 A2942 1500 67 600 240/14G23 RMK AO2 PK WND 25027/1612 T00441011 $
14926KSTC STC20191125105014011/25/19 10:50:31  5-MIN KSTC 251650Z 25016G23KT 10SM OVC037 04/M01 A2942 1500 67 600 250/16G23 RMK AO2 PK WND 25027/1612 SLP978 T00441011 $
14926KSTC STC20191125105511511/25/19 10:55:31  5-MIN KSTC 251655Z 24016G25KT 10SM OVC037 04/M01 A2942 1500 67 600 240/16G25 RMK AO2 T00441011 $
14926KSTC STC20191125110013311/25/19 11:00:31  5-MIN KSTC 251700Z 25016G29KT 10SM OVC039 04/M01 A2942 1500 67 600 240/16G29 RMK AO2 PK WND 25029/1656 T00441011 $
14926KSTC STC20191125110513311/25/19 11:05:31  5-MIN KSTC 251705Z 25018G29KT 10SM OVC039 04/M01 A2942 1500 67 600 250/18G29 RMK AO2 PK WND 25029/1656 T00441011 $
14926KSTC STC20191125111013311/25/19 11:10:31  5-MIN KSTC 251710Z 25019G29KT 10SM OVC039 04/M01 A2942 1500 67 600 250/19G29 RMK AO2 PK WND 25029/1656 T00441011 $
14926KSTC STC20191125111513311/25/19 11:15:31  5-MIN KSTC 251715Z 25017G29KT 10SM OVC040 04/M01 A2942 1500 67 600 250/17G29 RMK AO2 PK WND 25029/1656 T00441011 $
14926KSTC STC20191125112013311/25/19 11:20:31  5-MIN KSTC 251720Z 25018G25KT 10SM OVC040 04/M01 A2942 1500 67 600 240/18G25 RMK AO2 PK WND 25029/1656 T00441011 $
14926KSTC STC20191125112513311/25/19 11:25:31  5-MIN KSTC 251725Z 25020G26KT 10SM OVC040 04/M01 A2942 1500 70 600 250/20G26 RMK AO2 PK WND 25029/1656 T00391011 $
14926KSTC STC20191125113013311/25/19 11:30:31  5-MIN KSTC 251730Z 24017G26KT 10SM OVC040 04/M01 A2942 1500 70 600 240/17G26 RMK AO2 PK WND 25029/1656 T00391011 $
14926KSTC STC20191125113513311/25/19 11:35:31  5-MIN KSTC 251735Z 25016G27KT 10SM OVC040 04/M01 A2942 1500 70 600 250/16G27 RMK AO2 PK WND 25029/1656 T00391011 $
14926KSTC STC20191125114013311/25/19 11:40:31  5-MIN KSTC 251740Z 24020G28KT 10SM OVC040 04/M01 A2942 1500 70 600 240/20G28 RMK AO2 PK WND 25029/1656 T00391011 $
14926KSTC STC20191125114514011/25/19 11:45:31  5-MIN KSTC 251745Z 24022G30KT 10SM FEW027 OVC040 04/M01 A2942 1500 70 600 240/22G30 RMK AO2 PK WND 25030/1744 T00391011 $
14926KSTC STC20191125115015911/25/19 11:50:31  5-MIN KSTC 251750Z 24020G30KT 10SM FEW027 OVC040 04/M01 A2942 1500 70 600 240/20G30 RMK AO2 PK WND 25030/1744 SLP978 T00391011 10044 20022 $
14926KSTC STC20191125115512211/25/19 11:55:31  5-MIN KSTC 251755Z 23017G29KT 10SM FEW029 OVC040 04/M01 A2941 1500 67 600 230/17G29 RMK AO2 T00441011 $
14926KSTC STC20191125120012211/25/19 12:00:31  5-MIN KSTC 251800Z 24016G27KT 10SM SCT027 OVC040 04/M01 A2941 1510 67 600 240/16G27 RMK AO2 T00441011 $
14926KSTC STC20191125120514011/25/19 12:05:31  5-MIN KSTC 251805Z 24018G26KT 10SM BKN027 OVC040 04/M01 A2941 1510 67 600 240/18G26 RMK AO2 PK WND 24026/1804 T00441011 $
14926KSTC STC20191125121014011/25/19 12:10:31  5-MIN KSTC 251810Z 25019G31KT 10SM BKN027 OVC038 04/M01 A2941 1510 70 600 240/19G31 RMK AO2 PK WND 25031/1807 T00391011 $
14926KSTC STC20191125121514011/25/19 12:15:31  5-MIN KSTC 251815Z 25015G31KT 10SM BKN025 OVC038 04/M01 A2941 1510 70 600 240/15G31 RMK AO2 PK WND 25031/1807 T00391011 $
14926KSTC STC20191125122014011/25/19 12:20:31  5-MIN KSTC 251820Z 25015G26KT 10SM BKN025 OVC038 04/M01 A2941 1510 70 600 250/15G26 RMK AO2 PK WND 25031/1807 T00391011 $
14926KSTC STC20191125122513311/25/19 12:25:31  5-MIN KSTC 251825Z 24019G26KT 10SM OVC025 04/M01 A2941 1510 70 600 240/19G26 RMK AO2 PK WND 25031/1807 T00391011 $
14926KSTC STC20191125123013311/25/19 12:30:31  5-MIN KSTC 251830Z 25019G28KT 10SM OVC025 04/M01 A2941 1510 67 600 250/19G28 RMK AO2 PK WND 25031/1807 T00441011 $
14926KSTC STC20191125123513311/25/19 12:35:31  5-MIN KSTC 251835Z 25016G28KT 10SM OVC025 04/M01 A2941 1510 67 600 250/16G28 RMK AO2 PK WND 25031/1807 T00441011 $
14926KSTC STC20191125124013311/25/19 12:40:31  5-MIN KSTC 251840Z 25018G24KT 10SM OVC025 04/M01 A2941 1510 67 600 250/18G24 RMK AO2 PK WND 25031/1807 T00441011 $
14926KSTC STC20191125124513311/25/19 12:45:31  5-MIN KSTC 251845Z 26019G27KT 10SM OVC025 04/M01 A2941 1510 67 600 260/19G27 RMK AO2 PK WND 25031/1807 T00441011 $
14926KSTC STC20191125125014011/25/19 12:50:31  5-MIN KSTC 251850Z 26021G29KT 10SM OVC025 04/M01 A2941 1510 67 600 260/21G29 RMK AO2 PK WND 25031/1807 SLP976 T00441011 $
14926KSTC STC20191125125513311/25/19 12:55:31  5-MIN KSTC 251855Z 25020G32KT 10SM OVC025 04/M01 A2941 1510 67 600 250/20G32 RMK AO2 PK WND 27028/1854 T00441011 $
14926KSTC STC20191125130013311/25/19 13:00:31  5-MIN KSTC 251900Z 25021G33KT 10SM OVC025 04/M01 A2941 1510 67 600 250/21G33 RMK AO2 PK WND 25033/1856 T00441011 $
14926KSTC STC20191125130513311/25/19 13:05:31  5-MIN KSTC 251905Z 26020G33KT 10SM OVC025 04/M01 A2941 1510 67 600 260/20G33 RMK AO2 PK WND 25033/1856 T00441011 $
14926KSTC STC20191125131013311/25/19 13:10:31  5-MIN KSTC 251910Z 27021G33KT 10SM OVC025 04/M01 A2942 1500 67 600 270/21G33 RMK AO2 PK WND 25033/1856 T00441011 $
14926KSTC STC20191125131513311/25/19 13:15:31  5-MIN KSTC 251915Z 27017G34KT 10SM OVC025 04/M01 A2942 1500 70 600 270/17G34 RMK AO2 PK WND 26034/1912 T00391011 $
14926KSTC STC20191125132013311/25/19 13:20:31  5-MIN KSTC 251920Z 27018G34KT 10SM OVC025 04/M01 A2942 1500 70 600 260/18G34 RMK AO2 PK WND 26034/1912 T00391011 $
14926KSTC STC20191125132514011/25/19 13:25:31  5-MIN KSTC 251925Z 27024G34KT 10SM BKN023 OVC028 04/M01 A2942 1500 70 600 270/24G34 RMK AO2 PK WND 26034/1912 T00391011 $
14926KSTC STC20191125133014011/25/19 13:30:31  5-MIN KSTC 251930Z 27017G34KT 10SM BKN023 OVC028 04/M01 A2943 1490 70 500 270/17G34 RMK AO2 PK WND 26034/1912 T00391011 $
14926KSTC STC20191125133513311/25/19 13:35:31  5-MIN KSTC 251935Z 27018G33KT 10SM OVC023 04/M01 A2943 1490 70 500 270/18G33 RMK AO2 PK WND 26034/1912 T00391011 $
14926KSTC STC20191125134013311/25/19 13:40:31  5-MIN KSTC 251940Z 27018G27KT 10SM OVC023 04/M01 A2943 1490 70 500 270/18G27 RMK AO2 PK WND 26034/1912 T00391011 $
14926KSTC STC20191125134513311/25/19 13:45:31  5-MIN KSTC 251945Z 27020G27KT 10SM OVC022 04/M01 A2943 1490 70 500 270/20G27 RMK AO2 PK WND 26034/1912 T00391011 $
14926KSTC STC20191125135014011/25/19 13:50:31  5-MIN KSTC 251950Z 27018G27KT 10SM OVC022 04/M01 A2943 1490 70 500 270/18G27 RMK AO2 PK WND 26034/1912 SLP983 T00391011 $
14926KSTC STC20191125135511511/25/19 13:55:31  5-MIN KSTC 251955Z 27018G27KT 10SM OVC022 04/M01 A2943 1490 70 500 270/18G27 RMK AO2 T00391011 $
14926KSTC STC20191125140013311/25/19 14:00:31  5-MIN KSTC 252000Z 28018G29KT 10SM OVC022 03/M01 A2943 1490 72 500 270/18G29 RMK AO2 PK WND 27029/1958 T00331011 $
14926KSTC STC20191125140514011/25/19 14:05:31  5-MIN KSTC 252005Z 27022G32KT 10SM BKN022 OVC028 04/M01 A2944 1480 70 500 270/22G32 RMK AO2 PK WND 27032/2003 T00391011 $
14926KSTC STC20191125141014011/25/19 14:10:31  5-MIN KSTC 252010Z 27016G32KT 10SM BKN024 OVC029 04/M01 A2944 1480 70 500 270/16G32 RMK AO2 PK WND 27032/2003 T00391011 $
14926KSTC STC20191125141514011/25/19 14:15:31  5-MIN KSTC 252015Z 27019G31KT 10SM BKN022 OVC029 04/M01 A2944 1480 70 500 270/19G31 RMK AO2 PK WND 27032/2003 T00391011 $
14926KSTC STC20191125142014011/25/19 14:20:31  5-MIN KSTC 252020Z 28020G31KT 10SM BKN022 OVC029 03/M01 A2944 1480 72 500 280/20G31 RMK AO2 PK WND 27032/2003 T00331011 $
14926KSTC STC20191125142513311/25/19 14:25:31  5-MIN KSTC 252025Z 27015G30KT 10SM OVC022 03/M01 A2944 1480 72 500 270/15G30 RMK AO2 PK WND 27032/2003 T00331011 $
14926KSTC STC20191125143014011/25/19 14:30:31  5-MIN KSTC 252030Z 27016G25KT 10SM BKN022 OVC028 03/M01 A2944 1480 72 500 270/16G25 RMK AO2 PK WND 27032/2003 T00331011 $
14926KSTC STC20191125143513311/25/19 14:35:31  5-MIN KSTC 252035Z 27017G25KT 10SM OVC022 03/M01 A2945 1470 72 500 270/17G25 RMK AO2 PK WND 27032/2003 T00331011 $
14926KSTC STC20191125144013311/25/19 14:40:31  5-MIN KSTC 252040Z 28017G25KT 10SM OVC022 03/M01 A2945 1470 72 500 280/17G25 RMK AO2 PK WND 27032/2003 T00331011 $
14926KSTC STC20191125144513311/25/19 14:45:31  5-MIN KSTC 252045Z 27018G31KT 10SM OVC021 03/M01 A2945 1470 72 500 270/18G31 RMK AO2 PK WND 27032/2003 T00331011 $
14926KSTC STC20191125145014011/25/19 14:50:31  5-MIN KSTC 252050Z 28018G31KT 10SM OVC021 03/M01 A2946 1470 72 400 280/18G31 RMK AO2 PK WND 27032/2003 SLP991 T00331011 $
14926KSTC STC20191125145513311/25/19 14:55:31  5-MIN KSTC 252055Z 27017G27KT 10SM OVC020 03/M01 A2946 1460 72 400 270/17G27 RMK AO2 PK WND 28027/2054 T00331011 $
14926KSTC STC20191125150013311/25/19 15:00:31  5-MIN KSTC 252100Z 28016G27KT 10SM OVC020 03/M01 A2946 1460 72 400 280/16G27 RMK AO2 PK WND 28027/2054 T00331011 $
14926KSTC STC20191125150513311/25/19 15:05:31  5-MIN KSTC 252105Z 28017G25KT 10SM OVC020 03/M01 A2946 1460 72 400 280/17G25 RMK AO2 PK WND 28027/2054 T00331011 $
14926KSTC STC20191125151013311/25/19 15:10:31  5-MIN KSTC 252110Z 28017G23KT 10SM OVC020 03/M01 A2946 1460 72 400 280/17G23 RMK AO2 PK WND 28027/2054 T00331011 $
14926KSTC STC20191125151513311/25/19 15:15:31  5-MIN KSTC 252115Z 27013G23KT 10SM OVC020 03/M01 A2947 1450 72 400 270/13G23 RMK AO2 PK WND 28027/2054 T00331011 $
14926KSTC STC20191125152013311/25/19 15:20:31  5-MIN KSTC 252120Z 27017G26KT 10SM OVC020 03/M01 A2947 1450 72 400 270/17G26 RMK AO2 PK WND 28027/2054 T00331011 $
14926KSTC STC20191125152513311/25/19 15:25:31  5-MIN KSTC 252125Z 28017G30KT 10SM OVC020 03/M01 A2947 1450 72 400 270/17G30 RMK AO2 PK WND 30030/2122 T00331011 $
14926KSTC STC20191125153013311/25/19 15:30:31  5-MIN KSTC 252130Z 27018G30KT 10SM OVC020 03/M01 A2948 1450 72 400 270/18G30 RMK AO2 PK WND 30030/2122 T00331011 $
14926KSTC STC20191125153513311/25/19 15:35:31  5-MIN KSTC 252135Z 28014G28KT 10SM OVC020 03/M01 A2948 1450 72 400 280/14G28 RMK AO2 PK WND 30030/2122 T00331011 $
14926KSTC STC20191125154013311/25/19 15:40:31  5-MIN KSTC 252140Z 28017G25KT 10SM OVC021 03/M01 A2948 1440 72 400 280/17G25 RMK AO2 PK WND 30030/2122 T00331011 $
14926KSTC STC20191125154513311/25/19 15:45:31  5-MIN KSTC 252145Z 28015G25KT 10SM OVC021 03/M01 A2948 1440 72 400 280/15G25 RMK AO2 PK WND 30030/2122 T00331011 $
14926KSTC STC20191125155014011/25/19 15:50:31  5-MIN KSTC 252150Z 29021G27KT 10SM OVC021 03/M01 A2948 1440 72 400 290/21G27 RMK AO2 PK WND 30030/2122 SLP001 T00331011 $
14926KSTC STC20191125155511511/25/19 15:55:31  5-MIN KSTC 252155Z 29017G27KT 10SM OVC021 03/M01 A2949 1440 72 400 290/17G27 RMK AO2 T00331011 $
14926KSTC STC20191125160013311/25/19 16:00:31  5-MIN KSTC 252200Z 28016G27KT 10SM OVC021 03/M01 A2949 1430 72 400 280/16G27 RMK AO2 PK WND 30027/2156 T00331011 $
14926KSTC STC20191125160513311/25/19 16:05:31  5-MIN KSTC 252205Z 29018G27KT 10SM OVC021 03/M01 A2949 1430 72 400 290/18G27 RMK AO2 PK WND 30027/2156 T00331011 $
14926KSTC STC20191125161013311/25/19 16:10:31  5-MIN KSTC 252210Z 29021G28KT 10SM OVC021 03/M01 A2949 1430 72 400 290/21G28 RMK AO2 PK WND 30028/2209 T00331011 $
14926KSTC STC20191125161513311/25/19 16:15:31  5-MIN KSTC 252215Z 29020G28KT 10SM OVC021 03/M01 A2950 1430 72 400 290/20G28 RMK AO2 PK WND 30028/2209 T00331011 $
14926KSTC STC20191125162013311/25/19 16:20:31  5-MIN KSTC 252220Z 29017G26KT 10SM OVC021 03/M01 A2950 1430 75 300 290/17G26 RMK AO2 PK WND 30028/2209 T00281011 $
14926KSTC STC20191125162513311/25/19 16:25:31  5-MIN KSTC 252225Z 29018G25KT 10SM OVC024 03/M02 A2950 1420 72 300 290/18G25 RMK AO2 PK WND 30028/2209 T00281017 $
14926KSTC STC20191125163014011/25/19 16:30:31  5-MIN KSTC 252230Z 29016G25KT 10SM SCT021 OVC026 03/M02 A2951 1420 72 300 290/16G25 RMK AO2 PK WND 30028/2209 T00281017 $
14926KSTC STC20191125163514011/25/19 16:35:31  5-MIN KSTC 252235Z 29018G24KT 10SM SCT021 OVC026 03/M02 A2951 1410 72 300 290/18G24 RMK AO2 PK WND 30028/2209 T00281017 $
14926KSTC STC20191125164013311/25/19 16:40:31  5-MIN KSTC 252240Z 29018G26KT 10SM OVC025 03/M02 A2952 1410 72 300 290/18G26 RMK AO2 PK WND 30028/2209 T00281017 $
14926KSTC STC20191125164513311/25/19 16:45:31  5-MIN KSTC 252245Z 28016G26KT 10SM OVC025 03/M02 A2952 1400 72 300 280/16G26 RMK AO2 PK WND 30028/2209 T00281017 $
14926KSTC STC20191125165013411/25/19 16:50:31  5-MIN KSTC 252250Z 29017KT 10SM OVC025 03/M02 A2953 1400 72 300 290/17 RMK AO2 PK WND 30028/2209 SLP016 T00281017 $
14926KSTC STC20191125165511511/25/19 16:55:31  5-MIN KSTC 252255Z 29016G23KT 10SM OVC025 03/M02 A2953 1400 72 300 290/16G23 RMK AO2 T00281017 $
14926KSTC STC20191125170011511/25/19 17:00:31  5-MIN KSTC 252300Z 29016G24KT 10SM OVC025 03/M02 A2953 1400 72 300 290/16G24 RMK AO2 T00281017 $
14926KSTC STC20191125170511511/25/19 17:05:31  5-MIN KSTC 252305Z 30016G24KT 10SM OVC025 03/M02 A2954 1390 72 300 300/16G24 RMK AO2 T00281017 $
14926KSTC STC20191125171011511/25/19 17:10:31  5-MIN KSTC 252310Z 30017G25KT 10SM OVC025 03/M02 A2954 1390 72 300 300/17G25 RMK AO2 T00281017 $
14926KSTC STC20191125171511511/25/19 17:15:31  5-MIN KSTC 252315Z 30017G25KT 10SM OVC024 03/M02 A2954 1380 72 300 300/17G25 RMK AO2 T00281017 $
14926KSTC STC20191125172011511/25/19 17:20:31  5-MIN KSTC 252320Z 30017G25KT 10SM OVC024 03/M02 A2955 1380 72 300 300/17G25 RMK AO2 T00281017 $
14926KSTC STC20191125172511511/25/19 17:25:31  5-MIN KSTC 252325Z 31017G25KT 10SM OVC024 03/M02 A2956 1370 72 300 300/17G25 RMK AO2 T00281017 $
14926KSTC STC20191125173011511/25/19 17:30:31  5-MIN KSTC 252330Z 30017G25KT 10SM OVC024 03/M02 A2956 1370 72 300 300/17G25 RMK AO2 T00281017 $
14926KSTC STC20191125173511511/25/19 17:35:31  5-MIN KSTC 252335Z 31016G25KT 10SM OVC023 03/M02 A2956 1370 72 300 310/16G25 RMK AO2 T00281017 $
14926KSTC STC20191125174011511/25/19 17:40:31  5-MIN KSTC 252340Z 30016G25KT 10SM OVC023 03/M02 A2957 1360 72 300 300/16G25 RMK AO2 T00281017 $
14926KSTC STC20191125174511511/25/19 17:45:31  5-MIN KSTC 252345Z 31019G25KT 10SM OVC023 03/M02 A2957 1360 72 200 310/19G25 RMK AO2 T00281017 $
14926KSTC STC20191125175015811/25/19 17:50:31  5-MIN KSTC 252350Z 31021G28KT 10SM OVC023 03/M02 A2957 1360 72 200 310/21G28 RMK AO2 PK WND 31028/2349 SLP032 T00281017 10044 20028 53014 $
14926KSTC STC20191125175513311/25/19 17:55:31  5-MIN KSTC 252355Z 31021G32KT 10SM OVC023 03/M02 A2958 1350 72 200 310/21G32 RMK AO2 PK WND 31027/2355 T00281017 $
14926KSTC STC20191125180013311/25/19 18:00:31  5-MIN KSTC 260000Z 31018G32KT 10SM OVC023 03/M02 A2958 1350 72 200 310/18G32 RMK AO2 PK WND 31029/2357 T00281017 $
14926KSTC STC20191125180513311/25/19 18:05:31  5-MIN KSTC 260005Z 32014G29KT 10SM OVC023 03/M02 A2958 1350 72 200 320/14G29 RMK AO2 PK WND 31029/2357 T00281017 $
14926KSTC STC20191125181013311/25/19 18:10:31  5-MIN KSTC 260010Z 32014G25KT 10SM OVC022 03/M02 A2958 1350 72 200 320/14G25 RMK AO2 PK WND 31029/2357 T00281017 $
14926KSTC STC20191125181513311/25/19 18:15:31  5-MIN KSTC 260015Z 32018G25KT 10SM OVC022 03/M02 A2958 1350 72 200 310/18G25 RMK AO2 PK WND 31029/2357 T00281017 $
14926KSTC STC20191125182013311/25/19 18:20:31  5-MIN KSTC 260020Z 32015G27KT 10SM OVC023 03/M02 A2959 1340 69 200 320/15G27 RMK AO2 PK WND 31029/2357 T00281022 $
14926KSTC STC20191125182513311/25/19 18:25:31  5-MIN KSTC 260025Z 31017G27KT 10SM OVC023 03/M02 A2959 1340 69 200 310/17G27 RMK AO2 PK WND 31029/2357 T00281022 $
14926KSTC STC20191125183013311/25/19 18:30:31  5-MIN KSTC 260030Z 32015G26KT 10SM OVC023 03/M02 A2960 1330 69 200 320/15G26 RMK AO2 PK WND 31029/2357 T00281022 $
14926KSTC STC20191125183513311/25/19 18:35:31  5-MIN KSTC 260035Z 31016G25KT 10SM OVC023 03/M02 A2960 1330 72 200 310/16G25 RMK AO2 PK WND 31029/2357 T00281017 $
14926KSTC STC20191125184013311/25/19 18:40:31  5-MIN KSTC 260040Z 31016G25KT 10SM OVC023 03/M02 A2960 1330 72 200 310/16G25 RMK AO2 PK WND 31029/2357 T00281017 $
14926KSTC STC20191125184512711/25/19 18:45:31  5-MIN KSTC 260045Z 31014KT 10SM OVC023 03/M02 A2961 1330 72 200 310/14 RMK AO2 PK WND 31029/2357 T00281017 $
14926KSTC STC20191125185014011/25/19 18:50:31  5-MIN KSTC 260050Z 31016G21KT 10SM OVC022 03/M02 A2961 1320 72 200 310/16G21 RMK AO2 PK WND 31029/2357 SLP046 T00281017 $
14926KSTC STC20191125185510911/25/19 18:55:31  5-MIN KSTC 260055Z 30016KT 10SM OVC022 03/M02 A2962 1310 72 200 300/16 RMK AO2 T00281017 $
14926KSTC STC20191125190011511/25/19 19:00:31  5-MIN KSTC 260100Z 30014G22KT 10SM OVC022 03/M02 A2962 1310 72 200 300/14G22 RMK AO2 T00281017 $
14926KSTC STC20191125190510911/25/19 19:05:31  5-MIN KSTC 260105Z 30014KT 10SM OVC022 03/M02 A2963 1300 72 200 300/14 RMK AO2 T00281017 $
14926KSTC STC20191125191011611/25/19 19:10:31  5-MIN KSTC 260110Z 30011KT 10SM OVC022 03/M02 A2964 1300 72 200 300/11 RMK AO2 PRESRR T00281017 $
14926KSTC STC20191125191511611/25/19 19:15:31  5-MIN KSTC 260115Z 29009KT 10SM OVC022 03/M02 A2964 1290 72 200 290/09 RMK AO2 PRESRR T00281017 $
14926KSTC STC20191125192011511/25/19 19:20:31  5-MIN KSTC 260120Z 29012G19KT 10SM OVC022 03/M02 A2965 1290 72 200 290/12G19 RMK AO2 T00281017 $
14926KSTC STC20191125192511511/25/19 19:25:31  5-MIN KSTC 260125Z 29015G20KT 10SM OVC022 03/M02 A2965 1280 72 100 290/15G20 RMK AO2 T00281017 $
14926KSTC STC20191125193011511/25/19 19:30:31  5-MIN KSTC 260130Z 29016G22KT 10SM OVC021 03/M02 A2966 1280 72 100 290/16G22 RMK AO2 T00281017 $
14926KSTC STC20191125193510911/25/19 19:35:31  5-MIN KSTC 260135Z 29014KT 10SM OVC019 03/M02 A2966 1280 72 100 290/14 RMK AO2 T00281017 $
14926KSTC STC20191125194010911/25/19 19:40:31  5-MIN KSTC 260140Z 30014KT 10SM OVC019 02/M02 A2966 1270 75 100 300/14 RMK AO2 T00221017 $
14926KSTC STC20191125194510911/25/19 19:45:31  5-MIN KSTC 260145Z 30017KT 10SM OVC019 02/M02 A2966 1270 75 100 300/17 RMK AO2 T00221017 $
14926KSTC STC20191125195012211/25/19 19:50:31  5-MIN KSTC 260150Z 30019G25KT 10SM OVC019 02/M02 A2967 1270 75 100 300/19G25 RMK AO2 SLP064 T00221017 $
14926KSTC STC20191125195511511/25/19 19:55:31  5-MIN KSTC 260155Z 31017G25KT 10SM OVC021 02/M02 A2967 1270 75 100 310/17G25 RMK AO2 T00221017 $
14926KSTC STC20191125200011511/25/19 20:00:31  5-MIN KSTC 260200Z 31018G24KT 10SM OVC021 02/M02 A2967 1270 75 100 310/18G24 RMK AO2 T00221017 $
14926KSTC STC20191125200510911/25/19 20:05:31  5-MIN KSTC 260205Z 32016KT 10SM OVC022 02/M02 A2967 1270 75 100 310/16 RMK AO2 T00221017 $
14926KSTC STC20191125201011511/25/19 20:10:31  5-MIN KSTC 260210Z 32016G23KT 10SM OVC022 02/M02 A2966 1270 75 100 320/16G23 RMK AO2 T00221017 $
14926KSTC STC20191125201511511/25/19 20:15:31  5-MIN KSTC 260215Z 32016G23KT 10SM OVC022 02/M02 A2966 1270 75 100 320/16G23 RMK AO2 T00221017 $
14926KSTC STC20191125202011511/25/19 20:20:31  5-MIN KSTC 260220Z 32012G23KT 10SM OVC022 02/M02 A2967 1270 75 100 320/12G23 RMK AO2 T00221017 $
14926KSTC STC20191125202511511/25/19 20:25:31  5-MIN KSTC 260225Z 33011G23KT 10SM OVC022 02/M02 A2967 1270 75 100 330/11G23 RMK AO2 T00221017 $
14926KSTC STC20191125203011511/25/19 20:30:31  5-MIN KSTC 260230Z 32014G21KT 10SM OVC020 02/M02 A2967 1270 75 100 320/14G21 RMK AO2 T00221017 $
14926KSTC STC20191125203511511/25/19 20:35:31  5-MIN KSTC 260235Z 32011G21KT 10SM OVC020 02/M02 A2967 1270 75 100 320/11G21 RMK AO2 T00221017 $
14926KSTC STC20191125204011511/25/19 20:40:31  5-MIN KSTC 260240Z 32010G21KT 10SM OVC020 02/M02 A2967 1270 75 100 320/10G21 RMK AO2 T00221017 $
14926KSTC STC20191125204511511/25/19 20:45:31  5-MIN KSTC 260245Z 32010G18KT 10SM OVC020 02/M02 A2967 1270 75 100 320/10G18 RMK AO2 T00221017 $
14926KSTC STC20191125205012211/25/19 20:50:31  5-MIN KSTC 260250Z 32009KT 10SM OVC022 02/M02 A2967 1270 75 100 320/09 RMK AO2 SLP065 T00221017 53039 $
14926KSTC STC20191125205512011/25/19 20:55:31  5-MIN KSTC 260255Z 32011G19KT 10SM BKN017 OVC024 02/M02 A2967 1260 78 0 320/11G19 RMK AO2 T00171017 $
14926KSTC STC20191125210012011/25/19 21:00:31  5-MIN KSTC 260300Z 32012G20KT 10SM BKN017 OVC024 02/M02 A2967 1260 78 0 320/12G20 RMK AO2 T00171017 $
14926KSTC STC20191125210512011/25/19 21:05:31  5-MIN KSTC 260305Z 32010G20KT 10SM BKN017 OVC025 02/M02 A2967 1260 78 0 320/10G20 RMK AO2 T00171017 $
14926KSTC STC20191125211012011/25/19 21:10:31  5-MIN KSTC 260310Z 32010G16KT 10SM SCT017 OVC025 02/M02 A2967 1260 78 0 320/10G16 RMK AO2 T00171017 $
14926KSTC STC20191125211511411/25/19 21:15:31  5-MIN KSTC 260315Z 32008KT 10SM SCT017 OVC027 02/M02 A2968 1260 78 0 320/08 RMK AO2 T00171017 $
14926KSTC STC20191125212012011/25/19 21:20:31  5-MIN KSTC 260320Z 32010G17KT 10SM SCT017 OVC027 02/M02 A2968 1260 78 0 320/10G17 RMK AO2 T00171017 $
14926KSTC STC20191125212511411/25/19 21:25:31  5-MIN KSTC 260325Z 32012KT 10SM FEW017 OVC027 02/M02 A2968 1250 78 0 320/12 RMK AO2 T00171017 $
14926KSTC STC20191125213010711/25/19 21:30:31  5-MIN KSTC 260330Z 31011KT 10SM OVC027 02/M02 A2969 1250 75 0 310/11 RMK AO2 T00171022 $
14926KSTC STC20191125213510711/25/19 21:35:31  5-MIN KSTC 260335Z 32011KT 10SM OVC027 02/M02 A2969 1250 75 0 320/11 RMK AO2 T00171022 $
14926KSTC STC20191125214010711/25/19 21:40:31  5-MIN KSTC 260340Z 31014KT 10SM OVC028 02/M02 A2970 1240 75 0 310/14 RMK AO2 T00171022 $
14926KSTC STC20191125214511411/25/19 21:45:31  5-MIN KSTC 260345Z 30012KT 10SM OVC028 02/M02 A2970 1230 75 0 300/12 RMK AO2 PRESRR T00171022 $
14926KSTC STC20191125215012111/25/19 21:50:31  5-MIN KSTC 260350Z 30013KT 10SM OVC028 02/M02 A2971 1230 75 0 300/13 RMK AO2 PRESRR SLP078 T00171022 $
14926KSTC STC20191125215510711/25/19 21:55:31  5-MIN KSTC 260355Z 30014KT 10SM OVC027 02/M02 A2971 1230 75 0 300/14 RMK AO2 T00171022 $
14926KSTC STC20191125220010711/25/19 22:00:31  5-MIN KSTC 260400Z 30013KT 10SM OVC027 02/M02 A2971 1230 75 0 300/13 RMK AO2 T00171022 $
14926KSTC STC20191125220510711/25/19 22:05:31  5-MIN KSTC 260405Z 30012KT 10SM OVC027 02/M03 A2972 1220 72 0 300/12 RMK AO2 T00171028 $
14926KSTC STC20191125221010711/25/19 22:10:31  5-MIN KSTC 260410Z 29014KT 10SM OVC027 02/M03 A2972 1220 72 0 290/14 RMK AO2 T00171028 $
14926KSTC STC20191125221510711/25/19 22:15:31  5-MIN KSTC 260415Z 29010KT 10SM OVC027 02/M02 A2973 1210 75 0 290/10 RMK AO2 T00171022 $
14926KSTC STC20191125222010711/25/19 22:20:31  5-MIN KSTC 260420Z 29012KT 10SM OVC027 02/M03 A2973 1210 72 0 290/12 RMK AO2 T00171028 $
14926KSTC STC20191125222510711/25/19 22:25:31  5-MIN KSTC 260425Z 29012KT 10SM OVC026 02/M03 A2973 1210 72 0 290/12 RMK AO2 T00171028 $
14926KSTC STC20191125223011311/25/19 22:30:31  5-MIN KSTC 260430Z 30010G19KT 10SM OVC026 02/M03 A2973 1210 72 0 290/10G19 RMK AO2 T00171028 $
14926KSTC STC20191125223510711/25/19 22:35:31  5-MIN KSTC 260435Z 28012KT 10SM OVC026 02/M03 A2974 1200 72 0 280/12 RMK AO2 T00171028 $
14926KSTC STC20191125224010711/25/19 22:40:31  5-MIN KSTC 260440Z 29012KT 10SM OVC027 02/M03 A2974 1200 72 0 290/12 RMK AO2 T00171028 $
14926KSTC STC20191125224510711/25/19 22:45:31  5-MIN KSTC 260445Z 30012KT 10SM OVC027 02/M03 A2974 1200 72 0 300/12 RMK AO2 T00171028 $
14926KSTC STC20191125225011711/25/19 22:50:31  5-MIN KSTC 260450Z 30011KT 10SM OVC028 01/M03 A2974 1200 72 -100 300/11 RMK AO2 SLP088 T00111033 $
14926KSTC STC20191125225511011/25/19 22:55:31  5-MIN KSTC 260455Z 31011KT 10SM OVC028 01/M03 A2974 1200 72 -100 310/11 RMK AO2 T00111033 $
14926KSTC STC20191125230011011/25/19 23:00:31  5-MIN KSTC 260500Z 30015KT 10SM OVC028 01/M03 A2974 1200 72 -100 300/15 RMK AO2 T00111033 $
14926KSTC STC20191125230511511/25/19 23:05:31  5-MIN KSTC 260505Z AUTO 31013KT 10SM OVC028 01/M03 A2974 1200 72 -100 310/13 RMK AO2 T00111033 $
14926KSTC STC20191125231011511/25/19 23:10:31  5-MIN KSTC 260510Z AUTO 31011KT 10SM OVC028 01/M03 A2975 1190 72 -100 310/11 RMK AO2 T00111033 $
14926KSTC STC20191125231511511/25/19 23:15:31  5-MIN KSTC 260515Z AUTO 31014KT 10SM OVC028 01/M03 A2975 1190 72 -100 310/14 RMK AO2 T00111033 $
14926KSTC STC20191125232012111/25/19 23:20:31  5-MIN KSTC 260520Z AUTO 32017G23KT 10SM OVC026 01/M03 A2975 1190 72 -100 310/17G23 RMK AO2 T00111033 $
14926KSTC STC20191125232512111/25/19 23:25:31  5-MIN KSTC 260525Z AUTO 32012G23KT 10SM OVC026 01/M04 A2976 1180 69 -100 320/12G23 RMK AO2 T00111039 $
14926KSTC STC20191125233012111/25/19 23:30:31  5-MIN KSTC 260530Z AUTO 31011G21KT 10SM OVC026 01/M03 A2976 1180 72 -100 310/11G21 RMK AO2 T00111033 $
14926KSTC STC20191125233511511/25/19 23:35:31  5-MIN KSTC 260535Z AUTO 31012KT 10SM OVC025 01/M03 A2976 1180 72 -100 310/12 RMK AO2 T00111033 $
14926KSTC STC20191125234011511/25/19 23:40:31  5-MIN KSTC 260540Z AUTO 30010KT 10SM OVC025 01/M03 A2976 1180 72 -100 300/10 RMK AO2 T00111033 $
14926KSTC STC20191125234511511/25/19 23:45:31  5-MIN KSTC 260545Z AUTO 30010KT 10SM OVC024 01/M03 A2977 1180 72 -100 300/10 RMK AO2 T00111033 $
14926KSTC STC20191125235015011/25/19 23:50:31  5-MIN KSTC 260550Z AUTO 31009KT 10SM OVC024 01/M03 A2977 1170 72 -100 300/09 RMK AO2 SLP099 T00111033 10028 20011 400440006 51031 $
14926KSTC STC20191125235511511/25/19 23:55:31  5-MIN KSTC 260555Z AUTO 31012KT 10SM OVC024 01/M03 A2977 1170 72 -100 310/12 RMK AO2 T00111033 $
14926KSTC STC20191126000011511/26/19 00:00:31  5-MIN KSTC 260600Z AUTO 32011KT 10SM OVC024 01/M04 A2977 1170 69 -100 320/11 RMK AO2 T00111039 $
14926KSTC STC20191126000511511/26/19 00:05:31  5-MIN KSTC 260605Z AUTO 32009KT 10SM OVC024 01/M04 A2977 1170 69 -100 320/09 RMK AO2 T00111039 $
14926KSTC STC20191126001011511/26/19 00:10:31  5-MIN KSTC 260610Z AUTO 33009KT 10SM OVC024 01/M04 A2977 1170 69 -100 320/09 RMK AO2 T00111039 $
14926KSTC STC20191126001512111/26/19 00:15:31  5-MIN KSTC 260615Z AUTO 32012G17KT 10SM OVC024 01/M04 A2977 1170 69 -100 320/12G17 RMK AO2 T00111039 $
14926KSTC STC20191126002012111/26/19 00:20:31  5-MIN KSTC 260620Z AUTO 32012G18KT 10SM OVC024 01/M04 A2977 1170 69 -100 320/12G18 RMK AO2 T00111039 $
14926KSTC STC20191126002511511/26/19 00:25:31  5-MIN KSTC 260625Z AUTO 32011KT 10SM OVC024 01/M04 A2977 1170 69 -100 320/11 RMK AO2 T00111039 $
14926KSTC STC20191126003012111/26/19 00:30:31  5-MIN KSTC 260630Z AUTO 32008G18KT 10SM OVC024 01/M04 A2977 1170 69 -100 320/08G18 RMK AO2 T00111039 $
14926KSTC STC20191126003511511/26/19 00:35:31  5-MIN KSTC 260635Z AUTO 32009KT 10SM OVC024 01/M04 A2977 1170 69 -100 320/09 RMK AO2 T00111039 $
14926KSTC STC20191126004012111/26/19 00:40:31  5-MIN KSTC 260640Z AUTO 32007G16KT 10SM OVC024 01/M04 A2977 1170 69 -100 320/07G16 RMK AO2 T00111039 $
14926KSTC STC20191126004512111/26/19 00:45:31  5-MIN KSTC 260645Z AUTO 32006G16KT 10SM OVC024 01/M04 A2977 1170 69 -100 320/06G16 RMK AO2 T00111039 $
14926KSTC STC20191126005012211/26/19 00:50:31  5-MIN KSTC 260650Z AUTO 32005KT 10SM OVC024 01/M04 A2977 1170 69 -100 320/05 RMK AO2 SLP101 T00111039 $
14926KSTC STC20191126005511511/26/19 00:55:31  5-MIN KSTC 260655Z AUTO 32006KT 10SM OVC024 01/M03 A2978 1170 72 -100 320/06 RMK AO2 T00111033 $
14926KSTC STC20191126010011511/26/19 01:00:31  5-MIN KSTC 260700Z AUTO 33004KT 10SM OVC024 01/M03 A2978 1170 75 -200 330/04 RMK AO2 T00061033 $
14926KSTC STC20191126010511511/26/19 01:05:31  5-MIN KSTC 260705Z AUTO 32006KT 10SM OVC024 01/M03 A2978 1170 72 -200 320/06 RMK AO2 T00111033 $
14926KSTC STC20191126011011511/26/19 01:10:31  5-MIN KSTC 260710Z AUTO 32008KT 10SM OVC024 01/M03 A2978 1170 72 -200 320/08 RMK AO2 T00111033 $
14926KSTC STC20191126011511511/26/19 01:15:31  5-MIN KSTC 260715Z AUTO 33008KT 10SM OVC024 01/M04 A2978 1170 69 -200 330/08 RMK AO2 T00111039 $
14926KSTC STC20191126012011511/26/19 01:20:31  5-MIN KSTC 260720Z AUTO 34007KT 10SM OVC024 01/M04 A2978 1170 69 -200 330/07 RMK AO2 T00111039 $
14926KSTC STC20191126012511511/26/19 01:25:31  5-MIN KSTC 260725Z AUTO 33006KT 10SM OVC024 01/M04 A2978 1170 69 -200 330/06 RMK AO2 T00111039 $
14926KSTC STC20191126013011511/26/19 01:30:31  5-MIN KSTC 260730Z AUTO 33004KT 10SM OVC023 01/M03 A2978 1160 72 -200 330/04 RMK AO2 T00111033 $
14926KSTC STC20191126013511511/26/19 01:35:31  5-MIN KSTC 260735Z AUTO 33008KT 10SM OVC023 01/M03 A2978 1160 75 -200 330/08 RMK AO2 T00061033 $
14926KSTC STC20191126014011511/26/19 01:40:31  5-MIN KSTC 260740Z AUTO 33008KT 10SM OVC023 01/M04 A2978 1160 69 -200 330/08 RMK AO2 T00111039 $
14926KSTC STC20191126014511511/26/19 01:45:31  5-MIN KSTC 260745Z AUTO 33005KT 10SM OVC023 01/M04 A2979 1160 69 -200 330/05 RMK AO2 T00111039 $
14926KSTC STC20191126015012211/26/19 01:50:31  5-MIN KSTC 260750Z AUTO 33006KT 10SM OVC023 01/M03 A2979 1160 72 -200 330/06 RMK AO2 SLP106 T00111033 $
14926KSTC STC20191126015511511/26/19 01:55:31  5-MIN KSTC 260755Z AUTO 34005KT 10SM OVC023 01/M03 A2979 1150 75 -200 330/05 RMK AO2 T00061033 $
14926KSTC STC20191126020011511/26/19 02:00:31  5-MIN KSTC 260800Z AUTO 33006KT 10SM OVC023 01/M03 A2979 1150 75 -200 330/06 RMK AO2 T00061033 $
14926KSTC STC20191126020511511/26/19 02:05:31  5-MIN KSTC 260805Z AUTO 32006KT 10SM OVC023 01/M04 A2980 1150 69 -200 320/06 RMK AO2 T00111039 $
14926KSTC STC20191126021011511/26/19 02:10:31  5-MIN KSTC 260810Z AUTO 33005KT 10SM OVC023 01/M03 A2981 1140 72 -200 330/05 RMK AO2 T00111033 $
14926KSTC STC20191126021512211/26/19 02:15:31  5-MIN KSTC 260815Z AUTO 31004KT 10SM OVC023 01/M04 A2982 1130 69 -200 310/04 RMK AO2 PRESRR T00111039 $
14926KSTC STC20191126022011511/26/19 02:20:31  5-MIN KSTC 260820Z AUTO 32007KT 10SM OVC023 01/M04 A2982 1130 69 -200 320/07 RMK AO2 T00111039 $
14926KSTC STC20191126022511511/26/19 02:25:31  5-MIN KSTC 260825Z AUTO 32004KT 10SM OVC023 01/M04 A2982 1120 69 -200 320/04 RMK AO2 T00111039 $
14926KSTC STC20191126023011511/26/19 02:30:31  5-MIN KSTC 260830Z AUTO 31006KT 10SM OVC023 01/M04 A2983 1120 69 -200 310/06 RMK AO2 T00111039 $
14926KSTC STC20191126023511511/26/19 02:35:31  5-MIN KSTC 260835Z AUTO 31004KT 10SM OVC023 01/M04 A2983 1120 72 -300 310/04 RMK AO2 T00061039 $
14926KSTC STC20191126024011511/26/19 02:40:31  5-MIN KSTC 260840Z AUTO 30004KT 10SM OVC023 01/M03 A2983 1120 75 -300 300/04 RMK AO2 T00061033 $
14926KSTC STC20191126024511511/26/19 02:45:31  5-MIN KSTC 260845Z AUTO 31004KT 10SM OVC023 01/M03 A2984 1110 75 -300 310/04 RMK AO2 T00061033 $
14926KSTC STC20191126025012811/26/19 02:50:31  5-MIN KSTC 260850Z AUTO 30004KT 10SM OVC023 01/M03 A2984 1110 75 -300 300/04 RMK AO2 SLP123 T00061033 51032 $
14926KSTC STC20191126025511511/26/19 02:55:31  5-MIN KSTC 260855Z AUTO 30005KT 10SM OVC023 01/M03 A2984 1110 75 -300 300/05 RMK AO2 T00061033 $
14926KSTC STC20191126030011511/26/19 03:00:31  5-MIN KSTC 260900Z AUTO 29005KT 10SM OVC023 01/M03 A2984 1110 75 -300 290/05 RMK AO2 T00061033 $
14926KSTC STC20191126030511511/26/19 03:05:31  5-MIN KSTC 260905Z AUTO 30007KT 10SM OVC023 01/M03 A2984 1110 75 -300 300/07 RMK AO2 T00061033 $
14926KSTC STC20191126031011511/26/19 03:10:31  5-MIN KSTC 260910Z AUTO 30008KT 10SM OVC023 01/M03 A2984 1110 75 -300 300/08 RMK AO2 T00061033 $
14926KSTC STC20191126031511511/26/19 03:15:31  5-MIN KSTC 260915Z AUTO 31008KT 10SM OVC023 01/M03 A2984 1110 75 -300 310/08 RMK AO2 T00061033 $
14926KSTC STC20191126032011511/26/19 03:20:31  5-MIN KSTC 260920Z AUTO 32006KT 10SM OVC023 01/M03 A2984 1110 75 -300 320/06 RMK AO2 T00061033 $
14926KSTC STC20191126032511511/26/19 03:25:31  5-MIN KSTC 260925Z AUTO 31006KT 10SM OVC023 01/M03 A2984 1110 75 -300 310/06 RMK AO2 T00061033 $
14926KSTC STC20191126033011511/26/19 03:30:31  5-MIN KSTC 260930Z AUTO 32007KT 10SM OVC023 01/M03 A2983 1110 75 -300 320/07 RMK AO2 T00061033 $
14926KSTC STC20191126033511511/26/19 03:35:31  5-MIN KSTC 260935Z AUTO 33006KT 10SM OVC023 01/M04 A2983 1110 69 -200 330/06 RMK AO2 T00111039 $
14926KSTC STC20191126034011511/26/19 03:40:31  5-MIN KSTC 260940Z AUTO 33005KT 10SM OVC023 01/M04 A2983 1120 72 -300 330/05 RMK AO2 T00061039 $
14926KSTC STC20191126034511511/26/19 03:45:31  5-MIN KSTC 260945Z AUTO 32008KT 10SM OVC023 01/M04 A2983 1120 72 -300 320/08 RMK AO2 T00061039 $
14926KSTC STC20191126035012211/26/19 03:50:31  5-MIN KSTC 260950Z AUTO 33008KT 10SM OVC023 01/M04 A2983 1120 69 -200 330/08 RMK AO2 SLP118 T00111039 $
14926KSTC STC20191126035511511/26/19 03:55:31  5-MIN KSTC 260955Z AUTO 33007KT 10SM OVC023 01/M04 A2982 1120 72 -300 330/07 RMK AO2 T00061039 $
14926KSTC STC20191126040011511/26/19 04:00:31  5-MIN KSTC 261000Z AUTO 33007KT 10SM OVC023 01/M04 A2982 1130 72 -300 330/07 RMK AO2 T00061039 $
14926KSTC STC20191126040511511/26/19 04:05:31  5-MIN KSTC 261005Z AUTO 33007KT 10SM OVC023 01/M04 A2982 1120 72 -300 330/07 RMK AO2 T00061039 $
14926KSTC STC20191126041011511/26/19 04:10:31  5-MIN KSTC 261010Z AUTO 33007KT 10SM OVC023 01/M04 A2982 1120 72 -300 330/07 RMK AO2 T00061039 $
14926KSTC STC20191126041511511/26/19 04:15:31  5-MIN KSTC 261015Z AUTO 34006KT 10SM OVC023 01/M04 A2982 1120 72 -300 340/06 RMK AO2 T00061039 $
14926KSTC STC20191126042011511/26/19 04:20:31  5-MIN KSTC 261020Z AUTO 35006KT 10SM OVC023 01/M04 A2982 1130 72 -300 350/06 RMK AO2 T00061039 $
14926KSTC STC20191126042511511/26/19 04:25:31  5-MIN KSTC 261025Z AUTO 35006KT 10SM OVC023 01/M04 A2982 1130 72 -300 350/06 RMK AO2 T00061039 $
14926KSTC STC20191126043011511/26/19 04:30:31  5-MIN KSTC 261030Z AUTO 35006KT 10SM OVC023 01/M04 A2982 1120 72 -300 350/06 RMK AO2 T00061039 $
14926KSTC STC20191126043511511/26/19 04:35:31  5-MIN KSTC 261035Z AUTO 35005KT 10SM OVC023 01/M04 A2983 1120 72 -300 350/05 RMK AO2 T00061039 $
14926KSTC STC20191126044011511/26/19 04:40:31  5-MIN KSTC 261040Z AUTO 35006KT 10SM OVC023 01/M03 A2983 1120 75 -300 350/06 RMK AO2 T00061033 $
14926KSTC STC20191126044511511/26/19 04:45:31  5-MIN KSTC 261045Z AUTO 34008KT 10SM OVC023 01/M03 A2982 1120 75 -300 340/08 RMK AO2 T00061033 $
14926KSTC STC20191126045012211/26/19 04:50:31  5-MIN KSTC 261050Z AUTO 35009KT 10SM OVC023 01/M04 A2982 1120 72 -300 350/09 RMK AO2 SLP118 T00061039 $
14926KSTC STC20191126045511511/26/19 04:55:31  5-MIN KSTC 261055Z AUTO 35006KT 10SM OVC023 01/M04 A2983 1120 72 -300 350/06 RMK AO2 T00061039 $
14926KSTC STC20191126050011511/26/19 05:00:31  5-MIN KSTC 261100Z AUTO 35004KT 10SM OVC023 01/M04 A2983 1120 72 -300 350/04 RMK AO2 T00061039 $
14926KSTC STC20191126050511511/26/19 05:05:31  5-MIN KSTC 261105Z AUTO 36005KT 10SM OVC023 01/M03 A2983 1120 75 -300 360/05 RMK AO2 T00061033 $
14926KSTC STC20191126051011511/26/19 05:10:31  5-MIN KSTC 261110Z AUTO 36007KT 10SM OVC022 01/M04 A2982 1120 72 -300 360/07 RMK AO2 T00061039 $
14926KSTC STC20191126051511511/26/19 05:15:31  5-MIN KSTC 261115Z AUTO 36006KT 10SM OVC022 01/M04 A2982 1120 72 -300 360/06 RMK AO2 T00061039 $
14926KSTC STC20191126052011511/26/19 05:20:31  5-MIN KSTC 261120Z AUTO 36007KT 10SM OVC022 01/M04 A2982 1130 72 -300 360/07 RMK AO2 T00061039 $
14926KSTC STC20191126052511511/26/19 05:25:31  5-MIN KSTC 261125Z AUTO 36008KT 10SM OVC022 01/M04 A2982 1130 72 -300 360/08 RMK AO2 T00061039 $
14926KSTC STC20191126053011511/26/19 05:30:31  5-MIN KSTC 261130Z AUTO 36009KT 10SM OVC022 01/M04 A2982 1130 72 -300 350/09 RMK AO2 T00061039 $
14926KSTC STC20191126053511511/26/19 05:35:31  5-MIN KSTC 261135Z AUTO 36006KT 10SM OVC022 01/M04 A2982 1130 72 -300 360/06 RMK AO2 T00061039 $
14926KSTC STC20191126054011511/26/19 05:40:31  5-MIN KSTC 261140Z AUTO 36007KT 10SM OVC022 01/M03 A2982 1130 75 -300 360/07 RMK AO2 T00061033 $
14926KSTC STC20191126054511511/26/19 05:45:31  5-MIN KSTC 261145Z AUTO 36009KT 10SM OVC022 01/M04 A2982 1120 72 -300 360/09 RMK AO2 T00061039 $
14926KSTC STC20191126055014011/26/19 05:50:31  5-MIN KSTC 261150Z AUTO 36007KT 10SM OVC022 01/M04 A2983 1120 72 -300 360/07 RMK AO2 SLP120 T00061039 10011 20006 53023 $
14926KSTC STC20191126055511511/26/19 05:55:31  5-MIN KSTC 261155Z AUTO 01006KT 10SM OVC022 01/M04 A2983 1120 72 -300 010/06 RMK AO2 T00061039 $
14926KSTC STC20191126060011511/26/19 06:00:31  5-MIN KSTC 261200Z AUTO 01007KT 10SM OVC022 01/M04 A2983 1120 72 -300 360/07 RMK AO2 T00061039 $
14926KSTC STC20191126060511511/26/19 06:05:31  5-MIN KSTC 261205Z AUTO 01006KT 10SM OVC022 01/M04 A2983 1110 72 -300 010/06 RMK AO2 T00061039 $
14926KSTC STC20191126061011511/26/19 06:10:31  5-MIN KSTC 261210Z AUTO 01006KT 10SM OVC023 01/M04 A2984 1110 72 -300 010/06 RMK AO2 T00061039 $
14926KSTC STC20191126061511511/26/19 06:15:31  5-MIN KSTC 261215Z AUTO 01006KT 10SM OVC023 01/M04 A2984 1100 72 -300 010/06 RMK AO2 T00061039 $
14926KSTC STC20191126062011511/26/19 06:20:31  5-MIN KSTC 261220Z AUTO 01007KT 10SM OVC023 01/M04 A2984 1100 72 -300 360/07 RMK AO2 T00061039 $
14926KSTC STC20191126062512111/26/19 06:25:31  5-MIN KSTC 261225Z AUTO 02006G14KT 10SM OVC023 01/M04 A2985 1100 72 -300 020/06G14 RMK AO2 T00061039 $
14926KSTC STC20191126063012111/26/19 06:30:31  5-MIN KSTC 261230Z AUTO 01008G14KT 10SM OVC023 01/M04 A2985 1100 72 -300 010/08G14 RMK AO2 T00061039 $
14926KSTC STC20191126063511511/26/19 06:35:31  5-MIN KSTC 261235Z AUTO 01007KT 10SM OVC023 01/M04 A2984 1100 72 -300 010/07 RMK AO2 T00061039 $
14926KSTC STC20191126064010011/26/19 06:40:31  5-MIN KSTC 261240Z 10SM OVC022 01/M04 A2984 1100 72 -300 M /M RMK AO2 T00061039 $
14926KSTC STC20191126064510011/26/19 06:45:31  5-MIN KSTC 261245Z 10SM OVC022 01/M04 A2984 1100 72 -300 M /M RMK AO2 T00061039 $
14926KSTC STC20191126065010711/26/19 06:50:31  5-MIN KSTC 261250Z 10SM OVC022 01/M04 A2984 1110 72 -300 M /M RMK AO2 SLP125 T00061039 $
14926KSTC STC20191126065509811/26/19 06:55:31  5-MIN KSTC 261255Z 10SM OVC022 01/M04 A2984 1110 72 -300 M /M RMK AO2 T00061039
14926KSTC STC20191126070010811/26/19 07:00:31  5-MIN KSTC 261300Z 01006KT 10SM OVC022 01/M04 A2984 1110 72 -300 010/06 RMK AO2 T00061039
14926KSTC STC20191126070510811/26/19 07:05:31  5-MIN KSTC 261305Z 02006KT 10SM OVC022 01/M04 A2984 1110 72 -300 020/06 RMK AO2 T00061039
14926KSTC STC20191126071010811/26/19 07:10:31  5-MIN KSTC 261310Z 03006KT 10SM OVC022 01/M04 A2984 1110 72 -300 030/06 RMK AO2 T00061039
14926KSTC STC20191126071510811/26/19 07:15:31  5-MIN KSTC 261315Z 03005KT 10SM OVC022 01/M04 A2984 1110 72 -300 030/05 RMK AO2 T00061039
14926KSTC STC20191126072010811/26/19 07:20:31  5-MIN KSTC 261320Z 03006KT 10SM OVC022 01/M04 A2984 1110 72 -300 030/06 RMK AO2 T00061039
14926KSTC STC20191126072510811/26/19 07:25:31  5-MIN KSTC 261325Z 03006KT 10SM OVC022 01/M04 A2984 1100 72 -300 020/06 RMK AO2 T00061039
14926KSTC STC20191126073010811/26/19 07:30:31  5-MIN KSTC 261330Z 03008KT 10SM OVC022 01/M04 A2985 1100 72 -300 020/08 RMK AO2 T00061039
14926KSTC STC20191126073510811/26/19 07:35:31  5-MIN KSTC 261335Z 02006KT 10SM OVC022 01/M04 A2985 1100 72 -300 020/06 RMK AO2 T00061039
14926KSTC STC20191126074010811/26/19 07:40:31  5-MIN KSTC 261340Z 02004KT 10SM OVC022 01/M04 A2985 1100 72 -300 020/04 RMK AO2 T00061039
14926KSTC STC20191126074510811/26/19 07:45:31  5-MIN KSTC 261345Z 02006KT 10SM OVC022 01/M04 A2985 1100 72 -300 020/06 RMK AO2 T00061039
14926KSTC STC20191126075011511/26/19 07:50:31  5-MIN KSTC 261350Z 03005KT 10SM OVC022 01/M04 A2985 1100 72 -300 030/05 RMK AO2 SLP128 T00061039
14926KSTC STC20191126075510811/26/19 07:55:31  5-MIN KSTC 261355Z 05004KT 10SM OVC022 01/M04 A2985 1100 72 -300 050/04 RMK AO2 T00061039
14926KSTC STC20191126080010811/26/19 08:00:31  5-MIN KSTC 261400Z 04006KT 10SM OVC022 01/M04 A2985 1090 72 -300 040/06 RMK AO2 T00061039
14926KSTC STC20191126080510811/26/19 08:05:31  5-MIN KSTC 261405Z 05006KT 10SM OVC022 01/M04 A2986 1090 72 -300 050/06 RMK AO2 T00061039
14926KSTC STC20191126081010811/26/19 08:10:31  5-MIN KSTC 261410Z 04005KT 10SM OVC022 01/M04 A2986 1090 72 -300 040/05 RMK AO2 T00061039
14926KSTC STC20191126081510811/26/19 08:15:31  5-MIN KSTC 261415Z 04005KT 10SM OVC022 01/M04 A2986 1090 72 -300 040/05 RMK AO2 T00061039
14926KSTC STC20191126082010811/26/19 08:20:31  5-MIN KSTC 261420Z 03005KT 10SM OVC022 01/M04 A2986 1090 72 -300 030/05 RMK AO2 T00061039
14926KSTC STC20191126082510811/26/19 08:25:31  5-MIN KSTC 261425Z 03005KT 10SM OVC022 01/M04 A2986 1090 69 -300 030/05 RMK AO2 T00061044
14926KSTC STC20191126083010811/26/19 08:30:31  5-MIN KSTC 261430Z 04005KT 10SM OVC022 01/M04 A2986 1090 72 -300 040/05 RMK AO2 T00061039
14926KSTC STC20191126083510811/26/19 08:35:31  5-MIN KSTC 261435Z 04006KT 10SM OVC022 01/M04 A2985 1090 69 -300 040/06 RMK AO2 T00061044
14926KSTC STC20191126084010811/26/19 08:40:31  5-MIN KSTC 261440Z 05006KT 10SM OVC022 01/M04 A2985 1100 69 -300 050/06 RMK AO2 T00061044
14926KSTC STC20191126084510811/26/19 08:45:31  5-MIN KSTC 261445Z 06008KT 10SM OVC022 01/M04 A2985 1100 69 -300 060/08 RMK AO2 T00061044
14926KSTC STC20191126085012111/26/19 08:50:31  5-MIN KSTC 261450Z 05006KT 10SM OVC023 01/M04 A2985 1100 69 -300 050/06 RMK AO2 SLP129 T00061044 55003
14926KSTC STC20191126085510811/26/19 08:55:31  5-MIN KSTC 261455Z 04006KT 10SM OVC023 01/M04 A2986 1090 69 -300 040/06 RMK AO2 T00061044
14926KSTC STC20191126090010811/26/19 09:00:31  5-MIN KSTC 261500Z 05006KT 10SM OVC023 01/M04 A2986 1090 69 -300 050/06 RMK AO2 T00061044
14926KSTC STC20191126090510811/26/19 09:05:31  5-MIN KSTC 261505Z 04006KT 10SM OVC023 01/M04 A2987 1080 69 -300 030/06 RMK AO2 T00061044
14926KSTC STC20191126091010811/26/19 09:10:31  5-MIN KSTC 261510Z 05005KT 10SM OVC023 01/M04 A2987 1080 69 -300 040/05 RMK AO2 T00061044
14926KSTC STC20191126091510811/26/19 09:15:31  5-MIN KSTC 261515Z 03007KT 10SM OVC023 01/M04 A2987 1080 69 -300 030/07 RMK AO2 T00061044
14926KSTC STC20191126092010811/26/19 09:20:31  5-MIN KSTC 261520Z 04007KT 10SM OVC023 01/M04 A2987 1080 69 -300 040/07 RMK AO2 T00061044
14926KSTC STC20191126092510811/26/19 09:25:31  5-MIN KSTC 261525Z 04007KT 10SM OVC023 01/M04 A2987 1080 69 -300 040/07 RMK AO2 T00061044
14926KSTC STC20191126093010811/26/19 09:30:31  5-MIN KSTC 261530Z 05008KT 10SM OVC023 01/M04 A2987 1080 69 -300 040/08 RMK AO2 T00061044
14926KSTC STC20191126093512411/26/19 09:35:31  5-MIN KSTC 261535Z 05007KT 030V090 10SM OVC023 01/M05 A2987 1080 66 -300 050/07 030V090 RMK AO2 T00061050
14926KSTC STC20191126094011411/26/19 09:40:31  5-MIN KSTC 261540Z 05008G15KT 10SM OVC023 01/M05 A2987 1080 66 -300 050/08G15 RMK AO2 T00061050
14926KSTC STC20191126094511411/26/19 09:45:31  5-MIN KSTC 261545Z 06007G15KT 10SM OVC023 01/M05 A2987 1080 66 -300 060/07G15 RMK AO2 T00061050
14926KSTC STC20191126095011511/26/19 09:50:31  5-MIN KSTC 261550Z 05008KT 10SM OVC023 01/M05 A2987 1080 66 -300 050/08 RMK AO2 SLP135 T00061050
14926KSTC STC20191126095512411/26/19 09:55:31  5-MIN KSTC 261555Z 05009KT 030V090 10SM OVC024 01/M04 A2987 1080 69 -300 050/09 030V090 RMK AO2 T00061044
14926KSTC STC20191126100010811/26/19 10:00:31  5-MIN KSTC 261600Z 07006KT 10SM OVC024 01/M05 A2988 1070 66 -300 070/06 RMK AO2 T00061050
14926KSTC STC20191126100510811/26/19 10:05:31  5-MIN KSTC 261605Z 06008KT 10SM OVC024 01/M04 A2988 1070 69 -300 060/08 RMK AO2 T00061044
14926KSTC STC20191126101010811/26/19 10:10:31  5-MIN KSTC 261610Z 04008KT 10SM OVC024 01/M04 A2988 1070 66 -300 040/08 RMK AO2 T00111044
14926KSTC STC20191126101510811/26/19 10:15:31  5-MIN KSTC 261615Z 04006KT 10SM OVC024 01/M04 A2988 1070 66 -300 040/06 RMK AO2 T00111044
14926KSTC STC20191126102010811/26/19 10:20:31  5-MIN KSTC 261620Z 06006KT 10SM OVC024 01/M04 A2988 1070 66 -300 060/06 RMK AO2 T00111044
14926KSTC STC20191126102510811/26/19 10:25:31  5-MIN KSTC 261625Z VRB04KT 10SM OVC024 01/M04 A2988 1070 66 -300 VRB/04 RMK AO2 T00111044
14926KSTC STC20191126103010811/26/19 10:30:31  5-MIN KSTC 261630Z 04006KT 10SM OVC024 01/M04 A2988 1070 66 -300 040/06 RMK AO2 T00111044
14926KSTC STC20191126103510811/26/19 10:35:31  5-MIN KSTC 261635Z 06006KT 10SM OVC024 01/M04 A2989 1070 66 -300 060/06 RMK AO2 T00111044
14926KSTC STC20191126104010811/26/19 10:40:31  5-MIN KSTC 261640Z 09007KT 10SM OVC024 01/M04 A2989 1060 66 -300 080/07 RMK AO2 T00111044
14926KSTC STC20191126104510811/26/19 10:45:31  5-MIN KSTC 261645Z 08007KT 10SM OVC024 01/M04 A2989 1060 66 -300 080/07 RMK AO2 T00111044
14926KSTC STC20191126105011511/26/19 10:50:31  5-MIN KSTC 261650Z 08007KT 10SM OVC024 01/M04 A2989 1060 66 -300 080/07 RMK AO2 SLP143 T00111044
14926KSTC STC20191126105510811/26/19 10:55:31  5-MIN KSTC 261655Z 08006KT 10SM OVC024 01/M04 A2989 1060 66 -300 080/06 RMK AO2 T00111044
14926KSTC STC20191126110010811/26/19 11:00:31  5-MIN KSTC 261700Z 09008KT 10SM OVC024 01/M04 A2989 1060 66 -300 090/08 RMK AO2 T00111044
14926KSTC STC20191126110510811/26/19 11:05:31  5-MIN KSTC 261705Z 08007KT 10SM OVC024 01/M04 A2989 1060 66 -300 070/07 RMK AO2 T00111044
14926KSTC STC20191126111011411/26/19 11:10:31  5-MIN KSTC 261710Z 07009G14KT 10SM OVC024 01/M04 A2989 1060 66 -300 070/09G14 RMK AO2 T00111044
14926KSTC STC20191126111511411/26/19 11:15:31  5-MIN KSTC 261715Z 08007G14KT 10SM OVC024 01/M04 A2989 1070 66 -300 070/07G14 RMK AO2 T00111044
14926KSTC STC20191126112010811/26/19 11:20:31  5-MIN KSTC 261720Z 06007KT 10SM OVC024 01/M04 A2989 1060 66 -300 060/07 RMK AO2 T00111044
14926KSTC STC20191126112510811/26/19 11:25:31  5-MIN KSTC 261725Z 07006KT 10SM OVC024 02/M04 A2989 1070 64 -200 070/06 RMK AO2 T00171044
14926KSTC STC20191126113010811/26/19 11:30:31  5-MIN KSTC 261730Z 05007KT 10SM OVC024 02/M04 A2988 1070 64 -200 050/07 RMK AO2 T00171044
14926KSTC STC20191126113510811/26/19 11:35:31  5-MIN KSTC 261735Z 04009KT 10SM OVC025 02/M04 A2988 1070 64 -200 040/09 RMK AO2 T00171044
14926KSTC STC20191126114010811/26/19 11:40:31  5-MIN KSTC 261740Z 07008KT 10SM OVC025 02/M04 A2987 1080 64 -200 060/08 RMK AO2 T00171044
14926KSTC STC20191126114510811/26/19 11:45:31  5-MIN KSTC 261745Z 07007KT 10SM OVC025 02/M04 A2987 1080 64 -200 070/07 RMK AO2 T00171044
14926KSTC STC20191126115013311/26/19 11:50:31  5-MIN KSTC 261750Z 06007KT 10SM OVC025 02/M04 A2987 1080 64 -200 060/07 RMK AO2 SLP134 T00171044 10017 20006 51008
14926KSTC STC20191126115510811/26/19 11:55:31  5-MIN KSTC 261755Z 06010KT 10SM OVC025 02/M04 A2986 1080 64 -200 060/10 RMK AO2 T00171044
14926KSTC STC20191126120010811/26/19 12:00:31  5-MIN KSTC 261800Z 06008KT 10SM OVC025 02/M04 A2986 1090 64 -200 060/08 RMK AO2 T00171044
14926KSTC STC20191126120510811/26/19 12:05:31  5-MIN KSTC 261805Z 04008KT 10SM OVC025 02/M04 A2986 1090 64 -200 040/08 RMK AO2 T00171044
14926KSTC STC20191126121010811/26/19 12:10:31  5-MIN KSTC 261810Z 05009KT 10SM OVC025 02/M04 A2986 1090 64 -200 050/09 RMK AO2 T00171044
14926KSTC STC20191126121510811/26/19 12:15:31  5-MIN KSTC 261815Z 05007KT 10SM OVC024 02/M04 A2986 1090 64 -200 050/07 RMK AO2 T00171044
14926KSTC STC20191126122010811/26/19 12:20:31  5-MIN KSTC 261820Z 05007KT 10SM OVC024 02/M04 A2986 1090 64 -200 050/07 RMK AO2 T00171044
14926KSTC STC20191126122510811/26/19 12:25:31  5-MIN KSTC 261825Z 03007KT 10SM OVC024 02/M04 A2986 1090 64 -200 030/07 RMK AO2 T00171044
14926KSTC STC20191126123010811/26/19 12:30:31  5-MIN KSTC 261830Z 05006KT 10SM OVC024 02/M04 A2986 1090 66 -200 050/06 RMK AO2 T00171039
14926KSTC STC20191126123510811/26/19 12:35:31  5-MIN KSTC 261835Z VRB06KT 10SM OVC024 02/M04 A2986 1090 66 -200 VRB/06 RMK AO2 T00171039
14926KSTC STC20191126124010811/26/19 12:40:31  5-MIN KSTC 261840Z 02008KT 10SM OVC024 02/M04 A2986 1090 64 -200 020/08 RMK AO2 T00171044
14926KSTC STC20191126124510811/26/19 12:45:31  5-MIN KSTC 261845Z 04008KT 10SM OVC024 02/M04 A2986 1090 64 -200 030/08 RMK AO2 T00171044
14926KSTC STC20191126125011511/26/19 12:50:31  5-MIN KSTC 261850Z 04007KT 10SM OVC024 02/M04 A2986 1090 64 -200 040/07 RMK AO2 SLP130 T00171044
14926KSTC STC20191126125510811/26/19 12:55:31  5-MIN KSTC 261855Z 03009KT 10SM OVC024 02/M04 A2986 1090 66 -200 030/09 RMK AO2 T00171039
14926KSTC STC20191126130010811/26/19 13:00:31  5-MIN KSTC 261900Z 05008KT 10SM OVC024 02/M04 A2986 1090 66 -200 050/08 RMK AO2 T00171039
14926KSTC STC20191126130511411/26/19 13:05:31  5-MIN KSTC 261905Z 06007G15KT 10SM OVC024 02/M04 A2985 1100 66 -200 060/07G15 RMK AO2 T00171039
14926KSTC STC20191126131010811/26/19 13:10:31  5-MIN KSTC 261910Z 04008KT 10SM OVC024 02/M04 A2985 1100 66 -200 040/08 RMK AO2 T00171039
14926KSTC STC20191126131511411/26/19 13:15:31  5-MIN KSTC 261915Z 06010G15KT 10SM OVC024 02/M04 A2985 1100 64 -200 060/10G15 RMK AO2 T00171044
14926KSTC STC20191126132010811/26/19 13:20:31  5-MIN KSTC 261920Z 06009KT 10SM OVC024 02/M04 A2985 1100 64 -200 060/09 RMK AO2 T00171044
14926KSTC STC20191126132510811/26/19 13:25:31  5-MIN KSTC 261925Z 05008KT 10SM OVC024 02/M04 A2985 1100 64 -200 050/08 RMK AO2 T00171044
14926KSTC STC20191126133010811/26/19 13:30:31  5-MIN KSTC 261930Z 02006KT 10SM OVC024 02/M04 A2985 1100 66 -200 020/06 RMK AO2 T00171039
14926KSTC STC20191126133510811/26/19 13:35:31  5-MIN KSTC 261935Z 04006KT 10SM OVC024 02/M04 A2985 1100 64 -200 030/06 RMK AO2 T00171044
14926KSTC STC20191126134010811/26/19 13:40:31  5-MIN KSTC 261940Z 03008KT 10SM OVC024 02/M04 A2985 1100 64 -200 030/08 RMK AO2 T00171044
14926KSTC STC20191126134510811/26/19 13:45:31  5-MIN KSTC 261945Z 04006KT 10SM OVC025 02/M04 A2985 1100 64 -200 040/06 RMK AO2 T00171044
14926KSTC STC20191126135011511/26/19 13:50:31  5-MIN KSTC 261950Z 04006KT 10SM OVC025 02/M04 A2985 1100 64 -200 040/06 RMK AO2 SLP128 T00171044
14926KSTC STC20191126135512411/26/19 13:55:31  5-MIN KSTC 261955Z 05008KT 010V080 10SM OVC025 02/M04 A2985 1100 64 -200 050/08 010V080 RMK AO2 T00171044
14926KSTC STC20191126140010811/26/19 14:00:31  5-MIN KSTC 262000Z 05006KT 10SM OVC025 02/M04 A2984 1100 64 -200 050/06 RMK AO2 T00171044
14926KSTC STC20191126140510811/26/19 14:05:31  5-MIN KSTC 262005Z 04008KT 10SM OVC025 02/M04 A2984 1110 64 -200 040/08 RMK AO2 T00171044
14926KSTC STC20191126141010811/26/19 14:10:31  5-MIN KSTC 262010Z 05008KT 10SM OVC026 02/M05 A2984 1110 61 -200 050/08 RMK AO2 T00171050
14926KSTC STC20191126141510811/26/19 14:15:31  5-MIN KSTC 262015Z 04006KT 10SM OVC026 02/M04 A2984 1110 64 -200 040/06 RMK AO2 T00171044
14926KSTC STC20191126142010811/26/19 14:20:31  5-MIN KSTC 262020Z 06007KT 10SM OVC026 02/M04 A2984 1110 64 -200 060/07 RMK AO2 T00171044
14926KSTC STC20191126142510811/26/19 14:25:31  5-MIN KSTC 262025Z 04006KT 10SM OVC026 02/M05 A2984 1110 61 -200 040/06 RMK AO2 T00171050
14926KSTC STC20191126143010811/26/19 14:30:31  5-MIN KSTC 262030Z 06007KT 10SM OVC027 02/M04 A2984 1110 64 -200 060/07 RMK AO2 T00171044
14926KSTC STC20191126143510811/26/19 14:35:31  5-MIN KSTC 262035Z 05004KT 10SM OVC027 02/M04 A2984 1110 64 -200 050/04 RMK AO2 T00171044
14926KSTC STC20191126144010811/26/19 14:40:31  5-MIN KSTC 262040Z 05008KT 10SM OVC027 01/M05 A2984 1110 64 -200 050/08 RMK AO2 T00111050
14926KSTC STC20191126144510811/26/19 14:45:31  5-MIN KSTC 262045Z 06008KT 10SM OVC028 01/M05 A2983 1110 64 -200 060/08 RMK AO2 T00111050
14926KSTC STC20191126145012111/26/19 14:50:31  5-MIN KSTC 262050Z 05009KT 10SM OVC028 01/M05 A2983 1110 64 -200 050/09 RMK AO2 SLP122 T00111050 50003
14926KSTC STC20191126145510811/26/19 14:55:31  5-MIN KSTC 262055Z 04009KT 10SM BKN028 01/M05 A2983 1120 64 -200 040/09 RMK AO2 T00111050
14926KSTC STC20191126150010811/26/19 15:00:31  5-MIN KSTC 262100Z 04008KT 10SM BKN028 01/M05 A2983 1120 64 -200 040/08 RMK AO2 T00111050
14926KSTC STC20191126150512411/26/19 15:05:31  5-MIN KSTC 262105Z 05007KT 020V090 10SM BKN028 01/M05 A2983 1120 64 -200 050/07 020V090 RMK AO2 T00111050
14926KSTC STC20191126151010811/26/19 15:10:31  5-MIN KSTC 262110Z 04008KT 10SM BKN028 01/M05 A2982 1120 64 -200 040/08 RMK AO2 T00111050
14926KSTC STC20191126151510811/26/19 15:15:31  5-MIN KSTC 262115Z 04008KT 10SM BKN029 01/M05 A2982 1120 64 -200 040/08 RMK AO2 T00111050
14926KSTC STC20191126152010811/26/19 15:20:31  5-MIN KSTC 262120Z 04009KT 10SM OVC029 01/M05 A2982 1130 64 -200 040/09 RMK AO2 T00111050
14926KSTC STC20191126152510811/26/19 15:25:31  5-MIN KSTC 262125Z 05008KT 10SM OVC029 01/M05 A2982 1130 64 -200 050/08 RMK AO2 T00111050
14926KSTC STC20191126153010811/26/19 15:30:31  5-MIN KSTC 262130Z 03008KT 10SM OVC029 01/M05 A2981 1130 64 -200 030/08 RMK AO2 T00111050
14926KSTC STC20191126153510811/26/19 15:35:31  5-MIN KSTC 262135Z 05008KT 10SM OVC029 01/M05 A2981 1130 64 -200 050/08 RMK AO2 T00111050
14926KSTC STC20191126154010811/26/19 15:40:31  5-MIN KSTC 262140Z 05010KT 10SM OVC029 01/M05 A2981 1140 64 -200 050/10 RMK AO2 T00111050
14926KSTC STC20191126154510811/26/19 15:45:31  5-MIN KSTC 262145Z 03009KT 10SM OVC028 01/M05 A2981 1140 64 -200 030/09 RMK AO2 T00111050
14926KSTC STC20191126155011511/26/19 15:50:31  5-MIN KSTC 262150Z 03007KT 10SM OVC028 01/M05 A2980 1140 64 -200 030/07 RMK AO2 SLP112 T00111050
14926KSTC STC20191126155511411/26/19 15:55:31  5-MIN KSTC 262155Z 04012G18KT 10SM OVC028 01/M05 A2980 1140 64 -200 040/12G18 RMK AO2 T00111050
14926KSTC STC20191126160011411/26/19 16:00:31  5-MIN KSTC 262200Z 04009G18KT 10SM OVC027 01/M05 A2980 1140 64 -200 040/09G18 RMK AO2 T00111050
14926KSTC STC20191126160511411/26/19 16:05:31  5-MIN KSTC 262205Z 04010G16KT 10SM OVC027 01/M05 A2980 1150 66 -200 040/10G16 RMK AO2 T00061050
14926KSTC STC20191126161011411/26/19 16:10:31  5-MIN KSTC 262210Z 03009G16KT 10SM OVC027 01/M05 A2980 1150 66 -200 030/09G16 RMK AO2 T00061050
14926KSTC STC20191126161510811/26/19 16:15:31  5-MIN KSTC 262215Z 03008KT 10SM OVC027 01/M05 A2979 1150 66 -200 030/08 RMK AO2 T00061050
14926KSTC STC20191126162010811/26/19 16:20:31  5-MIN KSTC 262220Z 02010KT 10SM OVC027 01/M05 A2979 1150 66 -200 020/10 RMK AO2 T00061050
14926KSTC STC20191126162510811/26/19 16:25:31  5-MIN KSTC 262225Z 03009KT 10SM OVC027 01/M05 A2979 1150 66 -200 030/09 RMK AO2 T00061050
14926KSTC STC20191126163010811/26/19 16:30:31  5-MIN KSTC 262230Z 02010KT 10SM OVC027 01/M05 A2979 1160 66 -200 020/10 RMK AO2 T00061050
14926KSTC STC20191126163510811/26/19 16:35:31  5-MIN KSTC 262235Z 04011KT 10SM OVC027 01/M05 A2979 1160 66 -200 040/11 RMK AO2 T00061050
14926KSTC STC20191126164011411/26/19 16:40:31  5-MIN KSTC 262240Z 03008G17KT 10SM OVC027 01/M05 A2978 1160 66 -200 030/08G17 RMK AO2 T00061050
14926KSTC STC20191126164510811/26/19 16:45:31  5-MIN KSTC 262245Z 03006KT 10SM OVC027 01/M05 A2979 1160 66 -200 030/06 RMK AO2 T00061050
14926KSTC STC20191126165011511/26/19 16:50:31  5-MIN KSTC 262250Z 03007KT 10SM OVC027 01/M05 A2979 1150 66 -200 030/07 RMK AO2 SLP107 T00061050
14926KSTC STC20191126165510811/26/19 16:55:31  5-MIN KSTC 262255Z 03007KT 10SM OVC027 01/M05 A2979 1150 66 -200 030/07 RMK AO2 T00061050
14926KSTC STC20191126170010811/26/19 17:00:31  5-MIN KSTC 262300Z 03006KT 10SM OVC026 01/M05 A2979 1150 66 -200 030/06 RMK AO2 T00061050
14926KSTC STC20191126170510811/26/19 17:05:31  5-MIN KSTC 262305Z 02005KT 10SM OVC026 01/M04 A2979 1150 69 -200 020/05 RMK AO2 T00061044
14926KSTC STC20191126171010811/26/19 17:10:31  5-MIN KSTC 262310Z 03005KT 10SM OVC025 01/M04 A2979 1150 69 -200 030/05 RMK AO2 T00061044
14926KSTC STC20191126171510811/26/19 17:15:31  5-MIN KSTC 262315Z 03006KT 10SM OVC025 01/M04 A2980 1150 69 -200 030/06 RMK AO2 T00061044
14926KSTC STC20191126172010811/26/19 17:20:31  5-MIN KSTC 262320Z 04007KT 10SM OVC025 01/M04 A2980 1150 69 -200 040/07 RMK AO2 T00061044
14926KSTC STC20191126172510811/26/19 17:25:31  5-MIN KSTC 262325Z 05007KT 10SM OVC024 01/M04 A2980 1150 69 -200 050/07 RMK AO2 T00061044
14926KSTC STC20191126173011411/26/19 17:30:31  5-MIN KSTC 262330Z 05007G16KT 10SM OVC024 01/M04 A2980 1140 69 -200 050/07G16 RMK AO2 T00061044
14926KSTC STC20191126173511411/26/19 17:35:31  5-MIN KSTC 262335Z 05008G16KT 10SM OVC024 01/M04 A2980 1140 72 -200 050/08G16 RMK AO2 T00061039
14926KSTC STC20191126174011411/26/19 17:40:31  5-MIN KSTC 262340Z 04010G16KT 10SM OVC023 01/M04 A2980 1140 72 -200 040/10G16 RMK AO2 T00061039
14926KSTC STC20191126174511411/26/19 17:45:31  5-MIN KSTC 262345Z 05015G23KT 10SM OVC023 01/M04 A2980 1150 69 -200 050/15G23 RMK AO2 T00061044
14926KSTC STC20191126175013911/26/19 17:50:31  5-MIN KSTC 262350Z 04010G23KT 10SM OVC023 01/M04 A2980 1150 69 -200 040/10G23 RMK AO2 SLP110 T00061044 10017 20006 58011
14926KSTC STC20191126175511411/26/19 17:55:31  5-MIN KSTC 262355Z 03009G20KT 10SM OVC023 00/M04 A2980 1150 72 -300 030/09G20 RMK AO2 T00001044
14926KSTC STC20191126180010811/26/19 18:00:31  5-MIN KSTC 270000Z 04011KT 10SM OVC023 00/M04 A2980 1150 72 -300 040/11 RMK AO2 T00001044
14926KSTC STC20191126180510811/26/19 18:05:31  5-MIN KSTC 270005Z 04011KT 10SM OVC022 00/M04 A2979 1150 72 -300 040/11 RMK AO2 T00001044
14926KSTC STC20191126181013211/26/19 18:10:31  5-MIN KSTC 270010Z 04012G27KT 10SM OVC022 00/M04 A2979 1150 72 -300 030/12G27 RMK AO2 PK WND 02027/0009 T00001044
14926KSTC STC20191126181513211/26/19 18:15:31  5-MIN KSTC 270015Z 04009G27KT 10SM OVC022 00/M04 A2979 1150 72 -300 040/09G27 RMK AO2 PK WND 02027/0009 T00001044
14926KSTC STC20191126182013911/26/19 18:20:31  5-MIN KSTC 270020Z 04011G20KT 10SM BKN022 OVC050 00/M04 A2979 1160 72 -300 040/11G20 RMK AO2 PK WND 02027/0009 T00001044
14926KSTC STC20191126182513211/26/19 18:25:31  5-MIN KSTC 270025Z 04010G17KT 10SM OVC022 00/M04 A2978 1160 72 -300 040/10G17 RMK AO2 PK WND 02027/0009 T00001044
14926KSTC STC20191126183013211/26/19 18:30:31  5-MIN KSTC 270030Z 04010G21KT 10SM OVC022 00/M04 A2978 1160 72 -300 040/10G21 RMK AO2 PK WND 02027/0009 T00001044
14926KSTC STC20191126183513211/26/19 18:35:31  5-MIN KSTC 270035Z 04011G21KT 10SM OVC022 00/M04 A2978 1170 72 -300 040/11G21 RMK AO2 PK WND 02027/0009 T00001044
14926KSTC STC20191126184013311/26/19 18:40:31  5-MIN KSTC 270040Z 04013G24KT 10SM OVC020 M01/M04 A2978 1160 75 -400 040/13G24 RMK AO2 PK WND 02027/0009 T10061044
14926KSTC STC20191126184513311/26/19 18:45:31  5-MIN KSTC 270045Z 05014G24KT 10SM OVC020 M01/M04 A2978 1160 75 -400 050/14G24 RMK AO2 PK WND 02027/0009 T10061044
14926KSTC STC20191126185014011/26/19 18:50:31  5-MIN KSTC 270050Z 05011G22KT 10SM OVC020 M01/M04 A2978 1160 75 -400 050/11G22 RMK AO2 PK WND 02027/0009 SLP105 T10061044
14926KSTC STC20191126185511511/26/19 18:55:31  5-MIN KSTC 270055Z 04013G20KT 10SM OVC020 M01/M04 A2978 1160 75 -400 040/13G20 RMK AO2 T10061044
14926KSTC STC20191126190011511/26/19 19:00:31  5-MIN KSTC 270100Z 04014G24KT 10SM OVC020 M01/M04 A2978 1160 78 -400 040/14G24 RMK AO2 T10111044
14926KSTC STC20191126190511511/26/19 19:05:31  5-MIN KSTC 270105Z 04017G24KT 10SM OVC018 M01/M04 A2978 1160 78 -400 040/17G24 RMK AO2 T10111044
14926KSTC STC20191126191013011/26/19 19:10:31  5-MIN KSTC 270110Z 04011G23KT 9SM -SN OVC018 M01/M04 A2978 1160 78 -400 040/11G23 RMK AO2 SNB07 P0000 T10111044
14926KSTC STC20191126191513711/26/19 19:15:31  5-MIN KSTC 270115Z 04010G23KT 9SM -SN BKN016 OVC022 M01/M04 A2978 1160 78 -400 040/10G23 RMK AO2 SNB07 P0000 T10111044
14926KSTC STC20191126192012911/26/19 19:20:31  5-MIN KSTC 270120Z 04009G19KT 9SM OVC016 M01/M04 A2978 1160 78 -400 040/09G19 RMK AO2 SNB07E20 P0000 T10111044
14926KSTC STC20191126192512911/26/19 19:25:31  5-MIN KSTC 270125Z 04008G15KT 9SM OVC016 M01/M04 A2978 1160 78 -400 040/08G15 RMK AO2 SNB07E20 P0000 T10111044
14926KSTC STC20191126193013011/26/19 19:30:31  5-MIN KSTC 270130Z 05010G16KT 10SM OVC017 M01/M04 A2978 1160 75 -400 040/10G16 RMK AO2 SNB07E20 P0000 T10061044
14926KSTC STC20191126193512411/26/19 19:35:31  5-MIN KSTC 270135Z 04010KT 10SM OVC017 M01/M04 A2978 1170 75 -400 040/10 RMK AO2 SNB07E20 P0000 T10061044
14926KSTC STC20191126194012411/26/19 19:40:31  5-MIN KSTC 270140Z 04008KT 10SM OVC017 M01/M04 A2977 1170 75 -400 040/08 RMK AO2 SNB07E20 P0000 T10061044
14926KSTC STC20191126194513011/26/19 19:45:31  5-MIN KSTC 270145Z 05008KT 9SM -SN OVC017 M01/M04 A2977 1170 75 -400 050/08 RMK AO2 SNB07E20B44 P0000 T10061044
14926KSTC STC20191126195014311/26/19 19:50:31  5-MIN KSTC 270150Z 04010G16KT 7SM -SN OVC017 M01/M04 A2978 1170 75 -400 040/10G16 RMK AO2 SNB07E20B44 SLP103 P0000 T10061044
14926KSTC STC20191126195512411/26/19 19:55:31  5-MIN KSTC 270155Z 04008G18KT 6SM -SN OVC017 M01/M04 A2977 1170 75 -400 040/08G18 RMK AO2 P0000 T10061044
14926KSTC STC20191126200012411/26/19 20:00:31  5-MIN KSTC 270200Z 04011G18KT 5SM -SN OVC018 M01/M04 A2977 1170 75 -400 040/11G18 RMK AO2 P0000 T10061044
14926KSTC STC20191126200512411/26/19 20:05:31  5-MIN KSTC 270205Z 04010G18KT 2SM -SN OVC018 M01/M04 A2977 1170 81 -400 040/10G18 RMK AO2 P0000 T10111039
14926KSTC STC20191126201012811/26/19 20:10:31  5-MIN KSTC 270210Z 04011G20KT 1 1/4SM -SN OVC018 M01/M04 A2977 1170 81 -400 040/11G20 RMK AO2 P0000 T10111039
14926KSTC STC20191126201512811/26/19 20:15:31  5-MIN KSTC 270215Z 05009G20KT 1 1/4SM -SN OVC016 M01/M04 A2976 1180 81 -400 040/09G20 RMK AO2 P0000 T10111039
14926KSTC STC20191126202012011/26/19 20:20:31  5-MIN KSTC 270220Z 05009KT 1SM -SN BR VV014 M01/M03 A2976 1180 85 -400 050/09 RMK AO2 P0001 T10111033
14926KSTC STC20191126202512011/26/19 20:25:31  5-MIN KSTC 270225Z 04010KT 1SM -SN BR VV013 M01/M03 A2976 1180 85 -400 040/10 RMK AO2 P0001 T10111033
14926KSTC STC20191126203012211/26/19 20:30:31  5-MIN KSTC 270230Z 03009KT 3/4SM -SN BR VV012 M02/M03 A2975 1190 88 -500 030/09 RMK AO2 P0001 T10171033
14926KSTC STC20191126203512811/26/19 20:35:31  5-MIN KSTC 270235Z 04009G16KT 3/4SM -SN BR VV012 M02/M03 A2975 1190 88 -500 040/09G16 RMK AO2 P0002 T10171033
14926KSTC STC20191126204012811/26/19 20:40:31  5-MIN KSTC 270240Z 03010G16KT 3/4SM -SN BR VV011 M02/M03 A2975 1190 92 -500 030/10G16 RMK AO2 P0002 T10171028
14926KSTC STC20191126204512811/26/19 20:45:31  5-MIN KSTC 270245Z 03009G16KT 3/4SM -SN BR VV011 M02/M03 A2974 1200 92 -500 030/09G16 RMK AO2 P0003 T10171028
14926KSTC STC20191126205014711/26/19 20:50:31  5-MIN KSTC 270250Z 02009G16KT 3/4SM -SN BR VV011 M02/M03 A2974 1200 92 -500 020/09G16 RMK AO2 SLP090 P0003 60003 T10171028 55011
14926KSTC STC20191126205512011/26/19 20:55:31  5-MIN KSTC 270255Z 02009KT 1SM -SN BR VV013 M02/M03 A2973 1210 92 -400 020/09 RMK AO2 P0000 T10171028
14926KSTC STC20191126210012511/26/19 21:00:31  5-MIN KSTC 270300Z 03008KT 1 1/4SM -SN BR OVC016 M02/M03 A2973 1210 92 -400 020/08 RMK AO2 P0000 T10171028
14926KSTC STC20191126210512511/26/19 21:05:31  5-MIN KSTC 270305Z 02007KT 1 3/4SM -SN BR OVC020 M02/M03 A2973 1210 92 -400 020/07 RMK AO2 P0000 T10171028
14926KSTC STC20191126211012111/26/19 21:10:31  5-MIN KSTC 270310Z 02006KT 2SM -SN BR OVC020 M02/M03 A2973 1210 92 -400 020/06 RMK AO2 P0000 T10171028
14926KSTC STC20191126211512511/26/19 21:15:31  5-MIN KSTC 270315Z 02010KT 1 1/2SM -SN BR OVC018 M02/M03 A2973 1210 92 -400 020/10 RMK AO2 P0000 T10171028
14926KSTC STC20191126212012211/26/19 21:20:31  5-MIN KSTC 270320Z 02008KT 3/4SM -SN BR VV017 M02/M03 A2972 1220 92 -400 020/08 RMK AO2 P0001 T10171028
14926KSTC STC20191126212512811/26/19 21:25:31  5-MIN KSTC 270325Z 02008G16KT 3/4SM -SN BR VV016 M02/M03 A2972 1220 92 -400 020/08G16 RMK AO2 P0001 T10171028
14926KSTC STC20191126213012211/26/19 21:30:31  5-MIN KSTC 270330Z 02010KT 3/4SM -SN BR VV013 M02/M03 A2972 1220 92 -400 020/10 RMK AO2 P0002 T10171028
14926KSTC STC20191126213512211/26/19 21:35:31  5-MIN KSTC 270335Z 02009KT 3/4SM -SN BR VV012 M02/M03 A2972 1220 92 -400 020/09 RMK AO2 P0002 T10171028
14926KSTC STC20191126214012811/26/19 21:40:31  5-MIN KSTC 270340Z 02010G17KT 3/4SM -SN BR VV011 M02/M03 A2971 1230 92 -400 010/10G17 RMK AO2 P0003 T10171028
14926KSTC STC20191126214512811/26/19 21:45:31  5-MIN KSTC 270345Z 02010G17KT 3/4SM -SN BR VV010 M02/M03 A2971 1230 92 -400 020/10G17 RMK AO2 P0003 T10171028
14926KSTC STC20191126215013511/26/19 21:50:31  5-MIN KSTC 270350Z 02009G17KT 3/4SM -SN BR VV010 M02/M03 A2972 1220 92 -400 020/09G17 RMK AO2 SLP084 P0003 T10171028
14926KSTC STC20191126215512811/26/19 21:55:31  5-MIN KSTC 270355Z 02010G17KT 3/4SM -SN BR VV010 M02/M03 A2972 1220 92 -400 020/10G17 RMK AO2 P0000 T10171028
14926KSTC STC20191126220012811/26/19 22:00:31  5-MIN KSTC 270400Z 01008G17KT 3/4SM -SN BR VV010 M02/M03 A2971 1220 92 -400 010/08G17 RMK AO2 P0000 T10171028
14926KSTC STC20191126220512211/26/19 22:05:31  5-MIN KSTC 270405Z 01009KT 3/4SM -SN BR VV010 M02/M03 A2971 1230 92 -400 010/09 RMK AO2 P0001 T10171028
14926KSTC STC20191126221012211/26/19 22:10:31  5-MIN KSTC 270410Z 01009KT 3/4SM -SN BR VV009 M02/M03 A2971 1230 92 -400 010/09 RMK AO2 P0001 T10171028
14926KSTC STC20191126221512211/26/19 22:15:31  5-MIN KSTC 270415Z 01011KT 3/4SM -SN BR VV009 M02/M03 A2970 1240 92 -400 010/11 RMK AO2 P0002 T10171028
14926KSTC STC20191126222012211/26/19 22:20:31  5-MIN KSTC 270420Z 01011KT 3/4SM -SN BR VV009 M02/M03 A2970 1240 92 -400 010/11 RMK AO2 P0002 T10171028
14926KSTC STC20191126222512311/26/19 22:25:31  5-MIN KSTC 270425Z 01009KT 1/2SM SN FZFG VV008 M02/M02 A2969 1240 96 -400 010/09 RMK AO2 P0003 T10171022
14926KSTC STC20191126223012311/26/19 22:30:31  5-MIN KSTC 270430Z 01010KT 1/2SM SN FZFG VV008 M02/M02 A2969 1250 96 -400 010/10 RMK AO2 P0004 T10171022
14926KSTC STC20191126223512311/26/19 22:35:31  5-MIN KSTC 270435Z 02010KT 1/2SM SN FZFG VV007 M02/M02 A2969 1250 96 -400 020/10 RMK AO2 P0004 T10171022
14926KSTC STC20191126224012911/26/19 22:40:31  5-MIN KSTC 270440Z 02010G22KT 1/2SM SN FZFG VV006 M02/M03 A2969 1250 92 -400 010/10G22 RMK AO2 P0005 T10171028
14926KSTC STC20191126224512911/26/19 22:45:31  5-MIN KSTC 270445Z 02013G22KT 1/2SM SN FZFG VV007 M02/M03 A2969 1250 92 -400 010/13G22 RMK AO2 P0006 T10171028
14926KSTC STC20191126225013611/26/19 22:50:31  5-MIN KSTC 270450Z 01011G18KT 1/2SM SN FZFG VV007 M02/M03 A2969 1250 92 -400 010/11G18 RMK AO2 SLP073 P0006 T10171028
14926KSTC STC20191126225512811/26/19 22:55:31  5-MIN KSTC 270455Z 01011G20KT 3/4SM -SN BR VV008 M02/M03 A2969 1250 92 -400 010/11G20 RMK AO2 P0000 T10171028
14926KSTC STC20191126230013311/26/19 23:00:31  5-MIN KSTC 270500Z AUTO 01012G20KT 3/4SM -SN BR VV008 M02/M03 A2969 1250 92 -400 010/12G20 RMK AO2 P0000 T10171028
14926KSTC STC20191126230512711/26/19 23:05:31  5-MIN KSTC 270505Z AUTO 01010KT 3/4SM -SN BR VV008 M02/M03 A2968 1250 92 -400 010/10 RMK AO2 P0001 T10171028
14926KSTC STC20191126231013411/26/19 23:10:31  5-MIN KSTC 270510Z AUTO 01009G17KT 1/2SM SN FZFG VV007 M02/M03 A2968 1250 92 -400 010/09G17 RMK AO2 P0002 T10171028
14926KSTC STC20191126231513411/26/19 23:15:31  5-MIN KSTC 270515Z AUTO 02011G18KT 1/2SM SN FZFG VV007 M02/M03 A2969 1250 92 -400 010/11G18 RMK AO2 P0003 T10171028
14926KSTC STC20191126232012811/26/19 23:20:31  5-MIN KSTC 270520Z AUTO 01011KT 1/2SM SN FZFG VV008 M02/M03 A2969 1250 92 -400 010/11 RMK AO2 P0003 T10171028
14926KSTC STC20191126232512711/26/19 23:25:31  5-MIN KSTC 270525Z AUTO 01012KT 3/4SM -SN BR VV008 M02/M03 A2968 1250 92 -400 010/12 RMK AO2 P0004 T10171028
14926KSTC STC20191126233013311/26/19 23:30:31  5-MIN KSTC 270530Z AUTO 01014G23KT 3/4SM -SN BR VV008 M02/M03 A2968 1260 92 -400 010/14G23 RMK AO2 P0004 T10171028
14926KSTC STC20191126233513311/26/19 23:35:31  5-MIN KSTC 270535Z AUTO 02010G23KT 3/4SM -SN BR VV008 M01/M03 A2968 1260 88 -300 020/10G23 RMK AO2 P0005 T10111028
14926KSTC STC20191126234013411/26/19 23:40:31  5-MIN KSTC 270540Z AUTO 02013G21KT 1/2SM SN FZFG VV008 M01/M02 A2968 1260 92 -300 020/13G21 RMK AO2 P0005 T10111022
14926KSTC STC20191126234513411/26/19 23:45:31  5-MIN KSTC 270545Z AUTO 01010G21KT 1/2SM SN FZFG VV008 M01/M02 A2967 1260 92 -300 010/10G21 RMK AO2 P0006 T10111022
14926KSTC STC20191126235016911/26/19 23:50:31  5-MIN KSTC 270550Z AUTO 01011KT 1/2SM SN FZFG VV007 M02/M02 A2967 1270 96 -400 010/11 RMK AO2 SLP066 P0007 60022 T10171022 10006 21017 400171017 58022
14926KSTC STC20191126235512811/26/19 23:55:31  5-MIN KSTC 270555Z AUTO 01011KT 1/2SM SN FZFG VV007 M01/M02 A2967 1270 92 -300 010/11 RMK AO2 P0000 T10111022
14926KSTC STC20191127000012811/27/19 00:00:31  5-MIN KSTC 270600Z AUTO 01011KT 1/2SM SN FZFG VV007 M02/M02 A2967 1270 96 -400 010/11 RMK AO2 P0001 T10171022
14926KSTC STC20191127000513411/27/19 00:05:31  5-MIN KSTC 270605Z AUTO 01012G18KT 1/2SM SN FZFG VV007 M01/M02 A2967 1270 92 -300 010/12G18 RMK AO2 P0002 T10111022
14926KSTC STC20191127001013311/27/19 00:10:31  5-MIN KSTC 270610Z AUTO 01010G18KT 3/4SM -SN BR VV008 M01/M02 A2966 1270 92 -300 010/10G18 RMK AO2 P0002 T10111022
14926KSTC STC20191127001512711/27/19 00:15:31  5-MIN KSTC 270615Z AUTO 01011KT 3/4SM -SN BR VV009 M01/M02 A2966 1280 92 -300 010/11 RMK AO2 P0003 T10111022
14926KSTC STC20191127002012511/27/19 00:20:31  5-MIN KSTC 270620Z AUTO 01012KT 1SM -SN BR VV009 M01/M02 A2966 1280 92 -300 360/12 RMK AO2 P0003 T10111022
14926KSTC STC20191127002513111/27/19 00:25:31  5-MIN KSTC 270625Z AUTO 01012G19KT 1SM -SN BR VV010 M01/M02 A2966 1280 92 -300 360/12G19 RMK AO2 P0003 T10111022
14926KSTC STC20191127003013111/27/19 00:30:31  5-MIN KSTC 270630Z AUTO 01014G21KT 1SM -SN BR VV010 M01/M02 A2966 1280 92 -300 010/14G21 RMK AO2 P0003 T10111022
14926KSTC STC20191127003513111/27/19 00:35:31  5-MIN KSTC 270635Z AUTO 01010G21KT 1SM -SN BR VV011 M01/M03 A2965 1280 88 -300 010/10G21 RMK AO2 P0004 T10111028
14926KSTC STC20191127004013911/27/19 00:40:31  5-MIN KSTC 270640Z AUTO 36010G20KT 1SM -SN BR FEW006 OVC011 M02/M03 A2965 1280 92 -400 360/10G20 RMK AO2 P0004 T10171028
14926KSTC STC20191127004513111/27/19 00:45:31  5-MIN KSTC 270645Z AUTO 01013G22KT 1SM -SN BR VV010 M02/M03 A2965 1280 92 -400 360/13G22 RMK AO2 P0004 T10171028
14926KSTC STC20191127005013811/27/19 00:50:31  5-MIN KSTC 270650Z AUTO 01013G23KT 1SM -SN BR VV011 M01/M03 A2965 1280 88 -300 010/13G23 RMK AO2 SLP059 P0004 T10111028
14926KSTC STC20191127005513111/27/19 00:55:31  5-MIN KSTC 270655Z AUTO 01014G24KT 1SM -SN BR VV011 M01/M03 A2965 1290 88 -300 010/14G24 RMK AO2 P0000 T10111028
14926KSTC STC20191127010013111/27/19 01:00:31  5-MIN KSTC 270700Z AUTO 01014G24KT 1SM -SN BR VV011 M02/M03 A2965 1290 92 -300 010/14G24 RMK AO2 P0001 T10171028
14926KSTC STC20191127010513111/27/19 01:05:31  5-MIN KSTC 270705Z AUTO 01011G21KT 1SM -SN BR VV010 M02/M03 A2964 1290 92 -300 010/11G21 RMK AO2 P0001 T10171028
14926KSTC STC20191127011013311/27/19 01:10:31  5-MIN KSTC 270710Z AUTO 01014G21KT 3/4SM -SN BR VV010 M02/M03 A2964 1290 92 -300 010/14G21 RMK AO2 P0001 T10171028
14926KSTC STC20191127011513311/27/19 01:15:31  5-MIN KSTC 270715Z AUTO 01015G21KT 3/4SM -SN BR VV010 M02/M03 A2964 1290 92 -300 010/15G21 RMK AO2 P0001 T10171028
14926KSTC STC20191127012013311/27/19 01:20:31  5-MIN KSTC 270720Z AUTO 01016G25KT 3/4SM -SN BR VV010 M02/M03 A2964 1290 92 -300 010/16G25 RMK AO2 P0002 T10171028
14926KSTC STC20191127012513311/27/19 01:25:31  5-MIN KSTC 270725Z AUTO 01014G25KT 3/4SM -SN BR VV010 M02/M03 A2964 1290 92 -300 010/14G25 RMK AO2 P0002 T10171028
14926KSTC STC20191127013013311/27/19 01:30:31  5-MIN KSTC 270730Z AUTO 01014G24KT 3/4SM -SN BR VV010 M02/M03 A2964 1290 92 -300 010/14G24 RMK AO2 P0003 T10171028
14926KSTC STC20191127013513311/27/19 01:35:31  5-MIN KSTC 270735Z AUTO 01014G25KT 3/4SM -SN BR VV010 M01/M03 A2964 1290 88 -300 010/14G25 RMK AO2 P0003 T10111028
14926KSTC STC20191127014013311/27/19 01:40:31  5-MIN KSTC 270740Z AUTO 01015G25KT 3/4SM -SN BR VV010 M01/M03 A2964 1290 88 -300 010/15G25 RMK AO2 P0003 T10111028
14926KSTC STC20191127014513311/27/19 01:45:31  5-MIN KSTC 270745Z AUTO 01014G24KT 3/4SM -SN BR VV011 M02/M03 A2964 1290 92 -300 010/14G24 RMK AO2 P0003 T10171028
14926KSTC STC20191127015012111/27/19 01:50:31  5-MIN KSTC 270750Z AUTO 01012G23KT 1SM -SN BR VV011 M02/M03 A2964 1290 92 -300 010/12G23 RMK AO2 P0004
14926KSTC STC20191127015513111/27/19 01:55:31  5-MIN KSTC 270755Z AUTO 36015G24KT 1SM -SN BR VV011 M02/M03 A2964 1290 92 -300 360/15G24 RMK AO2 P0000 T10171028
14926KSTC STC20191127020013311/27/19 02:00:31  5-MIN KSTC 270800Z AUTO 01014G24KT 3/4SM -SN BR VV011 M02/M03 A2964 1290 92 -300 010/14G24 RMK AO2 P0000 T10171028
14926KSTC STC20191127020513311/27/19 02:05:31  5-MIN KSTC 270805Z AUTO 36012G23KT 3/4SM -SN BR VV012 M02/M03 A2964 1290 92 -300 360/12G23 RMK AO2 P0000 T10171028
14926KSTC STC20191127021013311/27/19 02:10:31  5-MIN KSTC 270810Z AUTO 36012G23KT 3/4SM -SN BR VV012 M02/M03 A2964 1290 92 -300 360/12G23 RMK AO2 P0001 T10171028
14926KSTC STC20191127021513311/27/19 02:15:31  5-MIN KSTC 270815Z AUTO 36014G23KT 3/4SM -SN BR VV011 M02/M03 A2965 1290 92 -300 360/14G23 RMK AO2 P0002 T10171028
14926KSTC STC20191127022013311/27/19 02:20:31  5-MIN KSTC 270820Z AUTO 36015G23KT 3/4SM -SN BR VV011 M02/M03 A2965 1290 92 -300 360/15G23 RMK AO2 P0002 T10171028
14926KSTC STC20191127022513111/27/19 02:25:31  5-MIN KSTC 270825Z AUTO 36014G24KT 1SM -SN BR VV011 M02/M03 A2965 1280 92 -400 360/14G24 RMK AO2 P0002 T10171028
14926KSTC STC20191127023014911/27/19 02:30:31  5-MIN KSTC 270830Z AUTO 36014G26KT 1SM -SN BR VV012 M01/M03 A2965 1290 88 -300 360/14G26 RMK AO2 PK WND 35026/0826 P0002 T10111028
14926KSTC STC20191127023515411/27/19 02:35:31  5-MIN KSTC 270835Z AUTO 36013G26KT 1 1/4SM -SN BR OVC012 M02/M03 A2965 1280 92 -400 360/13G26 RMK AO2 PK WND 35026/0826 P0002 T10171028
14926KSTC STC20191127024015411/27/19 02:40:31  5-MIN KSTC 270840Z AUTO 36016G25KT 1 1/2SM -SN BR OVC012 M02/M03 A2965 1290 92 -300 360/16G25 RMK AO2 PK WND 35026/0826 P0002 T10171028
14926KSTC STC20191127024516111/27/19 02:45:31  5-MIN KSTC 270845Z AUTO 36016G25KT 1 1/2SM -SN BR SCT010 OVC014 M02/M03 A2965 1290 92 -400 360/16G25 RMK AO2 PK WND 35026/0826 P0002 T10171028
14926KSTC STC20191127025015111/27/19 02:50:31  5-MIN KSTC 270850Z AUTO 36016G24KT 1 1/2SM -SN BR SCT010 OVC016 M02/M03 A2965 1290 92 -300 360/16G24 RMK AO2 PK WND 35026/0826 P0002
14926KSTC STC20191127025514311/27/19 02:55:31  5-MIN KSTC 270855Z AUTO 36015G24KT 1 1/2SM -SN BR SCT010 OVC018 M02/M03 A2965 1290 92 -300 360/15G24 RMK AO2 P0000 T10171028
14926KSTC STC20191127030016111/27/19 03:00:31  5-MIN KSTC 270900Z AUTO 36015G27KT 1 1/2SM -SN BR BKN010 OVC018 M02/M03 A2965 1290 88 -400 350/15G27 RMK AO2 PK WND 36027/0859 P0000 T10171033
14926KSTC STC20191127030516111/27/19 03:05:31  5-MIN KSTC 270905Z AUTO 36015G27KT 1 1/2SM -SN BR BKN010 OVC018 M02/M03 A2965 1280 88 -400 360/15G27 RMK AO2 PK WND 36027/0859 P0000 T10171033
14926KSTC STC20191127031016111/27/19 03:10:31  5-MIN KSTC 270910Z AUTO 35015G23KT 1 1/2SM -SN BR SCT011 OVC018 M02/M03 A2965 1280 88 -400 350/15G23 RMK AO2 PK WND 36027/0859 P0000 T10171033
14926KSTC STC20191127031515411/27/19 03:15:31  5-MIN KSTC 270915Z AUTO 36015G25KT 1 1/2SM -SN BR OVC015 M02/M03 A2965 1280 88 -400 350/15G25 RMK AO2 PK WND 36027/0859 P0000 T10171033
14926KSTC STC20191127032014911/27/19 03:20:31  5-MIN KSTC 270920Z AUTO 36016G27KT 1SM -SN BR VV014 M02/M03 A2965 1280 88 -400 350/16G27 RMK AO2 PK WND 36027/0859 P0000 T10171033
14926KSTC STC20191127032515111/27/19 03:25:31  5-MIN KSTC 270925Z AUTO 36019G31KT 3/4SM -SN BR VV013 M02/M03 A2965 1280 88 -400 360/19G31 RMK AO2 PK WND 35031/0924 P0000 T10171033
14926KSTC STC20191127033015111/27/19 03:30:31  5-MIN KSTC 270930Z AUTO 36014G31KT 3/4SM -SN BR VV013 M02/M03 A2965 1280 88 -400 360/14G31 RMK AO2 PK WND 35031/0924 P0000 T10171033
14926KSTC STC20191127033515111/27/19 03:35:31  5-MIN KSTC 270935Z AUTO 35015G28KT 3/4SM -SN BR VV012 M02/M03 A2965 1280 88 -400 350/15G28 RMK AO2 PK WND 35031/0924 P0000 T10171033
14926KSTC STC20191127034015111/27/19 03:40:31  5-MIN KSTC 270940Z AUTO 36018G28KT 3/4SM -SN BR VV011 M02/M03 A2965 1280 92 -400 360/18G28 RMK AO2 PK WND 35031/0924 P0001 T10221033
14926KSTC STC20191127034515111/27/19 03:45:31  5-MIN KSTC 270945Z AUTO 36017G28KT 3/4SM -SN BR VV010 M02/M03 A2965 1280 92 -400 360/17G28 RMK AO2 PK WND 35031/0924 P0001 T10221033
14926KSTC STC20191127035015811/27/19 03:50:31  5-MIN KSTC 270950Z AUTO 36016G26KT 3/4SM -SN BR VV010 M02/M03 A2965 1280 92 -400 360/16G26 RMK AO2 PK WND 35031/0924 SLP061 P0001 T10221033
14926KSTC STC20191127035514911/27/19 03:55:31  5-MIN KSTC 270955Z AUTO 36016G30KT 1SM -SN BR VV011 M02/M03 A2966 1280 92 -400 350/16G30 RMK AO2 PK WND 35030/0955 P0000 T10221033
14926KSTC STC20191127040014911/27/19 04:00:31  5-MIN KSTC 271000Z AUTO 35018G30KT 1SM -SN BR VV012 M02/M04 A2966 1280 88 -400 350/18G30 RMK AO2 PK WND 35030/0955 P0000 T10221039
14926KSTC STC20191127040515411/27/19 04:05:31  5-MIN KSTC 271005Z AUTO 36017G28KT 1 1/4SM -SN BR OVC013 M02/M04 A2966 1270 88 -400 360/17G28 RMK AO2 PK WND 35030/0955 P0000 T10221039
14926KSTC STC20191127041015411/27/19 04:10:31  5-MIN KSTC 271010Z AUTO 35018G27KT 1 1/4SM -SN BR OVC013 M02/M04 A2966 1270 88 -400 350/18G27 RMK AO2 PK WND 35030/0955 P0000 T10221039
14926KSTC STC20191127041515411/27/19 04:15:31  5-MIN KSTC 271015Z AUTO 36020G27KT 1 1/4SM -SN BR OVC013 M02/M04 A2967 1270 88 -400 350/20G27 RMK AO2 PK WND 35030/0955 P0000 T10221039
14926KSTC STC20191127042015411/27/19 04:20:31  5-MIN KSTC 271020Z AUTO 36019G27KT 1 1/4SM -SN BR OVC013 M02/M04 A2967 1270 88 -400 360/19G27 RMK AO2 PK WND 35030/0955 P0000 T10221039
14926KSTC STC20191127142511411/27/19 14:25:31  5-MIN KSTC 272025Z 33012G21KT 10SM OVC024 M02/M07 A3010 870 69 -900 330/12G21 RMK AO2 T10171067
14926KSTC STC20191127143011411/27/19 14:30:31  5-MIN KSTC 272030Z 33012G21KT 10SM OVC024 M02/M07 A3010 870 69 -900 330/12G21 RMK AO2 T10171067
14926KSTC STC20191127143511411/27/19 14:35:31  5-MIN KSTC 272035Z 34015G22KT 10SM OVC024 M02/M07 A3010 870 69 -900 340/15G22 RMK AO2 T10171067
14926KSTC STC20191127144011411/27/19 14:40:31  5-MIN KSTC 272040Z 33012G22KT 10SM OVC024 M02/M07 A3011 860 69 -900 330/12G22 RMK AO2 T10171067
14926KSTC STC20191127144511411/27/19 14:45:31  5-MIN KSTC 272045Z 34009G20KT 10SM OVC024 M02/M06 A3011 860 72 -900 340/09G20 RMK AO2 T10171061
14926KSTC STC20191127145012111/27/19 14:50:31  5-MIN KSTC 272050Z 34008KT 10SM OVC024 M02/M06 A3011 850 72 -900 340/08 RMK AO2 SLP220 T10171061 53042
14926KSTC STC20191127145511411/27/19 14:55:31  5-MIN KSTC 272055Z 34012G19KT 10SM OVC024 M02/M06 A3011 850 72 -900 340/12G19 RMK AO2 T10171061
14926KSTC STC20191127150011411/27/19 15:00:31  5-MIN KSTC 272100Z 34012G20KT 10SM OVC024 M02/M07 A3012 850 69 -900 340/12G20 RMK AO2 T10171067
14926KSTC STC20191127150511411/27/19 15:05:31  5-MIN KSTC 272105Z 34013G20KT 10SM OVC024 M02/M07 A3012 850 69 -900 340/13G20 RMK AO2 T10171067
14926KSTC STC20191127151011411/27/19 15:10:31  5-MIN KSTC 272110Z 34010G19KT 10SM OVC024 M02/M07 A3012 850 69 -900 340/10G19 RMK AO2 T10171067
14926KSTC STC20191127151511411/27/19 15:15:31  5-MIN KSTC 272115Z 35015G22KT 10SM OVC024 M02/M07 A3013 840 69 -900 350/15G22 RMK AO2 T10171067
14926KSTC STC20191127152011511/27/19 15:20:31  5-MIN KSTC 272120Z 35011G22KT 10SM OVC024 M02/M07 A3014 830 72 -1000 340/11G22 RMK AO2 T10221067
14926KSTC STC20191127152513311/27/19 15:25:31  5-MIN KSTC 272125Z 34013G26KT 10SM OVC026 M02/M07 A3014 830 69 -1000 340/13G26 RMK AO2 PK WND 34026/2121 T10221072
14926KSTC STC20191127153013311/27/19 15:30:31  5-MIN KSTC 272130Z 34012G26KT 10SM OVC026 M02/M07 A3015 830 69 -1000 340/12G26 RMK AO2 PK WND 34026/2121 T10221072
14926KSTC STC20191127153514011/27/19 15:35:31  5-MIN KSTC 272135Z 34010G22KT 10SM OVC026 M02/M07 A3015 820 72 -1000 340/10G22 RMK AO2 PK WND 34026/2121 PRESRR T10221067
14926KSTC STC20191127154013411/27/19 15:40:31  5-MIN KSTC 272140Z 34009KT 10SM OVC026 M02/M07 A3016 810 72 -1000 340/09 RMK AO2 PK WND 34026/2121 PRESRR T10221067
14926KSTC STC20191127154513411/27/19 15:45:31  5-MIN KSTC 272145Z 33010KT 10SM OVC026 M02/M07 A3017 810 72 -1000 330/10 RMK AO2 PK WND 34026/2121 PRESRR T10221067
14926KSTC STC20191127155014711/27/19 15:50:31  5-MIN KSTC 272150Z 32014G20KT 10SM OVC026 M02/M07 A3017 800 72 -1000 320/14G20 RMK AO2 PK WND 34026/2121 PRESRR SLP240 T10221067
14926KSTC STC20191127155511511/27/19 15:55:31  5-MIN KSTC 272155Z 32012G20KT 10SM OVC026 M02/M07 A3017 800 72 -1000 320/12G20 RMK AO2 T10221067
14926KSTC STC20191127160010911/27/19 16:00:31  5-MIN KSTC 272200Z 33013KT 10SM OVC026 M02/M07 A3018 790 72 -1000 330/13 RMK AO2 T10221067
14926KSTC STC20191127160511511/27/19 16:05:31  5-MIN KSTC 272205Z 33014G20KT 10SM OVC024 M02/M07 A3018 790 72 -1000 330/14G20 RMK AO2 T10221067
14926KSTC STC20191127161011511/27/19 16:10:31  5-MIN KSTC 272210Z 34011G20KT 10SM OVC024 M02/M07 A3018 790 72 -1000 330/11G20 RMK AO2 T10221067
14926KSTC STC20191127161511511/27/19 16:15:31  5-MIN KSTC 272215Z 34011G19KT 10SM OVC024 M02/M07 A3018 790 69 -1000 340/11G19 RMK AO2 T10221072
14926KSTC STC20191127162011511/27/19 16:20:31  5-MIN KSTC 272220Z 34010G19KT 10SM OVC023 M02/M07 A3019 790 69 -1000 340/10G19 RMK AO2 T10221072
14926KSTC STC20191127162511511/27/19 16:25:31  5-MIN KSTC 272225Z 34011G20KT 10SM OVC023 M02/M07 A3019 780 69 -1000 340/11G20 RMK AO2 T10221072
14926KSTC STC20191127163011511/27/19 16:30:31  5-MIN KSTC 272230Z 34012G20KT 10SM OVC023 M02/M07 A3019 780 69 -1000 340/12G20 RMK AO2 T10221072
14926KSTC STC20191127163511511/27/19 16:35:31  5-MIN KSTC 272235Z 34010G18KT 10SM OVC023 M03/M07 A3020 770 71 -1100 340/10G18 RMK AO2 T10281072
14926KSTC STC20191127164014011/27/19 16:40:31  5-MIN KSTC 272240Z 34012G26KT 10SM OVC023 M03/M08 A3021 770 68 -1100 340/12G26 RMK AO2 PK WND 34026/2236 PRESRR T10281078
14926KSTC STC20191127164513311/27/19 16:45:31  5-MIN KSTC 272245Z 34011G26KT 10SM OVC025 M03/M08 A3021 760 68 -1100 340/11G26 RMK AO2 PK WND 34026/2236 T10281078
14926KSTC STC20191127165014011/27/19 16:50:31  5-MIN KSTC 272250Z 34013G20KT 10SM OVC025 M03/M08 A3022 760 68 -1100 340/13G20 RMK AO2 PK WND 34026/2236 SLP255 T10281078
14926KSTC STC20191127165511511/27/19 16:55:31  5-MIN KSTC 272255Z 34011G20KT 10SM OVC027 M03/M08 A3022 760 68 -1100 340/11G20 RMK AO2 T10281078
14926KSTC STC20191127170011511/27/19 17:00:31  5-MIN KSTC 272300Z 35011G19KT 10SM OVC027 M03/M08 A3022 750 68 -1200 340/11G19 RMK AO2 T10281078
14926KSTC STC20191127170511511/27/19 17:05:31  5-MIN KSTC 272305Z 34011G19KT 10SM OVC027 M03/M08 A3022 750 68 -1200 340/11G19 RMK AO2 T10281078
14926KSTC STC20191127171010911/27/19 17:10:31  5-MIN KSTC 272310Z 34010KT 10SM OVC027 M03/M08 A3023 750 68 -1200 340/10 RMK AO2 T10281078
14926KSTC STC20191127171510911/27/19 17:15:31  5-MIN KSTC 272315Z 34009KT 10SM OVC027 M03/M08 A3023 750 68 -1200 340/09 RMK AO2 T10281078
14926KSTC STC20191127172010911/27/19 17:20:31  5-MIN KSTC 272320Z 35011KT 10SM OVC027 M03/M08 A3024 740 68 -1200 350/11 RMK AO2 T10281078
14926KSTC STC20191127172510911/27/19 17:25:31  5-MIN KSTC 272325Z 34010KT 10SM OVC027 M03/M08 A3024 740 68 -1200 340/10 RMK AO2 T10281078
14926KSTC STC20191127173010911/27/19 17:30:31  5-MIN KSTC 272330Z 34009KT 10SM OVC027 M03/M08 A3024 740 68 -1200 340/09 RMK AO2 T10281078
14926KSTC STC20191127173510911/27/19 17:35:31  5-MIN KSTC 272335Z 35010KT 10SM OVC027 M03/M08 A3024 740 68 -1200 340/10 RMK AO2 T10281078
14926KSTC STC20191127174011511/27/19 17:40:31  5-MIN KSTC 272340Z 35011G19KT 10SM OVC027 M03/M08 A3024 740 68 -1200 350/11G19 RMK AO2 T10281078
14926KSTC STC20191127174509911/27/19 17:45:31  5-MIN KSTC 272345Z 10SM OVC027 M03/M08 A3024 740 68 -1200 M /M RMK AO2 T10281078
14926KSTC STC20191127175013411/27/19 17:50:31  5-MIN KSTC 272350Z 35012KT 10SM OVC026 M03/M08 A3025 730 68 -1200 350/12 RMK AO2 SLP266 T10281078 11011 21028 51043
14926KSTC STC20191127175510911/27/19 17:55:31  5-MIN KSTC 272355Z 35011KT 10SM OVC026 M03/M08 A3024 740 68 -1200 350/11 RMK AO2 T10281078
14926KSTC STC20191127180011511/27/19 18:00:31  5-MIN KSTC 280000Z 35010G18KT 10SM OVC026 M03/M08 A3025 730 68 -1200 350/10G18 RMK AO2 T10281078
14926KSTC STC20191127180511511/27/19 18:05:31  5-MIN KSTC 280005Z 34009G17KT 10SM OVC026 M03/M08 A3025 730 68 -1200 340/09G17 RMK AO2 T10281078
14926KSTC STC20191127181010911/27/19 18:10:31  5-MIN KSTC 280010Z 34010KT 10SM OVC025 M03/M08 A3026 720 68 -1200 340/10 RMK AO2 T10281078
14926KSTC STC20191127181511611/27/19 18:15:31  5-MIN KSTC 280015Z 34009KT 10SM OVC025 M03/M08 A3027 710 68 -1200 340/09 RMK AO2 PRESRR T10281078
14926KSTC STC20191127182010911/27/19 18:20:31  5-MIN KSTC 280020Z 35009KT 10SM OVC024 M03/M08 A3027 710 71 -1300 350/09 RMK AO2 T10331078
14926KSTC STC20191127182510911/27/19 18:25:31  5-MIN KSTC 280025Z 35010KT 10SM OVC024 M03/M08 A3028 700 71 -1300 350/10 RMK AO2 T10331078
14926KSTC STC20191127183010911/27/19 18:30:31  5-MIN KSTC 280030Z 35008KT 10SM OVC024 M03/M08 A3028 700 71 -1300 350/08 RMK AO2 T10331078
14926KSTC STC20191127183511511/27/19 18:35:31  5-MIN KSTC 280035Z 36010G19KT 10SM OVC024 M03/M08 A3029 700 71 -1300 360/10G19 RMK AO2 T10331078
14926KSTC STC20191127184011511/27/19 18:40:31  5-MIN KSTC 280040Z 01010G19KT 10SM OVC024 M03/M08 A3029 700 71 -1300 360/10G19 RMK AO2 T10331078
14926KSTC STC20191127184510911/27/19 18:45:31  5-MIN KSTC 280045Z 01010KT 10SM OVC024 M03/M08 A3029 690 71 -1300 360/10 RMK AO2 T10331078
14926KSTC STC20191127185011611/27/19 18:50:31  5-MIN KSTC 280050Z 36010KT 10SM OVC024 M03/M08 A3030 690 71 -1300 360/10 RMK AO2 SLP283 T10331078
14926KSTC STC20191127185511511/27/19 18:55:31  5-MIN KSTC 280055Z 36009G16KT 10SM OVC023 M03/M08 A3030 690 71 -1300 360/09G16 RMK AO2 T10331078
14926KSTC STC20191127190010911/27/19 19:00:31  5-MIN KSTC 280100Z 36009KT 10SM OVC023 M03/M08 A3030 680 71 -1300 360/09 RMK AO2 T10331078
14926KSTC STC20191127190511511/27/19 19:05:31  5-MIN KSTC 280105Z 01012G17KT 10SM OVC022 M03/M08 A3030 680 71 -1300 010/12G17 RMK AO2 T10331078
14926KSTC STC20191127191010911/27/19 19:10:31  5-MIN KSTC 280110Z 36012KT 10SM OVC022 M03/M08 A3030 680 71 -1300 350/12 RMK AO2 T10331078
14926KSTC STC20191127191510911/27/19 19:15:31  5-MIN KSTC 280115Z 36010KT 10SM OVC022 M04/M08 A3030 680 74 -1400 360/10 RMK AO2 T10391078
14926KSTC STC20191127192011511/27/19 19:20:31  5-MIN KSTC 280120Z 35010G19KT 10SM OVC020 M04/M08 A3031 680 74 -1400 350/10G19 RMK AO2 T10391078
14926KSTC STC20191127192511511/27/19 19:25:31  5-MIN KSTC 280125Z 35009G19KT 10SM OVC020 M04/M08 A3031 680 74 -1400 350/09G19 RMK AO2 T10391078
14926KSTC STC20191127193010911/27/19 19:30:31  5-MIN KSTC 280130Z 35010KT 10SM OVC018 M04/M08 A3031 670 74 -1400 350/10 RMK AO2 T10391078
14926KSTC STC20191127193510911/27/19 19:35:31  5-MIN KSTC 280135Z 35008KT 10SM OVC018 M04/M08 A3031 670 74 -1400 350/08 RMK AO2 T10391078
14926KSTC STC20191127194010911/27/19 19:40:31  5-MIN KSTC 280140Z 35010KT 10SM OVC018 M04/M07 A3031 670 78 -1400 350/10 RMK AO2 T10391072
14926KSTC STC20191127194510911/27/19 19:45:31  5-MIN KSTC 280145Z 35007KT 10SM OVC018 M04/M07 A3032 670 78 -1400 350/07 RMK AO2 T10391072
14926KSTC STC20191127195011611/27/19 19:50:31  5-MIN KSTC 280150Z 35010KT 10SM OVC018 M04/M07 A3032 670 78 -1400 350/10 RMK AO2 SLP290 T10391072
14926KSTC STC20191127195510911/27/19 19:55:31  5-MIN KSTC 280155Z 36009KT 10SM OVC017 M04/M07 A3032 670 78 -1400 360/09 RMK AO2 T10391072
14926KSTC STC20191127200010911/27/19 20:00:31  5-MIN KSTC 280200Z 36008KT 10SM OVC017 M04/M07 A3032 670 78 -1400 360/08 RMK AO2 T10391072
14926KSTC STC20191127200510911/27/19 20:05:31  5-MIN KSTC 280205Z 01006KT 10SM OVC017 M04/M07 A3032 670 78 -1400 010/06 RMK AO2 T10391072
14926KSTC STC20191127201011511/27/19 20:10:31  5-MIN KSTC 280210Z 02009G16KT 10SM OVC017 M04/M08 A3032 660 74 -1400 020/09G16 RMK AO2 T10391078
14926KSTC STC20191127201510911/27/19 20:15:31  5-MIN KSTC 280215Z 36011KT 10SM OVC017 M04/M08 A3033 660 74 -1400 360/11 RMK AO2 T10391078
14926KSTC STC20191127202011511/27/19 20:20:31  5-MIN KSTC 280220Z 35011G16KT 10SM OVC017 M04/M08 A3033 650 78 -1500 350/11G16 RMK AO2 T10441078
14926KSTC STC20191127202511511/27/19 20:25:31  5-MIN KSTC 280225Z 01007G15KT 10SM OVC019 M04/M08 A3033 660 78 -1500 010/07G15 RMK AO2 T10441078
14926KSTC STC20191127203010911/27/19 20:30:31  5-MIN KSTC 280230Z 02006KT 10SM OVC019 M04/M08 A3033 660 78 -1500 020/06 RMK AO2 T10441078
14926KSTC STC20191127203510911/27/19 20:35:31  5-MIN KSTC 280235Z 02008KT 10SM OVC019 M04/M08 A3033 660 78 -1500 020/08 RMK AO2 T10441078
14926KSTC STC20191127204010911/27/19 20:40:31  5-MIN KSTC 280240Z 02007KT 10SM OVC019 M04/M08 A3033 650 74 -1500 020/07 RMK AO2 T10441083
14926KSTC STC20191127204510911/27/19 20:45:31  5-MIN KSTC 280245Z 36008KT 10SM OVC019 M04/M08 A3034 650 74 -1500 360/08 RMK AO2 T10441083
14926KSTC STC20191127205012211/27/19 20:50:31  5-MIN KSTC 280250Z 35008KT 10SM OVC019 M04/M08 A3035 640 74 -1500 350/08 RMK AO2 SLP301 T10441083 51042
14926KSTC STC20191127205511611/27/19 20:55:31  5-MIN KSTC 280255Z 35007KT 10SM OVC019 M04/M08 A3035 640 74 -1500 350/07 RMK AO2 PRESRR T10441083
14926KSTC STC20191127210011611/27/19 21:00:31  5-MIN KSTC 280300Z 35006KT 10SM OVC019 M04/M08 A3036 630 74 -1500 350/06 RMK AO2 PRESRR T10441083
14926KSTC STC20191127210510911/27/19 21:05:31  5-MIN KSTC 280305Z 34006KT 10SM OVC020 M04/M08 A3036 630 74 -1500 340/06 RMK AO2 T10441083
14926KSTC STC20191127211010911/27/19 21:10:31  5-MIN KSTC 280310Z 34006KT 10SM OVC020 M04/M08 A3036 630 74 -1500 340/06 RMK AO2 T10441083
14926KSTC STC20191127211510911/27/19 21:15:31  5-MIN KSTC 280315Z 36008KT 10SM OVC020 M04/M08 A3036 630 74 -1500 360/08 RMK AO2 T10441083
14926KSTC STC20191127212010911/27/19 21:20:31  5-MIN KSTC 280320Z 36006KT 10SM OVC020 M04/M08 A3036 630 74 -1500 360/06 RMK AO2 T10441083
14926KSTC STC20191127212510911/27/19 21:25:31  5-MIN KSTC 280325Z 34005KT 10SM OVC022 M04/M08 A3037 620 74 -1500 340/05 RMK AO2 T10441083
14926KSTC STC20191127213010911/27/19 21:30:31  5-MIN KSTC 280330Z 34007KT 10SM OVC022 M04/M08 A3037 620 74 -1500 340/07 RMK AO2 T10441083
14926KSTC STC20191127213510911/27/19 21:35:31  5-MIN KSTC 280335Z 35005KT 10SM OVC022 M04/M08 A3037 620 74 -1500 350/05 RMK AO2 T10441083
14926KSTC STC20191127214009911/27/19 21:40:31  5-MIN KSTC 280340Z 10SM OVC022 M04/M08 A3038 610 74 -1500 M /M RMK AO2 T10441083
14926KSTC STC20191127214509911/27/19 21:45:31  5-MIN KSTC 280345Z 10SM OVC022 M04/M08 A3038 610 74 -1500 M /M RMK AO2 T10441083
14926KSTC STC20191127215010611/27/19 21:50:31  5-MIN KSTC 280350Z 10SM OVC022 M04/M08 A3038 610 74 -1500 M /M RMK AO2 SLP310 T10441083
14926KSTC STC20191127215510911/27/19 21:55:31  5-MIN KSTC 280355Z 35007KT 10SM OVC022 M04/M08 A3039 610 74 -1600 350/07 RMK AO2 T10441083
14926KSTC STC20191127220010911/27/19 22:00:31  5-MIN KSTC 280400Z 35008KT 10SM OVC022 M04/M08 A3039 610 74 -1600 350/08 RMK AO2 T10441083
14926KSTC STC20191127220510911/27/19 22:05:31  5-MIN KSTC 280405Z 35006KT 10SM OVC022 M04/M08 A3039 600 74 -1600 350/06 RMK AO2 T10441083
14926KSTC STC20191127221010911/27/19 22:10:31  5-MIN KSTC 280410Z 35005KT 10SM OVC022 M04/M08 A3039 600 74 -1600 350/05 RMK AO2 T10441083
14926KSTC STC20191127221510911/27/19 22:15:31  5-MIN KSTC 280415Z 35006KT 10SM OVC022 M04/M08 A3039 600 74 -1600 350/06 RMK AO2 T10441083
14926KSTC STC20191127222010911/27/19 22:20:31  5-MIN KSTC 280420Z 34004KT 10SM OVC022 M04/M08 A3040 590 74 -1600 340/04 RMK AO2 T10441083
14926KSTC STC20191127222510911/27/19 22:25:31  5-MIN KSTC 280425Z 33005KT 10SM OVC022 M04/M08 A3041 590 74 -1600 320/05 RMK AO2 T10441083
14926KSTC STC20191127223011611/27/19 22:30:31  5-MIN KSTC 280430Z 31005KT 10SM OVC023 M04/M08 A3042 580 74 -1600 310/05 RMK AO2 PRESRR T10441083
14926KSTC STC20191127223511611/27/19 22:35:31  5-MIN KSTC 280435Z 31006KT 10SM OVC023 M04/M08 A3042 570 74 -1600 310/06 RMK AO2 PRESRR T10441083
14926KSTC STC20191127224010911/27/19 22:40:31  5-MIN KSTC 280440Z 33006KT 10SM OVC023 M04/M08 A3043 570 74 -1600 330/06 RMK AO2 T10441083
14926KSTC STC20191127224511611/27/19 22:45:31  5-MIN KSTC 280445Z 31004KT 10SM OVC023 M04/M08 A3044 560 74 -1600 310/04 RMK AO2 PRESRR T10441083
14926KSTC STC20191127225011611/27/19 22:50:31  5-MIN KSTC 280450Z 33006KT 10SM OVC023 M04/M08 A3044 560 74 -1600 330/06 RMK AO2 SLP332 T10441083
14926KSTC STC20191127225510911/27/19 22:55:31  5-MIN KSTC 280455Z 34005KT 10SM OVC023 M04/M09 A3044 550 71 -1600 340/05 RMK AO2 T10441089
14926KSTC STC20191127230011411/27/19 23:00:31  5-MIN KSTC 280500Z AUTO 34008KT 10SM OVC022 M04/M09 A3045 550 71 -1600 340/08 RMK AO2 T10441089
14926KSTC STC20191127230511411/27/19 23:05:31  5-MIN KSTC 280505Z AUTO 34005KT 10SM OVC022 M04/M09 A3045 550 71 -1600 340/05 RMK AO2 T10441089
14926KSTC STC20191127231011411/27/19 23:10:31  5-MIN KSTC 280510Z AUTO 34005KT 10SM OVC022 M04/M09 A3045 550 71 -1600 340/05 RMK AO2 T10441089
14926KSTC STC20191127231511411/27/19 23:15:31  5-MIN KSTC 280515Z AUTO 34006KT 10SM OVC022 M04/M09 A3044 550 71 -1600 340/06 RMK AO2 T10441089
14926KSTC STC20191127232011411/27/19 23:20:31  5-MIN KSTC 280520Z AUTO 33005KT 10SM OVC022 M04/M09 A3045 550 71 -1600 320/05 RMK AO2 T10441089
14926KSTC STC20191127232511411/27/19 23:25:31  5-MIN KSTC 280525Z AUTO 35004KT 10SM OVC022 M04/M09 A3045 550 71 -1600 350/04 RMK AO2 T10441089
14926KSTC STC20191127233011411/27/19 23:30:31  5-MIN KSTC 280530Z AUTO 35007KT 10SM OVC022 M04/M09 A3045 550 71 -1600 350/07 RMK AO2 T10441089
14926KSTC STC20191127233511411/27/19 23:35:31  5-MIN KSTC 280535Z AUTO 34006KT 10SM OVC021 M04/M08 A3045 550 74 -1600 340/06 RMK AO2 T10441083
14926KSTC STC20191127234011411/27/19 23:40:31  5-MIN KSTC 280540Z AUTO 35006KT 10SM OVC021 M04/M08 A3045 550 74 -1600 350/06 RMK AO2 T10441083
14926KSTC STC20191127234511411/27/19 23:45:31  5-MIN KSTC 280545Z AUTO 36006KT 10SM OVC021 M04/M08 A3044 550 74 -1600 360/06 RMK AO2 T10441083
14926KSTC STC20191127235014911/27/19 23:50:31  5-MIN KSTC 280550Z AUTO 36006KT 10SM OVC020 M04/M08 A3044 550 74 -1600 360/06 RMK AO2 SLP333 T10441083 11028 21044 410111044 51035
14926KSTC STC20191127235511411/27/19 23:55:31  5-MIN KSTC 280555Z AUTO 36004KT 10SM OVC020 M04/M08 A3045 550 74 -1600 360/04 RMK AO2 T10441083
14926KSTC STC20191128000011411/28/19 00:00:31  5-MIN KSTC 280600Z AUTO 35005KT 10SM OVC020 M04/M08 A3044 550 74 -1600 350/05 RMK AO2 T10441083
14926KSTC STC20191128000511411/28/19 00:05:31  5-MIN KSTC 280605Z AUTO 01006KT 10SM OVC020 M04/M08 A3044 550 74 -1600 010/06 RMK AO2 T10441083
14926KSTC STC20191128001011411/28/19 00:10:31  5-MIN KSTC 280610Z AUTO 36005KT 10SM OVC020 M04/M08 A3044 550 74 -1600 360/05 RMK AO2 T10441083
14926KSTC STC20191128001511411/28/19 00:15:31  5-MIN KSTC 280615Z AUTO 36006KT 10SM OVC020 M04/M08 A3044 550 74 -1600 350/06 RMK AO2 T10441083
14926KSTC STC20191128002011411/28/19 00:20:31  5-MIN KSTC 280620Z AUTO 35007KT 10SM OVC020 M04/M08 A3045 550 74 -1600 350/07 RMK AO2 T10441083
14926KSTC STC20191128002511411/28/19 00:25:31  5-MIN KSTC 280625Z AUTO 36004KT 10SM OVC020 M04/M08 A3045 540 74 -1600 360/04 RMK AO2 T10441083
14926KSTC STC20191128003011411/28/19 00:30:31  5-MIN KSTC 280630Z AUTO 33004KT 10SM OVC020 M04/M08 A3046 540 74 -1600 330/04 RMK AO2 T10441083
14926KSTC STC20191128003511411/28/19 00:35:31  5-MIN KSTC 280635Z AUTO 32005KT 10SM OVC020 M04/M08 A3046 530 74 -1600 320/05 RMK AO2 T10441083
14926KSTC STC20191128004011411/28/19 00:40:31  5-MIN KSTC 280640Z AUTO 33005KT 10SM OVC020 M04/M08 A3047 530 74 -1600 330/05 RMK AO2 T10441083
14926KSTC STC20191128004511411/28/19 00:45:31  5-MIN KSTC 280645Z AUTO 34004KT 10SM OVC020 M04/M08 A3048 520 74 -1700 340/04 RMK AO2 T10441083
14926KSTC STC20191128005012111/28/19 00:50:31  5-MIN KSTC 280650Z AUTO 32005KT 10SM OVC020 M04/M08 A3048 520 74 -1700 320/05 RMK AO2 SLP346 T10441083
14926KSTC STC20191128005511411/28/19 00:55:31  5-MIN KSTC 280655Z AUTO 32004KT 10SM OVC020 M04/M08 A3048 520 74 -1700 320/04 RMK AO2 T10441083
14926KSTC STC20191128010011411/28/19 01:00:31  5-MIN KSTC 280700Z AUTO 33005KT 10SM OVC020 M04/M08 A3048 520 74 -1700 330/05 RMK AO2 T10441083
14926KSTC STC20191128010511411/28/19 01:05:31  5-MIN KSTC 280705Z AUTO 34004KT 10SM OVC020 M04/M09 A3048 520 71 -1700 340/04 RMK AO2 T10441089
14926KSTC STC20191128011011411/28/19 01:10:31  5-MIN KSTC 280710Z AUTO 34005KT 10SM OVC020 M04/M09 A3048 520 71 -1700 340/05 RMK AO2 T10441089
14926KSTC STC20191128011511411/28/19 01:15:31  5-MIN KSTC 280715Z AUTO 32005KT 10SM OVC020 M04/M08 A3049 510 74 -1700 320/05 RMK AO2 T10441083
14926KSTC STC20191128012011411/28/19 01:20:31  5-MIN KSTC 280720Z AUTO 34006KT 10SM OVC020 M04/M08 A3048 520 74 -1700 340/06 RMK AO2 T10441083
14926KSTC STC20191128012511411/28/19 01:25:31  5-MIN KSTC 280725Z AUTO 33004KT 10SM OVC018 M05/M08 A3049 510 77 -1700 330/04 RMK AO2 T10501083
14926KSTC STC20191128013011411/28/19 01:30:31  5-MIN KSTC 280730Z AUTO 33005KT 10SM OVC018 M05/M08 A3049 510 77 -1700 330/05 RMK AO2 T10501083
14926KSTC STC20191128013511411/28/19 01:35:31  5-MIN KSTC 280735Z AUTO 34006KT 10SM OVC018 M05/M08 A3049 510 77 -1700 340/06 RMK AO2 T10501083
14926KSTC STC20191128014011411/28/19 01:40:31  5-MIN KSTC 280740Z AUTO 01006KT 10SM OVC018 M05/M08 A3049 510 77 -1700 010/06 RMK AO2 T10501083
14926KSTC STC20191128014511411/28/19 01:45:31  5-MIN KSTC 280745Z AUTO 01006KT 10SM OVC018 M05/M08 A3048 520 77 -1700 010/06 RMK AO2 T10501083
14926KSTC STC20191128015012111/28/19 01:50:31  5-MIN KSTC 280750Z AUTO 01007KT 10SM OVC018 M05/M09 A3049 510 74 -1700 010/07 RMK AO2 SLP349 T10501089
14926KSTC STC20191128015511411/28/19 01:55:31  5-MIN KSTC 280755Z AUTO 01007KT 10SM OVC018 M05/M09 A3048 520 74 -1700 010/07 RMK AO2 T10501089
14926KSTC STC20191128020011411/28/19 02:00:31  5-MIN KSTC 280800Z AUTO 02005KT 10SM OVC018 M05/M08 A3048 520 77 -1700 020/05 RMK AO2 T10501083
14926KSTC STC20191128020511411/28/19 02:05:31  5-MIN KSTC 280805Z AUTO 36006KT 10SM OVC018 M05/M08 A3049 510 77 -1700 360/06 RMK AO2 T10501083
14926KSTC STC20191128021011411/28/19 02:10:31  5-MIN KSTC 280810Z AUTO 02005KT 10SM OVC018 M05/M08 A3049 510 77 -1700 020/05 RMK AO2 T10501083
14926KSTC STC20191128021511411/28/19 02:15:31  5-MIN KSTC 280815Z AUTO 01007KT 10SM OVC018 M05/M08 A3048 520 77 -1700 010/07 RMK AO2 T10501083
14926KSTC STC20191128022011411/28/19 02:20:31  5-MIN KSTC 280820Z AUTO 02007KT 10SM OVC018 M05/M08 A3049 510 77 -1700 020/07 RMK AO2 T10501083
14926KSTC STC20191128022511411/28/19 02:25:31  5-MIN KSTC 280825Z AUTO 03005KT 10SM OVC018 M05/M08 A3049 510 77 -1700 030/05 RMK AO2 T10501083
14926KSTC STC20191128023011411/28/19 02:30:31  5-MIN KSTC 280830Z AUTO 03007KT 10SM OVC017 M05/M08 A3048 520 77 -1700 030/07 RMK AO2 T10501083
14926KSTC STC20191128023511411/28/19 02:35:31  5-MIN KSTC 280835Z AUTO 03006KT 10SM OVC017 M05/M08 A3048 520 77 -1700 030/06 RMK AO2 T10501083
14926KSTC STC20191128024011411/28/19 02:40:31  5-MIN KSTC 280840Z AUTO 04007KT 10SM OVC017 M05/M08 A3048 520 77 -1700 040/07 RMK AO2 T10501083
14926KSTC STC20191128024511411/28/19 02:45:31  5-MIN KSTC 280845Z AUTO 03004KT 10SM OVC017 M05/M08 A3048 520 77 -1700 030/04 RMK AO2 T10501083
14926KSTC STC20191128025012711/28/19 02:50:31  5-MIN KSTC 280850Z AUTO 04008KT 10SM OVC017 M05/M08 A3048 520 77 -1700 040/08 RMK AO2 SLP346 T10501083 51031
14926KSTC STC20191128025511411/28/19 02:55:31  5-MIN KSTC 280855Z AUTO 03008KT 10SM OVC017 M05/M08 A3048 520 77 -1700 030/08 RMK AO2 T10501083
14926KSTC STC20191128030011411/28/19 03:00:31  5-MIN KSTC 280900Z AUTO 04006KT 10SM OVC016 M05/M08 A3048 520 77 -1700 040/06 RMK AO2 T10501083
14926KSTC STC20191128030511411/28/19 03:05:31  5-MIN KSTC 280905Z AUTO 02006KT 10SM OVC016 M05/M09 A3049 510 74 -1700 020/06 RMK AO2 T10501089
14926KSTC STC20191128031011411/28/19 03:10:31  5-MIN KSTC 280910Z AUTO 03006KT 10SM OVC016 M05/M09 A3049 510 74 -1700 030/06 RMK AO2 T10501089
14926KSTC STC20191128031511411/28/19 03:15:31  5-MIN KSTC 280915Z AUTO 06005KT 10SM OVC016 M05/M08 A3049 510 77 -1700 060/05 RMK AO2 T10501083
14926KSTC STC20191128032011411/28/19 03:20:31  5-MIN KSTC 280920Z AUTO 02007KT 10SM OVC016 M05/M08 A3049 510 77 -1700 020/07 RMK AO2 T10501083
14926KSTC STC20191128032511411/28/19 03:25:31  5-MIN KSTC 280925Z AUTO 03006KT 10SM OVC016 M05/M09 A3049 510 74 -1700 030/06 RMK AO2 T10501089
14926KSTC STC20191128033011411/28/19 03:30:31  5-MIN KSTC 280930Z AUTO 03006KT 10SM OVC016 M05/M09 A3050 510 74 -1800 030/06 RMK AO2 T10501089
14926KSTC STC20191128033511411/28/19 03:35:31  5-MIN KSTC 280935Z AUTO 03005KT 10SM OVC016 M05/M09 A3050 500 74 -1800 030/05 RMK AO2 T10501089
14926KSTC STC20191128034011411/28/19 03:40:31  5-MIN KSTC 280940Z AUTO 04006KT 10SM OVC016 M05/M09 A3050 500 74 -1800 040/06 RMK AO2 T10501089
14926KSTC STC20191128034511411/28/19 03:45:31  5-MIN KSTC 280945Z AUTO 02005KT 10SM OVC016 M05/M09 A3050 500 74 -1800 020/05 RMK AO2 T10501089
14926KSTC STC20191128035012111/28/19 03:50:31  5-MIN KSTC 280950Z AUTO 02005KT 10SM OVC016 M05/M09 A3050 500 74 -1800 020/05 RMK AO2 SLP355 T10501089
14926KSTC STC20191128035511411/28/19 03:55:31  5-MIN KSTC 280955Z AUTO 03004KT 10SM OVC016 M05/M09 A3050 500 74 -1800 030/04 RMK AO2 T10501089
14926KSTC STC20191128040011411/28/19 04:00:31  5-MIN KSTC 281000Z AUTO 03003KT 10SM OVC016 M05/M09 A3050 500 74 -1800 030/03 RMK AO2 T10501089
14926KSTC STC20191128040511411/28/19 04:05:31  5-MIN KSTC 281005Z AUTO 03004KT 10SM OVC016 M05/M09 A3050 510 74 -1800 030/04 RMK AO2 T10501089
14926KSTC STC20191128041011411/28/19 04:10:31  5-MIN KSTC 281010Z AUTO 04003KT 10SM OVC016 M05/M08 A3049 510 77 -1800 030/03 RMK AO2 T10501083
14926KSTC STC20191128041511411/28/19 04:15:31  5-MIN KSTC 281015Z AUTO VRB04KT 10SM OVC016 M05/M08 A3050 500 77 -1800 VRB/04 RMK AO2 T10501083
14926KSTC STC20191128042011411/28/19 04:20:31  5-MIN KSTC 281020Z AUTO VRB05KT 10SM OVC016 M05/M09 A3050 500 74 -1800 VRB/05 RMK AO2 T10501089
14926KSTC STC20191128042511411/28/19 04:25:31  5-MIN KSTC 281025Z AUTO 05006KT 10SM OVC016 M05/M08 A3050 500 77 -1800 050/06 RMK AO2 T10501083
14926KSTC STC20191128043011411/28/19 04:30:31  5-MIN KSTC 281030Z AUTO VRB03KT 10SM OVC016 M05/M08 A3050 500 77 -1800 VRB/03 RMK AO2 T10501083
14926KSTC STC20191128043511411/28/19 04:35:31  5-MIN KSTC 281035Z AUTO 07005KT 10SM OVC016 M05/M08 A3050 500 77 -1800 070/05 RMK AO2 T10501083
14926KSTC STC20191128044011411/28/19 04:40:31  5-MIN KSTC 281040Z AUTO 05004KT 10SM OVC016 M05/M08 A3051 490 77 -1800 050/04 RMK AO2 T10501083
14926KSTC STC20191128044511411/28/19 04:45:31  5-MIN KSTC 281045Z AUTO 09003KT 10SM OVC016 M05/M08 A3051 490 77 -1800 080/03 RMK AO2 T10501083
14926KSTC STC20191128045012111/28/19 04:50:31  5-MIN KSTC 281050Z AUTO 00000KT 10SM OVC016 M05/M08 A3051 490 77 -1800 000/00 RMK AO2 SLP358 T10501083
14926KSTC STC20191128045511411/28/19 04:55:31  5-MIN KSTC 281055Z AUTO 00000KT 10SM OVC016 M05/M08 A3051 490 77 -1800 000/00 RMK AO2 T10501083
14926KSTC STC20191128050011411/28/19 05:00:31  5-MIN KSTC 281100Z AUTO 04004KT 10SM OVC015 M05/M08 A3051 490 77 -1800 040/04 RMK AO2 T10501083
14926KSTC STC20191128050511411/28/19 05:05:31  5-MIN KSTC 281105Z AUTO 03003KT 10SM OVC015 M05/M08 A3052 490 77 -1800 030/03 RMK AO2 T10501083
14926KSTC STC20191128051011411/28/19 05:10:31  5-MIN KSTC 281110Z AUTO 02003KT 10SM OVC015 M05/M08 A3052 480 77 -1800 020/03 RMK AO2 T10501083
14926KSTC STC20191128051511411/28/19 05:15:31  5-MIN KSTC 281115Z AUTO 03003KT 10SM OVC015 M05/M08 A3052 480 77 -1800 030/03 RMK AO2 T10501083
14926KSTC STC20191128052011411/28/19 05:20:31  5-MIN KSTC 281120Z AUTO 05003KT 10SM OVC015 M05/M08 A3053 480 77 -1800 040/03 RMK AO2 T10501083
14926KSTC STC20191128052511411/28/19 05:25:31  5-MIN KSTC 281125Z AUTO VRB04KT 10SM OVC015 M05/M08 A3052 480 77 -1800 VRB/04 RMK AO2 T10501083
14926KSTC STC20191128053011411/28/19 05:30:31  5-MIN KSTC 281130Z AUTO 08003KT 10SM OVC015 M05/M08 A3053 480 77 -1800 080/03 RMK AO2 T10501083
14926KSTC STC20191128053511411/28/19 05:35:31  5-MIN KSTC 281135Z AUTO 10003KT 10SM OVC015 M05/M08 A3052 480 77 -1800 090/03 RMK AO2 T10501083
14926KSTC STC20191128054011411/28/19 05:40:31  5-MIN KSTC 281140Z AUTO 09004KT 10SM OVC015 M05/M08 A3052 480 77 -1800 090/04 RMK AO2 T10501083
14926KSTC STC20191128054511411/28/19 05:45:31  5-MIN KSTC 281145Z AUTO 08005KT 10SM OVC015 M05/M08 A3052 480 77 -1800 080/05 RMK AO2 T10501083
14926KSTC STC20191128055014511/28/19 05:50:31  5-MIN KSTC 281150Z AUTO 09003KT 10SM OVC015 M05/M08 A3052 480 77 -1800 090/03 RMK AO2 SLP362 70001 T10501083 11044 21050 50010
14926KSTC STC20191128055511411/28/19 05:55:31  5-MIN KSTC 281155Z AUTO 08003KT 10SM OVC015 M05/M08 A3052 480 77 -1800 080/03 RMK AO2 T10501083
14926KSTC STC20191128060011411/28/19 06:00:31  5-MIN KSTC 281200Z AUTO 07004KT 10SM OVC015 M05/M08 A3053 480 77 -1800 070/04 RMK AO2 T10501083
14926KSTC STC20191128060511411/28/19 06:05:31  5-MIN KSTC 281205Z AUTO 08003KT 10SM OVC014 M05/M08 A3053 470 77 -1800 080/03 RMK AO2 T10501083
14926KSTC STC20191128061011411/28/19 06:10:31  5-MIN KSTC 281210Z AUTO 11006KT 10SM OVC014 M05/M08 A3053 470 77 -1800 110/06 RMK AO2 T10501083
14926KSTC STC20191128061511411/28/19 06:15:31  5-MIN KSTC 281215Z AUTO 11006KT 10SM OVC014 M06/M08 A3053 470 81 -1900 100/06 RMK AO2 T10561083
14926KSTC STC20191128062011411/28/19 06:20:31  5-MIN KSTC 281220Z AUTO 08005KT 10SM OVC014 M05/M08 A3054 470 77 -1800 080/05 RMK AO2 T10501083
14926KSTC STC20191128062510911/28/19 06:25:31  5-MIN KSTC 281225Z 11003KT 10SM OVC014 M06/M08 A3053 470 81 -1900 110/03 RMK AO2 T10561083
14926KSTC STC20191128063010911/28/19 06:30:31  5-MIN KSTC 281230Z 12003KT 10SM OVC014 M06/M08 A3054 470 81 -1900 110/03 RMK AO2 T10561083
14926KSTC STC20191128063510911/28/19 06:35:31  5-MIN KSTC 281235Z 11004KT 10SM OVC014 M06/M08 A3054 470 81 -1900 110/04 RMK AO2 T10561083
14926KSTC STC20191128064010911/28/19 06:40:31  5-MIN KSTC 281240Z 09004KT 10SM OVC014 M06/M08 A3054 470 81 -1900 090/04 RMK AO2 T10561083
14926KSTC STC20191128064510911/28/19 06:45:31  5-MIN KSTC 281245Z 08004KT 10SM OVC014 M06/M08 A3054 470 81 -1900 080/04 RMK AO2 T10561083
14926KSTC STC20191128065011611/28/19 06:50:31  5-MIN KSTC 281250Z 13004KT 10SM OVC014 M06/M08 A3054 460 81 -1900 130/04 RMK AO2 SLP369 T10561083
14926KSTC STC20191128065510911/28/19 06:55:31  5-MIN KSTC 281255Z 11005KT 10SM OVC014 M06/M08 A3054 460 81 -1900 110/05 RMK AO2 T10561083
14926KSTC STC20191128070010911/28/19 07:00:31  5-MIN KSTC 281300Z VRB04KT 10SM OVC014 M06/M08 A3054 460 81 -1900 VRB/04 RMK AO2 T10561083
14926KSTC STC20191128070510911/28/19 07:05:31  5-MIN KSTC 281305Z 09003KT 10SM OVC014 M06/M08 A3054 470 81 -1900 090/03 RMK AO2 T10561083
14926KSTC STC20191128071010911/28/19 07:10:31  5-MIN KSTC 281310Z 11003KT 10SM OVC014 M06/M08 A3054 460 81 -1900 110/03 RMK AO2 T10561083
14926KSTC STC20191128071510911/28/19 07:15:31  5-MIN KSTC 281315Z 11005KT 10SM OVC014 M06/M08 A3054 470 81 -1900 110/05 RMK AO2 T10561083
14926KSTC STC20191128072010911/28/19 07:20:31  5-MIN KSTC 281320Z 11006KT 10SM OVC014 M06/M08 A3054 470 81 -1900 110/06 RMK AO2 T10561083
14926KSTC STC20191128072510911/28/19 07:25:31  5-MIN KSTC 281325Z 11005KT 10SM OVC013 M06/M09 A3054 460 77 -1900 100/05 RMK AO2 T10561089
14926KSTC STC20191128073010911/28/19 07:30:31  5-MIN KSTC 281330Z 15005KT 10SM OVC013 M06/M09 A3055 460 81 -2000 150/05 RMK AO2 T10611089
14926KSTC STC20191128073510911/28/19 07:35:31  5-MIN KSTC 281335Z 15004KT 10SM OVC013 M06/M08 A3055 460 84 -2000 150/04 RMK AO2 T10611083
14926KSTC STC20191128074010911/28/19 07:40:31  5-MIN KSTC 281340Z 00000KT 10SM OVC013 M06/M08 A3055 460 84 -2000 000/00 RMK AO2 T10611083
14926KSTC STC20191128074510911/28/19 07:45:31  5-MIN KSTC 281345Z 00000KT 10SM OVC013 M06/M08 A3054 460 81 -1900 000/00 RMK AO2 T10561083
14926KSTC STC20191128075011611/28/19 07:50:31  5-MIN KSTC 281350Z 11003KT 10SM OVC013 M06/M08 A3054 460 84 -2000 110/03 RMK AO2 SLP370 T10611083
14926KSTC STC20191128075510911/28/19 07:55:31  5-MIN KSTC 281355Z 00000KT 10SM OVC013 M06/M08 A3055 460 84 -2000 000/00 RMK AO2 T10611083
14926KSTC STC20191128080010911/28/19 08:00:31  5-MIN KSTC 281400Z 00000KT 10SM OVC013 M06/M08 A3054 460 81 -1900 000/00 RMK AO2 T10561083
14926KSTC STC20191128080510911/28/19 08:05:31  5-MIN KSTC 281405Z 00000KT 10SM OVC013 M06/M08 A3054 460 84 -1900 000/00 RMK AO2 T10611083
14926KSTC STC20191128081010911/28/19 08:10:31  5-MIN KSTC 281410Z 00000KT 10SM OVC013 M06/M08 A3054 460 81 -1900 000/00 RMK AO2 T10561083
14926KSTC STC20191128081510911/28/19 08:15:31  5-MIN KSTC 281415Z 00000KT 10SM OVC013 M06/M08 A3055 460 81 -1900 000/00 RMK AO2 T10561083
14926KSTC STC20191128082010911/28/19 08:20:31  5-MIN KSTC 281420Z 00000KT 10SM OVC013 M06/M08 A3055 460 81 -1900 000/00 RMK AO2 T10561083
14926KSTC STC20191128082510911/28/19 08:25:31  5-MIN KSTC 281425Z 00000KT 10SM OVC013 M06/M08 A3055 460 81 -1900 000/00 RMK AO2 T10561083
14926KSTC STC20191128083010911/28/19 08:30:31  5-MIN KSTC 281430Z 00000KT 10SM OVC013 M06/M08 A3055 460 81 -1900 000/00 RMK AO2 T10561083
14926KSTC STC20191128083510911/28/19 08:35:31  5-MIN KSTC 281435Z 00000KT 10SM OVC013 M06/M08 A3055 460 81 -1900 000/00 RMK AO2 T10561083
14926KSTC STC20191128084010911/28/19 08:40:31  5-MIN KSTC 281440Z 12003KT 10SM OVC013 M06/M08 A3055 460 81 -1900 120/03 RMK AO2 T10561083
14926KSTC STC20191128084510911/28/19 08:45:31  5-MIN KSTC 281445Z 00000KT 10SM OVC013 M06/M08 A3055 460 81 -1900 000/00 RMK AO2 T10561083
14926KSTC STC20191128085012211/28/19 08:50:31  5-MIN KSTC 281450Z 00000KT 10SM OVC012 M06/M08 A3055 460 81 -1900 000/00 RMK AO2 SLP372 T10561083 51016
14926KSTC STC20191128085510911/28/19 08:55:31  5-MIN KSTC 281455Z 14003KT 10SM OVC012 M06/M08 A3055 460 81 -1900 130/03 RMK AO2 T10561083
14926KSTC STC20191128090010911/28/19 09:00:31  5-MIN KSTC 281500Z 00000KT 10SM OVC012 M06/M08 A3055 460 81 -1900 000/00 RMK AO2 T10561083
14926KSTC STC20191128090510911/28/19 09:05:31  5-MIN KSTC 281505Z 00000KT 10SM OVC012 M06/M08 A3055 460 81 -1900 000/00 RMK AO2 T10561083
14926KSTC STC20191128091010911/28/19 09:10:31  5-MIN KSTC 281510Z 00000KT 10SM OVC012 M06/M08 A3055 460 81 -1900 000/00 RMK AO2 T10561083
14926KSTC STC20191128091510911/28/19 09:15:31  5-MIN KSTC 281515Z 07003KT 10SM OVC012 M06/M08 A3055 460 81 -1900 060/03 RMK AO2 T10561083
14926KSTC STC20191128092010911/28/19 09:20:31  5-MIN KSTC 281520Z 10003KT 10SM OVC013 M06/M08 A3055 460 81 -1900 100/03 RMK AO2 T10561083
14926KSTC STC20191128092510911/28/19 09:25:31  5-MIN KSTC 281525Z 09003KT 10SM OVC013 M06/M08 A3055 450 81 -1900 090/03 RMK AO2 T10561083
14926KSTC STC20191128093010911/28/19 09:30:31  5-MIN KSTC 281530Z 08004KT 10SM OVC013 M06/M08 A3055 450 81 -1900 080/04 RMK AO2 T10561083
14926KSTC STC20191128093510911/28/19 09:35:31  5-MIN KSTC 281535Z 08004KT 10SM OVC013 M06/M08 A3055 450 81 -1900 080/04 RMK AO2 T10561083
14926KSTC STC20191128094010911/28/19 09:40:31  5-MIN KSTC 281540Z 09005KT 10SM OVC013 M06/M08 A3055 450 81 -1900 080/05 RMK AO2 T10561083
14926KSTC STC20191128094510911/28/19 09:45:31  5-MIN KSTC 281545Z 07004KT 10SM OVC013 M06/M08 A3055 450 81 -1900 070/04 RMK AO2 T10561083
14926KSTC STC20191128095011611/28/19 09:50:31  5-MIN KSTC 281550Z 07004KT 10SM OVC013 M06/M08 A3055 450 81 -1900 070/04 RMK AO2 SLP373 T10561083
14926KSTC STC20191128095510911/28/19 09:55:31  5-MIN KSTC 281555Z 09004KT 10SM OVC013 M06/M08 A3055 460 81 -1900 090/04 RMK AO2 T10561083
14926KSTC STC20191128100010911/28/19 10:00:31  5-MIN KSTC 281600Z 06005KT 10SM OVC013 M06/M08 A3055 460 81 -1900 060/05 RMK AO2 T10561083
14926KSTC STC20191128100510911/28/19 10:05:31  5-MIN KSTC 281605Z 05005KT 10SM OVC013 M05/M08 A3054 460 77 -1800 050/05 RMK AO2 T10501083
14926KSTC STC20191128101010911/28/19 10:10:31  5-MIN KSTC 281610Z 06006KT 10SM OVC012 M05/M08 A3054 460 77 -1800 060/06 RMK AO2 T10501083
14926KSTC STC20191128101510911/28/19 10:15:31  5-MIN KSTC 281615Z 08006KT 10SM OVC012 M06/M08 A3054 470 81 -1900 080/06 RMK AO2 T10561083
14926KSTC STC20191128102010911/28/19 10:20:31  5-MIN KSTC 281620Z 08007KT 10SM OVC012 M05/M08 A3053 470 77 -1800 080/07 RMK AO2 T10501083
14926KSTC STC20191128102510911/28/19 10:25:31  5-MIN KSTC 281625Z 10005KT 10SM OVC012 M06/M08 A3054 470 81 -1900 100/05 RMK AO2 T10561083
14926KSTC STC20191128103010911/28/19 10:30:31  5-MIN KSTC 281630Z 08006KT 10SM OVC012 M05/M08 A3054 470 77 -1800 080/06 RMK AO2 T10501083
14926KSTC STC20191128103510911/28/19 10:35:31  5-MIN KSTC 281635Z VRB04KT 10SM OVC013 M05/M08 A3054 470 77 -1800 VRB/04 RMK AO2 T10501083
14926KSTC STC20191128104010911/28/19 10:40:31  5-MIN KSTC 281640Z 11005KT 10SM OVC013 M05/M08 A3054 470 77 -1800 100/05 RMK AO2 T10501083
14926KSTC STC20191128104510911/28/19 10:45:31  5-MIN KSTC 281645Z 10004KT 10SM OVC013 M05/M08 A3053 470 77 -1800 090/04 RMK AO2 T10501083
14926KSTC STC20191128105011611/28/19 10:50:31  5-MIN KSTC 281650Z 12005KT 10SM OVC014 M05/M08 A3053 470 77 -1800 120/05 RMK AO2 SLP365 T10501083
14926KSTC STC20191128105510911/28/19 10:55:31  5-MIN KSTC 281655Z 07005KT 10SM OVC014 M05/M08 A3053 480 77 -1800 070/05 RMK AO2 T10501083
14926KSTC STC20191128110010911/28/19 11:00:31  5-MIN KSTC 281700Z 07004KT 10SM OVC014 M05/M08 A3053 480 77 -1800 070/04 RMK AO2 T10501083
14926KSTC STC20191128110510911/28/19 11:05:31  5-MIN KSTC 281705Z 07005KT 10SM OVC014 M04/M08 A3052 480 78 -1700 070/05 RMK AO2 T10441078
14926KSTC STC20191128111010911/28/19 11:10:31  5-MIN KSTC 281710Z 07007KT 10SM OVC014 M05/M08 A3052 480 77 -1800 070/07 RMK AO2 T10501083
14926KSTC STC20191128111510911/28/19 11:15:31  5-MIN KSTC 281715Z 08004KT 10SM OVC014 M05/M08 A3052 480 77 -1800 070/04 RMK AO2 T10501083
14926KSTC STC20191128112010911/28/19 11:20:31  5-MIN KSTC 281720Z 06004KT 10SM OVC014 M04/M08 A3052 490 78 -1700 060/04 RMK AO2 T10441078
14926KSTC STC20191128112510911/28/19 11:25:31  5-MIN KSTC 281725Z 07004KT 10SM OVC014 M04/M08 A3052 490 78 -1700 070/04 RMK AO2 T10441078
14926KSTC STC20191128113010911/28/19 11:30:31  5-MIN KSTC 281730Z 09005KT 10SM OVC015 M05/M08 A3051 490 81 -1800 080/05 RMK AO2 T10501078
14926KSTC STC20191128113510911/28/19 11:35:31  5-MIN KSTC 281735Z 08005KT 10SM OVC015 M04/M08 A3051 490 78 -1700 080/05 RMK AO2 T10441078
14926KSTC STC20191128114010911/28/19 11:40:31  5-MIN KSTC 281740Z 08005KT 10SM OVC015 M04/M08 A3050 500 78 -1700 080/05 RMK AO2 T10441078
14926KSTC STC20191128114510911/28/19 11:45:31  5-MIN KSTC 281745Z 06007KT 10SM OVC015 M04/M08 A3050 500 78 -1700 060/07 RMK AO2 T10441078
14926KSTC STC20191128115013411/28/19 11:50:31  5-MIN KSTC 281750Z 09006KT 10SM OVC015 M04/M08 A3050 510 78 -1700 090/06 RMK AO2 SLP353 T10441078 11044 21061 51008
14926KSTC STC20191128115510911/28/19 11:55:31  5-MIN KSTC 281755Z 07006KT 10SM OVC015 M04/M08 A3049 510 78 -1700 070/06 RMK AO2 T10441078
14926KSTC STC20191128120010911/28/19 12:00:31  5-MIN KSTC 281800Z 07007KT 10SM OVC015 M04/M08 A3050 500 78 -1700 070/07 RMK AO2 T10441078
14926KSTC STC20191128120510911/28/19 12:05:31  5-MIN KSTC 281805Z 09006KT 10SM OVC015 M04/M08 A3050 500 78 -1700 090/06 RMK AO2 T10441078
14926KSTC STC20191128121010911/28/19 12:10:31  5-MIN KSTC 281810Z 07006KT 10SM OVC015 M04/M08 A3050 500 78 -1700 070/06 RMK AO2 T10441078
14926KSTC STC20191128121510911/28/19 12:15:31  5-MIN KSTC 281815Z 08006KT 10SM OVC015 M04/M08 A3049 510 78 -1700 080/06 RMK AO2 T10441078
14926KSTC STC20191128122010911/28/19 12:20:31  5-MIN KSTC 281820Z 07008KT 10SM OVC015 M04/M08 A3049 510 78 -1700 070/08 RMK AO2 T10441078
14926KSTC STC20191128122510911/28/19 12:25:31  5-MIN KSTC 281825Z 09007KT 10SM OVC015 M04/M08 A3049 510 78 -1700 090/07 RMK AO2 T10441078
14926KSTC STC20191128123010911/28/19 12:30:31  5-MIN KSTC 281830Z 08006KT 10SM OVC015 M04/M08 A3049 510 78 -1700 070/06 RMK AO2 T10441078
14926KSTC STC20191128123510911/28/19 12:35:31  5-MIN KSTC 281835Z 08005KT 10SM OVC015 M04/M08 A3049 510 78 -1700 080/05 RMK AO2 T10441078
14926KSTC STC20191128124010911/28/19 12:40:31  5-MIN KSTC 281840Z 08005KT 10SM OVC015 M04/M08 A3049 510 78 -1700 080/05 RMK AO2 T10441078
14926KSTC STC20191128124510911/28/19 12:45:31  5-MIN KSTC 281845Z 10004KT 10SM OVC015 M04/M08 A3048 520 74 -1600 090/04 RMK AO2 T10391078
14926KSTC STC20191128125011611/28/19 12:50:31  5-MIN KSTC 281850Z VRB04KT 10SM OVC015 M04/M08 A3048 520 78 -1700 VRB/04 RMK AO2 SLP349 T10441078
14926KSTC STC20191128125510911/28/19 12:55:31  5-MIN KSTC 281855Z 08003KT 10SM OVC015 M04/M07 A3048 520 78 -1600 080/03 RMK AO2 T10391072
14926KSTC STC20191128130010911/28/19 13:00:31  5-MIN KSTC 281900Z VRB03KT 10SM OVC015 M04/M07 A3048 520 78 -1600 VRB/03 RMK AO2 T10391072
14926KSTC STC20191128130510911/28/19 13:05:31  5-MIN KSTC 281905Z 09005KT 10SM OVC015 M04/M07 A3048 520 81 -1700 090/05 RMK AO2 T10441072
14926KSTC STC20191128131010911/28/19 13:10:31  5-MIN KSTC 281910Z 09004KT 10SM OVC015 M04/M07 A3048 520 81 -1700 080/04 RMK AO2 T10441072
14926KSTC STC20191128131510911/28/19 13:15:31  5-MIN KSTC 281915Z 08004KT 10SM OVC015 M04/M07 A3048 520 78 -1600 080/04 RMK AO2 T10391072
14926KSTC STC20191128132010911/28/19 13:20:31  5-MIN KSTC 281920Z 08003KT 10SM OVC015 M04/M07 A3048 520 81 -1700 080/03 RMK AO2 T10441072
14926KSTC STC20191128132510911/28/19 13:25:31  5-MIN KSTC 281925Z 04005KT 10SM OVC015 M04/M07 A3048 520 78 -1600 040/05 RMK AO2 T10391072
14926KSTC STC20191128133010911/28/19 13:30:31  5-MIN KSTC 281930Z 04004KT 10SM OVC015 M04/M08 A3047 530 74 -1600 040/04 RMK AO2 T10391078
14926KSTC STC20191128133510911/28/19 13:35:31  5-MIN KSTC 281935Z 07005KT 10SM OVC015 M04/M08 A3048 520 74 -1600 070/05 RMK AO2 T10391078
14926KSTC STC20191128134010911/28/19 13:40:31  5-MIN KSTC 281940Z 08004KT 10SM OVC015 M04/M08 A3048 520 74 -1600 080/04 RMK AO2 T10391078
14926KSTC STC20191128134510911/28/19 13:45:31  5-MIN KSTC 281945Z 06003KT 10SM OVC015 M04/M08 A3048 520 74 -1600 060/03 RMK AO2 T10391078
14926KSTC STC20191128135011611/28/19 13:50:31  5-MIN KSTC 281950Z 09004KT 10SM OVC016 M04/M07 A3047 530 78 -1600 090/04 RMK AO2 SLP346 T10391072
14926KSTC STC20191128135510911/28/19 13:55:31  5-MIN KSTC 281955Z 09003KT 10SM OVC016 M04/M08 A3047 530 74 -1600 090/03 RMK AO2 T10391078
14926KSTC STC20191128140010911/28/19 14:00:31  5-MIN KSTC 282000Z 07004KT 10SM OVC016 M04/M07 A3047 530 78 -1600 070/04 RMK AO2 T10391072
14926KSTC STC20191128140510911/28/19 14:05:31  5-MIN KSTC 282005Z 00000KT 10SM OVC017 M04/M08 A3047 530 74 -1600 000/00 RMK AO2 T10391078
14926KSTC STC20191128141010911/28/19 14:10:31  5-MIN KSTC 282010Z 08005KT 10SM OVC017 M04/M07 A3047 530 78 -1600 080/05 RMK AO2 T10391072
14926KSTC STC20191128141510911/28/19 14:15:31  5-MIN KSTC 282015Z 09003KT 10SM OVC017 M04/M08 A3047 530 74 -1600 090/03 RMK AO2 T10391078
14926KSTC STC20191128142010911/28/19 14:20:31  5-MIN KSTC 282020Z VRB03KT 10SM OVC017 M04/M08 A3047 530 74 -1600 VRB/03 RMK AO2 T10391078
14926KSTC STC20191128142510911/28/19 14:25:31  5-MIN KSTC 282025Z 09003KT 10SM OVC016 M04/M07 A3047 530 78 -1600 090/03 RMK AO2 T10391072
14926KSTC STC20191128143010911/28/19 14:30:31  5-MIN KSTC 282030Z 05005KT 10SM OVC016 M04/M08 A3046 540 74 -1600 050/05 RMK AO2 T10391078
14926KSTC STC20191128143510911/28/19 14:35:31  5-MIN KSTC 282035Z 07005KT 10SM OVC016 M04/M08 A3045 540 74 -1600 070/05 RMK AO2 T10391078
14926KSTC STC20191128144010911/28/19 14:40:31  5-MIN KSTC 282040Z 07007KT 10SM OVC016 M04/M08 A3046 540 74 -1600 070/07 RMK AO2 T10391078
14926KSTC STC20191128144510911/28/19 14:45:31  5-MIN KSTC 282045Z 07004KT 10SM OVC016 M04/M08 A3046 540 74 -1600 060/04 RMK AO2 T10391078
14926KSTC STC20191128145012211/28/19 14:50:31  5-MIN KSTC 282050Z 07005KT 10SM OVC016 M04/M08 A3046 540 74 -1600 070/05 RMK AO2 SLP341 T10391078 58017
14926KSTC STC20191128145510911/28/19 14:55:31  5-MIN KSTC 282055Z 06005KT 10SM OVC017 M04/M08 A3045 540 74 -1600 060/05 RMK AO2 T10391078
14926KSTC STC20191128150010911/28/19 15:00:31  5-MIN KSTC 282100Z 08004KT 10SM OVC017 M04/M08 A3046 540 74 -1600 080/04 RMK AO2 T10391078
14926KSTC STC20191128150510911/28/19 15:05:31  5-MIN KSTC 282105Z 07005KT 10SM OVC017 M04/M08 A3045 550 74 -1600 070/05 RMK AO2 T10391078
14926KSTC STC20191128151010911/28/19 15:10:31  5-MIN KSTC 282110Z 07006KT 10SM OVC018 M04/M08 A3046 540 74 -1600 070/06 RMK AO2 T10391078
14926KSTC STC20191128151510911/28/19 15:15:31  5-MIN KSTC 282115Z 07004KT 10SM OVC018 M04/M08 A3047 530 74 -1600 070/04 RMK AO2 T10391078
14926KSTC STC20191128152010911/28/19 15:20:31  5-MIN KSTC 282120Z 08005KT 10SM OVC018 M04/M08 A3047 530 74 -1600 080/05 RMK AO2 T10391078
14926KSTC STC20191128152510911/28/19 15:25:31  5-MIN KSTC 282125Z 07004KT 10SM OVC019 M04/M08 A3047 530 74 -1600 060/04 RMK AO2 T10391078
14926KSTC STC20191128153010911/28/19 15:30:31  5-MIN KSTC 282130Z 07004KT 10SM OVC019 M04/M08 A3047 530 74 -1600 070/04 RMK AO2 T10391078
14926KSTC STC20191128153510911/28/19 15:35:31  5-MIN KSTC 282135Z 06006KT 10SM OVC019 M04/M08 A3047 530 74 -1600 060/06 RMK AO2 T10391078
14926KSTC STC20191128154010911/28/19 15:40:31  5-MIN KSTC 282140Z 07005KT 10SM OVC019 M04/M08 A3047 530 74 -1600 070/05 RMK AO2 T10391078
14926KSTC STC20191128154510911/28/19 15:45:31  5-MIN KSTC 282145Z 06005KT 10SM OVC019 M04/M08 A3047 530 74 -1600 060/05 RMK AO2 T10391078
14926KSTC STC20191128155011611/28/19 15:50:31  5-MIN KSTC 282150Z 07003KT 10SM OVC019 M04/M08 A3047 530 74 -1600 070/03 RMK AO2 SLP345 T10391078
14926KSTC STC20191128155510911/28/19 15:55:31  5-MIN KSTC 282155Z 07004KT 10SM OVC019 M04/M08 A3047 530 74 -1600 070/04 RMK AO2 T10391078
14926KSTC STC20191128160010911/28/19 16:00:31  5-MIN KSTC 282200Z 05005KT 10SM OVC019 M04/M08 A3047 520 74 -1600 050/05 RMK AO2 T10391078
14926KSTC STC20191128160510911/28/19 16:05:31  5-MIN KSTC 282205Z 07004KT 10SM OVC019 M04/M08 A3048 520 74 -1600 070/04 RMK AO2 T10391078
14926KSTC STC20191128161010911/28/19 16:10:31  5-MIN KSTC 282210Z 06005KT 10SM OVC019 M04/M08 A3047 520 74 -1600 060/05 RMK AO2 T10391078
14926KSTC STC20191128161510911/28/19 16:15:31  5-MIN KSTC 282215Z 07005KT 10SM OVC019 M04/M08 A3047 530 74 -1600 070/05 RMK AO2 T10391078
14926KSTC STC20191128162010911/28/19 16:20:31  5-MIN KSTC 282220Z 07005KT 10SM OVC019 M04/M08 A3047 530 74 -1600 070/05 RMK AO2 T10391078
14926KSTC STC20191128162510911/28/19 16:25:31  5-MIN KSTC 282225Z 08005KT 10SM BKN019 M04/M08 A3047 530 74 -1600 070/05 RMK AO2 T10391078
14926KSTC STC20191128163010911/28/19 16:30:31  5-MIN KSTC 282230Z 08005KT 10SM BKN019 M04/M08 A3047 530 74 -1600 080/05 RMK AO2 T10391078
14926KSTC STC20191128163510911/28/19 16:35:31  5-MIN KSTC 282235Z 07005KT 10SM BKN019 M04/M07 A3047 530 78 -1600 070/05 RMK AO2 T10391072
14926KSTC STC20191128164010911/28/19 16:40:31  5-MIN KSTC 282240Z 08004KT 10SM BKN019 M04/M07 A3047 530 78 -1600 080/04 RMK AO2 T10391072
14926KSTC STC20191128164510911/28/19 16:45:31  5-MIN KSTC 282245Z 08004KT 10SM BKN019 M04/M07 A3047 530 78 -1600 080/04 RMK AO2 T10391072
14926KSTC STC20191128165011611/28/19 16:50:31  5-MIN KSTC 282250Z 08004KT 10SM BKN018 M04/M07 A3047 530 78 -1600 080/04 RMK AO2 SLP345 T10391072
14926KSTC STC20191128165510911/28/19 16:55:31  5-MIN KSTC 282255Z 08004KT 10SM BKN018 M04/M07 A3047 530 78 -1600 070/04 RMK AO2 T10391072
14926KSTC STC20191128170010911/28/19 17:00:31  5-MIN KSTC 282300Z 07003KT 10SM OVC018 M04/M07 A3047 530 78 -1600 070/03 RMK AO2 T10391072
14926KSTC STC20191128170510911/28/19 17:05:31  5-MIN KSTC 282305Z 06003KT 10SM OVC019 M04/M07 A3047 520 78 -1600 060/03 RMK AO2 T10391072
14926KSTC STC20191128171010911/28/19 17:10:31  5-MIN KSTC 282310Z 07003KT 10SM OVC019 M04/M07 A3048 520 78 -1600 070/03 RMK AO2 T10391072
14926KSTC STC20191128171509911/28/19 17:15:31  5-MIN KSTC 282315Z 10SM OVC019 M04/M07 A3048 520 78 -1600 M /M RMK AO2 T10391072
14926KSTC STC20191128172009911/28/19 17:20:31  5-MIN KSTC 282320Z 10SM OVC019 M03/M07 A3048 520 74 -1500 M /M RMK AO2 T10331072
14926KSTC STC20191128172510911/28/19 17:25:31  5-MIN KSTC 282325Z 05003KT 10SM OVC019 M04/M07 A3048 520 78 -1600 050/03 RMK AO2 T10391072
14926KSTC STC20191128173010911/28/19 17:30:31  5-MIN KSTC 282330Z 04004KT 10SM OVC018 M04/M07 A3047 520 78 -1600 040/04 RMK AO2 T10391072
14926KSTC STC20191128173510911/28/19 17:35:31  5-MIN KSTC 282335Z 05003KT 10SM OVC018 M04/M07 A3048 520 78 -1600 050/03 RMK AO2 T10391072
14926KSTC STC20191128174010911/28/19 17:40:31  5-MIN KSTC 282340Z 06003KT 10SM OVC018 M04/M07 A3048 520 78 -1600 060/03 RMK AO2 T10391072
14926KSTC STC20191128174510911/28/19 17:45:31  5-MIN KSTC 282345Z 07003KT 10SM OVC018 M04/M07 A3048 520 78 -1600 070/03 RMK AO2 T10391072
14926KSTC STC20191128175013411/28/19 17:50:31  5-MIN KSTC 282350Z 08003KT 10SM OVC018 M03/M07 A3048 520 74 -1500 080/03 RMK AO2 SLP348 T10331072 11033 21044 58014
14926KSTC STC20191128175510911/28/19 17:55:31  5-MIN KSTC 282355Z 08003KT 10SM OVC018 M03/M07 A3048 520 74 -1500 080/03 RMK AO2 T10331072
14926KSTC STC20191128180010911/28/19 18:00:31  5-MIN KSTC 290000Z 09003KT 10SM OVC018 M04/M07 A3048 520 78 -1600 090/03 RMK AO2 T10391072
14926KSTC STC20191128180510911/28/19 18:05:31  5-MIN KSTC 290005Z 10003KT 10SM OVC018 M04/M07 A3048 520 78 -1600 100/03 RMK AO2 T10391072
14926KSTC STC20191128181010911/28/19 18:10:31  5-MIN KSTC 290010Z 00000KT 10SM OVC018 M04/M07 A3048 520 78 -1600 000/00 RMK AO2 T10391072
14926KSTC STC20191128181510911/28/19 18:15:31  5-MIN KSTC 290015Z 08003KT 10SM OVC018 M04/M07 A3048 520 78 -1600 080/03 RMK AO2 T10391072
14926KSTC STC20191128182010911/28/19 18:20:31  5-MIN KSTC 290020Z 07003KT 10SM OVC018 M04/M07 A3048 520 78 -1600 070/03 RMK AO2 T10391072
14926KSTC STC20191128182510911/28/19 18:25:31  5-MIN KSTC 290025Z 08003KT 10SM OVC018 M04/M07 A3048 520 78 -1600 070/03 RMK AO2 T10391072
14926KSTC STC20191128183010911/28/19 18:30:31  5-MIN KSTC 290030Z 00000KT 10SM OVC018 M04/M07 A3048 520 78 -1600 000/00 RMK AO2 T10391072
14926KSTC STC20191128183510911/28/19 18:35:31  5-MIN KSTC 290035Z 07003KT 10SM OVC018 M04/M07 A3048 520 78 -1600 070/03 RMK AO2 T10391072
14926KSTC STC20191128184010911/28/19 18:40:31  5-MIN KSTC 290040Z 07003KT 10SM OVC018 M04/M07 A3047 520 78 -1600 070/03 RMK AO2 T10391072
14926KSTC STC20191128184510911/28/19 18:45:31  5-MIN KSTC 290045Z 06003KT 10SM OVC018 M04/M07 A3047 530 78 -1600 060/03 RMK AO2 T10391072
14926KSTC STC20191128185011611/28/19 18:50:31  5-MIN KSTC 290050Z 08004KT 10SM OVC018 M04/M07 A3046 530 81 -1600 070/04 RMK AO2 SLP342 T10391067
14926KSTC STC20191128185510911/28/19 18:55:31  5-MIN KSTC 290055Z 07003KT 10SM OVC018 M04/M07 A3046 540 78 -1600 070/03 RMK AO2 T10391072
14926KSTC STC20191128190010911/28/19 19:00:31  5-MIN KSTC 290100Z 07003KT 10SM OVC018 M04/M07 A3046 530 78 -1600 070/03 RMK AO2 T10391072
14926KSTC STC20191128190510911/28/19 19:05:31  5-MIN KSTC 290105Z 08003KT 10SM OVC018 M04/M07 A3047 530 81 -1600 080/03 RMK AO2 T10391067
14926KSTC STC20191128191010911/28/19 19:10:31  5-MIN KSTC 290110Z 07003KT 10SM OVC017 M04/M07 A3046 540 81 -1600 070/03 RMK AO2 T10391067
14926KSTC STC20191128191510911/28/19 19:15:31  5-MIN KSTC 290115Z 07004KT 10SM OVC017 M04/M07 A3046 540 81 -1600 070/04 RMK AO2 T10391067
14926KSTC STC20191128192010911/28/19 19:20:31  5-MIN KSTC 290120Z 08004KT 10SM OVC017 M04/M07 A3046 540 81 -1600 080/04 RMK AO2 T10391067
14926KSTC STC20191128192510911/28/19 19:25:31  5-MIN KSTC 290125Z 09004KT 10SM OVC017 M04/M07 A3046 540 81 -1600 090/04 RMK AO2 T10391067
14926KSTC STC20191128193010911/28/19 19:30:31  5-MIN KSTC 290130Z 08004KT 10SM OVC017 M04/M07 A3046 540 81 -1600 080/04 RMK AO2 T10391067
14926KSTC STC20191128193510911/28/19 19:35:31  5-MIN KSTC 290135Z 09003KT 10SM OVC016 M04/M07 A3045 540 81 -1600 080/03 RMK AO2 T10391067
14926KSTC STC20191128194010911/28/19 19:40:31  5-MIN KSTC 290140Z 10003KT 10SM OVC016 M04/M07 A3045 540 81 -1600 100/03 RMK AO2 T10391067
14926KSTC STC20191128194510911/28/19 19:45:31  5-MIN KSTC 290145Z 09003KT 10SM OVC016 M04/M07 A3045 550 81 -1600 090/03 RMK AO2 T10391067
14926KSTC STC20191128195009911/28/19 19:50:31  5-MIN KSTC 290150Z 09003KT 10SM OVC014 M04/M07 A3045 550 81 -1600 090/03 RMK AO2
14926KSTC STC20191128195510911/28/19 19:55:31  5-MIN KSTC 290155Z 09004KT 10SM OVC014 M04/M07 A3045 550 81 -1600 090/04 RMK AO2 T10391067
14926KSTC STC20191128200010911/28/19 20:00:31  5-MIN KSTC 290200Z 10003KT 10SM OVC014 M04/M07 A3045 550 81 -1600 100/03 RMK AO2 T10391067
14926KSTC STC20191128200510911/28/19 20:05:31  5-MIN KSTC 290205Z 10003KT 10SM OVC014 M04/M07 A3044 550 81 -1500 100/03 RMK AO2 T10391067
14926KSTC STC20191128201010911/28/19 20:10:31  5-MIN KSTC 290210Z 10003KT 10SM OVC014 M04/M07 A3044 550 81 -1500 100/03 RMK AO2 T10391067
14926KSTC STC20191128201510911/28/19 20:15:31  5-MIN KSTC 290215Z 10004KT 10SM OVC014 M04/M07 A3044 560 81 -1500 100/04 RMK AO2 T10391067
14926KSTC STC20191128202010911/28/19 20:20:31  5-MIN KSTC 290220Z 11004KT 10SM OVC014 M04/M07 A3044 560 81 -1500 110/04 RMK AO2 T10391067
14926KSTC STC20191128202510911/28/19 20:25:31  5-MIN KSTC 290225Z 11004KT 10SM OVC013 M04/M07 A3043 560 81 -1500 100/04 RMK AO2 T10391067
14926KSTC STC20191128203010911/28/19 20:30:31  5-MIN KSTC 290230Z 11004KT 10SM OVC013 M04/M07 A3043 570 81 -1500 110/04 RMK AO2 T10391067
14926KSTC STC20191128203510911/28/19 20:35:31  5-MIN KSTC 290235Z 10004KT 10SM OVC012 M04/M07 A3042 570 81 -1500 100/04 RMK AO2 T10391067
14926KSTC STC20191128204010911/28/19 20:40:31  5-MIN KSTC 290240Z 10004KT 10SM OVC012 M04/M07 A3042 570 81 -1500 100/04 RMK AO2 T10391067
14926KSTC STC20191128204510911/28/19 20:45:31  5-MIN KSTC 290245Z 10004KT 10SM OVC012 M04/M07 A3042 580 81 -1500 090/04 RMK AO2 T10391067
14926KSTC STC20191128205012211/28/19 20:50:31  5-MIN KSTC 290250Z 09004KT 10SM OVC012 M04/M06 A3041 580 85 -1500 090/04 RMK AO2 SLP325 T10391061 51010
14926KSTC STC20191128205510911/28/19 20:55:31  5-MIN KSTC 290255Z 09005KT 10SM OVC012 M04/M06 A3041 580 85 -1500 090/05 RMK AO2 T10391061
14926KSTC STC20191128210010911/28/19 21:00:31  5-MIN KSTC 290300Z 10004KT 10SM OVC012 M04/M06 A3041 580 85 -1500 100/04 RMK AO2 T10391061
14926KSTC STC20191128210510911/28/19 21:05:31  5-MIN KSTC 290305Z 12005KT 10SM OVC012 M04/M06 A3042 580 85 -1500 120/05 RMK AO2 T10391061
14926KSTC STC20191128211010911/28/19 21:10:31  5-MIN KSTC 290310Z 12005KT 10SM OVC012 M04/M06 A3042 570 85 -1500 120/05 RMK AO2 T10391061
14926KSTC STC20191128211510911/28/19 21:15:31  5-MIN KSTC 290315Z 12005KT 10SM OVC011 M04/M06 A3043 570 85 -1500 120/05 RMK AO2 T10391061
14926KSTC STC20191128212010911/28/19 21:20:31  5-MIN KSTC 290320Z 12004KT 10SM OVC011 M04/M06 A3043 570 85 -1500 120/04 RMK AO2 T10391061
14926KSTC STC20191128212510911/28/19 21:25:31  5-MIN KSTC 290325Z 11004KT 10SM OVC011 M04/M06 A3043 570 85 -1500 110/04 RMK AO2 T10391061
14926KSTC STC20191128213010911/28/19 21:30:31  5-MIN KSTC 290330Z 13003KT 10SM OVC011 M04/M06 A3043 560 85 -1500 120/03 RMK AO2 T10391061
14926KSTC STC20191128213510911/28/19 21:35:31  5-MIN KSTC 290335Z 13003KT 10SM OVC011 M04/M06 A3044 560 85 -1500 130/03 RMK AO2 T10391061
14926KSTC STC20191128214010911/28/19 21:40:31  5-MIN KSTC 290340Z 12004KT 10SM OVC011 M04/M06 A3043 560 85 -1500 120/04 RMK AO2 T10391061
14926KSTC STC20191128214510911/28/19 21:45:31  5-MIN KSTC 290345Z 13004KT 10SM OVC011 M04/M06 A3044 560 85 -1500 130/04 RMK AO2 T10391061
14926KSTC STC20191128215011611/28/19 21:50:31  5-MIN KSTC 290350Z 13004KT 10SM OVC011 M04/M06 A3044 560 85 -1500 130/04 RMK AO2 SLP333 T10391061
14926KSTC STC20191128215510911/28/19 21:55:31  5-MIN KSTC 290355Z 12004KT 10SM OVC011 M04/M06 A3043 560 85 -1500 120/04 RMK AO2 T10391061
14926KSTC STC20191128220010911/28/19 22:00:31  5-MIN KSTC 290400Z 13004KT 10SM OVC011 M04/M06 A3043 560 85 -1500 130/04 RMK AO2 T10391061
14926KSTC STC20191128220510911/28/19 22:05:31  5-MIN KSTC 290405Z 13003KT 10SM OVC011 M04/M06 A3044 560 85 -1500 130/03 RMK AO2 T10391061
14926KSTC STC20191128221010911/28/19 22:10:31  5-MIN KSTC 290410Z 13004KT 10SM OVC011 M04/M06 A3043 560 85 -1500 130/04 RMK AO2 T10391061
14926KSTC STC20191128221510911/28/19 22:15:31  5-MIN KSTC 290415Z 13004KT 10SM OVC011 M04/M06 A3043 560 85 -1500 130/04 RMK AO2 T10391061
14926KSTC STC20191128222010911/28/19 22:20:31  5-MIN KSTC 290420Z 13004KT 10SM OVC011 M04/M06 A3043 560 85 -1500 130/04 RMK AO2 T10391061
14926KSTC STC20191128222510911/28/19 22:25:31  5-MIN KSTC 290425Z 12003KT 10SM OVC011 M04/M06 A3043 570 85 -1500 120/03 RMK AO2 T10391061
14926KSTC STC20191128223010911/28/19 22:30:31  5-MIN KSTC 290430Z 12004KT 10SM OVC010 M04/M06 A3043 570 85 -1500 120/04 RMK AO2 T10391061
14926KSTC STC20191128223510911/28/19 22:35:31  5-MIN KSTC 290435Z 14004KT 10SM OVC010 M04/M06 A3043 570 85 -1500 140/04 RMK AO2 T10391061
14926KSTC STC20191128224010911/28/19 22:40:31  5-MIN KSTC 290440Z 14004KT 10SM OVC010 M04/M06 A3043 570 85 -1500 140/04 RMK AO2 T10391061
14926KSTC STC20191128224510911/28/19 22:45:31  5-MIN KSTC 290445Z 14004KT 10SM OVC010 M04/M06 A3043 570 88 -1500 130/04 RMK AO2 T10391056
14926KSTC STC20191128225011611/28/19 22:50:31  5-MIN KSTC 290450Z 14004KT 10SM OVC010 M04/M06 A3043 570 88 -1500 130/04 RMK AO2 SLP330 T10391056
14926KSTC STC20191128225510911/28/19 22:55:31  5-MIN KSTC 290455Z 14005KT 10SM OVC010 M04/M06 A3043 570 88 -1500 140/05 RMK AO2 T10391056
14926KSTC STC20191128230011411/28/19 23:00:31  5-MIN KSTC 290500Z AUTO 14004KT 10SM OVC009 M04/M06 A3043 570 88 -1500 140/04 RMK AO2 T10391056
14926KSTC STC20191128230511411/28/19 23:05:31  5-MIN KSTC 290505Z AUTO 14004KT 10SM OVC009 M04/M06 A3043 570 88 -1500 130/04 RMK AO2 T10391056
14926KSTC STC20191128231011411/28/19 23:10:31  5-MIN KSTC 290510Z AUTO 13004KT 10SM OVC009 M04/M06 A3042 570 88 -1500 120/04 RMK AO2 T10391056
14926KSTC STC20191128231511411/28/19 23:15:31  5-MIN KSTC 290515Z AUTO 13004KT 10SM OVC009 M04/M06 A3042 570 88 -1500 130/04 RMK AO2 T10391056
14926KSTC STC20191128232011411/28/19 23:20:31  5-MIN KSTC 290520Z AUTO 13004KT 10SM OVC009 M04/M06 A3042 580 88 -1500 130/04 RMK AO2 T10391056
14926KSTC STC20191128232511411/28/19 23:25:31  5-MIN KSTC 290525Z AUTO 12004KT 10SM OVC009 M04/M06 A3042 580 88 -1500 120/04 RMK AO2 T10391056
14926KSTC STC20191128233011411/28/19 23:30:31  5-MIN KSTC 290530Z AUTO 11004KT 10SM OVC008 M04/M06 A3041 580 88 -1500 110/04 RMK AO2 T10391056
14926KSTC STC20191128233511411/28/19 23:35:31  5-MIN KSTC 290535Z AUTO 12004KT 10SM OVC008 M04/M06 A3040 590 88 -1500 110/04 RMK AO2 T10391056
14926KSTC STC20191128234011411/28/19 23:40:31  5-MIN KSTC 290540Z AUTO VRB03KT 10SM OVC008 M04/M06 A3040 590 88 -1500 VRB/03 RMK AO2 T10391056
14926KSTC STC20191128234511411/28/19 23:45:31  5-MIN KSTC 290545Z AUTO 10006KT 10SM OVC008 M04/M06 A3040 590 88 -1500 100/06 RMK AO2 T10391056
14926KSTC STC20191128235014911/28/19 23:50:31  5-MIN KSTC 290550Z AUTO 10005KT 10SM OVC008 M04/M06 A3041 590 88 -1500 100/05 RMK AO2 SLP322 T10391056 11033 21039 410331061 58023
14926KSTC STC20191128235511411/28/19 23:55:31  5-MIN KSTC 290555Z AUTO 10005KT 10SM OVC008 M04/M06 A3040 590 88 -1500 100/05 RMK AO2 T10391056
14926KSTC STC20191129000011411/29/19 00:00:31  5-MIN KSTC 290600Z AUTO 10004KT 10SM OVC008 M04/M06 A3040 590 88 -1500 100/04 RMK AO2 T10391056
14926KSTC STC20191129000511411/29/19 00:05:31  5-MIN KSTC 290605Z AUTO VRB03KT 10SM OVC008 M03/M06 A3040 590 85 -1400 VRB/03 RMK AO2 T10331056
14926KSTC STC20191129001011411/29/19 00:10:31  5-MIN KSTC 290610Z AUTO 00000KT 10SM OVC008 M03/M06 A3040 590 85 -1400 000/00 RMK AO2 T10331056
14926KSTC STC20191129001511411/29/19 00:15:31  5-MIN KSTC 290615Z AUTO 10003KT 10SM OVC008 M04/M06 A3040 590 88 -1500 100/03 RMK AO2 T10391056
14926KSTC STC20191129002011411/29/19 00:20:31  5-MIN KSTC 290620Z AUTO 09004KT 10SM OVC008 M03/M06 A3040 600 85 -1400 090/04 RMK AO2 T10331056
14926KSTC STC20191129002511411/29/19 00:25:31  5-MIN KSTC 290625Z AUTO 10004KT 10SM OVC008 M03/M06 A3039 600 85 -1400 100/04 RMK AO2 T10331056
14926KSTC STC20191130100013311/30/19 10:00:31  5-MIN KSTC 301600Z 09014G24KT 1 1/2SM -SN BR OVC009 M01/M02 A2972 1220 92 -400 090/14G24 RMK AO2 P0000 T10111022 $
14926KSTC STC20191130100514711/30/19 10:05:31  5-MIN KSTC 301605Z 08013G27KT 1SM -SN BR OVC010 M01/M02 A2972 1220 92 -400 080/13G27 RMK AO2 PK WND 08027/1601 P0002 T10111022 $
14926KSTC STC20191130101014911/30/19 10:10:31  5-MIN KSTC 301610Z 09010G27KT 3/4SM -SN BR OVC010 M01/M02 A2972 1220 92 -400 090/10G27 RMK AO2 PK WND 08027/1601 P0004 T10111022 $
14926KSTC STC20191130101514911/30/19 10:15:31  5-MIN KSTC 301615Z 09012G21KT 3/4SM -SN BR OVC010 M01/M02 A2972 1220 92 -400 080/12G21 RMK AO2 PK WND 08027/1601 P0006 T10111022 $
14926KSTC STC20191130102014811/30/19 10:20:31  5-MIN KSTC 301620Z 08013G22KT 3/4SM -SN BR VV009 M01/M02 A2972 1220 92 -400 080/13G22 RMK AO2 PK WND 08027/1601 P0007 T10111022 $
14926KSTC STC20191130102515011/30/19 10:25:31  5-MIN KSTC 301625Z 08014G25KT 1/2SM -SN FZFG VV009 M01/M02 A2971 1220 92 -400 080/14G25 RMK AO2 PK WND 08027/1601 P0007 T10111022 $
14926KSTC STC20191130103015011/30/19 10:30:31  5-MIN KSTC 301630Z 08014G25KT 1/2SM -SN FZFG VV009 M01/M02 A2971 1230 92 -400 080/14G25 RMK AO2 PK WND 08027/1601 P0007 T10111022 $
14926KSTC STC20191130103515011/30/19 10:35:31  5-MIN KSTC 301635Z 08011G24KT 1/2SM -SN FZFG VV008 M01/M02 A2971 1230 92 -300 080/11G24 RMK AO2 PK WND 08027/1601 P0008 T10111022 $
14926KSTC STC20191130104008011/30/19 10:40:31  5-MIN KSTC 301640Z -SN A2971 M M M M /M RMK AO2 SNB40 P0008 $
14926KSTC STC20191130104512111/30/19 10:45:31  5-MIN KSTC 301645Z 08012G23KT -SN M01/M02 A2970 1230 92 -300 080/12G23 RMK AO2 SNB40 P0008 T10111022 $
14926KSTC STC20191130105012011/30/19 10:50:31  5-MIN KSTC 301650Z 08011G23KT 3/4SM -SN BR M01/M02 A2970 1240 92 -300 080/11G23 RMK AO2 SNB40 P0009 $
14926KSTC STC20191130105513211/30/19 10:55:31  5-MIN KSTC 301655Z 09013G20KT 1/2SM SN FZFG OVC003 M01/M02 A2970 1240 92 -300 090/13G20 RMK AO2 P0000 T10111022 $
14926KSTC STC20191130110013211/30/19 11:00:31  5-MIN KSTC 301700Z 09014G23KT 1/4SM SN FZFG OVC003 M01/M02 A2969 1240 92 -300 090/14G23 RMK AO2 P0001 T10111022 $
14926KSTC STC20191130110513211/30/19 11:05:31  5-MIN KSTC 301705Z 08011G23KT 1/4SM SN FZFG OVC003 M01/M02 A2969 1250 92 -300 070/11G23 RMK AO2 P0002 T10111022 $
14926KSTC STC20191130111014011/30/19 11:10:31  5-MIN KSTC 301710Z 08009G21KT 1/2SM -SN FZFG OVC003 M01/M02 A2968 1260 92 -300 080/09G21 RMK AO2 PRESFR P0002 T10111022 $
14926KSTC STC20191130111513111/30/19 11:15:31  5-MIN KSTC 301715Z 08012G21KT 3/4SM -SN BR OVC003 M01/M02 A2968 1260 92 -300 080/12G21 RMK AO2 P0002 T10111022 $
14926KSTC STC20191130112013111/30/19 11:20:31  5-MIN KSTC 301720Z 08010G23KT 3/4SM -SN BR OVC003 M01/M02 A2967 1270 92 -300 080/10G23 RMK AO2 P0002 T10111022 $
14926KSTC STC20191130112513111/30/19 11:25:31  5-MIN KSTC 301725Z 08011G23KT 3/4SM -SN BR OVC003 M01/M02 A2967 1270 88 -200 070/11G23 RMK AO2 P0003 T10061022 $
14926KSTC STC20191130113013311/30/19 11:30:31  5-MIN KSTC 301730Z 08011G22KT 1 1/4SM -SN BR OVC003 M01/M02 A2967 1270 88 -200 080/11G22 RMK AO2 P0003 T10061022 $
14926KSTC STC20191130113513311/30/19 11:35:31  5-MIN KSTC 301735Z 08014G23KT 1 1/2SM -SN BR OVC003 M01/M02 A2966 1270 88 -200 080/14G23 RMK AO2 P0003 T10061022 $
14926KSTC STC20191130114013311/30/19 11:40:31  5-MIN KSTC 301740Z 08010G24KT 1 1/2SM -SN BR OVC003 M01/M02 A2966 1280 88 -200 080/10G24 RMK AO2 P0003 T10061022 $
14926KSTC STC20191130114513311/30/19 11:45:31  5-MIN KSTC 301745Z 08013G24KT 1 1/2SM -SN BR OVC003 M01/M02 A2965 1280 88 -200 080/13G24 RMK AO2 P0003 T10061022 $
14926KSTC STC20191130115013011/30/19 11:50:31  5-MIN KSTC 301750Z 08011G21KT 1 3/4SM -SN BR BKN009 OVC015 M01/M02 A2965 1290 88 -200 080/11G21 RMK AO2 P0003 $
14926KSTC STC20191130115514711/30/19 11:55:31  5-MIN KSTC 301755Z 08014G22KT 1 1/2SM -SN BR BKN009 OVC013 M01/M02 A2964 1290 88 -200 080/14G22 RMK AO2 PRESFR P0000 T10061022 $
14926KSTC STC20191130120013811/30/19 12:00:31  5-MIN KSTC 301800Z 08012G25KT 3/4SM -SN BR BKN009 OVC013 M01/M02 A2964 1290 88 -200 080/12G25 RMK AO2 P0001 T10061022 $
14926KSTC STC20191130120513911/30/19 12:05:31  5-MIN KSTC 301805Z 07014G25KT 1/2SM SN FZFG FEW006 OVC009 M01/M02 A2963 1300 88 -200 070/14G25 RMK AO2 P0001 T10061022 $
14926KSTC STC20191130121013311/30/19 12:10:31  5-MIN KSTC 301810Z 07013G22KT 1/2SM -SN FZFG OVC009 M01/M02 A2963 1300 88 -200 070/13G22 RMK AO2 P0002 T10061022 $
14926KSTC STC20191130121513811/30/19 12:15:31  5-MIN KSTC 301815Z 08014G22KT 3/4SM -SN BR FEW006 OVC011 M01/M02 A2963 1300 88 -200 080/14G22 RMK AO2 P0002 T10061022 $
14926KSTC STC20191130122013111/30/19 12:20:31  5-MIN KSTC 301820Z 08013G23KT 3/4SM -SN BR OVC009 M01/M02 A2962 1310 88 -200 080/13G23 RMK AO2 P0002 T10061022 $
14926KSTC STC20191130122513111/30/19 12:25:31  5-MIN KSTC 301825Z 08012G23KT 1/2SM SN FZFG VV008 M01/M02 A2962 1310 88 -200 080/12G23 RMK AO2 P0003 T10061022 $
14926KSTC STC20191130123013211/30/19 12:30:31  5-MIN KSTC 301830Z 08010G23KT 1/4SM -SN FZFG VV008 M01/M02 A2962 1310 88 -200 080/10G23 RMK AO2 P0004 T10061022 $
14926KSTC STC20191130123514011/30/19 12:35:31  5-MIN KSTC 301835Z 08013G23KT 1/2SM -SN FZFG BKN008 OVC017 M01/M02 A2962 1310 88 -200 080/13G23 RMK AO2 P0005 T10061022 $
14926KSTC STC20191130124013611/30/19 12:40:31  5-MIN KSTC 301840Z 09011G23KT 1SM -SN BR BKN008 OVC017 M01/M02 A2962 1320 88 -200 090/11G23 RMK AO2 P0005 T10061022 $
14926KSTC STC20191130124514011/30/19 12:45:31  5-MIN KSTC 301845Z 08011G24KT 1 1/2SM -SN BR BKN008 OVC016 M01/M02 A2962 1320 88 -200 080/11G24 RMK AO2 P0005 T10061022 $
14926KSTC STC20191130125013011/30/19 12:50:31  5-MIN KSTC 301850Z 08014G24KT 1 3/4SM -SN BR BKN010 OVC016 M01/M02 A2961 1320 88 -200 080/14G24 RMK AO2 P0005 $
14926KSTC STC20191130125513611/30/19 12:55:31  5-MIN KSTC 301855Z 08014G21KT 2SM -SN BR SCT008 OVC015 M01/M02 A2961 1320 88 -200 080/14G21 RMK AO2 P0001 T10061022 $
14926KSTC STC20191130130014011/30/19 13:00:31  5-MIN KSTC 301900Z 08013G23KT 2 1/2SM -SN BR BKN009 OVC015 M01/M02 A2961 1320 88 -200 080/13G23 RMK AO2 P0001 T10061022 $
14926KSTC STC20191130130515011/30/19 13:05:31  5-MIN KSTC 301905Z 08014G23KT 1 1/2SM UP BR BKN009 OVC015 M01/M02 A2960 1330 88 -200 080/14G23 RMK AO2 UPB02SNE02 P0003 T10061022 $
14926KSTC STC20191130131015011/30/19 13:10:31  5-MIN KSTC 301910Z 08012G23KT 1 3/4SM UP BR BKN012 OVC018 M01/M02 A2960 1330 88 -200 070/12G23 RMK AO2 UPB02SNE02 P0003 T10061022 $
14926KSTC STC20191130131515311/30/19 13:15:31  5-MIN KSTC 301915Z 08012G23KT 5SM UP BR BKN012 BKN016 OVC021 M01/M02 A2960 1340 88 -100 070/12G23 RMK AO2 UPB02SNE02 P0003 T10061022 $
14926KSTC STC20191130132015011/30/19 13:20:31  5-MIN KSTC 301920Z 07013G22KT 8SM SCT009 BKN014 OVC019 M01/M02 A2959 1340 88 -100 070/13G22 RMK AO2 UPB02E16SNE02 P0003 T10061022 $
14926KSTC STC20191130132515311/30/19 13:25:31  5-MIN KSTC 301925Z 07011G21KT 4SM -SN BR FEW009 OVC014 M01/M02 A2959 1340 88 -100 070/11G21 RMK AO2 UPB02E16SNE02B24 P0003 T10061022 $
14926KSTC STC20191130133017611/30/19 13:30:31  5-MIN KSTC 301930Z 07013G23KT 2 1/2SM -SN BR BKN010 BKN017 OVC021 M01/M02 A2959 1340 88 -100 070/13G23 RMK AO2 VIS 1 1/2V5 UPB02E16SNE02B24 P0003 T10061022 $
14926KSTC STC20191130133517211/30/19 13:35:31  5-MIN KSTC 301935Z 07011G23KT 2SM -SN BR BKN012 BKN017 OVC023 M01/M02 A2959 1340 88 -100 070/11G23 RMK AO2 VIS 1 1/4V3 UPB02E16SNE02B24 P0003 T10061022 $
14926KSTC STC20191130134014611/30/19 13:40:31  5-MIN KSTC 301940Z 08014G23KT 2SM -SN BR OVC012 M01/M02 A2958 1350 88 -100 080/14G23 RMK AO2 UPB02E16SNE02B24 P0004 T10061022 $
14926KSTC STC20191130134515311/30/19 13:45:31  5-MIN KSTC 301945Z 08010G23KT 3SM -SN BR BKN012 OVC019 M01/M02 A2958 1350 88 -100 080/10G23 RMK AO2 UPB02E16SNE02B24 P0004 T10061022 $
14926KSTC STC20191130135016011/30/19 13:50:31  5-MIN KSTC 301950Z 08014G25KT 3SM -SN BR BKN010 OVC020 M01/M02 A2958 1350 88 -100 080/14G25 RMK AO2 UPB02E16SNE02B24 SLP037 P0004 T10061022 $
14926KSTC STC20191130135515811/30/19 13:55:31  5-MIN KSTC 301955Z 07013G26KT 2 1/2SM -SN BR BKN010 OVC018 M01/M02 A2958 1350 88 -100 070/13G26 RMK AO2 PK WND 07026/1954 P0000 T10061022 $
14926KSTC STC20191130140015511/30/19 14:00:31  5-MIN KSTC 302000Z 08015G26KT 2 1/2SM BR OVC010 M01/M03 A2958 1350 85 -100 080/15G26 RMK AO2 PK WND 07026/1954 SNE1956 P0000 T10061028 $
14926KSTC STC20191130140514711/30/19 14:05:31  5-MIN KSTC 302005Z 07012G23KT 2SM -SN BR OVC010 M01/M03 A2957 1360 85 -100 070/12G23 RMK AO2 PK WND 07026/1954 P0000 T10061028 $
14926KSTC STC20191130141015811/30/19 14:10:31  5-MIN KSTC 302010Z 07014G28KT 1 3/4SM -SN BR BKN010 OVC016 M01/M02 A2957 1360 92 -200 070/14G28 RMK AO2 PK WND 05028/2008 P0000 T10111022 $
14926KSTC STC20191130141515111/30/19 14:15:31  5-MIN KSTC 302015Z 07013G28KT 1 1/2SM -SN BR OVC012 M01/M02 A2957 1360 92 -200 070/13G28 RMK AO2 PK WND 05028/2008 P0000 T10111022 $
14926KSTC STC20191130142015811/30/19 14:20:31  5-MIN KSTC 302020Z 07010G21KT 1 1/4SM -SN BR BKN010 OVC015 M01/M02 A2957 1360 92 -200 070/10G21 RMK AO2 PK WND 05028/2008 P0000 T10111022 $
14926KSTC STC20191130142515411/30/19 14:25:31  5-MIN KSTC 302025Z 07014G25KT 1SM -SN BR BKN010 OVC015 M01/M02 A2956 1360 92 -200 070/14G25 RMK AO2 PK WND 05028/2008 P0000 T10111022 $
14926KSTC STC20191130143015811/30/19 14:30:31  5-MIN KSTC 302030Z 07012G25KT 1 1/4SM -SN BR BKN010 OVC015 M01/M02 A2956 1370 92 -200 070/12G25 RMK AO2 PK WND 05028/2008 P0000 T10111022 $
14926KSTC STC20191130143515411/30/19 14:35:31  5-MIN KSTC 302035Z 07015G24KT 1SM -SN BR BKN010 OVC015 M01/M02 A2956 1370 92 -200 070/15G24 RMK AO2 PK WND 05028/2008 P0000 T10111022 $
14926KSTC STC20191130144015411/30/19 14:40:31  5-MIN KSTC 302040Z 07014G24KT 1SM -SN BR BKN010 OVC015 M01/M02 A2956 1370 92 -200 070/14G24 RMK AO2 PK WND 05028/2008 P0000 T10111022 $
14926KSTC STC20191130144515411/30/19 14:45:31  5-MIN KSTC 302045Z 08011G24KT 1SM -SN BR BKN010 OVC015 M01/M02 A2956 1370 92 -200 080/11G24 RMK AO2 PK WND 05028/2008 P0000 T10111022 $
14926KSTC STC20191130145016711/30/19 14:50:31  5-MIN KSTC 302050Z 07013G21KT 1SM -SN BR BKN010 OVC015 M01/M02 A2957 1360 92 -200 070/13G21 RMK AO2 PK WND 05028/2008 SLP032 P0000 60009 T10111022 $
14926KSTC STC20191130145513611/30/19 14:55:31  5-MIN KSTC 302055Z 07011G22KT 1SM -SN BR BKN010 OVC015 M01/M02 A2956 1360 92 -200 070/11G22 RMK AO2 P0000 T10111022 $
14926KSTC STC20191130150013611/30/19 15:00:31  5-MIN KSTC 302100Z 07010G22KT 1SM -SN BR BKN010 OVC015 M01/M03 A2956 1360 88 -200 070/10G22 RMK AO2 P0000 T10111028 $
14926KSTC STC20191130150513611/30/19 15:05:31  5-MIN KSTC 302105Z 07010G19KT 1SM -SN BR BKN010 OVC015 M01/M03 A2957 1360 88 -200 070/10G19 RMK AO2 P0000 T10111028 $
14926KSTC STC20191130151012911/30/19 15:10:31  5-MIN KSTC 302110Z 07013G22KT 1SM -SN BR OVC012 M01/M03 A2956 1360 88 -200 070/13G22 RMK AO2 P0000 T10111028 $
14926KSTC STC20191130151512911/30/19 15:15:31  5-MIN KSTC 302115Z 08011G25KT 1SM -SN BR OVC011 M01/M03 A2956 1360 88 -200 080/11G25 RMK AO2 P0000 T10111028 $
14926KSTC STC20191130152014011/30/19 15:20:31  5-MIN KSTC 302120Z 07013G25KT 1 1/4SM -SN BR BKN009 OVC016 M01/M03 A2957 1360 88 -200 070/13G25 RMK AO2 P0000 T10111028 $
14926KSTC STC20191130152514011/30/19 15:25:31  5-MIN KSTC 302125Z 07012G20KT 1 1/2SM -SN BR BKN011 OVC019 M01/M03 A2957 1360 88 -200 070/12G20 RMK AO2 P0001 T10111028 $
14926KSTC STC20191130153014711/30/19 15:30:31  5-MIN KSTC 302130Z 07012G20KT 1 1/2SM -SN BR SCT009 BKN014 OVC019 M01/M03 A2956 1370 88 -200 070/12G20 RMK AO2 P0001 T10111028 $
14926KSTC STC20191130153514011/30/19 15:35:31  5-MIN KSTC 302135Z 06014G24KT 1 1/4SM -SN BR BKN012 OVC019 M01/M03 A2956 1370 88 -200 060/14G24 RMK AO2 P0001 T10111028 $
14926KSTC STC20191130154014011/30/19 15:40:31  5-MIN KSTC 302140Z 07011G24KT 1 1/2SM -SN BR BKN010 OVC017 M01/M03 A2956 1370 88 -200 070/11G24 RMK AO2 P0001 T10111028 $
14926KSTC STC20191130154514011/30/19 15:45:31  5-MIN KSTC 302145Z 06010G21KT 1 1/2SM -SN BR BKN010 OVC017 M01/M03 A2957 1360 88 -200 060/10G21 RMK AO2 P0001 T10111028 $
14926KSTC STC20191130155014711/30/19 15:50:31  5-MIN KSTC 302150Z 07011G21KT 1 1/4SM -SN BR BKN010 OVC017 M01/M03 A2957 1360 88 -200 070/11G21 RMK AO2 SLP032 P0001 T10111028 $
14926KSTC STC20191130155513811/30/19 15:55:31  5-MIN KSTC 302155Z 06014G21KT 3/4SM -SN BR SCT010 OVC017 M01/M03 A2956 1360 88 -200 060/14G21 RMK AO2 P0000 T10111028 $
14926KSTC STC20191130160013811/30/19 16:00:31  5-MIN KSTC 302200Z 07014G23KT 3/4SM -SN BR BKN010 OVC015 M01/M03 A2956 1360 88 -200 060/14G23 RMK AO2 P0001 T10111028 $
14926KSTC STC20191130160513111/30/19 16:05:31  5-MIN KSTC 302205Z 06011G23KT 1/2SM SN FZFG VV011 M01/M03 A2956 1360 88 -200 060/11G23 RMK AO2 P0001 T10111028 $
14926KSTC STC20191130161013111/30/19 16:10:31  5-MIN KSTC 302210Z 06012G21KT 1/2SM SN FZFG VV011 M01/M03 A2957 1360 88 -200 060/12G21 RMK AO2 P0002 T10111028 $
14926KSTC STC20191130161513811/30/19 16:15:31  5-MIN KSTC 302215Z 07010G18KT 3/4SM -SN BR BKN010 OVC013 M01/M03 A2957 1360 88 -200 060/10G18 RMK AO2 P0002 T10111028 $
14926KSTC STC20191130162013611/30/19 16:20:31  5-MIN KSTC 302220Z 06013G23KT 1SM -SN BR BKN010 OVC013 M01/M03 A2957 1360 88 -200 060/13G23 RMK AO2 P0002 T10111028 $
14926KSTC STC20191130162513811/30/19 16:25:31  5-MIN KSTC 302225Z 06011G23KT 3/4SM -SN BR BKN010 OVC013 M01/M03 A2957 1360 88 -200 060/11G23 RMK AO2 P0002 T10111028 $
14926KSTC STC20191130163013811/30/19 16:30:31  5-MIN KSTC 302230Z 06013G23KT 3/4SM -SN BR BKN010 OVC013 M01/M03 A2957 1360 88 -200 060/13G23 RMK AO2 P0002 T10111028 $
14926KSTC STC20191130163513911/30/19 16:35:31  5-MIN KSTC 302235Z 06012G25KT 1/2SM SN FZFG BKN010 OVC013 M01/M03 A2956 1370 88 -200 060/12G25 RMK AO2 P0002 T10111028 $
14926KSTC STC20191130164013911/30/19 16:40:31  5-MIN KSTC 302240Z 06011G25KT 1/4SM SN FZFG BKN010 OVC013 M02/M03 A2956 1370 92 -200 060/11G25 RMK AO2 P0003 T10171028 $
14926KSTC STC20191130164513911/30/19 16:45:31  5-MIN KSTC 302245Z 06010G22KT 1/4SM SN FZFG BKN010 OVC013 M01/M03 A2956 1370 88 -200 050/10G22 RMK AO2 P0004 T10111028 $
14926KSTC STC20191130165013911/30/19 16:50:31  5-MIN KSTC 302250Z 06011G19KT 1/2SM -SN FZFG VV009 M01/M03 A2956 1370 88 -200 060/11G19 RMK AO2 SLP030 P0004 T10111028 $
14926KSTC STC20191130165512811/30/19 16:55:31  5-MIN KSTC 302255Z 06012G21KT 1SM -SN BR VV009 M01/M03 A2956 1370 88 -200 060/12G21 RMK AO2 P0000 T10111028 $
14926KSTC STC20191130170013311/30/19 17:00:31  5-MIN KSTC 302300Z 06012G21KT 1 1/4SM -SN BR OVC011 M01/M03 A2955 1370 88 -200 060/12G21 RMK AO2 P0000 T10111028 $
14926KSTC STC20191130170513311/30/19 17:05:31  5-MIN KSTC 302305Z 06012G21KT 1 1/2SM -SN BR OVC011 M01/M03 A2955 1370 88 -200 060/12G21 RMK AO2 P0000 T10111028 $
14926KSTC STC20191130171014011/30/19 17:10:31  5-MIN KSTC 302310Z 05012G19KT 1 3/4SM -SN BR SCT011 OVC014 M01/M03 A2955 1370 88 -200 050/12G19 RMK AO2 P0000 T10111028 $
14926KSTC STC20191130171513611/30/19 17:15:31  5-MIN KSTC 302315Z 05009G19KT 2SM -SN BR SCT010 OVC018 M01/M03 A2956 1370 88 -200 050/09G19 RMK AO2 P0000 T10111028 $
14926KSTC STC20191130172014311/30/19 17:20:31  5-MIN KSTC 302320Z 05014G21KT 3SM -SN BR SCT010 BKN014 OVC018 M01/M03 A2956 1370 88 -200 050/14G21 RMK AO2 P0000 T10111028 $
14926KSTC STC20191130172513611/30/19 17:25:31  5-MIN KSTC 302325Z 05010G21KT 4SM -SN BR BKN012 OVC020 M01/M03 A2955 1370 88 -200 050/10G21 RMK AO2 P0000 T10111028 $
14926KSTC STC20191130173013611/30/19 17:30:31  5-MIN KSTC 302330Z 05013G20KT 4SM -SN BR BKN012 OVC024 M01/M03 A2956 1370 88 -200 050/13G20 RMK AO2 P0000 T10111028 $
14926KSTC STC20191130173515211/30/19 17:35:31  5-MIN KSTC 302335Z 06010G20KT 020V090 4SM -SN BR BKN011 OVC022 M01/M03 A2956 1370 88 -200 050/10G20 020V090 RMK AO2 P0001 T10111028 $
14926KSTC STC20191130174014011/30/19 17:40:31  5-MIN KSTC 302340Z 05012G21KT 2 1/2SM -SN BR BKN011 OVC018 M02/M03 A2955 1370 92 -200 050/12G21 RMK AO2 P0001 T10171028 $
14926KSTC STC20191130174513311/30/19 17:45:31  5-MIN KSTC 302345Z 06010G21KT 1 1/4SM -SN BR OVC011 M02/M03 A2955 1370 92 -200 050/10G21 RMK AO2 P0001 T10171028 $
14926KSTC STC20191130175016411/30/19 17:50:31  5-MIN KSTC 302350Z 05013G24KT 1 1/4SM -SN BR OVC011 M02/M03 A2955 1370 88 -200 050/13G24 RMK AO2 SLP028 P0001 60015 T10171033 11006 21017 56015 $
14926KSTC STC20191130175514011/30/19 17:55:31  5-MIN KSTC 302355Z 05012G24KT 1 1/4SM -SN BR SCT009 OVC013 M02/M03 A2955 1380 88 -200 050/12G24 RMK AO2 P0000 T10171033 $
14926KSTC STC20191130180014011/30/19 18:00:31  5-MIN KSTC 010000Z 05012G23KT 1 3/4SM -SN BR SCT009 OVC013 M02/M03 A2955 1380 88 -200 050/12G23 RMK AO2 P0000 T10171033 $
14926KSTC STC20191130180514011/30/19 18:05:31  5-MIN KSTC 010005Z 05013G23KT 2 1/2SM -SN BR SCT009 OVC013 M02/M03 A2955 1380 88 -200 050/13G23 RMK AO2 P0000 T10171033 $
14926KSTC STC20191130181012011/30/19 18:10:31  5-MIN KSTC 010010Z 3SM -SN BR SCT009 OVC013 M02/M03 A2955 1380 88 -200 M /M RMK AO2 P0000 T10171033 $
14926KSTC STC20191130181512011/30/19 18:15:31  5-MIN KSTC 010015Z 3SM -SN BR SCT009 OVC013 M02/M03 A2955 1380 88 -200 M /M RMK AO2 P0000 T10171033 $
14926KSTC STC20191130182013011/30/19 18:20:31  5-MIN KSTC 010020Z 05010KT 3SM -SN BR SCT009 OVC013 M02/M03 A2955 1380 88 -200 050/10 RMK AO2 P0000 T10171033 $
14926KSTC STC20191130182514011/30/19 18:25:31  5-MIN KSTC 010025Z 05012G22KT 2 1/2SM -SN BR SCT009 OVC013 M02/M03 A2954 1380 88 -200 050/12G22 RMK AO2 P0000 T10171033 $
14926KSTC STC20191130183015811/30/19 18:30:31  5-MIN KSTC 010030Z 05015G26KT 2 1/2SM -SN BR SCT009 OVC013 M02/M03 A2955 1380 88 -200 050/15G26 RMK AO2 PK WND 05026/0029 P0000 T10171033 $
14926KSTC STC20191130183515811/30/19 18:35:31  5-MIN KSTC 010035Z 05011G26KT 2 1/2SM -SN BR SCT009 OVC013 M02/M03 A2955 1380 88 -200 050/11G26 RMK AO2 PK WND 05026/0029 P0000 T10171033 $
14926KSTC STC20191130184015811/30/19 18:40:31  5-MIN KSTC 010040Z 04012G23KT 2 1/2SM -SN BR SCT009 OVC013 M02/M03 A2954 1380 88 -200 040/12G23 RMK AO2 PK WND 05026/0029 P0000 T10171033 $
14926KSTC STC20191130184515411/30/19 18:45:31  5-MIN KSTC 010045Z 05015G26KT 2SM -SN BR SCT009 OVC013 M02/M03 A2954 1380 88 -200 050/15G26 RMK AO2 PK WND 05026/0029 P0000 T10171033 $
14926KSTC STC20191130185014411/30/19 18:50:31  5-MIN KSTC 010050Z 06013G26KT 2SM -SN BR SCT013 OVC021 M02/M03 A2954 1380 88 -200 060/13G26 RMK AO2 PK WND 05026/0029 P0000 $
14926KSTC STC20191130185514711/30/19 18:55:31  5-MIN KSTC 010055Z 05012G23KT 1 3/4SM -SN BR FEW010 SCT013 OVC021 M02/M03 A2954 1390 88 -200 050/12G23 RMK AO2 P0000 T10171033 $
14926KSTC STC20191130190014011/30/19 19:00:31  5-MIN KSTC 010100Z 06010G23KT 1 3/4SM -SN BR SCT013 OVC021 M02/M03 A2954 1390 88 -200 060/10G23 RMK AO2 P0000 T10171033 $
14926KSTC STC20191130190513611/30/19 19:05:31  5-MIN KSTC 010105Z 05011G24KT 2SM -SN BR SCT012 OVC021 M02/M03 A2954 1390 88 -200 050/11G24 RMK AO2 P0000 T10171033 $
14926KSTC STC20191130191014011/30/19 19:10:31  5-MIN KSTC 010110Z 05013G24KT 2 1/2SM -SN BR SCT012 OVC022 M02/M03 A2954 1390 88 -200 050/13G24 RMK AO2 P0000 T10171033 $
14926KSTC STC20191130191515411/30/19 19:15:31  5-MIN KSTC 010115Z 06016G26KT 2SM -SN BR SCT012 OVC022 M02/M03 A2954 1390 88 -200 060/16G26 RMK AO2 PK WND 06026/0115 P0000 T10171033 $
14926KSTC STC20191130192015411/30/19 19:20:31  5-MIN KSTC 010120Z 06013G26KT 2SM -SN BR BKN012 OVC022 M02/M03 A2954 1390 88 -200 060/13G26 RMK AO2 PK WND 06026/0115 P0000 T10171033 $
14926KSTC STC20191130192515411/30/19 19:25:31  5-MIN KSTC 010125Z 05011G22KT 2SM -SN BR BKN012 OVC020 M02/M03 A2954 1390 88 -200 050/11G22 RMK AO2 PK WND 06026/0115 P0000 T10171033 $
14926KSTC STC20191130193015811/30/19 19:30:31  5-MIN KSTC 010130Z 06013G25KT 2 1/2SM -SN BR BKN012 OVC020 M02/M03 A2954 1390 88 -200 060/13G25 RMK AO2 PK WND 06026/0115 P0000 T10171033 $
14926KSTC STC20191130193515811/30/19 19:35:31  5-MIN KSTC 010135Z 05011G25KT 2 1/2SM -SN BR BKN012 OVC018 M02/M03 A2954 1390 88 -200 050/11G25 RMK AO2 PK WND 06026/0115 P0000 T10171033 $
14926KSTC STC20191130194014711/30/19 19:40:31  5-MIN KSTC 010140Z 06011G26KT 2SM -SN BR OVC015 M02/M03 A2954 1390 88 -200 050/11G26 RMK AO2 PK WND 06026/0136 P0000 T10171033 $
14926KSTC STC20191130194514711/30/19 19:45:31  5-MIN KSTC 010145Z 05012G26KT 2SM -SN BR OVC015 M02/M03 A2954 1390 88 -200 050/12G26 RMK AO2 PK WND 04026/0144 P0000 T10171033 $
14926KSTC STC20191130195013711/30/19 19:50:31  5-MIN KSTC 010150Z 05011G26KT 2SM -SN BR OVC014 M02/M03 A2953 1390 88 -200 050/11G26 RMK AO2 PK WND 04026/0144 P0000 $
14926KSTC STC20191130195512911/30/19 19:55:31  5-MIN KSTC 010155Z 05012G20KT 2SM -SN BR OVC014 M02/M03 A2953 1390 88 -200 050/12G20 RMK AO2 P0000 T10171033 $
14926KSTC STC20191130200013611/30/19 20:00:31  5-MIN KSTC 010200Z 05013G24KT 2SM -SN BR BKN014 OVC018 M02/M03 A2953 1390 88 -200 050/13G24 RMK AO2 P0000 T10171033 $
14926KSTC STC20191130200513611/30/19 20:05:31  5-MIN KSTC 010205Z 05014G25KT 2SM -SN BR BKN014 OVC020 M02/M03 A2953 1390 88 -200 050/14G25 RMK AO2 P0000 T10171033 $
14926KSTC STC20191130201013611/30/19 20:10:31  5-MIN KSTC 010210Z 05014G25KT 2SM -SN BR BKN014 OVC034 M02/M03 A2953 1390 88 -200 050/14G25 RMK AO2 P0000 T10171033 $
14926KSTC STC20191130201514711/30/19 20:15:31  5-MIN KSTC 010215Z 05014G25KT 2 1/2SM -SN BR SCT012 BKN018 OVC040 M02/M03 A2953 1390 88 -200 050/14G25 RMK AO2 P0000 T10171033 $
14926KSTC STC20191130202013611/30/19 20:20:31  5-MIN KSTC 010220Z 06013G23KT 3SM -SN BR BKN015 OVC045 M02/M03 A2953 1400 88 -200 050/13G23 RMK AO2 P0000 T10171033 $
14926KSTC STC20191130202513811/30/19 20:25:31  5-MIN KSTC 010225Z 05013G22KT 5SM BR BKN014 OVC045 M02/M03 A2953 1390 88 -200 050/13G22 RMK AO2 SNE25 P0000 T10171033 $
14926KSTC STC20191130203013511/30/19 20:30:31  5-MIN KSTC 010230Z 05012G22KT 7SM BKN015 OVC045 M02/M03 A2953 1390 88 -200 050/12G22 RMK AO2 SNE25 P0000 T10171033 $
14926KSTC STC20191130203513511/30/19 20:35:31  5-MIN KSTC 010235Z 06013G24KT 8SM BKN015 OVC045 M02/M04 A2953 1390 85 -200 050/13G24 RMK AO2 SNE25 P0000 T10171039 $
14926KSTC STC20191130204013511/30/19 20:40:31  5-MIN KSTC 010240Z 04014G24KT 8SM BKN015 OVC045 M02/M04 A2953 1390 85 -200 040/14G24 RMK AO2 SNE25 P0000 T10171039 $
14926KSTC STC20191130204514211/30/19 20:45:31  5-MIN KSTC 010245Z 05013G25KT 7SM -SN BKN015 OVC045 M02/M04 A2953 1390 85 -200 050/13G25 RMK AO2 SNE25B45 P0000 T10171039 $
14926KSTC STC20191130205017111/30/19 20:50:31  5-MIN KSTC 010250Z 05011G25KT 6SM -SN BR BKN015 BKN022 OVC043 M02/M04 A2954 1390 85 -200 050/11G25 RMK AO2 SNE25B45 SLP023 P0000 60000 T10171039 58004 $
14926KSTC STC20191130205513611/30/19 20:55:31  5-MIN KSTC 010255Z 05014G25KT 6SM -SN BR BKN015 OVC037 M02/M04 A2954 1390 85 -200 050/14G25 RMK AO2 P0000 T10171039 $
14926KSTC STC20191130210013611/30/19 21:00:31  5-MIN KSTC 010300Z 04012G25KT 4SM -SN BR BKN015 OVC037 M02/M03 A2954 1390 88 -200 040/12G25 RMK AO2 P0000 T10171033 $
14926KSTC STC20191130210513611/30/19 21:05:31  5-MIN KSTC 010305Z 05014G22KT 3SM -SN BR BKN013 OVC032 M02/M03 A2954 1390 88 -200 040/14G22 RMK AO2 P0000 T10171033 $
14926KSTC STC20191130211015811/30/19 21:10:31  5-MIN KSTC 010310Z 03013G26KT 2 1/2SM -SN BR SCT013 OVC030 M02/M03 A2954 1390 88 -200 030/13G26 RMK AO2 PK WND 04026/0306 P0000 T10171033 $
14926KSTC STC20191130211515411/30/19 21:15:31  5-MIN KSTC 010315Z 04013G26KT 2SM -SN BR SCT013 OVC028 M02/M03 A2954 1390 88 -200 040/13G26 RMK AO2 PK WND 04026/0306 P0000 T10171033 $
14926KSTC STC20191130212015411/30/19 21:20:31  5-MIN KSTC 010320Z 05011G25KT 2SM -SN BR SCT013 OVC028 M02/M03 A2954 1390 88 -200 050/11G25 RMK AO2 PK WND 04026/0306 P0000 T10171033 $
14926KSTC STC20191130212516111/30/19 21:25:31  5-MIN KSTC 010325Z 04014G22KT 2SM -SN BR FEW012 SCT017 OVC028 M02/M03 A2954 1390 88 -200 040/14G22 RMK AO2 PK WND 04026/0306 P0000 T10171033 $
14926KSTC STC20191130213016511/30/19 21:30:31  5-MIN KSTC 010330Z 05011G23KT 2 1/2SM -SN BR FEW009 SCT012 OVC025 M02/M03 A2954 1390 88 -200 050/11G23 RMK AO2 PK WND 04026/0306 P0001 T10171033 $
14926KSTC STC20191130213516111/30/19 21:35:31  5-MIN KSTC 010335Z 05011G25KT 3SM -SN BR SCT012 BKN018 OVC025 M02/M03 A2954 1390 88 -200 050/11G25 RMK AO2 PK WND 04026/0306 P0001 T10171033 $
14926KSTC STC20191130214016111/30/19 21:40:31  5-MIN KSTC 010340Z 05011G25KT 4SM -SN BR BKN012 BKN021 OVC027 M02/M03 A2953 1390 88 -200 050/11G25 RMK AO2 PK WND 04026/0306 P0001 T10171033 $
14926KSTC STC20191130214515411/30/19 21:45:31  5-MIN KSTC 010345Z 04011G22KT 4SM -SN BR BKN012 OVC021 M02/M03 A2953 1390 88 -200 040/11G22 RMK AO2 PK WND 04026/0306 P0001 T10171033 $
14926KSTC STC20191130215016111/30/19 21:50:31  5-MIN KSTC 010350Z 05012G22KT 3SM -SN BR BKN012 OVC021 M02/M03 A2953 1390 88 -200 050/12G22 RMK AO2 PK WND 04026/0306 SLP021 P0001 T10171033 $
14926KSTC STC20191130215513611/30/19 21:55:31  5-MIN KSTC 010355Z 04011G21KT 3SM -SN BR BKN012 OVC019 M02/M03 A2953 1400 88 -200 040/11G21 RMK AO2 P0000 T10171033 $
